{"type":"Feature","properties":{"id":"254341","COMMUNE":"Na h-Eileanan Siar (Western Isles)","PROVINCE":"Na h-Eileanan Siar (Western Isles)","COUNTRY":"UK","FIREDATE":"2025-02-10 12:27:00","FINALDATE":"2025-02-10 12:27:00","CLASS":"FireSeason","areaHA_geo":0.477},"geometry":{"type":"Polygon","coordinates":[[[-6.44633,58.031538],[-6.44639,58.031483],[-6.446341,58.031411],[-6.446183,58.031321],[-6.445915,58.031213],[-6.445698,58.031095],[-6.445532,58.030964],[-6.445415,58.030822],[-6.445348,58.030669],[-6.445258,58.030562],[-6.445145,58.030504],[-6.445007,58.030493],[-6.444847,58.030529],[-6.444742,58.030586],[-6.444693,58.030662],[-6.4447,58.030759],[-6.444762,58.030875],[-6.444875,58.030999],[-6.445038,58.03113],[-6.44525,58.031268],[-6.445513,58.031414],[-6.445752,58.031514],[-6.445968,58.031568],[-6.446161,58.031576],[-6.44633,58.031538]]]}}