{"type":"Feature","properties":{"id":"254348","COMMUNE":"Na h-Eileanan Siar (Western Isles)","PROVINCE":"Na h-Eileanan Siar (Western Isles)","COUNTRY":"UK","FIREDATE":"2025-02-07 12:38:00","CLASS":"FireSeason","areaHA_geo":1.626},"geometry":{"type":"Polygon","coordinates":[[[-6.517987,58.109859],[-6.518182,58.109872],[-6.518289,58.109851],[-6.518307,58.109796],[-6.518236,58.109707],[-6.518177,58.109613],[-6.518129,58.109517],[-6.518092,58.109416],[-6.518067,58.109312],[-6.518027,58.109195],[-6.517972,58.109065],[-6.517903,58.108923],[-6.517819,58.108767],[-6.51776,58.108634],[-6.517726,58.108524],[-6.517717,58.108435],[-6.517732,58.108368],[-6.517723,58.108305],[-6.517689,58.108245],[-6.517631,58.108188],[-6.517547,58.108134],[-6.517487,58.108076],[-6.51745,58.108015],[-6.517436,58.10795],[-6.517444,58.107881],[-6.517423,58.107816],[-6.51737,58.107753],[-6.517287,58.107694],[-6.517174,58.107637],[-6.517067,58.107606],[-6.516968,58.1076],[-6.516877,58.107619],[-6.516793,58.107663],[-6.516734,58.107707],[-6.516702,58.107749],[-6.516695,58.107791],[-6.516714,58.107831],[-6.516747,58.107866],[-6.516795,58.107893],[-6.516857,58.107915],[-6.516934,58.10793],[-6.516975,58.107967],[-6.51698,58.108028],[-6.516949,58.108112],[-6.516883,58.108218],[-6.51681,58.108315],[-6.516731,58.108402],[-6.516645,58.108478],[-6.516554,58.108545],[-6.516486,58.108612],[-6.516442,58.108679],[-6.516421,58.108746],[-6.516423,58.108813],[-6.516416,58.108895],[-6.5164,58.108992],[-6.516375,58.109104],[-6.516341,58.109231],[-6.516343,58.10934],[-6.516379,58.109431],[-6.51645,58.109503],[-6.516557,58.109557],[-6.516659,58.109586],[-6.516757,58.109589],[-6.51685,58.109567],[-6.516938,58.109519],[-6.517017,58.109501],[-6.517087,58.109514],[-6.517148,58.109557],[-6.5172,58.109631],[-6.517309,58.109697],[-6.517477,58.109758],[-6.517703,58.109812],[-6.517987,58.109859]]]}}