{"type":"Feature","properties":{"id":"254349","COMMUNE":"Gwynedd","PROVINCE":"Gwynedd","COUNTRY":"UK","FIREDATE":"2025-02-10 12:27:00","FINALDATE":"2025-02-10 12:27:00","CLASS":"FireSeason","areaHA_geo":6.931},"geometry":{"type":"Polygon","coordinates":[[[-4.534575,52.788173],[-4.534461,52.788106],[-4.534392,52.788044],[-4.534237,52.787928],[-4.533995,52.787757],[-4.533777,52.78761],[-4.533581,52.787488],[-4.533408,52.78739],[-4.533258,52.787317],[-4.53313,52.787268],[-4.533025,52.787244],[-4.532944,52.787244],[-4.532884,52.787269],[-4.53284,52.787296],[-4.532809,52.787324],[-4.532794,52.787354],[-4.532792,52.787387],[-4.532806,52.787421],[-4.532834,52.787456],[-4.532876,52.787494],[-4.532933,52.787534],[-4.53297,52.787576],[-4.532987,52.78762],[-4.532985,52.787667],[-4.532963,52.787716],[-4.532921,52.787768],[-4.53286,52.787822],[-4.532779,52.787878],[-4.532678,52.787937],[-4.532593,52.788005],[-4.532524,52.788082],[-4.53247,52.788168],[-4.532432,52.788263],[-4.53241,52.788366],[-4.532404,52.788479],[-4.532413,52.788601],[-4.532438,52.788732],[-4.532447,52.788846],[-4.532441,52.788942],[-4.53242,52.789022],[-4.532383,52.789085],[-4.532331,52.78913],[-4.532264,52.789159],[-4.532181,52.789171],[-4.532082,52.789165],[-4.531983,52.789164],[-4.531883,52.789167],[-4.531781,52.789174],[-4.531679,52.789185],[-4.531575,52.7892],[-4.531471,52.78922],[-4.531365,52.789243],[-4.531259,52.789271],[-4.531169,52.789302],[-4.531097,52.789337],[-4.531041,52.789376],[-4.531002,52.789419],[-4.53098,52.789465],[-4.530976,52.789515],[-4.530988,52.789569],[-4.531017,52.789626],[-4.531033,52.78968],[-4.531038,52.789732],[-4.531029,52.78978],[-4.531008,52.789824],[-4.530974,52.789866],[-4.530928,52.789904],[-4.530869,52.78994],[-4.530798,52.789972],[-4.530743,52.790002],[-4.530703,52.790032],[-4.53068,52.79006],[-4.530672,52.790087],[-4.53068,52.790113],[-4.530704,52.790138],[-4.530744,52.790161],[-4.5308,52.790184],[-4.530869,52.790199],[-4.53095,52.790207],[-4.531044,52.790208],[-4.53115,52.790202],[-4.531247,52.790193],[-4.531333,52.79018],[-4.531465,52.790192],[-4.531642,52.79023],[-4.531857,52.790214],[-4.532112,52.790145],[-4.532295,52.79009],[-4.532407,52.79005],[-4.532458,52.790095],[-4.532449,52.790226],[-4.532637,52.790357],[-4.533022,52.790488],[-4.533324,52.790586],[-4.533544,52.790651],[-4.533727,52.790661],[-4.533873,52.790616],[-4.534036,52.790593],[-4.534215,52.790593],[-4.534356,52.790559],[-4.534459,52.790492],[-4.534566,52.790436],[-4.534676,52.79039],[-4.534703,52.790284],[-4.534646,52.790118],[-4.534716,52.790018],[-4.53491,52.789983],[-4.535032,52.789957],[-4.53508,52.78994],[-4.535054,52.789876],[-4.534953,52.789764],[-4.534854,52.789644],[-4.534756,52.789515],[-4.534763,52.789428],[-4.534873,52.789382],[-4.534983,52.78939],[-4.535094,52.789452],[-4.535238,52.78948],[-4.535416,52.789475],[-4.53543,52.78953],[-4.535281,52.789646],[-4.53529,52.789715],[-4.53546,52.789737],[-4.53561,52.789756],[-4.535741,52.789773],[-4.535868,52.789779],[-4.535993,52.789774],[-4.536091,52.789733],[-4.536163,52.789653],[-4.53613,52.78953],[-4.535993,52.789363],[-4.535893,52.789227],[-4.53583,52.789121],[-4.535791,52.789021],[-4.535777,52.788925],[-4.535738,52.788822],[-4.535673,52.788711],[-4.535541,52.788611],[-4.53534,52.788522],[-4.535133,52.788428],[-4.534921,52.78833],[-4.534735,52.788245],[-4.534575,52.788173]]]}}