{"type":"Feature","properties":{"id":"254347","COMMUNE":"Na h-Eileanan Siar (Western Isles)","PROVINCE":"Na h-Eileanan Siar (Western Isles)","COUNTRY":"UK","FIREDATE":"2025-02-07 12:38:00","FINALDATE":"2025-02-07 12:38:00","CLASS":"FireSeason","areaHA_geo":2.004},"geometry":{"type":"Polygon","coordinates":[[[-6.521286,58.10991],[-6.521455,58.109952],[-6.521584,58.10996],[-6.521673,58.109935],[-6.521721,58.109877],[-6.521745,58.109815],[-6.521743,58.109749],[-6.521717,58.10968],[-6.521665,58.109606],[-6.521547,58.109533],[-6.521361,58.109459],[-6.521108,58.109386],[-6.520789,58.109312],[-6.520538,58.109221],[-6.520356,58.109112],[-6.520243,58.108985],[-6.520199,58.10884],[-6.520136,58.108673],[-6.520053,58.108483],[-6.519952,58.108272],[-6.519832,58.108038],[-6.519709,58.107825],[-6.519584,58.107632],[-6.519457,58.107459],[-6.519328,58.107307],[-6.51919,58.107204],[-6.519043,58.107152],[-6.518888,58.10715],[-6.518724,58.107198],[-6.518589,58.107254],[-6.518482,58.107318],[-6.518403,58.10739],[-6.518353,58.10747],[-6.518335,58.107538],[-6.51835,58.107595],[-6.518397,58.107639],[-6.518476,58.107672],[-6.518556,58.107686],[-6.518635,58.107681],[-6.518714,58.107657],[-6.518792,58.107613],[-6.518857,58.107606],[-6.518908,58.107634],[-6.518946,58.1077],[-6.51897,58.107801],[-6.519007,58.107899],[-6.519057,58.107994],[-6.51912,58.108086],[-6.519196,58.108175],[-6.519236,58.108272],[-6.519238,58.108377],[-6.519204,58.108491],[-6.519133,58.108614],[-6.519082,58.108728],[-6.519049,58.108833],[-6.519036,58.10893],[-6.519042,58.109018],[-6.519085,58.109125],[-6.519163,58.10925],[-6.519278,58.109394],[-6.519429,58.109556],[-6.519612,58.109673],[-6.519826,58.109744],[-6.520071,58.10977],[-6.520347,58.109751],[-6.520607,58.109755],[-6.52085,58.109783],[-6.521076,58.109835],[-6.521286,58.10991]]]}}