{"type":"Feature","properties":{"id":"256613","COMMUNE":"Cornwall","PROVINCE":"Cornwall and Isles of Scilly","COUNTRY":"UK","FIREDATE":"2025-02-12 13:29:00","FINALDATE":"2025-02-12 13:29:00","CLASS":"FireSeason","areaHA_geo":1.008},"geometry":{"type":"Polygon","coordinates":[[[-5.196439,50.039782],[-5.196535,50.039844],[-5.196689,50.039871],[-5.196901,50.039862],[-5.19717,50.039817],[-5.197382,50.039752],[-5.197537,50.039666],[-5.197634,50.03956],[-5.197674,50.039433],[-5.19774,50.039318],[-5.197832,50.039215],[-5.197949,50.039124],[-5.198092,50.039044],[-5.198188,50.038973],[-5.198235,50.03891],[-5.198234,50.038856],[-5.198186,50.038811],[-5.198088,50.038774],[-5.19794,50.038747],[-5.197743,50.038728],[-5.197497,50.038718],[-5.197263,50.038763],[-5.197041,50.038862],[-5.196833,50.039015],[-5.196637,50.039223],[-5.196499,50.039404],[-5.19642,50.039557],[-5.1964,50.039683],[-5.196439,50.039782]]]}}