{"type":"Feature","properties":{"id":"256609","COMMUNE":"Cornwall","PROVINCE":"Cornwall and Isles of Scilly","COUNTRY":"UK","FIREDATE":"2025-02-12 12:40:00","CLASS":"FireSeason","areaHA_geo":2.626},"geometry":{"type":"Polygon","coordinates":[[[-5.18986,50.045772],[-5.18999,50.045754],[-5.190095,50.045715],[-5.190177,50.045655],[-5.190235,50.045572],[-5.190269,50.045468],[-5.190346,50.04538],[-5.190468,50.045307],[-5.190634,50.04525],[-5.190844,50.045209],[-5.191037,50.045154],[-5.191214,50.045084],[-5.191375,50.045001],[-5.191519,50.044904],[-5.191587,50.044795],[-5.191578,50.044675],[-5.191493,50.044544],[-5.191332,50.044401],[-5.191135,50.044314],[-5.190901,50.04428],[-5.190631,50.044302],[-5.190324,50.044378],[-5.19007,50.044433],[-5.189868,50.044466],[-5.189718,50.044479],[-5.189621,50.044471],[-5.189509,50.044479],[-5.189382,50.044505],[-5.18924,50.044548],[-5.189084,50.044608],[-5.188968,50.044673],[-5.188893,50.044744],[-5.188859,50.04482],[-5.188865,50.044901],[-5.188835,50.044941],[-5.18877,50.044939],[-5.18867,50.044895],[-5.188534,50.04481],[-5.188389,50.044753],[-5.188234,50.044724],[-5.18807,50.044723],[-5.187897,50.044751],[-5.18781,50.044821],[-5.187809,50.044934],[-5.187895,50.045088],[-5.188067,50.045286],[-5.188252,50.045429],[-5.18845,50.045519],[-5.188661,50.045556],[-5.188885,50.045538],[-5.189081,50.045543],[-5.189249,50.04557],[-5.189388,50.04562],[-5.189499,50.045691],[-5.189615,50.04574],[-5.189735,50.045767],[-5.18986,50.045772]]]}}