{"type":"Feature","properties":{"id":"256630","COMMUNE":"Inverness and Nairn","PROVINCE":"Inverness & Nairn and Moray, Badenoch & Strathspey","COUNTRY":"UK","FIREDATE":"2025-02-13 11:48:09.454","CLASS":"FireSeason","areaHA_geo":2.618},"geometry":{"type":"Polygon","coordinates":[[[-4.396732,57.234506],[-4.396633,57.234417],[-4.396518,57.234355],[-4.396387,57.234319],[-4.396239,57.23431],[-4.396076,57.234328],[-4.39588,57.23431],[-4.395652,57.234254],[-4.395391,57.234162],[-4.395099,57.234033],[-4.394811,57.233942],[-4.394528,57.233891],[-4.394249,57.233879],[-4.393975,57.233905],[-4.393747,57.233915],[-4.393567,57.233908],[-4.393433,57.233884],[-4.393346,57.233844],[-4.393255,57.233794],[-4.393161,57.233736],[-4.393064,57.233668],[-4.392962,57.23359],[-4.392886,57.233509],[-4.392835,57.233425],[-4.39281,57.233336],[-4.392809,57.233244],[-4.392781,57.233149],[-4.392725,57.233051],[-4.392641,57.232951],[-4.39253,57.232848],[-4.39241,57.232769],[-4.392282,57.232714],[-4.392145,57.232683],[-4.392,57.232676],[-4.391893,57.232684],[-4.391824,57.232707],[-4.391792,57.232745],[-4.391799,57.232798],[-4.391833,57.232855],[-4.391896,57.232915],[-4.391987,57.232979],[-4.392106,57.233047],[-4.392189,57.233106],[-4.392238,57.233156],[-4.39225,57.233198],[-4.392228,57.233231],[-4.392183,57.233254],[-4.392117,57.233267],[-4.39203,57.23327],[-4.39192,57.233263],[-4.391802,57.233243],[-4.391675,57.233209],[-4.391539,57.233161],[-4.391394,57.2331],[-4.391273,57.233046],[-4.391176,57.232997],[-4.391102,57.232954],[-4.391052,57.232917],[-4.391015,57.232914],[-4.390992,57.232946],[-4.390982,57.233011],[-4.390985,57.233111],[-4.391002,57.2332],[-4.391032,57.233277],[-4.391076,57.233343],[-4.391133,57.233399],[-4.391228,57.23344],[-4.39136,57.233468],[-4.391529,57.233482],[-4.391735,57.233482],[-4.391916,57.233484],[-4.39207,57.233488],[-4.392199,57.233494],[-4.392302,57.233502],[-4.392372,57.233519],[-4.392411,57.233546],[-4.392418,57.233581],[-4.392393,57.233626],[-4.392373,57.233667],[-4.392359,57.233703],[-4.39235,57.233735],[-4.392346,57.233762],[-4.392369,57.233798],[-4.392419,57.233843],[-4.392495,57.233896],[-4.392597,57.233958],[-4.392717,57.234022],[-4.392853,57.23409],[-4.393007,57.23416],[-4.393178,57.234234],[-4.3933,57.234315],[-4.393374,57.234403],[-4.393399,57.234498],[-4.393375,57.234601],[-4.393419,57.234715],[-4.393533,57.234841],[-4.393714,57.234978],[-4.393965,57.235128],[-4.394152,57.235224],[-4.394276,57.235268],[-4.394337,57.23526],[-4.394334,57.235198],[-4.394324,57.235127],[-4.394307,57.235046],[-4.394282,57.234956],[-4.39425,57.234856],[-4.394252,57.234771],[-4.394289,57.234701],[-4.394361,57.234647],[-4.394467,57.234609],[-4.394602,57.234592],[-4.394768,57.234596],[-4.394963,57.234623],[-4.395188,57.234671],[-4.395416,57.234738],[-4.395645,57.234824],[-4.395876,57.234929],[-4.39611,57.235054],[-4.39628,57.235111],[-4.396386,57.235101],[-4.396429,57.235024],[-4.396409,57.23488],[-4.396424,57.234771],[-4.396477,57.234696],[-4.396566,57.234655],[-4.396692,57.234649],[-4.396761,57.234622],[-4.396775,57.234574],[-4.396732,57.234506]]]}}