{"type":"Feature","properties":{"id":"256614","COMMUNE":"Cornwall","PROVINCE":"Cornwall and Isles of Scilly","COUNTRY":"UK","FIREDATE":"2025-02-12 13:29:00","CLASS":"FireSeason","areaHA_geo":2.935},"geometry":{"type":"Polygon","coordinates":[[[-5.200131,50.039704],[-5.200207,50.039844],[-5.200326,50.03996],[-5.200487,50.040052],[-5.200692,50.040119],[-5.200894,50.040164],[-5.201094,50.040187],[-5.201292,50.040187],[-5.201487,50.040165],[-5.201725,50.040105],[-5.202004,50.040007],[-5.202325,50.03987],[-5.202687,50.039696],[-5.202905,50.039554],[-5.202977,50.039445],[-5.202905,50.039368],[-5.202688,50.039324],[-5.20248,50.03928],[-5.202279,50.039235],[-5.202087,50.039191],[-5.201904,50.039147],[-5.201769,50.039099],[-5.201681,50.039048],[-5.201642,50.038994],[-5.20165,50.038937],[-5.201642,50.038876],[-5.201618,50.038813],[-5.201578,50.038746],[-5.201521,50.038675],[-5.201442,50.038618],[-5.20134,50.038573],[-5.201215,50.038542],[-5.201066,50.038523],[-5.20098,50.038489],[-5.200954,50.038441],[-5.200989,50.038378],[-5.201085,50.0383],[-5.201149,50.03823],[-5.201179,50.038167],[-5.201177,50.038112],[-5.201141,50.038065],[-5.201038,50.038071],[-5.200868,50.038128],[-5.200629,50.038238],[-5.200324,50.038401],[-5.200075,50.03855],[-5.199883,50.038686],[-5.199747,50.038809],[-5.199668,50.03892],[-5.199639,50.039015],[-5.199662,50.039096],[-5.199736,50.039163],[-5.199861,50.039215],[-5.199963,50.039296],[-5.200043,50.039404],[-5.200098,50.03954],[-5.200131,50.039704]]]}}