{"type":"Feature","properties":{"id":"256628","COMMUNE":"Inverness and Nairn","PROVINCE":"Inverness & Nairn and Moray, Badenoch & Strathspey","COUNTRY":"UK","FIREDATE":"2025-02-17 11:57:00","FINALDATE":"2025-02-17 11:57:00","CLASS":"FireSeason","areaHA_geo":0.289},"geometry":{"type":"Polygon","coordinates":[[[-3.924657,57.423917],[-3.924854,57.423964],[-3.924972,57.423961],[-3.925011,57.423909],[-3.924972,57.423806],[-3.924948,57.423702],[-3.924939,57.423596],[-3.924945,57.423488],[-3.924966,57.423379],[-3.924967,57.423293],[-3.924949,57.42323],[-3.924911,57.42319],[-3.924854,57.423173],[-3.924761,57.423194],[-3.924632,57.423251],[-3.924468,57.423345],[-3.924268,57.423476],[-3.924187,57.423599],[-3.924225,57.423713],[-3.924381,57.423819],[-3.924657,57.423917]]]}}