{"type":"Feature","properties":{"id":"256620","COMMUNE":"Cornwall","PROVINCE":"Cornwall and Isles of Scilly","COUNTRY":"UK","FIREDATE":"2025-02-12 13:29:00","CLASS":"FireSeason","areaHA_geo":1.98},"geometry":{"type":"Polygon","coordinates":[[[-5.224568,49.977371],[-5.224797,49.977241],[-5.225007,49.977109],[-5.225199,49.976977],[-5.225374,49.976845],[-5.225531,49.976711],[-5.225637,49.976598],[-5.225692,49.976506],[-5.225697,49.976434],[-5.22565,49.976383],[-5.225638,49.976343],[-5.225662,49.976316],[-5.225721,49.976301],[-5.225815,49.976298],[-5.225901,49.976279],[-5.225977,49.976244],[-5.226045,49.976194],[-5.226103,49.976129],[-5.226138,49.976066],[-5.226149,49.976007],[-5.226136,49.975951],[-5.226099,49.975898],[-5.226057,49.975858],[-5.22601,49.975829],[-5.225958,49.975812],[-5.225901,49.975807],[-5.225859,49.975819],[-5.225831,49.975848],[-5.225817,49.975895],[-5.225818,49.975959],[-5.225796,49.976009],[-5.22575,49.976046],[-5.225681,49.976069],[-5.225589,49.976078],[-5.225513,49.976072],[-5.225453,49.976049],[-5.225409,49.976011],[-5.225382,49.975957],[-5.225325,49.975924],[-5.225238,49.975912],[-5.225122,49.97592],[-5.224976,49.97595],[-5.22479,49.976004],[-5.224563,49.976083],[-5.224295,49.976186],[-5.223986,49.976315],[-5.223747,49.976439],[-5.223578,49.97656],[-5.22348,49.976677],[-5.223451,49.97679],[-5.223424,49.97689],[-5.223397,49.976977],[-5.223371,49.977051],[-5.223345,49.977112],[-5.223357,49.977164],[-5.223406,49.977207],[-5.223492,49.977241],[-5.223616,49.977266],[-5.223735,49.977301],[-5.22385,49.977346],[-5.22396,49.977402],[-5.224067,49.977468],[-5.224203,49.977484],[-5.224371,49.977452],[-5.224568,49.977371]]]}}