{"type":"Feature","properties":{"id":"256618","COMMUNE":"Cornwall","PROVINCE":"Cornwall and Isles of Scilly","COUNTRY":"UK","FIREDATE":"2025-02-12 13:05:00","CLASS":"FireSeason","areaHA_geo":0.498},"geometry":{"type":"Polygon","coordinates":[[[-5.233137,49.980596],[-5.233284,49.98071],[-5.233425,49.980756],[-5.233558,49.980736],[-5.233685,49.980648],[-5.233763,49.980547],[-5.233794,49.980432],[-5.233776,49.980304],[-5.23371,49.980162],[-5.233637,49.980052],[-5.233557,49.979975],[-5.233469,49.97993],[-5.233375,49.979917],[-5.233302,49.979889],[-5.23325,49.979844],[-5.233219,49.979784],[-5.23321,49.979709],[-5.233175,49.979686],[-5.233115,49.979717],[-5.233029,49.979801],[-5.232919,49.979937],[-5.232874,49.980085],[-5.232895,49.980244],[-5.232983,49.980414],[-5.233137,49.980596]]]}}