{"type":"Feature","properties":{"id":"256612","COMMUNE":"Cornwall","PROVINCE":"Cornwall and Isles of Scilly","COUNTRY":"UK","FIREDATE":"2025-02-12 12:40:00","CLASS":"FireSeason","areaHA_geo":1.093},"geometry":{"type":"Polygon","coordinates":[[[-5.193927,50.041803],[-5.19422,50.041789],[-5.194478,50.041766],[-5.194701,50.041734],[-5.194889,50.041692],[-5.195041,50.041642],[-5.195156,50.041584],[-5.195233,50.041519],[-5.195272,50.041448],[-5.195274,50.04137],[-5.195242,50.041277],[-5.195177,50.041169],[-5.195078,50.041046],[-5.194946,50.040909],[-5.194778,50.040819],[-5.194575,50.040777],[-5.194337,50.040783],[-5.194064,50.040838],[-5.193849,50.040935],[-5.193691,50.041075],[-5.193592,50.041258],[-5.19355,50.041484],[-5.193592,50.04165],[-5.193718,50.041757],[-5.193927,50.041803]]]}}