{"type":"Feature","properties":{"id":"256619","COMMUNE":"Cornwall","PROVINCE":"Cornwall and Isles of Scilly","COUNTRY":"UK","FIREDATE":"2025-02-12 13:05:00","FINALDATE":"2025-02-12 13:29:00","CLASS":"FireSeason","areaHA_geo":0.278},"geometry":{"type":"Polygon","coordinates":[[[-5.232347,49.97779],[-5.232411,49.977815],[-5.232505,49.977814],[-5.232631,49.977785],[-5.232788,49.977728],[-5.232875,49.977664],[-5.232891,49.977591],[-5.232837,49.97751],[-5.232713,49.977421],[-5.232574,49.977362],[-5.23242,49.977333],[-5.23225,49.977335],[-5.232065,49.977366],[-5.231925,49.977401],[-5.231829,49.97744],[-5.231779,49.977482],[-5.231774,49.977527],[-5.231801,49.977565],[-5.231861,49.977596],[-5.231954,49.977618],[-5.232079,49.977634],[-5.232181,49.977658],[-5.232259,49.977692],[-5.232315,49.977736],[-5.232347,49.97779]]]}}