{"type":"Feature","properties":{"id":"256627","COMMUNE":"Inverness and Nairn","PROVINCE":"Inverness & Nairn and Moray, Badenoch & Strathspey","COUNTRY":"UK","FIREDATE":"2025-02-17 12:50:00","CLASS":"FireSeason","areaHA_geo":0.194},"geometry":{"type":"Polygon","coordinates":[[[-3.838882,57.424156],[-3.838863,57.424173],[-3.838866,57.424189],[-3.838892,57.424205],[-3.838941,57.42422],[-3.839,57.424214],[-3.839069,57.424189],[-3.839149,57.424143],[-3.839239,57.424077],[-3.83931,57.424004],[-3.839365,57.423926],[-3.839401,57.423842],[-3.83942,57.423751],[-3.839425,57.42367],[-3.839416,57.423598],[-3.839394,57.423536],[-3.839359,57.423483],[-3.839314,57.423446],[-3.839261,57.423424],[-3.839199,57.423417],[-3.839128,57.423427],[-3.839062,57.423457],[-3.839,57.423507],[-3.838944,57.423579],[-3.838892,57.423671],[-3.83887,57.423744],[-3.838879,57.423797],[-3.838919,57.423831],[-3.83899,57.423845],[-3.839036,57.423871],[-3.839058,57.423909],[-3.839056,57.423958],[-3.839029,57.424019],[-3.838999,57.42407],[-3.838964,57.424109],[-3.838925,57.424138],[-3.838882,57.424156]]]}}