{"type":"Feature","properties":{"id":"256632","COMMUNE":"Ross and Cromarty","PROVINCE":"Caithness & Sutherland and Ross & Cromarty","COUNTRY":"UK","FIREDATE":"2025-02-14 01:21:00","CLASS":"FireSeason","areaHA_geo":90.116},"geometry":{"type":"Polygon","coordinates":[[[-5.820568,57.736388],[-5.820835,57.736271],[-5.821012,57.736163],[-5.8211,57.736065],[-5.821098,57.735976],[-5.821006,57.735896],[-5.820877,57.735836],[-5.820712,57.735796],[-5.820509,57.735775],[-5.82027,57.735773],[-5.820069,57.735754],[-5.819904,57.735716],[-5.819778,57.73566],[-5.819688,57.735586],[-5.81964,57.735527],[-5.819631,57.735483],[-5.819664,57.735453],[-5.819737,57.735438],[-5.819781,57.735396],[-5.819796,57.735328],[-5.819783,57.735233],[-5.819741,57.735111],[-5.819687,57.734995],[-5.819622,57.734885],[-5.819545,57.73478],[-5.819456,57.734682],[-5.819389,57.734595],[-5.819344,57.734519],[-5.819321,57.734453],[-5.81932,57.734399],[-5.819265,57.734344],[-5.819155,57.734287],[-5.818991,57.73423],[-5.818772,57.734171],[-5.818666,57.734112],[-5.818673,57.73405],[-5.818793,57.733987],[-5.819026,57.733923],[-5.819194,57.733859],[-5.819297,57.733795],[-5.819334,57.733731],[-5.819306,57.733668],[-5.819263,57.733622],[-5.819205,57.733593],[-5.819131,57.73358],[-5.819043,57.733585],[-5.818984,57.733568],[-5.818955,57.733529],[-5.818957,57.733468],[-5.818989,57.733386],[-5.819057,57.73334],[-5.819161,57.73333],[-5.8193,57.733357],[-5.819476,57.733421],[-5.819635,57.733492],[-5.819778,57.733572],[-5.819904,57.73366],[-5.820015,57.733755],[-5.820123,57.733807],[-5.820228,57.733816],[-5.820332,57.733781],[-5.820434,57.733702],[-5.820475,57.733615],[-5.820457,57.73352],[-5.820378,57.733418],[-5.820238,57.733308],[-5.820093,57.733209],[-5.819941,57.733121],[-5.819782,57.733045],[-5.819617,57.73298],[-5.819475,57.73292],[-5.819354,57.732865],[-5.819255,57.732815],[-5.819179,57.73277],[-5.819076,57.732725],[-5.818949,57.732679],[-5.818796,57.732634],[-5.818617,57.732589],[-5.818554,57.732562],[-5.818606,57.732553],[-5.818775,57.732561],[-5.819059,57.732588],[-5.819277,57.732585],[-5.819428,57.732555],[-5.819513,57.732496],[-5.819532,57.732409],[-5.819546,57.732319],[-5.819555,57.732224],[-5.81956,57.732125],[-5.81956,57.732022],[-5.819517,57.73193],[-5.819431,57.73185],[-5.819301,57.731781],[-5.819128,57.731723],[-5.818949,57.731678],[-5.818765,57.731646],[-5.818574,57.731626],[-5.818378,57.73162],[-5.818238,57.731584],[-5.818152,57.731518],[-5.818122,57.731424],[-5.818147,57.731299],[-5.818131,57.731205],[-5.818074,57.731139],[-5.817975,57.731102],[-5.817836,57.731095],[-5.817719,57.731107],[-5.817626,57.73114],[-5.817555,57.731192],[-5.817507,57.731265],[-5.817443,57.731307],[-5.817364,57.73132],[-5.817268,57.731303],[-5.817157,57.731256],[-5.817001,57.731244],[-5.816802,57.731268],[-5.816558,57.731328],[-5.816271,57.731423],[-5.815993,57.731514],[-5.815724,57.731601],[-5.815465,57.731683],[-5.815216,57.731762],[-5.814979,57.731818],[-5.814755,57.731851],[-5.814544,57.731861],[-5.814345,57.731849],[-5.814159,57.731832],[-5.813985,57.731811],[-5.813823,57.731785],[-5.813673,57.731754],[-5.813539,57.731719],[-5.813419,57.731679],[-5.813314,57.731634],[-5.813224,57.731585],[-5.813128,57.731483],[-5.813027,57.731328],[-5.812919,57.731122],[-5.812805,57.730863],[-5.812684,57.730651],[-5.812554,57.730485],[-5.812417,57.730366],[-5.812271,57.730292],[-5.81215,57.730216],[-5.812052,57.730137],[-5.81198,57.730055],[-5.811931,57.72997],[-5.811826,57.729912],[-5.811664,57.72988],[-5.811446,57.729874],[-5.811171,57.729895],[-5.810921,57.72988],[-5.810694,57.729829],[-5.810491,57.729741],[-5.810311,57.729618],[-5.810181,57.729502],[-5.8101,57.729394],[-5.810067,57.729293],[-5.810083,57.729201],[-5.810073,57.729113],[-5.810036,57.729029],[-5.809973,57.728951],[-5.809884,57.728877],[-5.809742,57.728832],[-5.809548,57.728816],[-5.809301,57.728829],[-5.809001,57.728871],[-5.808703,57.728889],[-5.808405,57.728882],[-5.808107,57.728852],[-5.807811,57.728797],[-5.807564,57.728739],[-5.807367,57.728678],[-5.807219,57.728614],[-5.807122,57.728547],[-5.807017,57.728534],[-5.806904,57.728575],[-5.806784,57.728669],[-5.806656,57.728818],[-5.806489,57.728942],[-5.806283,57.729043],[-5.806039,57.729119],[-5.805755,57.729172],[-5.805512,57.729213],[-5.80531,57.729243],[-5.805148,57.729263],[-5.805027,57.729271],[-5.804885,57.729305],[-5.804724,57.729364],[-5.804542,57.729448],[-5.80434,57.729557],[-5.804156,57.729637],[-5.803991,57.729687],[-5.803844,57.729707],[-5.803715,57.729699],[-5.803637,57.729675],[-5.803608,57.729636],[-5.80363,57.729582],[-5.803702,57.729513],[-5.803737,57.729431],[-5.803736,57.729338],[-5.803698,57.729232],[-5.803623,57.729114],[-5.803532,57.729016],[-5.803424,57.728938],[-5.8033,57.72888],[-5.803158,57.728843],[-5.802968,57.728816],[-5.802728,57.7288],[-5.802438,57.728794],[-5.8021,57.728798],[-5.801808,57.728807],[-5.801565,57.728822],[-5.801369,57.728841],[-5.80122,57.728865],[-5.801036,57.728852],[-5.800816,57.728803],[-5.80056,57.728717],[-5.800268,57.728595],[-5.800013,57.728538],[-5.799795,57.728546],[-5.799614,57.728619],[-5.79947,57.728758],[-5.799355,57.72889],[-5.799268,57.729015],[-5.799209,57.729134],[-5.799179,57.729247],[-5.799161,57.729341],[-5.799155,57.729418],[-5.79916,57.729476],[-5.799178,57.729516],[-5.799162,57.729538],[-5.799112,57.729541],[-5.799029,57.729525],[-5.798911,57.729491],[-5.798743,57.729495],[-5.798523,57.729536],[-5.798251,57.729616],[-5.797928,57.729733],[-5.797703,57.729854],[-5.797575,57.729979],[-5.797546,57.730106],[-5.797615,57.730237],[-5.797631,57.730339],[-5.797596,57.730413],[-5.797508,57.730459],[-5.797367,57.730476],[-5.797255,57.730465],[-5.79717,57.730427],[-5.797113,57.730361],[-5.797083,57.730268],[-5.797039,57.730211],[-5.796979,57.730191],[-5.796904,57.730208],[-5.796813,57.730261],[-5.796718,57.730348],[-5.796618,57.730469],[-5.796513,57.730624],[-5.796402,57.730813],[-5.796303,57.730931],[-5.796216,57.730977],[-5.79614,57.730953],[-5.796076,57.730858],[-5.796001,57.730784],[-5.795915,57.730731],[-5.795819,57.730699],[-5.795711,57.730687],[-5.795608,57.730704],[-5.795509,57.730749],[-5.795413,57.730823],[-5.795322,57.730925],[-5.795292,57.731019],[-5.795324,57.731106],[-5.795419,57.731185],[-5.795575,57.731257],[-5.795671,57.731326],[-5.795705,57.731392],[-5.795678,57.731454],[-5.795591,57.731513],[-5.795544,57.731576],[-5.79554,57.731643],[-5.795577,57.731714],[-5.795655,57.731789],[-5.795674,57.731839],[-5.795633,57.731862],[-5.795532,57.731859],[-5.795372,57.73183],[-5.795203,57.731839],[-5.795025,57.731888],[-5.794839,57.731975],[-5.794645,57.732102],[-5.794491,57.732231],[-5.794379,57.732362],[-5.794307,57.732496],[-5.794276,57.732633],[-5.794204,57.732746],[-5.79409,57.732836],[-5.793934,57.732901],[-5.793736,57.732943],[-5.793598,57.732996],[-5.793518,57.73306],[-5.793497,57.733136],[-5.793535,57.733222],[-5.793531,57.733318],[-5.793487,57.733423],[-5.793401,57.733537],[-5.793273,57.733662],[-5.793184,57.733789],[-5.793133,57.733919],[-5.793121,57.734052],[-5.793146,57.734188],[-5.793205,57.734289],[-5.793295,57.734354],[-5.793419,57.734383],[-5.793575,57.734376],[-5.793699,57.734381],[-5.793791,57.734397],[-5.793852,57.734424],[-5.79388,57.734463],[-5.793905,57.734507],[-5.793926,57.734556],[-5.793944,57.73461],[-5.793959,57.734669],[-5.793998,57.734739],[-5.794063,57.734822],[-5.794153,57.734917],[-5.794268,57.735025],[-5.794399,57.735103],[-5.794545,57.735152],[-5.794707,57.735171],[-5.794885,57.735162],[-5.795033,57.735164],[-5.795153,57.735177],[-5.795243,57.735201],[-5.795303,57.735236],[-5.795395,57.735276],[-5.795517,57.735322],[-5.79567,57.735373],[-5.795854,57.73543],[-5.795916,57.735513],[-5.795856,57.735623],[-5.795675,57.73576],[-5.795372,57.735923],[-5.795128,57.736098],[-5.794942,57.736284],[-5.794816,57.736481],[-5.794748,57.736689],[-5.794804,57.73685],[-5.794985,57.736964],[-5.79529,57.737032],[-5.795719,57.737053],[-5.796094,57.737059],[-5.796414,57.737051],[-5.79668,57.737028],[-5.79689,57.73699],[-5.797116,57.736956],[-5.797358,57.736923],[-5.797615,57.736894],[-5.797887,57.736867],[-5.798219,57.736835],[-5.798611,57.736797],[-5.799063,57.736753],[-5.799575,57.736703],[-5.800013,57.736634],[-5.800378,57.736545],[-5.800668,57.736436],[-5.800884,57.736307],[-5.801121,57.736193],[-5.801379,57.736096],[-5.801658,57.736014],[-5.801958,57.735947],[-5.802236,57.735868],[-5.802491,57.735777],[-5.802724,57.735673],[-5.802934,57.735557],[-5.803133,57.735435],[-5.803321,57.735306],[-5.803498,57.735172],[-5.803663,57.735031],[-5.803809,57.73491],[-5.803936,57.73481],[-5.804043,57.734731],[-5.80413,57.734672],[-5.804228,57.734655],[-5.804336,57.734682],[-5.804455,57.734751],[-5.804583,57.734862],[-5.804752,57.734924],[-5.804961,57.734935],[-5.805211,57.734896],[-5.805501,57.734806],[-5.805721,57.734719],[-5.805871,57.734634],[-5.805952,57.734552],[-5.805962,57.734472],[-5.806005,57.734414],[-5.80608,57.734378],[-5.806187,57.734363],[-5.806327,57.734371],[-5.80645,57.734407],[-5.806559,57.734473],[-5.806651,57.734568],[-5.806728,57.734692],[-5.806888,57.734804],[-5.807131,57.734905],[-5.807457,57.734994],[-5.807866,57.735072],[-5.808208,57.735114],[-5.808484,57.73512],[-5.808692,57.73509],[-5.808834,57.735025],[-5.808922,57.734948],[-5.808957,57.734859],[-5.808938,57.734758],[-5.808866,57.734646],[-5.808828,57.734559],[-5.808825,57.734499],[-5.808855,57.734465],[-5.80892,57.734458],[-5.809042,57.73449],[-5.809221,57.734562],[-5.809458,57.734674],[-5.809752,57.734826],[-5.809997,57.734907],[-5.810195,57.734917],[-5.810344,57.734855],[-5.810444,57.734722],[-5.810532,57.734599],[-5.810608,57.734487],[-5.810672,57.734386],[-5.810722,57.734295],[-5.810765,57.734223],[-5.810799,57.734171],[-5.810824,57.734137],[-5.81084,57.734123],[-5.810934,57.734098],[-5.811106,57.734062],[-5.811355,57.734016],[-5.811682,57.733958],[-5.811993,57.733904],[-5.812289,57.733853],[-5.812569,57.733806],[-5.812834,57.733762],[-5.813067,57.733729],[-5.813267,57.733708],[-5.813436,57.733698],[-5.813573,57.7337],[-5.813722,57.733729],[-5.813883,57.733785],[-5.814056,57.733869],[-5.814241,57.73398],[-5.814402,57.734093],[-5.814538,57.73421],[-5.81465,57.73433],[-5.814738,57.734452],[-5.814866,57.734549],[-5.815033,57.734619],[-5.81524,57.734664],[-5.815487,57.734683],[-5.815683,57.734742],[-5.81583,57.734843],[-5.815926,57.734984],[-5.815971,57.735166],[-5.816052,57.735323],[-5.816166,57.735454],[-5.816315,57.73556],[-5.816498,57.735641],[-5.816735,57.735688],[-5.817024,57.735702],[-5.817368,57.735681],[-5.817764,57.735628],[-5.818175,57.735651],[-5.818599,57.735751],[-5.819038,57.735928],[-5.81949,57.736182],[-5.819896,57.736343],[-5.820255,57.736412],[-5.820568,57.736388]]]}}