{"type":"Feature","properties":{"id":"256983","COMMUNE":"West Moray","PROVINCE":"Inverness & Nairn and Moray, Badenoch & Strathspey","COUNTRY":"UK","FIREDATE":"2025-02-17 11:57:00","FINALDATE":"2025-02-17 13:16:00","CLASS":"FireSeason","areaHA_geo":2.612},"geometry":{"type":"Polygon","coordinates":[[[-3.443789,57.300774],[-3.443858,57.300837],[-3.443951,57.30086],[-3.444068,57.300842],[-3.44421,57.300783],[-3.444329,57.300754],[-3.444426,57.300754],[-3.444501,57.300784],[-3.444554,57.300843],[-3.444642,57.300889],[-3.444764,57.300924],[-3.444921,57.300947],[-3.445113,57.300958],[-3.445229,57.300896],[-3.445267,57.300761],[-3.44523,57.300555],[-3.445115,57.300275],[-3.445094,57.300089],[-3.445167,57.299997],[-3.445334,57.299999],[-3.445594,57.300094],[-3.445744,57.300053],[-3.445783,57.299876],[-3.445711,57.299564],[-3.445529,57.299115],[-3.44533,57.298773],[-3.445116,57.298538],[-3.444886,57.29841],[-3.444639,57.298388],[-3.444435,57.298393],[-3.444271,57.298427],[-3.44415,57.298489],[-3.444069,57.298578],[-3.443959,57.298671],[-3.443818,57.298767],[-3.443648,57.298866],[-3.443447,57.298968],[-3.443362,57.299071],[-3.443394,57.299176],[-3.443543,57.299283],[-3.443808,57.299391],[-3.443974,57.299532],[-3.444041,57.299706],[-3.444008,57.299914],[-3.443876,57.300154],[-3.443789,57.30036],[-3.443745,57.300532],[-3.443745,57.30067],[-3.443789,57.300774]]]}}