{"type":"Feature","properties":{"id":"256974","COMMUNE":"West Moray","PROVINCE":"Inverness & Nairn and Moray, Badenoch & Strathspey","COUNTRY":"UK","FIREDATE":"2025-02-07 11:46:00","FINALDATE":"2025-02-08 11:46:00","CLASS":"FireSeason","areaHA_geo":5.928},"geometry":{"type":"Polygon","coordinates":[[[-3.43925,57.306043],[-3.439442,57.306106],[-3.439623,57.306186],[-3.439794,57.306283],[-3.439954,57.306397],[-3.440105,57.306528],[-3.440255,57.306624],[-3.440406,57.306686],[-3.440557,57.306713],[-3.440708,57.306705],[-3.440797,57.306673],[-3.440824,57.306617],[-3.440789,57.306537],[-3.440692,57.306432],[-3.440614,57.306342],[-3.440553,57.306267],[-3.440511,57.306208],[-3.440488,57.306162],[-3.440502,57.306127],[-3.440555,57.306102],[-3.440647,57.306087],[-3.440777,57.306081],[-3.440892,57.306102],[-3.440994,57.306149],[-3.441081,57.306222],[-3.441154,57.306321],[-3.441211,57.306419],[-3.441254,57.306516],[-3.441281,57.306611],[-3.441293,57.306704],[-3.441297,57.306785],[-3.441293,57.306853],[-3.44128,57.306907],[-3.441258,57.306949],[-3.441275,57.30701],[-3.44133,57.307089],[-3.441422,57.307187],[-3.441553,57.307305],[-3.4417,57.307393],[-3.441865,57.307453],[-3.442047,57.307485],[-3.442246,57.307488],[-3.44246,57.307526],[-3.442688,57.3076],[-3.442931,57.307708],[-3.443188,57.307852],[-3.443422,57.307986],[-3.443632,57.308111],[-3.443819,57.308226],[-3.443982,57.308332],[-3.44404,57.308443],[-3.443991,57.308561],[-3.443837,57.308685],[-3.443576,57.308814],[-3.443326,57.308872],[-3.443086,57.308857],[-3.442857,57.30877],[-3.442637,57.308611],[-3.442426,57.308508],[-3.442222,57.308462],[-3.442026,57.308472],[-3.441838,57.308539],[-3.441772,57.308642],[-3.441827,57.308783],[-3.442003,57.308961],[-3.442301,57.309175],[-3.442543,57.309315],[-3.442728,57.309381],[-3.442857,57.309373],[-3.44293,57.30929],[-3.443004,57.309239],[-3.443081,57.309219],[-3.443161,57.309231],[-3.443242,57.309274],[-3.44332,57.309316],[-3.443394,57.309358],[-3.443464,57.3094],[-3.44353,57.30944],[-3.443603,57.309465],[-3.443684,57.309475],[-3.443771,57.309469],[-3.443866,57.309447],[-3.443974,57.309427],[-3.444095,57.309409],[-3.44423,57.309392],[-3.444378,57.309376],[-3.444506,57.309384],[-3.444612,57.309415],[-3.444698,57.309468],[-3.444762,57.309545],[-3.444775,57.309609],[-3.444735,57.30966],[-3.444643,57.309699],[-3.444499,57.309726],[-3.444396,57.309759],[-3.444333,57.309799],[-3.444312,57.309846],[-3.444331,57.309899],[-3.444394,57.30995],[-3.444499,57.309999],[-3.444648,57.310045],[-3.44484,57.310088],[-3.44498,57.310101],[-3.445069,57.310084],[-3.445107,57.310037],[-3.445093,57.309959],[-3.445119,57.30989],[-3.445185,57.30983],[-3.445291,57.309779],[-3.445436,57.309736],[-3.445587,57.309693],[-3.445744,57.309649],[-3.445905,57.309605],[-3.446072,57.30956],[-3.446206,57.309502],[-3.446309,57.309433],[-3.44638,57.30935],[-3.446418,57.309255],[-3.446417,57.309156],[-3.446376,57.309054],[-3.446295,57.308948],[-3.446174,57.308837],[-3.446054,57.308743],[-3.445933,57.308664],[-3.445813,57.308602],[-3.445694,57.308555],[-3.445567,57.308507],[-3.445432,57.30846],[-3.44529,57.308412],[-3.445141,57.308365],[-3.445,57.30833],[-3.444867,57.308308],[-3.444743,57.308299],[-3.444627,57.308303],[-3.444507,57.308284],[-3.444382,57.308241],[-3.444251,57.308175],[-3.444116,57.308086],[-3.443988,57.307981],[-3.443867,57.307859],[-3.443752,57.307721],[-3.443644,57.307566],[-3.443595,57.307462],[-3.443605,57.307409],[-3.443675,57.307408],[-3.443803,57.307458],[-3.443943,57.307517],[-3.444096,57.307584],[-3.444261,57.30766],[-3.444438,57.307745],[-3.444543,57.307776],[-3.444575,57.307752],[-3.444534,57.307676],[-3.44442,57.307545],[-3.44429,57.307403],[-3.444143,57.30725],[-3.443978,57.307086],[-3.443797,57.306911],[-3.443602,57.306752],[-3.443392,57.30661],[-3.443169,57.306483],[-3.442931,57.306374],[-3.442693,57.306279],[-3.442456,57.306201],[-3.442219,57.306138],[-3.441982,57.306092],[-3.441705,57.306045],[-3.441387,57.305999],[-3.44103,57.305952],[-3.440632,57.305906],[-3.440314,57.305881],[-3.440074,57.305876],[-3.439913,57.305891],[-3.439831,57.305928],[-3.439698,57.305935],[-3.439515,57.305915],[-3.439281,57.305866],[-3.438996,57.305788],[-3.438807,57.305747],[-3.438714,57.305743],[-3.438717,57.305775],[-3.438815,57.305844],[-3.438937,57.305912],[-3.439082,57.305978],[-3.43925,57.306043]]]}}