{"type":"Feature","properties":{"id":"256976","COMMUNE":"West Moray","PROVINCE":"Inverness & Nairn and Moray, Badenoch & Strathspey","COUNTRY":"UK","FIREDATE":"2025-02-26 12:06:00","CLASS":"FireSeason","areaHA_geo":0.598},"geometry":{"type":"Polygon","coordinates":[[[-3.440344,57.31152],[-3.440541,57.311632],[-3.440708,57.31168],[-3.440848,57.311664],[-3.440958,57.311586],[-3.441037,57.311515],[-3.441084,57.311453],[-3.441099,57.311399],[-3.441082,57.311353],[-3.44109,57.311316],[-3.441124,57.311287],[-3.441182,57.311266],[-3.441265,57.311254],[-3.441323,57.311231],[-3.441355,57.311198],[-3.441361,57.311155],[-3.441342,57.311101],[-3.441297,57.311063],[-3.441226,57.311041],[-3.44113,57.311034],[-3.441009,57.311043],[-3.440906,57.311031],[-3.44082,57.310998],[-3.440753,57.310944],[-3.440704,57.31087],[-3.440647,57.310809],[-3.440582,57.31076],[-3.440508,57.310724],[-3.440426,57.310701],[-3.440334,57.310694],[-3.440231,57.310703],[-3.440117,57.310727],[-3.439993,57.310768],[-3.439898,57.310814],[-3.439833,57.310866],[-3.439797,57.310924],[-3.439791,57.310988],[-3.439843,57.31108],[-3.439952,57.311199],[-3.44012,57.311346],[-3.440344,57.31152]]]}}