{"type":"Feature","properties":{"id":"256973","COMMUNE":"West Moray","PROVINCE":"Inverness & Nairn and Moray, Badenoch & Strathspey","COUNTRY":"UK","FIREDATE":"2025-02-07 11:46:00","CLASS":"FireSeason","areaHA_geo":16.159},"geometry":{"type":"Polygon","coordinates":[[[-3.42483,57.312329],[-3.424796,57.312451],[-3.424896,57.312555],[-3.425131,57.312642],[-3.425501,57.312711],[-3.425815,57.312778],[-3.426073,57.312844],[-3.426276,57.31291],[-3.426424,57.312973],[-3.426628,57.313029],[-3.426886,57.313075],[-3.4272,57.313113],[-3.42757,57.313142],[-3.427903,57.31316],[-3.428198,57.313168],[-3.428457,57.313164],[-3.428679,57.313149],[-3.428902,57.313145],[-3.429128,57.313151],[-3.429356,57.313168],[-3.429586,57.313196],[-3.429851,57.313231],[-3.430152,57.313273],[-3.430489,57.313322],[-3.430861,57.313379],[-3.431213,57.313428],[-3.431543,57.313469],[-3.431852,57.313502],[-3.432139,57.313528],[-3.432441,57.313542],[-3.432756,57.313543],[-3.433086,57.313532],[-3.433429,57.313508],[-3.433717,57.313471],[-3.433951,57.313419],[-3.43413,57.313353],[-3.434255,57.313273],[-3.434425,57.313216],[-3.434639,57.313182],[-3.434899,57.313171],[-3.435204,57.313183],[-3.435439,57.313175],[-3.435604,57.313146],[-3.4357,57.313096],[-3.435726,57.313026],[-3.435752,57.312957],[-3.435778,57.31289],[-3.435805,57.312822],[-3.435832,57.312756],[-3.435865,57.312655],[-3.435903,57.312519],[-3.435947,57.312347],[-3.435996,57.31214],[-3.436079,57.311979],[-3.436198,57.311862],[-3.436351,57.311789],[-3.436539,57.311762],[-3.436727,57.311715],[-3.436915,57.311648],[-3.437103,57.311562],[-3.437291,57.311455],[-3.437454,57.311359],[-3.437592,57.311274],[-3.437703,57.311199],[-3.43779,57.311135],[-3.437898,57.311026],[-3.438029,57.310872],[-3.438182,57.310673],[-3.438357,57.31043],[-3.438497,57.310213],[-3.438603,57.310022],[-3.438675,57.309857],[-3.438713,57.309719],[-3.43875,57.309591],[-3.438788,57.309475],[-3.438827,57.309369],[-3.438865,57.309274],[-3.43892,57.309197],[-3.43899,57.309139],[-3.439076,57.309098],[-3.439178,57.309076],[-3.43925,57.309035],[-3.439295,57.308975],[-3.43931,57.308896],[-3.439296,57.308799],[-3.439231,57.308716],[-3.439115,57.308649],[-3.438948,57.308597],[-3.438729,57.30856],[-3.438538,57.308486],[-3.438372,57.308375],[-3.438234,57.308226],[-3.438122,57.30804],[-3.438002,57.307907],[-3.437874,57.307827],[-3.437738,57.3078],[-3.437594,57.307827],[-3.437458,57.307873],[-3.437332,57.307937],[-3.437214,57.30802],[-3.437105,57.308123],[-3.437057,57.308207],[-3.43707,57.308273],[-3.437144,57.30832],[-3.437279,57.30835],[-3.437409,57.308396],[-3.437535,57.308458],[-3.437655,57.308537],[-3.43777,57.308632],[-3.4379,57.308722],[-3.438045,57.308808],[-3.438205,57.308889],[-3.438379,57.308966],[-3.438494,57.309034],[-3.438548,57.309091],[-3.438541,57.309139],[-3.438475,57.309178],[-3.4384,57.309227],[-3.438315,57.309287],[-3.438222,57.309358],[-3.43812,57.30944],[-3.437982,57.309508],[-3.437808,57.309564],[-3.437598,57.309606],[-3.437353,57.309636],[-3.43719,57.309637],[-3.437111,57.309612],[-3.437116,57.309559],[-3.437204,57.309479],[-3.437276,57.30939],[-3.437332,57.309294],[-3.437373,57.309189],[-3.437397,57.309075],[-3.437326,57.308939],[-3.437158,57.308781],[-3.436894,57.308599],[-3.436534,57.308395],[-3.436217,57.308244],[-3.435943,57.308145],[-3.435712,57.3081],[-3.435524,57.308107],[-3.435368,57.308126],[-3.435243,57.308154],[-3.435149,57.308194],[-3.435087,57.308243],[-3.435083,57.308282],[-3.435137,57.30831],[-3.435249,57.308328],[-3.43542,57.308334],[-3.435534,57.308351],[-3.435592,57.308378],[-3.435593,57.308417],[-3.435538,57.308466],[-3.435455,57.308505],[-3.435345,57.308534],[-3.435207,57.308553],[-3.435042,57.308562],[-3.4349,57.308556],[-3.434783,57.308535],[-3.434689,57.308498],[-3.434618,57.308446],[-3.434536,57.308446],[-3.434441,57.308497],[-3.434334,57.3086],[-3.434215,57.308754],[-3.434146,57.308871],[-3.434127,57.30895],[-3.434158,57.308992],[-3.43424,57.308995],[-3.434315,57.309015],[-3.434383,57.309052],[-3.434445,57.309105],[-3.4345,57.309174],[-3.434539,57.309241],[-3.434562,57.309306],[-3.43457,57.309368],[-3.434563,57.309428],[-3.434579,57.309483],[-3.434619,57.309532],[-3.434683,57.309576],[-3.43477,57.309615],[-3.434884,57.309655],[-3.435024,57.309698],[-3.435191,57.309744],[-3.435384,57.309791],[-3.435544,57.309845],[-3.435673,57.309905],[-3.435768,57.309971],[-3.435831,57.310043],[-3.435862,57.310116],[-3.435859,57.31019],[-3.435824,57.310264],[-3.435756,57.310338],[-3.435676,57.310397],[-3.435586,57.310439],[-3.435484,57.310467],[-3.435371,57.310478],[-3.435215,57.310467],[-3.435015,57.310432],[-3.434772,57.310374],[-3.434486,57.310293],[-3.434255,57.31025],[-3.434078,57.310247],[-3.433955,57.310282],[-3.433887,57.310356],[-3.433806,57.310406],[-3.433713,57.310432],[-3.433607,57.310433],[-3.433489,57.310409],[-3.433375,57.310394],[-3.433267,57.310388],[-3.433163,57.310389],[-3.433064,57.3104],[-3.432985,57.310429],[-3.432926,57.310479],[-3.432887,57.310548],[-3.432869,57.310637],[-3.432882,57.310693],[-3.432927,57.310716],[-3.433004,57.310706],[-3.433113,57.310663],[-3.433223,57.31063],[-3.433336,57.310607],[-3.43345,57.310593],[-3.433565,57.310589],[-3.43367,57.310595],[-3.433764,57.310611],[-3.433847,57.310637],[-3.433918,57.310673],[-3.434021,57.310708],[-3.434154,57.310742],[-3.434318,57.310775],[-3.434513,57.310806],[-3.434693,57.310833],[-3.434858,57.310855],[-3.43501,57.310874],[-3.435146,57.310887],[-3.43526,57.310907],[-3.43535,57.310933],[-3.435417,57.310966],[-3.435461,57.311005],[-3.435506,57.311043],[-3.435552,57.31108],[-3.4356,57.311115],[-3.435649,57.31115],[-3.435669,57.311191],[-3.435661,57.311239],[-3.435625,57.311295],[-3.43556,57.311357],[-3.435478,57.311389],[-3.43538,57.311391],[-3.435265,57.311363],[-3.435134,57.311306],[-3.43502,57.311269],[-3.434923,57.311253],[-3.434842,57.311259],[-3.434779,57.311285],[-3.434761,57.311325],[-3.434788,57.31138],[-3.43486,57.311449],[-3.434979,57.311531],[-3.435035,57.311597],[-3.435031,57.311645],[-3.434965,57.311675],[-3.434838,57.311688],[-3.434705,57.311715],[-3.434566,57.311755],[-3.43442,57.311808],[-3.434269,57.311875],[-3.434172,57.311935],[-3.434128,57.311987],[-3.434139,57.312031],[-3.434204,57.312068],[-3.434292,57.312083],[-3.434403,57.312078],[-3.434538,57.312051],[-3.434697,57.312003],[-3.434813,57.312002],[-3.434889,57.312048],[-3.434922,57.31214],[-3.434915,57.312279],[-3.434941,57.312382],[-3.435001,57.312446],[-3.435096,57.312474],[-3.435224,57.312465],[-3.43532,57.312473],[-3.435384,57.312498],[-3.435416,57.31254],[-3.435416,57.3126],[-3.435388,57.312654],[-3.435333,57.312703],[-3.43525,57.312747],[-3.43514,57.312786],[-3.435017,57.31279],[-3.434881,57.312758],[-3.434732,57.312692],[-3.43457,57.31259],[-3.434369,57.312491],[-3.434129,57.312395],[-3.43385,57.312302],[-3.433531,57.312212],[-3.433228,57.312136],[-3.432942,57.312072],[-3.432671,57.312022],[-3.432415,57.311985],[-3.432322,57.312009],[-3.43239,57.312095],[-3.432619,57.312243],[-3.43301,57.312452],[-3.433294,57.312611],[-3.43347,57.312722],[-3.433538,57.312783],[-3.433498,57.312795],[-3.433447,57.312799],[-3.433383,57.312796],[-3.433308,57.312785],[-3.43322,57.312766],[-3.433144,57.312763],[-3.433079,57.312776],[-3.433025,57.312804],[-3.432983,57.312848],[-3.432925,57.312886],[-3.432852,57.312917],[-3.432764,57.312942],[-3.432661,57.31296],[-3.432538,57.312955],[-3.432396,57.312926],[-3.432234,57.312874],[-3.432052,57.312798],[-3.431883,57.312735],[-3.431726,57.312686],[-3.431581,57.31265],[-3.431448,57.312628],[-3.431216,57.312564],[-3.430885,57.312458],[-3.430453,57.31231],[-3.429922,57.312119],[-3.429435,57.311965],[-3.428993,57.311846],[-3.428595,57.311763],[-3.428241,57.311717],[-3.427937,57.311687],[-3.427683,57.311673],[-3.427479,57.311676],[-3.427325,57.311696],[-3.427169,57.311695],[-3.42701,57.311671],[-3.426849,57.311627],[-3.426686,57.31156],[-3.42653,57.31151],[-3.426382,57.311476],[-3.426242,57.311458],[-3.426109,57.311456],[-3.425978,57.311457],[-3.425848,57.311463],[-3.425719,57.311472],[-3.425592,57.311485],[-3.425519,57.311514],[-3.425499,57.31156],[-3.425532,57.311622],[-3.425619,57.3117],[-3.425653,57.311768],[-3.425635,57.311828],[-3.425563,57.311878],[-3.425439,57.311918],[-3.425303,57.311983],[-3.425157,57.312074],[-3.424999,57.312189],[-3.42483,57.312329]]]}}