{"type":"Feature","properties":{"id":"256961","COMMUNE":"Cornwall","PROVINCE":"Cornwall and Isles of Scilly","COUNTRY":"UK","FIREDATE":"2025-02-12 13:08:00","CLASS":"FireSeason","areaHA_geo":3.91},"geometry":{"type":"Polygon","coordinates":[[[-4.757865,50.639219],[-4.757602,50.639272],[-4.757445,50.63933],[-4.757395,50.639393],[-4.757451,50.639462],[-4.75767,50.63951],[-4.758051,50.639539],[-4.758596,50.639548],[-4.759303,50.639538],[-4.759877,50.639535],[-4.760319,50.63954],[-4.760629,50.639552],[-4.760807,50.639572],[-4.760965,50.639565],[-4.761104,50.639531],[-4.761223,50.63947],[-4.761323,50.639381],[-4.761468,50.639324],[-4.761657,50.6393],[-4.76189,50.639307],[-4.762168,50.639347],[-4.762424,50.639335],[-4.762656,50.639273],[-4.762866,50.639159],[-4.763052,50.638994],[-4.763167,50.638858],[-4.763209,50.63875],[-4.763179,50.63867],[-4.763077,50.638618],[-4.762995,50.638561],[-4.762932,50.638499],[-4.762889,50.638432],[-4.762866,50.638359],[-4.762886,50.638283],[-4.762951,50.638204],[-4.76306,50.638123],[-4.763212,50.638038],[-4.763289,50.637916],[-4.763289,50.637756],[-4.763213,50.63756],[-4.763061,50.637325],[-4.7629,50.637137],[-4.76273,50.636994],[-4.762551,50.636897],[-4.762363,50.636845],[-4.762194,50.63681],[-4.762043,50.636792],[-4.761909,50.636791],[-4.761794,50.636806],[-4.761714,50.636842],[-4.761668,50.636899],[-4.761657,50.636977],[-4.76168,50.637077],[-4.761721,50.637184],[-4.761779,50.637298],[-4.761854,50.63742],[-4.761947,50.637548],[-4.762018,50.637709],[-4.762067,50.637903],[-4.762095,50.638129],[-4.762101,50.638388],[-4.762017,50.638587],[-4.761843,50.638725],[-4.761579,50.638804],[-4.761226,50.638823],[-4.760921,50.638845],[-4.760663,50.63887],[-4.760454,50.638899],[-4.760293,50.638931],[-4.760094,50.638962],[-4.759855,50.638993],[-4.759578,50.639023],[-4.759263,50.639054],[-4.758934,50.639088],[-4.758591,50.639127],[-4.758235,50.639171],[-4.757865,50.639219]]]}}