{"type":"Feature","properties":{"id":"257339","COMMUNE":"Cornwall","PROVINCE":"Cornwall and Isles of Scilly","COUNTRY":"UK","FIREDATE":"2025-03-04 11:53:00","FINALDATE":"2025-03-04 11:53:00","CLASS":"FireSeason","areaHA_geo":0.587},"geometry":{"type":"Polygon","coordinates":[[[-5.226808,49.978353],[-5.226989,49.978303],[-5.22711,49.978215],[-5.227172,49.97809],[-5.227175,49.977926],[-5.227167,49.977791],[-5.227149,49.977685],[-5.227121,49.977608],[-5.227084,49.977559],[-5.227005,49.97755],[-5.226887,49.977578],[-5.226728,49.977645],[-5.226529,49.97775],[-5.226367,49.977837],[-5.226242,49.977906],[-5.226154,49.977956],[-5.226103,49.977987],[-5.226053,49.978012],[-5.226003,49.97803],[-5.225954,49.97804],[-5.225905,49.978043],[-5.225857,49.978055],[-5.225812,49.978078],[-5.225768,49.978109],[-5.225726,49.978151],[-5.225728,49.978192],[-5.225775,49.978234],[-5.225866,49.978276],[-5.226002,49.978318],[-5.226164,49.978346],[-5.226352,49.978362],[-5.226567,49.978364],[-5.226808,49.978353]]]}}