{"type":"Feature","properties":{"id":"257336","COMMUNE":"Teignbridge","PROVINCE":"Devon CC","COUNTRY":"UK","FIREDATE":"2025-03-04 10:25:00","FINALDATE":"2025-03-04 10:25:00","CLASS":"FireSeason","areaHA_geo":1.201},"geometry":{"type":"Polygon","coordinates":[[[-3.741948,50.58427],[-3.741944,50.58416],[-3.741928,50.584061],[-3.7419,50.583971],[-3.741861,50.583891],[-3.741809,50.58382],[-3.741745,50.583767],[-3.74167,50.583732],[-3.741583,50.583714],[-3.741484,50.583713],[-3.741424,50.583706],[-3.741403,50.583691],[-3.741421,50.583669],[-3.741478,50.58364],[-3.741522,50.583611],[-3.741552,50.583582],[-3.741568,50.583554],[-3.741571,50.583525],[-3.741548,50.583506],[-3.741501,50.583495],[-3.741429,50.583492],[-3.741332,50.583499],[-3.741259,50.583497],[-3.74121,50.583487],[-3.741184,50.583468],[-3.741183,50.583442],[-3.741186,50.583417],[-3.741193,50.583393],[-3.741205,50.583371],[-3.741221,50.583349],[-3.741249,50.58333],[-3.741291,50.583312],[-3.741347,50.583296],[-3.741415,50.583283],[-3.741454,50.583264],[-3.741465,50.583239],[-3.741446,50.58321],[-3.741399,50.583175],[-3.741352,50.583152],[-3.741307,50.58314],[-3.741263,50.58314],[-3.74122,50.58315],[-3.74117,50.583173],[-3.741114,50.583206],[-3.741052,50.583252],[-3.740983,50.583309],[-3.740934,50.58336],[-3.740905,50.583406],[-3.740896,50.583447],[-3.740906,50.583482],[-3.740902,50.583517],[-3.740883,50.583553],[-3.740849,50.583589],[-3.7408,50.583625],[-3.740748,50.58365],[-3.740691,50.583662],[-3.74063,50.583663],[-3.740565,50.583651],[-3.740528,50.583627],[-3.74052,50.583591],[-3.74054,50.583543],[-3.740588,50.583483],[-3.740608,50.583442],[-3.7406,50.583419],[-3.740564,50.583415],[-3.7405,50.58343],[-3.740437,50.583463],[-3.740374,50.583513],[-3.740311,50.583582],[-3.740249,50.583669],[-3.740183,50.583764],[-3.740112,50.583866],[-3.740037,50.583976],[-3.739958,50.584095],[-3.739908,50.584191],[-3.739887,50.584265],[-3.739896,50.584317],[-3.739933,50.584347],[-3.740004,50.584366],[-3.740108,50.584372],[-3.740245,50.584366],[-3.740416,50.584348],[-3.740551,50.584339],[-3.740651,50.584337],[-3.740715,50.584343],[-3.740743,50.584358],[-3.740776,50.584364],[-3.740814,50.584361],[-3.740856,50.584349],[-3.740902,50.584328],[-3.740954,50.584318],[-3.741012,50.584318],[-3.741074,50.58433],[-3.741143,50.584352],[-3.7412,50.584363],[-3.741245,50.584362],[-3.74128,50.584348],[-3.741303,50.584323],[-3.741333,50.584304],[-3.741368,50.58429],[-3.741409,50.584281],[-3.741457,50.584278],[-3.741499,50.584286],[-3.741537,50.584304],[-3.741569,50.584334],[-3.741596,50.584373],[-3.741637,50.584403],[-3.74169,50.584423],[-3.741756,50.584433],[-3.741835,50.584434],[-3.741894,50.584406],[-3.741931,50.584352],[-3.741948,50.58427]]]}}