{"type":"Feature","properties":{"id":"257332","COMMUNE":"Teignbridge","PROVINCE":"Devon CC","COUNTRY":"UK","FIREDATE":"2025-03-03 12:33:00","CLASS":"FireSeason","areaHA_geo":1.999},"geometry":{"type":"Polygon","coordinates":[[[-3.78703,50.567581],[-3.787075,50.567754],[-3.787149,50.56787],[-3.787252,50.567928],[-3.787383,50.567929],[-3.787493,50.56791],[-3.787584,50.567872],[-3.787653,50.567815],[-3.787703,50.567738],[-3.787742,50.567645],[-3.787772,50.567536],[-3.787792,50.56741],[-3.787802,50.567268],[-3.787833,50.567104],[-3.787886,50.56692],[-3.787961,50.566714],[-3.788057,50.566486],[-3.78812,50.566297],[-3.78815,50.566146],[-3.788148,50.566033],[-3.788112,50.565959],[-3.78808,50.565873],[-3.788051,50.565774],[-3.788025,50.565665],[-3.788002,50.565543],[-3.787961,50.565445],[-3.787903,50.565371],[-3.787828,50.565321],[-3.787735,50.565295],[-3.787651,50.565263],[-3.787577,50.565224],[-3.787513,50.565179],[-3.787459,50.565127],[-3.787392,50.565125],[-3.787315,50.565172],[-3.787225,50.565268],[-3.787124,50.565413],[-3.787089,50.565525],[-3.787119,50.565604],[-3.787215,50.565651],[-3.787376,50.565664],[-3.7875,50.565683],[-3.787585,50.565705],[-3.787632,50.565733],[-3.787642,50.565765],[-3.787581,50.565791],[-3.787449,50.565811],[-3.787247,50.565825],[-3.786975,50.565833],[-3.786797,50.565912],[-3.786713,50.566061],[-3.786725,50.566281],[-3.786831,50.566571],[-3.786914,50.566846],[-3.786975,50.567106],[-3.787014,50.567351],[-3.78703,50.567581]]]}}