{"type":"Feature","properties":{"id":"257334","COMMUNE":"Teignbridge","PROVINCE":"Devon CC","COUNTRY":"UK","FIREDATE":"2025-03-03 12:33:00","FINALDATE":"2025-03-03 13:27:00","CLASS":"FireSeason","areaHA_geo":1.261},"geometry":{"type":"Polygon","coordinates":[[[-3.783493,50.569615],[-3.783438,50.569498],[-3.783384,50.569403],[-3.783329,50.56933],[-3.783275,50.569281],[-3.783222,50.569254],[-3.783195,50.569191],[-3.783194,50.569092],[-3.783221,50.568956],[-3.783274,50.568783],[-3.783281,50.568636],[-3.783242,50.568514],[-3.783156,50.568418],[-3.783023,50.568347],[-3.782876,50.568318],[-3.782712,50.568332],[-3.782534,50.568388],[-3.782341,50.568486],[-3.782192,50.568574],[-3.782088,50.568653],[-3.782028,50.568723],[-3.782013,50.568783],[-3.781975,50.568845],[-3.781912,50.568911],[-3.781826,50.568979],[-3.781716,50.569051],[-3.781717,50.56914],[-3.781827,50.569247],[-3.782048,50.569372],[-3.782378,50.569514],[-3.78267,50.569625],[-3.782923,50.569704],[-3.783137,50.569752],[-3.783312,50.569768],[-3.78343,50.569751],[-3.78349,50.5697],[-3.783493,50.569615]]]}}