{"type":"Feature","properties":{"id":"257415","COMMUNE":"Carmarthenshire","PROVINCE":"South West Wales","COUNTRY":"UK","FIREDATE":"2025-03-03 13:52:00","CLASS":"FireSeason","areaHA_geo":24.396},"geometry":{"type":"Polygon","coordinates":[[[-3.871167,51.821895],[-3.871231,51.821969],[-3.87131,51.821997],[-3.871403,51.82198],[-3.871511,51.821918],[-3.871599,51.821847],[-3.871667,51.821767],[-3.871716,51.821678],[-3.871744,51.821581],[-3.871763,51.821484],[-3.871771,51.821388],[-3.871769,51.821292],[-3.871756,51.821197],[-3.871785,51.821115],[-3.871857,51.821047],[-3.871971,51.820991],[-3.872128,51.820949],[-3.872251,51.820927],[-3.872342,51.820926],[-3.872399,51.820944],[-3.872424,51.820983],[-3.872432,51.821026],[-3.872423,51.821073],[-3.872398,51.821123],[-3.872356,51.821178],[-3.872354,51.82123],[-3.872393,51.82128],[-3.872473,51.821328],[-3.872593,51.821374],[-3.872695,51.821387],[-3.87278,51.821366],[-3.872847,51.821313],[-3.872896,51.821226],[-3.872959,51.821154],[-3.873036,51.821096],[-3.873128,51.821053],[-3.873233,51.821025],[-3.873311,51.820993],[-3.873362,51.820959],[-3.873385,51.820921],[-3.873381,51.82088],[-3.87337,51.820835],[-3.873353,51.820788],[-3.87333,51.820737],[-3.8733,51.820683],[-3.873278,51.820626],[-3.873264,51.820567],[-3.873257,51.820504],[-3.873258,51.820439],[-3.873259,51.82037],[-3.87326,51.820298],[-3.87326,51.820223],[-3.873261,51.820145],[-3.873277,51.82007],[-3.873308,51.82],[-3.873354,51.819934],[-3.873415,51.819872],[-3.873476,51.819824],[-3.873535,51.819791],[-3.873594,51.819772],[-3.873652,51.819768],[-3.873723,51.81975],[-3.873806,51.819718],[-3.873901,51.819672],[-3.87401,51.819612],[-3.874112,51.819547],[-3.874209,51.819476],[-3.8743,51.819401],[-3.874385,51.81932],[-3.874459,51.819242],[-3.874522,51.819165],[-3.874573,51.81909],[-3.874614,51.819018],[-3.874611,51.81898],[-3.874563,51.818976],[-3.874471,51.819007],[-3.874335,51.819073],[-3.874224,51.819113],[-3.874136,51.819126],[-3.874074,51.819112],[-3.874036,51.819072],[-3.874051,51.819002],[-3.874119,51.818901],[-3.87424,51.81877],[-3.874414,51.818608],[-3.874569,51.818476],[-3.874704,51.818372],[-3.874819,51.818298],[-3.874915,51.818252],[-3.875,51.818228],[-3.875073,51.818226],[-3.875136,51.818246],[-3.875186,51.818287],[-3.87526,51.818321],[-3.875355,51.818349],[-3.875473,51.81837],[-3.875613,51.818384],[-3.875709,51.818378],[-3.875762,51.818349],[-3.875771,51.818299],[-3.875736,51.818228],[-3.875765,51.818168],[-3.875858,51.81812],[-3.876015,51.818085],[-3.876236,51.818061],[-3.876424,51.818024],[-3.876578,51.817974],[-3.876698,51.817912],[-3.876784,51.817836],[-3.876878,51.817789],[-3.876978,51.817771],[-3.877085,51.817781],[-3.877199,51.81782],[-3.877248,51.817874],[-3.877234,51.817943],[-3.877156,51.818028],[-3.877013,51.818129],[-3.876858,51.81823],[-3.876689,51.818333],[-3.876506,51.818436],[-3.87631,51.81854],[-3.876169,51.818636],[-3.876084,51.818723],[-3.876055,51.818802],[-3.876081,51.818872],[-3.876058,51.818934],[-3.875986,51.81899],[-3.875866,51.819038],[-3.875697,51.819079],[-3.875571,51.819127],[-3.875488,51.819181],[-3.875449,51.819242],[-3.875453,51.819309],[-3.875485,51.819356],[-3.875546,51.819381],[-3.875636,51.819385],[-3.875753,51.819369],[-3.875874,51.819388],[-3.875997,51.819444],[-3.876123,51.819536],[-3.876252,51.819664],[-3.876376,51.819758],[-3.876494,51.819819],[-3.876607,51.819845],[-3.876715,51.819837],[-3.876813,51.819853],[-3.876901,51.819892],[-3.87698,51.819954],[-3.877049,51.82004],[-3.877136,51.820096],[-3.877239,51.820123],[-3.87736,51.820121],[-3.877499,51.820088],[-3.877622,51.820033],[-3.877731,51.819953],[-3.877824,51.81985],[-3.877903,51.819723],[-3.877981,51.819596],[-3.878058,51.81947],[-3.878134,51.819343],[-3.878209,51.819217],[-3.878272,51.819133],[-3.878322,51.819092],[-3.878361,51.819093],[-3.878387,51.819137],[-3.878435,51.819166],[-3.878503,51.819182],[-3.878592,51.819183],[-3.878703,51.81917],[-3.878791,51.819142],[-3.878859,51.8191],[-3.878905,51.819044],[-3.878929,51.818973],[-3.878966,51.818936],[-3.879016,51.818933],[-3.879079,51.818963],[-3.879154,51.819027],[-3.879228,51.819056],[-3.879303,51.81905],[-3.879376,51.819008],[-3.87945,51.818932],[-3.879498,51.818856],[-3.879522,51.818782],[-3.87952,51.818708],[-3.879493,51.818636],[-3.879497,51.818578],[-3.879533,51.818536],[-3.8796,51.818509],[-3.879698,51.818498],[-3.879777,51.818484],[-3.879838,51.818469],[-3.87988,51.818452],[-3.879904,51.818434],[-3.879933,51.818402],[-3.879968,51.818356],[-3.880007,51.818296],[-3.880052,51.818223],[-3.880095,51.818154],[-3.880137,51.818089],[-3.880176,51.818028],[-3.880213,51.817972],[-3.88025,51.817914],[-3.880287,51.817855],[-3.880323,51.817794],[-3.880359,51.817732],[-3.880381,51.81767],[-3.880391,51.817606],[-3.880388,51.817541],[-3.880371,51.817475],[-3.880363,51.817419],[-3.880363,51.817372],[-3.880372,51.817334],[-3.880388,51.817306],[-3.880417,51.817259],[-3.880458,51.817193],[-3.880511,51.817107],[-3.880575,51.817003],[-3.880635,51.816911],[-3.880688,51.816832],[-3.880736,51.816765],[-3.880778,51.81671],[-3.880818,51.816641],[-3.880855,51.816557],[-3.88089,51.816458],[-3.880922,51.816344],[-3.880968,51.816238],[-3.881025,51.816138],[-3.881096,51.816046],[-3.881179,51.81596],[-3.881259,51.815881],[-3.881336,51.815808],[-3.881409,51.815741],[-3.881479,51.81568],[-3.881472,51.815608],[-3.881386,51.815524],[-3.881223,51.815429],[-3.880982,51.815322],[-3.880671,51.815284],[-3.880289,51.815315],[-3.879836,51.815416],[-3.879313,51.815585],[-3.878899,51.815677],[-3.878594,51.815691],[-3.878399,51.815628],[-3.878312,51.815486],[-3.878235,51.81542],[-3.878168,51.815428],[-3.87811,51.815511],[-3.878062,51.815668],[-3.878008,51.815794],[-3.877949,51.81589],[-3.877885,51.815955],[-3.877815,51.815989],[-3.877698,51.816028],[-3.877533,51.816069],[-3.877321,51.816115],[-3.877061,51.816164],[-3.876854,51.816181],[-3.876701,51.816165],[-3.876601,51.816117],[-3.876555,51.816037],[-3.876459,51.815988],[-3.876314,51.815971],[-3.87612,51.815987],[-3.875876,51.816034],[-3.875724,51.816089],[-3.875664,51.816153],[-3.875694,51.816224],[-3.875817,51.816303],[-3.875837,51.816373],[-3.875756,51.816432],[-3.875573,51.816481],[-3.875289,51.81652],[-3.875045,51.816578],[-3.87484,51.816655],[-3.874675,51.81675],[-3.87455,51.816864],[-3.874437,51.816925],[-3.874338,51.816933],[-3.874252,51.816888],[-3.874179,51.81679],[-3.874114,51.816746],[-3.874058,51.816756],[-3.874011,51.816821],[-3.873972,51.816941],[-3.873968,51.817042],[-3.873998,51.817125],[-3.874062,51.817189],[-3.874161,51.817234],[-3.874218,51.817276],[-3.874232,51.817315],[-3.874204,51.817351],[-3.874133,51.817382],[-3.874054,51.817422],[-3.873967,51.817469],[-3.873872,51.817523],[-3.873769,51.817585],[-3.873692,51.817663],[-3.873643,51.817756],[-3.873621,51.817865],[-3.873626,51.81799],[-3.873612,51.81809],[-3.873578,51.818166],[-3.873526,51.818217],[-3.873453,51.818244],[-3.873391,51.818247],[-3.873338,51.818228],[-3.873295,51.818184],[-3.873262,51.818118],[-3.873177,51.818089],[-3.873042,51.818097],[-3.872856,51.818143],[-3.87262,51.818226],[-3.872421,51.818299],[-3.872261,51.818362],[-3.872139,51.818416],[-3.872055,51.81846],[-3.871953,51.818509],[-3.871832,51.818562],[-3.871693,51.818621],[-3.871535,51.818684],[-3.871379,51.818723],[-3.871225,51.818739],[-3.871073,51.818731],[-3.870923,51.818699],[-3.870783,51.818672],[-3.870653,51.818648],[-3.870532,51.818629],[-3.870422,51.818613],[-3.870327,51.818589],[-3.87025,51.818557],[-3.870188,51.818516],[-3.870143,51.818466],[-3.870129,51.818406],[-3.870147,51.818335],[-3.870197,51.818252],[-3.870278,51.818159],[-3.870315,51.81808],[-3.870307,51.818016],[-3.870256,51.817966],[-3.87016,51.81793],[-3.870075,51.817917],[-3.870002,51.817926],[-3.869939,51.817957],[-3.869888,51.81801],[-3.869845,51.818083],[-3.869808,51.818178],[-3.86978,51.818293],[-3.869758,51.818428],[-3.869791,51.81855],[-3.869877,51.818657],[-3.870018,51.81875],[-3.870212,51.818829],[-3.870345,51.818898],[-3.870419,51.818957],[-3.870432,51.819006],[-3.870385,51.819045],[-3.870288,51.819093],[-3.87014,51.819148],[-3.869942,51.819212],[-3.869693,51.819283],[-3.869556,51.819384],[-3.869531,51.819515],[-3.869618,51.819676],[-3.869818,51.819866],[-3.869935,51.820031],[-3.86997,51.82017],[-3.869923,51.820284],[-3.869794,51.820373],[-3.869712,51.820465],[-3.869679,51.820562],[-3.869694,51.820663],[-3.869756,51.820767],[-3.869795,51.820871],[-3.86981,51.820974],[-3.869801,51.821075],[-3.869769,51.821176],[-3.869771,51.821261],[-3.869809,51.821333],[-3.86988,51.821389],[-3.869987,51.821432],[-3.870085,51.82148],[-3.870176,51.821534],[-3.87026,51.821595],[-3.870336,51.821661],[-3.87043,51.821701],[-3.870542,51.821714],[-3.870672,51.8217],[-3.87082,51.821658],[-3.870943,51.821657],[-3.871043,51.821697],[-3.871117,51.821776],[-3.871167,51.821895]]]}}