{"type":"Feature","properties":{"id":"257413","COMMUNE":"Carmarthenshire","PROVINCE":"South West Wales","COUNTRY":"UK","FIREDATE":"2025-03-02 13:44:00","CLASS":"FireSeason","areaHA_geo":92.353},"geometry":{"type":"Polygon","coordinates":[[[-3.884203,51.839593],[-3.884409,51.839751],[-3.884588,51.839835],[-3.884739,51.839844],[-3.884862,51.83978],[-3.885004,51.839737],[-3.885163,51.839715],[-3.88534,51.839715],[-3.885535,51.839736],[-3.885713,51.839732],[-3.885875,51.839705],[-3.88602,51.839653],[-3.886149,51.839577],[-3.886267,51.839501],[-3.886373,51.839424],[-3.886468,51.839348],[-3.886552,51.839272],[-3.886631,51.839188],[-3.886705,51.839096],[-3.886775,51.838996],[-3.88684,51.838889],[-3.886906,51.838783],[-3.886972,51.838679],[-3.887038,51.838575],[-3.887105,51.838473],[-3.887149,51.838378],[-3.887171,51.83829],[-3.88717,51.838209],[-3.887147,51.838134],[-3.887121,51.838057],[-3.887091,51.837978],[-3.887059,51.837896],[-3.887024,51.837812],[-3.887002,51.837719],[-3.886992,51.837618],[-3.886996,51.837508],[-3.887013,51.83739],[-3.887081,51.837306],[-3.8872,51.837256],[-3.88737,51.83724],[-3.887591,51.837258],[-3.88779,51.837286],[-3.887969,51.837326],[-3.888126,51.837376],[-3.888262,51.837437],[-3.88839,51.83749],[-3.888511,51.837533],[-3.888625,51.837568],[-3.888732,51.837594],[-3.888842,51.837564],[-3.888954,51.837479],[-3.88907,51.837338],[-3.889188,51.837142],[-3.889277,51.836968],[-3.889337,51.836817],[-3.889369,51.836689],[-3.889372,51.836584],[-3.889396,51.836509],[-3.88944,51.836465],[-3.889505,51.836452],[-3.889592,51.836469],[-3.889664,51.836455],[-3.889721,51.836409],[-3.889764,51.836332],[-3.889793,51.836224],[-3.889829,51.836123],[-3.889871,51.836029],[-3.889921,51.835943],[-3.889977,51.835865],[-3.890042,51.835773],[-3.890117,51.835667],[-3.890201,51.835548],[-3.890294,51.835415],[-3.890377,51.835343],[-3.890449,51.835332],[-3.890512,51.835381],[-3.890564,51.835491],[-3.890631,51.835577],[-3.890714,51.835639],[-3.890811,51.835677],[-3.890923,51.835691],[-3.890991,51.83565],[-3.891014,51.835553],[-3.890994,51.835401],[-3.890929,51.835193],[-3.890844,51.835007],[-3.890738,51.834843],[-3.890613,51.8347],[-3.890467,51.834579],[-3.890361,51.834461],[-3.890293,51.834345],[-3.890264,51.834231],[-3.890274,51.834119],[-3.890307,51.834032],[-3.890364,51.83397],[-3.890445,51.833933],[-3.890548,51.83392],[-3.890621,51.833936],[-3.890662,51.833981],[-3.890671,51.834055],[-3.890649,51.834157],[-3.890641,51.834246],[-3.890647,51.834323],[-3.890667,51.834387],[-3.890701,51.834438],[-3.890769,51.834512],[-3.890871,51.834607],[-3.891007,51.834725],[-3.891176,51.834865],[-3.891295,51.835008],[-3.891363,51.835155],[-3.891381,51.835305],[-3.891348,51.835458],[-3.891356,51.835591],[-3.891405,51.835704],[-3.891494,51.835797],[-3.891625,51.83587],[-3.891734,51.83594],[-3.891822,51.836007],[-3.89189,51.83607],[-3.891936,51.836131],[-3.892002,51.836177],[-3.892088,51.836208],[-3.892194,51.836225],[-3.89232,51.836226],[-3.892424,51.836246],[-3.892508,51.836283],[-3.89257,51.836337],[-3.89261,51.83641],[-3.892685,51.836467],[-3.892792,51.83651],[-3.892933,51.836537],[-3.893107,51.83655],[-3.893206,51.836586],[-3.89323,51.836647],[-3.893178,51.836732],[-3.89305,51.836841],[-3.893005,51.836918],[-3.893042,51.836964],[-3.89316,51.836977],[-3.893361,51.836959],[-3.893516,51.836918],[-3.893627,51.836855],[-3.893692,51.83677],[-3.893712,51.836663],[-3.893741,51.836574],[-3.893777,51.836503],[-3.893821,51.836451],[-3.893873,51.836417],[-3.893916,51.836361],[-3.89395,51.836282],[-3.893974,51.836181],[-3.89399,51.836057],[-3.894035,51.835959],[-3.894111,51.835887],[-3.894217,51.83584],[-3.894354,51.835818],[-3.894428,51.835732],[-3.894439,51.835581],[-3.894388,51.835366],[-3.894274,51.835087],[-3.894156,51.83486],[-3.894034,51.834687],[-3.893909,51.834567],[-3.89378,51.834499],[-3.893659,51.834433],[-3.893544,51.83437],[-3.893438,51.834308],[-3.893338,51.834248],[-3.893286,51.834188],[-3.89328,51.834128],[-3.893322,51.834067],[-3.893411,51.834007],[-3.893523,51.833963],[-3.893658,51.833936],[-3.893816,51.833925],[-3.893997,51.833931],[-3.894106,51.833957],[-3.894143,51.834003],[-3.894107,51.834068],[-3.893999,51.834152],[-3.893953,51.834227],[-3.893969,51.834291],[-3.894046,51.834346],[-3.894186,51.83439],[-3.894298,51.834441],[-3.894384,51.8345],[-3.894443,51.834566],[-3.894475,51.83464],[-3.89456,51.834675],[-3.894698,51.834673],[-3.894889,51.834632],[-3.895134,51.834553],[-3.895326,51.834471],[-3.895465,51.834385],[-3.895551,51.834296],[-3.895585,51.834203],[-3.895597,51.834104],[-3.895586,51.833997],[-3.895552,51.833884],[-3.895497,51.833764],[-3.895438,51.833661],[-3.895376,51.833578],[-3.895311,51.833512],[-3.895242,51.833465],[-3.895152,51.833401],[-3.895042,51.83332],[-3.89491,51.833223],[-3.894758,51.833108],[-3.89465,51.833008],[-3.894587,51.832921],[-3.894569,51.832849],[-3.894596,51.832791],[-3.894677,51.832784],[-3.894812,51.832828],[-3.895001,51.832925],[-3.895245,51.833072],[-3.895443,51.833203],[-3.895595,51.833318],[-3.895702,51.833416],[-3.895763,51.833497],[-3.895845,51.833549],[-3.895946,51.833573],[-3.896068,51.833568],[-3.89621,51.833535],[-3.896309,51.833486],[-3.896365,51.833421],[-3.896378,51.833341],[-3.896348,51.833245],[-3.89635,51.833164],[-3.896384,51.833099],[-3.896449,51.83305],[-3.896546,51.833017],[-3.896613,51.832971],[-3.896649,51.832914],[-3.896654,51.832846],[-3.896629,51.832766],[-3.896572,51.832707],[-3.896484,51.832667],[-3.896364,51.832649],[-3.896212,51.83265],[-3.896074,51.832635],[-3.895952,51.832602],[-3.895845,51.832553],[-3.895752,51.832487],[-3.895709,51.832414],[-3.895716,51.832336],[-3.895773,51.832252],[-3.895879,51.832162],[-3.895951,51.832061],[-3.895988,51.831949],[-3.895989,51.831826],[-3.895956,51.831691],[-3.895967,51.831581],[-3.89602,51.831494],[-3.896117,51.831432],[-3.896258,51.831393],[-3.896372,51.831377],[-3.896459,51.831383],[-3.896519,51.831411],[-3.896553,51.831463],[-3.896601,51.831471],[-3.896661,51.831436],[-3.896736,51.831358],[-3.896823,51.831237],[-3.896919,51.831133],[-3.897022,51.831046],[-3.897132,51.830976],[-3.89725,51.830923],[-3.897321,51.830856],[-3.897344,51.830773],[-3.89732,51.830675],[-3.897249,51.830562],[-3.89717,51.830459],[-3.897083,51.830367],[-3.896988,51.830286],[-3.896885,51.830215],[-3.896819,51.830156],[-3.89679,51.830106],[-3.896799,51.830068],[-3.896844,51.830041],[-3.8969,51.830026],[-3.896966,51.830023],[-3.897043,51.830033],[-3.897131,51.830056],[-3.89722,51.830066],[-3.897309,51.830064],[-3.897398,51.830049],[-3.897488,51.830022],[-3.897593,51.830049],[-3.897713,51.830132],[-3.897848,51.830269],[-3.897998,51.830461],[-3.898138,51.830585],[-3.898268,51.830642],[-3.898388,51.83063],[-3.898497,51.830551],[-3.898566,51.830471],[-3.898595,51.83039],[-3.898583,51.830308],[-3.89853,51.830226],[-3.898517,51.830161],[-3.898542,51.830114],[-3.898607,51.830084],[-3.898711,51.830072],[-3.898762,51.830042],[-3.898761,51.829996],[-3.898707,51.829931],[-3.898601,51.82985],[-3.898477,51.829792],[-3.898336,51.829756],[-3.898177,51.829743],[-3.898001,51.829753],[-3.897835,51.829747],[-3.89768,51.829724],[-3.897535,51.829685],[-3.897401,51.829629],[-3.897315,51.829574],[-3.897276,51.829521],[-3.897284,51.829469],[-3.89734,51.829418],[-3.89736,51.829346],[-3.897345,51.829254],[-3.897294,51.829141],[-3.897207,51.829008],[-3.897103,51.828899],[-3.896982,51.828814],[-3.896845,51.828753],[-3.89669,51.828716],[-3.896579,51.828714],[-3.896513,51.828747],[-3.896491,51.828814],[-3.896515,51.828917],[-3.896511,51.828985],[-3.896481,51.829019],[-3.896425,51.829018],[-3.896343,51.828984],[-3.896274,51.828937],[-3.89622,51.828877],[-3.896179,51.828805],[-3.896152,51.828719],[-3.8961,51.82864],[-3.896024,51.828566],[-3.895922,51.828498],[-3.895794,51.828436],[-3.895699,51.828411],[-3.895636,51.828425],[-3.895605,51.828475],[-3.895606,51.828564],[-3.895598,51.828632],[-3.895582,51.828681],[-3.895557,51.82871],[-3.895524,51.82872],[-3.89547,51.828711],[-3.895394,51.828684],[-3.895297,51.828639],[-3.895179,51.828576],[-3.895069,51.828489],[-3.894967,51.82838],[-3.894874,51.828247],[-3.89479,51.828092],[-3.894699,51.827967],[-3.894603,51.827874],[-3.8945,51.827811],[-3.894392,51.82778],[-3.894312,51.827733],[-3.894261,51.82767],[-3.894238,51.827591],[-3.894245,51.827496],[-3.89426,51.827416],[-3.894284,51.827349],[-3.894317,51.827297],[-3.894359,51.827259],[-3.894401,51.827194],[-3.894445,51.827104],[-3.894489,51.826986],[-3.894533,51.826843],[-3.894557,51.826725],[-3.89456,51.826634],[-3.894542,51.826568],[-3.894502,51.826529],[-3.894425,51.826481],[-3.894309,51.826426],[-3.894155,51.826363],[-3.893962,51.826292],[-3.893794,51.826206],[-3.89365,51.826104],[-3.89353,51.825987],[-3.893435,51.825855],[-3.893322,51.825766],[-3.893191,51.825721],[-3.893043,51.825719],[-3.892876,51.825761],[-3.892715,51.825791],[-3.89256,51.82581],[-3.892409,51.825817],[-3.892264,51.825812],[-3.892159,51.82582],[-3.892094,51.825842],[-3.892069,51.825877],[-3.892084,51.825925],[-3.892043,51.825978],[-3.891944,51.826037],[-3.89179,51.826101],[-3.891578,51.82617],[-3.891398,51.82621],[-3.891248,51.826219],[-3.89113,51.826199],[-3.891042,51.826149],[-3.890939,51.826135],[-3.89082,51.826157],[-3.890686,51.826216],[-3.890537,51.826311],[-3.89044,51.826418],[-3.890396,51.826537],[-3.890406,51.826667],[-3.890468,51.826809],[-3.890491,51.826947],[-3.890475,51.827081],[-3.890419,51.827212],[-3.890325,51.82734],[-3.890217,51.827446],[-3.890096,51.827533],[-3.889961,51.827599],[-3.889814,51.827644],[-3.889679,51.827686],[-3.889557,51.827726],[-3.889447,51.827762],[-3.88935,51.827796],[-3.889249,51.827823],[-3.889143,51.827844],[-3.889034,51.827858],[-3.888919,51.827867],[-3.888816,51.827886],[-3.888722,51.827916],[-3.888639,51.827958],[-3.888565,51.828011],[-3.888525,51.828074],[-3.888516,51.828147],[-3.88854,51.82823],[-3.888596,51.828322],[-3.888565,51.828419],[-3.888448,51.828518],[-3.888245,51.828621],[-3.887955,51.828728],[-3.887715,51.828827],[-3.887524,51.828919],[-3.887382,51.829003],[-3.88729,51.829081],[-3.887195,51.829129],[-3.887098,51.829149],[-3.886999,51.82914],[-3.886897,51.829103],[-3.88678,51.829107],[-3.886646,51.829153],[-3.886497,51.829242],[-3.886331,51.829372],[-3.886202,51.829503],[-3.886109,51.829636],[-3.886052,51.82977],[-3.886031,51.829905],[-3.885972,51.830039],[-3.885875,51.830172],[-3.885739,51.830305],[-3.885565,51.830436],[-3.885434,51.830547],[-3.885345,51.830638],[-3.8853,51.830708],[-3.885298,51.830758],[-3.885268,51.830799],[-3.885211,51.830831],[-3.885126,51.830853],[-3.885013,51.830867],[-3.884888,51.830917],[-3.88475,51.831006],[-3.884598,51.831132],[-3.884434,51.831295],[-3.884203,51.831476],[-3.883907,51.831674],[-3.883544,51.83189],[-3.883114,51.832124],[-3.882752,51.832344],[-3.882458,51.83255],[-3.882231,51.832743],[-3.882072,51.832922],[-3.88193,51.833072],[-3.881806,51.833192],[-3.8817,51.833282],[-3.881611,51.833342],[-3.88155,51.833434],[-3.881517,51.833557],[-3.881511,51.833711],[-3.881533,51.833896],[-3.881528,51.834039],[-3.881497,51.834139],[-3.881439,51.834197],[-3.881354,51.834213],[-3.881293,51.834246],[-3.881255,51.834298],[-3.881241,51.834367],[-3.88125,51.834455],[-3.88124,51.834522],[-3.88121,51.83457],[-3.88116,51.834598],[-3.881091,51.834606],[-3.881035,51.834635],[-3.880992,51.834684],[-3.880962,51.834754],[-3.880946,51.834845],[-3.880966,51.834932],[-3.881024,51.835016],[-3.881119,51.835098],[-3.881251,51.835176],[-3.881356,51.835252],[-3.881433,51.835325],[-3.881482,51.835397],[-3.881503,51.835466],[-3.881564,51.835524],[-3.881664,51.83557],[-3.881802,51.835605],[-3.88198,51.835628],[-3.882129,51.835694],[-3.882248,51.835804],[-3.882339,51.835958],[-3.882401,51.836155],[-3.882484,51.836322],[-3.88259,51.836459],[-3.882717,51.836565],[-3.882867,51.836641],[-3.882988,51.836676],[-3.88308,51.836671],[-3.883144,51.836625],[-3.88318,51.836537],[-3.883235,51.836485],[-3.883311,51.836468],[-3.883406,51.836486],[-3.883521,51.836538],[-3.883628,51.836601],[-3.883728,51.836675],[-3.883819,51.83676],[-3.883903,51.836855],[-3.884013,51.836956],[-3.88415,51.837064],[-3.884313,51.837179],[-3.884504,51.8373],[-3.88461,51.837402],[-3.884631,51.837485],[-3.884568,51.837549],[-3.884421,51.837594],[-3.884268,51.837585],[-3.884109,51.837521],[-3.883944,51.837402],[-3.883773,51.837229],[-3.883625,51.837102],[-3.883501,51.83702],[-3.8834,51.836984],[-3.883322,51.836993],[-3.883299,51.837048],[-3.883331,51.837149],[-3.883417,51.837297],[-3.883558,51.83749],[-3.883659,51.837648],[-3.88372,51.83777],[-3.883741,51.837858],[-3.883721,51.83791],[-3.883669,51.837952],[-3.883585,51.837984],[-3.883469,51.838006],[-3.88332,51.838018],[-3.883217,51.838063],[-3.88316,51.838138],[-3.883149,51.838246],[-3.883184,51.838386],[-3.883261,51.838505],[-3.883382,51.838604],[-3.883545,51.838682],[-3.883752,51.838741],[-3.883879,51.838796],[-3.883927,51.838848],[-3.883895,51.838898],[-3.883784,51.838944],[-3.88376,51.839037],[-3.883821,51.839176],[-3.883969,51.839361],[-3.884203,51.839593]]]}}