{"type":"Feature","properties":{"id":"257417","COMMUNE":"Carmarthenshire","PROVINCE":"South West Wales","COUNTRY":"UK","FIREDATE":"2025-03-05 12:48:00","CLASS":"FireSeason","areaHA_geo":18.839},"geometry":{"type":"Polygon","coordinates":[[[-3.824761,51.823838],[-3.824756,51.823865],[-3.824753,51.82389],[-3.824751,51.823912],[-3.824752,51.823931],[-3.824754,51.823948],[-3.824758,51.823963],[-3.824764,51.823975],[-3.824772,51.823984],[-3.824782,51.823991],[-3.824793,51.823995],[-3.824807,51.823997],[-3.824822,51.823996],[-3.824839,51.823992],[-3.824858,51.823986],[-3.824878,51.823978],[-3.824901,51.823967],[-3.824922,51.823957],[-3.824943,51.823949],[-3.824963,51.823942],[-3.824983,51.823937],[-3.825001,51.823933],[-3.825019,51.823931],[-3.825036,51.82393],[-3.825052,51.82393],[-3.825067,51.823932],[-3.825082,51.823935],[-3.825096,51.82394],[-3.825109,51.823946],[-3.825121,51.823953],[-3.825132,51.823962],[-3.825143,51.823972],[-3.825153,51.823984],[-3.825165,51.823994],[-3.825181,51.824003],[-3.825199,51.82401],[-3.82522,51.824016],[-3.825243,51.82402],[-3.82527,51.824023],[-3.825299,51.824024],[-3.825331,51.824023],[-3.825366,51.824022],[-3.825403,51.824018],[-3.825443,51.824013],[-3.825486,51.824007],[-3.825532,51.823999],[-3.825581,51.823989],[-3.825632,51.823978],[-3.825686,51.823966],[-3.825737,51.823956],[-3.825784,51.823948],[-3.825828,51.823943],[-3.825868,51.82394],[-3.825905,51.82394],[-3.825939,51.823942],[-3.825969,51.823947],[-3.825996,51.823954],[-3.82602,51.823963],[-3.82604,51.823975],[-3.826056,51.82399],[-3.82607,51.824007],[-3.826079,51.824026],[-3.826086,51.824048],[-3.826089,51.824072],[-3.826089,51.824099],[-3.826089,51.824125],[-3.826089,51.82415],[-3.82609,51.824175],[-3.826092,51.8242],[-3.826094,51.824224],[-3.826096,51.824247],[-3.826099,51.82427],[-3.826102,51.824293],[-3.826106,51.824315],[-3.82611,51.824336],[-3.826115,51.824357],[-3.82612,51.824377],[-3.826125,51.824397],[-3.826131,51.824416],[-3.826138,51.824435],[-3.826145,51.824453],[-3.826152,51.824469],[-3.826161,51.824484],[-3.826171,51.824496],[-3.826181,51.824507],[-3.826192,51.824516],[-3.826205,51.824523],[-3.826218,51.824528],[-3.826232,51.824531],[-3.826246,51.824533],[-3.826262,51.824532],[-3.826279,51.82453],[-3.826296,51.824526],[-3.826315,51.82452],[-3.826334,51.824512],[-3.826354,51.824502],[-3.826375,51.82449],[-3.826395,51.824478],[-3.826413,51.824464],[-3.826431,51.824448],[-3.826446,51.824432],[-3.826461,51.824414],[-3.826474,51.824395],[-3.826486,51.824375],[-3.826497,51.824353],[-3.826506,51.824331],[-3.826514,51.824307],[-3.826521,51.824282],[-3.826526,51.824256],[-3.82653,51.824228],[-3.826533,51.824199],[-3.826534,51.824169],[-3.826535,51.824138],[-3.826538,51.824108],[-3.826545,51.82408],[-3.826554,51.824052],[-3.826568,51.824026],[-3.826584,51.824001],[-3.826603,51.823977],[-3.826626,51.823955],[-3.826652,51.823933],[-3.826682,51.823913],[-3.826714,51.823894],[-3.82675,51.823877],[-3.826789,51.82386],[-3.826831,51.823845],[-3.826876,51.823831],[-3.826925,51.823818],[-3.826977,51.823807],[-3.827028,51.823797],[-3.827077,51.823788],[-3.827125,51.82378],[-3.827171,51.823774],[-3.827216,51.823769],[-3.82726,51.823765],[-3.827302,51.823763],[-3.827343,51.823762],[-3.827383,51.823762],[-3.827421,51.823764],[-3.827458,51.823766],[-3.827493,51.823771],[-3.827528,51.823776],[-3.82756,51.823783],[-3.827592,51.823791],[-3.827622,51.8238],[-3.827652,51.823809],[-3.827681,51.823818],[-3.827711,51.823826],[-3.82774,51.823834],[-3.827769,51.823842],[-3.827798,51.82385],[-3.827827,51.823857],[-3.827856,51.823864],[-3.827884,51.82387],[-3.827913,51.823877],[-3.827941,51.823882],[-3.827969,51.823888],[-3.827997,51.823893],[-3.828024,51.823898],[-3.828052,51.823903],[-3.828079,51.823907],[-3.828105,51.823911],[-3.828132,51.823914],[-3.828157,51.823915],[-3.828182,51.823916],[-3.828207,51.823917],[-3.82823,51.823916],[-3.828254,51.823915],[-3.828276,51.823912],[-3.828299,51.823909],[-3.82832,51.823905],[-3.828341,51.8239],[-3.828362,51.823895],[-3.828381,51.823888],[-3.828401,51.823881],[-3.828419,51.823873],[-3.828438,51.823864],[-3.828456,51.823856],[-3.828474,51.823849],[-3.828493,51.823843],[-3.828512,51.823838],[-3.828531,51.823834],[-3.82855,51.823831],[-3.828569,51.823829],[-3.828589,51.823829],[-3.828609,51.823829],[-3.828628,51.82383],[-3.828648,51.823832],[-3.828668,51.823836],[-3.828689,51.82384],[-3.828709,51.823845],[-3.82873,51.823852],[-3.828751,51.823859],[-3.828771,51.823867],[-3.82879,51.823875],[-3.828808,51.823883],[-3.828826,51.823891],[-3.828843,51.8239],[-3.828859,51.823908],[-3.828875,51.823917],[-3.828889,51.823927],[-3.828903,51.823936],[-3.828916,51.823946],[-3.828928,51.823956],[-3.82894,51.823966],[-3.828951,51.823977],[-3.828961,51.823987],[-3.82897,51.823998],[-3.828978,51.824009],[-3.828988,51.824021],[-3.828999,51.824031],[-3.829011,51.824042],[-3.829024,51.824053],[-3.829038,51.824063],[-3.829054,51.824073],[-3.82907,51.824084],[-3.829088,51.824094],[-3.829107,51.824104],[-3.829128,51.824113],[-3.829149,51.824123],[-3.829172,51.824132],[-3.829196,51.824142],[-3.829221,51.824151],[-3.829247,51.82416],[-3.829274,51.824169],[-3.829301,51.824178],[-3.829326,51.824188],[-3.82935,51.824197],[-3.829374,51.824208],[-3.829396,51.824218],[-3.829417,51.824229],[-3.829437,51.82424],[-3.829456,51.824251],[-3.829474,51.824263],[-3.829491,51.824275],[-3.829506,51.824288],[-3.829521,51.8243],[-3.829535,51.824313],[-3.829547,51.824327],[-3.829559,51.82434],[-3.82957,51.824354],[-3.829579,51.824368],[-3.829587,51.824381],[-3.829594,51.824395],[-3.8296,51.824408],[-3.829605,51.82442],[-3.829608,51.824433],[-3.829611,51.824445],[-3.829612,51.824457],[-3.829612,51.824469],[-3.829611,51.82448],[-3.829609,51.824492],[-3.829606,51.824503],[-3.829601,51.824513],[-3.829595,51.824524],[-3.829589,51.824534],[-3.829581,51.824544],[-3.829574,51.824554],[-3.82957,51.824563],[-3.829567,51.824572],[-3.829565,51.82458],[-3.829565,51.824588],[-3.829567,51.824596],[-3.829571,51.824603],[-3.829576,51.824609],[-3.829583,51.824615],[-3.829591,51.824621],[-3.829601,51.824627],[-3.829613,51.824631],[-3.829626,51.824636],[-3.829641,51.82464],[-3.829658,51.824643],[-3.829676,51.824647],[-3.829694,51.824649],[-3.829712,51.82465],[-3.82973,51.824649],[-3.829748,51.824648],[-3.829765,51.824645],[-3.829783,51.824642],[-3.8298,51.824637],[-3.829818,51.824631],[-3.829835,51.824624],[-3.829852,51.824616],[-3.829869,51.824607],[-3.829886,51.824597],[-3.829902,51.824585],[-3.829919,51.824573],[-3.829935,51.824559],[-3.829952,51.824544],[-3.829969,51.82453],[-3.829986,51.824517],[-3.830004,51.824505],[-3.830022,51.824493],[-3.830041,51.824483],[-3.83006,51.824473],[-3.83008,51.824465],[-3.830101,51.824457],[-3.830122,51.82445],[-3.830143,51.824444],[-3.830165,51.824439],[-3.830187,51.824435],[-3.83021,51.824432],[-3.830234,51.824429],[-3.830258,51.824428],[-3.830282,51.824427],[-3.830305,51.824426],[-3.830327,51.824424],[-3.830347,51.824421],[-3.830365,51.824417],[-3.830382,51.824412],[-3.830398,51.824407],[-3.830412,51.824401],[-3.830425,51.824394],[-3.830436,51.824387],[-3.830446,51.824378],[-3.830454,51.824369],[-3.830461,51.824359],[-3.830466,51.824348],[-3.83047,51.824337],[-3.830472,51.824325],[-3.830473,51.824312],[-3.830471,51.824299],[-3.830467,51.824288],[-3.830459,51.824276],[-3.830449,51.824266],[-3.830435,51.824256],[-3.830419,51.824247],[-3.830401,51.824238],[-3.830379,51.82423],[-3.830355,51.824222],[-3.830327,51.824216],[-3.830297,51.824209],[-3.830264,51.824204],[-3.830229,51.824199],[-3.83019,51.824194],[-3.830149,51.824191],[-3.830105,51.824188],[-3.830066,51.824184],[-3.830033,51.82418],[-3.830006,51.824175],[-3.829984,51.824169],[-3.829968,51.824163],[-3.829957,51.824156],[-3.829952,51.824149],[-3.829953,51.82414],[-3.829959,51.824132],[-3.829971,51.824123],[-3.829988,51.824113],[-3.830011,51.824102],[-3.83004,51.824091],[-3.830074,51.824079],[-3.830113,51.824067],[-3.830159,51.824054],[-3.830202,51.824042],[-3.830243,51.824032],[-3.830283,51.824023],[-3.830321,51.824015],[-3.830356,51.824008],[-3.83039,51.824003],[-3.830422,51.823999],[-3.830452,51.823996],[-3.83048,51.823994],[-3.830506,51.823994],[-3.83053,51.823995],[-3.830553,51.823997],[-3.830573,51.824001],[-3.830592,51.824006],[-3.830608,51.824012],[-3.830623,51.824019],[-3.830638,51.824026],[-3.830653,51.824031],[-3.830668,51.824035],[-3.830683,51.824039],[-3.830699,51.824041],[-3.830715,51.824042],[-3.830731,51.824042],[-3.830748,51.824041],[-3.830764,51.82404],[-3.830781,51.824037],[-3.830798,51.824033],[-3.830815,51.824028],[-3.830833,51.824022],[-3.830851,51.824015],[-3.830869,51.824007],[-3.830887,51.823998],[-3.830904,51.823988],[-3.830921,51.823977],[-3.830937,51.823965],[-3.830952,51.823952],[-3.830966,51.823937],[-3.830979,51.823922],[-3.830992,51.823906],[-3.831004,51.823889],[-3.831015,51.82387],[-3.831025,51.823851],[-3.831035,51.82383],[-3.831043,51.823809],[-3.831051,51.823786],[-3.831058,51.823762],[-3.831065,51.823738],[-3.83107,51.823712],[-3.831075,51.823686],[-3.831078,51.823661],[-3.83108,51.823636],[-3.83108,51.823612],[-3.83108,51.823588],[-3.831078,51.823564],[-3.831075,51.82354],[-3.831071,51.823516],[-3.831065,51.823493],[-3.831059,51.82347],[-3.831051,51.823448],[-3.831042,51.823426],[-3.831031,51.823404],[-3.83102,51.823382],[-3.831007,51.82336],[-3.830993,51.823339],[-3.830977,51.823319],[-3.83096,51.823299],[-3.83094,51.823281],[-3.830919,51.823263],[-3.830896,51.823246],[-3.830871,51.82323],[-3.830844,51.823215],[-3.830816,51.8232],[-3.830785,51.823187],[-3.830753,51.823174],[-3.830719,51.823162],[-3.830683,51.823151],[-3.830646,51.82314],[-3.830606,51.823131],[-3.830565,51.823122],[-3.830522,51.823114],[-3.830482,51.823106],[-3.830446,51.823098],[-3.830414,51.82309],[-3.830385,51.823081],[-3.830359,51.823072],[-3.830337,51.823063],[-3.830319,51.823053],[-3.830304,51.823044],[-3.830293,51.823034],[-3.830286,51.823024],[-3.830282,51.823013],[-3.830281,51.823003],[-3.830284,51.822992],[-3.830291,51.822981],[-3.830301,51.82297],[-3.830315,51.822958],[-3.830324,51.822946],[-3.83033,51.822932],[-3.830332,51.822917],[-3.830329,51.8229],[-3.830323,51.822883],[-3.830313,51.822864],[-3.830299,51.822844],[-3.83028,51.822823],[-3.830258,51.822801],[-3.830232,51.822778],[-3.830202,51.822753],[-3.830167,51.822728],[-3.830129,51.822701],[-3.830087,51.822672],[-3.830041,51.822643],[-3.829991,51.822613],[-3.829945,51.822583],[-3.829905,51.822554],[-3.82987,51.822526],[-3.829839,51.822498],[-3.829814,51.822472],[-3.829793,51.822446],[-3.829778,51.822421],[-3.829767,51.822397],[-3.829761,51.822374],[-3.829761,51.822351],[-3.829765,51.822329],[-3.829774,51.822308],[-3.829788,51.822288],[-3.829807,51.822268],[-3.829831,51.82225],[-3.82986,51.822232],[-3.829889,51.822215],[-3.829919,51.822199],[-3.829949,51.822184],[-3.829979,51.82217],[-3.83001,51.822157],[-3.83004,51.822145],[-3.830071,51.822134],[-3.830103,51.822123],[-3.830134,51.822114],[-3.830166,51.822106],[-3.830199,51.822099],[-3.830231,51.822092],[-3.830264,51.822087],[-3.830297,51.822082],[-3.830331,51.822079],[-3.830364,51.822077],[-3.830394,51.822073],[-3.83042,51.822068],[-3.830442,51.822063],[-3.830461,51.822056],[-3.830475,51.822049],[-3.830486,51.82204],[-3.830493,51.822031],[-3.830495,51.82202],[-3.830494,51.822008],[-3.83049,51.821996],[-3.830481,51.821982],[-3.830468,51.821968],[-3.830452,51.821952],[-3.830432,51.821935],[-3.830407,51.821918],[-3.830379,51.821899],[-3.830356,51.821881],[-3.830337,51.821864],[-3.830323,51.821849],[-3.830313,51.821834],[-3.830308,51.821821],[-3.830307,51.821808],[-3.830311,51.821797],[-3.830319,51.821786],[-3.830332,51.821777],[-3.83035,51.821768],[-3.830372,51.821761],[-3.830399,51.821754],[-3.83043,51.821749],[-3.830466,51.821745],[-3.830506,51.821741],[-3.830551,51.821739],[-3.830594,51.821738],[-3.830636,51.821737],[-3.830676,51.821737],[-3.830714,51.821738],[-3.830751,51.82174],[-3.830786,51.821743],[-3.830819,51.821747],[-3.830851,51.821752],[-3.830881,51.821757],[-3.830909,51.821763],[-3.830936,51.821771],[-3.830961,51.821779],[-3.830984,51.821788],[-3.831006,51.821797],[-3.831026,51.821808],[-3.831044,51.821819],[-3.831062,51.82183],[-3.83108,51.82184],[-3.831097,51.821848],[-3.831115,51.821856],[-3.831132,51.821863],[-3.831148,51.821869],[-3.831165,51.821874],[-3.831181,51.821878],[-3.831197,51.821882],[-3.831212,51.821884],[-3.831227,51.821885],[-3.831242,51.821886],[-3.831257,51.821886],[-3.831271,51.821884],[-3.831285,51.821882],[-3.831299,51.821879],[-3.831311,51.821874],[-3.831322,51.821869],[-3.831331,51.821862],[-3.831338,51.821854],[-3.831343,51.821845],[-3.831347,51.821835],[-3.831349,51.821824],[-3.831349,51.821811],[-3.831348,51.821797],[-3.831345,51.821782],[-3.831341,51.821766],[-3.831334,51.821749],[-3.831326,51.821731],[-3.831317,51.821711],[-3.831305,51.82169],[-3.831292,51.821668],[-3.831282,51.821647],[-3.831275,51.821628],[-3.831272,51.82161],[-3.831271,51.821593],[-3.831274,51.821577],[-3.831279,51.821563],[-3.831288,51.82155],[-3.8313,51.821539],[-3.831315,51.821528],[-3.831333,51.821519],[-3.831354,51.821511],[-3.831378,51.821505],[-3.831405,51.8215],[-3.831435,51.821496],[-3.831469,51.821493],[-3.831506,51.821492],[-3.831537,51.821489],[-3.831564,51.821483],[-3.831586,51.821476],[-3.831603,51.821467],[-3.831615,51.821456],[-3.831622,51.821442],[-3.831624,51.821427],[-3.831621,51.82141],[-3.831613,51.821391],[-3.8316,51.82137],[-3.831583,51.821347],[-3.83156,51.821322],[-3.831532,51.821295],[-3.8315,51.821266],[-3.831463,51.821235],[-3.83142,51.821202],[-3.831378,51.821171],[-3.831335,51.821144],[-3.831292,51.821118],[-3.831248,51.821096],[-3.831205,51.821076],[-3.831161,51.821059],[-3.831116,51.821044],[-3.831072,51.821032],[-3.831027,51.821022],[-3.830982,51.821015],[-3.830937,51.821011],[-3.830891,51.821009],[-3.830845,51.82101],[-3.830799,51.821013],[-3.830753,51.821019],[-3.830706,51.821028],[-3.830664,51.821037],[-3.830627,51.821047],[-3.830594,51.821058],[-3.830565,51.82107],[-3.830541,51.821082],[-3.830522,51.821096],[-3.830507,51.82111],[-3.830497,51.821125],[-3.830492,51.82114],[-3.830491,51.821157],[-3.830494,51.821174],[-3.830502,51.821192],[-3.830515,51.821211],[-3.830532,51.82123],[-3.830554,51.821251],[-3.83058,51.821272],[-3.830602,51.821292],[-3.830619,51.821311],[-3.830632,51.821329],[-3.830639,51.821346],[-3.830643,51.821361],[-3.830642,51.821376],[-3.830636,51.821389],[-3.830626,51.821401],[-3.830611,51.821412],[-3.830591,51.821422],[-3.830567,51.821431],[-3.830538,51.821439],[-3.830505,51.821446],[-3.830467,51.821451],[-3.830425,51.821456],[-3.830377,51.821459],[-3.830333,51.821461],[-3.83029,51.821462],[-3.83025,51.821462],[-3.830212,51.82146],[-3.830177,51.821457],[-3.830144,51.821453],[-3.830113,51.821448],[-3.830084,51.821441],[-3.830058,51.821434],[-3.830034,51.821425],[-3.830013,51.821415],[-3.829993,51.821403],[-3.829976,51.821391],[-3.829962,51.821377],[-3.829949,51.821362],[-3.829939,51.821345],[-3.829928,51.82133],[-3.829915,51.821316],[-3.8299,51.821303],[-3.829883,51.821291],[-3.829865,51.82128],[-3.829846,51.82127],[-3.829825,51.821261],[-3.829802,51.821253],[-3.829777,51.821246],[-3.829751,51.82124],[-3.829724,51.821235],[-3.829695,51.821232],[-3.829664,51.821229],[-3.829631,51.821227],[-3.829597,51.821227],[-3.829562,51.821227],[-3.829527,51.821227],[-3.829493,51.821226],[-3.829461,51.821225],[-3.829429,51.821224],[-3.829398,51.821222],[-3.829369,51.821219],[-3.82934,51.821216],[-3.829313,51.821212],[-3.829286,51.821208],[-3.82926,51.821204],[-3.829236,51.821199],[-3.829212,51.821193],[-3.82919,51.821187],[-3.829168,51.821181],[-3.829147,51.821174],[-3.829128,51.821166],[-3.82911,51.821158],[-3.829093,51.821149],[-3.829079,51.821139],[-3.829065,51.821128],[-3.829054,51.821117],[-3.829044,51.821105],[-3.829036,51.821092],[-3.829029,51.821078],[-3.829024,51.821064],[-3.82902,51.821049],[-3.829018,51.821033],[-3.829018,51.821016],[-3.829019,51.820999],[-3.829022,51.82098],[-3.829027,51.820961],[-3.829033,51.820942],[-3.829042,51.820922],[-3.829053,51.820903],[-3.829067,51.820884],[-3.829084,51.820866],[-3.829103,51.820848],[-3.829124,51.82083],[-3.829148,51.820812],[-3.829175,51.820795],[-3.829204,51.820778],[-3.829236,51.820762],[-3.82927,51.820745],[-3.829307,51.820729],[-3.829347,51.820714],[-3.829389,51.820698],[-3.829434,51.820683],[-3.829481,51.820669],[-3.829527,51.820653],[-3.829573,51.820638],[-3.829617,51.820622],[-3.829661,51.820606],[-3.829704,51.820589],[-3.829746,51.820572],[-3.829787,51.820555],[-3.829827,51.820537],[-3.829866,51.820519],[-3.829904,51.820501],[-3.829942,51.820482],[-3.829978,51.820463],[-3.830014,51.820443],[-3.830049,51.820424],[-3.830083,51.820403],[-3.830116,51.820383],[-3.830148,51.820361],[-3.830179,51.820338],[-3.830209,51.820314],[-3.830237,51.820289],[-3.830265,51.820263],[-3.830292,51.820235],[-3.830318,51.820207],[-3.830343,51.820177],[-3.830366,51.820147],[-3.830389,51.820115],[-3.830411,51.820082],[-3.830431,51.820048],[-3.830451,51.820013],[-3.830469,51.819977],[-3.830487,51.81994],[-3.830503,51.819901],[-3.830516,51.819866],[-3.830525,51.819834],[-3.830531,51.819806],[-3.830534,51.819781],[-3.830533,51.819759],[-3.830529,51.81974],[-3.830521,51.819725],[-3.83051,51.819713],[-3.830496,51.819704],[-3.830478,51.819699],[-3.830456,51.819697],[-3.830431,51.819698],[-3.830403,51.819703],[-3.830371,51.81971],[-3.830336,51.819722],[-3.830297,51.819736],[-3.830258,51.819748],[-3.830217,51.819757],[-3.830176,51.819763],[-3.830133,51.819767],[-3.83009,51.819767],[-3.830046,51.819765],[-3.830001,51.819761],[-3.829955,51.819753],[-3.829908,51.819743],[-3.82986,51.81973],[-3.829811,51.819714],[-3.829761,51.819696],[-3.82971,51.819675],[-3.829659,51.819651],[-3.829606,51.819624],[-3.829552,51.819595],[-3.829501,51.819569],[-3.829452,51.819545],[-3.829404,51.819525],[-3.829359,51.819507],[-3.829316,51.819493],[-3.829275,51.819482],[-3.829236,51.819473],[-3.829199,51.819468],[-3.829164,51.819465],[-3.829132,51.819466],[-3.829101,51.819469],[-3.829073,51.819475],[-3.829046,51.819485],[-3.829022,51.819497],[-3.829,51.819513],[-3.828979,51.819531],[-3.828959,51.819549],[-3.828937,51.819565],[-3.828915,51.819581],[-3.828892,51.819597],[-3.828868,51.819611],[-3.828844,51.819625],[-3.828818,51.819638],[-3.828793,51.81965],[-3.828766,51.819661],[-3.828739,51.819672],[-3.828711,51.819682],[-3.828682,51.819691],[-3.828653,51.819699],[-3.828623,51.819707],[-3.828592,51.819714],[-3.828561,51.81972],[-3.828531,51.819726],[-3.828504,51.819733],[-3.828478,51.819739],[-3.828455,51.819747],[-3.828433,51.819754],[-3.828413,51.819762],[-3.828395,51.81977],[-3.828379,51.819778],[-3.828365,51.819787],[-3.828353,51.819796],[-3.828343,51.819805],[-3.828335,51.819815],[-3.828329,51.819824],[-3.828325,51.819835],[-3.828322,51.819845],[-3.828322,51.819856],[-3.828319,51.819866],[-3.828312,51.819875],[-3.828303,51.819883],[-3.82829,51.819891],[-3.828275,51.819897],[-3.828256,51.819903],[-3.828235,51.819909],[-3.82821,51.819913],[-3.828183,51.819917],[-3.828152,51.819919],[-3.828119,51.819922],[-3.828082,51.819923],[-3.828043,51.819923],[-3.828,51.819923],[-3.827954,51.819922],[-3.827906,51.81992],[-3.827858,51.819918],[-3.82781,51.819916],[-3.827764,51.819914],[-3.827717,51.819911],[-3.827672,51.819909],[-3.827627,51.819906],[-3.827583,51.819903],[-3.827539,51.8199],[-3.827497,51.819896],[-3.827454,51.819893],[-3.827413,51.819889],[-3.827372,51.819885],[-3.827331,51.819881],[-3.827292,51.819877],[-3.827253,51.819872],[-3.827214,51.819868],[-3.827175,51.819863],[-3.827136,51.819859],[-3.827096,51.819855],[-3.827056,51.81985],[-3.827016,51.819846],[-3.826974,51.819842],[-3.826933,51.819838],[-3.826891,51.819833],[-3.826848,51.819829],[-3.826806,51.819825],[-3.826762,51.819821],[-3.826719,51.819817],[-3.826674,51.819814],[-3.82663,51.81981],[-3.826585,51.819806],[-3.826539,51.819802],[-3.826496,51.819797],[-3.826456,51.81979],[-3.826419,51.819781],[-3.826384,51.819771],[-3.826352,51.819759],[-3.826323,51.819745],[-3.826296,51.81973],[-3.826273,51.819713],[-3.826252,51.819694],[-3.826233,51.819674],[-3.826218,51.819652],[-3.826205,51.819629],[-3.826195,51.819604],[-3.826187,51.819577],[-3.826183,51.819548],[-3.826181,51.819518],[-3.826175,51.81949],[-3.826165,51.819463],[-3.826151,51.819438],[-3.826133,51.819415],[-3.826111,51.819394],[-3.826085,51.819375],[-3.826055,51.819357],[-3.826021,51.819342],[-3.825983,51.819328],[-3.825941,51.819316],[-3.825896,51.819305],[-3.825846,51.819297],[-3.825792,51.81929],[-3.825734,51.819285],[-3.825672,51.819282],[-3.825607,51.819281],[-3.825545,51.819282],[-3.825489,51.819286],[-3.825436,51.819292],[-3.825388,51.819301],[-3.825345,51.819312],[-3.825306,51.819326],[-3.825272,51.819342],[-3.825242,51.819361],[-3.825216,51.819382],[-3.825195,51.819406],[-3.825179,51.819432],[-3.825167,51.819461],[-3.825159,51.819492],[-3.825156,51.819526],[-3.825158,51.819562],[-3.825164,51.819601],[-3.82517,51.819639],[-3.825177,51.819676],[-3.825185,51.819713],[-3.825193,51.819748],[-3.825202,51.819783],[-3.825212,51.819817],[-3.825222,51.819851],[-3.825233,51.819883],[-3.825244,51.819915],[-3.825256,51.819946],[-3.825269,51.819976],[-3.825282,51.820005],[-3.825295,51.820034],[-3.82531,51.820062],[-3.825325,51.820089],[-3.82534,51.820115],[-3.825353,51.820139],[-3.825362,51.820159],[-3.825369,51.820177],[-3.825372,51.820192],[-3.825373,51.820204],[-3.82537,51.820214],[-3.825364,51.82022],[-3.825356,51.820224],[-3.825344,51.820225],[-3.825329,51.820223],[-3.825311,51.820218],[-3.82529,51.82021],[-3.825267,51.8202],[-3.82524,51.820187],[-3.82521,51.820171],[-3.825177,51.820152],[-3.825146,51.820132],[-3.825116,51.820113],[-3.825089,51.820093],[-3.825063,51.820072],[-3.82504,51.820051],[-3.825018,51.82003],[-3.824998,51.820008],[-3.82498,51.819986],[-3.824964,51.819963],[-3.82495,51.81994],[-3.824937,51.819917],[-3.824927,51.819893],[-3.824918,51.819869],[-3.824912,51.819844],[-3.824907,51.819819],[-3.824904,51.819794],[-3.8249,51.81977],[-3.824896,51.819748],[-3.824892,51.819728],[-3.824887,51.81971],[-3.824882,51.819694],[-3.824877,51.81968],[-3.824871,51.819667],[-3.824864,51.819657],[-3.824858,51.819648],[-3.82485,51.819641],[-3.824843,51.819636],[-3.824835,51.819633],[-3.824826,51.819631],[-3.824817,51.819632],[-3.824808,51.819634],[-3.824798,51.819638],[-3.824788,51.819644],[-3.824778,51.819651],[-3.824768,51.819659],[-3.824758,51.819668],[-3.824747,51.819679],[-3.824737,51.819692],[-3.824726,51.819705],[-3.824715,51.81972],[-3.824704,51.819737],[-3.824693,51.819754],[-3.824682,51.819773],[-3.824671,51.819793],[-3.82466,51.819815],[-3.824648,51.819838],[-3.824637,51.819863],[-3.824625,51.819888],[-3.824611,51.819911],[-3.824594,51.819932],[-3.824576,51.81995],[-3.824555,51.819966],[-3.824531,51.819979],[-3.824506,51.819989],[-3.824478,51.819998],[-3.824447,51.820003],[-3.824415,51.820006],[-3.82438,51.820006],[-3.824342,51.820004],[-3.824303,51.82],[-3.824261,51.819993],[-3.824216,51.819983],[-3.82417,51.819971],[-3.824121,51.819956],[-3.824078,51.819945],[-3.824042,51.819936],[-3.824012,51.819931],[-3.823988,51.819928],[-3.823971,51.819929],[-3.82396,51.819933],[-3.823956,51.81994],[-3.823958,51.81995],[-3.823966,51.819963],[-3.823981,51.819979],[-3.824002,51.819998],[-3.824029,51.820021],[-3.824063,51.820046],[-3.824103,51.820075],[-3.824149,51.820107],[-3.824202,51.820141],[-3.824253,51.820175],[-3.824302,51.820207],[-3.824349,51.820237],[-3.824395,51.820266],[-3.824439,51.820293],[-3.824481,51.82032],[-3.824522,51.820344],[-3.82456,51.820367],[-3.824597,51.820389],[-3.824632,51.820409],[-3.824666,51.820428],[-3.824697,51.820445],[-3.824727,51.820461],[-3.824755,51.820476],[-3.824781,51.820489],[-3.824806,51.8205],[-3.824829,51.820513],[-3.824852,51.820528],[-3.824873,51.820545],[-3.824893,51.820563],[-3.824912,51.820583],[-3.82493,51.820605],[-3.824947,51.820628],[-3.824963,51.820653],[-3.824978,51.82068],[-3.824992,51.820709],[-3.825004,51.820739],[-3.825016,51.820771],[-3.825026,51.820804],[-3.825035,51.82084],[-3.825043,51.820877],[-3.82505,51.820915],[-3.825056,51.820951],[-3.82506,51.820984],[-3.825062,51.821015],[-3.825062,51.821042],[-3.82506,51.821067],[-3.825057,51.82109],[-3.825053,51.821109],[-3.825046,51.821126],[-3.825038,51.82114],[-3.825028,51.821151],[-3.825016,51.82116],[-3.825003,51.821165],[-3.824988,51.821168],[-3.824971,51.821169],[-3.824953,51.821166],[-3.824933,51.821161],[-3.824914,51.821158],[-3.824897,51.821158],[-3.824882,51.82116],[-3.824868,51.821165],[-3.824855,51.821173],[-3.824845,51.821183],[-3.824835,51.821195],[-3.824828,51.82121],[-3.824822,51.821228],[-3.824817,51.821248],[-3.824814,51.82127],[-3.824813,51.821295],[-3.824813,51.821323],[-3.824814,51.821353],[-3.824818,51.821386],[-3.824822,51.821421],[-3.824827,51.821455],[-3.82483,51.821488],[-3.824834,51.821521],[-3.824836,51.821552],[-3.824839,51.821583],[-3.82484,51.821613],[-3.824842,51.821642],[-3.824842,51.82167],[-3.824842,51.821697],[-3.824842,51.821723],[-3.824841,51.821749],[-3.82484,51.821773],[-3.824838,51.821797],[-3.824836,51.821819],[-3.824833,51.821841],[-3.82483,51.821862],[-3.824826,51.821884],[-3.824823,51.821906],[-3.82482,51.821929],[-3.824817,51.821952],[-3.824815,51.821976],[-3.824812,51.822001],[-3.82481,51.822027],[-3.824807,51.822053],[-3.824805,51.82208],[-3.824803,51.822107],[-3.824801,51.822135],[-3.824799,51.822164],[-3.824797,51.822193],[-3.824796,51.822223],[-3.824794,51.822254],[-3.824793,51.822285],[-3.824792,51.822316],[-3.824792,51.822347],[-3.824793,51.822377],[-3.824794,51.822408],[-3.824796,51.822438],[-3.824799,51.822467],[-3.824803,51.822497],[-3.824807,51.822526],[-3.824812,51.822555],[-3.824817,51.822583],[-3.824823,51.822612],[-3.82483,51.82264],[-3.824838,51.822668],[-3.824846,51.822695],[-3.824855,51.822722],[-3.824865,51.822749],[-3.824872,51.822776],[-3.824876,51.822801],[-3.824877,51.822826],[-3.824876,51.82285],[-3.824873,51.822874],[-3.824866,51.822897],[-3.824857,51.822919],[-3.824845,51.822941],[-3.824831,51.822961],[-3.824814,51.822982],[-3.824794,51.823001],[-3.824771,51.82302],[-3.824746,51.823038],[-3.824718,51.823056],[-3.824688,51.823072],[-3.824654,51.823088],[-3.824624,51.823105],[-3.824595,51.823121],[-3.824568,51.823138],[-3.824544,51.823155],[-3.824522,51.823172],[-3.824502,51.823189],[-3.824484,51.823207],[-3.824469,51.823225],[-3.824456,51.823243],[-3.824445,51.823261],[-3.824436,51.823279],[-3.824429,51.823298],[-3.824425,51.823317],[-3.824423,51.823336],[-3.824423,51.823355],[-3.824425,51.823375],[-3.824429,51.823393],[-3.824434,51.823411],[-3.82444,51.823427],[-3.824448,51.823443],[-3.824457,51.823458],[-3.824467,51.823471],[-3.824479,51.823484],[-3.824492,51.823496],[-3.824506,51.823507],[-3.824522,51.823516],[-3.824538,51.823525],[-3.824557,51.823533],[-3.824576,51.82354],[-3.824597,51.823546],[-3.824619,51.823551],[-3.824643,51.823555],[-3.824664,51.823561],[-3.824684,51.823568],[-3.824702,51.823577],[-3.824717,51.823587],[-3.824731,51.8236],[-3.824744,51.823613],[-3.824754,51.823628],[-3.824762,51.823645],[-3.824769,51.823664],[-3.824773,51.823684],[-3.824776,51.823706],[-3.824777,51.823729],[-3.824775,51.823754],[-3.824772,51.82378],[-3.824768,51.823808],[-3.824761,51.823838]]]}}