{"type":"Feature","properties":{"id":"258171","COMMUNE":"West Devon","PROVINCE":"Devon CC","COUNTRY":"UK","FIREDATE":"2025-03-04 11:29:14.082","FINALDATE":"2025-03-05 11:29:16.898","CLASS":"FireSeason","areaHA_geo":1.239},"geometry":{"type":"Polygon","coordinates":[[[-3.923699,50.70757],[-3.923731,50.707606],[-3.92379,50.707618],[-3.923876,50.707608],[-3.923988,50.707574],[-3.924083,50.707531],[-3.924159,50.707478],[-3.924218,50.707415],[-3.92426,50.707343],[-3.924323,50.707277],[-3.924407,50.707218],[-3.924514,50.707166],[-3.924642,50.707121],[-3.924767,50.707064],[-3.924889,50.706997],[-3.925007,50.706919],[-3.925122,50.70683],[-3.92521,50.706751],[-3.92527,50.706682],[-3.925302,50.706622],[-3.925307,50.706571],[-3.925295,50.706532],[-3.925266,50.706503],[-3.925221,50.706485],[-3.92516,50.706477],[-3.925099,50.706462],[-3.925039,50.70644],[-3.924979,50.706409],[-3.924921,50.706372],[-3.924902,50.706337],[-3.924924,50.706306],[-3.924987,50.706278],[-3.92509,50.706253],[-3.925182,50.706243],[-3.925265,50.706248],[-3.925337,50.706267],[-3.925399,50.706302],[-3.925443,50.706294],[-3.925469,50.706244],[-3.925477,50.706151],[-3.925468,50.706015],[-3.925465,50.705893],[-3.92547,50.705785],[-3.925482,50.705692],[-3.925502,50.705612],[-3.925474,50.705556],[-3.925399,50.705523],[-3.925276,50.705513],[-3.925107,50.705526],[-3.92499,50.705558],[-3.924926,50.705608],[-3.924916,50.705676],[-3.924958,50.705763],[-3.924978,50.705829],[-3.924975,50.705874],[-3.924951,50.705899],[-3.924905,50.705902],[-3.924842,50.705882],[-3.924762,50.70584],[-3.924665,50.705774],[-3.924551,50.705686],[-3.924459,50.705679],[-3.924387,50.705754],[-3.924335,50.70591],[-3.924305,50.706148],[-3.924276,50.706342],[-3.924248,50.706493],[-3.924222,50.706599],[-3.924198,50.706662],[-3.924216,50.706718],[-3.924276,50.706768],[-3.924379,50.706812],[-3.924524,50.706849],[-3.924589,50.706884],[-3.924574,50.706917],[-3.924477,50.706948],[-3.924301,50.706977],[-3.92416,50.707017],[-3.924055,50.707068],[-3.923986,50.707131],[-3.923953,50.707205],[-3.923915,50.707267],[-3.923871,50.707317],[-3.923821,50.707355],[-3.923766,50.707382],[-3.923727,50.707417],[-3.923702,50.70746],[-3.923693,50.707511],[-3.923699,50.70757]]]}}