{"type":"Feature","properties":{"id":"258165","COMMUNE":"West Devon","PROVINCE":"Devon CC","COUNTRY":"UK","FIREDATE":"2025-03-04 13:05:00","CLASS":"FireSeason","areaHA_geo":4.381},"geometry":{"type":"Polygon","coordinates":[[[-3.847581,50.657247],[-3.84752,50.657291],[-3.847525,50.657351],[-3.847596,50.657428],[-3.847733,50.65752],[-3.847887,50.657601],[-3.848057,50.657673],[-3.848243,50.657734],[-3.848446,50.657785],[-3.848634,50.657851],[-3.848806,50.65793],[-3.848963,50.658024],[-3.849105,50.658132],[-3.849226,50.658197],[-3.849327,50.658219],[-3.849407,50.658199],[-3.849466,50.658136],[-3.849529,50.658084],[-3.849594,50.658043],[-3.849664,50.658013],[-3.849736,50.657994],[-3.849853,50.657983],[-3.850013,50.657978],[-3.850217,50.65798],[-3.850465,50.65799],[-3.850592,50.657938],[-3.8506,50.657825],[-3.850488,50.657651],[-3.850256,50.657416],[-3.850042,50.657221],[-3.849847,50.657067],[-3.849671,50.656953],[-3.849514,50.65688],[-3.849341,50.656823],[-3.849154,50.656781],[-3.848953,50.656755],[-3.848736,50.656745],[-3.848541,50.656736],[-3.848369,50.656727],[-3.84822,50.656719],[-3.848092,50.656712],[-3.847997,50.65668],[-3.847933,50.656623],[-3.847901,50.656542],[-3.8479,50.656437],[-3.847876,50.656333],[-3.847827,50.65623],[-3.847753,50.656129],[-3.847655,50.656028],[-3.847569,50.655936],[-3.847494,50.655851],[-3.847431,50.655774],[-3.847378,50.655705],[-3.847301,50.655637],[-3.847197,50.65557],[-3.847068,50.655505],[-3.846914,50.655442],[-3.846764,50.655389],[-3.846618,50.655347],[-3.846478,50.655317],[-3.846341,50.655297],[-3.846264,50.655265],[-3.846246,50.655221],[-3.846286,50.655165],[-3.846386,50.655097],[-3.84643,50.655038],[-3.84642,50.654986],[-3.846355,50.654943],[-3.846235,50.654908],[-3.846102,50.654881],[-3.845955,50.654861],[-3.845795,50.654848],[-3.845621,50.654843],[-3.845457,50.654894],[-3.845302,50.655002],[-3.845155,50.655166],[-3.845018,50.655387],[-3.844958,50.655562],[-3.844973,50.655692],[-3.845065,50.655777],[-3.845233,50.655816],[-3.845367,50.655866],[-3.845466,50.655928],[-3.845531,50.656002],[-3.845562,50.656087],[-3.845601,50.656141],[-3.845647,50.656166],[-3.845701,50.656159],[-3.845763,50.656122],[-3.845813,50.656111],[-3.845851,50.656126],[-3.845878,50.656167],[-3.845893,50.656234],[-3.845943,50.6563],[-3.846027,50.656364],[-3.846146,50.656426],[-3.8463,50.656486],[-3.846425,50.656548],[-3.846522,50.65661],[-3.84659,50.656673],[-3.84663,50.656738],[-3.846691,50.656779],[-3.846772,50.656797],[-3.846874,50.656792],[-3.846995,50.656764],[-3.847086,50.656723],[-3.847145,50.656668],[-3.847173,50.656599],[-3.847169,50.656518],[-3.847178,50.656451],[-3.847199,50.656401],[-3.847233,50.656366],[-3.847279,50.656348],[-3.847329,50.65637],[-3.847382,50.656432],[-3.847438,50.656536],[-3.847497,50.65668],[-3.847559,50.656797],[-3.847625,50.656886],[-3.847694,50.656948],[-3.847767,50.656982],[-3.847837,50.656998],[-3.847904,50.656996],[-3.847969,50.656977],[-3.848031,50.65694],[-3.848099,50.656917],[-3.848175,50.656908],[-3.848257,50.656912],[-3.848346,50.656931],[-3.848411,50.656956],[-3.848451,50.656988],[-3.848468,50.657025],[-3.84846,50.657069],[-3.848493,50.657108],[-3.848566,50.657142],[-3.848678,50.657171],[-3.848832,50.657195],[-3.848963,50.657229],[-3.849073,50.657274],[-3.849161,50.657328],[-3.849227,50.657392],[-3.849267,50.657448],[-3.849281,50.657494],[-3.849269,50.657531],[-3.84923,50.657558],[-3.84917,50.657568],[-3.84909,50.65756],[-3.848988,50.657533],[-3.848865,50.657489],[-3.848751,50.657453],[-3.848646,50.657424],[-3.84855,50.657404],[-3.848463,50.657391],[-3.848371,50.65737],[-3.848273,50.657339],[-3.84817,50.657299],[-3.848061,50.657249],[-3.847948,50.657219],[-3.84783,50.657209],[-3.847708,50.657218],[-3.847581,50.657247]]]}}