{"type":"Feature","properties":{"id":"258148","COMMUNE":"Teignbridge","PROVINCE":"Devon CC","COUNTRY":"UK","FIREDATE":"2025-03-03 13:27:00","CLASS":"FireSeason","areaHA_geo":1.341},"geometry":{"type":"Polygon","coordinates":[[[-3.793675,50.590711],[-3.793891,50.590757],[-3.79407,50.590752],[-3.79421,50.590697],[-3.794312,50.590592],[-3.794439,50.590492],[-3.794591,50.590397],[-3.794768,50.590308],[-3.79497,50.590225],[-3.795106,50.590147],[-3.795178,50.590075],[-3.795185,50.590009],[-3.795127,50.589948],[-3.795085,50.589884],[-3.795057,50.589815],[-3.795046,50.589743],[-3.79505,50.589667],[-3.794957,50.589579],[-3.794767,50.589479],[-3.794481,50.589368],[-3.794098,50.589246],[-3.793831,50.589234],[-3.79368,50.589332],[-3.793646,50.589541],[-3.793727,50.589861],[-3.793738,50.590108],[-3.793677,50.590284],[-3.793545,50.590389],[-3.793342,50.590422],[-3.793253,50.590471],[-3.793279,50.590535],[-3.793419,50.590615],[-3.793675,50.590711]]]}}