{"type":"Feature","properties":{"id":"258116","COMMUNE":"Teignbridge","PROVINCE":"Devon CC","COUNTRY":"UK","FIREDATE":"2025-03-05 13:14:00","CLASS":"FireSeason","areaHA_geo":2.457},"geometry":{"type":"Polygon","coordinates":[[[-3.789284,50.560232],[-3.789448,50.560347],[-3.789676,50.560442],[-3.789969,50.560519],[-3.790326,50.560577],[-3.790731,50.560576],[-3.791182,50.560515],[-3.791681,50.560394],[-3.792227,50.560214],[-3.792546,50.560061],[-3.792639,50.559936],[-3.792505,50.559838],[-3.792144,50.559768],[-3.791844,50.559741],[-3.791604,50.559758],[-3.791424,50.559817],[-3.791305,50.55992],[-3.791194,50.559959],[-3.791091,50.559934],[-3.790997,50.559844],[-3.790911,50.55969],[-3.790823,50.559593],[-3.790731,50.559553],[-3.790636,50.559571],[-3.790539,50.559646],[-3.79045,50.559677],[-3.790372,50.559665],[-3.790302,50.559608],[-3.790243,50.559508],[-3.79011,50.559415],[-3.789904,50.559329],[-3.789626,50.55925],[-3.789275,50.559179],[-3.788996,50.559164],[-3.788788,50.559205],[-3.788652,50.559302],[-3.788588,50.559455],[-3.788574,50.559584],[-3.788609,50.559687],[-3.788695,50.559765],[-3.788831,50.559818],[-3.788958,50.559892],[-3.789076,50.559985],[-3.789184,50.560098],[-3.789284,50.560232]]]}}