{"type":"Feature","properties":{"id":"258161","COMMUNE":"West Devon","PROVINCE":"Devon CC","COUNTRY":"UK","FIREDATE":"2025-03-05 13:35:00","CLASS":"FireSeason","areaHA_geo":3.126},"geometry":{"type":"Polygon","coordinates":[[[-3.882546,50.654671],[-3.882657,50.654577],[-3.88271,50.654406],[-3.882704,50.654156],[-3.882641,50.653828],[-3.882593,50.653581],[-3.882561,50.653417],[-3.882545,50.653335],[-3.882545,50.653335],[-3.882545,50.653316],[-3.882547,50.653277],[-3.882549,50.653219],[-3.882552,50.653142],[-3.882476,50.652991],[-3.882322,50.652768],[-3.882089,50.652471],[-3.881777,50.652102],[-3.881518,50.651828],[-3.881312,50.651649],[-3.881158,50.651566],[-3.881058,50.651578],[-3.881026,50.651633],[-3.881064,50.65173],[-3.881171,50.65187],[-3.881348,50.652052],[-3.881422,50.65216],[-3.881393,50.652194],[-3.881261,50.652154],[-3.881026,50.652039],[-3.880833,50.651976],[-3.880681,50.651964],[-3.880571,50.652004],[-3.880503,50.652094],[-3.880427,50.652155],[-3.880345,50.652184],[-3.880255,50.652183],[-3.880158,50.65215],[-3.88006,50.652142],[-3.87996,50.652157],[-3.879858,50.652195],[-3.879755,50.652257],[-3.879711,50.652336],[-3.879726,50.65243],[-3.879801,50.652541],[-3.879935,50.652668],[-3.880097,50.652766],[-3.880288,50.652837],[-3.880508,50.652879],[-3.880756,50.652892],[-3.880965,50.652943],[-3.881135,50.653029],[-3.881266,50.653153],[-3.881357,50.653312],[-3.881404,50.653445],[-3.881406,50.653553],[-3.881362,50.653634],[-3.881274,50.653688],[-3.88127,50.653788],[-3.881348,50.653933],[-3.881509,50.654122],[-3.881754,50.654357],[-3.88198,50.654529],[-3.882188,50.654639],[-3.882376,50.654686],[-3.882546,50.654671]]]}}