{"type":"Feature","properties":{"id":"258129","COMMUNE":"South Hams","PROVINCE":"Devon CC","COUNTRY":"UK","FIREDATE":"2025-03-05 12:48:00","FINALDATE":"2025-03-05 13:14:00","CLASS":"FireSeason","areaHA_geo":1.246},"geometry":{"type":"Polygon","coordinates":[[[-3.857771,50.513187],[-3.857887,50.513281],[-3.858007,50.513345],[-3.858131,50.513381],[-3.858261,50.513387],[-3.858398,50.513374],[-3.858543,50.513342],[-3.858696,50.513292],[-3.858857,50.513222],[-3.859016,50.513153],[-3.859172,50.513084],[-3.859326,50.513016],[-3.859477,50.512947],[-3.859617,50.512889],[-3.859745,50.512841],[-3.859861,50.512803],[-3.859965,50.512774],[-3.860061,50.512742],[-3.860148,50.512704],[-3.860226,50.512663],[-3.860296,50.512617],[-3.860375,50.51258],[-3.860462,50.51255],[-3.860557,50.512529],[-3.860661,50.512517],[-3.860791,50.512486],[-3.860946,50.512438],[-3.861126,50.512371],[-3.861331,50.512287],[-3.861482,50.512213],[-3.861578,50.512148],[-3.86162,50.512093],[-3.861606,50.512048],[-3.861524,50.512032],[-3.861373,50.512044],[-3.861153,50.512085],[-3.860865,50.512154],[-3.860599,50.512215],[-3.860357,50.512268],[-3.860139,50.512313],[-3.859944,50.512349],[-3.859797,50.512383],[-3.859698,50.512415],[-3.859648,50.512446],[-3.859647,50.512474],[-3.859624,50.512498],[-3.859578,50.512517],[-3.85951,50.512533],[-3.85942,50.512544],[-3.859311,50.512566],[-3.859184,50.5126],[-3.859038,50.512646],[-3.858874,50.512703],[-3.85868,50.512752],[-3.858456,50.512792],[-3.858203,50.512823],[-3.85792,50.512845],[-3.857735,50.512892],[-3.857649,50.512965],[-3.857661,50.513063],[-3.857771,50.513187]]]}}