{"type":"Feature","properties":{"id":"258119","COMMUNE":"Teignbridge","PROVINCE":"Devon CC","COUNTRY":"UK","FIREDATE":"2025-03-05 12:48:00","CLASS":"FireSeason","areaHA_geo":3.827},"geometry":{"type":"Polygon","coordinates":[[[-3.785138,50.549565],[-3.785327,50.54953],[-3.785485,50.549484],[-3.785613,50.549427],[-3.785711,50.54936],[-3.785778,50.549282],[-3.785886,50.54921],[-3.786036,50.549145],[-3.786228,50.549085],[-3.786462,50.549031],[-3.786656,50.548976],[-3.786809,50.54892],[-3.786921,50.548862],[-3.786994,50.548802],[-3.787131,50.548754],[-3.787335,50.548717],[-3.787605,50.54869],[-3.78794,50.548675],[-3.788219,50.548639],[-3.788442,50.548584],[-3.788609,50.548508],[-3.788721,50.548412],[-3.788832,50.548334],[-3.788944,50.548273],[-3.789056,50.548229],[-3.789168,50.548203],[-3.789304,50.54819],[-3.789464,50.548189],[-3.789647,50.548202],[-3.789855,50.548228],[-3.790032,50.548209],[-3.790178,50.548147],[-3.790294,50.548041],[-3.790379,50.547892],[-3.790357,50.547768],[-3.790228,50.54767],[-3.789992,50.547597],[-3.789648,50.54755],[-3.789332,50.54752],[-3.789043,50.547508],[-3.788782,50.547512],[-3.788549,50.547534],[-3.78829,50.547563],[-3.788006,50.547597],[-3.787696,50.547638],[-3.78736,50.547685],[-3.787056,50.54772],[-3.786783,50.547744],[-3.786542,50.547756],[-3.786332,50.547756],[-3.786102,50.547872],[-3.785852,50.548105],[-3.785581,50.548454],[-3.78529,50.54892],[-3.785119,50.549261],[-3.785068,50.549476],[-3.785138,50.549565]]]}}