{"type":"Feature","properties":{"id":"258127","COMMUNE":"South Hams","PROVINCE":"Devon CC","COUNTRY":"UK","FIREDATE":"2025-03-05 11:00:59.888","FINALDATE":"2025-03-06 11:01:03.565","CLASS":"FireSeason","areaHA_geo":0.282},"geometry":{"type":"Polygon","coordinates":[[[-3.850275,50.51552],[-3.850376,50.515608],[-3.850558,50.515676],[-3.850822,50.515724],[-3.851169,50.51575],[-3.85137,50.515737],[-3.851426,50.515685],[-3.851336,50.515594],[-3.851101,50.515464],[-3.850892,50.515365],[-3.85071,50.515297],[-3.850554,50.51526],[-3.850424,50.515254],[-3.850332,50.515277],[-3.850276,50.515329],[-3.850257,50.51541],[-3.850275,50.51552]]]}}