{"type":"Feature","properties":{"id":"258137","COMMUNE":"Teignbridge","PROVINCE":"Devon CC","COUNTRY":"UK","FIREDATE":"2025-03-04 13:05:00","CLASS":"FireSeason","areaHA_geo":3.442},"geometry":{"type":"Polygon","coordinates":[[[-3.829631,50.581462],[-3.829565,50.582059],[-3.829626,50.582452],[-3.829814,50.582643],[-3.83013,50.582631],[-3.830377,50.582605],[-3.830557,50.582567],[-3.830668,50.582516],[-3.83071,50.582452],[-3.830704,50.582398],[-3.830649,50.582352],[-3.830546,50.582316],[-3.830393,50.582289],[-3.830312,50.58224],[-3.830301,50.58217],[-3.830361,50.582077],[-3.830492,50.581964],[-3.830565,50.581855],[-3.830581,50.581752],[-3.830539,50.581655],[-3.830439,50.581563],[-3.830413,50.581466],[-3.83046,50.581366],[-3.830581,50.581262],[-3.830775,50.581153],[-3.830971,50.581015],[-3.831168,50.580848],[-3.831366,50.580651],[-3.831566,50.580425],[-3.831679,50.580233],[-3.831705,50.580077],[-3.831643,50.579956],[-3.831493,50.579869],[-3.831413,50.579773],[-3.831402,50.579667],[-3.83146,50.579551],[-3.831587,50.579424],[-3.831613,50.579281],[-3.831539,50.57912],[-3.831365,50.578943],[-3.831091,50.578748],[-3.830897,50.578643],[-3.830784,50.578627],[-3.830752,50.578701],[-3.830801,50.578864],[-3.83079,50.579009],[-3.83072,50.579135],[-3.83059,50.579242],[-3.8304,50.579331],[-3.830209,50.579597],[-3.830017,50.580041],[-3.829825,50.580662],[-3.829631,50.581462]]]}}