{"type":"Feature","properties":{"id":"258139","COMMUNE":"Teignbridge","PROVINCE":"Devon CC","COUNTRY":"UK","FIREDATE":"2025-03-04 11:10:57.07","CLASS":"FireSeason","areaHA_geo":5.795},"geometry":{"type":"Polygon","coordinates":[[[-3.828944,50.57193],[-3.829124,50.571877],[-3.829229,50.571815],[-3.829259,50.571745],[-3.829215,50.571665],[-3.829186,50.571558],[-3.829171,50.571423],[-3.829171,50.57126],[-3.829186,50.571069],[-3.829221,50.570903],[-3.829277,50.570763],[-3.829354,50.570648],[-3.82945,50.570558],[-3.829519,50.570477],[-3.82956,50.570407],[-3.829573,50.570347],[-3.829558,50.570297],[-3.829613,50.570225],[-3.82974,50.570131],[-3.829937,50.570016],[-3.830205,50.569879],[-3.830379,50.569739],[-3.83046,50.569595],[-3.830447,50.569448],[-3.83034,50.569298],[-3.830184,50.569138],[-3.829979,50.568967],[-3.829724,50.568786],[-3.82942,50.568595],[-3.829184,50.568435],[-3.829016,50.568305],[-3.828917,50.568206],[-3.828887,50.568138],[-3.828772,50.568141],[-3.828572,50.568214],[-3.828288,50.568358],[-3.82792,50.568572],[-3.82766,50.568763],[-3.82751,50.568932],[-3.827468,50.569077],[-3.827535,50.569199],[-3.827652,50.569332],[-3.827819,50.569475],[-3.828034,50.569628],[-3.828299,50.569791],[-3.828428,50.569929],[-3.82842,50.57004],[-3.828276,50.570126],[-3.827995,50.570187],[-3.827717,50.570273],[-3.827442,50.570384],[-3.827169,50.570522],[-3.826898,50.570685],[-3.826809,50.570877],[-3.826901,50.571097],[-3.827173,50.571346],[-3.827627,50.571624],[-3.828031,50.571821],[-3.828385,50.571938],[-3.828689,50.571974],[-3.828944,50.57193]]]}}