{"type":"Feature","properties":{"id":"258160","COMMUNE":"West Devon","PROVINCE":"Devon CC","COUNTRY":"UK","FIREDATE":"2025-03-05 11:55:00","CLASS":"FireSeason","areaHA_geo":5.24},"geometry":{"type":"Polygon","coordinates":[[[-3.888899,50.663487],[-3.88899,50.663389],[-3.889027,50.663211],[-3.889013,50.662953],[-3.888946,50.662614],[-3.888875,50.662343],[-3.888801,50.66214],[-3.888723,50.662005],[-3.888642,50.661938],[-3.888588,50.661874],[-3.888561,50.661814],[-3.888561,50.661758],[-3.888589,50.661705],[-3.888575,50.661658],[-3.888519,50.661618],[-3.888422,50.661585],[-3.888283,50.661557],[-3.888197,50.661516],[-3.888162,50.661459],[-3.88818,50.661388],[-3.88825,50.661303],[-3.88829,50.661211],[-3.8883,50.661113],[-3.88828,50.66101],[-3.888229,50.6609],[-3.888179,50.660807],[-3.88813,50.660731],[-3.888081,50.660671],[-3.888033,50.660627],[-3.887902,50.660546],[-3.887689,50.660429],[-3.887392,50.660276],[-3.887012,50.660085],[-3.886691,50.659982],[-3.88643,50.659967],[-3.886227,50.66004],[-3.886084,50.660201],[-3.885958,50.660355],[-3.88585,50.660503],[-3.88576,50.660645],[-3.885688,50.660781],[-3.885652,50.660894],[-3.885653,50.660984],[-3.885691,50.661053],[-3.885766,50.661099],[-3.885806,50.661152],[-3.885811,50.661212],[-3.885781,50.661279],[-3.885716,50.661353],[-3.88565,50.661424],[-3.885584,50.661493],[-3.885517,50.661559],[-3.885449,50.661622],[-3.885579,50.661749],[-3.885906,50.661941],[-3.886432,50.662196],[-3.887156,50.662515],[-3.887717,50.662788],[-3.888116,50.663015],[-3.888354,50.663195],[-3.888429,50.663329],[-3.888521,50.663426],[-3.88863,50.663484],[-3.888756,50.663504],[-3.888899,50.663487]]]}}