{"type":"Feature","properties":{"id":"258167","COMMUNE":"West Devon","PROVINCE":"Devon CC","COUNTRY":"UK","FIREDATE":"2025-03-04 11:26:18.202","FINALDATE":"2025-03-05 11:26:22.174","CLASS":"FireSeason","areaHA_geo":3.218},"geometry":{"type":"Polygon","coordinates":[[[-3.877163,50.639357],[-3.877371,50.639382],[-3.877595,50.639384],[-3.877833,50.639365],[-3.878085,50.639323],[-3.878338,50.639266],[-3.87859,50.639195],[-3.878842,50.639109],[-3.879094,50.639008],[-3.879311,50.63889],[-3.879493,50.638754],[-3.879639,50.638601],[-3.879751,50.63843],[-3.87979,50.638285],[-3.879758,50.638164],[-3.879655,50.638069],[-3.879479,50.637998],[-3.879342,50.637934],[-3.879244,50.637875],[-3.879183,50.637823],[-3.879161,50.637777],[-3.879079,50.63774],[-3.878938,50.637711],[-3.878737,50.637691],[-3.878477,50.637679],[-3.878255,50.637655],[-3.878073,50.637618],[-3.87793,50.637567],[-3.877825,50.637504],[-3.877677,50.637544],[-3.877484,50.637687],[-3.877248,50.637932],[-3.876967,50.63828],[-3.876765,50.638568],[-3.876642,50.638797],[-3.876596,50.638966],[-3.876629,50.639076],[-3.876702,50.63917],[-3.876816,50.639248],[-3.876969,50.63931],[-3.877163,50.639357]]]}}