{"type":"Feature","properties":{"id":"258138","COMMUNE":"Teignbridge","PROVINCE":"Devon CC","COUNTRY":"UK","FIREDATE":"2025-03-04 13:05:00","CLASS":"FireSeason","areaHA_geo":2.996},"geometry":{"type":"Polygon","coordinates":[[[-3.828508,50.575586],[-3.828594,50.575764],[-3.828717,50.575847],[-3.828875,50.575835],[-3.82907,50.575726],[-3.829213,50.575604],[-3.829307,50.575469],[-3.82935,50.57532],[-3.829343,50.575158],[-3.829443,50.575029],[-3.829651,50.574932],[-3.829966,50.574867],[-3.830389,50.574835],[-3.830724,50.574757],[-3.83097,50.574633],[-3.831127,50.574462],[-3.831196,50.574245],[-3.831235,50.574074],[-3.831244,50.573949],[-3.831223,50.57387],[-3.831172,50.573837],[-3.831107,50.573816],[-3.831027,50.573806],[-3.830932,50.573808],[-3.830822,50.573821],[-3.830712,50.573803],[-3.830599,50.573755],[-3.830486,50.573676],[-3.83037,50.573566],[-3.830239,50.573496],[-3.83009,50.573465],[-3.829926,50.573473],[-3.829744,50.573522],[-3.829583,50.573543],[-3.829442,50.573537],[-3.829322,50.573504],[-3.829222,50.573445],[-3.829103,50.573497],[-3.828967,50.57366],[-3.828812,50.573935],[-3.828639,50.574321],[-3.828522,50.574679],[-3.828461,50.57501],[-3.828456,50.575312],[-3.828508,50.575586]]]}}