{"type":"Feature","properties":{"id":"258123","COMMUNE":"Teignbridge","PROVINCE":"Devon CC","COUNTRY":"UK","FIREDATE":"2025-03-04 13:05:00","CLASS":"FireSeason","areaHA_geo":1.883},"geometry":{"type":"Polygon","coordinates":[[[-3.832953,50.530485],[-3.833076,50.530714],[-3.833247,50.530896],[-3.833466,50.531031],[-3.833732,50.531119],[-3.833963,50.531192],[-3.834159,50.531251],[-3.83432,50.531296],[-3.834446,50.531327],[-3.834571,50.531318],[-3.834694,50.531268],[-3.834816,50.531178],[-3.834938,50.531048],[-3.835056,50.530944],[-3.835171,50.530865],[-3.835282,50.530812],[-3.835391,50.530785],[-3.83545,50.530733],[-3.83546,50.530656],[-3.83542,50.530553],[-3.835331,50.530426],[-3.835112,50.530303],[-3.834763,50.530183],[-3.834285,50.530069],[-3.833677,50.529958],[-3.833239,50.529944],[-3.832973,50.530028],[-3.832877,50.530208],[-3.832953,50.530485]]]}}