{"type":"Feature","properties":{"id":"258125","COMMUNE":"South Hams","PROVINCE":"Devon CC","COUNTRY":"UK","FIREDATE":"2025-03-05 11:01:21.531","FINALDATE":"2025-03-06 11:01:24.142","CLASS":"FireSeason","areaHA_geo":1.956},"geometry":{"type":"Polygon","coordinates":[[[-3.848035,50.515637],[-3.848132,50.5156],[-3.848236,50.515575],[-3.848348,50.515561],[-3.848466,50.515559],[-3.848592,50.515569],[-3.848697,50.515589],[-3.848782,50.515619],[-3.848847,50.515659],[-3.848891,50.51571],[-3.848985,50.515745],[-3.849129,50.515765],[-3.849322,50.51577],[-3.849564,50.515759],[-3.849728,50.515716],[-3.849814,50.515642],[-3.849821,50.515536],[-3.849751,50.515398],[-3.849659,50.515278],[-3.849548,50.515175],[-3.849415,50.515089],[-3.849262,50.515021],[-3.849072,50.514929],[-3.848844,50.514816],[-3.848578,50.514679],[-3.848276,50.51452],[-3.848007,50.514433],[-3.847771,50.514418],[-3.84757,50.514475],[-3.847403,50.514604],[-3.847257,50.514709],[-3.847134,50.51479],[-3.847033,50.514846],[-3.846954,50.514877],[-3.846901,50.514918],[-3.846875,50.51497],[-3.846875,50.515031],[-3.846901,50.515103],[-3.846941,50.515177],[-3.846996,50.515252],[-3.847065,50.51533],[-3.847148,50.51541],[-3.847248,50.515481],[-3.847367,50.515541],[-3.847503,50.515591],[-3.847658,50.515632],[-3.847798,50.515653],[-3.847924,50.515654],[-3.848035,50.515637]]]}}