{"type":"Feature","properties":{"id":"258122","COMMUNE":"Teignbridge","PROVINCE":"Devon CC","COUNTRY":"UK","FIREDATE":"2025-03-04 13:54:00","CLASS":"FireSeason","areaHA_geo":4.18},"geometry":{"type":"Polygon","coordinates":[[[-3.827409,50.529119],[-3.827395,50.529075],[-3.827416,50.529033],[-3.827469,50.528994],[-3.827557,50.528958],[-3.827678,50.528925],[-3.827798,50.528923],[-3.827916,50.528953],[-3.828032,50.529014],[-3.828147,50.529106],[-3.828273,50.529179],[-3.828409,50.529234],[-3.828557,50.529271],[-3.828715,50.529288],[-3.828814,50.529285],[-3.828854,50.529262],[-3.828836,50.529218],[-3.828758,50.529154],[-3.828712,50.529095],[-3.828696,50.529041],[-3.828711,50.528993],[-3.828756,50.528951],[-3.828811,50.528891],[-3.828875,50.528814],[-3.828949,50.52872],[-3.829032,50.528608],[-3.829097,50.528495],[-3.829143,50.528381],[-3.82917,50.528266],[-3.829179,50.52815],[-3.829213,50.528062],[-3.829273,50.528004],[-3.829357,50.527976],[-3.829466,50.527976],[-3.82955,50.528001],[-3.829608,50.528049],[-3.829641,50.528121],[-3.829647,50.528217],[-3.829666,50.528291],[-3.829696,50.528343],[-3.829737,50.528372],[-3.829791,50.52838],[-3.829839,50.52841],[-3.829884,50.528462],[-3.829925,50.528537],[-3.829961,50.528634],[-3.830012,50.528714],[-3.830079,50.528777],[-3.83016,50.528824],[-3.830256,50.528854],[-3.830311,50.528897],[-3.830324,50.528953],[-3.830295,50.529022],[-3.830225,50.529104],[-3.830138,50.529159],[-3.830033,50.529186],[-3.829911,50.529184],[-3.829771,50.529155],[-3.829662,50.529157],[-3.829584,50.529189],[-3.829538,50.529253],[-3.829522,50.529347],[-3.82956,50.529417],[-3.82965,50.529464],[-3.829793,50.529487],[-3.82999,50.529486],[-3.830154,50.529471],[-3.830287,50.529441],[-3.830389,50.529396],[-3.830458,50.529337],[-3.830524,50.52929],[-3.830587,50.529254],[-3.830645,50.529231],[-3.8307,50.52922],[-3.83074,50.529194],[-3.830764,50.529154],[-3.830774,50.5291],[-3.830768,50.529032],[-3.830829,50.528943],[-3.830957,50.528835],[-3.831152,50.528708],[-3.831414,50.528561],[-3.831594,50.528372],[-3.831692,50.52814],[-3.831709,50.527867],[-3.831644,50.527552],[-3.831509,50.527319],[-3.831304,50.527169],[-3.831029,50.527101],[-3.830683,50.527115],[-3.830356,50.527157],[-3.830045,50.527227],[-3.829752,50.527325],[-3.829477,50.527451],[-3.829138,50.527627],[-3.828736,50.527854],[-3.828271,50.528131],[-3.827743,50.528458],[-3.827376,50.528718],[-3.827172,50.528912],[-3.827129,50.529038],[-3.827249,50.529097],[-3.827335,50.529131],[-3.827389,50.529138],[-3.827409,50.529119]]]}}