{"type":"Feature","properties":{"id":"258146","COMMUNE":"Teignbridge","PROVINCE":"Devon CC","COUNTRY":"UK","FIREDATE":"2025-03-06 12:27:00","FINALDATE":"2025-03-06 13:16:00","CLASS":"FireSeason","areaHA_geo":4.5},"geometry":{"type":"Polygon","coordinates":[[[-3.789487,50.584382],[-3.789737,50.584326],[-3.789961,50.584252],[-3.790161,50.584161],[-3.790335,50.584051],[-3.790483,50.583923],[-3.790567,50.58378],[-3.790587,50.583622],[-3.790541,50.583448],[-3.790432,50.583259],[-3.790293,50.58313],[-3.790126,50.583061],[-3.78993,50.583053],[-3.789706,50.583106],[-3.789483,50.583184],[-3.78926,50.583287],[-3.789038,50.583415],[-3.788817,50.583568],[-3.788619,50.583685],[-3.788443,50.583765],[-3.788289,50.583809],[-3.788158,50.583817],[-3.788006,50.583732],[-3.787833,50.583554],[-3.787639,50.583285],[-3.787425,50.582922],[-3.78724,50.582639],[-3.787086,50.582434],[-3.786961,50.582307],[-3.786867,50.58226],[-3.786759,50.582264],[-3.786636,50.582322],[-3.786498,50.582431],[-3.786347,50.582593],[-3.786188,50.582743],[-3.786023,50.582881],[-3.78585,50.583008],[-3.785671,50.583122],[-3.785607,50.583252],[-3.785657,50.583398],[-3.785822,50.58356],[-3.786101,50.583737],[-3.786384,50.583869],[-3.78667,50.583957],[-3.786959,50.584],[-3.787252,50.583998],[-3.787409,50.584019],[-3.787428,50.584063],[-3.787312,50.58413],[-3.787058,50.58422],[-3.786879,50.584301],[-3.786774,50.584373],[-3.786743,50.584436],[-3.786785,50.584489],[-3.78687,50.584549],[-3.786996,50.584614],[-3.787163,50.584684],[-3.787373,50.58476],[-3.787588,50.5848],[-3.787809,50.584802],[-3.788035,50.584769],[-3.788268,50.584698],[-3.788432,50.584611],[-3.788527,50.584506],[-3.788554,50.584385],[-3.788513,50.584246],[-3.788523,50.584169],[-3.788585,50.584153],[-3.788699,50.584199],[-3.788864,50.584305],[-3.78905,50.584371],[-3.789258,50.584397],[-3.789487,50.584382]]]}}