{"type":"Feature","properties":{"id":"258124","COMMUNE":"Teignbridge","PROVINCE":"Devon CC","COUNTRY":"UK","FIREDATE":"2025-03-04 13:05:00","CLASS":"FireSeason","areaHA_geo":5.182},"geometry":{"type":"Polygon","coordinates":[[[-3.835233,50.534439],[-3.835368,50.534578],[-3.835548,50.534683],[-3.835775,50.534753],[-3.836048,50.534789],[-3.83628,50.534811],[-3.836471,50.534817],[-3.836622,50.534809],[-3.836732,50.534787],[-3.836866,50.534784],[-3.837024,50.534802],[-3.837206,50.53484],[-3.837413,50.534898],[-3.837621,50.53496],[-3.83783,50.535027],[-3.838041,50.535098],[-3.838253,50.535174],[-3.838495,50.535276],[-3.838766,50.535404],[-3.839067,50.535559],[-3.839398,50.535741],[-3.83961,50.535817],[-3.839704,50.53579],[-3.839679,50.535658],[-3.839536,50.535422],[-3.839401,50.535231],[-3.839274,50.535088],[-3.839156,50.53499],[-3.839046,50.534939],[-3.838959,50.534868],[-3.838895,50.534776],[-3.838854,50.534665],[-3.838837,50.534533],[-3.838796,50.534446],[-3.838732,50.534403],[-3.838645,50.534404],[-3.838535,50.53445],[-3.838409,50.534489],[-3.838266,50.534523],[-3.838107,50.53455],[-3.837931,50.534572],[-3.837741,50.534569],[-3.837537,50.534544],[-3.837318,50.534494],[-3.837085,50.534421],[-3.836902,50.534345],[-3.836769,50.534267],[-3.836687,50.534185],[-3.836655,50.534102],[-3.836615,50.533999],[-3.836568,50.533878],[-3.836513,50.533738],[-3.836451,50.53358],[-3.83643,50.533447],[-3.836449,50.533341],[-3.836509,50.533261],[-3.836609,50.533207],[-3.836714,50.533179],[-3.836822,50.533175],[-3.836934,50.533196],[-3.837049,50.533242],[-3.837103,50.533293],[-3.837094,50.533349],[-3.837023,50.533411],[-3.83689,50.533478],[-3.836832,50.533539],[-3.836849,50.533595],[-3.83694,50.533645],[-3.837107,50.533689],[-3.837242,50.533686],[-3.837348,50.533637],[-3.837422,50.53354],[-3.837467,50.533396],[-3.837544,50.533307],[-3.837654,50.533273],[-3.837797,50.533294],[-3.837972,50.533369],[-3.838128,50.53344],[-3.838264,50.533507],[-3.838381,50.533569],[-3.838478,50.533626],[-3.838546,50.533633],[-3.838584,50.533589],[-3.838592,50.533494],[-3.838571,50.533349],[-3.838522,50.533216],[-3.838445,50.533094],[-3.838341,50.532983],[-3.838209,50.532883],[-3.838061,50.532795],[-3.837896,50.532719],[-3.837714,50.532653],[-3.837516,50.532599],[-3.8373,50.53254],[-3.837066,50.532476],[-3.836815,50.532407],[-3.836545,50.532334],[-3.83625,50.532253],[-3.835929,50.532165],[-3.835582,50.53207],[-3.835209,50.531968],[-3.834958,50.531927],[-3.83483,50.531947],[-3.834823,50.532029],[-3.834938,50.532172],[-3.83506,50.53228],[-3.835188,50.532355],[-3.835322,50.532395],[-3.835462,50.532401],[-3.835572,50.532423],[-3.835653,50.532462],[-3.835704,50.532517],[-3.835725,50.532588],[-3.835711,50.53268],[-3.835661,50.532792],[-3.835575,50.532925],[-3.835453,50.533078],[-3.835346,50.533237],[-3.835253,50.5334],[-3.835174,50.533569],[-3.835109,50.533743],[-3.835083,50.533917],[-3.835095,50.534091],[-3.835145,50.534265],[-3.835233,50.534439]]]}}