{"type":"Feature","properties":{"id":"258164","COMMUNE":"West Devon","PROVINCE":"Devon CC","COUNTRY":"UK","FIREDATE":"2025-03-04 13:05:00","FINALDATE":"2025-03-05 13:14:00","CLASS":"FireSeason","areaHA_geo":0.701},"geometry":{"type":"Polygon","coordinates":[[[-3.851644,50.659844],[-3.851783,50.659785],[-3.8519,50.65972],[-3.851997,50.659651],[-3.852072,50.659577],[-3.852127,50.659497],[-3.852074,50.6594],[-3.851914,50.659284],[-3.851647,50.659151],[-3.851273,50.658998],[-3.850955,50.658899],[-3.850694,50.658854],[-3.850489,50.658861],[-3.850341,50.658922],[-3.850249,50.658995],[-3.850215,50.65908],[-3.850237,50.659177],[-3.850317,50.659286],[-3.850404,50.659359],[-3.850499,50.659397],[-3.850601,50.6594],[-3.850711,50.659366],[-3.850837,50.659354],[-3.850978,50.659364],[-3.851134,50.659394],[-3.851306,50.659446],[-3.851427,50.65951],[-3.851497,50.659587],[-3.851516,50.659677],[-3.851484,50.65978],[-3.851495,50.659842],[-3.851548,50.659863],[-3.851644,50.659844]]]}}