{"type":"Feature","properties":{"id":"258153","COMMUNE":"Teignbridge","PROVINCE":"Devon CC","COUNTRY":"UK","FIREDATE":"2025-03-05 11:34:00","FINALDATE":"2025-03-05 11:55:00","CLASS":"FireSeason","areaHA_geo":3.281},"geometry":{"type":"Polygon","coordinates":[[[-3.860076,50.557314],[-3.86018,50.557359],[-3.860308,50.55737],[-3.860462,50.557347],[-3.860639,50.55729],[-3.860775,50.557225],[-3.86087,50.557151],[-3.860922,50.55707],[-3.860932,50.556981],[-3.860876,50.556909],[-3.860753,50.556855],[-3.860563,50.556818],[-3.860307,50.556799],[-3.860091,50.556756],[-3.859915,50.556688],[-3.859779,50.556595],[-3.859684,50.556477],[-3.859643,50.556392],[-3.859657,50.556338],[-3.859726,50.556318],[-3.85985,50.556329],[-3.860015,50.556316],[-3.86022,50.556279],[-3.860465,50.556219],[-3.86075,50.556134],[-3.860966,50.556028],[-3.861111,50.555902],[-3.861187,50.555754],[-3.861192,50.555586],[-3.861276,50.555433],[-3.861439,50.555296],[-3.861681,50.555174],[-3.862002,50.555067],[-3.862217,50.554939],[-3.862326,50.554791],[-3.862328,50.554622],[-3.862225,50.554431],[-3.86208,50.554311],[-3.861893,50.55426],[-3.861664,50.554279],[-3.861394,50.554368],[-3.861198,50.554459],[-3.861077,50.554551],[-3.861031,50.554646],[-3.86106,50.554742],[-3.861012,50.554803],[-3.860888,50.554829],[-3.860686,50.554819],[-3.860408,50.554773],[-3.860177,50.554798],[-3.859994,50.554892],[-3.859859,50.555056],[-3.859771,50.55529],[-3.859734,50.555471],[-3.859746,50.555597],[-3.859808,50.55567],[-3.859921,50.555688],[-3.860028,50.555709],[-3.86013,50.555732],[-3.860227,50.555757],[-3.860318,50.555784],[-3.860334,50.555815],[-3.860272,50.55585],[-3.860134,50.55589],[-3.85992,50.555934],[-3.859741,50.55599],[-3.859597,50.556059],[-3.859488,50.556141],[-3.859414,50.556235],[-3.859363,50.556328],[-3.859335,50.55642],[-3.859329,50.55651],[-3.859346,50.556599],[-3.859343,50.556673],[-3.859319,50.556732],[-3.859274,50.556775],[-3.859208,50.556804],[-3.859139,50.556818],[-3.859067,50.556818],[-3.858992,50.556804],[-3.858914,50.556775],[-3.858836,50.55677],[-3.858758,50.556788],[-3.85868,50.55683],[-3.858602,50.556896],[-3.858574,50.556967],[-3.858595,50.557046],[-3.858665,50.55713],[-3.858786,50.557222],[-3.858904,50.557291],[-3.85902,50.557338],[-3.859135,50.557364],[-3.859247,50.557368],[-3.859361,50.557355],[-3.859475,50.557325],[-3.859589,50.557278],[-3.859705,50.557214],[-3.859811,50.557186],[-3.859908,50.557193],[-3.859997,50.557236],[-3.860076,50.557314]]]}}