{"type":"Feature","properties":{"id":"258168","COMMUNE":"West Devon","PROVINCE":"Devon CC","COUNTRY":"UK","FIREDATE":"2025-03-04 11:26:58.07","FINALDATE":"2025-03-05 11:27:01.02","CLASS":"FireSeason","areaHA_geo":3.711},"geometry":{"type":"Polygon","coordinates":[[[-3.87008,50.635064],[-3.870113,50.63516],[-3.870166,50.635164],[-3.870238,50.635077],[-3.87033,50.634898],[-3.870405,50.634708],[-3.870464,50.634506],[-3.870507,50.634292],[-3.870533,50.634067],[-3.870555,50.633855],[-3.870572,50.633656],[-3.870584,50.633469],[-3.870592,50.633295],[-3.870614,50.633162],[-3.870651,50.633071],[-3.870702,50.633022],[-3.870768,50.633014],[-3.870825,50.632982],[-3.870873,50.632928],[-3.870912,50.63285],[-3.870941,50.632749],[-3.870993,50.632656],[-3.871066,50.632572],[-3.87116,50.632495],[-3.871277,50.632427],[-3.871398,50.632331],[-3.871523,50.632208],[-3.871653,50.632056],[-3.871787,50.631878],[-3.87184,50.631732],[-3.87181,50.631619],[-3.871699,50.63154],[-3.871505,50.631493],[-3.871325,50.631469],[-3.871157,50.631468],[-3.871003,50.631489],[-3.870863,50.631533],[-3.870737,50.631586],[-3.870628,50.631648],[-3.870534,50.631719],[-3.870455,50.631799],[-3.870343,50.631862],[-3.870198,50.631906],[-3.87002,50.631933],[-3.869809,50.631943],[-3.86961,50.631925],[-3.869421,50.631881],[-3.869243,50.631809],[-3.869077,50.63171],[-3.868951,50.631719],[-3.868866,50.631835],[-3.868822,50.632058],[-3.868818,50.632388],[-3.868882,50.632631],[-3.869014,50.632785],[-3.869214,50.632851],[-3.869481,50.632829],[-3.869685,50.632832],[-3.869826,50.632858],[-3.869903,50.632908],[-3.869916,50.632982],[-3.869854,50.633044],[-3.869714,50.633093],[-3.869499,50.63313],[-3.869207,50.633155],[-3.869025,50.633192],[-3.868955,50.633241],[-3.868995,50.633303],[-3.869145,50.633376],[-3.869258,50.633448],[-3.869335,50.633517],[-3.869374,50.633584],[-3.869376,50.633648],[-3.869408,50.633719],[-3.86947,50.633795],[-3.869561,50.633877],[-3.869681,50.633966],[-3.869783,50.634063],[-3.869867,50.634169],[-3.869931,50.634284],[-3.869977,50.634408],[-3.870015,50.634548],[-3.870045,50.634704],[-3.870066,50.634876],[-3.87008,50.635064]]]}}