{"type":"Feature","properties":{"id":"258920","COMMUNE":"West Somerset","PROVINCE":"Somerset","COUNTRY":"UK","FIREDATE":"2025-03-04 12:20:18.366","FINALDATE":"2025-03-05 12:20:21.647","CLASS":"FireSeason","areaHA_geo":13.37},"geometry":{"type":"Polygon","coordinates":[[[-3.636138,51.206044],[-3.636234,51.205929],[-3.636301,51.205826],[-3.63634,51.205738],[-3.63635,51.205663],[-3.636332,51.205601],[-3.636383,51.205492],[-3.636502,51.205335],[-3.636692,51.205129],[-3.63695,51.204876],[-3.637144,51.204668],[-3.637273,51.204505],[-3.637337,51.204387],[-3.637337,51.204315],[-3.637361,51.204242],[-3.637408,51.204168],[-3.637478,51.204094],[-3.637572,51.204019],[-3.637459,51.203938],[-3.637138,51.203851],[-3.63661,51.203758],[-3.635875,51.203659],[-3.635323,51.203605],[-3.634953,51.203597],[-3.634766,51.203634],[-3.634761,51.203716],[-3.634684,51.203768],[-3.634535,51.20379],[-3.634313,51.203783],[-3.634018,51.203745],[-3.633792,51.203701],[-3.633635,51.203652],[-3.633548,51.203596],[-3.633529,51.203535],[-3.633488,51.203469],[-3.633423,51.2034],[-3.633335,51.203326],[-3.633225,51.203248],[-3.632988,51.203162],[-3.632625,51.203066],[-3.632135,51.202962],[-3.63152,51.202848],[-3.631049,51.2028],[-3.630723,51.202816],[-3.630541,51.202896],[-3.630505,51.203041],[-3.630507,51.203157],[-3.630547,51.203243],[-3.630626,51.203299],[-3.630743,51.203326],[-3.630876,51.203345],[-3.631025,51.203354],[-3.631188,51.203355],[-3.631368,51.203348],[-3.631532,51.203362],[-3.631682,51.203399],[-3.631816,51.203458],[-3.631935,51.20354],[-3.632001,51.203622],[-3.632015,51.203704],[-3.631976,51.203787],[-3.631885,51.20387],[-3.631778,51.203926],[-3.631656,51.203954],[-3.631518,51.203955],[-3.631364,51.203927],[-3.631216,51.203896],[-3.631075,51.203861],[-3.630939,51.203821],[-3.63081,51.203777],[-3.630693,51.203733],[-3.630589,51.203689],[-3.630497,51.203644],[-3.630418,51.203599],[-3.63035,51.203547],[-3.630292,51.203488],[-3.630245,51.203422],[-3.630209,51.203349],[-3.630179,51.203285],[-3.630155,51.203231],[-3.630138,51.203187],[-3.630127,51.203152],[-3.630121,51.203092],[-3.630117,51.203009],[-3.630118,51.202901],[-3.630121,51.202769],[-3.630091,51.202662],[-3.630027,51.202581],[-3.629928,51.202526],[-3.629796,51.202496],[-3.629676,51.202473],[-3.629569,51.202456],[-3.629475,51.202445],[-3.629394,51.202441],[-3.629318,51.202449],[-3.629248,51.202469],[-3.629183,51.202501],[-3.629123,51.202544],[-3.629067,51.202564],[-3.629016,51.202561],[-3.628968,51.202535],[-3.628924,51.202486],[-3.628798,51.202436],[-3.62859,51.202386],[-3.628301,51.202335],[-3.627929,51.202283],[-3.627584,51.202249],[-3.627266,51.202232],[-3.626976,51.202233],[-3.626712,51.20225],[-3.626474,51.202287],[-3.626262,51.202344],[-3.626076,51.202421],[-3.625916,51.202517],[-3.62579,51.202617],[-3.625697,51.202721],[-3.625639,51.202829],[-3.625614,51.202941],[-3.625618,51.203044],[-3.62565,51.203138],[-3.62571,51.203223],[-3.625798,51.203299],[-3.625901,51.20335],[-3.626018,51.203377],[-3.62615,51.20338],[-3.626296,51.203358],[-3.626425,51.203371],[-3.626538,51.203419],[-3.626634,51.203502],[-3.626713,51.20362],[-3.626823,51.203737],[-3.626963,51.203855],[-3.627135,51.203972],[-3.627337,51.204089],[-3.627507,51.204183],[-3.627645,51.204255],[-3.627751,51.204305],[-3.627825,51.204333],[-3.627939,51.204349],[-3.628093,51.204353],[-3.628287,51.204346],[-3.628521,51.204328],[-3.628742,51.204311],[-3.628948,51.204295],[-3.62914,51.204282],[-3.629318,51.20427],[-3.629477,51.204249],[-3.629617,51.204218],[-3.629738,51.204179],[-3.62984,51.204131],[-3.629934,51.204086],[-3.630019,51.204044],[-3.630097,51.204005],[-3.630166,51.203969],[-3.630288,51.203965],[-3.630464,51.203992],[-3.630692,51.20405],[-3.630973,51.20414],[-3.631211,51.204211],[-3.631406,51.204266],[-3.631557,51.204302],[-3.631664,51.204321],[-3.631859,51.204365],[-3.632142,51.204434],[-3.632511,51.204527],[-3.632969,51.204646],[-3.633394,51.204772],[-3.633786,51.204905],[-3.634147,51.205045],[-3.634475,51.205192],[-3.634785,51.205353],[-3.635077,51.205527],[-3.635352,51.205715],[-3.635609,51.205916],[-3.635825,51.206038],[-3.636002,51.206081],[-3.636138,51.206044]]]}}