{"type":"Feature","properties":{"id":"258917","COMMUNE":"West Somerset","PROVINCE":"Somerset","COUNTRY":"UK","FIREDATE":"2025-03-05 14:16:00","FINALDATE":"2025-03-05 14:16:00","CLASS":"FireSeason","areaHA_geo":8.252},"geometry":{"type":"Polygon","coordinates":[[[-3.665531,51.188362],[-3.66563,51.188534],[-3.665814,51.188695],[-3.666083,51.188844],[-3.666438,51.188982],[-3.666732,51.189122],[-3.666965,51.189264],[-3.667137,51.189407],[-3.667249,51.189553],[-3.667406,51.189595],[-3.667608,51.189534],[-3.667854,51.18937],[-3.668147,51.189102],[-3.668401,51.18888],[-3.668619,51.188703],[-3.6688,51.188572],[-3.668943,51.188486],[-3.66904,51.188385],[-3.669089,51.188268],[-3.669092,51.188135],[-3.669047,51.187987],[-3.668991,51.187886],[-3.668925,51.187834],[-3.668847,51.187828],[-3.668758,51.187871],[-3.668659,51.187888],[-3.668551,51.187879],[-3.668433,51.187846],[-3.668305,51.187787],[-3.668217,51.18772],[-3.66817,51.187647],[-3.668162,51.187566],[-3.668195,51.187477],[-3.668257,51.187409],[-3.668348,51.187361],[-3.668469,51.187333],[-3.668619,51.187326],[-3.668703,51.187295],[-3.66872,51.18724],[-3.668671,51.187161],[-3.668555,51.187058],[-3.668496,51.186981],[-3.668493,51.186928],[-3.668546,51.186901],[-3.668655,51.186898],[-3.668736,51.186885],[-3.668788,51.18686],[-3.668811,51.186824],[-3.668805,51.186777],[-3.668793,51.186714],[-3.668773,51.186634],[-3.668746,51.186538],[-3.668712,51.186426],[-3.668709,51.18633],[-3.668735,51.18625],[-3.668792,51.186186],[-3.66888,51.186139],[-3.668983,51.186075],[-3.669103,51.185994],[-3.669239,51.185898],[-3.669391,51.185784],[-3.669496,51.185669],[-3.669554,51.185551],[-3.669564,51.18543],[-3.669527,51.185308],[-3.669396,51.185225],[-3.669172,51.185183],[-3.668854,51.185181],[-3.668442,51.18522],[-3.66813,51.185274],[-3.667918,51.185344],[-3.667807,51.18543],[-3.667795,51.185532],[-3.667722,51.185621],[-3.667589,51.185698],[-3.667394,51.185762],[-3.667139,51.185814],[-3.666944,51.185871],[-3.666811,51.185935],[-3.666739,51.186004],[-3.666728,51.186079],[-3.666686,51.186165],[-3.666613,51.186261],[-3.66651,51.186367],[-3.666375,51.186484],[-3.666233,51.186581],[-3.666083,51.18666],[-3.665926,51.18672],[-3.66576,51.186761],[-3.665635,51.186859],[-3.665551,51.187014],[-3.665507,51.187227],[-3.665504,51.187498],[-3.665504,51.187746],[-3.665509,51.187973],[-3.665518,51.188179],[-3.665531,51.188362]]]}}