{"type":"Feature","properties":{"id":"258919","COMMUNE":"West Somerset","PROVINCE":"Somerset","COUNTRY":"UK","FIREDATE":"2025-03-05 12:18:11.29","FINALDATE":"2025-03-06 12:18:14.452","CLASS":"FireSeason","areaHA_geo":5.526},"geometry":{"type":"Polygon","coordinates":[[[-3.651704,51.201194],[-3.651999,51.201052],[-3.652239,51.20088],[-3.652422,51.20068],[-3.652549,51.200451],[-3.652631,51.200268],[-3.652665,51.20013],[-3.652654,51.200037],[-3.652596,51.199989],[-3.652578,51.199894],[-3.6526,51.19975],[-3.652662,51.199559],[-3.652765,51.19932],[-3.652826,51.199123],[-3.652845,51.198968],[-3.652822,51.198856],[-3.652757,51.198787],[-3.652718,51.198724],[-3.652705,51.198669],[-3.652718,51.198621],[-3.652757,51.19858],[-3.652732,51.198526],[-3.652642,51.19846],[-3.652489,51.19838],[-3.652273,51.198288],[-3.652069,51.198198],[-3.65188,51.198112],[-3.651704,51.198028],[-3.651541,51.197948],[-3.651375,51.197932],[-3.651204,51.197982],[-3.65103,51.198097],[-3.650852,51.198277],[-3.650677,51.198512],[-3.650506,51.198803],[-3.65034,51.199149],[-3.650177,51.199549],[-3.650056,51.199897],[-3.649977,51.20019],[-3.64994,51.200429],[-3.649945,51.200615],[-3.650002,51.200715],[-3.650112,51.200729],[-3.650274,51.200658],[-3.650488,51.200501],[-3.650623,51.200429],[-3.650678,51.200443],[-3.650654,51.200542],[-3.650549,51.200727],[-3.650457,51.200887],[-3.650378,51.201021],[-3.650311,51.20113],[-3.650256,51.201214],[-3.650256,51.201286],[-3.65031,51.201345],[-3.650419,51.201392],[-3.650582,51.201427],[-3.650792,51.201425],[-3.651049,51.201386],[-3.651353,51.201309],[-3.651704,51.201194]]]}}