{"type":"Feature","properties":{"id":"258925","COMMUNE":"Carmarthenshire","PROVINCE":"South West Wales","COUNTRY":"UK","FIREDATE":"2025-03-06 01:00:00","CLASS":"FireSeason","areaHA_geo":18.174},"geometry":{"type":"Polygon","coordinates":[[[-3.728526,51.918319],[-3.728444,51.918212],[-3.728416,51.918128],[-3.728443,51.918066],[-3.728524,51.918028],[-3.728659,51.918012],[-3.7288,51.917983],[-3.728945,51.917942],[-3.729096,51.917889],[-3.729251,51.917823],[-3.729349,51.917766],[-3.72939,51.917718],[-3.729375,51.917679],[-3.729302,51.917649],[-3.729272,51.917614],[-3.729284,51.917573],[-3.729338,51.917528],[-3.729435,51.917478],[-3.729455,51.917445],[-3.729398,51.91743],[-3.729263,51.917433],[-3.729052,51.917454],[-3.728882,51.917461],[-3.728754,51.917454],[-3.728667,51.917434],[-3.728621,51.917401],[-3.72859,51.917364],[-3.728575,51.917325],[-3.728574,51.917283],[-3.728588,51.917238],[-3.728608,51.917196],[-3.728635,51.917156],[-3.728667,51.917119],[-3.728706,51.917084],[-3.728745,51.917047],[-3.728785,51.917008],[-3.728827,51.916966],[-3.72887,51.916922],[-3.72892,51.916882],[-3.728979,51.916845],[-3.729046,51.916811],[-3.729121,51.91678],[-3.729155,51.916737],[-3.729148,51.916682],[-3.729101,51.916614],[-3.729013,51.916534],[-3.728975,51.916464],[-3.728988,51.916404],[-3.729052,51.916354],[-3.729166,51.916315],[-3.72927,51.916306],[-3.729365,51.916327],[-3.729449,51.916379],[-3.729524,51.916461],[-3.729637,51.916501],[-3.729787,51.916501],[-3.729976,51.916459],[-3.730204,51.916376],[-3.730394,51.916315],[-3.730546,51.916276],[-3.730662,51.916258],[-3.73074,51.916261],[-3.73083,51.916244],[-3.730931,51.916207],[-3.731043,51.916148],[-3.731165,51.916069],[-3.731266,51.916007],[-3.731344,51.915964],[-3.731399,51.915938],[-3.731431,51.915929],[-3.731464,51.915932],[-3.731496,51.915946],[-3.731528,51.91597],[-3.73156,51.916005],[-3.731613,51.916041],[-3.731688,51.916077],[-3.731784,51.916115],[-3.731901,51.916153],[-3.732007,51.916193],[-3.732101,51.916236],[-3.732183,51.916282],[-3.732254,51.916329],[-3.732248,51.916388],[-3.732164,51.916459],[-3.732004,51.91654],[-3.731765,51.916633],[-3.731556,51.916721],[-3.731374,51.916805],[-3.731222,51.916885],[-3.731098,51.91696],[-3.731016,51.917018],[-3.730976,51.91706],[-3.730978,51.917084],[-3.731023,51.917092],[-3.731073,51.917096],[-3.731129,51.917096],[-3.731191,51.917092],[-3.731259,51.917084],[-3.731308,51.917089],[-3.731338,51.917107],[-3.731349,51.917138],[-3.731342,51.917182],[-3.731315,51.917238],[-3.73127,51.917306],[-3.731205,51.917386],[-3.731121,51.917478],[-3.731072,51.917564],[-3.731058,51.917643],[-3.731079,51.917716],[-3.731135,51.917783],[-3.731187,51.91782],[-3.731235,51.917827],[-3.731279,51.917805],[-3.731319,51.917753],[-3.731351,51.917694],[-3.731377,51.917628],[-3.731395,51.917556],[-3.731405,51.917477],[-3.731439,51.917409],[-3.731495,51.917353],[-3.731574,51.917308],[-3.731676,51.917274],[-3.731768,51.917246],[-3.731848,51.917224],[-3.731919,51.917207],[-3.731978,51.917195],[-3.732046,51.917158],[-3.732121,51.917096],[-3.732204,51.917007],[-3.732295,51.916893],[-3.732374,51.916794],[-3.732439,51.91671],[-3.732492,51.916643],[-3.732532,51.91659],[-3.732577,51.916531],[-3.732626,51.916465],[-3.732681,51.916391],[-3.73274,51.916311],[-3.732816,51.916255],[-3.732908,51.916222],[-3.733016,51.916214],[-3.73314,51.916229],[-3.733235,51.916253],[-3.733301,51.916284],[-3.733337,51.916323],[-3.733345,51.916369],[-3.73334,51.916417],[-3.733324,51.916467],[-3.733296,51.916518],[-3.733256,51.91657],[-3.733244,51.91661],[-3.73326,51.916639],[-3.733303,51.916655],[-3.733375,51.91666],[-3.733463,51.916661],[-3.733568,51.916659],[-3.73369,51.916655],[-3.733828,51.916647],[-3.733943,51.916655],[-3.734034,51.916679],[-3.734103,51.916719],[-3.734148,51.916774],[-3.734174,51.916822],[-3.73418,51.916865],[-3.734167,51.916901],[-3.734134,51.916931],[-3.73412,51.91696],[-3.734125,51.916987],[-3.734149,51.917013],[-3.734192,51.917039],[-3.734238,51.917063],[-3.734288,51.917088],[-3.734341,51.917112],[-3.734397,51.917135],[-3.734454,51.917178],[-3.734512,51.917241],[-3.734571,51.917322],[-3.73463,51.917423],[-3.734702,51.91749],[-3.734786,51.917524],[-3.734883,51.917523],[-3.734991,51.917489],[-3.735068,51.917446],[-3.735112,51.917396],[-3.735124,51.917337],[-3.735103,51.91727],[-3.735073,51.917196],[-3.735033,51.917114],[-3.734985,51.917025],[-3.734927,51.916928],[-3.734907,51.91686],[-3.734927,51.916821],[-3.734985,51.916811],[-3.735082,51.91683],[-3.735156,51.916826],[-3.735208,51.916798],[-3.735236,51.916747],[-3.735241,51.916673],[-3.735273,51.916613],[-3.735333,51.916567],[-3.735419,51.916535],[-3.735533,51.916518],[-3.735648,51.916515],[-3.735765,51.916527],[-3.735882,51.916554],[-3.736,51.916597],[-3.736106,51.91662],[-3.736198,51.916624],[-3.736278,51.916609],[-3.736345,51.916575],[-3.736381,51.916532],[-3.736386,51.91648],[-3.736359,51.916418],[-3.736302,51.916347],[-3.73624,51.916281],[-3.736172,51.91622],[-3.736098,51.916164],[-3.736019,51.916113],[-3.735945,51.916085],[-3.735877,51.91608],[-3.735814,51.916098],[-3.735757,51.916139],[-3.735654,51.91617],[-3.735505,51.916189],[-3.735311,51.916198],[-3.735072,51.916196],[-3.73488,51.91616],[-3.734735,51.916091],[-3.734639,51.915988],[-3.734589,51.915851],[-3.734598,51.915739],[-3.734666,51.915651],[-3.734792,51.915588],[-3.734976,51.915549],[-3.735117,51.915508],[-3.735213,51.915467],[-3.735264,51.915424],[-3.735272,51.91538],[-3.735192,51.915326],[-3.735024,51.915261],[-3.734769,51.915186],[-3.734427,51.915102],[-3.734173,51.915008],[-3.734008,51.914907],[-3.733932,51.914797],[-3.733945,51.914679],[-3.733935,51.914592],[-3.733904,51.914538],[-3.733852,51.914515],[-3.733777,51.914524],[-3.733694,51.914527],[-3.733602,51.914525],[-3.733501,51.914517],[-3.733392,51.914504],[-3.733288,51.914516],[-3.733191,51.914554],[-3.7331,51.914616],[-3.733015,51.914704],[-3.732927,51.914783],[-3.732836,51.914852],[-3.732742,51.914911],[-3.732645,51.914961],[-3.732546,51.915],[-3.732446,51.915027],[-3.732343,51.915042],[-3.732239,51.915046],[-3.732144,51.915056],[-3.732058,51.915073],[-3.731981,51.915096],[-3.731913,51.915125],[-3.731849,51.915151],[-3.731789,51.915174],[-3.731733,51.915192],[-3.731681,51.915207],[-3.731624,51.91523],[-3.73156,51.915261],[-3.731489,51.915301],[-3.731413,51.915348],[-3.73134,51.915374],[-3.731271,51.915378],[-3.731206,51.91536],[-3.731144,51.91532],[-3.731077,51.915284],[-3.731004,51.915254],[-3.730926,51.915229],[-3.730843,51.915208],[-3.730768,51.91516],[-3.730702,51.915083],[-3.730645,51.914979],[-3.730597,51.914846],[-3.730522,51.914722],[-3.730419,51.914607],[-3.730289,51.9145],[-3.730133,51.914402],[-3.730031,51.914312],[-3.729985,51.914231],[-3.729994,51.914159],[-3.730059,51.914095],[-3.73009,51.914016],[-3.730089,51.913921],[-3.730055,51.913811],[-3.729988,51.913685],[-3.729942,51.913554],[-3.729917,51.913419],[-3.729914,51.913279],[-3.729933,51.913134],[-3.729886,51.913035],[-3.729775,51.912981],[-3.729598,51.912972],[-3.729357,51.91301],[-3.729133,51.91304],[-3.728926,51.913065],[-3.728737,51.913083],[-3.728565,51.913094],[-3.728426,51.913121],[-3.72832,51.913164],[-3.728246,51.913222],[-3.728206,51.913296],[-3.728135,51.913356],[-3.728034,51.913403],[-3.727902,51.913436],[-3.727739,51.913455],[-3.727618,51.91348],[-3.72754,51.913511],[-3.727504,51.913547],[-3.72751,51.91359],[-3.727541,51.913621],[-3.727596,51.91364],[-3.727676,51.913648],[-3.72778,51.913644],[-3.727862,51.913661],[-3.727923,51.913697],[-3.727961,51.913753],[-3.727978,51.913829],[-3.727939,51.913892],[-3.727847,51.913944],[-3.727699,51.913984],[-3.727497,51.914012],[-3.727328,51.914089],[-3.727191,51.914213],[-3.727086,51.914385],[-3.727014,51.914605],[-3.726943,51.914775],[-3.726875,51.914896],[-3.726809,51.914966],[-3.726746,51.914986],[-3.726684,51.915025],[-3.726624,51.915082],[-3.726566,51.915157],[-3.726511,51.91525],[-3.726491,51.915326],[-3.726506,51.915387],[-3.726557,51.915432],[-3.726643,51.915461],[-3.726665,51.915487],[-3.726624,51.915512],[-3.726518,51.915534],[-3.726349,51.915554],[-3.726207,51.915554],[-3.726092,51.915535],[-3.726005,51.915497],[-3.725945,51.915439],[-3.725896,51.915407],[-3.725859,51.915401],[-3.725833,51.91542],[-3.725819,51.915465],[-3.725785,51.915501],[-3.72573,51.915529],[-3.725655,51.915549],[-3.725561,51.91556],[-3.725481,51.915581],[-3.725417,51.915613],[-3.725368,51.915654],[-3.725335,51.915705],[-3.72529,51.915747],[-3.725234,51.91578],[-3.725165,51.915803],[-3.725085,51.915817],[-3.725022,51.915875],[-3.724977,51.915978],[-3.724949,51.916125],[-3.724938,51.916316],[-3.72495,51.916446],[-3.724986,51.916515],[-3.725044,51.916524],[-3.725126,51.916471],[-3.725213,51.916435],[-3.725306,51.916415],[-3.725403,51.916412],[-3.725506,51.916426],[-3.725601,51.916417],[-3.72569,51.916385],[-3.725771,51.91633],[-3.725845,51.916252],[-3.725921,51.916191],[-3.725999,51.916148],[-3.726079,51.916121],[-3.72616,51.916112],[-3.726242,51.916134],[-3.726326,51.916189],[-3.726411,51.916276],[-3.726497,51.916396],[-3.726574,51.916513],[-3.726641,51.916628],[-3.726699,51.916741],[-3.726748,51.916852],[-3.726799,51.916915],[-3.726853,51.916931],[-3.726909,51.916898],[-3.726969,51.916818],[-3.727023,51.916766],[-3.727072,51.916743],[-3.727116,51.916748],[-3.727155,51.916783],[-3.727182,51.916822],[-3.727199,51.916865],[-3.727205,51.916913],[-3.727201,51.916965],[-3.727177,51.917009],[-3.727136,51.917044],[-3.727075,51.917071],[-3.726997,51.917089],[-3.726952,51.917116],[-3.726942,51.917151],[-3.726967,51.917196],[-3.727025,51.917249],[-3.727041,51.917302],[-3.727015,51.917352],[-3.726946,51.917401],[-3.726834,51.917449],[-3.72675,51.9175],[-3.726693,51.917554],[-3.726663,51.917612],[-3.726661,51.917672],[-3.726678,51.917716],[-3.726714,51.917742],[-3.72677,51.91775],[-3.726844,51.917742],[-3.726905,51.91775],[-3.726951,51.917774],[-3.726983,51.917816],[-3.727001,51.917874],[-3.72705,51.917917],[-3.727128,51.917945],[-3.727237,51.917957],[-3.727377,51.917953],[-3.72748,51.917956],[-3.727546,51.917966],[-3.727575,51.917982],[-3.727568,51.918004],[-3.727538,51.91803],[-3.727484,51.91806],[-3.727407,51.918094],[-3.727306,51.918132],[-3.727245,51.91817],[-3.727225,51.918206],[-3.727245,51.918243],[-3.727306,51.918279],[-3.72738,51.918303],[-3.727468,51.918314],[-3.727569,51.918313],[-3.727684,51.918299],[-3.727796,51.918308],[-3.727904,51.918338],[-3.728008,51.918391],[-3.728108,51.918465],[-3.728208,51.918515],[-3.728307,51.91854],[-3.728405,51.918541],[-3.728503,51.918516],[-3.728556,51.918471],[-3.728564,51.918405],[-3.728526,51.918319]]]}}