{"type":"Feature","properties":{"id":"258921","COMMUNE":"West Somerset","PROVINCE":"Somerset","COUNTRY":"UK","FIREDATE":"2025-03-04 13:05:00","CLASS":"FireSeason","areaHA_geo":1.225},"geometry":{"type":"Polygon","coordinates":[[[-3.589231,51.200283],[-3.589346,51.200286],[-3.589426,51.200274],[-3.58947,51.200245],[-3.58948,51.200199],[-3.589455,51.200138],[-3.589421,51.200075],[-3.589378,51.200012],[-3.589326,51.199949],[-3.589265,51.199885],[-3.589199,51.199857],[-3.589127,51.199866],[-3.58905,51.19991],[-3.588967,51.199991],[-3.588898,51.200069],[-3.588843,51.200143],[-3.588801,51.200215],[-3.588773,51.200283],[-3.58875,51.200348],[-3.58873,51.200411],[-3.588716,51.200471],[-3.588705,51.200528],[-3.588697,51.200589],[-3.58869,51.200653],[-3.588685,51.200721],[-3.588683,51.200793],[-3.588656,51.200851],[-3.588605,51.200896],[-3.588531,51.200927],[-3.588433,51.200945],[-3.588363,51.200972],[-3.58832,51.201009],[-3.588305,51.201054],[-3.588318,51.201109],[-3.588338,51.201159],[-3.588366,51.201206],[-3.588401,51.201248],[-3.588444,51.201286],[-3.588445,51.201316],[-3.588404,51.201336],[-3.588322,51.201349],[-3.588199,51.201353],[-3.588102,51.201361],[-3.58803,51.201375],[-3.587984,51.201394],[-3.587963,51.201418],[-3.588006,51.201453],[-3.588111,51.201497],[-3.588278,51.201553],[-3.588508,51.201618],[-3.588682,51.201668],[-3.588799,51.201701],[-3.58886,51.201719],[-3.588864,51.201721],[-3.588907,51.201731],[-3.588991,51.201749],[-3.589113,51.201775],[-3.589276,51.20181],[-3.589409,51.201824],[-3.589514,51.201817],[-3.589591,51.201789],[-3.589638,51.20174],[-3.589669,51.201687],[-3.589685,51.201628],[-3.589683,51.201564],[-3.589666,51.201494],[-3.589647,51.201426],[-3.589625,51.201359],[-3.5896,51.201292],[-3.589574,51.201226],[-3.589545,51.20116],[-3.589515,51.201095],[-3.589484,51.201029],[-3.58945,51.200964],[-3.589415,51.200906],[-3.589377,51.200854],[-3.589337,51.200809],[-3.589294,51.200771],[-3.589257,51.200734],[-3.589225,51.200696],[-3.589199,51.20066],[-3.589177,51.200623],[-3.589157,51.200591],[-3.589139,51.200563],[-3.589121,51.200539],[-3.589105,51.20052],[-3.589091,51.200492],[-3.58908,51.200455],[-3.589072,51.20041],[-3.589066,51.200357],[-3.589091,51.200318],[-3.589146,51.200293],[-3.589231,51.200283]]]}}