{"type":"Feature","properties":{"id":"258916","COMMUNE":"West Somerset","PROVINCE":"Somerset","COUNTRY":"UK","FIREDATE":"2025-03-05 14:16:00","FINALDATE":"2025-03-05 14:16:00","CLASS":"FireSeason","areaHA_geo":6.472},"geometry":{"type":"Polygon","coordinates":[[[-3.658316,51.186845],[-3.658443,51.186821],[-3.658563,51.186756],[-3.658677,51.186652],[-3.658786,51.186506],[-3.658894,51.1864],[-3.659,51.186331],[-3.659106,51.186302],[-3.65921,51.186311],[-3.65931,51.186293],[-3.659408,51.18625],[-3.659501,51.186181],[-3.659591,51.186085],[-3.659636,51.186003],[-3.659636,51.185934],[-3.659592,51.185879],[-3.659503,51.185836],[-3.659418,51.185799],[-3.659336,51.185766],[-3.659258,51.185739],[-3.659183,51.185716],[-3.659107,51.185694],[-3.659029,51.185674],[-3.658949,51.185656],[-3.658868,51.185639],[-3.658747,51.185625],[-3.658587,51.185612],[-3.658387,51.185601],[-3.658147,51.185593],[-3.657983,51.185568],[-3.657895,51.185529],[-3.657882,51.185473],[-3.657946,51.185402],[-3.658012,51.185357],[-3.658083,51.185338],[-3.658157,51.185345],[-3.658235,51.185378],[-3.658346,51.185397],[-3.658491,51.185401],[-3.65867,51.18539],[-3.658883,51.185365],[-3.659082,51.185336],[-3.659267,51.185304],[-3.659438,51.185267],[-3.659595,51.185228],[-3.659729,51.185172],[-3.659838,51.185101],[-3.659924,51.185014],[-3.659987,51.184911],[-3.659981,51.184842],[-3.659906,51.184806],[-3.659764,51.184803],[-3.659552,51.184833],[-3.659341,51.184848],[-3.659129,51.184846],[-3.658916,51.184829],[-3.658703,51.184796],[-3.658493,51.184746],[-3.658286,51.184678],[-3.658083,51.184592],[-3.657882,51.184489],[-3.65768,51.184414],[-3.657475,51.184366],[-3.657268,51.184347],[-3.657059,51.184356],[-3.656862,51.18434],[-3.656676,51.184299],[-3.656501,51.184232],[-3.656338,51.18414],[-3.656185,51.18407],[-3.656044,51.18402],[-3.655912,51.183992],[-3.655792,51.183985],[-3.65568,51.183959],[-3.655577,51.183913],[-3.655483,51.183847],[-3.655399,51.183762],[-3.655307,51.183752],[-3.655207,51.183817],[-3.655101,51.183956],[-3.654988,51.184171],[-3.654886,51.184344],[-3.654794,51.184477],[-3.654714,51.184568],[-3.654644,51.184619],[-3.65464,51.184687],[-3.654699,51.184773],[-3.654823,51.184876],[-3.655012,51.184996],[-3.655176,51.185118],[-3.655315,51.185242],[-3.655429,51.185367],[-3.655518,51.185494],[-3.655619,51.185598],[-3.655731,51.185677],[-3.655856,51.185732],[-3.655992,51.185764],[-3.656085,51.18581],[-3.656132,51.18587],[-3.656136,51.185945],[-3.656095,51.186035],[-3.656116,51.186125],[-3.656198,51.186215],[-3.656342,51.186307],[-3.656548,51.186399],[-3.65674,51.18646],[-3.656918,51.186489],[-3.657082,51.186486],[-3.657233,51.186453],[-3.657379,51.186452],[-3.65752,51.186486],[-3.657657,51.186553],[-3.657789,51.186654],[-3.657921,51.186733],[-3.658053,51.186792],[-3.658185,51.186829],[-3.658316,51.186845]]]}}