{"type":"Feature","properties":{"id":"258922","COMMUNE":"West Somerset","PROVINCE":"Somerset","COUNTRY":"UK","FIREDATE":"2025-03-03 13:50:00","FINALDATE":"2025-03-03 13:50:00","CLASS":"FireSeason","areaHA_geo":0.786},"geometry":{"type":"Polygon","coordinates":[[[-3.557874,51.21703],[-3.557994,51.217005],[-3.558068,51.216966],[-3.558095,51.216911],[-3.558076,51.216842],[-3.55801,51.216758],[-3.557937,51.216683],[-3.557856,51.216619],[-3.557767,51.216564],[-3.55767,51.216519],[-3.557547,51.216451],[-3.557398,51.216361],[-3.557223,51.216249],[-3.557022,51.216114],[-3.556857,51.215983],[-3.556729,51.215857],[-3.556638,51.215736],[-3.556583,51.215619],[-3.556538,51.215521],[-3.556505,51.215441],[-3.556481,51.21538],[-3.556469,51.215338],[-3.556436,51.215303],[-3.556385,51.215276],[-3.556314,51.215256],[-3.556223,51.215243],[-3.556162,51.215262],[-3.55613,51.215312],[-3.556127,51.215393],[-3.556154,51.215504],[-3.556217,51.215644],[-3.556318,51.215812],[-3.556455,51.216008],[-3.556629,51.216232],[-3.556786,51.216425],[-3.556927,51.216588],[-3.557051,51.216721],[-3.557159,51.216823],[-3.557263,51.216906],[-3.557363,51.216968],[-3.55746,51.21701],[-3.557554,51.217033],[-3.557654,51.217043],[-3.557761,51.217042],[-3.557874,51.21703]]]}}