{"type":"Feature","properties":{"id":"259152","COMMUNE":"Ceredigion","PROVINCE":"South West Wales","COUNTRY":"UK","FIREDATE":"2025-03-11 11:45:00","FINALDATE":"2025-03-11 12:59:00","CLASS":"FireSeason","areaHA_geo":14.393},"geometry":{"type":"Polygon","coordinates":[[[-3.79327,52.431552],[-3.793351,52.43158],[-3.79349,52.43156],[-3.793687,52.431493],[-3.79394,52.431379],[-3.794122,52.431274],[-3.794232,52.43118],[-3.79427,52.431095],[-3.794235,52.431021],[-3.794234,52.430974],[-3.794265,52.430954],[-3.794329,52.430961],[-3.794426,52.430995],[-3.794548,52.431007],[-3.794695,52.430996],[-3.794867,52.430963],[-3.795064,52.430907],[-3.795213,52.430843],[-3.795313,52.430769],[-3.795365,52.430686],[-3.795368,52.430594],[-3.795383,52.430539],[-3.795409,52.430519],[-3.795446,52.430536],[-3.795495,52.430589],[-3.795542,52.430651],[-3.795585,52.430721],[-3.795626,52.430799],[-3.795665,52.430886],[-3.795721,52.430953],[-3.795795,52.431],[-3.795886,52.431027],[-3.795996,52.431033],[-3.796087,52.430998],[-3.796159,52.430921],[-3.796213,52.430802],[-3.796248,52.430641],[-3.796248,52.430498],[-3.796213,52.430371],[-3.796144,52.430262],[-3.796039,52.430169],[-3.795988,52.430102],[-3.795991,52.430059],[-3.796047,52.430041],[-3.796156,52.430048],[-3.796266,52.430045],[-3.796374,52.430032],[-3.796483,52.43001],[-3.796591,52.429977],[-3.796668,52.429934],[-3.796716,52.42988],[-3.796732,52.429814],[-3.796719,52.429737],[-3.796721,52.429685],[-3.796739,52.429656],[-3.796773,52.429652],[-3.796822,52.429673],[-3.796896,52.429671],[-3.796996,52.429646],[-3.797121,52.429599],[-3.797271,52.429529],[-3.797434,52.429459],[-3.79761,52.429389],[-3.797801,52.42932],[-3.798004,52.42925],[-3.798184,52.429241],[-3.798339,52.429291],[-3.798471,52.429401],[-3.798579,52.429571],[-3.798682,52.429701],[-3.79878,52.429791],[-3.798874,52.429841],[-3.798962,52.42985],[-3.799062,52.429833],[-3.799172,52.429791],[-3.799293,52.429723],[-3.799424,52.429629],[-3.799521,52.429536],[-3.799583,52.429444],[-3.799611,52.429353],[-3.799603,52.429262],[-3.799628,52.429186],[-3.799683,52.429124],[-3.79977,52.429076],[-3.799888,52.429042],[-3.799951,52.429002],[-3.799958,52.428956],[-3.799909,52.428903],[-3.799804,52.428843],[-3.799756,52.428795],[-3.799766,52.428758],[-3.799833,52.428732],[-3.799957,52.428718],[-3.800072,52.428714],[-3.800176,52.428721],[-3.800271,52.42874],[-3.800355,52.428769],[-3.800457,52.42877],[-3.800578,52.428743],[-3.800716,52.428687],[-3.800872,52.428604],[-3.800989,52.428541],[-3.801067,52.428499],[-3.801106,52.428478],[-3.801106,52.428478],[-3.801143,52.4285],[-3.801216,52.428544],[-3.801325,52.42861],[-3.801471,52.428697],[-3.801599,52.428762],[-3.801709,52.428805],[-3.801802,52.428825],[-3.801876,52.428822],[-3.801946,52.42879],[-3.802012,52.428727],[-3.802074,52.428633],[-3.802131,52.428508],[-3.802167,52.428385],[-3.802182,52.428262],[-3.802176,52.428141],[-3.802148,52.42802],[-3.802055,52.427905],[-3.801897,52.427796],[-3.801674,52.427693],[-3.801386,52.427597],[-3.801125,52.427544],[-3.800891,52.427535],[-3.800685,52.427571],[-3.800506,52.427651],[-3.800326,52.427693],[-3.800145,52.427698],[-3.799962,52.427665],[-3.799779,52.427596],[-3.79945,52.427549],[-3.798976,52.427526],[-3.798355,52.427527],[-3.79759,52.427552],[-3.796983,52.427587],[-3.796536,52.427633],[-3.796247,52.427689],[-3.796118,52.427757],[-3.795976,52.427826],[-3.795821,52.427896],[-3.795653,52.427968],[-3.795473,52.428041],[-3.79529,52.428126],[-3.795106,52.428223],[-3.79492,52.428331],[-3.794732,52.428451],[-3.794547,52.428527],[-3.794363,52.428558],[-3.794182,52.428545],[-3.794002,52.428488],[-3.793855,52.428471],[-3.793739,52.428494],[-3.793654,52.428558],[-3.793601,52.428662],[-3.793505,52.428758],[-3.793367,52.428847],[-3.793185,52.428927],[-3.792961,52.428999],[-3.792797,52.429091],[-3.792693,52.429205],[-3.79265,52.429339],[-3.792666,52.429494],[-3.792688,52.429646],[-3.792714,52.429797],[-3.792745,52.429945],[-3.79278,52.430091],[-3.79281,52.43022],[-3.792835,52.430331],[-3.792854,52.430425],[-3.792867,52.430502],[-3.79286,52.430581],[-3.792832,52.430663],[-3.792784,52.430747],[-3.792715,52.430833],[-3.792675,52.430921],[-3.792666,52.43101],[-3.792687,52.431101],[-3.792737,52.431193],[-3.7928,52.431264],[-3.792875,52.431314],[-3.792962,52.431343],[-3.793061,52.431351],[-3.793142,52.431376],[-3.793203,52.431418],[-3.793246,52.431476],[-3.79327,52.431552]]]}}