{"type":"Feature","properties":{"id":"263199","COMMUNE":"Ceredigion","PROVINCE":"South West Wales","COUNTRY":"UK","FIREDATE":"2025-03-06 01:26:00","FINALDATE":"2025-03-06 03:06:00","CLASS":"FireSeason","areaHA_geo":25.219},"geometry":{"type":"Polygon","coordinates":[[[-3.747279,52.273256],[-3.747559,52.27321],[-3.747863,52.27304],[-3.748191,52.272745],[-3.748543,52.272325],[-3.748817,52.271974],[-3.749012,52.271692],[-3.749129,52.271478],[-3.749167,52.271332],[-3.749198,52.271189],[-3.749222,52.271048],[-3.749239,52.27091],[-3.749249,52.270774],[-3.749151,52.270652],[-3.748944,52.270545],[-3.748628,52.270452],[-3.748204,52.270373],[-3.747879,52.270269],[-3.747654,52.270138],[-3.747529,52.269981],[-3.747503,52.269798],[-3.747521,52.269597],[-3.747584,52.269378],[-3.747691,52.269141],[-3.747842,52.268886],[-3.748011,52.268647],[-3.748198,52.268423],[-3.748404,52.268214],[-3.748627,52.268021],[-3.748809,52.267856],[-3.748949,52.267717],[-3.749049,52.267606],[-3.749106,52.267522],[-3.749198,52.267428],[-3.749323,52.267324],[-3.749481,52.267209],[-3.749673,52.267084],[-3.749796,52.267031],[-3.749849,52.267051],[-3.749833,52.267142],[-3.749748,52.267306],[-3.749775,52.267409],[-3.749914,52.26745],[-3.750166,52.26743],[-3.750529,52.267349],[-3.75083,52.267263],[-3.75107,52.267171],[-3.751247,52.267073],[-3.751361,52.26697],[-3.751467,52.26692],[-3.751563,52.266925],[-3.75165,52.266984],[-3.751727,52.267097],[-3.751824,52.267186],[-3.751939,52.267253],[-3.752074,52.267297],[-3.752227,52.267317],[-3.752366,52.267315],[-3.75249,52.267291],[-3.752599,52.267245],[-3.752693,52.267176],[-3.752765,52.267139],[-3.752816,52.267133],[-3.752845,52.267158],[-3.752852,52.267215],[-3.752849,52.267289],[-3.752836,52.267381],[-3.752812,52.267489],[-3.752778,52.267615],[-3.752791,52.267731],[-3.75285,52.267836],[-3.752956,52.267931],[-3.753109,52.268016],[-3.753222,52.268092],[-3.753297,52.268161],[-3.753331,52.268221],[-3.753326,52.268272],[-3.7533,52.268338],[-3.753251,52.268418],[-3.753181,52.268511],[-3.753088,52.268618],[-3.753054,52.26871],[-3.753078,52.268787],[-3.753161,52.26885],[-3.753302,52.268898],[-3.753365,52.268946],[-3.753349,52.268996],[-3.753254,52.269047],[-3.753082,52.2691],[-3.752925,52.269121],[-3.752786,52.269112],[-3.752663,52.269072],[-3.752556,52.269001],[-3.752459,52.26895],[-3.75237,52.268919],[-3.75229,52.268907],[-3.752219,52.268915],[-3.752136,52.268984],[-3.75204,52.269114],[-3.751932,52.269305],[-3.751811,52.269557],[-3.751658,52.26978],[-3.751472,52.269975],[-3.751253,52.270141],[-3.751003,52.27028],[-3.750778,52.270393],[-3.750579,52.27048],[-3.750407,52.270542],[-3.75026,52.270578],[-3.750173,52.270642],[-3.750143,52.270732],[-3.750172,52.270849],[-3.750259,52.270992],[-3.750311,52.271116],[-3.750328,52.27122],[-3.75031,52.271304],[-3.750256,52.271368],[-3.750211,52.27146],[-3.750175,52.271579],[-3.750148,52.271727],[-3.750129,52.271902],[-3.750078,52.272048],[-3.749993,52.272164],[-3.749876,52.27225],[-3.749725,52.272306],[-3.749598,52.272378],[-3.749495,52.272467],[-3.749415,52.272573],[-3.749359,52.272695],[-3.749355,52.272784],[-3.749404,52.272839],[-3.749505,52.272861],[-3.749659,52.272849],[-3.749807,52.272843],[-3.749949,52.272842],[-3.750085,52.272847],[-3.750214,52.272858],[-3.750346,52.272818],[-3.750481,52.272729],[-3.750619,52.272589],[-3.750759,52.2724],[-3.750915,52.272237],[-3.751088,52.272101],[-3.751278,52.271992],[-3.751483,52.271911],[-3.751652,52.271795],[-3.751783,52.271644],[-3.751878,52.27146],[-3.751936,52.271242],[-3.752059,52.27104],[-3.752247,52.270854],[-3.752502,52.270685],[-3.752822,52.270532],[-3.753075,52.270393],[-3.753262,52.270269],[-3.753383,52.270158],[-3.753436,52.270062],[-3.753513,52.270021],[-3.753612,52.270035],[-3.753734,52.270104],[-3.753878,52.270228],[-3.754013,52.270341],[-3.754139,52.270442],[-3.754256,52.27053],[-3.754365,52.270608],[-3.754504,52.270625],[-3.754675,52.270582],[-3.754877,52.27048],[-3.75511,52.270318],[-3.755267,52.270165],[-3.755348,52.270021],[-3.755352,52.269886],[-3.755281,52.269759],[-3.755218,52.269624],[-3.755162,52.26948],[-3.755114,52.269327],[-3.755073,52.269165],[-3.755048,52.269025],[-3.755037,52.268908],[-3.755042,52.268812],[-3.755061,52.26874],[-3.755031,52.268653],[-3.754952,52.268553],[-3.754825,52.26844],[-3.754648,52.268313],[-3.754488,52.268164],[-3.754345,52.267991],[-3.754218,52.267796],[-3.754107,52.267578],[-3.754037,52.267405],[-3.754007,52.267277],[-3.754018,52.267194],[-3.754069,52.267156],[-3.754165,52.267117],[-3.754305,52.267079],[-3.75449,52.267039],[-3.754719,52.267],[-3.754922,52.26696],[-3.755099,52.26692],[-3.755249,52.26688],[-3.755373,52.26684],[-3.755477,52.26677],[-3.755562,52.26667],[-3.755626,52.26654],[-3.755671,52.266381],[-3.755651,52.266302],[-3.755567,52.266302],[-3.755419,52.266382],[-3.755206,52.266542],[-3.755026,52.266654],[-3.754878,52.26672],[-3.754763,52.266738],[-3.75468,52.266709],[-3.754521,52.266627],[-3.754283,52.266491],[-3.753969,52.266302],[-3.753577,52.266059],[-3.753336,52.265859],[-3.753245,52.265703],[-3.753304,52.265591],[-3.753514,52.265521],[-3.753653,52.265431],[-3.753724,52.26532],[-3.753725,52.265189],[-3.753656,52.265036],[-3.753556,52.264921],[-3.753427,52.264843],[-3.753267,52.264803],[-3.753077,52.264799],[-3.752904,52.26481],[-3.752749,52.264835],[-3.752611,52.264873],[-3.752491,52.264926],[-3.75236,52.26497],[-3.752219,52.265006],[-3.752067,52.265033],[-3.751905,52.265052],[-3.751775,52.26505],[-3.751679,52.265026],[-3.751614,52.26498],[-3.751583,52.264913],[-3.751529,52.264868],[-3.751454,52.264845],[-3.751356,52.264844],[-3.751236,52.264864],[-3.751095,52.264857],[-3.750931,52.264821],[-3.750746,52.264758],[-3.750538,52.264667],[-3.750342,52.264611],[-3.750157,52.264591],[-3.749983,52.264607],[-3.749821,52.264658],[-3.749667,52.264719],[-3.749521,52.264791],[-3.749384,52.264873],[-3.749255,52.264965],[-3.749207,52.265031],[-3.749241,52.265072],[-3.749356,52.265088],[-3.749553,52.265077],[-3.749683,52.265106],[-3.749746,52.265172],[-3.749742,52.265277],[-3.749671,52.26542],[-3.749553,52.265562],[-3.749387,52.265703],[-3.749173,52.265844],[-3.748912,52.265983],[-3.748673,52.266143],[-3.748456,52.266322],[-3.748261,52.266521],[-3.748088,52.26674],[-3.747944,52.266961],[-3.74783,52.267183],[-3.747745,52.267406],[-3.747689,52.267631],[-3.747659,52.267843],[-3.747653,52.268042],[-3.747672,52.268229],[-3.747717,52.268404],[-3.747721,52.26856],[-3.747686,52.268699],[-3.747611,52.26882],[-3.747496,52.268923],[-3.747386,52.26904],[-3.74728,52.269172],[-3.747178,52.269317],[-3.747081,52.269475],[-3.746995,52.269639],[-3.746922,52.269808],[-3.746861,52.269982],[-3.746812,52.270161],[-3.746739,52.270313],[-3.746641,52.270436],[-3.746519,52.270532],[-3.746372,52.270601],[-3.746237,52.270706],[-3.746114,52.270849],[-3.746002,52.271029],[-3.745902,52.271246],[-3.745862,52.27147],[-3.745882,52.271702],[-3.745962,52.271941],[-3.746103,52.272188],[-3.746257,52.272378],[-3.746426,52.272512],[-3.746608,52.272591],[-3.746804,52.272612],[-3.746922,52.272655],[-3.746963,52.272717],[-3.746926,52.2728],[-3.746811,52.272903],[-3.746789,52.273001],[-3.74686,52.273092],[-3.747023,52.273177],[-3.747279,52.273256]]]}}