{"type":"Feature","properties":{"id":"263197","COMMUNE":"Ceredigion","PROVINCE":"South West Wales","COUNTRY":"UK","FIREDATE":"2025-03-16 12:42:00","FINALDATE":"2025-03-16 12:42:00","CLASS":"FireSeason","areaHA_geo":2.062},"geometry":{"type":"Polygon","coordinates":[[[-3.786534,52.269855],[-3.786698,52.269708],[-3.786894,52.269595],[-3.787121,52.269517],[-3.787381,52.269474],[-3.787673,52.269465],[-3.787907,52.269431],[-3.788082,52.269372],[-3.7882,52.269288],[-3.788261,52.269178],[-3.788279,52.269088],[-3.788257,52.269016],[-3.788193,52.268965],[-3.788088,52.268932],[-3.788025,52.26889],[-3.788004,52.268838],[-3.788024,52.268776],[-3.788085,52.268705],[-3.788106,52.268636],[-3.788085,52.268571],[-3.788024,52.26851],[-3.787921,52.268451],[-3.787877,52.268376],[-3.78789,52.268285],[-3.787961,52.268177],[-3.78809,52.268053],[-3.78819,52.267935],[-3.78826,52.267824],[-3.788301,52.26772],[-3.788312,52.267623],[-3.788225,52.267612],[-3.788039,52.267688],[-3.787754,52.267852],[-3.78737,52.268102],[-3.787024,52.268348],[-3.786716,52.26859],[-3.786446,52.268826],[-3.786215,52.269059],[-3.786041,52.269259],[-3.785926,52.269427],[-3.785868,52.269562],[-3.785869,52.269664],[-3.785896,52.269757],[-3.785948,52.269841],[-3.786027,52.269915],[-3.786131,52.26998],[-3.786251,52.269991],[-3.786385,52.26995],[-3.786534,52.269855]]]}}