{"type":"Feature","properties":{"id":"263196","COMMUNE":"Ceredigion","PROVINCE":"South West Wales","COUNTRY":"UK","FIREDATE":"2025-03-16 12:42:00","CLASS":"FireSeason","areaHA_geo":3.956},"geometry":{"type":"Polygon","coordinates":[[[-3.791703,52.271862],[-3.792073,52.271875],[-3.792387,52.271854],[-3.792646,52.2718],[-3.792849,52.271712],[-3.793072,52.271633],[-3.793312,52.271563],[-3.793572,52.271502],[-3.79385,52.27145],[-3.794049,52.271381],[-3.79417,52.271297],[-3.794211,52.271196],[-3.794174,52.271078],[-3.794114,52.271011],[-3.79403,52.270996],[-3.793923,52.271031],[-3.793792,52.271117],[-3.793662,52.271172],[-3.793534,52.271197],[-3.793406,52.271191],[-3.793278,52.271154],[-3.793236,52.271103],[-3.793278,52.271037],[-3.793405,52.270957],[-3.793617,52.270861],[-3.793792,52.270765],[-3.79393,52.270669],[-3.794031,52.270572],[-3.794095,52.270475],[-3.794175,52.270396],[-3.794272,52.270337],[-3.794386,52.270296],[-3.794515,52.270275],[-3.794647,52.270242],[-3.79478,52.270197],[-3.794915,52.270141],[-3.795051,52.270074],[-3.795084,52.270017],[-3.795011,52.269971],[-3.794834,52.269936],[-3.794553,52.269911],[-3.794314,52.26992],[-3.794117,52.269962],[-3.793962,52.270038],[-3.79385,52.270148],[-3.793733,52.270209],[-3.793611,52.270224],[-3.793485,52.27019],[-3.793354,52.27011],[-3.793196,52.270059],[-3.793011,52.270039],[-3.792799,52.27005],[-3.792559,52.270091],[-3.792348,52.270111],[-3.792163,52.27011],[-3.792007,52.270088],[-3.791878,52.270046],[-3.791718,52.269991],[-3.791529,52.269923],[-3.791309,52.269843],[-3.791059,52.269751],[-3.790846,52.269718],[-3.790671,52.269745],[-3.790533,52.269832],[-3.790432,52.269978],[-3.790444,52.270092],[-3.790569,52.270174],[-3.790808,52.270223],[-3.79116,52.270239],[-3.791434,52.270274],[-3.79163,52.270328],[-3.791748,52.270401],[-3.791787,52.270493],[-3.79176,52.270574],[-3.791667,52.270646],[-3.791508,52.270708],[-3.791283,52.27076],[-3.791118,52.270821],[-3.791014,52.270891],[-3.79097,52.27097],[-3.790987,52.271058],[-3.790977,52.271159],[-3.790939,52.271272],[-3.790874,52.271399],[-3.790781,52.271538],[-3.790817,52.271654],[-3.790983,52.271747],[-3.791279,52.271816],[-3.791703,52.271862]]]}}