{"type":"Feature","properties":{"id":"263191","COMMUNE":"Powys","PROVINCE":"Powys","COUNTRY":"UK","FIREDATE":"2025-03-20 13:06:00","FINALDATE":"2025-03-20 14:16:00","CLASS":"FireSeason","areaHA_geo":435.21},"geometry":{"type":"Polygon","coordinates":[[[-3.595053,52.330095],[-3.595618,52.329912],[-3.596,52.329724],[-3.596197,52.329531],[-3.596211,52.329333],[-3.596041,52.329131],[-3.595939,52.328924],[-3.595905,52.328712],[-3.595939,52.328495],[-3.596042,52.328274],[-3.596133,52.328064],[-3.596211,52.327865],[-3.596276,52.327678],[-3.596328,52.327502],[-3.596312,52.327311],[-3.596226,52.327105],[-3.596072,52.326884],[-3.595848,52.326648],[-3.595713,52.326438],[-3.595666,52.326254],[-3.595708,52.326095],[-3.595839,52.325962],[-3.595919,52.325806],[-3.595949,52.325626],[-3.595928,52.325422],[-3.595858,52.325195],[-3.595764,52.325013],[-3.595646,52.324876],[-3.595505,52.324784],[-3.59534,52.324738],[-3.595269,52.324665],[-3.595291,52.324564],[-3.595407,52.324436],[-3.595616,52.324281],[-3.595713,52.324142],[-3.595696,52.32402],[-3.595567,52.323914],[-3.595324,52.323824],[-3.595112,52.323711],[-3.59493,52.323575],[-3.594779,52.323416],[-3.594658,52.323234],[-3.594354,52.323017],[-3.593868,52.322766],[-3.5932,52.322481],[-3.592349,52.32216],[-3.591859,52.321913],[-3.59173,52.321738],[-3.591961,52.321636],[-3.592553,52.321607],[-3.593089,52.321656],[-3.593568,52.321784],[-3.593992,52.32199],[-3.594359,52.322274],[-3.594706,52.322473],[-3.59503,52.322586],[-3.595334,52.322613],[-3.595616,52.322554],[-3.595871,52.322476],[-3.596098,52.322378],[-3.596297,52.32226],[-3.596469,52.322122],[-3.596655,52.322012],[-3.596855,52.32193],[-3.597069,52.321876],[-3.597297,52.32185],[-3.597501,52.321784],[-3.597683,52.321677],[-3.597842,52.321532],[-3.597977,52.321346],[-3.598175,52.321241],[-3.598436,52.321218],[-3.59876,52.321275],[-3.599146,52.321413],[-3.599456,52.321479],[-3.59969,52.321471],[-3.599848,52.321391],[-3.599929,52.321238],[-3.600046,52.321097],[-3.600199,52.320968],[-3.600388,52.320851],[-3.600613,52.320747],[-3.600789,52.32071],[-3.600917,52.320741],[-3.600996,52.32084],[-3.601026,52.321006],[-3.601144,52.321127],[-3.60135,52.321201],[-3.601643,52.321229],[-3.602024,52.321211],[-3.602357,52.321143],[-3.602642,52.321025],[-3.60288,52.320857],[-3.603069,52.320639],[-3.603253,52.320454],[-3.603431,52.320303],[-3.603604,52.320185],[-3.603771,52.3201],[-3.60389,52.320017],[-3.603962,52.319937],[-3.603986,52.319859],[-3.603962,52.319783],[-3.604014,52.319673],[-3.60414,52.319527],[-3.604341,52.319347],[-3.604618,52.319132],[-3.604739,52.318935],[-3.604705,52.318756],[-3.604515,52.318594],[-3.60417,52.318451],[-3.603913,52.318314],[-3.603743,52.318183],[-3.603662,52.318059],[-3.603668,52.31794],[-3.603758,52.317868],[-3.603932,52.317841],[-3.60419,52.31786],[-3.604532,52.317925],[-3.604878,52.317934],[-3.605229,52.317887],[-3.605583,52.317784],[-3.605941,52.317625],[-3.606303,52.317478],[-3.606669,52.317344],[-3.607039,52.317223],[-3.607413,52.317114],[-3.607765,52.316969],[-3.608095,52.316787],[-3.608402,52.316568],[-3.608688,52.316313],[-3.608933,52.316117],[-3.609138,52.315983],[-3.609302,52.315908],[-3.609426,52.315893],[-3.609517,52.315909],[-3.609574,52.315955],[-3.609598,52.316031],[-3.609588,52.316136],[-3.609622,52.316159],[-3.609699,52.316097],[-3.60982,52.315953],[-3.609985,52.315724],[-3.609979,52.315548],[-3.609801,52.315425],[-3.609452,52.315354],[-3.608931,52.315336],[-3.6085,52.315314],[-3.60816,52.315288],[-3.607909,52.315258],[-3.607748,52.315224],[-3.607669,52.315158],[-3.60767,52.31506],[-3.607753,52.31493],[-3.607917,52.314767],[-3.608011,52.314622],[-3.608036,52.314495],[-3.607991,52.314385],[-3.607877,52.314294],[-3.607754,52.314243],[-3.607622,52.314232],[-3.607481,52.314261],[-3.607331,52.314331],[-3.607193,52.314406],[-3.607068,52.314486],[-3.606955,52.314571],[-3.606854,52.314661],[-3.606775,52.314752],[-3.606718,52.314843],[-3.606682,52.314936],[-3.606668,52.315029],[-3.6066,52.315102],[-3.606477,52.315156],[-3.606299,52.315189],[-3.606068,52.315203],[-3.605917,52.315185],[-3.605848,52.315134],[-3.605859,52.315051],[-3.605952,52.314935],[-3.606008,52.314805],[-3.606027,52.314658],[-3.606009,52.314497],[-3.605954,52.31432],[-3.605917,52.314151],[-3.605899,52.31399],[-3.6059,52.313836],[-3.605919,52.31369],[-3.605979,52.313555],[-3.60608,52.313432],[-3.606223,52.313321],[-3.606406,52.313221],[-3.606538,52.313128],[-3.606618,52.31304],[-3.606646,52.312958],[-3.606623,52.312882],[-3.606561,52.312821],[-3.60646,52.312774],[-3.606321,52.312741],[-3.606144,52.312722],[-3.606007,52.312679],[-3.605911,52.312612],[-3.605855,52.31252],[-3.605841,52.312404],[-3.605733,52.312299],[-3.605532,52.312204],[-3.605238,52.31212],[-3.60485,52.312048],[-3.604627,52.311952],[-3.604569,52.311835],[-3.604676,52.311695],[-3.604947,52.311533],[-3.605216,52.311413],[-3.605482,52.311337],[-3.605745,52.311303],[-3.606005,52.311312],[-3.606159,52.311288],[-3.606205,52.31123],[-3.606145,52.311139],[-3.605977,52.311015],[-3.605834,52.3109],[-3.605716,52.310796],[-3.605623,52.310702],[-3.605554,52.310619],[-3.60556,52.310536],[-3.605642,52.310455],[-3.6058,52.310374],[-3.606032,52.310295],[-3.606099,52.310232],[-3.605998,52.310185],[-3.605731,52.310153],[-3.605297,52.310138],[-3.605025,52.310108],[-3.604914,52.310062],[-3.604964,52.31],[-3.605176,52.309923],[-3.605346,52.309848],[-3.605473,52.309774],[-3.605558,52.309703],[-3.605601,52.309632],[-3.605665,52.309563],[-3.605751,52.309494],[-3.605859,52.309426],[-3.605988,52.309358],[-3.606026,52.309292],[-3.605973,52.309226],[-3.60583,52.309161],[-3.605595,52.309097],[-3.605351,52.309069],[-3.605096,52.309079],[-3.604832,52.309126],[-3.604558,52.30921],[-3.604271,52.309273],[-3.603973,52.309314],[-3.603663,52.309333],[-3.60334,52.309331],[-3.603039,52.309311],[-3.602758,52.309271],[-3.602499,52.309213],[-3.60226,52.309136],[-3.60199,52.309131],[-3.60169,52.309199],[-3.601357,52.309339],[-3.600994,52.309551],[-3.60066,52.309684],[-3.600355,52.309739],[-3.60008,52.309715],[-3.599834,52.309613],[-3.599676,52.309504],[-3.599608,52.309387],[-3.599628,52.309264],[-3.599738,52.309134],[-3.599726,52.309027],[-3.599593,52.308944],[-3.599339,52.308885],[-3.598963,52.30885],[-3.59865,52.308844],[-3.5984,52.308867],[-3.598212,52.308918],[-3.598087,52.308998],[-3.597987,52.309091],[-3.597913,52.309198],[-3.597864,52.309318],[-3.597841,52.309451],[-3.597743,52.309567],[-3.59757,52.309666],[-3.597322,52.309747],[-3.596998,52.30981],[-3.596721,52.309852],[-3.596492,52.309872],[-3.596309,52.30987],[-3.596173,52.309847],[-3.596017,52.309865],[-3.595843,52.309924],[-3.595649,52.310025],[-3.595435,52.310168],[-3.595234,52.310263],[-3.595045,52.310311],[-3.594869,52.310312],[-3.594704,52.310265],[-3.594611,52.310191],[-3.59459,52.310089],[-3.594641,52.309959],[-3.594764,52.309801],[-3.594828,52.30961],[-3.594833,52.309387],[-3.594781,52.309132],[-3.59467,52.308844],[-3.594656,52.308642],[-3.594738,52.308528],[-3.594917,52.308501],[-3.595193,52.308561],[-3.595382,52.308581],[-3.595484,52.308563],[-3.595498,52.308506],[-3.595425,52.308409],[-3.595372,52.308308],[-3.595339,52.3082],[-3.595325,52.308087],[-3.595332,52.307969],[-3.595371,52.307873],[-3.595445,52.307799],[-3.595552,52.307747],[-3.595693,52.307718],[-3.595846,52.307674],[-3.59601,52.307616],[-3.596186,52.307543],[-3.596374,52.307456],[-3.596452,52.307362],[-3.59642,52.307261],[-3.596279,52.307153],[-3.596029,52.307038],[-3.595833,52.306923],[-3.59569,52.306809],[-3.595601,52.306695],[-3.595565,52.306582],[-3.595504,52.306487],[-3.595416,52.306412],[-3.595303,52.306357],[-3.595163,52.306321],[-3.595128,52.306279],[-3.595199,52.306231],[-3.595376,52.306178],[-3.595658,52.30612],[-3.595829,52.306031],[-3.595889,52.305913],[-3.595837,52.305765],[-3.595675,52.305588],[-3.59556,52.305424],[-3.595492,52.305275],[-3.595472,52.30514],[-3.595498,52.30502],[-3.595513,52.304877],[-3.595516,52.304713],[-3.595507,52.304528],[-3.595485,52.304321],[-3.59552,52.304173],[-3.59561,52.304084],[-3.595756,52.304054],[-3.595958,52.304083],[-3.596093,52.304084],[-3.596159,52.304057],[-3.596158,52.304001],[-3.596089,52.303918],[-3.595942,52.303824],[-3.595716,52.303719],[-3.595412,52.303604],[-3.59503,52.303478],[-3.594847,52.303355],[-3.594864,52.303235],[-3.59508,52.303119],[-3.595495,52.303005],[-3.59581,52.302881],[-3.596025,52.302745],[-3.59614,52.302597],[-3.596155,52.302438],[-3.596047,52.302314],[-3.595815,52.302223],[-3.595459,52.302166],[-3.59498,52.302143],[-3.594562,52.302145],[-3.594207,52.302173],[-3.593912,52.302227],[-3.593679,52.302306],[-3.593431,52.302352],[-3.593166,52.302363],[-3.592885,52.302339],[-3.592588,52.302282],[-3.592272,52.302247],[-3.591935,52.302233],[-3.591578,52.302242],[-3.591202,52.302273],[-3.590889,52.302266],[-3.590639,52.302223],[-3.590453,52.302143],[-3.590331,52.302027],[-3.590068,52.301992],[-3.589665,52.302038],[-3.58912,52.302167],[-3.588434,52.302377],[-3.587931,52.302569],[-3.58761,52.302744],[-3.587471,52.3029],[-3.587514,52.303039],[-3.587438,52.303192],[-3.587243,52.303358],[-3.586929,52.303538],[-3.586495,52.303732],[-3.586148,52.303874],[-3.585886,52.303963],[-3.58571,52.304],[-3.585619,52.303984],[-3.585365,52.303994],[-3.584946,52.304029],[-3.584365,52.30409],[-3.583619,52.304176],[-3.583044,52.304275],[-3.582639,52.304388],[-3.582404,52.304513],[-3.58234,52.304651],[-3.5822,52.304788],[-3.581985,52.304924],[-3.581694,52.305059],[-3.581328,52.305193],[-3.581032,52.305276],[-3.580806,52.305309],[-3.58065,52.305291],[-3.580565,52.305222],[-3.580446,52.305168],[-3.580294,52.305126],[-3.580108,52.305099],[-3.579889,52.305085],[-3.579645,52.30511],[-3.579375,52.305174],[-3.57908,52.305276],[-3.578759,52.305418],[-3.578468,52.305534],[-3.578206,52.305623],[-3.577973,52.305685],[-3.57777,52.305722],[-3.57745,52.305815],[-3.577013,52.305963],[-3.57646,52.306168],[-3.57579,52.306428],[-3.575264,52.306653],[-3.574883,52.30684],[-3.574645,52.306992],[-3.574552,52.307108],[-3.574515,52.30723],[-3.574534,52.307358],[-3.574608,52.307494],[-3.574738,52.307635],[-3.574784,52.307767],[-3.574747,52.30789],[-3.574626,52.308002],[-3.574422,52.308104],[-3.574212,52.308187],[-3.573995,52.308251],[-3.573773,52.308296],[-3.573546,52.308323],[-3.573356,52.308367],[-3.573204,52.308431],[-3.57309,52.308513],[-3.573014,52.308613],[-3.57291,52.308677],[-3.572779,52.308705],[-3.572621,52.308697],[-3.572436,52.308653],[-3.572208,52.308611],[-3.571938,52.30857],[-3.571626,52.308531],[-3.571271,52.308494],[-3.570945,52.308515],[-3.570648,52.308595],[-3.57038,52.308734],[-3.570141,52.308932],[-3.569975,52.30914],[-3.569882,52.30936],[-3.569863,52.309592],[-3.569916,52.309834],[-3.569988,52.310064],[-3.570077,52.310283],[-3.570184,52.31049],[-3.570309,52.310685],[-3.570448,52.310855],[-3.5706,52.311001],[-3.570767,52.311122],[-3.570947,52.311219],[-3.571132,52.311315],[-3.571323,52.311411],[-3.571519,52.311506],[-3.57172,52.311601],[-3.571921,52.311695],[-3.572122,52.31179],[-3.572323,52.311884],[-3.572524,52.311979],[-3.57273,52.312056],[-3.572942,52.312117],[-3.573159,52.312161],[-3.573382,52.312187],[-3.573558,52.312235],[-3.573687,52.312306],[-3.573769,52.312397],[-3.573805,52.312511],[-3.573859,52.3126],[-3.573932,52.312663],[-3.574025,52.312702],[-3.574136,52.312715],[-3.574225,52.31276],[-3.574292,52.312837],[-3.574337,52.312947],[-3.574359,52.313088],[-3.574447,52.313182],[-3.574602,52.31323],[-3.574822,52.313231],[-3.575108,52.313185],[-3.575349,52.313199],[-3.575544,52.313275],[-3.575693,52.313411],[-3.575797,52.313609],[-3.575937,52.31373],[-3.576112,52.313775],[-3.576322,52.313744],[-3.576568,52.313637],[-3.576806,52.313522],[-3.577035,52.313397],[-3.577257,52.313263],[-3.57747,52.313121],[-3.57767,52.313003],[-3.577855,52.31291],[-3.578027,52.312841],[-3.578185,52.312797],[-3.578276,52.312815],[-3.578302,52.312897],[-3.578261,52.313043],[-3.578154,52.313251],[-3.578087,52.313416],[-3.57806,52.313537],[-3.578074,52.313614],[-3.578127,52.313647],[-3.578225,52.313636],[-3.578369,52.31358],[-3.578558,52.313479],[-3.578792,52.313335],[-3.578976,52.313254],[-3.579111,52.313239],[-3.579196,52.313288],[-3.579231,52.313402],[-3.579326,52.313482],[-3.57948,52.31353],[-3.579694,52.313544],[-3.579967,52.313526],[-3.580136,52.313552],[-3.580201,52.313623],[-3.580162,52.313739],[-3.580018,52.313899],[-3.579823,52.31403],[-3.579575,52.31413],[-3.579275,52.314201],[-3.578923,52.314242],[-3.578605,52.314305],[-3.57832,52.31439],[-3.578069,52.314497],[-3.577852,52.314627],[-3.57768,52.314696],[-3.577554,52.314704],[-3.577473,52.314651],[-3.577438,52.314538],[-3.577404,52.314411],[-3.577371,52.314271],[-3.577339,52.314117],[-3.577309,52.313951],[-3.577256,52.313833],[-3.577181,52.313763],[-3.577083,52.313741],[-3.576963,52.313768],[-3.576864,52.313829],[-3.576786,52.313923],[-3.576729,52.31405],[-3.576693,52.314212],[-3.576605,52.31431],[-3.576466,52.314346],[-3.576275,52.314319],[-3.576033,52.314229],[-3.575825,52.314165],[-3.575652,52.314126],[-3.575514,52.314112],[-3.57541,52.314124],[-3.575326,52.31418],[-3.57526,52.314279],[-3.575213,52.314422],[-3.575185,52.314608],[-3.575195,52.31478],[-3.575244,52.314938],[-3.575332,52.315082],[-3.575458,52.315211],[-3.575627,52.315306],[-3.575839,52.315366],[-3.576094,52.315393],[-3.576392,52.315384],[-3.576713,52.315367],[-3.577059,52.31534],[-3.577429,52.315304],[-3.577822,52.315258],[-3.57817,52.315221],[-3.578473,52.315193],[-3.578729,52.315173],[-3.57894,52.315162],[-3.579124,52.315183],[-3.57928,52.315237],[-3.579409,52.315324],[-3.57951,52.315443],[-3.579513,52.315537],[-3.579417,52.315607],[-3.579222,52.315653],[-3.578928,52.315673],[-3.578714,52.315711],[-3.578581,52.315766],[-3.578528,52.315837],[-3.578555,52.315926],[-3.578674,52.315997],[-3.578884,52.316051],[-3.579185,52.316088],[-3.579578,52.316109],[-3.579815,52.31613],[-3.579897,52.316153],[-3.579825,52.316178],[-3.579597,52.316204],[-3.579308,52.316225],[-3.578958,52.316239],[-3.578548,52.316247],[-3.578076,52.316249],[-3.577673,52.316263],[-3.577338,52.316289],[-3.57707,52.316326],[-3.576871,52.316375],[-3.576696,52.316435],[-3.576546,52.316505],[-3.576421,52.316584],[-3.57632,52.316675],[-3.576228,52.316777],[-3.576146,52.316891],[-3.576072,52.317017],[-3.576008,52.317155],[-3.575952,52.317286],[-3.575904,52.317409],[-3.575865,52.317525],[-3.575834,52.317633],[-3.575821,52.317746],[-3.575825,52.317863],[-3.575847,52.317985],[-3.575886,52.318111],[-3.576037,52.318218],[-3.5763,52.318305],[-3.576676,52.318373],[-3.577163,52.318422],[-3.577435,52.318469],[-3.577492,52.318514],[-3.577334,52.318559],[-3.576961,52.318602],[-3.576635,52.318639],[-3.576355,52.318672],[-3.576122,52.318699],[-3.575936,52.31872],[-3.575724,52.318696],[-3.575487,52.318625],[-3.575226,52.318508],[-3.574939,52.318345],[-3.574711,52.31825],[-3.574542,52.318224],[-3.574432,52.318266],[-3.57438,52.318377],[-3.574296,52.318452],[-3.57418,52.318491],[-3.574031,52.318495],[-3.57385,52.318464],[-3.57371,52.318395],[-3.573613,52.318289],[-3.573557,52.318145],[-3.573544,52.317963],[-3.573486,52.317813],[-3.573385,52.317694],[-3.57324,52.317606],[-3.573051,52.317549],[-3.572892,52.317489],[-3.572765,52.317425],[-3.572669,52.317358],[-3.572604,52.317287],[-3.572466,52.31729],[-3.572254,52.317367],[-3.571968,52.317517],[-3.571608,52.317742],[-3.571332,52.317957],[-3.571138,52.318162],[-3.571027,52.318358],[-3.570999,52.318545],[-3.571017,52.31869],[-3.571081,52.318794],[-3.571192,52.318856],[-3.571349,52.318877],[-3.571498,52.318925],[-3.571639,52.319001],[-3.571773,52.319103],[-3.571899,52.319232],[-3.572087,52.319407],[-3.572338,52.319626],[-3.572651,52.319891],[-3.573026,52.320201],[-3.573395,52.320456],[-3.573757,52.320656],[-3.574114,52.320801],[-3.574464,52.320892],[-3.574761,52.321053],[-3.575005,52.321287],[-3.575196,52.321592],[-3.575334,52.321968],[-3.575502,52.32225],[-3.5757,52.322436],[-3.575926,52.322528],[-3.576183,52.322524],[-3.576366,52.322493],[-3.576477,52.322435],[-3.576515,52.322349],[-3.576479,52.322235],[-3.576499,52.322141],[-3.576572,52.322067],[-3.5767,52.322013],[-3.576883,52.321979],[-3.577014,52.321918],[-3.577094,52.32183],[-3.577123,52.321716],[-3.577101,52.321575],[-3.577096,52.321438],[-3.577108,52.321306],[-3.577138,52.321178],[-3.577186,52.321055],[-3.577244,52.320947],[-3.577311,52.320854],[-3.577389,52.320776],[-3.577477,52.320714],[-3.577552,52.320643],[-3.577613,52.320564],[-3.577661,52.320476],[-3.577696,52.320381],[-3.577722,52.320276],[-3.577741,52.320163],[-3.577751,52.320041],[-3.577754,52.31991],[-3.577747,52.319786],[-3.577733,52.31967],[-3.57771,52.319562],[-3.577678,52.319461],[-3.577719,52.3194],[-3.577831,52.319381],[-3.578014,52.319402],[-3.57827,52.319464],[-3.578555,52.319572],[-3.578871,52.319725],[-3.579217,52.319924],[-3.579594,52.320168],[-3.579911,52.32038],[-3.580171,52.320559],[-3.580372,52.320706],[-3.580515,52.32082],[-3.580687,52.320941],[-3.580887,52.321069],[-3.581116,52.321202],[-3.581375,52.321342],[-3.581515,52.321447],[-3.581536,52.321517],[-3.581439,52.321551],[-3.581224,52.32155],[-3.581071,52.321574],[-3.580979,52.321624],[-3.580949,52.321699],[-3.58098,52.3218],[-3.581083,52.321906],[-3.581257,52.322017],[-3.581502,52.322132],[-3.581818,52.322253],[-3.582075,52.322301],[-3.582272,52.322279],[-3.582409,52.322184],[-3.582486,52.322019],[-3.582577,52.321933],[-3.582683,52.321927],[-3.582803,52.322002],[-3.582937,52.322156],[-3.58311,52.322336],[-3.583324,52.32254],[-3.583578,52.322769],[-3.583871,52.323023],[-3.584176,52.323262],[-3.584493,52.323487],[-3.584821,52.323698],[-3.585161,52.323894],[-3.585416,52.324093],[-3.585587,52.324296],[-3.585672,52.324502],[-3.585673,52.324711],[-3.585648,52.324927],[-3.585599,52.325148],[-3.585525,52.325376],[-3.585426,52.32561],[-3.585411,52.325785],[-3.585479,52.325901],[-3.585631,52.325959],[-3.585867,52.325958],[-3.586042,52.326003],[-3.586156,52.326094],[-3.58621,52.326232],[-3.586202,52.326416],[-3.586304,52.326604],[-3.586514,52.326795],[-3.586832,52.326991],[-3.587259,52.32719],[-3.587603,52.327451],[-3.587864,52.327774],[-3.588043,52.328159],[-3.588139,52.328606],[-3.588234,52.328948],[-3.58833,52.329185],[-3.588425,52.329318],[-3.588519,52.329346],[-3.588666,52.329316],[-3.588863,52.329228],[-3.589113,52.329082],[-3.589414,52.328877],[-3.589787,52.328765],[-3.590232,52.328746],[-3.590749,52.32882],[-3.591338,52.328988],[-3.591903,52.329184],[-3.592446,52.329409],[-3.592965,52.329663],[-3.59346,52.329946],[-3.593974,52.330112],[-3.594504,52.330162],[-3.595053,52.330095]]]}}