{"type":"Feature","properties":{"id":"263190","COMMUNE":"Ceredigion","PROVINCE":"South West Wales","COUNTRY":"UK","FIREDATE":"2025-03-24 11:51:00","FINALDATE":"2025-03-24 14:20:00","CLASS":"FireSeason","areaHA_geo":22.972},"geometry":{"type":"Polygon","coordinates":[[[-3.7739,52.342561],[-3.773806,52.342417],[-3.773699,52.342308],[-3.77358,52.342236],[-3.773448,52.3422],[-3.773303,52.3422],[-3.773226,52.342182],[-3.773218,52.342145],[-3.773278,52.34209],[-3.773407,52.342016],[-3.773533,52.341951],[-3.773656,52.341894],[-3.773778,52.341846],[-3.773896,52.341807],[-3.77403,52.341739],[-3.774179,52.341642],[-3.774342,52.341515],[-3.774521,52.34136],[-3.774622,52.341243],[-3.774646,52.341165],[-3.774592,52.341125],[-3.77446,52.341123],[-3.774351,52.341132],[-3.774264,52.341151],[-3.774199,52.341179],[-3.774156,52.341218],[-3.774101,52.341257],[-3.774034,52.341296],[-3.773955,52.341336],[-3.773864,52.341376],[-3.773774,52.341397],[-3.773685,52.341399],[-3.773597,52.341382],[-3.773509,52.341346],[-3.773436,52.3413],[-3.773377,52.341244],[-3.773332,52.341178],[-3.773301,52.341102],[-3.773268,52.341014],[-3.773234,52.340915],[-3.773197,52.340805],[-3.773159,52.340683],[-3.773101,52.34061],[-3.773025,52.340586],[-3.772929,52.340609],[-3.772814,52.340682],[-3.772697,52.340705],[-3.772578,52.340679],[-3.772458,52.340604],[-3.772336,52.340479],[-3.772244,52.340373],[-3.772182,52.340286],[-3.77215,52.340217],[-3.772148,52.340167],[-3.772193,52.340135],[-3.772284,52.34012],[-3.772423,52.340122],[-3.772609,52.340143],[-3.772785,52.340166],[-3.772953,52.340193],[-3.77311,52.340223],[-3.773259,52.340256],[-3.773391,52.34028],[-3.773506,52.340296],[-3.773605,52.340303],[-3.773687,52.340302],[-3.773779,52.340313],[-3.77388,52.340337],[-3.773989,52.340374],[-3.774108,52.340423],[-3.774206,52.340466],[-3.774284,52.340503],[-3.77434,52.340534],[-3.774376,52.34056],[-3.774438,52.340577],[-3.774527,52.340585],[-3.774642,52.340585],[-3.774785,52.340577],[-3.77491,52.340598],[-3.775019,52.340648],[-3.775112,52.340728],[-3.775187,52.340836],[-3.775342,52.340988],[-3.775576,52.341184],[-3.77589,52.341422],[-3.776282,52.341704],[-3.776604,52.341888],[-3.776855,52.341974],[-3.777036,52.341962],[-3.777147,52.341853],[-3.777271,52.341755],[-3.77741,52.34167],[-3.777562,52.341596],[-3.777729,52.341535],[-3.777874,52.341489],[-3.777996,52.34146],[-3.778095,52.341448],[-3.778172,52.341451],[-3.778205,52.341473],[-3.778193,52.341512],[-3.778137,52.341569],[-3.778036,52.341644],[-3.777936,52.341709],[-3.777836,52.341765],[-3.777737,52.341811],[-3.777638,52.341848],[-3.777556,52.341904],[-3.77749,52.341979],[-3.77744,52.342073],[-3.777407,52.342186],[-3.777452,52.342296],[-3.777576,52.342404],[-3.777778,52.342508],[-3.778058,52.34261],[-3.778304,52.342661],[-3.778514,52.342661],[-3.77869,52.342611],[-3.778831,52.342511],[-3.77901,52.342479],[-3.779229,52.342517],[-3.779487,52.342623],[-3.779784,52.342798],[-3.780033,52.34295],[-3.780236,52.343077],[-3.780391,52.343181],[-3.780499,52.343261],[-3.780587,52.34332],[-3.780654,52.343358],[-3.780701,52.343376],[-3.780727,52.343373],[-3.780762,52.343377],[-3.780803,52.343389],[-3.780853,52.343408],[-3.780909,52.343435],[-3.78097,52.343446],[-3.781034,52.343441],[-3.781101,52.343419],[-3.781172,52.343381],[-3.781215,52.343331],[-3.781229,52.343269],[-3.781216,52.343193],[-3.781175,52.343106],[-3.781187,52.343025],[-3.781253,52.34295],[-3.781373,52.342881],[-3.781546,52.342819],[-3.781662,52.342748],[-3.78172,52.34267],[-3.78172,52.342584],[-3.781663,52.34249],[-3.781594,52.342412],[-3.781512,52.34235],[-3.781418,52.342304],[-3.781312,52.342274],[-3.781236,52.34224],[-3.781189,52.342202],[-3.781172,52.342158],[-3.781185,52.342111],[-3.781173,52.342061],[-3.781135,52.342008],[-3.781073,52.341954],[-3.780986,52.341897],[-3.78088,52.34186],[-3.780754,52.341843],[-3.780608,52.341846],[-3.780443,52.34187],[-3.780319,52.341881],[-3.780236,52.341881],[-3.780194,52.341868],[-3.780193,52.341843],[-3.780224,52.341805],[-3.780288,52.341756],[-3.780384,52.341694],[-3.780513,52.34162],[-3.780585,52.34152],[-3.7806,52.341395],[-3.780559,52.341243],[-3.780462,52.341065],[-3.780368,52.340909],[-3.780277,52.340775],[-3.78019,52.340662],[-3.780106,52.340571],[-3.77997,52.340546],[-3.779783,52.340587],[-3.779544,52.340694],[-3.779254,52.340866],[-3.779006,52.340985],[-3.778802,52.341048],[-3.778641,52.341058],[-3.778524,52.341013],[-3.778495,52.340949],[-3.778555,52.340866],[-3.778704,52.340765],[-3.778942,52.340644],[-3.779139,52.340552],[-3.779295,52.340487],[-3.779409,52.340451],[-3.779482,52.340442],[-3.779588,52.340411],[-3.779726,52.340357],[-3.779897,52.34028],[-3.7801,52.340181],[-3.780261,52.340084],[-3.78038,52.33999],[-3.780456,52.3399],[-3.78049,52.339811],[-3.78056,52.339714],[-3.780664,52.339607],[-3.780803,52.339491],[-3.780978,52.339366],[-3.781112,52.33924],[-3.781207,52.339113],[-3.781261,52.338986],[-3.781276,52.338858],[-3.781254,52.338726],[-3.781194,52.33859],[-3.781096,52.33845],[-3.780961,52.338306],[-3.780824,52.338183],[-3.780684,52.338079],[-3.780542,52.337996],[-3.780398,52.337933],[-3.780197,52.337885],[-3.779938,52.337853],[-3.779622,52.337835],[-3.779249,52.337833],[-3.778948,52.337836],[-3.77872,52.337846],[-3.778565,52.337862],[-3.778482,52.337885],[-3.7784,52.337893],[-3.778319,52.337888],[-3.778239,52.337869],[-3.77816,52.337836],[-3.777963,52.337829],[-3.777648,52.337847],[-3.777215,52.33789],[-3.776664,52.337959],[-3.776238,52.33802],[-3.775937,52.338072],[-3.775761,52.338115],[-3.77571,52.338151],[-3.77566,52.338202],[-3.775612,52.338268],[-3.775566,52.33835],[-3.775521,52.338448],[-3.775454,52.338542],[-3.775365,52.338632],[-3.775254,52.338719],[-3.775122,52.338802],[-3.775032,52.338879],[-3.774986,52.338952],[-3.774984,52.33902],[-3.775024,52.339082],[-3.775074,52.339132],[-3.775134,52.339169],[-3.775204,52.339193],[-3.775284,52.339205],[-3.775346,52.339238],[-3.77539,52.339291],[-3.775417,52.339366],[-3.775426,52.339462],[-3.775404,52.339538],[-3.775349,52.339595],[-3.775263,52.339632],[-3.775144,52.33965],[-3.775039,52.339667],[-3.774947,52.339682],[-3.774869,52.339695],[-3.774804,52.339707],[-3.774751,52.339705],[-3.774711,52.339688],[-3.774685,52.339658],[-3.774671,52.339613],[-3.774622,52.339591],[-3.77454,52.339593],[-3.774423,52.339617],[-3.774273,52.339664],[-3.77414,52.339714],[-3.774026,52.339767],[-3.77393,52.339824],[-3.773852,52.339883],[-3.773777,52.339919],[-3.773704,52.339929],[-3.773634,52.339915],[-3.773567,52.339877],[-3.773535,52.339823],[-3.773537,52.339753],[-3.773574,52.339668],[-3.773645,52.339567],[-3.773708,52.339471],[-3.773762,52.339378],[-3.773806,52.33929],[-3.773842,52.339206],[-3.77388,52.339146],[-3.77392,52.33911],[-3.773963,52.339097],[-3.774008,52.339109],[-3.774058,52.339125],[-3.774113,52.339146],[-3.774173,52.339171],[-3.774237,52.339202],[-3.774302,52.33922],[-3.774366,52.339228],[-3.77443,52.339223],[-3.774494,52.339207],[-3.774521,52.339177],[-3.77451,52.339132],[-3.774462,52.339072],[-3.774377,52.338998],[-3.774257,52.338938],[-3.774105,52.33889],[-3.773918,52.338857],[-3.773698,52.338836],[-3.773529,52.338837],[-3.773412,52.338859],[-3.773346,52.338903],[-3.773332,52.338967],[-3.77328,52.339027],[-3.77319,52.339082],[-3.773063,52.339131],[-3.772898,52.339176],[-3.772783,52.339232],[-3.772718,52.339301],[-3.772704,52.339381],[-3.77274,52.339474],[-3.772725,52.339541],[-3.772658,52.339582],[-3.772541,52.339598],[-3.772372,52.339588],[-3.772192,52.339591],[-3.772,52.339605],[-3.771796,52.339631],[-3.77158,52.339668],[-3.771418,52.339739],[-3.771309,52.339842],[-3.771253,52.339978],[-3.771251,52.340146],[-3.771238,52.340292],[-3.771215,52.340414],[-3.771181,52.340514],[-3.771136,52.34059],[-3.771169,52.340661],[-3.771279,52.340726],[-3.771466,52.340785],[-3.771731,52.340838],[-3.771923,52.340926],[-3.772041,52.341049],[-3.772085,52.341206],[-3.772056,52.341399],[-3.772075,52.341533],[-3.77214,52.34161],[-3.772253,52.341628],[-3.772413,52.341588],[-3.772526,52.341584],[-3.772591,52.341617],[-3.772609,52.341685],[-3.77258,52.341789],[-3.772576,52.341894],[-3.772599,52.341998],[-3.772648,52.342103],[-3.772722,52.342207],[-3.772801,52.342299],[-3.772884,52.342378],[-3.772972,52.342443],[-3.773065,52.342495],[-3.773186,52.342547],[-3.773337,52.342599],[-3.773517,52.34265],[-3.773726,52.342701],[-3.77386,52.342703],[-3.773918,52.342657],[-3.7739,52.342561]]]}}