{"type":"Feature","properties":{"id":"263193","COMMUNE":"Powys","PROVINCE":"Powys","COUNTRY":"UK","FIREDATE":"2025-03-19 13:25:00","CLASS":"FireSeason","areaHA_geo":53.918},"geometry":{"type":"Polygon","coordinates":[[[-3.501858,52.278591],[-3.501949,52.278587],[-3.502074,52.278639],[-3.502219,52.278748],[-3.502385,52.278914],[-3.502571,52.279137],[-3.502672,52.279321],[-3.502688,52.279466],[-3.502618,52.279573],[-3.502462,52.279641],[-3.502331,52.279713],[-3.502226,52.27979],[-3.502145,52.279871],[-3.502089,52.279957],[-3.501979,52.280041],[-3.501817,52.280124],[-3.501601,52.280207],[-3.501332,52.280288],[-3.501101,52.280361],[-3.500909,52.280426],[-3.500756,52.280483],[-3.500642,52.280532],[-3.500562,52.280606],[-3.500516,52.280705],[-3.500504,52.280828],[-3.500526,52.280977],[-3.500589,52.281086],[-3.500693,52.281157],[-3.500838,52.281188],[-3.501024,52.281181],[-3.501214,52.281158],[-3.501408,52.281117],[-3.501605,52.281061],[-3.501806,52.280987],[-3.502005,52.280887],[-3.502201,52.280761],[-3.502395,52.280607],[-3.502587,52.280427],[-3.502756,52.280298],[-3.502903,52.28022],[-3.503027,52.280194],[-3.503128,52.280218],[-3.50322,52.28022],[-3.503302,52.2802],[-3.503374,52.280157],[-3.503437,52.280093],[-3.503508,52.280038],[-3.503589,52.279993],[-3.503678,52.279957],[-3.503776,52.279932],[-3.503914,52.279921],[-3.504092,52.279926],[-3.50431,52.279946],[-3.504568,52.279981],[-3.504736,52.280031],[-3.504815,52.280097],[-3.504805,52.280179],[-3.504706,52.280277],[-3.504549,52.280369],[-3.504334,52.280454],[-3.504062,52.280534],[-3.503731,52.280608],[-3.503471,52.28069],[-3.503281,52.28078],[-3.503161,52.280878],[-3.503112,52.280984],[-3.503051,52.281092],[-3.502978,52.281201],[-3.502895,52.281311],[-3.502799,52.281422],[-3.502784,52.281507],[-3.502849,52.281564],[-3.502994,52.281594],[-3.503218,52.281597],[-3.503439,52.281568],[-3.503655,52.281507],[-3.503868,52.281414],[-3.504077,52.28129],[-3.504327,52.281177],[-3.50462,52.281075],[-3.504954,52.280985],[-3.505329,52.280905],[-3.505681,52.280804],[-3.506007,52.28068],[-3.50631,52.280534],[-3.506587,52.280366],[-3.506833,52.280257],[-3.507047,52.280207],[-3.50723,52.280217],[-3.50738,52.280285],[-3.507521,52.280321],[-3.507651,52.280324],[-3.507771,52.280294],[-3.507881,52.280231],[-3.507998,52.280198],[-3.50812,52.280195],[-3.508249,52.280221],[-3.508384,52.280278],[-3.50852,52.280298],[-3.508656,52.280282],[-3.508793,52.280231],[-3.508931,52.280143],[-3.509,52.28007],[-3.509,52.280013],[-3.508931,52.279971],[-3.508793,52.279943],[-3.508682,52.279908],[-3.508598,52.279864],[-3.50854,52.279811],[-3.50851,52.27975],[-3.508503,52.279681],[-3.50852,52.279603],[-3.508562,52.279518],[-3.508627,52.279424],[-3.508703,52.279347],[-3.508791,52.279287],[-3.508889,52.279243],[-3.508998,52.279216],[-3.509105,52.279199],[-3.509208,52.27919],[-3.509308,52.279191],[-3.509406,52.279202],[-3.509496,52.279198],[-3.509579,52.279182],[-3.509655,52.279151],[-3.509724,52.279108],[-3.509739,52.279022],[-3.509699,52.278893],[-3.509605,52.278723],[-3.509457,52.27851],[-3.509311,52.278369],[-3.509166,52.278299],[-3.509022,52.278302],[-3.50888,52.278375],[-3.508738,52.27842],[-3.508596,52.278437],[-3.508454,52.278424],[-3.508312,52.278383],[-3.508175,52.278349],[-3.508043,52.278321],[-3.507915,52.2783],[-3.507793,52.278285],[-3.507679,52.278239],[-3.507573,52.278161],[-3.507474,52.278052],[-3.507384,52.277912],[-3.507359,52.277811],[-3.507398,52.277749],[-3.507503,52.277726],[-3.507673,52.277742],[-3.507791,52.277734],[-3.507857,52.277701],[-3.507872,52.277644],[-3.507835,52.277562],[-3.507763,52.27749],[-3.507655,52.277427],[-3.507512,52.277373],[-3.507334,52.277329],[-3.507196,52.277284],[-3.507099,52.277237],[-3.507044,52.27719],[-3.507029,52.277141],[-3.506958,52.277105],[-3.506833,52.27708],[-3.506652,52.277066],[-3.506416,52.277065],[-3.506269,52.277035],[-3.50621,52.276977],[-3.506239,52.276891],[-3.506357,52.276777],[-3.506447,52.276668],[-3.506509,52.276564],[-3.506543,52.276465],[-3.50655,52.276371],[-3.506523,52.276273],[-3.506462,52.276173],[-3.506368,52.276068],[-3.506241,52.275961],[-3.506112,52.275847],[-3.50598,52.275725],[-3.505846,52.275597],[-3.50571,52.275462],[-3.505593,52.275328],[-3.505493,52.275196],[-3.505412,52.275066],[-3.505348,52.274936],[-3.505294,52.274808],[-3.505249,52.27468],[-3.505213,52.274553],[-3.505186,52.274427],[-3.505145,52.274296],[-3.505091,52.274158],[-3.505023,52.274015],[-3.504942,52.273867],[-3.504885,52.273739],[-3.504852,52.273631],[-3.504843,52.273544],[-3.504858,52.273478],[-3.504846,52.273289],[-3.504809,52.272977],[-3.504746,52.272543],[-3.504656,52.271986],[-3.504557,52.27154],[-3.504448,52.271204],[-3.504328,52.270979],[-3.504199,52.270864],[-3.504059,52.270696],[-3.503908,52.270473],[-3.503746,52.270195],[-3.503573,52.269863],[-3.503418,52.269608],[-3.50328,52.26943],[-3.503161,52.269329],[-3.503059,52.269305],[-3.502962,52.269265],[-3.502869,52.269212],[-3.50278,52.269143],[-3.502695,52.269059],[-3.502591,52.269016],[-3.502466,52.269012],[-3.502321,52.269048],[-3.502157,52.269125],[-3.501986,52.269229],[-3.501809,52.26936],[-3.501625,52.26952],[-3.501436,52.269707],[-3.501241,52.269874],[-3.501039,52.270023],[-3.500832,52.270153],[-3.500619,52.270264],[-3.500434,52.27038],[-3.500278,52.270502],[-3.50015,52.27063],[-3.50005,52.270763],[-3.499944,52.270899],[-3.499834,52.271038],[-3.499719,52.271179],[-3.499598,52.271322],[-3.499507,52.271399],[-3.499445,52.271409],[-3.499414,52.271354],[-3.499411,52.271232],[-3.499371,52.271138],[-3.499291,52.271071],[-3.499174,52.271033],[-3.499017,52.271022],[-3.498883,52.271043],[-3.498769,52.271096],[-3.498678,52.27118],[-3.498607,52.271295],[-3.498529,52.271412],[-3.498441,52.27153],[-3.498345,52.271649],[-3.498241,52.271768],[-3.498164,52.27188],[-3.498113,52.271982],[-3.498089,52.272077],[-3.498092,52.272162],[-3.498117,52.272224],[-3.498164,52.272262],[-3.498233,52.272276],[-3.498324,52.272265],[-3.498365,52.272276],[-3.498358,52.27231],[-3.498301,52.272365],[-3.498196,52.272441],[-3.498118,52.272533],[-3.498068,52.272639],[-3.498047,52.27276],[-3.498053,52.272896],[-3.498079,52.273009],[-3.498125,52.273101],[-3.498191,52.273171],[-3.498276,52.273218],[-3.498398,52.273289],[-3.498556,52.273382],[-3.49875,52.273498],[-3.498981,52.273636],[-3.499126,52.273744],[-3.499185,52.273819],[-3.499157,52.273864],[-3.499044,52.273877],[-3.498907,52.27392],[-3.498747,52.273992],[-3.498563,52.274094],[-3.498357,52.274225],[-3.498183,52.274349],[-3.498043,52.274466],[-3.497935,52.274575],[-3.497861,52.274677],[-3.497814,52.274774],[-3.497795,52.274866],[-3.497804,52.274953],[-3.497841,52.275035],[-3.497894,52.275109],[-3.497962,52.275177],[-3.498045,52.275237],[-3.498144,52.275291],[-3.498186,52.275341],[-3.498171,52.27539],[-3.4981,52.275436],[-3.497972,52.275479],[-3.49787,52.275548],[-3.497794,52.275643],[-3.497742,52.275764],[-3.497717,52.275911],[-3.497697,52.276028],[-3.497683,52.276115],[-3.497675,52.276174],[-3.497672,52.276203],[-3.497637,52.276243],[-3.49757,52.276294],[-3.497472,52.276355],[-3.497341,52.276428],[-3.497271,52.276507],[-3.497263,52.276595],[-3.497316,52.276689],[-3.497429,52.276791],[-3.49753,52.276851],[-3.497618,52.27687],[-3.497694,52.276847],[-3.497756,52.276782],[-3.497826,52.276733],[-3.497904,52.276699],[-3.497989,52.27668],[-3.498082,52.276676],[-3.498145,52.276649],[-3.498176,52.276599],[-3.498177,52.276525],[-3.498147,52.276428],[-3.498186,52.276363],[-3.498293,52.276329],[-3.498469,52.276327],[-3.498713,52.276356],[-3.498918,52.276361],[-3.499083,52.276342],[-3.499208,52.276299],[-3.499293,52.276232],[-3.499359,52.27616],[-3.499406,52.276083],[-3.499433,52.276],[-3.499442,52.275913],[-3.499475,52.275849],[-3.499532,52.275806],[-3.499614,52.275786],[-3.499721,52.275788],[-3.499839,52.27578],[-3.499969,52.275761],[-3.50011,52.275732],[-3.500263,52.275693],[-3.50034,52.275695],[-3.500341,52.275738],[-3.500267,52.275822],[-3.500117,52.275947],[-3.500012,52.276074],[-3.499952,52.276203],[-3.499936,52.276334],[-3.499966,52.276467],[-3.500013,52.276575],[-3.50008,52.276657],[-3.500165,52.276713],[-3.500269,52.276745],[-3.50033,52.27679],[-3.500348,52.276849],[-3.500323,52.276921],[-3.500256,52.277008],[-3.500219,52.27709],[-3.500213,52.277166],[-3.500238,52.277236],[-3.500293,52.277302],[-3.500377,52.277362],[-3.500488,52.277418],[-3.500627,52.277468],[-3.500794,52.277514],[-3.500911,52.277567],[-3.500976,52.277627],[-3.500991,52.277695],[-3.500958,52.277767],[-3.501014,52.277786],[-3.501628,52.277945],[-3.501838,52.278323],[-3.501858,52.278591]]]}}