{"type":"Feature","properties":{"id":"263234","COMMUNE":"Conwy","PROVINCE":"Conwy and Denbighshire","COUNTRY":"UK","FIREDATE":"2025-03-18 12:04:00","CLASS":"FireSeason","areaHA_geo":7.252},"geometry":{"type":"Polygon","coordinates":[[[-3.887731,53.248985],[-3.887733,53.248932],[-3.8878,53.248907],[-3.887933,53.248909],[-3.888131,53.248938],[-3.888395,53.248995],[-3.888646,53.24903],[-3.888885,53.249044],[-3.889113,53.249035],[-3.889328,53.249004],[-3.88952,53.248964],[-3.88969,53.248915],[-3.889838,53.248857],[-3.889962,53.24879],[-3.890075,53.248739],[-3.890176,53.248704],[-3.890266,53.248685],[-3.890343,53.248682],[-3.890423,53.248643],[-3.890507,53.248569],[-3.890593,53.24846],[-3.890683,53.248315],[-3.890746,53.248194],[-3.890782,53.248096],[-3.890792,53.248022],[-3.890776,53.247971],[-3.890793,53.247949],[-3.890844,53.247955],[-3.890928,53.247989],[-3.891047,53.248051],[-3.891179,53.24809],[-3.891326,53.248105],[-3.891487,53.248096],[-3.891663,53.248064],[-3.891803,53.248013],[-3.891907,53.247942],[-3.891975,53.247853],[-3.892008,53.247744],[-3.891997,53.247619],[-3.891941,53.24748],[-3.891841,53.247325],[-3.891698,53.247155],[-3.891526,53.247029],[-3.891328,53.246946],[-3.891103,53.246908],[-3.89085,53.246914],[-3.890648,53.246887],[-3.890496,53.246826],[-3.890394,53.246731],[-3.890342,53.246603],[-3.89025,53.246495],[-3.890119,53.246408],[-3.889948,53.246342],[-3.889737,53.246296],[-3.889545,53.246283],[-3.88937,53.246304],[-3.889214,53.246357],[-3.889076,53.246443],[-3.888912,53.246526],[-3.888723,53.246607],[-3.888509,53.246684],[-3.888269,53.246759],[-3.88806,53.2468],[-3.887882,53.246809],[-3.887734,53.246786],[-3.887618,53.246729],[-3.887483,53.246683],[-3.88733,53.246649],[-3.887158,53.246625],[-3.886968,53.246612],[-3.886812,53.246624],[-3.886693,53.246661],[-3.886608,53.246724],[-3.886558,53.246811],[-3.88657,53.246892],[-3.886643,53.246965],[-3.886777,53.247031],[-3.886973,53.24709],[-3.887142,53.247152],[-3.887286,53.247217],[-3.887404,53.247285],[-3.887495,53.247357],[-3.887587,53.247435],[-3.887679,53.247521],[-3.887771,53.247614],[-3.887862,53.247714],[-3.887881,53.247779],[-3.887827,53.247809],[-3.887701,53.247803],[-3.887501,53.247762],[-3.88732,53.247726],[-3.887159,53.247695],[-3.887016,53.247669],[-3.886891,53.247649],[-3.886779,53.247635],[-3.886679,53.247629],[-3.886592,53.247631],[-3.886516,53.24764],[-3.88647,53.247664],[-3.886454,53.247704],[-3.886467,53.247759],[-3.88651,53.24783],[-3.886565,53.247907],[-3.886631,53.24799],[-3.886709,53.248079],[-3.886799,53.248173],[-3.886877,53.248262],[-3.886943,53.248345],[-3.886998,53.248422],[-3.887041,53.248493],[-3.887087,53.248552],[-3.887136,53.248598],[-3.887189,53.248633],[-3.887246,53.248656],[-3.887313,53.248696],[-3.887391,53.248754],[-3.887479,53.24883],[-3.887578,53.248924],[-3.887653,53.248981],[-3.887704,53.249001],[-3.887731,53.248985]]]}}