{"type":"Feature","properties":{"id":"263236","COMMUNE":"Conwy","PROVINCE":"Conwy and Denbighshire","COUNTRY":"UK","FIREDATE":"2025-03-18 12:04:00","FINALDATE":"2025-03-18 14:10:00","CLASS":"FireSeason","areaHA_geo":6.769},"geometry":{"type":"Polygon","coordinates":[[[-3.893982,53.253912],[-3.894052,53.253976],[-3.894188,53.254004],[-3.894391,53.253996],[-3.894661,53.253953],[-3.894913,53.253944],[-3.895146,53.25397],[-3.895362,53.25403],[-3.895559,53.254123],[-3.895741,53.254193],[-3.895907,53.254238],[-3.896058,53.254258],[-3.896194,53.254254],[-3.896297,53.254225],[-3.896367,53.25417],[-3.896405,53.254089],[-3.896409,53.253984],[-3.896429,53.253903],[-3.896464,53.253846],[-3.896515,53.253814],[-3.896581,53.253806],[-3.896615,53.253783],[-3.896617,53.253745],[-3.896587,53.253692],[-3.896526,53.253623],[-3.896401,53.253563],[-3.896213,53.253512],[-3.895961,53.253469],[-3.895647,53.253436],[-3.895434,53.25339],[-3.895322,53.253333],[-3.895311,53.253264],[-3.895403,53.253184],[-3.895539,53.253146],[-3.895722,53.253151],[-3.895951,53.253199],[-3.896225,53.25329],[-3.896471,53.253375],[-3.896688,53.253455],[-3.896877,53.253529],[-3.897037,53.253598],[-3.89717,53.25364],[-3.897277,53.253654],[-3.897359,53.25364],[-3.897413,53.253598],[-3.8974,53.253536],[-3.897319,53.253452],[-3.897169,53.253346],[-3.896952,53.25322],[-3.896744,53.253095],[-3.896547,53.252972],[-3.89636,53.252851],[-3.896184,53.252731],[-3.89602,53.252595],[-3.895867,53.252444],[-3.895726,53.252276],[-3.895598,53.252092],[-3.895531,53.251963],[-3.895526,53.251888],[-3.895582,53.251866],[-3.895701,53.251899],[-3.895796,53.251913],[-3.895868,53.251908],[-3.895916,53.251883],[-3.895941,53.251839],[-3.895952,53.251778],[-3.895951,53.251699],[-3.895937,53.251603],[-3.895909,53.25149],[-3.895927,53.251403],[-3.895991,53.251343],[-3.8961,53.25131],[-3.896254,53.251304],[-3.896342,53.25128],[-3.896363,53.25124],[-3.896317,53.251182],[-3.896205,53.251108],[-3.896072,53.251039],[-3.895919,53.250975],[-3.895745,53.250916],[-3.895552,53.250862],[-3.895286,53.250842],[-3.894947,53.250855],[-3.894536,53.250902],[-3.894053,53.250981],[-3.893691,53.251079],[-3.89345,53.251194],[-3.89333,53.251328],[-3.893331,53.25148],[-3.893299,53.251597],[-3.893233,53.251681],[-3.893134,53.25173],[-3.893002,53.251746],[-3.892927,53.251786],[-3.89291,53.251853],[-3.89295,53.251944],[-3.893047,53.252062],[-3.893093,53.252142],[-3.893088,53.252187],[-3.893032,53.252195],[-3.892925,53.252166],[-3.892822,53.252158],[-3.892722,53.252169],[-3.892628,53.252201],[-3.892537,53.252252],[-3.892472,53.252309],[-3.892434,53.252372],[-3.892422,53.252441],[-3.892437,53.252515],[-3.89247,53.2526],[-3.892521,53.252696],[-3.89259,53.252804],[-3.892678,53.252922],[-3.892806,53.253014],[-3.892974,53.253079],[-3.893183,53.253118],[-3.893431,53.25313],[-3.89363,53.253146],[-3.893779,53.253167],[-3.893878,53.253192],[-3.893926,53.253221],[-3.893955,53.253254],[-3.893962,53.253291],[-3.893948,53.253332],[-3.893914,53.253377],[-3.893895,53.253425],[-3.893892,53.253475],[-3.893905,53.253527],[-3.893932,53.253582],[-3.893954,53.253648],[-3.89397,53.253725],[-3.893979,53.253813],[-3.893982,53.253912]]]}}