{"type":"Feature","properties":{"id":"263206","COMMUNE":"Ceredigion","PROVINCE":"South West Wales","COUNTRY":"UK","FIREDATE":"2025-03-16 12:42:00","FINALDATE":"2025-03-16 12:42:00","CLASS":"FireSeason","areaHA_geo":4.768},"geometry":{"type":"Polygon","coordinates":[[[-3.78404,52.434549],[-3.784125,52.434585],[-3.784206,52.434583],[-3.784283,52.434541],[-3.784355,52.434459],[-3.784397,52.434389],[-3.784409,52.43433],[-3.784391,52.434281],[-3.784344,52.434244],[-3.784309,52.434204],[-3.784287,52.434162],[-3.784278,52.434118],[-3.784281,52.434072],[-3.784297,52.434035],[-3.784326,52.434008],[-3.784367,52.433989],[-3.784422,52.43398],[-3.784495,52.433982],[-3.784585,52.433994],[-3.784693,52.434017],[-3.784819,52.434051],[-3.784889,52.43406],[-3.784904,52.434043],[-3.784863,52.434001],[-3.784767,52.433935],[-3.784715,52.433883],[-3.784708,52.433846],[-3.784745,52.433824],[-3.784827,52.433817],[-3.784907,52.433821],[-3.784984,52.433834],[-3.785059,52.433859],[-3.785132,52.433893],[-3.785208,52.433918],[-3.785286,52.433933],[-3.785366,52.433938],[-3.785449,52.433934],[-3.785515,52.433947],[-3.785564,52.433976],[-3.785596,52.434022],[-3.785612,52.434085],[-3.785635,52.434128],[-3.785667,52.434151],[-3.785707,52.434154],[-3.785755,52.434138],[-3.785795,52.434108],[-3.785828,52.434064],[-3.785852,52.434005],[-3.785869,52.433933],[-3.785891,52.43387],[-3.785919,52.433816],[-3.785951,52.43377],[-3.785988,52.433734],[-3.786007,52.433697],[-3.786009,52.433661],[-3.785993,52.433624],[-3.785959,52.433588],[-3.785935,52.433549],[-3.785919,52.433507],[-3.785913,52.433464],[-3.785917,52.433418],[-3.785921,52.433372],[-3.785927,52.433327],[-3.785934,52.433282],[-3.785942,52.433238],[-3.785978,52.433198],[-3.786041,52.433161],[-3.786132,52.433127],[-3.786251,52.433097],[-3.786343,52.433061],[-3.786408,52.43302],[-3.786445,52.432973],[-3.786455,52.432921],[-3.786475,52.432875],[-3.786504,52.432835],[-3.786543,52.432802],[-3.786592,52.432774],[-3.786629,52.432742],[-3.786653,52.432706],[-3.786664,52.432665],[-3.786663,52.432619],[-3.78668,52.43257],[-3.786717,52.432517],[-3.786772,52.432461],[-3.786846,52.432401],[-3.78692,52.432309],[-3.786994,52.432185],[-3.787067,52.432028],[-3.78714,52.431839],[-3.787189,52.431691],[-3.787212,52.431585],[-3.787212,52.43152],[-3.787186,52.431496],[-3.787133,52.431474],[-3.787051,52.431454],[-3.786941,52.431435],[-3.786803,52.431419],[-3.786678,52.431411],[-3.786565,52.431411],[-3.786464,52.431419],[-3.786376,52.431434],[-3.78631,52.431424],[-3.786265,52.431387],[-3.786242,52.431325],[-3.78624,52.431236],[-3.78621,52.43117],[-3.78615,52.431128],[-3.78606,52.431108],[-3.785942,52.431111],[-3.785809,52.431122],[-3.785662,52.43114],[-3.785501,52.431166],[-3.785325,52.4312],[-3.785189,52.431239],[-3.785092,52.431283],[-3.785035,52.431331],[-3.785016,52.431385],[-3.784965,52.431469],[-3.784882,52.431584],[-3.784766,52.431729],[-3.784618,52.431905],[-3.784514,52.432065],[-3.784453,52.432208],[-3.784435,52.432335],[-3.784461,52.432445],[-3.784453,52.432535],[-3.784411,52.432606],[-3.784336,52.432657],[-3.784226,52.432689],[-3.784151,52.432736],[-3.784111,52.432797],[-3.784105,52.432873],[-3.784134,52.432964],[-3.784149,52.433038],[-3.784152,52.433096],[-3.784142,52.433137],[-3.784119,52.433161],[-3.784087,52.433192],[-3.784049,52.43323],[-3.784002,52.433275],[-3.783948,52.433328],[-3.783917,52.433375],[-3.783911,52.433417],[-3.783928,52.433455],[-3.78397,52.433488],[-3.784006,52.433515],[-3.784037,52.433537],[-3.784063,52.433554],[-3.784085,52.433565],[-3.784093,52.433587],[-3.784088,52.43362],[-3.784069,52.433663],[-3.784038,52.433718],[-3.783999,52.433772],[-3.783951,52.433825],[-3.783895,52.433876],[-3.783832,52.433927],[-3.783789,52.433987],[-3.783766,52.434057],[-3.783765,52.434137],[-3.783784,52.434226],[-3.783822,52.434312],[-3.783877,52.434394],[-3.783949,52.434473],[-3.78404,52.434549]]]}}