{"type":"Feature","properties":{"id":"263237","COMMUNE":"Conwy","PROVINCE":"Conwy and Denbighshire","COUNTRY":"UK","FIREDATE":"2025-03-18 12:29:00","CLASS":"FireSeason","areaHA_geo":0.248},"geometry":{"type":"Polygon","coordinates":[[[-3.89215,53.25364],[-3.891955,53.253552],[-3.891767,53.253502],[-3.891587,53.253491],[-3.891415,53.253518],[-3.89125,53.253584],[-3.891142,53.253644],[-3.891091,53.253696],[-3.891097,53.253742],[-3.891158,53.253782],[-3.891242,53.253812],[-3.891346,53.253832],[-3.891472,53.253842],[-3.891619,53.253842],[-3.891745,53.253847],[-3.891851,53.253855],[-3.891935,53.253867],[-3.891999,53.253883],[-3.892069,53.253886],[-3.892144,53.253878],[-3.892226,53.253856],[-3.892313,53.253823],[-3.892329,53.253776],[-3.892275,53.253715],[-3.89215,53.25364]]]}}