{"type":"Feature","properties":{"id":"263243","COMMUNE":"Conwy","PROVINCE":"Conwy and Denbighshire","COUNTRY":"UK","FIREDATE":"2025-03-05 11:55:00","FINALDATE":"2025-03-05 11:55:00","CLASS":"FireSeason","areaHA_geo":3.425},"geometry":{"type":"Polygon","coordinates":[[[-3.85232,53.152804],[-3.852299,53.152907],[-3.852317,53.152965],[-3.852376,53.152977],[-3.852476,53.152943],[-3.852549,53.152894],[-3.852596,53.152829],[-3.852617,53.152747],[-3.852612,53.152651],[-3.852625,53.152586],[-3.852657,53.152554],[-3.852707,53.152555],[-3.852776,53.152588],[-3.852843,53.152585],[-3.85291,53.152548],[-3.852975,53.152475],[-3.85304,53.152367],[-3.853107,53.152296],[-3.853175,53.152263],[-3.853244,53.152268],[-3.853316,53.15231],[-3.853376,53.152355],[-3.853423,53.152405],[-3.853459,53.152458],[-3.853483,53.152515],[-3.853519,53.152565],[-3.853567,53.152608],[-3.853628,53.152644],[-3.8537,53.152674],[-3.853774,53.152686],[-3.853848,53.15268],[-3.853924,53.152657],[-3.854,53.152617],[-3.854062,53.152559],[-3.854111,53.152482],[-3.854146,53.152388],[-3.854167,53.152275],[-3.854199,53.152183],[-3.854241,53.15211],[-3.854294,53.152058],[-3.854357,53.152025],[-3.854407,53.151985],[-3.854443,53.151937],[-3.854467,53.15188],[-3.854478,53.151816],[-3.854488,53.151751],[-3.854498,53.151686],[-3.854508,53.151619],[-3.854518,53.151552],[-3.854543,53.151493],[-3.854584,53.151441],[-3.854641,53.151396],[-3.854713,53.15136],[-3.854776,53.151314],[-3.854829,53.151259],[-3.854872,53.151195],[-3.854906,53.151122],[-3.854948,53.151049],[-3.854999,53.150978],[-3.855057,53.150906],[-3.855123,53.150836],[-3.855189,53.150784],[-3.855255,53.150751],[-3.85532,53.150737],[-3.855385,53.150742],[-3.85543,53.150768],[-3.855455,53.150814],[-3.855461,53.15088],[-3.855447,53.150966],[-3.85541,53.151049],[-3.855349,53.151129],[-3.855265,53.151205],[-3.855157,53.151277],[-3.855068,53.151349],[-3.855,53.151422],[-3.854951,53.151494],[-3.854922,53.151567],[-3.854905,53.151635],[-3.8549,53.1517],[-3.854907,53.151762],[-3.854926,53.151819],[-3.854919,53.151879],[-3.854887,53.151941],[-3.854829,53.152005],[-3.854745,53.152071],[-3.854665,53.152157],[-3.854589,53.152262],[-3.854516,53.152386],[-3.854447,53.152529],[-3.854406,53.152637],[-3.854393,53.152709],[-3.854407,53.152746],[-3.85445,53.152747],[-3.854518,53.152703],[-3.854613,53.152613],[-3.854733,53.152478],[-3.854879,53.152298],[-3.854995,53.152156],[-3.85508,53.152054],[-3.855134,53.15199],[-3.855158,53.151965],[-3.855184,53.151935],[-3.855215,53.151898],[-3.855248,53.151856],[-3.855285,53.151807],[-3.855336,53.151778],[-3.855401,53.151767],[-3.85548,53.151775],[-3.855572,53.151802],[-3.855648,53.151836],[-3.855706,53.151877],[-3.855746,53.151924],[-3.855769,53.151978],[-3.855769,53.152035],[-3.855747,53.152096],[-3.855702,53.15216],[-3.855635,53.152228],[-3.855574,53.152303],[-3.85552,53.152386],[-3.855472,53.152478],[-3.85543,53.152577],[-3.855428,53.152634],[-3.855464,53.152648],[-3.855539,53.152621],[-3.855653,53.152551],[-3.855746,53.152481],[-3.855818,53.152411],[-3.855869,53.152342],[-3.855899,53.152272],[-3.855928,53.152213],[-3.855957,53.152164],[-3.855985,53.152126],[-3.856013,53.152097],[-3.856048,53.15206],[-3.856091,53.152014],[-3.856142,53.15196],[-3.8562,53.151896],[-3.856264,53.151846],[-3.856334,53.15181],[-3.856409,53.151787],[-3.85649,53.151778],[-3.856581,53.151751],[-3.856683,53.151708],[-3.856795,53.151648],[-3.856917,53.151571],[-3.856997,53.151502],[-3.857035,53.151441],[-3.857031,53.151388],[-3.856985,53.151343],[-3.856953,53.151295],[-3.856936,53.151243],[-3.856934,53.151188],[-3.856947,53.15113],[-3.856939,53.151064],[-3.856909,53.150991],[-3.856859,53.150909],[-3.856788,53.15082],[-3.856714,53.15073],[-3.856637,53.150638],[-3.856556,53.150545],[-3.856473,53.150451],[-3.856366,53.150389],[-3.856235,53.150358],[-3.85608,53.15036],[-3.855902,53.150393],[-3.855712,53.150429],[-3.855512,53.150466],[-3.8553,53.150506],[-3.855077,53.150547],[-3.854896,53.150586],[-3.854758,53.150623],[-3.854663,53.150657],[-3.85461,53.150688],[-3.854549,53.150742],[-3.854479,53.150819],[-3.854401,53.15092],[-3.854315,53.151043],[-3.854236,53.151152],[-3.854165,53.151246],[-3.8541,53.151327],[-3.854043,53.151393],[-3.853975,53.151463],[-3.853896,53.151535],[-3.853806,53.15161],[-3.853705,53.151687],[-3.853562,53.151785],[-3.853377,53.151902],[-3.853149,53.15204],[-3.85288,53.152197],[-3.852662,53.152352],[-3.852496,53.152504],[-3.852382,53.152655],[-3.85232,53.152804]]]}}