{"type":"Feature","properties":{"id":"263250","COMMUNE":"Gwynedd","PROVINCE":"Gwynedd","COUNTRY":"UK","FIREDATE":"2025-03-19 11:47:00","CLASS":"FireSeason","areaHA_geo":19.18},"geometry":{"type":"Polygon","coordinates":[[[-4.120942,53.025978],[-4.121223,53.025959],[-4.121413,53.025935],[-4.121513,53.025908],[-4.121521,53.025876],[-4.121439,53.02584],[-4.121354,53.025806],[-4.121267,53.025774],[-4.121178,53.025744],[-4.121087,53.025716],[-4.121034,53.025689],[-4.121019,53.025662],[-4.121043,53.025637],[-4.121105,53.025612],[-4.121188,53.025604],[-4.12129,53.025613],[-4.121414,53.025639],[-4.121557,53.025681],[-4.121701,53.025709],[-4.121846,53.025722],[-4.121993,53.02572],[-4.122139,53.025702],[-4.122255,53.025668],[-4.122338,53.025618],[-4.122389,53.025551],[-4.122408,53.025468],[-4.122397,53.025399],[-4.122356,53.025344],[-4.122283,53.025303],[-4.122181,53.025276],[-4.122099,53.025234],[-4.122039,53.025176],[-4.122,53.025102],[-4.121982,53.025013],[-4.121989,53.024937],[-4.122021,53.024875],[-4.122079,53.024827],[-4.122162,53.024793],[-4.122228,53.024732],[-4.122279,53.024645],[-4.122313,53.024532],[-4.122331,53.024392],[-4.122375,53.024289],[-4.122444,53.024223],[-4.122539,53.024193],[-4.122658,53.0242],[-4.122746,53.024176],[-4.122801,53.02412],[-4.122823,53.024033],[-4.122813,53.023914],[-4.122771,53.023821],[-4.122695,53.023752],[-4.122587,53.023709],[-4.122446,53.02369],[-4.122351,53.023657],[-4.122302,53.023608],[-4.1223,53.023544],[-4.122344,53.023464],[-4.122347,53.02338],[-4.122308,53.023289],[-4.122228,53.023193],[-4.122106,53.023091],[-4.121992,53.022989],[-4.121884,53.022885],[-4.121783,53.022781],[-4.12169,53.022676],[-4.121573,53.022588],[-4.121432,53.022519],[-4.121268,53.022467],[-4.121081,53.022433],[-4.12095,53.022391],[-4.120875,53.022342],[-4.120856,53.022285],[-4.120893,53.022221],[-4.120895,53.022164],[-4.120861,53.022113],[-4.12079,53.022069],[-4.120684,53.022033],[-4.120582,53.021985],[-4.120483,53.021926],[-4.120388,53.021857],[-4.120297,53.021776],[-4.1202,53.021691],[-4.120097,53.021603],[-4.119989,53.021511],[-4.119875,53.021416],[-4.119771,53.021332],[-4.119677,53.02126],[-4.119593,53.021201],[-4.119518,53.021153],[-4.119443,53.021135],[-4.119367,53.021146],[-4.119291,53.021186],[-4.119214,53.021255],[-4.119134,53.021322],[-4.11905,53.021389],[-4.118963,53.021453],[-4.118872,53.021517],[-4.11878,53.021593],[-4.118686,53.021682],[-4.11859,53.021783],[-4.118493,53.021897],[-4.118395,53.022001],[-4.118298,53.022098],[-4.1182,53.022185],[-4.118103,53.022263],[-4.117978,53.022334],[-4.117826,53.022398],[-4.117646,53.022455],[-4.11744,53.022504],[-4.117243,53.022553],[-4.117056,53.022601],[-4.11688,53.02265],[-4.116714,53.022697],[-4.11655,53.022748],[-4.116389,53.022803],[-4.11623,53.02286],[-4.116074,53.022921],[-4.115941,53.022977],[-4.115832,53.023029],[-4.115747,53.023076],[-4.115684,53.023119],[-4.115633,53.023177],[-4.115593,53.02325],[-4.115563,53.023339],[-4.115545,53.023443],[-4.115505,53.023541],[-4.115445,53.023633],[-4.115363,53.023719],[-4.11526,53.023798],[-4.11517,53.023871],[-4.115092,53.023938],[-4.115027,53.024],[-4.114975,53.024055],[-4.114943,53.02412],[-4.114933,53.024193],[-4.114942,53.024276],[-4.114972,53.024367],[-4.114984,53.024456],[-4.114978,53.024543],[-4.114953,53.024628],[-4.11491,53.024711],[-4.114906,53.024774],[-4.114941,53.024817],[-4.115015,53.024841],[-4.115128,53.024845],[-4.115237,53.024869],[-4.115342,53.024913],[-4.115444,53.024977],[-4.115542,53.02506],[-4.1156,53.025141],[-4.115617,53.02522],[-4.115594,53.025297],[-4.115531,53.025371],[-4.11548,53.025443],[-4.115441,53.025513],[-4.115415,53.025581],[-4.115401,53.025646],[-4.115406,53.0257],[-4.11543,53.025745],[-4.115472,53.02578],[-4.115533,53.025804],[-4.115591,53.025847],[-4.115646,53.025907],[-4.115699,53.025985],[-4.115748,53.026082],[-4.115818,53.02615],[-4.115908,53.02619],[-4.116017,53.026203],[-4.116147,53.026187],[-4.116237,53.026193],[-4.116287,53.026218],[-4.116296,53.026265],[-4.116266,53.026332],[-4.116271,53.026396],[-4.116312,53.026458],[-4.116389,53.026518],[-4.116502,53.026575],[-4.116645,53.026626],[-4.116818,53.02667],[-4.117022,53.026709],[-4.117256,53.026741],[-4.11744,53.026744],[-4.117575,53.026717],[-4.117661,53.026661],[-4.117697,53.026576],[-4.117732,53.026498],[-4.117764,53.026427],[-4.117795,53.026364],[-4.117823,53.026307],[-4.117818,53.026252],[-4.117779,53.026196],[-4.117706,53.026142],[-4.1176,53.026087],[-4.117542,53.026031],[-4.117531,53.025972],[-4.117569,53.025911],[-4.117653,53.025849],[-4.117708,53.025766],[-4.117734,53.025665],[-4.117729,53.025544],[-4.117694,53.025404],[-4.117701,53.025337],[-4.117751,53.025343],[-4.117842,53.025423],[-4.117975,53.025576],[-4.118103,53.025684],[-4.118226,53.025745],[-4.118344,53.02576],[-4.118457,53.025729],[-4.118561,53.025685],[-4.118657,53.025627],[-4.118744,53.025557],[-4.118822,53.025474],[-4.118902,53.025428],[-4.118985,53.02542],[-4.119069,53.02545],[-4.119156,53.025517],[-4.119259,53.025548],[-4.119378,53.025543],[-4.119512,53.025501],[-4.119663,53.025424],[-4.119759,53.025404],[-4.119801,53.025443],[-4.119789,53.025541],[-4.119724,53.025696],[-4.119714,53.0258],[-4.11976,53.025851],[-4.119862,53.025849],[-4.12002,53.025795],[-4.120156,53.025773],[-4.120267,53.025782],[-4.120356,53.025824],[-4.120421,53.025897],[-4.120541,53.025947],[-4.120714,53.025974],[-4.120942,53.025978]]]}}