{"type":"Feature","properties":{"id":"263211","COMMUNE":"Powys","PROVINCE":"Powys","COUNTRY":"UK","FIREDATE":"2025-03-05 13:35:00","FINALDATE":"2025-03-05 13:35:00","CLASS":"FireSeason","areaHA_geo":17.342},"geometry":{"type":"Polygon","coordinates":[[[-3.731261,52.194106],[-3.73126,52.194245],[-3.731288,52.194334],[-3.731344,52.194373],[-3.731429,52.194363],[-3.731502,52.194309],[-3.731564,52.194212],[-3.731614,52.194072],[-3.731652,52.193888],[-3.731738,52.193746],[-3.731872,52.193647],[-3.732055,52.193591],[-3.732286,52.193577],[-3.732467,52.193556],[-3.732598,52.193527],[-3.732678,52.193491],[-3.732709,52.193447],[-3.732751,52.193418],[-3.732806,52.193405],[-3.732873,52.193407],[-3.732952,52.193425],[-3.733049,52.193434],[-3.733163,52.193434],[-3.733294,52.193426],[-3.733443,52.193408],[-3.73354,52.193402],[-3.733586,52.193408],[-3.733581,52.193426],[-3.733524,52.193455],[-3.733465,52.193496],[-3.733405,52.193551],[-3.733343,52.193617],[-3.73328,52.193697],[-3.733248,52.193766],[-3.733248,52.193824],[-3.733279,52.193872],[-3.733343,52.19391],[-3.733413,52.193925],[-3.733492,52.193918],[-3.733579,52.193889],[-3.733673,52.193837],[-3.733754,52.193774],[-3.733822,52.193698],[-3.733878,52.193611],[-3.73392,52.193512],[-3.734009,52.193438],[-3.734145,52.193391],[-3.734328,52.19337],[-3.734557,52.193374],[-3.73473,52.193386],[-3.734847,52.193406],[-3.734907,52.193434],[-3.734911,52.19347],[-3.734918,52.193509],[-3.734928,52.193553],[-3.734941,52.193601],[-3.734957,52.193653],[-3.734948,52.193711],[-3.734913,52.193776],[-3.734853,52.193847],[-3.734766,52.193925],[-3.734738,52.194005],[-3.734767,52.194087],[-3.734854,52.194171],[-3.734999,52.194257],[-3.735132,52.194293],[-3.735252,52.194279],[-3.735361,52.194215],[-3.735457,52.1941],[-3.735518,52.193993],[-3.735542,52.193894],[-3.735529,52.193802],[-3.735481,52.193718],[-3.73547,52.193664],[-3.735496,52.193641],[-3.735558,52.193648],[-3.735659,52.193686],[-3.735752,52.193713],[-3.735838,52.19373],[-3.735917,52.193736],[-3.735989,52.193732],[-3.736027,52.193771],[-3.736031,52.193854],[-3.736001,52.19398],[-3.735936,52.19415],[-3.735921,52.194283],[-3.735955,52.19438],[-3.736038,52.194441],[-3.736171,52.194466],[-3.736325,52.194499],[-3.7365,52.194542],[-3.736696,52.194593],[-3.736913,52.194653],[-3.737171,52.194718],[-3.737469,52.194789],[-3.737807,52.194865],[-3.738186,52.194947],[-3.738505,52.195004],[-3.738765,52.195036],[-3.738966,52.195044],[-3.739108,52.195027],[-3.73923,52.194989],[-3.739333,52.19493],[-3.739416,52.19485],[-3.73948,52.194748],[-3.739547,52.194651],[-3.739618,52.19456],[-3.739692,52.194473],[-3.73977,52.194392],[-3.739759,52.194331],[-3.739662,52.194288],[-3.739476,52.194265],[-3.739203,52.194261],[-3.738991,52.194241],[-3.73884,52.194205],[-3.73875,52.194152],[-3.738721,52.194084],[-3.738745,52.193991],[-3.738822,52.193874],[-3.738953,52.193733],[-3.739137,52.193568],[-3.739292,52.193441],[-3.739418,52.193352],[-3.739516,52.193301],[-3.739586,52.193288],[-3.739656,52.193288],[-3.739725,52.1933],[-3.739796,52.193324],[-3.739866,52.193361],[-3.739943,52.193377],[-3.740025,52.193371],[-3.740115,52.193345],[-3.74021,52.193298],[-3.74032,52.193248],[-3.740443,52.193196],[-3.74058,52.19314],[-3.740731,52.193082],[-3.740796,52.193036],[-3.740774,52.193003],[-3.740666,52.192982],[-3.740472,52.192973],[-3.740348,52.192951],[-3.740292,52.192914],[-3.740306,52.192864],[-3.740389,52.192801],[-3.740492,52.19276],[-3.740615,52.192741],[-3.740757,52.192744],[-3.74092,52.19277],[-3.74109,52.192773],[-3.741267,52.192752],[-3.741452,52.192708],[-3.741644,52.19264],[-3.741783,52.192604],[-3.74187,52.192598],[-3.741903,52.192623],[-3.741884,52.192679],[-3.74187,52.192744],[-3.741859,52.192817],[-3.741854,52.192899],[-3.741852,52.192989],[-3.741851,52.193073],[-3.74185,52.193152],[-3.741849,52.193225],[-3.741848,52.193293],[-3.741832,52.19336],[-3.741802,52.193426],[-3.741756,52.193492],[-3.741696,52.193558],[-3.741652,52.193636],[-3.741626,52.193727],[-3.741616,52.19383],[-3.741623,52.193946],[-3.741617,52.194051],[-3.741599,52.194145],[-3.741568,52.194229],[-3.741524,52.194301],[-3.741521,52.194366],[-3.741557,52.194422],[-3.741632,52.194471],[-3.741748,52.194511],[-3.741817,52.194548],[-3.741838,52.194581],[-3.741813,52.194611],[-3.74174,52.194638],[-3.741729,52.194668],[-3.74178,52.194703],[-3.741894,52.194741],[-3.742069,52.194784],[-3.742219,52.194829],[-3.742344,52.194877],[-3.742445,52.194928],[-3.742521,52.194982],[-3.742585,52.195007],[-3.742639,52.195003],[-3.742682,52.19497],[-3.742714,52.194908],[-3.742841,52.19483],[-3.743061,52.194737],[-3.743377,52.194628],[-3.743786,52.194504],[-3.744086,52.194393],[-3.744277,52.194297],[-3.744357,52.194214],[-3.744329,52.194146],[-3.744318,52.194047],[-3.744325,52.193918],[-3.744351,52.193759],[-3.744395,52.193569],[-3.744399,52.193406],[-3.744363,52.193269],[-3.744288,52.193157],[-3.744173,52.193072],[-3.744077,52.192984],[-3.744001,52.192894],[-3.743945,52.192802],[-3.743908,52.192707],[-3.743858,52.192613],[-3.743796,52.192519],[-3.74372,52.192426],[-3.743632,52.192333],[-3.743587,52.192252],[-3.743584,52.192183],[-3.743623,52.192125],[-3.743704,52.19208],[-3.743751,52.192025],[-3.743764,52.19196],[-3.743743,52.191886],[-3.743687,52.191803],[-3.743599,52.191717],[-3.74348,52.191627],[-3.743328,52.191535],[-3.743143,52.19144],[-3.742953,52.191343],[-3.742757,52.191245],[-3.742555,52.191145],[-3.742346,52.191043],[-3.742196,52.190986],[-3.742103,52.190972],[-3.742069,52.191002],[-3.742092,52.191076],[-3.74215,52.191155],[-3.742243,52.191241],[-3.742371,52.191333],[-3.742534,52.19143],[-3.742607,52.191507],[-3.742592,52.191563],[-3.742487,52.191598],[-3.742293,52.191611],[-3.742091,52.191608],[-3.741883,52.191588],[-3.741667,52.19155],[-3.741444,52.191495],[-3.741277,52.191425],[-3.741165,52.191339],[-3.741109,52.191238],[-3.74111,52.191121],[-3.741089,52.191055],[-3.741047,52.19104],[-3.740985,52.191075],[-3.740902,52.191161],[-3.740818,52.191239],[-3.740733,52.19131],[-3.740648,52.191373],[-3.740562,52.191428],[-3.740382,52.191509],[-3.740106,52.191615],[-3.739736,52.191747],[-3.739271,52.191905],[-3.738848,52.192035],[-3.738469,52.192138],[-3.738132,52.192214],[-3.737838,52.192262],[-3.737566,52.192308],[-3.737315,52.192353],[-3.737086,52.192397],[-3.736879,52.192439],[-3.736632,52.192484],[-3.736345,52.192531],[-3.736019,52.19258],[-3.735653,52.192632],[-3.735342,52.19268],[-3.735087,52.192723],[-3.734888,52.192762],[-3.734745,52.192797],[-3.734556,52.192829],[-3.734323,52.192859],[-3.734044,52.192886],[-3.733721,52.19291],[-3.733424,52.192942],[-3.733153,52.19298],[-3.732908,52.193026],[-3.732689,52.193078],[-3.732461,52.193148],[-3.732223,52.193234],[-3.731976,52.193337],[-3.731719,52.193457],[-3.731519,52.193594],[-3.731376,52.193748],[-3.73129,52.193919],[-3.731261,52.194106]]]}}