{"type":"Feature","properties":{"id":"263245","COMMUNE":"Conwy","PROVINCE":"Conwy and Denbighshire","COUNTRY":"UK","FIREDATE":"2025-03-15 13:25:00","CLASS":"FireSeason","areaHA_geo":1.341},"geometry":{"type":"Polygon","coordinates":[[[-3.839216,53.171694],[-3.839232,53.171735],[-3.839277,53.171695],[-3.839351,53.171575],[-3.839454,53.171374],[-3.839566,53.171216],[-3.839686,53.171102],[-3.839815,53.17103],[-3.839953,53.171002],[-3.840076,53.170965],[-3.840182,53.170922],[-3.840274,53.17087],[-3.840349,53.170811],[-3.840328,53.170732],[-3.840212,53.170632],[-3.839999,53.170512],[-3.83969,53.170372],[-3.839456,53.170292],[-3.839298,53.170273],[-3.839214,53.170314],[-3.839205,53.170415],[-3.839168,53.170479],[-3.839103,53.170506],[-3.83901,53.170495],[-3.838888,53.170446],[-3.838778,53.170422],[-3.838679,53.170424],[-3.838591,53.170452],[-3.838513,53.170505],[-3.838418,53.170536],[-3.838306,53.170546],[-3.838176,53.170535],[-3.838028,53.170501],[-3.837898,53.170483],[-3.837787,53.170481],[-3.837694,53.170493],[-3.837619,53.170521],[-3.837633,53.17059],[-3.837738,53.1707],[-3.837932,53.170852],[-3.838216,53.171046],[-3.838467,53.171194],[-3.838685,53.171298],[-3.838869,53.171357],[-3.839021,53.171371],[-3.839132,53.171411],[-3.839201,53.171479],[-3.839229,53.171573],[-3.839216,53.171694]]]}}