{"type":"Feature","properties":{"id":"263246","COMMUNE":"Gwynedd","PROVINCE":"Gwynedd","COUNTRY":"UK","FIREDATE":"2025-03-20 20:42:00","FINALDATE":"2025-03-21 02:06:00","CLASS":"FireSeason","areaHA_geo":39.441},"geometry":{"type":"Polygon","coordinates":[[[-4.242972,53.070225],[-4.243148,53.070018],[-4.243303,53.069875],[-4.243435,53.069795],[-4.243546,53.06978],[-4.243636,53.069828],[-4.243734,53.069895],[-4.243841,53.069983],[-4.243957,53.07009],[-4.244081,53.070217],[-4.244234,53.070309],[-4.244416,53.070365],[-4.244628,53.070387],[-4.244868,53.070373],[-4.245026,53.070345],[-4.245102,53.070304],[-4.245096,53.07025],[-4.245008,53.070182],[-4.244964,53.07011],[-4.244963,53.070035],[-4.245006,53.069955],[-4.245092,53.069871],[-4.24519,53.069822],[-4.245299,53.069806],[-4.24542,53.069825],[-4.245552,53.069877],[-4.245679,53.069898],[-4.245802,53.069886],[-4.245919,53.069841],[-4.246032,53.069764],[-4.246172,53.069674],[-4.246337,53.069571],[-4.246529,53.069455],[-4.246748,53.069326],[-4.246939,53.069209],[-4.247104,53.069104],[-4.247242,53.06901],[-4.247354,53.068928],[-4.247466,53.068843],[-4.247579,53.068753],[-4.247693,53.06866],[-4.247808,53.068563],[-4.247927,53.068479],[-4.24805,53.068408],[-4.248177,53.06835],[-4.248309,53.068305],[-4.248442,53.068243],[-4.248574,53.068163],[-4.248707,53.068067],[-4.248841,53.067953],[-4.248926,53.067853],[-4.248963,53.067768],[-4.248952,53.067698],[-4.248892,53.067641],[-4.248874,53.067593],[-4.248897,53.067554],[-4.248962,53.067523],[-4.249069,53.0675],[-4.24916,53.067467],[-4.249236,53.067424],[-4.249295,53.06737],[-4.249339,53.067306],[-4.249337,53.067263],[-4.249288,53.067239],[-4.249193,53.067236],[-4.249052,53.067253],[-4.248916,53.067255],[-4.248786,53.067244],[-4.248661,53.067219],[-4.248541,53.067179],[-4.248437,53.067123],[-4.248347,53.067051],[-4.248273,53.066962],[-4.248213,53.066857],[-4.248149,53.066769],[-4.24808,53.066699],[-4.248008,53.066646],[-4.247931,53.066611],[-4.247886,53.066576],[-4.247874,53.066541],[-4.247895,53.066506],[-4.247949,53.06647],[-4.247999,53.066395],[-4.248047,53.066282],[-4.248092,53.06613],[-4.248134,53.065939],[-4.248142,53.065778],[-4.248114,53.065647],[-4.248052,53.065545],[-4.247954,53.065474],[-4.247862,53.065436],[-4.247775,53.065432],[-4.247693,53.065461],[-4.247616,53.065524],[-4.247539,53.065567],[-4.247461,53.065591],[-4.247383,53.065596],[-4.247304,53.065581],[-4.247228,53.065568],[-4.247155,53.065557],[-4.247085,53.065548],[-4.247017,53.065542],[-4.24692,53.065501],[-4.246793,53.065426],[-4.246636,53.065316],[-4.246449,53.065172],[-4.246288,53.065077],[-4.246155,53.065032],[-4.246048,53.065036],[-4.245968,53.06509],[-4.245887,53.065124],[-4.245807,53.065139],[-4.245725,53.065134],[-4.245644,53.065109],[-4.245541,53.065095],[-4.245417,53.06509],[-4.245271,53.065095],[-4.245105,53.06511],[-4.244893,53.065124],[-4.244636,53.065138],[-4.244334,53.065151],[-4.243987,53.065163],[-4.243723,53.06516],[-4.243542,53.065143],[-4.243443,53.065111],[-4.243427,53.065064],[-4.243403,53.065029],[-4.243371,53.065006],[-4.243331,53.064995],[-4.243282,53.064996],[-4.243228,53.064998],[-4.243168,53.065003],[-4.243103,53.06501],[-4.243032,53.065018],[-4.242903,53.06501],[-4.242715,53.064986],[-4.242469,53.064946],[-4.242164,53.064889],[-4.241928,53.064837],[-4.241761,53.064789],[-4.241662,53.064744],[-4.241633,53.064704],[-4.24155,53.064672],[-4.241416,53.064649],[-4.24123,53.064634],[-4.240991,53.064629],[-4.240787,53.064625],[-4.240619,53.064623],[-4.240487,53.064623],[-4.240389,53.064625],[-4.240295,53.064629],[-4.240203,53.064635],[-4.240114,53.064643],[-4.240027,53.064653],[-4.239941,53.064651],[-4.239854,53.064637],[-4.239768,53.064611],[-4.239682,53.064572],[-4.23957,53.064531],[-4.239432,53.064486],[-4.239269,53.064438],[-4.239081,53.064387],[-4.238954,53.064368],[-4.238889,53.064381],[-4.238885,53.064425],[-4.238943,53.064502],[-4.238948,53.064564],[-4.238898,53.064611],[-4.238795,53.064644],[-4.238638,53.064663],[-4.238522,53.064682],[-4.238446,53.064701],[-4.238412,53.064719],[-4.238418,53.064738],[-4.238384,53.064796],[-4.238311,53.064893],[-4.238197,53.065029],[-4.238043,53.065204],[-4.237905,53.065361],[-4.237785,53.0655],[-4.23768,53.065621],[-4.237592,53.065725],[-4.237505,53.065787],[-4.237417,53.065807],[-4.237331,53.065785],[-4.237244,53.065722],[-4.237138,53.065697],[-4.237011,53.06571],[-4.236865,53.06576],[-4.236698,53.065849],[-4.236557,53.065858],[-4.23644,53.065789],[-4.236347,53.065641],[-4.23628,53.065414],[-4.236187,53.06524],[-4.236068,53.065117],[-4.235924,53.065046],[-4.235754,53.065027],[-4.235636,53.065028],[-4.235569,53.065048],[-4.235554,53.065088],[-4.23559,53.065147],[-4.235597,53.065199],[-4.235575,53.065243],[-4.235524,53.06528],[-4.235444,53.065309],[-4.235372,53.065314],[-4.235309,53.065294],[-4.235253,53.065251],[-4.235206,53.065183],[-4.23513,53.065181],[-4.235025,53.065245],[-4.23489,53.065375],[-4.234727,53.065571],[-4.23462,53.065715],[-4.23457,53.06581],[-4.234576,53.065853],[-4.234639,53.065845],[-4.234678,53.065857],[-4.234692,53.065887],[-4.234682,53.065936],[-4.234647,53.066003],[-4.234603,53.06606],[-4.234549,53.066106],[-4.234485,53.06614],[-4.234411,53.066164],[-4.234369,53.066193],[-4.234361,53.066228],[-4.234385,53.066269],[-4.234441,53.066317],[-4.234559,53.066345],[-4.234738,53.066356],[-4.234979,53.066348],[-4.23528,53.066321],[-4.23556,53.066321],[-4.235817,53.066346],[-4.236053,53.066398],[-4.236267,53.066475],[-4.236441,53.06652],[-4.236576,53.066533],[-4.236672,53.066515],[-4.236728,53.066464],[-4.236782,53.066434],[-4.236832,53.066426],[-4.236879,53.066438],[-4.236923,53.066472],[-4.236972,53.066531],[-4.237024,53.066616],[-4.237081,53.066725],[-4.237142,53.066859],[-4.237267,53.067037],[-4.237455,53.067256],[-4.237706,53.067519],[-4.23802,53.067823],[-4.238279,53.068096],[-4.238481,53.068336],[-4.238628,53.068543],[-4.238719,53.068718],[-4.238833,53.068892],[-4.238968,53.069064],[-4.239125,53.069235],[-4.239304,53.069404],[-4.239459,53.069538],[-4.23959,53.069638],[-4.239698,53.069702],[-4.239781,53.069731],[-4.239897,53.069791],[-4.240045,53.06988],[-4.240226,53.070001],[-4.24044,53.070151],[-4.240653,53.070263],[-4.240865,53.070335],[-4.241076,53.070369],[-4.241287,53.070363],[-4.241514,53.07037],[-4.241757,53.07039],[-4.242017,53.070422],[-4.242294,53.070468],[-4.242545,53.07045],[-4.242771,53.070369],[-4.242972,53.070225]]]}}