{"type":"Feature","properties":{"id":"263239","COMMUNE":"Conwy","PROVINCE":"Conwy and Denbighshire","COUNTRY":"UK","FIREDATE":"2025-03-20 13:31:00","CLASS":"FireSeason","areaHA_geo":22.6},"geometry":{"type":"Polygon","coordinates":[[[-3.887077,53.168817],[-3.887147,53.168852],[-3.887246,53.16883],[-3.887373,53.168753],[-3.887529,53.16862],[-3.887679,53.168521],[-3.887824,53.168454],[-3.887963,53.16842],[-3.888098,53.16842],[-3.88834,53.168363],[-3.888691,53.16825],[-3.88915,53.168079],[-3.889717,53.167852],[-3.890168,53.167662],[-3.890502,53.167508],[-3.89072,53.167391],[-3.890822,53.16731],[-3.890892,53.167218],[-3.890932,53.167113],[-3.890941,53.166997],[-3.890918,53.16687],[-3.890907,53.166756],[-3.890906,53.166657],[-3.890917,53.166571],[-3.890938,53.1665],[-3.890977,53.166421],[-3.891032,53.166336],[-3.891105,53.166245],[-3.891194,53.166146],[-3.891213,53.166051],[-3.891161,53.165959],[-3.891037,53.165871],[-3.890843,53.165786],[-3.890634,53.165723],[-3.890412,53.16568],[-3.890176,53.165657],[-3.889925,53.165656],[-3.88972,53.165626],[-3.88956,53.165568],[-3.889445,53.165482],[-3.889376,53.165367],[-3.88938,53.165298],[-3.889459,53.165273],[-3.889611,53.165294],[-3.889838,53.165359],[-3.890079,53.16542],[-3.890335,53.165477],[-3.890605,53.165529],[-3.890889,53.165576],[-3.891144,53.165614],[-3.891367,53.165641],[-3.891561,53.165659],[-3.891724,53.165667],[-3.891846,53.165689],[-3.891929,53.165725],[-3.891971,53.165776],[-3.891973,53.165841],[-3.891995,53.165903],[-3.892037,53.165964],[-3.892099,53.166022],[-3.892182,53.166077],[-3.892257,53.166084],[-3.892327,53.166041],[-3.89239,53.165949],[-3.892446,53.165809],[-3.892475,53.16569],[-3.892475,53.165592],[-3.892447,53.165516],[-3.89239,53.165461],[-3.892371,53.165415],[-3.892388,53.165379],[-3.892441,53.165352],[-3.892531,53.165333],[-3.892609,53.165267],[-3.892674,53.165152],[-3.892726,53.164989],[-3.892766,53.164777],[-3.892785,53.164604],[-3.892782,53.164468],[-3.892758,53.16437],[-3.892713,53.16431],[-3.892646,53.164198],[-3.892557,53.164034],[-3.892446,53.163818],[-3.892314,53.16355],[-3.892218,53.163331],[-3.89216,53.163162],[-3.892138,53.163042],[-3.892153,53.162971],[-3.892183,53.162884],[-3.892226,53.162782],[-3.892283,53.162663],[-3.892355,53.162528],[-3.892382,53.16242],[-3.892364,53.162337],[-3.892303,53.162281],[-3.892197,53.162251],[-3.892136,53.162217],[-3.89212,53.162179],[-3.89215,53.162136],[-3.892224,53.162089],[-3.892269,53.16204],[-3.892284,53.161988],[-3.892269,53.161934],[-3.892225,53.161878],[-3.89215,53.161809],[-3.892042,53.161725],[-3.891903,53.161628],[-3.891733,53.161518],[-3.891536,53.16142],[-3.891312,53.161335],[-3.891063,53.161263],[-3.890787,53.161203],[-3.890534,53.16117],[-3.890305,53.161164],[-3.890098,53.161185],[-3.889915,53.161233],[-3.889776,53.161277],[-3.88968,53.161317],[-3.889628,53.161353],[-3.889619,53.161385],[-3.889593,53.161415],[-3.889552,53.161445],[-3.889494,53.161474],[-3.88942,53.161502],[-3.889358,53.161498],[-3.889308,53.161464],[-3.889271,53.161398],[-3.889245,53.161302],[-3.88918,53.161237],[-3.889073,53.161206],[-3.888926,53.161207],[-3.888738,53.16124],[-3.888607,53.16129],[-3.888532,53.161356],[-3.888515,53.161438],[-3.888553,53.161537],[-3.888574,53.161624],[-3.888576,53.161698],[-3.888559,53.161761],[-3.888524,53.161811],[-3.888482,53.161869],[-3.888434,53.161936],[-3.888378,53.162012],[-3.888316,53.162096],[-3.888264,53.162172],[-3.888223,53.162242],[-3.888192,53.162305],[-3.888172,53.162361],[-3.888188,53.162421],[-3.888241,53.162484],[-3.88833,53.16255],[-3.888455,53.16262],[-3.888527,53.162683],[-3.888546,53.16274],[-3.888511,53.162791],[-3.888423,53.162836],[-3.888319,53.162893],[-3.888197,53.162963],[-3.888059,53.163045],[-3.887904,53.16314],[-3.887789,53.163229],[-3.887714,53.163312],[-3.887678,53.16339],[-3.887683,53.163462],[-3.887734,53.163542],[-3.887833,53.163628],[-3.887979,53.163721],[-3.888172,53.163821],[-3.888262,53.163912],[-3.888251,53.163994],[-3.888136,53.164067],[-3.88792,53.16413],[-3.887751,53.164221],[-3.887629,53.164338],[-3.887555,53.164483],[-3.887527,53.164655],[-3.887492,53.164803],[-3.887449,53.164926],[-3.887399,53.165026],[-3.88734,53.165102],[-3.887277,53.165179],[-3.88721,53.165258],[-3.887138,53.165338],[-3.887063,53.16542],[-3.886971,53.165493],[-3.886864,53.165557],[-3.886741,53.165612],[-3.886602,53.165659],[-3.886499,53.165739],[-3.88643,53.165852],[-3.886396,53.165999],[-3.886397,53.166179],[-3.886385,53.166346],[-3.886358,53.166501],[-3.886318,53.166642],[-3.886264,53.166771],[-3.88623,53.166882],[-3.886215,53.166976],[-3.886221,53.167052],[-3.886247,53.16711],[-3.886299,53.167196],[-3.886377,53.16731],[-3.886483,53.167451],[-3.886615,53.167619],[-3.886716,53.167766],[-3.886785,53.16789],[-3.886823,53.167992],[-3.88683,53.168071],[-3.886843,53.168156],[-3.886863,53.168246],[-3.886889,53.16834],[-3.886922,53.16844],[-3.886957,53.168537],[-3.886994,53.168633],[-3.887034,53.168726],[-3.887077,53.168817]]]}}