{"type":"Feature","properties":{"id":"263252","COMMUNE":"Gwynedd","PROVINCE":"Gwynedd","COUNTRY":"UK","FIREDATE":"2025-03-19 12:10:00","CLASS":"FireSeason","areaHA_geo":0.651},"geometry":{"type":"Polygon","coordinates":[[[-4.117141,53.021458],[-4.117251,53.021504],[-4.117334,53.021496],[-4.117388,53.021434],[-4.117414,53.021318],[-4.117426,53.021216],[-4.117423,53.021126],[-4.117405,53.02105],[-4.117372,53.020987],[-4.117375,53.020943],[-4.117414,53.020917],[-4.117488,53.02091],[-4.117597,53.020922],[-4.117699,53.020913],[-4.117792,53.020884],[-4.117877,53.020836],[-4.117954,53.020767],[-4.117986,53.020703],[-4.117973,53.020645],[-4.117914,53.020592],[-4.11781,53.020544],[-4.117716,53.020507],[-4.11763,53.02048],[-4.117554,53.020464],[-4.117488,53.020457],[-4.117437,53.020464],[-4.117403,53.020484],[-4.117384,53.020517],[-4.117382,53.020563],[-4.117346,53.020598],[-4.117277,53.02062],[-4.117175,53.02063],[-4.117039,53.020629],[-4.11689,53.020648],[-4.116727,53.020689],[-4.116551,53.02075],[-4.116361,53.020832],[-4.116263,53.02091],[-4.116258,53.020983],[-4.116345,53.021051],[-4.116525,53.021114],[-4.116694,53.021186],[-4.116853,53.021268],[-4.117002,53.021359],[-4.117141,53.021458]]]}}