{"type":"Feature","properties":{"id":"263235","COMMUNE":"Conwy","PROVINCE":"Conwy and Denbighshire","COUNTRY":"UK","FIREDATE":"2025-03-18 12:04:00","CLASS":"FireSeason","areaHA_geo":0.226},"geometry":{"type":"Polygon","coordinates":[[[-3.892688,53.249221],[-3.892749,53.249211],[-3.89279,53.24916],[-3.892814,53.249066],[-3.892818,53.248931],[-3.892784,53.248835],[-3.892711,53.248776],[-3.892599,53.248755],[-3.892448,53.248773],[-3.892327,53.248799],[-3.892235,53.248833],[-3.892173,53.248875],[-3.892141,53.248925],[-3.89209,53.248978],[-3.89202,53.249033],[-3.891931,53.24909],[-3.891823,53.249149],[-3.891794,53.249188],[-3.891844,53.249205],[-3.891972,53.249202],[-3.89218,53.249178],[-3.892355,53.249168],[-3.892498,53.249172],[-3.892609,53.249189],[-3.892688,53.249221]]]}}