{"type":"Feature","properties":{"id":"263251","COMMUNE":"Gwynedd","PROVINCE":"Gwynedd","COUNTRY":"UK","FIREDATE":"2025-03-19 11:47:00","CLASS":"FireSeason","areaHA_geo":21.063},"geometry":{"type":"Polygon","coordinates":[[[-4.10911,53.026291],[-4.10915,53.026398],[-4.109239,53.026481],[-4.109377,53.026539],[-4.109564,53.026573],[-4.109683,53.026572],[-4.109732,53.026534],[-4.109712,53.026461],[-4.109623,53.026352],[-4.109547,53.026258],[-4.109482,53.026179],[-4.109431,53.026116],[-4.109391,53.026068],[-4.109388,53.026033],[-4.109422,53.026011],[-4.109493,53.026003],[-4.1096,53.026007],[-4.109693,53.026031],[-4.109772,53.026073],[-4.109836,53.026133],[-4.109885,53.026211],[-4.109934,53.026269],[-4.109981,53.026306],[-4.110027,53.026321],[-4.110073,53.026316],[-4.110129,53.026286],[-4.110195,53.02623],[-4.110273,53.02615],[-4.110361,53.026044],[-4.110401,53.025961],[-4.110393,53.0259],[-4.110336,53.025862],[-4.110231,53.025846],[-4.110164,53.025816],[-4.110134,53.02577],[-4.110142,53.025709],[-4.110187,53.025633],[-4.110256,53.02558],[-4.110349,53.02555],[-4.110466,53.025542],[-4.110606,53.025557],[-4.110728,53.025568],[-4.110833,53.025575],[-4.110921,53.025578],[-4.110991,53.025577],[-4.111036,53.02559],[-4.111057,53.025617],[-4.111053,53.025659],[-4.111025,53.025715],[-4.111011,53.025765],[-4.11101,53.025807],[-4.111023,53.025842],[-4.11105,53.025871],[-4.111085,53.025888],[-4.111128,53.025893],[-4.111179,53.025887],[-4.111238,53.02587],[-4.11129,53.025868],[-4.111336,53.025882],[-4.111375,53.025912],[-4.111407,53.025957],[-4.111447,53.026006],[-4.111494,53.026059],[-4.111548,53.026115],[-4.111609,53.026174],[-4.111693,53.02622],[-4.1118,53.026251],[-4.11193,53.026268],[-4.112084,53.026271],[-4.112239,53.026266],[-4.112397,53.026253],[-4.112555,53.026231],[-4.112716,53.026202],[-4.112854,53.026162],[-4.11297,53.026113],[-4.113064,53.026055],[-4.113135,53.025986],[-4.113128,53.025943],[-4.113043,53.025925],[-4.112879,53.025932],[-4.112638,53.025964],[-4.11244,53.025976],[-4.112287,53.025965],[-4.112178,53.025934],[-4.112114,53.025882],[-4.112063,53.025829],[-4.112024,53.025776],[-4.111999,53.025721],[-4.111987,53.025667],[-4.11201,53.025617],[-4.112069,53.025573],[-4.112164,53.025535],[-4.112294,53.025502],[-4.112437,53.025488],[-4.112595,53.025494],[-4.112766,53.02552],[-4.112952,53.025564],[-4.113125,53.025591],[-4.113286,53.025598],[-4.113435,53.025586],[-4.113571,53.025556],[-4.113688,53.025521],[-4.113783,53.025482],[-4.113858,53.025438],[-4.113913,53.025389],[-4.113931,53.025351],[-4.113913,53.025323],[-4.113859,53.025306],[-4.113768,53.025299],[-4.113673,53.025294],[-4.113572,53.025292],[-4.113467,53.025292],[-4.113356,53.025295],[-4.11325,53.025283],[-4.11315,53.025256],[-4.113056,53.025214],[-4.112967,53.025158],[-4.112924,53.025121],[-4.112927,53.025103],[-4.112975,53.025104],[-4.11307,53.025124],[-4.113164,53.025128],[-4.113257,53.025115],[-4.113348,53.025086],[-4.113439,53.02504],[-4.113518,53.025012],[-4.113585,53.025003],[-4.113641,53.025011],[-4.113685,53.025037],[-4.113744,53.025052],[-4.113819,53.025056],[-4.113908,53.025048],[-4.114014,53.025028],[-4.114111,53.024977],[-4.114201,53.024894],[-4.114284,53.02478],[-4.114359,53.024633],[-4.114415,53.024506],[-4.114453,53.024398],[-4.114471,53.024308],[-4.114472,53.024238],[-4.114477,53.024165],[-4.114487,53.02409],[-4.114503,53.024012],[-4.114523,53.023933],[-4.114531,53.023863],[-4.114526,53.023804],[-4.114509,53.023755],[-4.114478,53.023716],[-4.114419,53.023687],[-4.11433,53.023668],[-4.114212,53.023658],[-4.114065,53.023658],[-4.113957,53.023641],[-4.113888,53.023609],[-4.113857,53.023561],[-4.113865,53.023496],[-4.113881,53.023432],[-4.113903,53.023368],[-4.113933,53.023304],[-4.113971,53.023239],[-4.113976,53.023185],[-4.11395,53.02314],[-4.113892,53.023106],[-4.113801,53.023081],[-4.113726,53.023053],[-4.113665,53.023019],[-4.113618,53.022982],[-4.113587,53.02294],[-4.113587,53.0229],[-4.113619,53.022863],[-4.113682,53.022828],[-4.113777,53.022796],[-4.113869,53.022789],[-4.113958,53.022809],[-4.114043,53.022854],[-4.114125,53.022925],[-4.114197,53.022947],[-4.114258,53.022918],[-4.114309,53.02284],[-4.114349,53.022712],[-4.114394,53.022613],[-4.114444,53.022544],[-4.1145,53.022504],[-4.114561,53.022493],[-4.114626,53.022467],[-4.114694,53.022425],[-4.114766,53.022368],[-4.114842,53.022296],[-4.114903,53.022214],[-4.114949,53.022122],[-4.11498,53.022021],[-4.114996,53.02191],[-4.114992,53.02182],[-4.114966,53.02175],[-4.114919,53.021702],[-4.114851,53.021675],[-4.114793,53.021649],[-4.114743,53.021623],[-4.114702,53.021598],[-4.114671,53.021573],[-4.114628,53.021542],[-4.114575,53.021505],[-4.11451,53.02146],[-4.114435,53.021409],[-4.114367,53.021369],[-4.114307,53.021339],[-4.114255,53.02132],[-4.114211,53.021311],[-4.11416,53.021329],[-4.114102,53.021375],[-4.114036,53.021448],[-4.113964,53.021548],[-4.113927,53.021624],[-4.113926,53.021675],[-4.113961,53.021701],[-4.114033,53.021704],[-4.114095,53.02172],[-4.114149,53.02175],[-4.114195,53.021795],[-4.114232,53.021854],[-4.114284,53.021894],[-4.114349,53.021914],[-4.114429,53.021915],[-4.114523,53.021897],[-4.11456,53.021917],[-4.11454,53.021973],[-4.114464,53.022068],[-4.114332,53.0222],[-4.114206,53.022298],[-4.114086,53.022361],[-4.113972,53.02239],[-4.113865,53.022386],[-4.113754,53.022376],[-4.113641,53.022361],[-4.113524,53.022341],[-4.113404,53.022317],[-4.113306,53.022317],[-4.113229,53.022342],[-4.113174,53.022392],[-4.11314,53.022466],[-4.113105,53.022529],[-4.113069,53.022581],[-4.113032,53.022622],[-4.112995,53.022651],[-4.112914,53.022664],[-4.11279,53.022661],[-4.112622,53.022642],[-4.112411,53.022607],[-4.112246,53.02257],[-4.112128,53.022532],[-4.112055,53.022491],[-4.11203,53.022448],[-4.112012,53.0224],[-4.112003,53.022346],[-4.112003,53.022288],[-4.112011,53.022223],[-4.111998,53.022163],[-4.111965,53.022107],[-4.111911,53.022055],[-4.111837,53.022008],[-4.111754,53.021946],[-4.111661,53.021871],[-4.11156,53.021782],[-4.111449,53.021679],[-4.111355,53.021586],[-4.111278,53.021504],[-4.111218,53.021432],[-4.111174,53.02137],[-4.111148,53.021313],[-4.111139,53.021261],[-4.111149,53.021214],[-4.111176,53.021172],[-4.111185,53.021128],[-4.111175,53.021082],[-4.111148,53.021033],[-4.111101,53.020982],[-4.111063,53.020934],[-4.111034,53.020888],[-4.111012,53.020845],[-4.110998,53.020804],[-4.110963,53.020765],[-4.110906,53.020726],[-4.110828,53.020687],[-4.110727,53.02065],[-4.110661,53.020639],[-4.110628,53.020656],[-4.110629,53.020699],[-4.110664,53.020768],[-4.110665,53.020817],[-4.110633,53.020843],[-4.110567,53.020849],[-4.110467,53.020832],[-4.110378,53.020811],[-4.110299,53.020785],[-4.11023,53.020755],[-4.110172,53.020719],[-4.110103,53.020681],[-4.110025,53.020639],[-4.109936,53.020594],[-4.109838,53.020546],[-4.109752,53.020508],[-4.109678,53.020479],[-4.109616,53.020461],[-4.109567,53.020453],[-4.10949,53.020438],[-4.109386,53.020417],[-4.109255,53.02039],[-4.109097,53.020355],[-4.108938,53.020341],[-4.108778,53.020346],[-4.108617,53.02037],[-4.108456,53.020414],[-4.108319,53.020431],[-4.108207,53.020421],[-4.10812,53.020385],[-4.108058,53.020322],[-4.107981,53.020288],[-4.107888,53.020283],[-4.10778,53.020307],[-4.107657,53.020361],[-4.107543,53.020429],[-4.107438,53.020512],[-4.107343,53.020609],[-4.107256,53.020721],[-4.107216,53.020818],[-4.107222,53.020898],[-4.107274,53.020962],[-4.107373,53.021011],[-4.107452,53.02103],[-4.107514,53.021021],[-4.107557,53.020983],[-4.107582,53.020917],[-4.107634,53.020859],[-4.107711,53.020809],[-4.107815,53.020768],[-4.107945,53.020735],[-4.108053,53.020724],[-4.108139,53.020735],[-4.108203,53.020768],[-4.108244,53.020823],[-4.108306,53.020864],[-4.108389,53.020891],[-4.108492,53.020904],[-4.108615,53.020904],[-4.108742,53.020889],[-4.108873,53.020859],[-4.109008,53.020815],[-4.109147,53.020756],[-4.109263,53.020728],[-4.109354,53.020729],[-4.109422,53.020761],[-4.109466,53.020822],[-4.109455,53.020883],[-4.109389,53.020941],[-4.109269,53.020999],[-4.109093,53.021055],[-4.1089,53.0211],[-4.108688,53.021134],[-4.108457,53.021157],[-4.108209,53.021169],[-4.107985,53.02119],[-4.107787,53.02122],[-4.107614,53.02126],[-4.107466,53.021309],[-4.107379,53.021367],[-4.107354,53.021434],[-4.10739,53.021508],[-4.107488,53.021592],[-4.107547,53.021666],[-4.107565,53.021731],[-4.107544,53.021786],[-4.107483,53.021832],[-4.10742,53.021882],[-4.107355,53.021935],[-4.107289,53.021992],[-4.107221,53.022053],[-4.107156,53.02212],[-4.107095,53.022192],[-4.107037,53.02227],[-4.106983,53.022354],[-4.106973,53.022426],[-4.107007,53.022485],[-4.107086,53.022532],[-4.107209,53.022567],[-4.10731,53.022611],[-4.10739,53.022665],[-4.107447,53.022729],[-4.107483,53.022802],[-4.107533,53.022864],[-4.107597,53.022915],[-4.107674,53.022954],[-4.107766,53.022982],[-4.10782,53.02302],[-4.107836,53.023069],[-4.107815,53.023129],[-4.107756,53.023199],[-4.107676,53.023247],[-4.107575,53.023271],[-4.107454,53.023272],[-4.107311,53.02325],[-4.107212,53.023257],[-4.107156,53.023292],[-4.107143,53.023355],[-4.107174,53.023446],[-4.107221,53.023514],[-4.107285,53.023557],[-4.107366,53.023577],[-4.107465,53.023572],[-4.107538,53.023582],[-4.107588,53.023606],[-4.107612,53.023644],[-4.107612,53.023697],[-4.107636,53.023752],[-4.107684,53.023808],[-4.107755,53.023865],[-4.107851,53.023924],[-4.107936,53.023971],[-4.108009,53.024007],[-4.108071,53.02403],[-4.108122,53.024042],[-4.108179,53.024077],[-4.108243,53.024137],[-4.108313,53.02422],[-4.10839,53.024327],[-4.108461,53.024414],[-4.108527,53.02448],[-4.108588,53.024525],[-4.108643,53.02455],[-4.108701,53.024579],[-4.108761,53.02461],[-4.108824,53.024645],[-4.108889,53.024683],[-4.108964,53.0247],[-4.109048,53.024695],[-4.10914,53.024669],[-4.109242,53.024622],[-4.109338,53.024605],[-4.109428,53.024619],[-4.109512,53.024664],[-4.109589,53.024739],[-4.109621,53.024809],[-4.109607,53.024872],[-4.109546,53.024929],[-4.10944,53.024981],[-4.109317,53.025036],[-4.109178,53.025094],[-4.109023,53.025157],[-4.108851,53.025223],[-4.108722,53.025304],[-4.108636,53.025401],[-4.108594,53.025512],[-4.108595,53.025639],[-4.108629,53.025742],[-4.108696,53.025822],[-4.108797,53.025879],[-4.108932,53.025912],[-4.10903,53.02597],[-4.109093,53.026053],[-4.109119,53.02616],[-4.10911,53.026291]]]}}