{"type":"Feature","properties":{"id":"263238","COMMUNE":"Conwy","PROVINCE":"Conwy and Denbighshire","COUNTRY":"UK","FIREDATE":"2025-03-18 12:04:00","FINALDATE":"2025-03-18 14:10:00","CLASS":"FireSeason","areaHA_geo":0.253},"geometry":{"type":"Polygon","coordinates":[[[-3.896722,53.250969],[-3.896855,53.251045],[-3.896941,53.251068],[-3.896979,53.251035],[-3.89697,53.250949],[-3.896943,53.250864],[-3.896896,53.250782],[-3.896831,53.250702],[-3.896746,53.250624],[-3.896668,53.250543],[-3.896596,53.250458],[-3.89653,53.250369],[-3.896471,53.250277],[-3.896401,53.250206],[-3.896321,53.250157],[-3.896232,53.250129],[-3.896132,53.250123],[-3.896075,53.250152],[-3.896061,53.250215],[-3.896091,53.250312],[-3.896163,53.250444],[-3.896263,53.250575],[-3.896389,53.250707],[-3.896542,53.250838],[-3.896722,53.250969]]]}}