{"type":"Feature","properties":{"id":"263242","COMMUNE":"Conwy","PROVINCE":"Conwy and Denbighshire","COUNTRY":"UK","FIREDATE":"2025-03-06 12:29:00","CLASS":"FireSeason","areaHA_geo":0.644},"geometry":{"type":"Polygon","coordinates":[[[-3.890624,53.21347],[-3.890717,53.213497],[-3.890786,53.213508],[-3.890832,53.213503],[-3.890853,53.213482],[-3.89089,53.213465],[-3.890943,53.213452],[-3.891011,53.213444],[-3.891095,53.213441],[-3.891151,53.213449],[-3.891178,53.213468],[-3.891178,53.213498],[-3.891149,53.213539],[-3.891131,53.213584],[-3.891125,53.213631],[-3.891131,53.213681],[-3.891149,53.213734],[-3.891206,53.213741],[-3.891303,53.213703],[-3.89144,53.213618],[-3.891617,53.213487],[-3.891748,53.213381],[-3.891831,53.213301],[-3.891868,53.213245],[-3.891858,53.213214],[-3.891866,53.213183],[-3.891893,53.21315],[-3.891938,53.213116],[-3.892001,53.213081],[-3.892032,53.213043],[-3.892033,53.213],[-3.892002,53.212954],[-3.891939,53.212904],[-3.891892,53.212861],[-3.89186,53.212823],[-3.891844,53.212792],[-3.891842,53.212766],[-3.891836,53.212739],[-3.891825,53.21271],[-3.891808,53.212678],[-3.891787,53.212645],[-3.891738,53.212622],[-3.891661,53.212609],[-3.891556,53.212608],[-3.891425,53.212617],[-3.89133,53.21264],[-3.891274,53.212679],[-3.891255,53.212732],[-3.891273,53.2128],[-3.891271,53.212864],[-3.891247,53.212927],[-3.891201,53.212986],[-3.891135,53.213042],[-3.89106,53.213087],[-3.890977,53.21312],[-3.890885,53.213141],[-3.890785,53.213151],[-3.890692,53.21317],[-3.890604,53.213199],[-3.890521,53.213239],[-3.890445,53.213288],[-3.890418,53.213335],[-3.890438,53.213382],[-3.890507,53.213427],[-3.890624,53.21347]]]}}