{"type":"Feature","properties":{"id":"263256","COMMUNE":"Gwynedd","PROVINCE":"Gwynedd","COUNTRY":"UK","FIREDATE":"2025-03-20 02:26:00","CLASS":"FireSeason","areaHA_geo":56.587},"geometry":{"type":"Polygon","coordinates":[[[-4.245511,53.003762],[-4.245594,53.003844],[-4.245757,53.003909],[-4.246,53.003958],[-4.246323,53.003991],[-4.246568,53.003977],[-4.246734,53.003917],[-4.246821,53.003811],[-4.246829,53.003658],[-4.246857,53.003541],[-4.246904,53.003459],[-4.246971,53.003414],[-4.247057,53.003403],[-4.247171,53.003434],[-4.247314,53.003506],[-4.247486,53.003619],[-4.247686,53.003774],[-4.247795,53.003988],[-4.247812,53.004263],[-4.247738,53.004597],[-4.247572,53.004992],[-4.247543,53.005319],[-4.247652,53.005578],[-4.247898,53.005769],[-4.248282,53.005892],[-4.248593,53.005978],[-4.248832,53.006025],[-4.248998,53.006034],[-4.249093,53.006005],[-4.249224,53.005998],[-4.249393,53.006014],[-4.249599,53.006051],[-4.249842,53.006111],[-4.250094,53.006052],[-4.250354,53.005874],[-4.250623,53.005576],[-4.2509,53.00516],[-4.251041,53.004815],[-4.251047,53.004542],[-4.250917,53.004341],[-4.250651,53.004213],[-4.250491,53.004067],[-4.250436,53.003904],[-4.250488,53.003724],[-4.250645,53.003527],[-4.250805,53.003371],[-4.250968,53.003258],[-4.251134,53.003187],[-4.251302,53.003158],[-4.251433,53.003104],[-4.251526,53.003026],[-4.251581,53.002924],[-4.251598,53.002797],[-4.251662,53.00272],[-4.251772,53.002693],[-4.251929,53.002717],[-4.252132,53.002791],[-4.252247,53.002924],[-4.252274,53.003117],[-4.252214,53.00337],[-4.252065,53.003682],[-4.251947,53.003941],[-4.25186,53.004148],[-4.251804,53.004302],[-4.251778,53.004403],[-4.251864,53.004516],[-4.252061,53.004639],[-4.25237,53.004774],[-4.252791,53.00492],[-4.253195,53.005005],[-4.253582,53.00503],[-4.253953,53.004994],[-4.254308,53.004898],[-4.254554,53.004878],[-4.254691,53.004933],[-4.25472,53.005063],[-4.25464,53.005269],[-4.254524,53.005468],[-4.254373,53.00566],[-4.254185,53.005845],[-4.253962,53.006024],[-4.25377,53.006127],[-4.253609,53.006155],[-4.253478,53.006109],[-4.253377,53.005987],[-4.253267,53.005879],[-4.253147,53.005787],[-4.253017,53.005709],[-4.252877,53.005645],[-4.252684,53.005593],[-4.25244,53.00555],[-4.252143,53.005519],[-4.251794,53.005498],[-4.251511,53.005508],[-4.251293,53.005547],[-4.251142,53.005617],[-4.251056,53.005716],[-4.251035,53.005819],[-4.251078,53.005925],[-4.251185,53.006035],[-4.251357,53.006149],[-4.251543,53.006215],[-4.251743,53.006236],[-4.251957,53.00621],[-4.252186,53.006138],[-4.252348,53.006132],[-4.252442,53.006192],[-4.252469,53.006318],[-4.252429,53.006511],[-4.252434,53.006657],[-4.252483,53.006758],[-4.252576,53.006814],[-4.252713,53.006825],[-4.252817,53.006859],[-4.252889,53.006917],[-4.252927,53.007],[-4.252933,53.007106],[-4.253144,53.007246],[-4.253558,53.007419],[-4.254178,53.007626],[-4.255002,53.007866],[-4.255723,53.008009],[-4.256341,53.008056],[-4.256855,53.008005],[-4.257267,53.007858],[-4.257485,53.00772],[-4.25751,53.007592],[-4.25734,53.007474],[-4.256977,53.007366],[-4.257007,53.007091],[-4.257432,53.006647],[-4.25825,53.006036],[-4.259463,53.005257],[-4.26022,53.004609],[-4.260523,53.004091],[-4.260371,53.003703],[-4.259765,53.003446],[-4.259293,53.00326],[-4.258957,53.003144],[-4.258756,53.003099],[-4.25869,53.003124],[-4.258605,53.003135],[-4.258499,53.00313],[-4.258373,53.003109],[-4.258227,53.003073],[-4.258112,53.003018],[-4.258027,53.002943],[-4.257974,53.002849],[-4.257951,53.002736],[-4.257902,53.002646],[-4.257828,53.002579],[-4.257728,53.002535],[-4.257602,53.002515],[-4.257467,53.002522],[-4.257322,53.002557],[-4.257168,53.00262],[-4.257005,53.002711],[-4.256864,53.002777],[-4.256744,53.002818],[-4.256645,53.002834],[-4.256568,53.002826],[-4.256533,53.002776],[-4.25654,53.002686],[-4.256589,53.002556],[-4.256681,53.002384],[-4.256776,53.00227],[-4.256877,53.002213],[-4.256981,53.002214],[-4.25709,53.002273],[-4.257199,53.002288],[-4.257309,53.002262],[-4.25742,53.002193],[-4.257531,53.002081],[-4.257601,53.001957],[-4.25763,53.00182],[-4.257617,53.00167],[-4.257563,53.001507],[-4.257495,53.001337],[-4.257413,53.001159],[-4.257318,53.000974],[-4.257209,53.000782],[-4.257043,53.000731],[-4.25682,53.00082],[-4.25654,53.00105],[-4.256203,53.00142],[-4.25586,53.001675],[-4.255513,53.001815],[-4.25516,53.001839],[-4.254803,53.001748],[-4.254509,53.001681],[-4.254278,53.001637],[-4.254112,53.001617],[-4.254009,53.00162],[-4.253927,53.001599],[-4.253867,53.001553],[-4.253829,53.001481],[-4.253811,53.001385],[-4.253758,53.001314],[-4.253668,53.001267],[-4.253541,53.001244],[-4.253378,53.001246],[-4.253275,53.001227],[-4.253232,53.001187],[-4.253249,53.001127],[-4.253327,53.001047],[-4.253349,53.000968],[-4.253316,53.000892],[-4.253228,53.000818],[-4.253085,53.000745],[-4.252951,53.000712],[-4.252827,53.000718],[-4.252711,53.000763],[-4.252606,53.000847],[-4.252517,53.000938],[-4.252446,53.001036],[-4.252391,53.001141],[-4.252354,53.001252],[-4.252291,53.001331],[-4.252203,53.001377],[-4.252088,53.001391],[-4.251948,53.001372],[-4.251826,53.00134],[-4.251721,53.001295],[-4.251635,53.001236],[-4.251566,53.001164],[-4.251419,53.001123],[-4.251193,53.001115],[-4.250888,53.001138],[-4.250505,53.001193],[-4.250208,53.001204],[-4.249996,53.001171],[-4.24987,53.001095],[-4.24983,53.000975],[-4.249839,53.000822],[-4.249896,53.000637],[-4.250001,53.000419],[-4.250156,53.000169],[-4.250305,52.99997],[-4.25045,52.999824],[-4.250589,52.999729],[-4.250723,52.999686],[-4.250853,52.99963],[-4.250979,52.999562],[-4.251101,52.99948],[-4.251218,52.999386],[-4.251346,52.999257],[-4.251485,52.999093],[-4.251634,52.998894],[-4.251794,52.998661],[-4.251885,52.998499],[-4.251906,52.998407],[-4.251858,52.998386],[-4.251741,52.998436],[-4.251577,52.99848],[-4.251367,52.998518],[-4.25111,52.998551],[-4.250807,52.998579],[-4.250538,52.998595],[-4.250302,52.998601],[-4.250099,52.998597],[-4.249931,52.998581],[-4.24979,52.998582],[-4.249677,52.9986],[-4.249592,52.998635],[-4.249535,52.998687],[-4.249477,52.99868],[-4.249418,52.998616],[-4.249359,52.998494],[-4.249299,52.998313],[-4.249267,52.998141],[-4.249264,52.997976],[-4.24929,52.997819],[-4.249344,52.99767],[-4.249406,52.997567],[-4.249476,52.997509],[-4.249554,52.997498],[-4.24964,52.997532],[-4.249749,52.997568],[-4.24988,52.997606],[-4.250035,52.997645],[-4.250212,52.997687],[-4.250369,52.997679],[-4.250507,52.997622],[-4.250624,52.997517],[-4.250721,52.997362],[-4.250792,52.997207],[-4.250836,52.99705],[-4.250854,52.996892],[-4.250845,52.996732],[-4.250767,52.996632],[-4.25062,52.996592],[-4.250403,52.996611],[-4.250117,52.99669],[-4.249861,52.996747],[-4.249635,52.996783],[-4.24944,52.996798],[-4.249274,52.996791],[-4.249109,52.996833],[-4.248946,52.996924],[-4.248785,52.997064],[-4.248625,52.997252],[-4.248433,52.997425],[-4.24821,52.997581],[-4.247956,52.997721],[-4.24767,52.997844],[-4.247478,52.997961],[-4.247381,52.99807],[-4.247378,52.998173],[-4.24747,52.998269],[-4.247578,52.998337],[-4.247702,52.998375],[-4.247843,52.998385],[-4.248,52.998366],[-4.248107,52.998374],[-4.248162,52.998407],[-4.248167,52.998467],[-4.248122,52.998552],[-4.248062,52.998631],[-4.24799,52.998702],[-4.247903,52.998766],[-4.247803,52.998823],[-4.247719,52.998893],[-4.24765,52.998977],[-4.247597,52.999075],[-4.24756,52.999186],[-4.247556,52.999287],[-4.247587,52.999377],[-4.24765,52.999456],[-4.247747,52.999525],[-4.247804,52.999605],[-4.24782,52.999697],[-4.247795,52.9998],[-4.247729,52.999915],[-4.247674,53.000029],[-4.24763,53.000141],[-4.247596,53.000252],[-4.247573,53.000362],[-4.247531,53.000436],[-4.24747,53.000475],[-4.247389,53.000478],[-4.247289,53.000445],[-4.247188,53.000422],[-4.247086,53.000407],[-4.246984,53.000401],[-4.246881,53.000405],[-4.24681,53.000391],[-4.24677,53.00036],[-4.246761,53.000312],[-4.246784,53.000247],[-4.24678,53.00019],[-4.246748,53.00014],[-4.246689,53.000098],[-4.246604,53.000063],[-4.246509,53.00007],[-4.246406,53.000118],[-4.246295,53.000207],[-4.246175,53.000338],[-4.24607,53.000435],[-4.24598,53.000499],[-4.245904,53.000531],[-4.245844,53.000529],[-4.245767,53.000554],[-4.245673,53.000605],[-4.245561,53.000683],[-4.245433,53.000788],[-4.245323,53.000915],[-4.245231,53.001064],[-4.245158,53.001236],[-4.245104,53.001429],[-4.245035,53.00158],[-4.244952,53.001688],[-4.244855,53.001754],[-4.244744,53.001776],[-4.244634,53.001771],[-4.244527,53.001739],[-4.244422,53.001681],[-4.244319,53.001595],[-4.244214,53.00156],[-4.244109,53.001578],[-4.244001,53.001646],[-4.243893,53.001766],[-4.243819,53.001891],[-4.243781,53.00202],[-4.243777,53.002155],[-4.243809,53.002294],[-4.24389,53.002404],[-4.244022,53.002487],[-4.244203,53.002541],[-4.244435,53.002567],[-4.244658,53.002578],[-4.244873,53.002574],[-4.245078,53.002556],[-4.245276,53.002524],[-4.245447,53.002514],[-4.245593,53.002528],[-4.245713,53.002565],[-4.245808,53.002625],[-4.245851,53.00272],[-4.245842,53.002851],[-4.245782,53.003016],[-4.245671,53.003217],[-4.245588,53.003392],[-4.245534,53.003541],[-4.245508,53.003665],[-4.245511,53.003762]]]}}