{"type":"Feature","properties":{"id":"263233","COMMUNE":"Conwy","PROVINCE":"Conwy and Denbighshire","COUNTRY":"UK","FIREDATE":"2025-03-18 11:10:00","FINALDATE":"2025-03-18 14:10:00","CLASS":"FireSeason","areaHA_geo":3.345},"geometry":{"type":"Polygon","coordinates":[[[-3.886673,53.250179],[-3.886745,53.250101],[-3.88679,53.250007],[-3.886808,53.249897],[-3.886799,53.249771],[-3.886762,53.249629],[-3.886698,53.249495],[-3.886608,53.249368],[-3.886491,53.249249],[-3.886346,53.249137],[-3.8862,53.249072],[-3.886052,53.249054],[-3.885903,53.249083],[-3.885751,53.249159],[-3.885616,53.249203],[-3.885498,53.249214],[-3.885395,53.249192],[-3.885309,53.249138],[-3.885222,53.249075],[-3.885135,53.249003],[-3.885047,53.248923],[-3.88496,53.248834],[-3.884926,53.248775],[-3.884946,53.248746],[-3.885019,53.248748],[-3.885147,53.24878],[-3.885258,53.248789],[-3.885351,53.248775],[-3.885428,53.248738],[-3.885486,53.248679],[-3.885525,53.248623],[-3.885542,53.248572],[-3.885538,53.248524],[-3.885514,53.24848],[-3.885543,53.248427],[-3.885626,53.248365],[-3.885762,53.248294],[-3.885951,53.248213],[-3.886052,53.248136],[-3.886067,53.248061],[-3.885995,53.247989],[-3.885835,53.24792],[-3.885666,53.247867],[-3.885487,53.247829],[-3.885299,53.247807],[-3.885101,53.247801],[-3.88494,53.247826],[-3.884816,53.247881],[-3.884729,53.247967],[-3.884679,53.248084],[-3.884625,53.248195],[-3.884567,53.248301],[-3.884505,53.248402],[-3.884438,53.248497],[-3.884377,53.24858],[-3.884322,53.248651],[-3.884273,53.248709],[-3.884229,53.248755],[-3.884173,53.248802],[-3.884106,53.248851],[-3.884027,53.248901],[-3.883936,53.248952],[-3.88391,53.24905],[-3.883947,53.249195],[-3.884049,53.249386],[-3.884215,53.249624],[-3.884303,53.249802],[-3.884312,53.249921],[-3.884243,53.24998],[-3.884096,53.249979],[-3.884019,53.249997],[-3.884011,53.250033],[-3.884073,53.250087],[-3.884204,53.250159],[-3.884348,53.25023],[-3.884503,53.2503],[-3.884669,53.250368],[-3.884848,53.250435],[-3.885019,53.250478],[-3.885182,53.250497],[-3.885337,53.250492],[-3.885484,53.250463],[-3.885599,53.250403],[-3.885681,53.250312],[-3.885732,53.250189],[-3.88575,53.250035],[-3.885777,53.249948],[-3.885814,53.249926],[-3.885861,53.24997],[-3.885916,53.25008],[-3.885993,53.250166],[-3.886092,53.250228],[-3.886212,53.250265],[-3.886353,53.250278],[-3.886477,53.250268],[-3.886584,53.250235],[-3.886673,53.250179]]]}}