{"type":"Feature","properties":{"id":"263379","COMMUNE":"Swansea","PROVINCE":"Swansea","COUNTRY":"UK","FIREDATE":"2025-03-08 16:59:46.13","CLASS":"FireSeason","areaHA_geo":1.02},"geometry":{"type":"Polygon","coordinates":[[[-4.275207,51.590577],[-4.275241,51.590664],[-4.2753,51.5907],[-4.275383,51.590686],[-4.275491,51.59062],[-4.275586,51.590573],[-4.275667,51.590544],[-4.275736,51.590535],[-4.275792,51.590544],[-4.275845,51.590567],[-4.275894,51.590603],[-4.27594,51.590651],[-4.275984,51.590713],[-4.276049,51.590757],[-4.276136,51.590784],[-4.276246,51.590792],[-4.276378,51.590783],[-4.276504,51.590782],[-4.276625,51.590789],[-4.276741,51.590804],[-4.27685,51.590827],[-4.276959,51.590828],[-4.277067,51.590807],[-4.277174,51.590765],[-4.277279,51.590701],[-4.277352,51.590648],[-4.277393,51.590606],[-4.277401,51.590575],[-4.277377,51.590554],[-4.277321,51.590532],[-4.277233,51.59051],[-4.277114,51.590486],[-4.276962,51.590461],[-4.276872,51.590439],[-4.276844,51.59042],[-4.276878,51.590403],[-4.276973,51.59039],[-4.277059,51.590376],[-4.277135,51.590361],[-4.277201,51.590345],[-4.277257,51.590329],[-4.277269,51.590312],[-4.277237,51.590295],[-4.277161,51.590276],[-4.27704,51.590256],[-4.276908,51.590252],[-4.276763,51.590262],[-4.276607,51.590288],[-4.276438,51.590329],[-4.276306,51.590347],[-4.276209,51.590344],[-4.276149,51.590318],[-4.276125,51.59027],[-4.276146,51.590226],[-4.276212,51.590187],[-4.276324,51.590151],[-4.276481,51.590119],[-4.276579,51.590073],[-4.276619,51.590015],[-4.276601,51.589943],[-4.276524,51.589858],[-4.276437,51.589797],[-4.276342,51.589759],[-4.276237,51.589744],[-4.276122,51.589753],[-4.275989,51.589788],[-4.275836,51.589851],[-4.275663,51.58994],[-4.275472,51.590056],[-4.275331,51.590178],[-4.275239,51.590305],[-4.275198,51.590438],[-4.275207,51.590577]]]}}