{"type":"Feature","properties":{"id":"263336","COMMUNE":"Swansea","PROVINCE":"Swansea","COUNTRY":"UK","FIREDATE":"2025-03-20 12:14:00","CLASS":"FireSeason","areaHA_geo":17.854},"geometry":{"type":"Polygon","coordinates":[[[-4.139644,51.616263],[-4.139672,51.616305],[-4.139761,51.616327],[-4.13991,51.61633],[-4.14012,51.616314],[-4.140311,51.616285],[-4.140484,51.616244],[-4.140639,51.616189],[-4.140776,51.616122],[-4.14092,51.61604],[-4.141071,51.615944],[-4.141229,51.615834],[-4.141394,51.61571],[-4.141541,51.615584],[-4.141669,51.615456],[-4.141779,51.615326],[-4.14187,51.615195],[-4.142038,51.615061],[-4.142283,51.614923],[-4.142605,51.614783],[-4.143004,51.614639],[-4.143284,51.614513],[-4.143444,51.614405],[-4.143484,51.614315],[-4.143405,51.614243],[-4.143362,51.614177],[-4.143354,51.61412],[-4.143381,51.61407],[-4.143444,51.614027],[-4.143535,51.614006],[-4.143652,51.614006],[-4.143797,51.614027],[-4.143968,51.614069],[-4.14416,51.614078],[-4.144372,51.614054],[-4.144604,51.613997],[-4.144857,51.613906],[-4.144996,51.613814],[-4.145023,51.61372],[-4.144937,51.613626],[-4.144738,51.61353],[-4.144509,51.613498],[-4.144252,51.613531],[-4.143964,51.613629],[-4.143648,51.613791],[-4.143364,51.613934],[-4.143112,51.614058],[-4.142892,51.614163],[-4.142705,51.614249],[-4.142572,51.614296],[-4.142492,51.614304],[-4.142467,51.614273],[-4.142496,51.614203],[-4.14258,51.614112],[-4.142718,51.614001],[-4.142911,51.613868],[-4.143159,51.613715],[-4.143312,51.613595],[-4.143372,51.613508],[-4.143337,51.613456],[-4.143209,51.613437],[-4.143107,51.613436],[-4.143031,51.613455],[-4.142981,51.613493],[-4.142958,51.613549],[-4.142886,51.613583],[-4.142765,51.613595],[-4.142594,51.613584],[-4.142374,51.613551],[-4.142136,51.613513],[-4.14188,51.61347],[-4.141605,51.613422],[-4.141313,51.613369],[-4.141045,51.613321],[-4.140801,51.613278],[-4.140582,51.61324],[-4.140388,51.613207],[-4.140182,51.613176],[-4.139963,51.613147],[-4.139733,51.613121],[-4.13949,51.613097],[-4.139249,51.613073],[-4.139009,51.61305],[-4.138771,51.613028],[-4.138534,51.613006],[-4.138335,51.612995],[-4.138174,51.612994],[-4.138051,51.613004],[-4.137965,51.613024],[-4.137873,51.613044],[-4.137775,51.613064],[-4.13767,51.613083],[-4.137559,51.613103],[-4.137448,51.613105],[-4.137338,51.613088],[-4.137229,51.613054],[-4.13712,51.613],[-4.137024,51.612961],[-4.136942,51.612934],[-4.136873,51.612921],[-4.136817,51.612922],[-4.136735,51.612927],[-4.136629,51.612937],[-4.136497,51.612952],[-4.136339,51.612971],[-4.136209,51.612992],[-4.136107,51.613016],[-4.136032,51.613041],[-4.135985,51.613069],[-4.135924,51.613087],[-4.13585,51.613094],[-4.135762,51.613092],[-4.135661,51.613079],[-4.135548,51.61306],[-4.135422,51.613036],[-4.135285,51.613006],[-4.135136,51.61297],[-4.134987,51.612935],[-4.134838,51.612899],[-4.134689,51.612864],[-4.134539,51.612828],[-4.134379,51.612811],[-4.134208,51.612811],[-4.134026,51.612829],[-4.133834,51.612865],[-4.133641,51.61291],[-4.133448,51.612964],[-4.133256,51.613026],[-4.133064,51.613097],[-4.132895,51.613157],[-4.13275,51.613206],[-4.132628,51.613245],[-4.13253,51.613273],[-4.132411,51.613297],[-4.132271,51.613317],[-4.132112,51.613333],[-4.131932,51.613345],[-4.131763,51.613357],[-4.131606,51.613369],[-4.13146,51.613379],[-4.131325,51.613389],[-4.131214,51.613409],[-4.131126,51.613437],[-4.131061,51.613474],[-4.131019,51.61352],[-4.130972,51.613557],[-4.13092,51.613586],[-4.130862,51.613606],[-4.130799,51.613616],[-4.130741,51.613637],[-4.130686,51.613667],[-4.130637,51.613707],[-4.130591,51.613757],[-4.130593,51.613805],[-4.130644,51.613851],[-4.130742,51.613895],[-4.130888,51.613937],[-4.131,51.61398],[-4.131077,51.614023],[-4.13112,51.614066],[-4.131129,51.614109],[-4.131131,51.614161],[-4.131127,51.614221],[-4.131117,51.61429],[-4.131101,51.614368],[-4.131108,51.614419],[-4.131138,51.614442],[-4.131192,51.614438],[-4.131269,51.614406],[-4.131356,51.614402],[-4.131452,51.614425],[-4.131559,51.614475],[-4.131675,51.614553],[-4.131755,51.614619],[-4.131798,51.614674],[-4.131804,51.614717],[-4.131773,51.614749],[-4.131776,51.614783],[-4.131813,51.614818],[-4.131883,51.614855],[-4.131987,51.614893],[-4.132079,51.614933],[-4.132159,51.614975],[-4.132226,51.61502],[-4.132282,51.615067],[-4.132351,51.61512],[-4.132434,51.615179],[-4.13253,51.615245],[-4.13264,51.615317],[-4.132742,51.615375],[-4.132838,51.615419],[-4.132926,51.615448],[-4.133008,51.615464],[-4.1331,51.615458],[-4.133204,51.615431],[-4.133319,51.615383],[-4.133446,51.615314],[-4.133543,51.615238],[-4.133611,51.615155],[-4.133651,51.615066],[-4.133661,51.61497],[-4.133615,51.614852],[-4.133512,51.614713],[-4.133353,51.614552],[-4.133137,51.61437],[-4.13301,51.614248],[-4.132973,51.614186],[-4.133025,51.614184],[-4.133166,51.614243],[-4.133314,51.614304],[-4.133469,51.614367],[-4.133632,51.614433],[-4.133802,51.614501],[-4.133959,51.614552],[-4.134106,51.614586],[-4.13424,51.614604],[-4.134363,51.614604],[-4.13448,51.61461],[-4.13459,51.61462],[-4.134695,51.614635],[-4.134793,51.614655],[-4.134916,51.614693],[-4.135064,51.614749],[-4.135237,51.614823],[-4.135435,51.614916],[-4.135626,51.615003],[-4.135809,51.615083],[-4.135986,51.615157],[-4.136156,51.615225],[-4.136291,51.615295],[-4.136393,51.615366],[-4.136461,51.615439],[-4.136495,51.615514],[-4.136535,51.615576],[-4.136581,51.615626],[-4.136634,51.615663],[-4.136693,51.615687],[-4.136784,51.615721],[-4.136908,51.615765],[-4.137063,51.615818],[-4.137252,51.61588],[-4.137434,51.615947],[-4.13761,51.616019],[-4.13778,51.616095],[-4.137943,51.616177],[-4.138088,51.616252],[-4.138215,51.616322],[-4.138324,51.616386],[-4.138414,51.616445],[-4.138498,51.61648],[-4.138576,51.616493],[-4.138648,51.616483],[-4.138714,51.616449],[-4.138737,51.616401],[-4.138717,51.616339],[-4.138655,51.616262],[-4.138549,51.616171],[-4.138499,51.616105],[-4.138504,51.616065],[-4.138565,51.61605],[-4.138681,51.616061],[-4.138729,51.61602],[-4.138709,51.615926],[-4.138622,51.615779],[-4.138467,51.61558],[-4.138276,51.615415],[-4.138048,51.615285],[-4.137784,51.615189],[-4.137484,51.615128],[-4.137295,51.615106],[-4.137219,51.615123],[-4.137255,51.615179],[-4.137403,51.615275],[-4.137525,51.615361],[-4.137623,51.615436],[-4.137696,51.6155],[-4.137744,51.615554],[-4.137734,51.615585],[-4.137667,51.615591],[-4.137543,51.615574],[-4.137362,51.615533],[-4.137215,51.615486],[-4.137104,51.615433],[-4.137028,51.615375],[-4.136987,51.61531],[-4.136935,51.615245],[-4.13687,51.615178],[-4.136794,51.615111],[-4.136706,51.615043],[-4.136638,51.614979],[-4.136592,51.61492],[-4.136565,51.614865],[-4.13656,51.614815],[-4.136568,51.614771],[-4.136588,51.614732],[-4.136623,51.614699],[-4.13667,51.614671],[-4.136712,51.614637],[-4.136748,51.614598],[-4.136778,51.614553],[-4.136803,51.614503],[-4.136857,51.614471],[-4.13694,51.614458],[-4.137051,51.614463],[-4.137192,51.614487],[-4.137344,51.614505],[-4.137509,51.614519],[-4.137687,51.614526],[-4.137876,51.614528],[-4.138029,51.614545],[-4.138143,51.614577],[-4.138221,51.614624],[-4.138261,51.614685],[-4.138311,51.614739],[-4.138372,51.614786],[-4.138443,51.614824],[-4.138524,51.614856],[-4.138595,51.614867],[-4.138656,51.614858],[-4.138707,51.614828],[-4.138748,51.614779],[-4.138771,51.614729],[-4.138778,51.614678],[-4.138768,51.614625],[-4.138741,51.614571],[-4.138761,51.614528],[-4.13883,51.614494],[-4.138946,51.61447],[-4.13911,51.614457],[-4.139289,51.614443],[-4.139481,51.614429],[-4.139687,51.614415],[-4.139907,51.614401],[-4.140102,51.614391],[-4.140272,51.614386],[-4.140416,51.614386],[-4.140535,51.61439],[-4.140642,51.614411],[-4.140738,51.614446],[-4.140822,51.614498],[-4.140894,51.614565],[-4.140972,51.614624],[-4.141054,51.614676],[-4.141142,51.614719],[-4.141235,51.614755],[-4.1413,51.614793],[-4.141335,51.614833],[-4.141342,51.614875],[-4.14132,51.614919],[-4.141274,51.614974],[-4.141203,51.615042],[-4.141108,51.61512],[-4.140989,51.615211],[-4.140874,51.615273],[-4.140765,51.615307],[-4.140661,51.615312],[-4.140562,51.61529],[-4.140456,51.615279],[-4.140344,51.61528],[-4.140226,51.615293],[-4.140101,51.615318],[-4.13998,51.615367],[-4.139863,51.615441],[-4.13975,51.615541],[-4.139641,51.615664],[-4.139626,51.615733],[-4.139707,51.615745],[-4.139882,51.615701],[-4.140152,51.615602],[-4.140303,51.615569],[-4.140333,51.615601],[-4.140244,51.6157],[-4.140036,51.615864],[-4.139872,51.616003],[-4.139752,51.616116],[-4.139676,51.616202],[-4.139644,51.616263]]]}}