{"type":"Feature","properties":{"id":"263385","COMMUNE":"Swansea","PROVINCE":"Swansea","COUNTRY":"UK","FIREDATE":"2025-03-08 17:01:27.192","CLASS":"FireSeason","areaHA_geo":1.264},"geometry":{"type":"Polygon","coordinates":[[[-4.256408,51.595238],[-4.256531,51.595257],[-4.25663,51.595255],[-4.256704,51.595232],[-4.256754,51.595187],[-4.256789,51.595148],[-4.256808,51.595115],[-4.256811,51.595087],[-4.2568,51.595064],[-4.25678,51.595046],[-4.256751,51.595033],[-4.256715,51.595024],[-4.25667,51.595019],[-4.256633,51.595006],[-4.256606,51.594983],[-4.256586,51.594951],[-4.256575,51.59491],[-4.256576,51.594871],[-4.256588,51.594834],[-4.256612,51.594799],[-4.256648,51.594766],[-4.256674,51.594731],[-4.256691,51.594692],[-4.256699,51.594649],[-4.256699,51.594604],[-4.256721,51.594558],[-4.256767,51.594512],[-4.256836,51.594464],[-4.256928,51.594416],[-4.257011,51.594395],[-4.257085,51.5944],[-4.257149,51.594431],[-4.257204,51.59449],[-4.257268,51.594534],[-4.257341,51.594565],[-4.257422,51.594582],[-4.257513,51.594585],[-4.257599,51.594565],[-4.257682,51.594523],[-4.257761,51.594459],[-4.257836,51.594372],[-4.257902,51.594294],[-4.25796,51.594225],[-4.25801,51.594165],[-4.258051,51.594115],[-4.258066,51.594072],[-4.258056,51.594035],[-4.25802,51.594006],[-4.257958,51.593984],[-4.257888,51.593961],[-4.257811,51.593936],[-4.257725,51.593911],[-4.257632,51.593884],[-4.257581,51.593859],[-4.257573,51.593835],[-4.257606,51.593813],[-4.257682,51.593792],[-4.257737,51.593769],[-4.257772,51.593743],[-4.257787,51.593713],[-4.257781,51.593682],[-4.257756,51.593657],[-4.25771,51.59364],[-4.257645,51.59363],[-4.25756,51.593628],[-4.257481,51.593637],[-4.257408,51.593657],[-4.257342,51.593689],[-4.257283,51.593732],[-4.257211,51.593772],[-4.257126,51.593811],[-4.257028,51.593848],[-4.256918,51.593883],[-4.256819,51.593925],[-4.256731,51.593975],[-4.256654,51.594032],[-4.256587,51.594097],[-4.256523,51.594142],[-4.25646,51.594166],[-4.256398,51.594171],[-4.256338,51.594156],[-4.256259,51.594173],[-4.256161,51.594224],[-4.256044,51.594307],[-4.255907,51.594423],[-4.255818,51.594522],[-4.255776,51.594603],[-4.255782,51.594668],[-4.255836,51.594715],[-4.255884,51.594772],[-4.255926,51.59484],[-4.255963,51.594918],[-4.255993,51.595006],[-4.256053,51.595082],[-4.256142,51.595146],[-4.25626,51.595198],[-4.256408,51.595238]]]}}