{"type":"Feature","properties":{"id":"263304","COMMUNE":"Swansea","PROVINCE":"Swansea","COUNTRY":"UK","FIREDATE":"2025-03-06 11:38:00","CLASS":"FireSeason","areaHA_geo":31.653},"geometry":{"type":"Polygon","coordinates":[[[-3.951711,51.735942],[-3.951763,51.736008],[-3.951918,51.735956],[-3.952176,51.735786],[-3.952536,51.735498],[-3.952788,51.73524],[-3.952933,51.735011],[-3.952969,51.734812],[-3.952898,51.734643],[-3.952883,51.734508],[-3.952924,51.734409],[-3.953021,51.734345],[-3.953174,51.734315],[-3.953293,51.734265],[-3.953379,51.734193],[-3.953431,51.734101],[-3.95345,51.733987],[-3.953485,51.733927],[-3.953537,51.733921],[-3.953606,51.733969],[-3.953691,51.734069],[-3.953785,51.734094],[-3.953886,51.734043],[-3.953995,51.733916],[-3.954111,51.733713],[-3.954202,51.73353],[-3.954268,51.733366],[-3.954309,51.733223],[-3.954324,51.733098],[-3.954343,51.732974],[-3.954367,51.732849],[-3.954395,51.732723],[-3.954428,51.732597],[-3.954427,51.732452],[-3.954394,51.732289],[-3.954329,51.732108],[-3.95423,51.731909],[-3.954111,51.731729],[-3.95397,51.731567],[-3.953809,51.731426],[-3.953626,51.731303],[-3.953484,51.731195],[-3.953383,51.731102],[-3.953322,51.731023],[-3.953302,51.730958],[-3.953317,51.730876],[-3.953366,51.730775],[-3.953451,51.730657],[-3.95357,51.73052],[-3.953653,51.730355],[-3.9537,51.73016],[-3.953711,51.729936],[-3.953686,51.729684],[-3.953647,51.729385],[-3.953593,51.729041],[-3.953525,51.728652],[-3.953443,51.728217],[-3.953338,51.727824],[-3.95321,51.727472],[-3.953059,51.727163],[-3.952885,51.726894],[-3.95268,51.726744],[-3.952445,51.726711],[-3.952178,51.726796],[-3.951882,51.726998],[-3.951622,51.727232],[-3.951399,51.727498],[-3.951213,51.727796],[-3.951064,51.728125],[-3.950844,51.728415],[-3.950554,51.728667],[-3.950193,51.72888],[-3.949761,51.729054],[-3.949346,51.72921],[-3.948948,51.729346],[-3.948566,51.729464],[-3.948201,51.729564],[-3.947944,51.729664],[-3.947796,51.729765],[-3.947756,51.729868],[-3.947824,51.729971],[-3.947823,51.730098],[-3.947754,51.730251],[-3.947616,51.730429],[-3.94741,51.730632],[-3.947189,51.730833],[-3.946955,51.731034],[-3.946706,51.731233],[-3.946444,51.731432],[-3.946253,51.731596],[-3.946132,51.731728],[-3.946081,51.731825],[-3.946101,51.73189],[-3.946102,51.731948],[-3.946082,51.732],[-3.946043,51.732047],[-3.945983,51.732087],[-3.945884,51.732172],[-3.945744,51.7323],[-3.945563,51.732471],[-3.945342,51.732687],[-3.945183,51.732867],[-3.945084,51.733012],[-3.945047,51.733123],[-3.94507,51.733198],[-3.945191,51.733253],[-3.945409,51.733288],[-3.945724,51.733303],[-3.946137,51.733297],[-3.946474,51.733282],[-3.946736,51.733256],[-3.946923,51.73322],[-3.947035,51.733173],[-3.947166,51.73316],[-3.947316,51.733181],[-3.947486,51.733236],[-3.947676,51.733324],[-3.947885,51.733388],[-3.948114,51.733427],[-3.948362,51.733442],[-3.948629,51.733432],[-3.948864,51.73342],[-3.949067,51.733407],[-3.949238,51.733392],[-3.949376,51.733376],[-3.949561,51.733448],[-3.949792,51.733609],[-3.950068,51.73386],[-3.950391,51.734199],[-3.950664,51.734466],[-3.950887,51.734662],[-3.951061,51.734786],[-3.951185,51.734837],[-3.951308,51.734912],[-3.951428,51.735008],[-3.951546,51.735128],[-3.951663,51.735269],[-3.951737,51.735422],[-3.95177,51.735584],[-3.951762,51.735758],[-3.951711,51.735942]]]}}