{"type":"Feature","properties":{"id":"263378","COMMUNE":"Swansea","PROVINCE":"Swansea","COUNTRY":"UK","FIREDATE":"2025-03-08 16:59:37.533","CLASS":"FireSeason","areaHA_geo":2.055},"geometry":{"type":"Polygon","coordinates":[[[-4.275752,51.591728],[-4.275684,51.591597],[-4.275603,51.59149],[-4.275509,51.591407],[-4.275403,51.591349],[-4.275283,51.591315],[-4.275151,51.59126],[-4.275005,51.591184],[-4.274846,51.591088],[-4.274674,51.590972],[-4.274511,51.590871],[-4.274357,51.590788],[-4.274212,51.590721],[-4.274076,51.590671],[-4.273934,51.590634],[-4.273788,51.59061],[-4.273636,51.5906],[-4.273478,51.590603],[-4.273345,51.590616],[-4.273235,51.590638],[-4.273148,51.590671],[-4.273086,51.590713],[-4.273028,51.590751],[-4.272974,51.590786],[-4.272925,51.590817],[-4.272881,51.590844],[-4.27283,51.590875],[-4.272773,51.590909],[-4.272708,51.590947],[-4.272636,51.590989],[-4.272569,51.59103],[-4.272505,51.59107],[-4.272446,51.59111],[-4.272391,51.59115],[-4.272361,51.591205],[-4.272354,51.591277],[-4.272372,51.591364],[-4.272414,51.591468],[-4.272462,51.591557],[-4.272516,51.591631],[-4.272577,51.59169],[-4.272644,51.591734],[-4.272712,51.591765],[-4.27278,51.591781],[-4.272848,51.591783],[-4.272918,51.59177],[-4.272978,51.591731],[-4.27303,51.591664],[-4.273073,51.591569],[-4.273107,51.591447],[-4.27315,51.591368],[-4.2732,51.591332],[-4.273258,51.591338],[-4.273323,51.591388],[-4.273395,51.591445],[-4.273472,51.591508],[-4.273555,51.591578],[-4.273644,51.591654],[-4.273729,51.591717],[-4.273809,51.591768],[-4.273886,51.591806],[-4.273958,51.591832],[-4.274059,51.591842],[-4.274186,51.591839],[-4.274341,51.59182],[-4.274524,51.591786],[-4.274727,51.591773],[-4.274951,51.59178],[-4.275195,51.591807],[-4.275459,51.591854],[-4.27564,51.591857],[-4.275738,51.591815],[-4.275752,51.591728]]]}}