{"type":"Feature","properties":{"id":"263346","COMMUNE":"Swansea","PROVINCE":"Swansea","COUNTRY":"UK","FIREDATE":"2025-03-21 03:23:00","FINALDATE":"2025-03-21 03:47:00","CLASS":"FireSeason","areaHA_geo":49.257},"geometry":{"type":"Polygon","coordinates":[[[-4.052086,51.614627],[-4.052396,51.614647],[-4.052693,51.61468],[-4.05298,51.614728],[-4.053254,51.61479],[-4.053517,51.614866],[-4.053736,51.614909],[-4.053909,51.61492],[-4.054037,51.614897],[-4.054121,51.614841],[-4.054193,51.614801],[-4.054255,51.614777],[-4.054305,51.614768],[-4.054344,51.614775],[-4.05437,51.614808],[-4.054385,51.614869],[-4.054387,51.614957],[-4.054377,51.615072],[-4.054474,51.615188],[-4.054676,51.615306],[-4.054985,51.615425],[-4.0554,51.615546],[-4.055809,51.615647],[-4.056211,51.615729],[-4.056608,51.615792],[-4.056999,51.615835],[-4.05738,51.615879],[-4.057753,51.615922],[-4.058115,51.615965],[-4.058469,51.616007],[-4.0588,51.616042],[-4.059107,51.61607],[-4.059392,51.616091],[-4.059654,51.616105],[-4.059892,51.616109],[-4.060106,51.616103],[-4.060296,51.616087],[-4.060463,51.616061],[-4.060641,51.616034],[-4.060829,51.616005],[-4.061029,51.615975],[-4.06124,51.615944],[-4.061404,51.615897],[-4.061523,51.615834],[-4.061594,51.615756],[-4.06162,51.615662],[-4.061659,51.615596],[-4.061712,51.615558],[-4.061778,51.615549],[-4.061857,51.615568],[-4.061942,51.615603],[-4.062032,51.615655],[-4.062127,51.615723],[-4.062227,51.615807],[-4.062356,51.615846],[-4.062514,51.615838],[-4.062702,51.615784],[-4.062919,51.615683],[-4.063129,51.615578],[-4.063334,51.615468],[-4.063532,51.615353],[-4.063724,51.615233],[-4.063901,51.615115],[-4.064062,51.614998],[-4.064207,51.614884],[-4.064337,51.614772],[-4.064462,51.614664],[-4.064582,51.614561],[-4.064696,51.614463],[-4.064804,51.614371],[-4.064898,51.61428],[-4.064975,51.61419],[-4.065038,51.614103],[-4.065084,51.614018],[-4.065124,51.613932],[-4.065156,51.613846],[-4.065182,51.613759],[-4.0652,51.613671],[-4.065244,51.613612],[-4.065312,51.613581],[-4.065405,51.613578],[-4.065524,51.613603],[-4.065615,51.613595],[-4.06568,51.613553],[-4.065719,51.613477],[-4.06573,51.613368],[-4.065776,51.613274],[-4.065858,51.613196],[-4.065974,51.613133],[-4.066124,51.613086],[-4.066281,51.613029],[-4.066443,51.612961],[-4.066612,51.612882],[-4.066786,51.612793],[-4.066975,51.612693],[-4.06718,51.612583],[-4.067399,51.612462],[-4.067634,51.612331],[-4.06782,51.612215],[-4.067958,51.612113],[-4.068048,51.612025],[-4.068089,51.611952],[-4.068157,51.611882],[-4.068251,51.611817],[-4.068372,51.611755],[-4.068519,51.611697],[-4.068705,51.611617],[-4.06893,51.611512],[-4.069193,51.611385],[-4.069495,51.611235],[-4.069699,51.611109],[-4.069805,51.611008],[-4.069814,51.610931],[-4.069724,51.61088],[-4.069679,51.61081],[-4.069679,51.610722],[-4.069723,51.610615],[-4.069813,51.61049],[-4.069854,51.61036],[-4.069849,51.610224],[-4.069795,51.610083],[-4.069693,51.609936],[-4.069594,51.609804],[-4.069498,51.609688],[-4.069404,51.609587],[-4.069313,51.609501],[-4.069221,51.60942],[-4.069128,51.609343],[-4.069033,51.60927],[-4.068938,51.609202],[-4.068857,51.609125],[-4.068788,51.60904],[-4.068734,51.608946],[-4.068692,51.608842],[-4.068643,51.608753],[-4.068587,51.608677],[-4.068524,51.608615],[-4.068453,51.608567],[-4.068379,51.608542],[-4.0683,51.60854],[-4.068217,51.608561],[-4.06813,51.608606],[-4.068054,51.608655],[-4.067988,51.608709],[-4.067933,51.608767],[-4.067888,51.608829],[-4.067819,51.60888],[-4.067726,51.60892],[-4.067608,51.608948],[-4.067466,51.608966],[-4.067338,51.608967],[-4.067223,51.608952],[-4.067122,51.608922],[-4.067034,51.608876],[-4.066941,51.608843],[-4.066843,51.608824],[-4.06674,51.608818],[-4.066632,51.608825],[-4.066552,51.608879],[-4.066501,51.608979],[-4.066478,51.609125],[-4.066483,51.609318],[-4.066465,51.609456],[-4.066421,51.609538],[-4.066354,51.609564],[-4.066262,51.609536],[-4.066191,51.609476],[-4.066139,51.609386],[-4.066108,51.609264],[-4.066097,51.609112],[-4.066073,51.609029],[-4.066037,51.609017],[-4.065988,51.609074],[-4.065927,51.609201],[-4.065826,51.609297],[-4.065686,51.609362],[-4.065506,51.609397],[-4.065287,51.609401],[-4.065124,51.609433],[-4.06502,51.609494],[-4.064972,51.609584],[-4.064982,51.609703],[-4.065002,51.609811],[-4.065033,51.60991],[-4.065075,51.609999],[-4.065127,51.610078],[-4.065178,51.610145],[-4.065228,51.610202],[-4.065277,51.610247],[-4.065324,51.610281],[-4.065401,51.610312],[-4.065506,51.610339],[-4.06564,51.610362],[-4.065802,51.610383],[-4.065911,51.610406],[-4.065966,51.610434],[-4.065966,51.610465],[-4.065913,51.6105],[-4.065829,51.610527],[-4.065716,51.610547],[-4.065573,51.610558],[-4.065399,51.610562],[-4.065245,51.610592],[-4.065111,51.610649],[-4.064997,51.610731],[-4.064902,51.610839],[-4.064821,51.610937],[-4.064752,51.611025],[-4.064696,51.611103],[-4.064653,51.611171],[-4.064633,51.611232],[-4.064636,51.611285],[-4.064662,51.611332],[-4.064711,51.611371],[-4.064743,51.611415],[-4.064758,51.611461],[-4.064755,51.611511],[-4.064735,51.611565],[-4.064694,51.611608],[-4.064631,51.611642],[-4.064546,51.611665],[-4.06444,51.611678],[-4.064304,51.611705],[-4.064138,51.611748],[-4.063942,51.611806],[-4.063717,51.611879],[-4.063584,51.611946],[-4.063544,51.612008],[-4.063596,51.612064],[-4.063741,51.612115],[-4.063924,51.612171],[-4.064146,51.612233],[-4.064406,51.612299],[-4.064704,51.612371],[-4.064866,51.612448],[-4.064892,51.61253],[-4.064782,51.612618],[-4.064535,51.61271],[-4.064308,51.612756],[-4.064101,51.612756],[-4.063914,51.612709],[-4.063746,51.612615],[-4.063553,51.612526],[-4.063333,51.612442],[-4.063088,51.612362],[-4.062816,51.612287],[-4.062557,51.612225],[-4.062311,51.612175],[-4.062079,51.612138],[-4.06186,51.612113],[-4.061665,51.6121],[-4.061494,51.612098],[-4.061348,51.612107],[-4.061225,51.612127],[-4.0611,51.612117],[-4.060972,51.612076],[-4.060842,51.612003],[-4.060708,51.6119],[-4.06055,51.611842],[-4.060367,51.61183],[-4.060159,51.611864],[-4.059926,51.611943],[-4.059788,51.611926],[-4.059743,51.611812],[-4.059791,51.611601],[-4.059933,51.611294],[-4.060071,51.610993],[-4.060203,51.610698],[-4.060331,51.610409],[-4.060454,51.610127],[-4.060477,51.609886],[-4.060401,51.609688],[-4.060225,51.609531],[-4.05995,51.609417],[-4.059712,51.609363],[-4.059512,51.60937],[-4.05935,51.609438],[-4.059225,51.609567],[-4.059081,51.609666],[-4.058919,51.609734],[-4.058738,51.609772],[-4.058538,51.609779],[-4.058381,51.609801],[-4.058269,51.609837],[-4.0582,51.609888],[-4.058174,51.609954],[-4.058117,51.610019],[-4.058027,51.610084],[-4.057905,51.610149],[-4.05775,51.610213],[-4.057635,51.610284],[-4.057558,51.610361],[-4.05752,51.610446],[-4.057521,51.610537],[-4.057527,51.610651],[-4.057538,51.610789],[-4.057555,51.610951],[-4.057576,51.611136],[-4.057555,51.611296],[-4.057492,51.611432],[-4.057387,51.611543],[-4.057239,51.611629],[-4.057109,51.611696],[-4.056995,51.611744],[-4.056898,51.611773],[-4.056819,51.611783],[-4.056715,51.611818],[-4.056587,51.611879],[-4.056435,51.611966],[-4.056259,51.612078],[-4.056061,51.61218],[-4.055842,51.612272],[-4.055601,51.612354],[-4.055338,51.612426],[-4.055123,51.612495],[-4.054956,51.612561],[-4.054835,51.612624],[-4.054762,51.612684],[-4.054652,51.612735],[-4.054505,51.612779],[-4.05432,51.612814],[-4.054099,51.612841],[-4.053881,51.612864],[-4.053667,51.612885],[-4.053456,51.612902],[-4.053249,51.612916],[-4.053047,51.61294],[-4.052852,51.612975],[-4.052661,51.613021],[-4.052477,51.613077],[-4.05233,51.613151],[-4.05222,51.613241],[-4.052148,51.613348],[-4.052113,51.613471],[-4.052041,51.613591],[-4.05193,51.613707],[-4.051781,51.613819],[-4.051595,51.613927],[-4.051477,51.614021],[-4.051429,51.614101],[-4.051449,51.614167],[-4.051539,51.614218],[-4.051603,51.614276],[-4.051642,51.61434],[-4.051654,51.614409],[-4.051641,51.614485],[-4.051709,51.614546],[-4.051857,51.614594],[-4.052086,51.614627]]]}}