{"type":"Feature","properties":{"id":"263327","COMMUNE":"Carmarthenshire","PROVINCE":"South West Wales","COUNTRY":"UK","FIREDATE":"2025-03-16 02:00:00","CLASS":"FireSeason","areaHA_geo":191.619},"geometry":{"type":"Polygon","coordinates":[[[-3.907605,51.841065],[-3.907708,51.84117],[-3.907855,51.841242],[-3.908048,51.84128],[-3.908287,51.841284],[-3.908474,51.841304],[-3.908611,51.84134],[-3.908697,51.841393],[-3.908731,51.841462],[-3.908848,51.841478],[-3.909048,51.841442],[-3.90933,51.841354],[-3.909694,51.841213],[-3.909985,51.841122],[-3.910203,51.841079],[-3.910347,51.841086],[-3.910417,51.841143],[-3.910512,51.841193],[-3.91063,51.841235],[-3.910773,51.841271],[-3.91094,51.8413],[-3.911079,51.841299],[-3.911188,51.84127],[-3.911269,51.841212],[-3.91132,51.841124],[-3.911386,51.841082],[-3.911466,51.841085],[-3.91156,51.841132],[-3.911668,51.841225],[-3.911805,51.841282],[-3.911969,51.841302],[-3.912162,51.841287],[-3.912383,51.841237],[-3.91256,51.841159],[-3.912692,51.841054],[-3.912779,51.840922],[-3.912821,51.840762],[-3.912876,51.840685],[-3.912943,51.840689],[-3.913023,51.840775],[-3.913115,51.840942],[-3.913225,51.841063],[-3.913354,51.841137],[-3.913501,51.841164],[-3.913666,51.841144],[-3.913844,51.841115],[-3.914036,51.841076],[-3.914242,51.841027],[-3.914461,51.840968],[-3.914663,51.84094],[-3.914848,51.840942],[-3.915016,51.840975],[-3.915168,51.841038],[-3.915276,51.841057],[-3.915341,51.841033],[-3.915363,51.840966],[-3.915341,51.840855],[-3.915368,51.840785],[-3.915445,51.840755],[-3.91557,51.840767],[-3.915745,51.840819],[-3.915854,51.840822],[-3.915899,51.840776],[-3.915879,51.840681],[-3.915795,51.840537],[-3.915689,51.840432],[-3.915563,51.840366],[-3.915416,51.840339],[-3.915249,51.84035],[-3.91513,51.840318],[-3.91506,51.840241],[-3.915038,51.84012],[-3.915065,51.839954],[-3.915202,51.83978],[-3.915447,51.839596],[-3.915802,51.839404],[-3.916266,51.839202],[-3.916568,51.839095],[-3.916709,51.839082],[-3.916689,51.839164],[-3.916507,51.83934],[-3.916463,51.839517],[-3.916559,51.839697],[-3.916794,51.839878],[-3.917167,51.84006],[-3.917436,51.840213],[-3.9176,51.840335],[-3.917658,51.840428],[-3.917612,51.84049],[-3.917588,51.840562],[-3.917587,51.840643],[-3.917609,51.840734],[-3.917654,51.840834],[-3.917707,51.840929],[-3.917768,51.841019],[-3.917837,51.841104],[-3.917915,51.841184],[-3.917947,51.841255],[-3.917934,51.841318],[-3.917875,51.841372],[-3.917771,51.841417],[-3.917651,51.841455],[-3.917516,51.841488],[-3.917366,51.841514],[-3.917201,51.841533],[-3.917095,51.841562],[-3.917047,51.8416],[-3.917059,51.841648],[-3.917129,51.841704],[-3.917221,51.841754],[-3.917333,51.841798],[-3.917467,51.841834],[-3.917621,51.841865],[-3.917744,51.841919],[-3.917834,51.841997],[-3.917893,51.8421],[-3.917919,51.842227],[-3.917926,51.842333],[-3.917914,51.84242],[-3.917882,51.842487],[-3.917831,51.842534],[-3.917789,51.842579],[-3.917757,51.842624],[-3.917734,51.842667],[-3.917721,51.842709],[-3.917769,51.842736],[-3.917878,51.842747],[-3.918048,51.842743],[-3.918279,51.842723],[-3.918465,51.842717],[-3.918606,51.842725],[-3.918701,51.842746],[-3.918752,51.842781],[-3.918776,51.842814],[-3.918773,51.842847],[-3.918743,51.842879],[-3.918687,51.84291],[-3.918637,51.842951],[-3.918593,51.843],[-3.918556,51.84306],[-3.918525,51.843128],[-3.918558,51.843183],[-3.918657,51.843224],[-3.91882,51.843251],[-3.919049,51.843265],[-3.919263,51.843235],[-3.919464,51.843162],[-3.919652,51.843046],[-3.919826,51.842887],[-3.920005,51.842763],[-3.920187,51.842672],[-3.920374,51.842615],[-3.920564,51.842592],[-3.920708,51.842547],[-3.920805,51.842478],[-3.920856,51.842387],[-3.920859,51.842273],[-3.920898,51.842185],[-3.920971,51.842124],[-3.921078,51.842088],[-3.92122,51.84208],[-3.921373,51.842063],[-3.921537,51.84204],[-3.921712,51.842009],[-3.921898,51.84197],[-3.922045,51.841957],[-3.922154,51.841968],[-3.922225,51.842004],[-3.922257,51.842065],[-3.922343,51.842098],[-3.922482,51.842101],[-3.922676,51.842076],[-3.922922,51.842022],[-3.92311,51.842],[-3.923238,51.842009],[-3.923306,51.842049],[-3.923316,51.842121],[-3.923366,51.842166],[-3.923457,51.842183],[-3.923589,51.842174],[-3.923762,51.842137],[-3.923907,51.842073],[-3.924023,51.841982],[-3.924111,51.841864],[-3.924171,51.841719],[-3.92424,51.841591],[-3.924317,51.84148],[-3.924403,51.841386],[-3.924498,51.84131],[-3.924595,51.841221],[-3.924695,51.84112],[-3.924798,51.841006],[-3.924903,51.84088],[-3.925021,51.840805],[-3.925152,51.840781],[-3.925296,51.840809],[-3.925453,51.840888],[-3.925612,51.840933],[-3.925774,51.840947],[-3.925939,51.840927],[-3.926107,51.840874],[-3.926297,51.840839],[-3.926509,51.840822],[-3.926743,51.840822],[-3.926999,51.840841],[-3.927189,51.840824],[-3.927311,51.840773],[-3.927366,51.840687],[-3.927355,51.840567],[-3.927381,51.840462],[-3.927446,51.840373],[-3.927548,51.8403],[-3.927688,51.840243],[-3.927817,51.840211],[-3.927933,51.840205],[-3.928039,51.840225],[-3.928132,51.840271],[-3.928202,51.840336],[-3.928248,51.840419],[-3.92827,51.840522],[-3.928269,51.840644],[-3.928285,51.840727],[-3.928319,51.840772],[-3.92837,51.840778],[-3.928439,51.840745],[-3.928616,51.840617],[-3.928901,51.840392],[-3.929295,51.840071],[-3.929796,51.839654],[-3.930157,51.839322],[-3.930377,51.839077],[-3.930455,51.838917],[-3.930392,51.838844],[-3.930347,51.838764],[-3.93032,51.838678],[-3.930311,51.838586],[-3.93032,51.838487],[-3.930275,51.838375],[-3.930176,51.838249],[-3.930023,51.838109],[-3.929817,51.837955],[-3.929776,51.837824],[-3.9299,51.837716],[-3.930189,51.83763],[-3.930644,51.837568],[-3.931101,51.837239],[-3.93156,51.836644],[-3.932021,51.835784],[-3.932485,51.834657],[-3.93301,51.833853],[-3.933597,51.833373],[-3.934246,51.833216],[-3.934957,51.833383],[-3.935609,51.83357],[-3.936202,51.83378],[-3.936736,51.83401],[-3.93721,51.834262],[-3.9377,51.834343],[-3.938206,51.834254],[-3.938727,51.833995],[-3.939264,51.833565],[-3.939703,51.83321],[-3.940043,51.83293],[-3.940285,51.832724],[-3.940429,51.832594],[-3.940519,51.832471],[-3.940555,51.832357],[-3.940539,51.832252],[-3.940469,51.832155],[-3.940419,51.832069],[-3.940389,51.831996],[-3.940379,51.831934],[-3.94039,51.831884],[-3.940237,51.831795],[-3.93992,51.831666],[-3.939439,51.831499],[-3.938794,51.831292],[-3.938182,51.831103],[-3.937601,51.830933],[-3.937053,51.830782],[-3.936537,51.830649],[-3.935964,51.830429],[-3.935334,51.830123],[-3.934648,51.829731],[-3.933905,51.829251],[-3.93327,51.828855],[-3.932743,51.82854],[-3.932324,51.828308],[-3.932014,51.828159],[-3.931666,51.827973],[-3.93128,51.827752],[-3.930856,51.827494],[-3.930395,51.8272],[-3.930009,51.826954],[-3.929696,51.826756],[-3.929458,51.826606],[-3.929294,51.826504],[-3.929085,51.82633],[-3.92883,51.826085],[-3.92853,51.825767],[-3.928184,51.825379],[-3.927742,51.825042],[-3.927205,51.824757],[-3.926572,51.824525],[-3.925844,51.824344],[-3.92517,51.824179],[-3.92455,51.82403],[-3.923984,51.823897],[-3.923473,51.823779],[-3.92301,51.823666],[-3.922594,51.823558],[-3.922225,51.823454],[-3.921904,51.823354],[-3.921612,51.823273],[-3.921349,51.823212],[-3.921115,51.823169],[-3.92091,51.823144],[-3.920677,51.823168],[-3.920416,51.82324],[-3.920127,51.82336],[-3.919811,51.823527],[-3.919537,51.823629],[-3.919304,51.823665],[-3.919114,51.823635],[-3.918965,51.823539],[-3.918787,51.823498],[-3.918581,51.82351],[-3.918345,51.823577],[-3.91808,51.823698],[-3.917832,51.823821],[-3.917601,51.823946],[-3.917387,51.824073],[-3.91719,51.824202],[-3.916986,51.824328],[-3.916774,51.824451],[-3.916555,51.82457],[-3.916328,51.824687],[-3.916138,51.824807],[-3.915986,51.82493],[-3.915871,51.825058],[-3.915794,51.825189],[-3.915704,51.825301],[-3.915601,51.825394],[-3.915486,51.825469],[-3.915359,51.825525],[-3.915264,51.825589],[-3.915201,51.825661],[-3.91517,51.825742],[-3.915171,51.825831],[-3.915188,51.825927],[-3.91522,51.826028],[-3.915267,51.826136],[-3.915329,51.826251],[-3.915359,51.826355],[-3.915355,51.826449],[-3.915319,51.826532],[-3.915249,51.826605],[-3.915221,51.826684],[-3.915234,51.826767],[-3.915288,51.826856],[-3.915384,51.82695],[-3.915493,51.826982],[-3.915615,51.826951],[-3.91575,51.826858],[-3.915899,51.826702],[-3.916018,51.826556],[-3.916107,51.82642],[-3.916166,51.826293],[-3.916195,51.826176],[-3.9163,51.82608],[-3.916481,51.826006],[-3.916738,51.825953],[-3.91707,51.825921],[-3.917346,51.825908],[-3.917566,51.825914],[-3.917728,51.82594],[-3.917834,51.825984],[-3.917888,51.82603],[-3.91789,51.826078],[-3.91784,51.826129],[-3.917738,51.826182],[-3.917646,51.826246],[-3.917564,51.82632],[-3.917492,51.826406],[-3.91743,51.826503],[-3.917374,51.826587],[-3.917324,51.826657],[-3.91728,51.826716],[-3.917241,51.826761],[-3.917178,51.826801],[-3.91709,51.826836],[-3.916978,51.826865],[-3.91684,51.82689],[-3.91671,51.826926],[-3.916586,51.826973],[-3.91647,51.827032],[-3.91636,51.827101],[-3.916287,51.827175],[-3.916252,51.827252],[-3.916255,51.827333],[-3.916294,51.827418],[-3.916363,51.827468],[-3.91646,51.827485],[-3.916587,51.827468],[-3.916742,51.827417],[-3.91692,51.827363],[-3.917119,51.827307],[-3.917341,51.827248],[-3.917585,51.827186],[-3.91777,51.827164],[-3.917894,51.827182],[-3.917958,51.827239],[-3.917962,51.827336],[-3.917991,51.82742],[-3.918046,51.82749],[-3.918127,51.827548],[-3.918233,51.827592],[-3.918347,51.827556],[-3.918468,51.82744],[-3.918598,51.827244],[-3.918735,51.826968],[-3.918861,51.826778],[-3.918973,51.826675],[-3.919074,51.826659],[-3.919162,51.82673],[-3.919256,51.826778],[-3.919355,51.826802],[-3.919461,51.826804],[-3.919573,51.826782],[-3.919694,51.826788],[-3.919823,51.826821],[-3.91996,51.826882],[-3.920106,51.82697],[-3.920295,51.827035],[-3.920525,51.827076],[-3.920797,51.827094],[-3.921112,51.827089],[-3.921371,51.827127],[-3.921574,51.827208],[-3.921722,51.827333],[-3.921814,51.8275],[-3.921879,51.827645],[-3.921917,51.827766],[-3.921928,51.827864],[-3.921912,51.827939],[-3.921962,51.828014],[-3.922078,51.82809],[-3.92226,51.828165],[-3.922507,51.828241],[-3.922687,51.828321],[-3.922799,51.828405],[-3.922843,51.828493],[-3.92282,51.828585],[-3.922827,51.828674],[-3.922867,51.828758],[-3.922939,51.828839],[-3.923042,51.828916],[-3.923106,51.828993],[-3.92313,51.829072],[-3.923115,51.829151],[-3.923061,51.82923],[-3.923036,51.829298],[-3.923041,51.829354],[-3.923075,51.829399],[-3.923138,51.829432],[-3.923248,51.829417],[-3.923406,51.829353],[-3.923612,51.829241],[-3.923864,51.829081],[-3.924186,51.828964],[-3.924578,51.828888],[-3.925039,51.828856],[-3.925569,51.828865],[-3.925995,51.828861],[-3.926319,51.828842],[-3.926539,51.82881],[-3.926657,51.828763],[-3.92677,51.828726],[-3.926879,51.828696],[-3.926985,51.828675],[-3.927086,51.828663],[-3.927314,51.828602],[-3.927668,51.82849],[-3.928148,51.828329],[-3.928754,51.828119],[-3.929282,51.827999],[-3.929734,51.827969],[-3.930109,51.82803],[-3.930407,51.828181],[-3.930588,51.828329],[-3.930654,51.828476],[-3.930604,51.82862],[-3.930437,51.828761],[-3.930322,51.828887],[-3.930257,51.828996],[-3.930244,51.829089],[-3.930281,51.829166],[-3.930238,51.829238],[-3.930114,51.829305],[-3.92991,51.829368],[-3.929625,51.829427],[-3.929376,51.829505],[-3.929163,51.829604],[-3.928986,51.829722],[-3.928845,51.829861],[-3.928719,51.830004],[-3.928607,51.830151],[-3.92851,51.830303],[-3.928427,51.830459],[-3.928405,51.830598],[-3.928443,51.830719],[-3.928541,51.830823],[-3.9287,51.830909],[-3.928807,51.830998],[-3.928862,51.831089],[-3.928865,51.831182],[-3.928815,51.831277],[-3.928745,51.831358],[-3.928655,51.831426],[-3.928543,51.83148],[-3.928411,51.83152],[-3.92826,51.831577],[-3.928092,51.83165],[-3.927906,51.831739],[-3.927702,51.831844],[-3.927467,51.831966],[-3.9272,51.832103],[-3.926902,51.832257],[-3.926573,51.832426],[-3.926285,51.832588],[-3.926037,51.832744],[-3.92583,51.832892],[-3.925664,51.833034],[-3.925474,51.833122],[-3.925261,51.833155],[-3.925024,51.833135],[-3.924763,51.83306],[-3.924609,51.832979],[-3.924562,51.832892],[-3.924621,51.832797],[-3.924787,51.832696],[-3.924918,51.832598],[-3.925013,51.832501],[-3.925072,51.832407],[-3.925096,51.832315],[-3.925069,51.832241],[-3.924992,51.832185],[-3.924865,51.832147],[-3.924688,51.832128],[-3.924547,51.832129],[-3.924441,51.832149],[-3.924372,51.83219],[-3.924338,51.832251],[-3.924283,51.832329],[-3.924207,51.832423],[-3.92411,51.832534],[-3.923992,51.832662],[-3.923872,51.832761],[-3.92375,51.832833],[-3.923625,51.832876],[-3.923498,51.832891],[-3.923389,51.83288],[-3.923298,51.832842],[-3.923225,51.832778],[-3.92317,51.832687],[-3.923082,51.832647],[-3.92296,51.832657],[-3.922805,51.832718],[-3.922616,51.83283],[-3.922468,51.832927],[-3.922362,51.833009],[-3.922297,51.833075],[-3.922274,51.833127],[-3.922219,51.833182],[-3.922132,51.833241],[-3.922013,51.833304],[-3.921863,51.833371],[-3.921709,51.833446],[-3.92155,51.83353],[-3.921388,51.833622],[-3.921222,51.833723],[-3.92106,51.833826],[-3.920902,51.83393],[-3.920747,51.834036],[-3.920596,51.834143],[-3.920424,51.834255],[-3.92023,51.834372],[-3.920014,51.834493],[-3.919777,51.834619],[-3.919563,51.834736],[-3.919373,51.834843],[-3.919206,51.834943],[-3.919063,51.835033],[-3.918918,51.835137],[-3.918771,51.835256],[-3.918622,51.83539],[-3.918471,51.835538],[-3.918307,51.835679],[-3.918132,51.835814],[-3.917945,51.835942],[-3.917746,51.836063],[-3.917566,51.836141],[-3.917406,51.836176],[-3.917265,51.836169],[-3.917144,51.836118],[-3.917067,51.836061],[-3.917033,51.835996],[-3.917043,51.835924],[-3.917097,51.835844],[-3.917181,51.835753],[-3.917294,51.83565],[-3.917436,51.835536],[-3.917607,51.83541],[-3.917725,51.835312],[-3.917789,51.835244],[-3.917799,51.835204],[-3.917756,51.835193],[-3.917652,51.835228],[-3.917486,51.835308],[-3.917259,51.835435],[-3.916971,51.835608],[-3.916734,51.835745],[-3.916549,51.835849],[-3.916415,51.835917],[-3.916334,51.835952],[-3.916251,51.83598],[-3.916165,51.836002],[-3.916078,51.836019],[-3.915989,51.836029],[-3.915871,51.836031],[-3.915724,51.836024],[-3.915548,51.836009],[-3.915343,51.835985],[-3.915133,51.835955],[-3.914917,51.83592],[-3.914697,51.835879],[-3.914472,51.835833],[-3.914225,51.835814],[-3.913958,51.835822],[-3.913669,51.835856],[-3.913359,51.835918],[-3.913066,51.836003],[-3.912791,51.836113],[-3.912533,51.836248],[-3.912293,51.836406],[-3.912078,51.836552],[-3.911889,51.836684],[-3.911725,51.836803],[-3.911587,51.836908],[-3.911474,51.836946],[-3.911385,51.836916],[-3.911322,51.836818],[-3.911283,51.836653],[-3.91118,51.836535],[-3.911014,51.836466],[-3.910783,51.836445],[-3.910488,51.836472],[-3.910245,51.836527],[-3.910054,51.836611],[-3.909915,51.836723],[-3.909827,51.836863],[-3.909735,51.837],[-3.909638,51.837133],[-3.909537,51.837263],[-3.909432,51.837389],[-3.90933,51.837495],[-3.909231,51.83758],[-3.909136,51.837644],[-3.909044,51.837687],[-3.908926,51.83774],[-3.90878,51.837802],[-3.908608,51.837873],[-3.908409,51.837954],[-3.908205,51.838049],[-3.907996,51.838159],[-3.907782,51.838284],[-3.907562,51.838424],[-3.907344,51.83857],[-3.907128,51.838722],[-3.906914,51.838879],[-3.906702,51.839042],[-3.906592,51.839167],[-3.906586,51.839253],[-3.906683,51.8393],[-3.906884,51.839309],[-3.907047,51.839326],[-3.907174,51.839351],[-3.907264,51.839385],[-3.907316,51.839428],[-3.907426,51.839431],[-3.907593,51.839395],[-3.907816,51.839319],[-3.908096,51.839204],[-3.908332,51.839093],[-3.908522,51.838985],[-3.908667,51.838881],[-3.908767,51.838779],[-3.908902,51.838696],[-3.909073,51.838631],[-3.909279,51.838584],[-3.90952,51.838555],[-3.909638,51.838582],[-3.90963,51.838664],[-3.909499,51.838802],[-3.909243,51.838994],[-3.90904,51.839157],[-3.90889,51.839288],[-3.908793,51.839389],[-3.908749,51.839459],[-3.908684,51.839554],[-3.908596,51.839674],[-3.908487,51.839819],[-3.908355,51.839989],[-3.908214,51.840146],[-3.908061,51.84029],[-3.907898,51.840421],[-3.907724,51.840539],[-3.907608,51.840663],[-3.907549,51.840792],[-3.907548,51.840926],[-3.907605,51.841065]]]}}