{"type":"Feature","properties":{"id":"263356","COMMUNE":"Swansea","PROVINCE":"Swansea","COUNTRY":"UK","FIREDATE":"2025-03-08 16:53:27.69","CLASS":"FireSeason","areaHA_geo":35.963},"geometry":{"type":"Polygon","coordinates":[[[-4.179837,51.595428],[-4.180048,51.595351],[-4.180136,51.59523],[-4.180101,51.595065],[-4.179943,51.594857],[-4.179707,51.594676],[-4.179394,51.594522],[-4.179004,51.594396],[-4.178536,51.594296],[-4.178103,51.594189],[-4.177704,51.594075],[-4.177341,51.593952],[-4.177012,51.593821],[-4.176796,51.593702],[-4.176693,51.593594],[-4.176702,51.593496],[-4.176824,51.59341],[-4.176959,51.593373],[-4.177106,51.593383],[-4.177265,51.593442],[-4.177437,51.593549],[-4.17761,51.593624],[-4.177784,51.593666],[-4.17796,51.593677],[-4.178137,51.593655],[-4.178274,51.593624],[-4.17837,51.593584],[-4.178426,51.593534],[-4.178442,51.593476],[-4.178485,51.593412],[-4.178555,51.593343],[-4.178652,51.593269],[-4.178776,51.593189],[-4.178876,51.593051],[-4.178951,51.592853],[-4.179002,51.592596],[-4.179028,51.59228],[-4.178975,51.592021],[-4.178842,51.591821],[-4.17863,51.591678],[-4.178339,51.591592],[-4.178114,51.591506],[-4.177954,51.591419],[-4.17786,51.591331],[-4.177832,51.591242],[-4.177771,51.591178],[-4.177679,51.59114],[-4.177554,51.591127],[-4.177397,51.591139],[-4.177292,51.591116],[-4.177239,51.591058],[-4.177239,51.590966],[-4.17729,51.590839],[-4.177242,51.590715],[-4.177095,51.590594],[-4.176848,51.590477],[-4.176502,51.590363],[-4.176216,51.590314],[-4.175992,51.590331],[-4.175828,51.590413],[-4.175726,51.590561],[-4.175638,51.590637],[-4.175565,51.590643],[-4.175507,51.590577],[-4.175463,51.59044],[-4.175391,51.590321],[-4.17529,51.590219],[-4.17516,51.590136],[-4.175001,51.59007],[-4.17496,51.589995],[-4.175037,51.589911],[-4.175232,51.589817],[-4.175544,51.589715],[-4.175827,51.589648],[-4.176082,51.589617],[-4.176307,51.589622],[-4.176503,51.589662],[-4.176703,51.589712],[-4.176906,51.589772],[-4.177112,51.589843],[-4.177322,51.589924],[-4.177528,51.589995],[-4.177731,51.590056],[-4.177931,51.590106],[-4.178127,51.590146],[-4.178294,51.590191],[-4.178431,51.590242],[-4.178538,51.590298],[-4.178615,51.59036],[-4.178733,51.590399],[-4.178893,51.590415],[-4.179095,51.590408],[-4.179339,51.590378],[-4.179447,51.590295],[-4.179422,51.59016],[-4.179261,51.589971],[-4.178966,51.58973],[-4.178704,51.589554],[-4.178474,51.589444],[-4.178275,51.589399],[-4.17811,51.589419],[-4.177995,51.589419],[-4.177931,51.589398],[-4.177918,51.589357],[-4.177956,51.589295],[-4.177925,51.589237],[-4.177827,51.589181],[-4.177661,51.589129],[-4.177427,51.589079],[-4.177167,51.589036],[-4.17688,51.589],[-4.176566,51.588971],[-4.176226,51.588949],[-4.17594,51.588952],[-4.175707,51.58898],[-4.175529,51.589034],[-4.175405,51.589113],[-4.175272,51.589174],[-4.17513,51.589216],[-4.17498,51.58924],[-4.17482,51.589245],[-4.174661,51.589275],[-4.1745,51.589331],[-4.174339,51.589411],[-4.174177,51.589516],[-4.173955,51.589595],[-4.173673,51.589647],[-4.17333,51.589673],[-4.172928,51.589672],[-4.172567,51.589685],[-4.172248,51.589709],[-4.17197,51.589747],[-4.171733,51.589797],[-4.171525,51.58983],[-4.171346,51.589845],[-4.171195,51.589842],[-4.171074,51.589821],[-4.170901,51.589837],[-4.170676,51.589889],[-4.1704,51.589978],[-4.170072,51.590104],[-4.169735,51.590245],[-4.169388,51.590401],[-4.169031,51.590572],[-4.168666,51.590759],[-4.168299,51.590945],[-4.167932,51.591128],[-4.167565,51.59131],[-4.167197,51.59149],[-4.16691,51.591646],[-4.166705,51.591778],[-4.166581,51.591886],[-4.166539,51.591969],[-4.166544,51.592031],[-4.166597,51.592071],[-4.166697,51.592089],[-4.166845,51.592085],[-4.166947,51.592106],[-4.167002,51.592153],[-4.16701,51.592225],[-4.166972,51.592322],[-4.166971,51.592411],[-4.167009,51.592492],[-4.167083,51.592564],[-4.167196,51.592629],[-4.167284,51.592653],[-4.167348,51.592638],[-4.167388,51.592584],[-4.167404,51.592489],[-4.167471,51.592456],[-4.167589,51.592484],[-4.167758,51.592574],[-4.167979,51.592725],[-4.168186,51.59287],[-4.168379,51.59301],[-4.16856,51.593145],[-4.168727,51.593274],[-4.168917,51.593357],[-4.16913,51.593395],[-4.169366,51.593388],[-4.169625,51.593335],[-4.169832,51.593272],[-4.169987,51.5932],[-4.170091,51.593118],[-4.170142,51.593026],[-4.170232,51.592965],[-4.17036,51.592935],[-4.170527,51.592936],[-4.170733,51.592968],[-4.170947,51.593011],[-4.171171,51.593065],[-4.171405,51.593131],[-4.171647,51.593208],[-4.171849,51.593265],[-4.17201,51.593302],[-4.172131,51.59332],[-4.17221,51.593317],[-4.172365,51.593389],[-4.172595,51.593535],[-4.172901,51.593755],[-4.173282,51.59405],[-4.17367,51.594298],[-4.174067,51.594498],[-4.174472,51.594652],[-4.174885,51.594758],[-4.175309,51.594864],[-4.175745,51.594971],[-4.176192,51.595078],[-4.176652,51.595185],[-4.1771,51.595276],[-4.177537,51.595351],[-4.177963,51.595409],[-4.178379,51.59545],[-4.178774,51.595473],[-4.179149,51.595477],[-4.179503,51.595462],[-4.179837,51.595428]]]}}