{"type":"Feature","properties":{"id":"263326","COMMUNE":"Neath Port Talbot","PROVINCE":"Bridgend and Neath Port Talbot","COUNTRY":"UK","FIREDATE":"2025-03-15 16:13:45.742","FINALDATE":"2025-03-16 16:13:47.698","CLASS":"FireSeason","areaHA_geo":1.32},"geometry":{"type":"Polygon","coordinates":[[[-3.894025,51.744596],[-3.894137,51.744599],[-3.894215,51.744588],[-3.894257,51.744562],[-3.894265,51.744521],[-3.894292,51.744505],[-3.894338,51.744512],[-3.894403,51.744542],[-3.894488,51.744597],[-3.894576,51.744656],[-3.894669,51.74472],[-3.894765,51.744789],[-3.894866,51.744862],[-3.894969,51.744935],[-3.895075,51.745008],[-3.895182,51.745081],[-3.895293,51.745153],[-3.895375,51.745227],[-3.895429,51.745302],[-3.895454,51.745378],[-3.895451,51.745455],[-3.895473,51.745505],[-3.895518,51.745526],[-3.895588,51.74552],[-3.895682,51.745486],[-3.895749,51.745442],[-3.89579,51.745387],[-3.895803,51.745321],[-3.89579,51.745246],[-3.895758,51.745178],[-3.895709,51.745118],[-3.895642,51.745067],[-3.895558,51.745022],[-3.895469,51.744979],[-3.895377,51.744937],[-3.89528,51.744896],[-3.89518,51.744856],[-3.8951,51.744814],[-3.89504,51.744769],[-3.895001,51.744721],[-3.894982,51.744671],[-3.894935,51.74462],[-3.894859,51.744568],[-3.894756,51.744514],[-3.894624,51.744459],[-3.894525,51.7444],[-3.89446,51.744337],[-3.894428,51.74427],[-3.894429,51.744198],[-3.894414,51.744133],[-3.894382,51.744073],[-3.894333,51.744019],[-3.894267,51.743971],[-3.894189,51.743927],[-3.894099,51.743886],[-3.893996,51.74385],[-3.893882,51.743818],[-3.893796,51.743772],[-3.893738,51.743714],[-3.89371,51.743641],[-3.89371,51.743556],[-3.893727,51.743486],[-3.893761,51.743432],[-3.893812,51.743394],[-3.893879,51.743371],[-3.89393,51.743341],[-3.893963,51.743304],[-3.893981,51.743259],[-3.893981,51.743207],[-3.893941,51.743149],[-3.893859,51.743087],[-3.893736,51.74302],[-3.893571,51.742948],[-3.893417,51.74292],[-3.893274,51.742936],[-3.893141,51.742997],[-3.893018,51.743101],[-3.89296,51.743207],[-3.892967,51.743316],[-3.893038,51.743427],[-3.893175,51.74354],[-3.893269,51.743634],[-3.893319,51.743709],[-3.893327,51.743765],[-3.893291,51.743803],[-3.893259,51.743855],[-3.893231,51.743921],[-3.893206,51.744001],[-3.893185,51.744095],[-3.893189,51.744161],[-3.893219,51.744198],[-3.893275,51.744206],[-3.893356,51.744186],[-3.893429,51.744196],[-3.893492,51.744235],[-3.893545,51.744304],[-3.89359,51.744403],[-3.89366,51.744482],[-3.893756,51.74454],[-3.893877,51.744578],[-3.894025,51.744596]]]}}