{"type":"Feature","properties":{"id":"263333","COMMUNE":"Carmarthenshire","PROVINCE":"South West Wales","COUNTRY":"UK","FIREDATE":"2025-03-16 01:11:00","FINALDATE":"2025-03-16 01:11:00","CLASS":"FireSeason","areaHA_geo":258.873},"geometry":{"type":"Polygon","coordinates":[[[-3.827019,51.83523],[-3.827114,51.835535],[-3.827274,51.835744],[-3.8275,51.835855],[-3.82779,51.835869],[-3.828146,51.835786],[-3.828469,51.835676],[-3.828759,51.835539],[-3.829015,51.835376],[-3.829238,51.835186],[-3.829428,51.83501],[-3.829585,51.834848],[-3.829709,51.8347],[-3.8298,51.834567],[-3.829861,51.834429],[-3.829892,51.834287],[-3.829892,51.834142],[-3.829862,51.833992],[-3.829886,51.833843],[-3.829965,51.833696],[-3.830098,51.83355],[-3.830285,51.833405],[-3.83046,51.833271],[-3.830621,51.83315],[-3.830769,51.83304],[-3.830905,51.832942],[-3.831084,51.832852],[-3.831308,51.832769],[-3.831575,51.832694],[-3.831886,51.832627],[-3.832071,51.83253],[-3.832132,51.832405],[-3.832068,51.832252],[-3.831878,51.83207],[-3.831826,51.83189],[-3.831912,51.831711],[-3.832134,51.831533],[-3.832495,51.831358],[-3.832786,51.831172],[-3.833007,51.830977],[-3.833159,51.830772],[-3.833242,51.830558],[-3.83342,51.830396],[-3.833693,51.830287],[-3.834061,51.830231],[-3.834525,51.830227],[-3.834975,51.830234],[-3.835413,51.830254],[-3.835838,51.830285],[-3.836249,51.830328],[-3.836579,51.83032],[-3.836826,51.83026],[-3.83699,51.830148],[-3.837072,51.829985],[-3.837187,51.829834],[-3.837334,51.829693],[-3.837514,51.829565],[-3.837726,51.829447],[-3.837922,51.829396],[-3.838101,51.82941],[-3.838263,51.829491],[-3.838408,51.829637],[-3.838576,51.829778],[-3.838768,51.829914],[-3.838983,51.830044],[-3.839221,51.83017],[-3.839439,51.830323],[-3.839637,51.830504],[-3.839814,51.830713],[-3.839971,51.83095],[-3.840142,51.831101],[-3.840328,51.831165],[-3.840529,51.831144],[-3.840745,51.831037],[-3.840919,51.830983],[-3.841052,51.830982],[-3.841143,51.831035],[-3.841193,51.831142],[-3.841382,51.831217],[-3.841711,51.831259],[-3.842179,51.83127],[-3.842786,51.831249],[-3.843226,51.831153],[-3.843496,51.830983],[-3.843598,51.830738],[-3.843532,51.830419],[-3.843556,51.83015],[-3.843671,51.829932],[-3.843876,51.829764],[-3.844171,51.829647],[-3.844484,51.829546],[-3.844815,51.829461],[-3.845162,51.829391],[-3.845527,51.829338],[-3.845898,51.829329],[-3.846275,51.829367],[-3.846658,51.829449],[-3.847046,51.829577],[-3.847388,51.829648],[-3.847684,51.829664],[-3.847933,51.829624],[-3.848135,51.829529],[-3.848245,51.829429],[-3.848262,51.829324],[-3.848187,51.829216],[-3.848019,51.829103],[-3.847999,51.829],[-3.848128,51.828908],[-3.848406,51.828827],[-3.848832,51.828756],[-3.849188,51.828659],[-3.849474,51.828539],[-3.84969,51.828393],[-3.849836,51.828222],[-3.849998,51.828036],[-3.850176,51.827836],[-3.850371,51.827621],[-3.850581,51.827392],[-3.850708,51.827172],[-3.85075,51.826962],[-3.850709,51.826763],[-3.850583,51.826573],[-3.850668,51.826484],[-3.850962,51.826495],[-3.851465,51.826606],[-3.852179,51.826818],[-3.852775,51.827],[-3.853254,51.827153],[-3.853616,51.827276],[-3.853861,51.82737],[-3.854129,51.827468],[-3.854418,51.827572],[-3.85473,51.82768],[-3.855064,51.827794],[-3.855348,51.827906],[-3.855582,51.828016],[-3.855765,51.828125],[-3.855898,51.828232],[-3.856013,51.828374],[-3.85611,51.828552],[-3.856189,51.828765],[-3.85625,51.829013],[-3.8563,51.829253],[-3.856338,51.829483],[-3.856366,51.829705],[-3.856383,51.829918],[-3.856402,51.830166],[-3.856424,51.83045],[-3.856449,51.830769],[-3.856477,51.831124],[-3.856572,51.83135],[-3.856736,51.831448],[-3.856967,51.831418],[-3.857266,51.83126],[-3.857474,51.831115],[-3.857591,51.830983],[-3.857616,51.830865],[-3.85755,51.830761],[-3.857522,51.830657],[-3.857531,51.830553],[-3.857578,51.830451],[-3.857662,51.830348],[-3.857697,51.830181],[-3.857683,51.829947],[-3.857618,51.829648],[-3.857504,51.829283],[-3.857375,51.828989],[-3.857231,51.828766],[-3.857071,51.828614],[-3.856897,51.828532],[-3.856725,51.82842],[-3.856555,51.828276],[-3.856389,51.828102],[-3.856225,51.827896],[-3.855941,51.82769],[-3.855536,51.827482],[-3.85501,51.827274],[-3.854364,51.827064],[-3.853732,51.826863],[-3.853116,51.826671],[-3.852515,51.826487],[-3.851929,51.826311],[-3.851416,51.82617],[-3.850976,51.826064],[-3.85061,51.825992],[-3.850316,51.825956],[-3.85013,51.825904],[-3.850051,51.825836],[-3.850079,51.825754],[-3.850214,51.825656],[-3.850349,51.825451],[-3.850484,51.825138],[-3.850619,51.824718],[-3.850753,51.824191],[-3.850896,51.823757],[-3.851047,51.823417],[-3.851207,51.82317],[-3.851375,51.823017],[-3.851507,51.822868],[-3.851603,51.822724],[-3.851663,51.822584],[-3.851687,51.822448],[-3.851636,51.822283],[-3.851509,51.822088],[-3.851306,51.821864],[-3.851028,51.821611],[-3.850727,51.821432],[-3.850404,51.821327],[-3.850059,51.821297],[-3.849691,51.821341],[-3.849448,51.821321],[-3.849331,51.821238],[-3.849339,51.821091],[-3.849472,51.820881],[-3.849648,51.820686],[-3.849866,51.820507],[-3.850126,51.820343],[-3.850429,51.820194],[-3.850625,51.820041],[-3.850717,51.819881],[-3.850703,51.819717],[-3.850584,51.819547],[-3.85058,51.819415],[-3.850691,51.819319],[-3.850918,51.819262],[-3.85126,51.819242],[-3.851602,51.819168],[-3.851944,51.81904],[-3.852286,51.818859],[-3.852628,51.818624],[-3.852895,51.818377],[-3.853088,51.818119],[-3.853207,51.817849],[-3.853252,51.817567],[-3.853195,51.817303],[-3.853035,51.817056],[-3.852773,51.816827],[-3.852408,51.816615],[-3.852081,51.816431],[-3.851792,51.816276],[-3.851541,51.81615],[-3.851328,51.816053],[-3.851156,51.815953],[-3.851025,51.815851],[-3.850934,51.815747],[-3.850884,51.81564],[-3.85085,51.815529],[-3.85083,51.815414],[-3.850826,51.815294],[-3.850837,51.81517],[-3.850829,51.815051],[-3.850802,51.814937],[-3.850755,51.814827],[-3.850689,51.814722],[-3.850565,51.814643],[-3.850382,51.814588],[-3.85014,51.814558],[-3.84984,51.814553],[-3.849599,51.81454],[-3.849419,51.814521],[-3.849299,51.814494],[-3.849239,51.81446],[-3.849208,51.814416],[-3.849207,51.814359],[-3.849236,51.814292],[-3.849294,51.814213],[-3.84938,51.814129],[-3.849493,51.814039],[-3.849633,51.813943],[-3.849801,51.813841],[-3.849988,51.813737],[-3.850196,51.813631],[-3.850423,51.813522],[-3.85067,51.81341],[-3.850806,51.8133],[-3.85083,51.81319],[-3.850742,51.81308],[-3.850542,51.812971],[-3.850333,51.81286],[-3.850115,51.812748],[-3.849889,51.812634],[-3.849654,51.812519],[-3.849337,51.812447],[-3.848938,51.812418],[-3.848457,51.812431],[-3.847894,51.812488],[-3.84741,51.812546],[-3.847005,51.812604],[-3.846679,51.812663],[-3.846432,51.812723],[-3.846184,51.812753],[-3.845935,51.812752],[-3.845684,51.81272],[-3.845433,51.812658],[-3.845116,51.812627],[-3.844734,51.812626],[-3.844287,51.812656],[-3.843775,51.812717],[-3.84334,51.812692],[-3.842982,51.812582],[-3.842701,51.812385],[-3.842497,51.812102],[-3.842306,51.81189],[-3.842129,51.811747],[-3.841965,51.811675],[-3.841815,51.811672],[-3.841704,51.811716],[-3.841633,51.811806],[-3.841601,51.811943],[-3.841608,51.812126],[-3.841559,51.812314],[-3.841452,51.812505],[-3.841289,51.812701],[-3.841069,51.812901],[-3.840852,51.813055],[-3.840636,51.813162],[-3.840423,51.813223],[-3.840212,51.813238],[-3.84001,51.813255],[-3.839816,51.813273],[-3.839631,51.813292],[-3.839455,51.813313],[-3.839272,51.813337],[-3.839082,51.813365],[-3.838884,51.813396],[-3.838679,51.813431],[-3.838569,51.81349],[-3.838553,51.813574],[-3.838633,51.813682],[-3.838807,51.813814],[-3.83892,51.813939],[-3.838973,51.814056],[-3.838965,51.814164],[-3.838897,51.814264],[-3.838845,51.814365],[-3.83881,51.814466],[-3.838792,51.814568],[-3.838791,51.81467],[-3.83874,51.814761],[-3.83864,51.814839],[-3.838491,51.814905],[-3.838292,51.81496],[-3.838075,51.814996],[-3.83784,51.815013],[-3.837587,51.815013],[-3.837315,51.814994],[-3.837124,51.81494],[-3.837014,51.814851],[-3.836983,51.814727],[-3.837033,51.814567],[-3.837032,51.814417],[-3.836979,51.814275],[-3.836876,51.814141],[-3.836721,51.814017],[-3.836509,51.813911],[-3.836242,51.813825],[-3.835919,51.813759],[-3.835539,51.813712],[-3.835183,51.81366],[-3.834849,51.813602],[-3.834539,51.813539],[-3.834253,51.813471],[-3.833996,51.813392],[-3.833768,51.813301],[-3.833571,51.8132],[-3.833403,51.813087],[-3.833221,51.813024],[-3.833027,51.813011],[-3.832818,51.813049],[-3.832597,51.813136],[-3.832325,51.813197],[-3.832004,51.81323],[-3.831632,51.813236],[-3.831211,51.813214],[-3.830809,51.813257],[-3.830427,51.813363],[-3.830066,51.813534],[-3.829724,51.813769],[-3.829485,51.814],[-3.829347,51.814226],[-3.829313,51.814447],[-3.82938,51.814664],[-3.829408,51.814847],[-3.829397,51.814997],[-3.829346,51.815113],[-3.829255,51.815195],[-3.829223,51.815278],[-3.829249,51.815362],[-3.829333,51.815447],[-3.829476,51.815532],[-3.829621,51.815612],[-3.829769,51.815687],[-3.829919,51.815756],[-3.830072,51.815819],[-3.830263,51.815901],[-3.830494,51.816002],[-3.830763,51.816121],[-3.831071,51.816258],[-3.831323,51.816399],[-3.831517,51.816545],[-3.831655,51.816695],[-3.831736,51.816849],[-3.831819,51.81702],[-3.831903,51.81721],[-3.831988,51.817417],[-3.832074,51.817642],[-3.83219,51.817761],[-3.832336,51.817775],[-3.83251,51.817682],[-3.832714,51.817484],[-3.832898,51.817368],[-3.833061,51.817333],[-3.833204,51.81738],[-3.833327,51.817508],[-3.833458,51.817621],[-3.833596,51.817717],[-3.833741,51.817797],[-3.833893,51.81786],[-3.834107,51.817932],[-3.83438,51.818012],[-3.834715,51.8181],[-3.83511,51.818197],[-3.83535,51.818342],[-3.835436,51.818536],[-3.835366,51.81878],[-3.835142,51.819072],[-3.835089,51.819301],[-3.835206,51.819466],[-3.835495,51.819567],[-3.835955,51.819605],[-3.836279,51.819699],[-3.836467,51.819851],[-3.83652,51.820059],[-3.836436,51.820325],[-3.836363,51.820543],[-3.8363,51.820714],[-3.836248,51.820838],[-3.836205,51.820915],[-3.836096,51.820976],[-3.835919,51.821023],[-3.835676,51.821054],[-3.835366,51.821071],[-3.835104,51.821109],[-3.834891,51.821171],[-3.834726,51.821254],[-3.83461,51.82136],[-3.834459,51.82149],[-3.834275,51.821645],[-3.834057,51.821824],[-3.833805,51.822028],[-3.833541,51.822218],[-3.833264,51.822394],[-3.832974,51.822557],[-3.832672,51.822705],[-3.832372,51.822835],[-3.832075,51.822947],[-3.83178,51.823041],[-3.831489,51.823117],[-3.831206,51.823181],[-3.830932,51.823234],[-3.830888,51.823241],[-3.830896,51.823246],[-3.830919,51.823263],[-3.83094,51.823281],[-3.83096,51.823299],[-3.830977,51.823319],[-3.830993,51.823339],[-3.831007,51.82336],[-3.83102,51.823382],[-3.831031,51.823404],[-3.831042,51.823426],[-3.831051,51.823448],[-3.831059,51.82347],[-3.831065,51.823493],[-3.831071,51.823516],[-3.831075,51.82354],[-3.831078,51.823564],[-3.83108,51.823588],[-3.83108,51.823612],[-3.83108,51.823636],[-3.831078,51.823661],[-3.831075,51.823686],[-3.83107,51.823712],[-3.831065,51.823738],[-3.831058,51.823762],[-3.831051,51.823786],[-3.831043,51.823809],[-3.831035,51.82383],[-3.831025,51.823851],[-3.831015,51.82387],[-3.831004,51.823889],[-3.830992,51.823906],[-3.830979,51.823922],[-3.830966,51.823937],[-3.830952,51.823952],[-3.830937,51.823965],[-3.830921,51.823977],[-3.830904,51.823988],[-3.830887,51.823998],[-3.830869,51.824007],[-3.830851,51.824015],[-3.830833,51.824022],[-3.830815,51.824028],[-3.830798,51.824033],[-3.830781,51.824037],[-3.830764,51.82404],[-3.830748,51.824041],[-3.830731,51.824042],[-3.830715,51.824042],[-3.830699,51.824041],[-3.830683,51.824039],[-3.830668,51.824035],[-3.830653,51.824031],[-3.830638,51.824026],[-3.830623,51.824019],[-3.830608,51.824012],[-3.830592,51.824006],[-3.830573,51.824001],[-3.830553,51.823997],[-3.83053,51.823995],[-3.830506,51.823994],[-3.83048,51.823994],[-3.830452,51.823996],[-3.830422,51.823999],[-3.83039,51.824003],[-3.830356,51.824008],[-3.830321,51.824015],[-3.830283,51.824023],[-3.830243,51.824032],[-3.830222,51.824037],[-3.830237,51.824109],[-3.830253,51.824202],[-3.830264,51.824204],[-3.830297,51.824209],[-3.830327,51.824216],[-3.830355,51.824222],[-3.830379,51.82423],[-3.830401,51.824238],[-3.830419,51.824247],[-3.830435,51.824256],[-3.830449,51.824266],[-3.830459,51.824276],[-3.830467,51.824288],[-3.830471,51.824299],[-3.830473,51.824312],[-3.830472,51.824325],[-3.83047,51.824337],[-3.830466,51.824348],[-3.830461,51.824359],[-3.830454,51.824369],[-3.830446,51.824378],[-3.830436,51.824387],[-3.830425,51.824394],[-3.830412,51.824401],[-3.830398,51.824407],[-3.830382,51.824412],[-3.830365,51.824417],[-3.830347,51.824421],[-3.830327,51.824424],[-3.830305,51.824426],[-3.830283,51.824427],[-3.830286,51.824451],[-3.830305,51.824607],[-3.830324,51.824748],[-3.830343,51.824874],[-3.830361,51.824984],[-3.830412,51.825083],[-3.830497,51.82517],[-3.830616,51.825245],[-3.830769,51.825309],[-3.830854,51.825383],[-3.830872,51.825468],[-3.830823,51.825563],[-3.830707,51.825669],[-3.830664,51.825784],[-3.830694,51.825908],[-3.830798,51.826042],[-3.830975,51.826184],[-3.831087,51.826317],[-3.831133,51.826439],[-3.831114,51.826551],[-3.83103,51.826653],[-3.830956,51.826752],[-3.830895,51.826846],[-3.830844,51.826936],[-3.830804,51.827023],[-3.830802,51.827123],[-3.830838,51.827236],[-3.83091,51.827363],[-3.83102,51.827503],[-3.831142,51.827614],[-3.831275,51.827695],[-3.83142,51.827747],[-3.831576,51.82777],[-3.83175,51.82778],[-3.83194,51.827778],[-3.832147,51.827763],[-3.832371,51.827737],[-3.832561,51.827653],[-3.832716,51.827512],[-3.832837,51.827313],[-3.832923,51.827057],[-3.832986,51.826833],[-3.833025,51.826639],[-3.833041,51.826476],[-3.833033,51.826344],[-3.833098,51.826221],[-3.833237,51.826107],[-3.83345,51.826003],[-3.833735,51.825907],[-3.833944,51.825898],[-3.834076,51.825974],[-3.83413,51.826137],[-3.834108,51.826385],[-3.834089,51.826602],[-3.834072,51.826788],[-3.834058,51.826943],[-3.834047,51.827067],[-3.833984,51.827213],[-3.83387,51.827379],[-3.833705,51.827568],[-3.833488,51.827778],[-3.833257,51.827956],[-3.833012,51.828103],[-3.832753,51.828218],[-3.832481,51.828301],[-3.832239,51.828351],[-3.832028,51.828365],[-3.831847,51.828346],[-3.831698,51.828292],[-3.831547,51.828287],[-3.831394,51.828331],[-3.83124,51.828423],[-3.831085,51.828564],[-3.830974,51.8287],[-3.830907,51.828831],[-3.830884,51.828956],[-3.830905,51.829077],[-3.830952,51.829202],[-3.831025,51.829331],[-3.831125,51.829465],[-3.831251,51.829603],[-3.831317,51.829733],[-3.831321,51.829856],[-3.831266,51.82997],[-3.831149,51.830075],[-3.831117,51.830199],[-3.83117,51.830341],[-3.831307,51.830502],[-3.831528,51.83068],[-3.831679,51.830818],[-3.831759,51.830916],[-3.831769,51.830973],[-3.831708,51.830991],[-3.831589,51.83102],[-3.831411,51.831062],[-3.831174,51.831116],[-3.830879,51.831181],[-3.830626,51.831209],[-3.830416,51.831198],[-3.830247,51.831149],[-3.83012,51.831062],[-3.829975,51.830969],[-3.829812,51.830871],[-3.82963,51.830767],[-3.82943,51.830658],[-3.82926,51.830604],[-3.829119,51.830606],[-3.829008,51.830662],[-3.828927,51.830774],[-3.828857,51.830926],[-3.828801,51.831116],[-3.828756,51.831347],[-3.828724,51.831616],[-3.828675,51.831832],[-3.828609,51.831993],[-3.828526,51.8321],[-3.828426,51.832153],[-3.828334,51.83223],[-3.82825,51.832332],[-3.828173,51.832459],[-3.828104,51.83261],[-3.828022,51.832748],[-3.827928,51.832872],[-3.827821,51.832982],[-3.827701,51.833078],[-3.827623,51.833184],[-3.827584,51.833301],[-3.827587,51.833429],[-3.82763,51.833567],[-3.827701,51.833689],[-3.8278,51.833794],[-3.827928,51.833884],[-3.828083,51.833958],[-3.828173,51.834044],[-3.828195,51.834144],[-3.828152,51.834256],[-3.828041,51.834382],[-3.827933,51.834446],[-3.827825,51.834449],[-3.82772,51.83439],[-3.827616,51.834269],[-3.827495,51.834186],[-3.827356,51.834141],[-3.8272,51.834134],[-3.827027,51.834165],[-3.826904,51.834223],[-3.826831,51.834308],[-3.826808,51.834421],[-3.826835,51.834561],[-3.826879,51.834742],[-3.82694,51.834965],[-3.827019,51.83523]]]}}