{"type":"Feature","properties":{"id":"263313","COMMUNE":"Swansea","PROVINCE":"Swansea","COUNTRY":"UK","FIREDATE":"2025-03-08 16:00:34.766","FINALDATE":"2025-03-09 16:00:37.381","CLASS":"FireSeason","areaHA_geo":1.818},"geometry":{"type":"Polygon","coordinates":[[[-3.933105,51.725164],[-3.933237,51.725137],[-3.933334,51.725088],[-3.933395,51.725017],[-3.933419,51.724923],[-3.933408,51.724807],[-3.933414,51.724711],[-3.933439,51.724636],[-3.933482,51.724582],[-3.933544,51.724549],[-3.933581,51.72449],[-3.933594,51.724405],[-3.933583,51.724294],[-3.933548,51.724158],[-3.933497,51.724054],[-3.933431,51.723982],[-3.93335,51.723943],[-3.933254,51.723936],[-3.933143,51.723889],[-3.933017,51.723802],[-3.932875,51.723674],[-3.932719,51.723506],[-3.932599,51.723366],[-3.932515,51.723254],[-3.932469,51.72317],[-3.932458,51.723113],[-3.93247,51.723064],[-3.932504,51.723023],[-3.932561,51.72299],[-3.93264,51.722966],[-3.932701,51.722942],[-3.932745,51.722919],[-3.932771,51.722897],[-3.932779,51.722876],[-3.932765,51.722842],[-3.932729,51.722793],[-3.932671,51.722731],[-3.93259,51.722655],[-3.932513,51.722591],[-3.93244,51.72254],[-3.932371,51.7225],[-3.932305,51.722473],[-3.932246,51.722466],[-3.932192,51.72248],[-3.932144,51.722515],[-3.932102,51.722571],[-3.932045,51.722647],[-3.931974,51.722745],[-3.931889,51.722865],[-3.931789,51.723005],[-3.931719,51.723123],[-3.931677,51.72322],[-3.931665,51.723295],[-3.931681,51.723348],[-3.931683,51.723396],[-3.931669,51.723438],[-3.931639,51.723475],[-3.931595,51.723506],[-3.931569,51.723538],[-3.931561,51.72357],[-3.931573,51.723603],[-3.931603,51.723636],[-3.931639,51.723651],[-3.93168,51.723648],[-3.931727,51.723628],[-3.931779,51.723589],[-3.931853,51.723611],[-3.931947,51.723692],[-3.932063,51.723833],[-3.9322,51.724033],[-3.932334,51.724238],[-3.932465,51.724447],[-3.932593,51.724661],[-3.932718,51.724878],[-3.932845,51.725034],[-3.932974,51.72513],[-3.933105,51.725164]]]}}