{"type":"Feature","properties":{"id":"263377","COMMUNE":"Swansea","PROVINCE":"Swansea","COUNTRY":"UK","FIREDATE":"2025-03-08 16:58:38.494","CLASS":"FireSeason","areaHA_geo":5.676},"geometry":{"type":"Polygon","coordinates":[[[-4.28113,51.591755],[-4.281298,51.59184],[-4.281485,51.59188],[-4.281691,51.591875],[-4.281916,51.591825],[-4.282056,51.591737],[-4.282112,51.591611],[-4.282083,51.591448],[-4.281971,51.591246],[-4.281951,51.591099],[-4.282024,51.591008],[-4.28219,51.590973],[-4.282449,51.590993],[-4.282662,51.590991],[-4.282829,51.590967],[-4.282949,51.59092],[-4.283023,51.590852],[-4.283069,51.59077],[-4.283087,51.590674],[-4.283076,51.590566],[-4.283037,51.590444],[-4.282972,51.590352],[-4.282879,51.590289],[-4.28276,51.590255],[-4.282615,51.590251],[-4.282473,51.59025],[-4.282336,51.590252],[-4.282202,51.590257],[-4.282073,51.590266],[-4.281945,51.590263],[-4.281821,51.590248],[-4.281698,51.590222],[-4.281578,51.590185],[-4.281537,51.590131],[-4.281574,51.590059],[-4.28169,51.58997],[-4.281884,51.589864],[-4.282075,51.589774],[-4.282261,51.589699],[-4.282444,51.589639],[-4.282622,51.589595],[-4.282759,51.589537],[-4.282857,51.589465],[-4.282914,51.58938],[-4.28293,51.589282],[-4.2829,51.589207],[-4.282824,51.589157],[-4.282702,51.589131],[-4.282533,51.58913],[-4.282379,51.589154],[-4.282239,51.589205],[-4.282113,51.589282],[-4.282002,51.589385],[-4.281905,51.589441],[-4.281825,51.589451],[-4.281759,51.589415],[-4.281708,51.589332],[-4.281593,51.589255],[-4.281414,51.589184],[-4.281171,51.589119],[-4.280864,51.58906],[-4.28058,51.589037],[-4.28032,51.589051],[-4.280084,51.5891],[-4.279871,51.589186],[-4.27967,51.589274],[-4.279483,51.589364],[-4.279308,51.589457],[-4.279146,51.589551],[-4.279027,51.589659],[-4.278951,51.58978],[-4.278919,51.589914],[-4.27893,51.590061],[-4.278967,51.590196],[-4.27903,51.590319],[-4.279119,51.590429],[-4.279235,51.590526],[-4.279257,51.590605],[-4.279186,51.590666],[-4.279022,51.590709],[-4.278766,51.590733],[-4.278566,51.590774],[-4.278422,51.590833],[-4.278335,51.590909],[-4.278305,51.591002],[-4.278351,51.591082],[-4.278475,51.591148],[-4.278675,51.591202],[-4.278952,51.591242],[-4.279203,51.591282],[-4.279426,51.591321],[-4.279621,51.59136],[-4.27979,51.591399],[-4.279936,51.591405],[-4.28006,51.591379],[-4.280161,51.59132],[-4.28024,51.591228],[-4.280256,51.591144],[-4.280207,51.591069],[-4.280095,51.591001],[-4.27992,51.59094],[-4.279842,51.590875],[-4.279862,51.590806],[-4.27998,51.590732],[-4.280195,51.590653],[-4.280392,51.590622],[-4.280571,51.590637],[-4.280732,51.590699],[-4.280875,51.590808],[-4.281005,51.590894],[-4.281122,51.590958],[-4.281225,51.590999],[-4.281315,51.591018],[-4.281385,51.591048],[-4.281434,51.59109],[-4.281464,51.591144],[-4.281473,51.59121],[-4.281434,51.591267],[-4.281347,51.591315],[-4.281212,51.591354],[-4.281029,51.591384],[-4.28093,51.591439],[-4.280913,51.591519],[-4.28098,51.591625],[-4.28113,51.591755]]]}}