{"type":"Feature","properties":{"id":"263309","COMMUNE":"Swansea","PROVINCE":"Swansea","COUNTRY":"UK","FIREDATE":"2025-03-20 12:14:00","CLASS":"FireSeason","areaHA_geo":11.408},"geometry":{"type":"Polygon","coordinates":[[[-3.992454,51.719022],[-3.992561,51.718995],[-3.992641,51.718955],[-3.992693,51.718902],[-3.992717,51.718836],[-3.992799,51.71878],[-3.992938,51.718734],[-3.993135,51.718699],[-3.993389,51.718673],[-3.993576,51.718667],[-3.993695,51.718681],[-3.993746,51.718714],[-3.99373,51.718766],[-3.993724,51.718821],[-3.99373,51.718879],[-3.993747,51.718939],[-3.993775,51.719001],[-3.993817,51.719024],[-3.993873,51.719007],[-3.993943,51.71895],[-3.994028,51.718854],[-3.994162,51.718736],[-3.994345,51.718596],[-3.994578,51.718435],[-3.994861,51.718252],[-3.995173,51.718058],[-3.995514,51.717853],[-3.995885,51.717639],[-3.996285,51.717413],[-3.996664,51.717217],[-3.997021,51.717048],[-3.997356,51.716909],[-3.997669,51.716798],[-3.997958,51.716666],[-3.998224,51.716514],[-3.998466,51.716341],[-3.998684,51.716148],[-3.998862,51.715962],[-3.999001,51.715785],[-3.9991,51.715616],[-3.99916,51.715454],[-3.999185,51.715297],[-3.999174,51.715146],[-3.999128,51.714999],[-3.999046,51.714857],[-3.998932,51.714756],[-3.998784,51.714697],[-3.998603,51.714679],[-3.998389,51.714702],[-3.998221,51.714708],[-3.998099,51.714698],[-3.998023,51.71467],[-3.997992,51.714626],[-3.997931,51.714609],[-3.997838,51.714619],[-3.997713,51.714656],[-3.997557,51.71472],[-3.997433,51.714763],[-3.997342,51.714784],[-3.997282,51.714784],[-3.997255,51.714762],[-3.997229,51.714742],[-3.997205,51.714725],[-3.997183,51.714709],[-3.997163,51.714697],[-3.997126,51.714703],[-3.997072,51.714727],[-3.997001,51.714769],[-3.996914,51.71483],[-3.996836,51.714889],[-3.996768,51.714946],[-3.996709,51.714999],[-3.996659,51.715051],[-3.996613,51.715095],[-3.996569,51.715132],[-3.996528,51.715162],[-3.99649,51.715184],[-3.99643,51.715211],[-3.996348,51.715244],[-3.996244,51.715282],[-3.996119,51.715325],[-3.995966,51.715375],[-3.995785,51.715434],[-3.995578,51.7155],[-3.995343,51.715574],[-3.995091,51.715656],[-3.994823,51.715747],[-3.994537,51.715846],[-3.994235,51.715953],[-3.99398,51.716046],[-3.993771,51.716126],[-3.993609,51.716191],[-3.993495,51.716243],[-3.99338,51.716316],[-3.993267,51.716411],[-3.993154,51.716527],[-3.993041,51.716665],[-3.992921,51.716814],[-3.992794,51.716976],[-3.992659,51.717151],[-3.992517,51.717337],[-3.992403,51.717505],[-3.992317,51.717655],[-3.992258,51.717786],[-3.992228,51.717898],[-3.992201,51.718045],[-3.992178,51.718224],[-3.992158,51.718438],[-3.992141,51.718685],[-3.992163,51.718868],[-3.992222,51.718984],[-3.992319,51.719036],[-3.992454,51.719022]]]}}