{"type":"Feature","properties":{"id":"263390","COMMUNE":"Carmarthenshire","PROVINCE":"South West Wales","COUNTRY":"UK","FIREDATE":"2025-03-15 17:26:11.641","FINALDATE":"2025-03-16 17:26:20.967","CLASS":"FireSeason","areaHA_geo":11.368},"geometry":{"type":"Polygon","coordinates":[[[-3.827636,51.843101],[-3.827962,51.84313],[-3.828269,51.843082],[-3.828557,51.842958],[-3.828825,51.842756],[-3.829101,51.842595],[-3.829386,51.842477],[-3.82968,51.842399],[-3.829981,51.842364],[-3.83023,51.842306],[-3.830426,51.842226],[-3.830569,51.842124],[-3.830659,51.842],[-3.830727,51.841878],[-3.830773,51.84176],[-3.830796,51.841644],[-3.830798,51.84153],[-3.830835,51.841398],[-3.830907,51.841248],[-3.831016,51.841079],[-3.83116,51.840892],[-3.831214,51.840727],[-3.831179,51.840584],[-3.831054,51.840463],[-3.830839,51.840364],[-3.830676,51.840253],[-3.830564,51.84013],[-3.830504,51.839996],[-3.830495,51.83985],[-3.830575,51.839738],[-3.830744,51.839661],[-3.831003,51.839619],[-3.83135,51.839612],[-3.83158,51.839568],[-3.831692,51.839486],[-3.831688,51.839368],[-3.831566,51.839213],[-3.831503,51.83907],[-3.831499,51.83894],[-3.831555,51.838823],[-3.831669,51.838719],[-3.831707,51.838632],[-3.831667,51.838563],[-3.83155,51.838512],[-3.831355,51.838478],[-3.83113,51.838463],[-3.830873,51.838465],[-3.830585,51.838485],[-3.830266,51.838523],[-3.830015,51.838516],[-3.829833,51.838464],[-3.82972,51.838367],[-3.829676,51.838225],[-3.829579,51.838092],[-3.82943,51.837968],[-3.829229,51.837853],[-3.828975,51.837747],[-3.828777,51.837714],[-3.828633,51.837754],[-3.828544,51.837866],[-3.828509,51.838052],[-3.828493,51.838235],[-3.828494,51.838416],[-3.828513,51.838595],[-3.82855,51.838772],[-3.828636,51.838946],[-3.828772,51.839117],[-3.828958,51.839284],[-3.829193,51.839449],[-3.829347,51.839604],[-3.829419,51.839748],[-3.829411,51.839882],[-3.82932,51.840006],[-3.82917,51.840083],[-3.828959,51.840114],[-3.828687,51.840098],[-3.828355,51.840036],[-3.828037,51.840034],[-3.827733,51.840093],[-3.827444,51.840212],[-3.827169,51.840392],[-3.826974,51.840562],[-3.826858,51.840723],[-3.826823,51.840875],[-3.826867,51.841017],[-3.826874,51.841189],[-3.826845,51.841391],[-3.826779,51.841622],[-3.826677,51.841884],[-3.82664,51.842089],[-3.826668,51.842239],[-3.826762,51.842332],[-3.82692,51.84237],[-3.827015,51.842424],[-3.827046,51.842494],[-3.827013,51.84258],[-3.826916,51.842682],[-3.82693,51.842785],[-3.827055,51.84289],[-3.82729,51.842995],[-3.827636,51.843101]]]}}