{"type":"Feature","properties":{"id":"263350","COMMUNE":"Swansea","PROVINCE":"Swansea","COUNTRY":"UK","FIREDATE":"2025-03-20 16:48:09.362","CLASS":"FireSeason","areaHA_geo":1.919},"geometry":{"type":"Polygon","coordinates":[[[-4.058178,51.622712],[-4.05829,51.622792],[-4.058449,51.62283],[-4.058655,51.622825],[-4.058907,51.622777],[-4.059154,51.622731],[-4.059398,51.622688],[-4.059638,51.622646],[-4.059873,51.622606],[-4.0601,51.622537],[-4.060318,51.62244],[-4.060526,51.622313],[-4.060726,51.622158],[-4.060877,51.622026],[-4.060981,51.621917],[-4.061036,51.62183],[-4.061044,51.621767],[-4.060905,51.621725],[-4.060618,51.621706],[-4.060184,51.621709],[-4.059604,51.621734],[-4.059099,51.621768],[-4.058672,51.621811],[-4.05832,51.621864],[-4.058045,51.621926],[-4.057863,51.621996],[-4.057773,51.622075],[-4.057775,51.622163],[-4.05787,51.62226],[-4.057958,51.622363],[-4.058038,51.622473],[-4.058112,51.622589],[-4.058178,51.622712]]]}}