{"type":"Feature","properties":{"id":"263302","COMMUNE":"Swansea","PROVINCE":"Swansea","COUNTRY":"UK","FIREDATE":"2025-03-06 11:38:00","FINALDATE":"2025-03-07 11:38:00","CLASS":"FireSeason","areaHA_geo":45.055},"geometry":{"type":"Polygon","coordinates":[[[-3.950915,51.739495],[-3.951065,51.739541],[-3.951212,51.739496],[-3.951359,51.739359],[-3.951503,51.73913],[-3.95176,51.739058],[-3.952128,51.739141],[-3.952609,51.739381],[-3.953201,51.739777],[-3.953675,51.740054],[-3.954031,51.740211],[-3.954268,51.740249],[-3.954386,51.740168],[-3.954428,51.740055],[-3.954391,51.739909],[-3.954277,51.739731],[-3.954084,51.739521],[-3.953987,51.739368],[-3.953985,51.739274],[-3.954077,51.739238],[-3.954264,51.73926],[-3.954449,51.739318],[-3.954632,51.739413],[-3.954812,51.739544],[-3.954991,51.739712],[-3.955177,51.739831],[-3.955371,51.739903],[-3.955571,51.739926],[-3.95578,51.739901],[-3.955918,51.739912],[-3.955987,51.739959],[-3.955986,51.740043],[-3.955916,51.740162],[-3.955812,51.740261],[-3.955674,51.740339],[-3.955503,51.740396],[-3.955298,51.740431],[-3.955192,51.740497],[-3.955186,51.740592],[-3.955279,51.740717],[-3.955472,51.740872],[-3.955689,51.740949],[-3.955932,51.740947],[-3.9562,51.740868],[-3.956493,51.74071],[-3.956783,51.740559],[-3.957071,51.740413],[-3.957356,51.740273],[-3.957638,51.740139],[-3.957988,51.739991],[-3.958406,51.73983],[-3.958891,51.739655],[-3.959445,51.739466],[-3.95987,51.739329],[-3.960167,51.739243],[-3.960337,51.739209],[-3.960378,51.739226],[-3.960476,51.739223],[-3.960631,51.739199],[-3.960842,51.739154],[-3.961109,51.739088],[-3.961439,51.738976],[-3.961831,51.738818],[-3.962285,51.738613],[-3.9628,51.738362],[-3.963253,51.738138],[-3.963641,51.737942],[-3.963966,51.737772],[-3.964228,51.737629],[-3.964355,51.737503],[-3.964347,51.737393],[-3.964205,51.737298],[-3.963928,51.73722],[-3.963756,51.737158],[-3.963687,51.737111],[-3.963722,51.737079],[-3.963861,51.737062],[-3.963731,51.736977],[-3.963332,51.736825],[-3.962664,51.736605],[-3.961727,51.736318],[-3.960942,51.736084],[-3.960309,51.735904],[-3.959829,51.735778],[-3.9595,51.735707],[-3.959127,51.735665],[-3.958709,51.735654],[-3.958247,51.735674],[-3.95774,51.735724],[-3.957289,51.735778],[-3.956893,51.735836],[-3.956552,51.7359],[-3.956267,51.735967],[-3.955973,51.73605],[-3.955671,51.736147],[-3.955359,51.73626],[-3.955039,51.736387],[-3.954676,51.736536],[-3.95427,51.736707],[-3.953822,51.7369],[-3.953331,51.737115],[-3.952944,51.737317],[-3.952661,51.737507],[-3.952482,51.737684],[-3.952408,51.737848],[-3.952308,51.737933],[-3.952183,51.737937],[-3.952033,51.73786],[-3.951858,51.737703],[-3.951696,51.737575],[-3.951548,51.737476],[-3.951414,51.737406],[-3.951293,51.737365],[-3.951161,51.737275],[-3.951018,51.737137],[-3.950865,51.73695],[-3.950701,51.736713],[-3.950539,51.736541],[-3.950379,51.736432],[-3.950221,51.736388],[-3.950065,51.736406],[-3.94994,51.736396],[-3.949847,51.736357],[-3.949785,51.73629],[-3.949755,51.736193],[-3.949763,51.736106],[-3.949811,51.736028],[-3.949898,51.735959],[-3.950023,51.7359],[-3.950101,51.735804],[-3.950132,51.735673],[-3.950115,51.735505],[-3.950052,51.735302],[-3.949974,51.735111],[-3.949882,51.734933],[-3.949776,51.734767],[-3.949657,51.734615],[-3.949512,51.734527],[-3.949342,51.734503],[-3.949148,51.734543],[-3.948928,51.734647],[-3.948724,51.734713],[-3.948534,51.734741],[-3.94836,51.734732],[-3.948201,51.734684],[-3.948025,51.734666],[-3.94783,51.734679],[-3.947618,51.734721],[-3.947389,51.734793],[-3.947184,51.734873],[-3.947005,51.734961],[-3.94685,51.735058],[-3.946721,51.735162],[-3.946581,51.735335],[-3.946431,51.735575],[-3.946271,51.735883],[-3.946101,51.736259],[-3.946006,51.73656],[-3.945986,51.736785],[-3.946042,51.736934],[-3.946173,51.737007],[-3.946297,51.737117],[-3.946416,51.737264],[-3.946527,51.737448],[-3.946632,51.737669],[-3.946697,51.737861],[-3.946721,51.738025],[-3.946705,51.738161],[-3.946649,51.738267],[-3.946629,51.738392],[-3.946647,51.738535],[-3.946701,51.738695],[-3.946793,51.738873],[-3.946952,51.739034],[-3.947178,51.73918],[-3.94747,51.739309],[-3.94783,51.739421],[-3.948181,51.739493],[-3.948524,51.739524],[-3.948859,51.739514],[-3.949185,51.739464],[-3.949484,51.739411],[-3.949755,51.739357],[-3.949998,51.7393],[-3.950214,51.73924],[-3.950413,51.73923],[-3.950597,51.73927],[-3.950764,51.739358],[-3.950915,51.739495]]]}}