{"type":"Feature","properties":{"id":"263319","COMMUNE":"Neath Port Talbot","PROVINCE":"Bridgend and Neath Port Talbot","COUNTRY":"UK","FIREDATE":"2025-03-08 16:09:00.046","CLASS":"FireSeason","areaHA_geo":5.151},"geometry":{"type":"Polygon","coordinates":[[[-3.86986,51.776415],[-3.869935,51.776223],[-3.870037,51.776075],[-3.870167,51.775972],[-3.870325,51.775913],[-3.87051,51.7759],[-3.870677,51.775871],[-3.870826,51.775829],[-3.870957,51.775771],[-3.871069,51.7757],[-3.871183,51.775642],[-3.871298,51.775599],[-3.871415,51.775571],[-3.871532,51.775557],[-3.871642,51.775531],[-3.871745,51.775494],[-3.871842,51.775445],[-3.871931,51.775384],[-3.871931,51.775276],[-3.871842,51.77512],[-3.871663,51.774916],[-3.871395,51.774664],[-3.871152,51.77447],[-3.870934,51.774334],[-3.870741,51.774255],[-3.870572,51.774233],[-3.870335,51.774222],[-3.87003,51.774221],[-3.869658,51.77423],[-3.869218,51.774249],[-3.868848,51.774266],[-3.868549,51.774281],[-3.868319,51.774293],[-3.868161,51.774304],[-3.868023,51.774318],[-3.867907,51.774336],[-3.867812,51.774358],[-3.867739,51.774383],[-3.867655,51.774406],[-3.86756,51.774426],[-3.867454,51.774442],[-3.867336,51.774456],[-3.867192,51.774492],[-3.867021,51.77455],[-3.866823,51.77463],[-3.866598,51.774732],[-3.866383,51.774847],[-3.86618,51.774976],[-3.865988,51.775117],[-3.865806,51.775273],[-3.865737,51.775387],[-3.865781,51.775461],[-3.865936,51.775495],[-3.866205,51.775488],[-3.866425,51.77547],[-3.866599,51.775441],[-3.866725,51.775401],[-3.866804,51.77535],[-3.866899,51.775286],[-3.86701,51.77521],[-3.867138,51.775122],[-3.867283,51.775021],[-3.867452,51.77497],[-3.867648,51.774968],[-3.867868,51.775014],[-3.868114,51.77511],[-3.868321,51.775166],[-3.868489,51.775184],[-3.868617,51.775162],[-3.868707,51.775102],[-3.868793,51.775041],[-3.868875,51.774982],[-3.868955,51.774922],[-3.869031,51.774863],[-3.869107,51.774848],[-3.869184,51.774876],[-3.86926,51.774948],[-3.869337,51.775064],[-3.869393,51.775168],[-3.869428,51.77526],[-3.869443,51.775339],[-3.869437,51.775407],[-3.869394,51.775464],[-3.869314,51.775511],[-3.869197,51.775548],[-3.869043,51.775574],[-3.868925,51.775651],[-3.868843,51.775778],[-3.868797,51.775954],[-3.868786,51.77618],[-3.868839,51.776362],[-3.868956,51.776498],[-3.869136,51.776589],[-3.869381,51.776635],[-3.869582,51.776621],[-3.869742,51.776548],[-3.86986,51.776415]]]}}