{"type":"Feature","properties":{"id":"263303","COMMUNE":"Swansea","PROVINCE":"Swansea","COUNTRY":"UK","FIREDATE":"2025-03-06 15:53:12.697","CLASS":"FireSeason","areaHA_geo":6.566},"geometry":{"type":"Polygon","coordinates":[[[-3.936668,51.760018],[-3.936793,51.759669],[-3.936855,51.759306],[-3.936854,51.758928],[-3.93679,51.758536],[-3.936662,51.758128],[-3.93633,51.757774],[-3.935794,51.757471],[-3.935054,51.757221],[-3.934109,51.757023],[-3.933454,51.757032],[-3.933089,51.757248],[-3.933014,51.757671],[-3.933229,51.758301],[-3.933574,51.758855],[-3.934048,51.759331],[-3.93465,51.759732],[-3.935383,51.760055],[-3.935963,51.760211],[-3.936392,51.760198],[-3.936668,51.760018]]]}}