{"type":"Feature","properties":{"id":"263389","COMMUNE":"Carmarthenshire","PROVINCE":"South West Wales","COUNTRY":"UK","FIREDATE":"2025-03-15 17:24:47.642","CLASS":"FireSeason","areaHA_geo":5.506},"geometry":{"type":"Polygon","coordinates":[[[-3.832944,51.868076],[-3.833311,51.868055],[-3.833715,51.867905],[-3.834157,51.867626],[-3.834637,51.867218],[-3.835014,51.866847],[-3.835287,51.866514],[-3.835458,51.866219],[-3.835525,51.865962],[-3.835556,51.865752],[-3.835551,51.865588],[-3.835509,51.865471],[-3.835432,51.865401],[-3.835377,51.865328],[-3.835345,51.865253],[-3.835334,51.865175],[-3.835346,51.865094],[-3.835168,51.865098],[-3.8348,51.865187],[-3.834242,51.865361],[-3.833494,51.86562],[-3.832875,51.865875],[-3.832382,51.866126],[-3.832018,51.866373],[-3.831781,51.866616],[-3.831647,51.86685],[-3.831615,51.867075],[-3.831687,51.86729],[-3.831862,51.867496],[-3.832075,51.867678],[-3.832326,51.867835],[-3.832616,51.867967],[-3.832944,51.868076]]]}}