{"type":"Feature","properties":{"id":"263371","COMMUNE":"Swansea","PROVINCE":"Swansea","COUNTRY":"UK","FIREDATE":"2025-03-08 16:57:40.243","FINALDATE":"2025-03-09 16:57:41.906","CLASS":"FireSeason","areaHA_geo":0.396},"geometry":{"type":"Polygon","coordinates":[[[-4.268687,51.609342],[-4.268784,51.609412],[-4.268932,51.609456],[-4.26913,51.609474],[-4.269379,51.609465],[-4.269588,51.609446],[-4.269756,51.609416],[-4.269883,51.609375],[-4.269969,51.609323],[-4.270016,51.609261],[-4.270024,51.60919],[-4.269993,51.60911],[-4.269923,51.60902],[-4.269851,51.608941],[-4.269775,51.608874],[-4.269697,51.608819],[-4.269616,51.608774],[-4.269556,51.608768],[-4.269517,51.608798],[-4.269499,51.608865],[-4.269501,51.60897],[-4.269491,51.609052],[-4.269469,51.60911],[-4.269434,51.609145],[-4.269386,51.609157],[-4.269304,51.609162],[-4.269188,51.609159],[-4.269036,51.609148],[-4.268851,51.60913],[-4.268723,51.60914],[-4.268653,51.609179],[-4.268641,51.609246],[-4.268687,51.609342]]]}}