{"type":"Feature","properties":{"id":"263344","COMMUNE":"Swansea","PROVINCE":"Swansea","COUNTRY":"UK","FIREDATE":"2025-03-20 16:44:28.502","FINALDATE":"2025-03-21 16:44:31.141","CLASS":"FireSeason","areaHA_geo":11.852},"geometry":{"type":"Polygon","coordinates":[[[-4.076801,51.60874],[-4.076881,51.608746],[-4.076969,51.608704],[-4.077065,51.608614],[-4.077168,51.608476],[-4.077279,51.608359],[-4.077395,51.608262],[-4.077518,51.608186],[-4.077648,51.60813],[-4.077746,51.608062],[-4.077812,51.60798],[-4.077846,51.607884],[-4.077849,51.607776],[-4.077873,51.607686],[-4.07792,51.607615],[-4.077989,51.607563],[-4.078079,51.607529],[-4.078156,51.607487],[-4.078218,51.607437],[-4.078266,51.607378],[-4.0783,51.607311],[-4.078354,51.607256],[-4.078428,51.607213],[-4.078522,51.607182],[-4.078635,51.607163],[-4.078728,51.60708],[-4.078802,51.606935],[-4.078856,51.606726],[-4.07889,51.606454],[-4.078931,51.60624],[-4.078978,51.606084],[-4.079032,51.605985],[-4.079092,51.605943],[-4.079139,51.605814],[-4.079171,51.605596],[-4.07919,51.605291],[-4.079195,51.604898],[-4.079171,51.604596],[-4.079119,51.604386],[-4.079038,51.604268],[-4.078929,51.604242],[-4.078805,51.604227],[-4.078666,51.604224],[-4.078512,51.604232],[-4.078344,51.604253],[-4.078193,51.604247],[-4.078058,51.604215],[-4.077941,51.604157],[-4.077841,51.604072],[-4.077715,51.603999],[-4.077562,51.603938],[-4.077383,51.603889],[-4.077178,51.603851],[-4.077026,51.603855],[-4.076926,51.603902],[-4.076878,51.60399],[-4.076882,51.60412],[-4.076856,51.604199],[-4.0768,51.604226],[-4.076714,51.6042],[-4.076598,51.604124],[-4.076492,51.604072],[-4.076397,51.604047],[-4.076312,51.604047],[-4.076237,51.604073],[-4.07615,51.604095],[-4.07605,51.604113],[-4.075937,51.604127],[-4.075811,51.604137],[-4.075727,51.60417],[-4.075685,51.604226],[-4.075685,51.604306],[-4.075727,51.604409],[-4.075715,51.604503],[-4.07565,51.604587],[-4.075531,51.604663],[-4.075359,51.604729],[-4.075217,51.604805],[-4.075106,51.604889],[-4.075025,51.604983],[-4.074975,51.605086],[-4.074915,51.60518],[-4.074845,51.605265],[-4.074766,51.605342],[-4.074677,51.60541],[-4.074618,51.605494],[-4.07459,51.605594],[-4.074592,51.60571],[-4.074625,51.605843],[-4.074682,51.605973],[-4.074763,51.606099],[-4.074868,51.606223],[-4.074998,51.606344],[-4.074979,51.606434],[-4.074809,51.606495],[-4.07449,51.606525],[-4.074021,51.606525],[-4.073685,51.606546],[-4.073482,51.606588],[-4.073412,51.60665],[-4.073475,51.606734],[-4.073567,51.606821],[-4.073688,51.606911],[-4.073837,51.607006],[-4.074015,51.607103],[-4.074235,51.607191],[-4.074498,51.607267],[-4.074804,51.607332],[-4.075152,51.607386],[-4.075479,51.607439],[-4.075785,51.60749],[-4.076069,51.60754],[-4.076332,51.607587],[-4.076533,51.60764],[-4.07667,51.607697],[-4.076745,51.607759],[-4.076757,51.607826],[-4.076756,51.607919],[-4.076743,51.608037],[-4.076717,51.608181],[-4.076678,51.608351],[-4.076667,51.608491],[-4.076684,51.608603],[-4.076729,51.608686],[-4.076801,51.60874]]]}}