{"type":"Feature","properties":{"id":"263340","COMMUNE":"Swansea","PROVINCE":"Swansea","COUNTRY":"UK","FIREDATE":"2025-03-21 03:23:00","CLASS":"FireSeason","areaHA_geo":13.579},"geometry":{"type":"Polygon","coordinates":[[[-4.05994,51.605764],[-4.059977,51.605616],[-4.059975,51.605487],[-4.059936,51.605375],[-4.059858,51.605282],[-4.059742,51.605206],[-4.059692,51.605151],[-4.059708,51.605115],[-4.059791,51.6051],[-4.059941,51.605105],[-4.060072,51.60509],[-4.060185,51.605057],[-4.060279,51.605004],[-4.060355,51.604931],[-4.060396,51.604865],[-4.060404,51.604805],[-4.060377,51.604751],[-4.060315,51.604704],[-4.060281,51.604657],[-4.060272,51.604611],[-4.060291,51.604566],[-4.060336,51.604523],[-4.060372,51.604474],[-4.0604,51.60442],[-4.060419,51.604361],[-4.060429,51.604297],[-4.060419,51.604231],[-4.060389,51.604163],[-4.060338,51.604093],[-4.060266,51.604022],[-4.060244,51.603966],[-4.060273,51.603925],[-4.060352,51.6039],[-4.060482,51.60389],[-4.060582,51.603866],[-4.060654,51.603829],[-4.060696,51.603778],[-4.06071,51.603713],[-4.060686,51.60365],[-4.060624,51.603586],[-4.060525,51.603524],[-4.060389,51.603462],[-4.060268,51.603424],[-4.060163,51.603409],[-4.060074,51.603418],[-4.060001,51.603449],[-4.059947,51.603457],[-4.059911,51.60344],[-4.059893,51.6034],[-4.059894,51.603335],[-4.059915,51.603276],[-4.059955,51.603223],[-4.060016,51.603177],[-4.060095,51.603137],[-4.060138,51.603099],[-4.060144,51.603063],[-4.060112,51.603029],[-4.060044,51.602997],[-4.059991,51.602963],[-4.059953,51.602926],[-4.059931,51.602888],[-4.059924,51.602847],[-4.059875,51.602809],[-4.059785,51.602777],[-4.059653,51.602748],[-4.059479,51.602723],[-4.059333,51.602709],[-4.059216,51.602705],[-4.059128,51.602711],[-4.059069,51.602728],[-4.059008,51.602742],[-4.058945,51.602752],[-4.05888,51.60276],[-4.058814,51.602764],[-4.05875,51.602782],[-4.058689,51.602813],[-4.05863,51.602858],[-4.058575,51.602916],[-4.058498,51.60296],[-4.0584,51.602991],[-4.058281,51.603009],[-4.05814,51.603012],[-4.057991,51.603019],[-4.057834,51.60303],[-4.057669,51.603044],[-4.057496,51.603061],[-4.057347,51.603064],[-4.057221,51.603052],[-4.05712,51.603026],[-4.057043,51.602986],[-4.05697,51.602956],[-4.056902,51.602936],[-4.056839,51.602925],[-4.05678,51.602925],[-4.056703,51.602922],[-4.056607,51.602917],[-4.056494,51.602911],[-4.056361,51.602902],[-4.056232,51.602908],[-4.056104,51.602929],[-4.055979,51.602966],[-4.055857,51.603017],[-4.055751,51.603068],[-4.055663,51.60312],[-4.055591,51.603172],[-4.055537,51.603224],[-4.055506,51.603279],[-4.0555,51.603337],[-4.055518,51.603398],[-4.055559,51.603462],[-4.055596,51.603517],[-4.055627,51.603562],[-4.055653,51.603599],[-4.055674,51.603627],[-4.055658,51.603667],[-4.055603,51.603718],[-4.05551,51.603782],[-4.05538,51.603857],[-4.055278,51.603921],[-4.055206,51.603974],[-4.055162,51.604017],[-4.055148,51.60405],[-4.055134,51.604079],[-4.05512,51.604104],[-4.055107,51.604126],[-4.055094,51.604145],[-4.055061,51.604175],[-4.055008,51.604215],[-4.054934,51.604267],[-4.05484,51.60433],[-4.054765,51.604387],[-4.054709,51.604439],[-4.054671,51.604485],[-4.054653,51.604525],[-4.054621,51.604558],[-4.054575,51.604584],[-4.054516,51.604602],[-4.054442,51.604613],[-4.054375,51.604634],[-4.054314,51.604665],[-4.054259,51.604707],[-4.05421,51.604758],[-4.054162,51.604809],[-4.054113,51.604859],[-4.054063,51.604908],[-4.054014,51.604956],[-4.05397,51.605002],[-4.053931,51.605047],[-4.053899,51.60509],[-4.053872,51.605131],[-4.053842,51.605165],[-4.05381,51.605189],[-4.053775,51.605206],[-4.053738,51.605214],[-4.0537,51.605236],[-4.053661,51.605271],[-4.053623,51.60532],[-4.053584,51.605382],[-4.05355,51.605439],[-4.053522,51.605491],[-4.053499,51.605538],[-4.053481,51.60558],[-4.053444,51.605617],[-4.053386,51.605649],[-4.053308,51.605676],[-4.05321,51.605697],[-4.053126,51.605726],[-4.053056,51.605763],[-4.053,51.605808],[-4.052958,51.605861],[-4.052895,51.605907],[-4.05281,51.605946],[-4.052703,51.605978],[-4.052576,51.606003],[-4.052492,51.606032],[-4.052451,51.606064],[-4.052454,51.606101],[-4.0525,51.606141],[-4.052564,51.606177],[-4.052645,51.606209],[-4.052743,51.606237],[-4.052859,51.606261],[-4.052977,51.606274],[-4.053099,51.606274],[-4.053224,51.606263],[-4.053353,51.60624],[-4.053459,51.606229],[-4.053542,51.60623],[-4.053603,51.606243],[-4.053642,51.606269],[-4.05366,51.606305],[-4.053655,51.60635],[-4.05363,51.606405],[-4.053582,51.60647],[-4.053588,51.60653],[-4.053646,51.606583],[-4.053758,51.606632],[-4.053922,51.606675],[-4.054069,51.606699],[-4.054196,51.606703],[-4.054306,51.606689],[-4.054397,51.606655],[-4.05448,51.606634],[-4.054554,51.606627],[-4.054621,51.606633],[-4.05468,51.606653],[-4.054743,51.606657],[-4.054812,51.606646],[-4.054886,51.606619],[-4.054965,51.606577],[-4.055041,51.606554],[-4.055114,51.606549],[-4.055183,51.606562],[-4.055248,51.606594],[-4.055355,51.606628],[-4.055503,51.606663],[-4.055693,51.606701],[-4.055924,51.606739],[-4.056085,51.606738],[-4.056175,51.606698],[-4.056195,51.606618],[-4.056145,51.606498],[-4.056094,51.606398],[-4.056041,51.606317],[-4.055986,51.606257],[-4.05593,51.606216],[-4.055918,51.606183],[-4.05595,51.606157],[-4.056026,51.606138],[-4.056146,51.606128],[-4.056269,51.606124],[-4.056395,51.606127],[-4.056523,51.606136],[-4.056655,51.606153],[-4.056739,51.606151],[-4.056776,51.606131],[-4.056765,51.606094],[-4.056708,51.606038],[-4.056652,51.605987],[-4.056599,51.605941],[-4.056549,51.6059],[-4.056501,51.605863],[-4.056437,51.60583],[-4.056358,51.6058],[-4.056264,51.605772],[-4.056154,51.605747],[-4.056102,51.605703],[-4.056107,51.605639],[-4.056168,51.605557],[-4.056287,51.605454],[-4.056399,51.605374],[-4.056504,51.605316],[-4.056602,51.605279],[-4.056693,51.605264],[-4.056788,51.605249],[-4.056888,51.605234],[-4.056993,51.605219],[-4.057102,51.605204],[-4.057228,51.605204],[-4.057372,51.60522],[-4.057533,51.605252],[-4.057711,51.605299],[-4.057893,51.605351],[-4.058079,51.605407],[-4.058268,51.605469],[-4.058462,51.605535],[-4.058617,51.605602],[-4.058734,51.60567],[-4.058812,51.605738],[-4.058853,51.605808],[-4.058899,51.60586],[-4.058951,51.605895],[-4.05901,51.605912],[-4.059075,51.605912],[-4.059132,51.605904],[-4.059181,51.60589],[-4.059223,51.605868],[-4.059257,51.605839],[-4.059318,51.605829],[-4.059407,51.605838],[-4.059524,51.605867],[-4.059668,51.605914],[-4.059786,51.605913],[-4.059876,51.605863],[-4.05994,51.605764]]]}}