{"type":"Feature","properties":{"id":"263367","COMMUNE":"Swansea","PROVINCE":"Swansea","COUNTRY":"UK","FIREDATE":"2025-03-08 16:56:57.774","FINALDATE":"2025-03-09 16:56:59.504","CLASS":"FireSeason","areaHA_geo":3.495},"geometry":{"type":"Polygon","coordinates":[[[-4.26074,51.609723],[-4.260875,51.609706],[-4.260958,51.60967],[-4.260991,51.609615],[-4.260973,51.609541],[-4.260941,51.609478],[-4.260895,51.609424],[-4.260837,51.609381],[-4.260765,51.609349],[-4.260729,51.609322],[-4.26073,51.609301],[-4.260768,51.609287],[-4.260842,51.609277],[-4.260917,51.609259],[-4.260993,51.60923],[-4.261069,51.609192],[-4.261147,51.609144],[-4.261192,51.609094],[-4.261206,51.609039],[-4.261187,51.608982],[-4.261137,51.608921],[-4.261051,51.608893],[-4.260929,51.608897],[-4.260771,51.608933],[-4.260577,51.609001],[-4.260404,51.609045],[-4.260253,51.609064],[-4.260124,51.609057],[-4.260016,51.609026],[-4.259937,51.608988],[-4.259887,51.608943],[-4.259866,51.608892],[-4.259873,51.608834],[-4.259916,51.608784],[-4.259995,51.608742],[-4.260111,51.608709],[-4.260262,51.608684],[-4.260323,51.608614],[-4.260294,51.608498],[-4.260174,51.608337],[-4.259965,51.60813],[-4.259778,51.607958],[-4.259616,51.607819],[-4.259477,51.607713],[-4.259361,51.607641],[-4.259235,51.607552],[-4.259098,51.607445],[-4.25895,51.60732],[-4.258792,51.607177],[-4.258648,51.60706],[-4.258519,51.60697],[-4.258404,51.606905],[-4.258304,51.606866],[-4.25819,51.606837],[-4.25806,51.606816],[-4.257915,51.606805],[-4.257754,51.606802],[-4.257635,51.606822],[-4.257556,51.606865],[-4.257518,51.606931],[-4.257521,51.60702],[-4.257517,51.6071],[-4.257506,51.607171],[-4.257489,51.607234],[-4.257465,51.607288],[-4.257441,51.607352],[-4.257419,51.607426],[-4.257397,51.607511],[-4.257376,51.607606],[-4.257377,51.607684],[-4.257399,51.607747],[-4.257443,51.607793],[-4.25751,51.607823],[-4.257555,51.607856],[-4.257579,51.607891],[-4.257582,51.607929],[-4.257564,51.607969],[-4.257571,51.608024],[-4.257603,51.608093],[-4.257661,51.608177],[-4.257744,51.608275],[-4.257852,51.608384],[-4.257985,51.608504],[-4.258144,51.608636],[-4.258328,51.608779],[-4.258477,51.608865],[-4.258589,51.608894],[-4.258665,51.608866],[-4.258705,51.608782],[-4.258758,51.608731],[-4.258824,51.608713],[-4.258904,51.608729],[-4.258996,51.608778],[-4.259094,51.608829],[-4.259196,51.608883],[-4.259303,51.60894],[-4.259414,51.609],[-4.259529,51.609056],[-4.259646,51.609108],[-4.259765,51.609157],[-4.259888,51.609202],[-4.259979,51.609251],[-4.260039,51.609302],[-4.260068,51.609357],[-4.260066,51.609414],[-4.260077,51.609471],[-4.260103,51.609527],[-4.260142,51.609581],[-4.260195,51.609635],[-4.260282,51.609676],[-4.260401,51.609705],[-4.260554,51.60972],[-4.26074,51.609723]]]}}