{"type":"Feature","properties":{"id":"263305","COMMUNE":"Swansea","PROVINCE":"Swansea","COUNTRY":"UK","FIREDATE":"2025-03-06 15:52:01.877","CLASS":"FireSeason","areaHA_geo":33.901},"geometry":{"type":"Polygon","coordinates":[[[-3.928417,51.740677],[-3.928733,51.740822],[-3.92902,51.740877],[-3.929279,51.74084],[-3.929509,51.740713],[-3.929677,51.740559],[-3.929783,51.740379],[-3.929827,51.740174],[-3.929809,51.739943],[-3.929828,51.739746],[-3.929885,51.739583],[-3.92998,51.739455],[-3.930113,51.739361],[-3.930251,51.739312],[-3.930393,51.739306],[-3.93054,51.739344],[-3.930692,51.739426],[-3.930855,51.739459],[-3.93103,51.739443],[-3.931217,51.739379],[-3.931416,51.739266],[-3.931528,51.739133],[-3.931552,51.73898],[-3.931489,51.738807],[-3.931338,51.738614],[-3.931283,51.738482],[-3.931324,51.73841],[-3.93146,51.738399],[-3.931692,51.738449],[-3.931896,51.738481],[-3.932071,51.738493],[-3.932217,51.738487],[-3.932335,51.738461],[-3.932412,51.738405],[-3.932448,51.738317],[-3.932442,51.738198],[-3.932395,51.738048],[-3.932476,51.737916],[-3.932683,51.737802],[-3.933018,51.737707],[-3.93348,51.737629],[-3.9339,51.737532],[-3.934277,51.737414],[-3.934612,51.737276],[-3.934905,51.737119],[-3.935112,51.736916],[-3.935233,51.736668],[-3.935267,51.736375],[-3.935215,51.736037],[-3.935112,51.735752],[-3.934959,51.73552],[-3.934754,51.735341],[-3.934499,51.735216],[-3.934279,51.735104],[-3.934095,51.735004],[-3.933946,51.734916],[-3.933832,51.734841],[-3.933735,51.734819],[-3.933655,51.734851],[-3.933592,51.734936],[-3.933545,51.735075],[-3.933474,51.73515],[-3.933379,51.735162],[-3.933259,51.735109],[-3.933115,51.734993],[-3.933022,51.734885],[-3.932982,51.734784],[-3.932993,51.734691],[-3.933056,51.734606],[-3.933094,51.734509],[-3.933105,51.734402],[-3.933091,51.734285],[-3.933051,51.734156],[-3.93295,51.734051],[-3.93279,51.73397],[-3.93257,51.733913],[-3.932289,51.73388],[-3.932037,51.73388],[-3.931813,51.733912],[-3.931617,51.733978],[-3.93145,51.734076],[-3.931251,51.734088],[-3.931021,51.734016],[-3.93076,51.733858],[-3.930468,51.733615],[-3.930176,51.733472],[-3.929883,51.733429],[-3.929591,51.733487],[-3.929298,51.733644],[-3.929063,51.733728],[-3.928886,51.733738],[-3.928767,51.733675],[-3.928706,51.733537],[-3.928701,51.733393],[-3.928753,51.733243],[-3.928862,51.733085],[-3.929026,51.732921],[-3.929156,51.732758],[-3.929249,51.732597],[-3.929307,51.732437],[-3.92933,51.732278],[-3.92924,51.73215],[-3.929038,51.732052],[-3.928724,51.731984],[-3.928298,51.731946],[-3.927916,51.731975],[-3.927577,51.732072],[-3.927281,51.732235],[-3.927029,51.732465],[-3.926851,51.732673],[-3.926746,51.732858],[-3.926716,51.73302],[-3.92676,51.733159],[-3.926761,51.733278],[-3.92672,51.733378],[-3.926637,51.733457],[-3.926511,51.733517],[-3.926441,51.733636],[-3.926425,51.733816],[-3.926464,51.734056],[-3.926558,51.734356],[-3.926707,51.734619],[-3.926913,51.734845],[-3.927174,51.735033],[-3.927492,51.735184],[-3.92778,51.735313],[-3.928039,51.735421],[-3.928268,51.735508],[-3.928469,51.735573],[-3.928638,51.735683],[-3.928777,51.735839],[-3.928885,51.73604],[-3.928962,51.736286],[-3.929034,51.736517],[-3.929101,51.736731],[-3.929163,51.736929],[-3.92922,51.737111],[-3.929309,51.737295],[-3.92943,51.737481],[-3.929584,51.737668],[-3.929769,51.737857],[-3.929911,51.738052],[-3.930009,51.738251],[-3.930064,51.738456],[-3.930076,51.738665],[-3.930044,51.738839],[-3.92997,51.738976],[-3.929853,51.739076],[-3.929693,51.739139],[-3.929543,51.739152],[-3.929405,51.739113],[-3.929278,51.739022],[-3.929161,51.738881],[-3.929035,51.738765],[-3.928899,51.738676],[-3.928753,51.738613],[-3.928598,51.738576],[-3.928462,51.738531],[-3.928346,51.738478],[-3.928251,51.738417],[-3.928175,51.738348],[-3.928106,51.738271],[-3.928043,51.738184],[-3.927986,51.738088],[-3.927935,51.737983],[-3.927901,51.737817],[-3.927884,51.737591],[-3.927885,51.737305],[-3.927903,51.736958],[-3.92789,51.736673],[-3.927847,51.73645],[-3.927775,51.73629],[-3.927672,51.736191],[-3.927533,51.736063],[-3.927357,51.735906],[-3.927146,51.73572],[-3.926899,51.735505],[-3.926728,51.73542],[-3.926634,51.735465],[-3.926617,51.735639],[-3.926676,51.735943],[-3.926716,51.736188],[-3.926739,51.736375],[-3.926742,51.736502],[-3.926728,51.736571],[-3.926663,51.736595],[-3.926549,51.736575],[-3.926385,51.736512],[-3.926171,51.736404],[-3.926009,51.736287],[-3.925897,51.736162],[-3.925837,51.736027],[-3.925828,51.735884],[-3.925773,51.735807],[-3.925671,51.735797],[-3.925522,51.735854],[-3.925326,51.735977],[-3.925178,51.736106],[-3.925076,51.736241],[-3.92502,51.736381],[-3.925012,51.736526],[-3.924992,51.736707],[-3.92496,51.736922],[-3.924916,51.737171],[-3.924861,51.737456],[-3.924843,51.7377],[-3.924862,51.737903],[-3.924917,51.738066],[-3.925009,51.738189],[-3.925064,51.738291],[-3.92508,51.738372],[-3.925059,51.738433],[-3.924999,51.738473],[-3.924982,51.73852],[-3.925008,51.738572],[-3.925076,51.738631],[-3.925186,51.738696],[-3.925297,51.738735],[-3.92541,51.738749],[-3.925523,51.738739],[-3.925638,51.738703],[-3.925755,51.738702],[-3.925875,51.738738],[-3.925996,51.73881],[-3.92612,51.738917],[-3.926219,51.739019],[-3.926294,51.739116],[-3.926345,51.739207],[-3.926372,51.739293],[-3.926414,51.739368],[-3.92647,51.739434],[-3.926542,51.739489],[-3.926628,51.739535],[-3.926727,51.739534],[-3.926838,51.739487],[-3.926962,51.739394],[-3.927099,51.739256],[-3.927233,51.739195],[-3.927365,51.739213],[-3.927494,51.739309],[-3.92762,51.739482],[-3.927733,51.739627],[-3.927832,51.739743],[-3.927918,51.73983],[-3.92799,51.739888],[-3.928011,51.739939],[-3.927979,51.739981],[-3.927895,51.740016],[-3.92776,51.740044],[-3.927744,51.740124],[-3.927849,51.740256],[-3.928073,51.74044],[-3.928417,51.740677]]]}}