{"type":"Feature","properties":{"id":"263391","COMMUNE":"Rhondda Cynon Taf","PROVINCE":"Central Valleys","COUNTRY":"UK","FIREDATE":"2025-03-20 11:51:00","CLASS":"FireSeason","areaHA_geo":58.994},"geometry":{"type":"Polygon","coordinates":[[[-3.47356,51.573069],[-3.473689,51.573161],[-3.47381,51.573198],[-3.473923,51.573177],[-3.474028,51.573101],[-3.47418,51.573047],[-3.474379,51.573017],[-3.474626,51.573009],[-3.474921,51.573025],[-3.475109,51.573016],[-3.475191,51.572981],[-3.475168,51.572921],[-3.475038,51.572836],[-3.474958,51.572727],[-3.47493,51.572593],[-3.474952,51.572436],[-3.475025,51.572255],[-3.475108,51.572116],[-3.475201,51.572019],[-3.475303,51.571964],[-3.475415,51.571951],[-3.475354,51.571885],[-3.475121,51.571765],[-3.474716,51.571591],[-3.474137,51.571364],[-3.473671,51.57122],[-3.473317,51.571161],[-3.473075,51.571185],[-3.472946,51.571294],[-3.472751,51.571322],[-3.472492,51.571269],[-3.472168,51.571136],[-3.471779,51.570923],[-3.471414,51.570759],[-3.471072,51.570644],[-3.470754,51.570579],[-3.47046,51.570563],[-3.470102,51.5705],[-3.469681,51.570391],[-3.469197,51.570235],[-3.468649,51.570033],[-3.468149,51.569874],[-3.467697,51.569757],[-3.467292,51.569684],[-3.466936,51.569654],[-3.466628,51.569653],[-3.466371,51.569683],[-3.466163,51.569744],[-3.466004,51.569834],[-3.465755,51.569834],[-3.465415,51.569744],[-3.464985,51.569564],[-3.464463,51.569294],[-3.464051,51.56906],[-3.463748,51.568862],[-3.463554,51.568699],[-3.46347,51.568573],[-3.463319,51.568474],[-3.4631,51.568402],[-3.462814,51.568358],[-3.462462,51.568341],[-3.462188,51.568309],[-3.461994,51.568259],[-3.461878,51.568194],[-3.461842,51.568112],[-3.461842,51.568052],[-3.461877,51.568016],[-3.461948,51.568002],[-3.462056,51.568012],[-3.462143,51.568003],[-3.46221,51.567977],[-3.462258,51.567934],[-3.462286,51.567873],[-3.462361,51.567823],[-3.462483,51.567784],[-3.462651,51.567756],[-3.462866,51.567738],[-3.463116,51.567694],[-3.463403,51.567625],[-3.463725,51.56753],[-3.464083,51.56741],[-3.464372,51.567342],[-3.464594,51.567327],[-3.464747,51.567365],[-3.464832,51.567456],[-3.46505,51.567495],[-3.4654,51.567483],[-3.465882,51.56742],[-3.466497,51.567305],[-3.466933,51.567195],[-3.467191,51.56709],[-3.467271,51.566989],[-3.467172,51.566893],[-3.466997,51.56683],[-3.466745,51.566802],[-3.466417,51.566808],[-3.466012,51.566848],[-3.465691,51.566862],[-3.465456,51.56685],[-3.465305,51.566811],[-3.46524,51.566747],[-3.465158,51.566688],[-3.465061,51.566635],[-3.464948,51.566587],[-3.46482,51.566545],[-3.464677,51.566522],[-3.464519,51.566518],[-3.464347,51.566535],[-3.464161,51.566571],[-3.46399,51.56658],[-3.463834,51.566562],[-3.463693,51.566517],[-3.463567,51.566446],[-3.463552,51.566365],[-3.463646,51.566275],[-3.463851,51.566176],[-3.464166,51.566067],[-3.464396,51.565963],[-3.46454,51.565864],[-3.464598,51.565769],[-3.464571,51.565679],[-3.464481,51.565629],[-3.464327,51.565618],[-3.464109,51.565647],[-3.463829,51.565715],[-3.463528,51.565745],[-3.463206,51.565735],[-3.462864,51.565687],[-3.462502,51.5656],[-3.462168,51.565522],[-3.461864,51.565453],[-3.461588,51.565393],[-3.461341,51.565343],[-3.46104,51.565267],[-3.460685,51.565164],[-3.460276,51.565036],[-3.459812,51.564881],[-3.459469,51.564733],[-3.459246,51.56459],[-3.459144,51.564452],[-3.459163,51.564321],[-3.459134,51.564206],[-3.459058,51.564107],[-3.458935,51.564024],[-3.458764,51.563958],[-3.458597,51.563932],[-3.458434,51.563948],[-3.458274,51.564004],[-3.458118,51.564101],[-3.458066,51.564227],[-3.458118,51.564383],[-3.458275,51.564568],[-3.458536,51.564782],[-3.458799,51.564992],[-3.459064,51.565198],[-3.45933,51.565401],[-3.459599,51.565599],[-3.459797,51.565846],[-3.459926,51.56614],[-3.459985,51.566481],[-3.459974,51.56687],[-3.459925,51.567217],[-3.459837,51.567522],[-3.45971,51.567785],[-3.459544,51.568005],[-3.459399,51.568187],[-3.459274,51.568331],[-3.45917,51.568436],[-3.459086,51.568504],[-3.458904,51.568584],[-3.458625,51.568677],[-3.458248,51.568784],[-3.457774,51.568904],[-3.457372,51.569031],[-3.457042,51.569167],[-3.456784,51.56931],[-3.456597,51.569461],[-3.456474,51.569619],[-3.456413,51.569784],[-3.456415,51.569956],[-3.456481,51.570135],[-3.456559,51.570307],[-3.456649,51.570473],[-3.456752,51.570632],[-3.456867,51.570784],[-3.456958,51.570922],[-3.457024,51.571047],[-3.457066,51.571159],[-3.457084,51.571258],[-3.45714,51.571337],[-3.457234,51.571398],[-3.457365,51.57144],[-3.457535,51.571464],[-3.457618,51.571492],[-3.457617,51.571524],[-3.457529,51.571561],[-3.457356,51.571603],[-3.457236,51.571667],[-3.45717,51.571754],[-3.457156,51.571863],[-3.457196,51.571995],[-3.457195,51.5721],[-3.457154,51.572176],[-3.457073,51.572225],[-3.456952,51.572246],[-3.456903,51.572295],[-3.456926,51.572371],[-3.457021,51.572475],[-3.457188,51.572607],[-3.457357,51.572735],[-3.457527,51.572858],[-3.4577,51.572978],[-3.457874,51.573095],[-3.458081,51.573205],[-3.458321,51.57331],[-3.458594,51.57341],[-3.4589,51.573504],[-3.459197,51.573602],[-3.459483,51.573705],[-3.459758,51.573813],[-3.460024,51.573926],[-3.460262,51.573996],[-3.460473,51.574021],[-3.460656,51.574004],[-3.460811,51.573943],[-3.460926,51.573879],[-3.460999,51.573813],[-3.46103,51.573745],[-3.461021,51.573674],[-3.461043,51.573603],[-3.461097,51.573532],[-3.461183,51.573461],[-3.4613,51.57339],[-3.461428,51.573352],[-3.461566,51.573347],[-3.461713,51.573375],[-3.46187,51.573435],[-3.462057,51.57345],[-3.462274,51.573417],[-3.462519,51.573338],[-3.462795,51.573213],[-3.463009,51.573145],[-3.463162,51.573134],[-3.463255,51.573181],[-3.463286,51.573285],[-3.463404,51.573379],[-3.463609,51.573463],[-3.4639,51.573537],[-3.464279,51.573601],[-3.464563,51.57367],[-3.464754,51.573745],[-3.464851,51.573826],[-3.464853,51.573911],[-3.464846,51.574002],[-3.464828,51.574098],[-3.4648,51.574198],[-3.464762,51.574303],[-3.464768,51.574379],[-3.464817,51.574428],[-3.46491,51.574447],[-3.465046,51.574439],[-3.46517,51.574446],[-3.465281,51.574469],[-3.46538,51.574508],[-3.465466,51.574562],[-3.465554,51.574566],[-3.465645,51.57452],[-3.465737,51.574423],[-3.465832,51.574276],[-3.465926,51.574153],[-3.466018,51.574056],[-3.46611,51.573985],[-3.4662,51.573938],[-3.466282,51.573923],[-3.466357,51.57394],[-3.466424,51.573988],[-3.466482,51.574067],[-3.466554,51.574102],[-3.466638,51.574092],[-3.466734,51.574038],[-3.466844,51.573939],[-3.466917,51.573844],[-3.466953,51.573754],[-3.466953,51.573668],[-3.466917,51.573586],[-3.46685,51.573518],[-3.466753,51.573464],[-3.466626,51.573425],[-3.466467,51.573401],[-3.466308,51.573372],[-3.466148,51.573341],[-3.465987,51.573306],[-3.465825,51.573267],[-3.465659,51.573227],[-3.46549,51.573186],[-3.465318,51.573143],[-3.465142,51.573098],[-3.464998,51.573043],[-3.464886,51.572977],[-3.464805,51.572901],[-3.464755,51.572813],[-3.464766,51.572743],[-3.464838,51.572692],[-3.46497,51.572659],[-3.465162,51.572644],[-3.465335,51.572622],[-3.465489,51.572593],[-3.465623,51.572558],[-3.465738,51.572516],[-3.465841,51.572502],[-3.465932,51.572516],[-3.466012,51.572559],[-3.46608,51.57263],[-3.466152,51.572688],[-3.466229,51.572733],[-3.466311,51.572765],[-3.466398,51.572784],[-3.46649,51.572789],[-3.466586,51.572782],[-3.466687,51.572761],[-3.466793,51.572727],[-3.466944,51.572731],[-3.467142,51.572773],[-3.467386,51.572852],[-3.467677,51.572969],[-3.46788,51.573095],[-3.467995,51.573229],[-3.468023,51.573371],[-3.467964,51.573521],[-3.467964,51.573636],[-3.468023,51.573716],[-3.46814,51.57376],[-3.468316,51.573768],[-3.468474,51.573712],[-3.468611,51.573592],[-3.46873,51.573407],[-3.468829,51.573159],[-3.468844,51.572929],[-3.468775,51.572718],[-3.468621,51.572525],[-3.468384,51.572352],[-3.468265,51.572227],[-3.468266,51.572152],[-3.468385,51.572125],[-3.468624,51.572148],[-3.468812,51.572146],[-3.468948,51.572119],[-3.469034,51.572068],[-3.46907,51.571992],[-3.469135,51.571949],[-3.46923,51.571937],[-3.469355,51.571959],[-3.46951,51.572013],[-3.46978,51.57206],[-3.470163,51.572102],[-3.470661,51.572138],[-3.471272,51.572167],[-3.471809,51.572198],[-3.472271,51.572231],[-3.472658,51.572265],[-3.47297,51.5723],[-3.47319,51.572348],[-3.473318,51.572409],[-3.473355,51.572482],[-3.473299,51.572567],[-3.473292,51.572669],[-3.473333,51.572786],[-3.473423,51.572919],[-3.47356,51.573069]]]}}