{"type":"Feature","properties":{"id":"263388","COMMUNE":"Carmarthenshire","PROVINCE":"South West Wales","COUNTRY":"UK","FIREDATE":"2025-03-16 13:06:00","FINALDATE":"2025-03-16 13:29:00","CLASS":"FireSeason","areaHA_geo":93.964},"geometry":{"type":"Polygon","coordinates":[[[-3.787191,51.876008],[-3.787658,51.876089],[-3.788032,51.876169],[-3.788315,51.876249],[-3.788505,51.876329],[-3.788603,51.876408],[-3.788828,51.876477],[-3.789178,51.876538],[-3.789654,51.876589],[-3.790256,51.876631],[-3.790697,51.876616],[-3.790979,51.876543],[-3.791099,51.876413],[-3.791059,51.876225],[-3.791163,51.876099],[-3.79141,51.876036],[-3.791801,51.876035],[-3.792335,51.876096],[-3.792785,51.876108],[-3.793151,51.876071],[-3.793432,51.875983],[-3.793629,51.875847],[-3.793991,51.875694],[-3.794518,51.875524],[-3.79521,51.875337],[-3.796067,51.875133],[-3.796713,51.874932],[-3.797148,51.874733],[-3.797372,51.874537],[-3.797385,51.874343],[-3.797437,51.874153],[-3.797526,51.873967],[-3.797653,51.873784],[-3.797819,51.873606],[-3.797896,51.87341],[-3.797884,51.873196],[-3.797785,51.872964],[-3.797597,51.872715],[-3.797527,51.872477],[-3.797576,51.87225],[-3.797744,51.872035],[-3.79803,51.871831],[-3.798177,51.871621],[-3.798183,51.871405],[-3.79805,51.871183],[-3.797776,51.870955],[-3.797503,51.8708],[-3.797229,51.870719],[-3.796955,51.870712],[-3.796681,51.870778],[-3.796456,51.870808],[-3.796279,51.8708],[-3.79615,51.870756],[-3.79607,51.870675],[-3.79597,51.870622],[-3.795852,51.870596],[-3.795714,51.870598],[-3.795558,51.870628],[-3.795424,51.870627],[-3.795313,51.870595],[-3.795224,51.870532],[-3.795158,51.870438],[-3.795192,51.870368],[-3.795326,51.870324],[-3.795559,51.870305],[-3.795892,51.870311],[-3.796205,51.870311],[-3.796497,51.870304],[-3.796769,51.870292],[-3.797021,51.870274],[-3.797254,51.870269],[-3.797469,51.870277],[-3.797664,51.870299],[-3.797841,51.870335],[-3.797945,51.8703],[-3.797977,51.870194],[-3.797936,51.870018],[-3.797822,51.869771],[-3.797748,51.869547],[-3.797713,51.869348],[-3.797718,51.869171],[-3.797763,51.869019],[-3.797769,51.868891],[-3.797737,51.868787],[-3.797666,51.868707],[-3.797557,51.868652],[-3.797438,51.868624],[-3.797308,51.868622],[-3.797169,51.868647],[-3.797019,51.868699],[-3.796913,51.868683],[-3.796851,51.8686],[-3.796831,51.868449],[-3.796856,51.868231],[-3.796892,51.868054],[-3.796942,51.867918],[-3.797005,51.867823],[-3.79708,51.867769],[-3.797103,51.867653],[-3.797076,51.867475],[-3.796996,51.867235],[-3.796866,51.866933],[-3.79672,51.866732],[-3.796561,51.866632],[-3.796386,51.866633],[-3.796197,51.866735],[-3.795944,51.86681],[-3.795628,51.866859],[-3.795249,51.866881],[-3.794806,51.866877],[-3.794461,51.86685],[-3.794216,51.866799],[-3.794069,51.866726],[-3.79402,51.86663],[-3.794001,51.866524],[-3.794012,51.86641],[-3.794051,51.866286],[-3.794121,51.866153],[-3.79417,51.866017],[-3.794201,51.865878],[-3.794211,51.865735],[-3.794203,51.865589],[-3.794223,51.865476],[-3.794272,51.865396],[-3.794349,51.86535],[-3.794456,51.865338],[-3.794575,51.865352],[-3.794708,51.865393],[-3.794853,51.865461],[-3.795011,51.865555],[-3.795147,51.865565],[-3.795262,51.865489],[-3.795354,51.865328],[-3.795425,51.865081],[-3.795541,51.864937],[-3.795703,51.864896],[-3.795911,51.864956],[-3.796164,51.865119],[-3.79634,51.865197],[-3.796439,51.865191],[-3.796461,51.8651],[-3.796407,51.864925],[-3.796377,51.864711],[-3.796372,51.864457],[-3.796391,51.864163],[-3.796434,51.863829],[-3.796406,51.86356],[-3.796306,51.863357],[-3.796134,51.863219],[-3.79589,51.863146],[-3.795737,51.863022],[-3.795674,51.862848],[-3.795701,51.862624],[-3.795818,51.86235],[-3.795858,51.862079],[-3.795821,51.861811],[-3.795706,51.861547],[-3.795515,51.861287],[-3.795389,51.861044],[-3.795328,51.860819],[-3.795333,51.860612],[-3.795403,51.860422],[-3.795435,51.860246],[-3.79543,51.860082],[-3.795388,51.859931],[-3.795308,51.859793],[-3.795267,51.859662],[-3.795266,51.859538],[-3.795303,51.85942],[-3.795378,51.859309],[-3.79538,51.859094],[-3.795309,51.858774],[-3.795163,51.858349],[-3.794943,51.85782],[-3.794738,51.857428],[-3.794549,51.857173],[-3.794374,51.857055],[-3.794214,51.857074],[-3.794111,51.857171],[-3.794065,51.857346],[-3.794074,51.8576],[-3.794141,51.857932],[-3.794087,51.858159],[-3.793914,51.858282],[-3.79362,51.8583],[-3.793207,51.858213],[-3.792903,51.858183],[-3.79271,51.858212],[-3.792626,51.858298],[-3.792653,51.858442],[-3.79257,51.85856],[-3.792377,51.858651],[-3.792075,51.858715],[-3.791663,51.858752],[-3.791406,51.858828],[-3.791304,51.858942],[-3.791356,51.859094],[-3.791562,51.859285],[-3.791663,51.859446],[-3.791658,51.859577],[-3.791546,51.859678],[-3.791329,51.859749],[-3.791189,51.859817],[-3.791126,51.859881],[-3.791141,51.859941],[-3.791232,51.859998],[-3.791336,51.860068],[-3.791454,51.860151],[-3.791585,51.860246],[-3.791729,51.860353],[-3.791771,51.860444],[-3.791711,51.860519],[-3.79155,51.860578],[-3.791287,51.860621],[-3.791131,51.860724],[-3.791081,51.860889],[-3.791137,51.861114],[-3.7913,51.861401],[-3.79147,51.861621],[-3.791646,51.861776],[-3.79183,51.861865],[-3.792022,51.861888],[-3.792146,51.861932],[-3.792203,51.861999],[-3.792194,51.862088],[-3.792118,51.862199],[-3.79208,51.862311],[-3.792078,51.862425],[-3.792114,51.862539],[-3.792187,51.862655],[-3.792186,51.862757],[-3.792112,51.862845],[-3.791965,51.862919],[-3.791745,51.86298],[-3.791568,51.863094],[-3.791437,51.863262],[-3.79135,51.863485],[-3.791307,51.863762],[-3.791327,51.863989],[-3.79141,51.864166],[-3.791555,51.864293],[-3.791763,51.864371],[-3.791886,51.86447],[-3.791923,51.86459],[-3.791875,51.864731],[-3.791742,51.864894],[-3.791585,51.865026],[-3.791405,51.865127],[-3.791201,51.865196],[-3.790973,51.865235],[-3.790762,51.865294],[-3.790566,51.865374],[-3.790385,51.865474],[-3.790221,51.865596],[-3.790105,51.865728],[-3.79004,51.865872],[-3.790023,51.866027],[-3.790057,51.866193],[-3.790016,51.866342],[-3.7899,51.866475],[-3.789711,51.866591],[-3.789447,51.86669],[-3.789172,51.866796],[-3.788885,51.866909],[-3.788587,51.867029],[-3.788277,51.867157],[-3.788077,51.867285],[-3.787989,51.867415],[-3.788011,51.867545],[-3.788144,51.867677],[-3.788196,51.86777],[-3.788167,51.867824],[-3.788057,51.86784],[-3.787866,51.867817],[-3.787704,51.867831],[-3.787572,51.86788],[-3.78747,51.867966],[-3.787398,51.868088],[-3.787375,51.868192],[-3.787402,51.86828],[-3.787479,51.86835],[-3.787606,51.868403],[-3.787756,51.868484],[-3.787928,51.868594],[-3.788123,51.868733],[-3.78834,51.8689],[-3.788454,51.869045],[-3.788465,51.869168],[-3.788372,51.86927],[-3.788176,51.869349],[-3.788086,51.869445],[-3.788103,51.869556],[-3.788225,51.869684],[-3.788453,51.869826],[-3.788649,51.869953],[-3.788812,51.870064],[-3.788943,51.870159],[-3.789041,51.870238],[-3.789106,51.870344],[-3.789138,51.870476],[-3.789137,51.870635],[-3.789103,51.87082],[-3.789086,51.870975],[-3.789088,51.871099],[-3.789108,51.871193],[-3.789146,51.871257],[-3.789147,51.871305],[-3.789112,51.871337],[-3.789039,51.871355],[-3.788929,51.871356],[-3.78875,51.871462],[-3.788503,51.871673],[-3.788187,51.871988],[-3.787802,51.872407],[-3.787498,51.872777],[-3.787276,51.873098],[-3.787134,51.87337],[-3.787075,51.873592],[-3.786964,51.873753],[-3.786801,51.873851],[-3.786587,51.873888],[-3.786321,51.873863],[-3.786165,51.873878],[-3.786118,51.873935],[-3.786181,51.874032],[-3.786353,51.87417],[-3.786577,51.874314],[-3.786853,51.874462],[-3.787181,51.874616],[-3.787562,51.874775],[-3.787745,51.874949],[-3.78773,51.875137],[-3.787517,51.875341],[-3.787107,51.87556],[-3.786915,51.875744],[-3.786943,51.875893],[-3.787191,51.876008]]]}}