{"type":"Feature","properties":{"id":"263369","COMMUNE":"Swansea","PROVINCE":"Swansea","COUNTRY":"UK","FIREDATE":"2025-03-07 16:57:05.679","FINALDATE":"2025-03-08 16:57:07.749","CLASS":"FireSeason","areaHA_geo":0.352},"geometry":{"type":"Polygon","coordinates":[[[-4.261677,51.606746],[-4.2617,51.606821],[-4.26175,51.606878],[-4.261824,51.606918],[-4.261924,51.606941],[-4.262027,51.60694],[-4.262132,51.606916],[-4.26224,51.606869],[-4.262351,51.606798],[-4.262437,51.606734],[-4.262499,51.606677],[-4.262536,51.606627],[-4.262548,51.606584],[-4.262556,51.606537],[-4.26256,51.606486],[-4.26256,51.60643],[-4.262557,51.60637],[-4.262526,51.606322],[-4.262468,51.606286],[-4.262383,51.606262],[-4.262272,51.606251],[-4.262161,51.60626],[-4.262053,51.606289],[-4.261945,51.606339],[-4.261839,51.606409],[-4.261759,51.606485],[-4.261705,51.606566],[-4.261678,51.606653],[-4.261677,51.606746]]]}}