{"type":"Feature","properties":{"id":"263354","COMMUNE":"Swansea","PROVINCE":"Swansea","COUNTRY":"UK","FIREDATE":"2025-03-08 16:53:08.034","FINALDATE":"2025-03-09 16:53:11.344","CLASS":"FireSeason","areaHA_geo":6.629},"geometry":{"type":"Polygon","coordinates":[[[-4.19502,51.596581],[-4.195194,51.596651],[-4.195355,51.59667],[-4.195504,51.59664],[-4.195639,51.596559],[-4.195773,51.596511],[-4.195906,51.596494],[-4.196037,51.59651],[-4.196167,51.596558],[-4.19618,51.596526],[-4.196076,51.596415],[-4.195854,51.596223],[-4.195515,51.595952],[-4.195258,51.595729],[-4.195082,51.595555],[-4.194987,51.595429],[-4.194975,51.595353],[-4.194915,51.595275],[-4.19481,51.595195],[-4.194658,51.595114],[-4.194459,51.595032],[-4.194266,51.594931],[-4.194079,51.594812],[-4.193897,51.594674],[-4.193721,51.594518],[-4.193647,51.594418],[-4.193673,51.594376],[-4.193801,51.59439],[-4.194031,51.594462],[-4.194238,51.594527],[-4.194424,51.594586],[-4.194587,51.594639],[-4.194728,51.594686],[-4.194843,51.594693],[-4.19493,51.594661],[-4.194991,51.59459],[-4.195025,51.594479],[-4.194995,51.594376],[-4.194901,51.59428],[-4.194744,51.594193],[-4.194524,51.594113],[-4.1943,51.594025],[-4.194074,51.593928],[-4.193845,51.593823],[-4.193614,51.593709],[-4.193401,51.593589],[-4.193206,51.593464],[-4.193029,51.593332],[-4.192871,51.593195],[-4.192707,51.593077],[-4.192537,51.592977],[-4.192362,51.592895],[-4.192181,51.592832],[-4.192001,51.5928],[-4.191823,51.592801],[-4.191647,51.592833],[-4.191472,51.592897],[-4.191315,51.592991],[-4.191176,51.593115],[-4.191055,51.593268],[-4.190953,51.593452],[-4.190921,51.593669],[-4.190961,51.59392],[-4.191071,51.594205],[-4.191253,51.594525],[-4.191446,51.594787],[-4.191649,51.594994],[-4.191863,51.595144],[-4.192088,51.595237],[-4.192306,51.595317],[-4.192517,51.595384],[-4.19272,51.595437],[-4.192917,51.595477],[-4.193104,51.595541],[-4.193281,51.59563],[-4.193449,51.595742],[-4.193608,51.595879],[-4.193781,51.595972],[-4.193968,51.59602],[-4.194171,51.596024],[-4.194388,51.595983],[-4.19454,51.595975],[-4.194628,51.596],[-4.194652,51.596057],[-4.194612,51.596148],[-4.194629,51.596245],[-4.194702,51.59635],[-4.194833,51.596462],[-4.19502,51.596581]]]}}