{"type":"Feature","properties":{"id":"263387","COMMUNE":"Swansea","PROVINCE":"Swansea","COUNTRY":"UK","FIREDATE":"2025-03-08 17:01:44.651","FINALDATE":"2025-03-09 17:01:47.755","CLASS":"FireSeason","areaHA_geo":0.542},"geometry":{"type":"Polygon","coordinates":[[[-4.25268,51.594147],[-4.252802,51.594064],[-4.252902,51.593999],[-4.252979,51.593952],[-4.253035,51.593923],[-4.253068,51.593912],[-4.253108,51.593905],[-4.253155,51.593901],[-4.253208,51.593901],[-4.253269,51.593905],[-4.253306,51.593898],[-4.25332,51.593881],[-4.253311,51.593853],[-4.253278,51.593815],[-4.253236,51.593775],[-4.253186,51.593736],[-4.253127,51.593695],[-4.253059,51.593654],[-4.252988,51.593618],[-4.252915,51.593586],[-4.25284,51.59356],[-4.252762,51.593538],[-4.252691,51.59351],[-4.252626,51.593476],[-4.252568,51.593435],[-4.252516,51.593387],[-4.252469,51.593344],[-4.252427,51.593306],[-4.25239,51.593271],[-4.252358,51.593241],[-4.252323,51.593227],[-4.252287,51.593229],[-4.252249,51.593246],[-4.25221,51.593279],[-4.252187,51.593315],[-4.252181,51.593353],[-4.252191,51.593394],[-4.252219,51.593437],[-4.252227,51.593475],[-4.252214,51.593508],[-4.252182,51.593535],[-4.252129,51.593557],[-4.252087,51.59359],[-4.252055,51.593633],[-4.252033,51.593686],[-4.252021,51.59375],[-4.252022,51.593814],[-4.252036,51.593878],[-4.252062,51.593942],[-4.252101,51.594007],[-4.25214,51.594063],[-4.252181,51.59411],[-4.252222,51.594149],[-4.252263,51.594179],[-4.252305,51.594205],[-4.252347,51.594226],[-4.25239,51.594243],[-4.252432,51.594254],[-4.252495,51.594242],[-4.252577,51.594207],[-4.25268,51.594147]]]}}