{"type":"Feature","properties":{"id":"263315","COMMUNE":"Carmarthenshire","PROVINCE":"South West Wales","COUNTRY":"UK","FIREDATE":"2025-03-15 13:25:00","CLASS":"FireSeason","areaHA_geo":6.707},"geometry":{"type":"Polygon","coordinates":[[[-3.892692,51.781348],[-3.892842,51.781428],[-3.893052,51.781474],[-3.893323,51.781485],[-3.893654,51.781463],[-3.893973,51.781424],[-3.894281,51.781371],[-3.894577,51.781302],[-3.894862,51.781218],[-3.895083,51.781138],[-3.895242,51.78106],[-3.895337,51.780986],[-3.895369,51.780916],[-3.895363,51.780833],[-3.89532,51.780738],[-3.895239,51.780631],[-3.895121,51.780512],[-3.895058,51.780386],[-3.89505,51.780253],[-3.895098,51.780114],[-3.895201,51.779969],[-3.8952,51.779856],[-3.895094,51.779777],[-3.894884,51.779731],[-3.894569,51.779719],[-3.894296,51.779687],[-3.894063,51.779636],[-3.893872,51.779565],[-3.893722,51.779474],[-3.893594,51.779366],[-3.893487,51.779242],[-3.893402,51.7791],[-3.893339,51.77894],[-3.893262,51.778824],[-3.893172,51.778752],[-3.893068,51.778723],[-3.892951,51.778737],[-3.892861,51.778783],[-3.892797,51.778861],[-3.892761,51.778972],[-3.892751,51.779115],[-3.892715,51.779194],[-3.892653,51.77921],[-3.892563,51.779162],[-3.892447,51.779051],[-3.892299,51.778967],[-3.892119,51.778909],[-3.891907,51.778878],[-3.891662,51.778874],[-3.891464,51.77891],[-3.891312,51.778987],[-3.891206,51.779103],[-3.891147,51.77926],[-3.891074,51.779392],[-3.890985,51.779499],[-3.890882,51.77958],[-3.890764,51.779636],[-3.890612,51.779668],[-3.890426,51.779678],[-3.890206,51.779665],[-3.889951,51.779629],[-3.889796,51.77963],[-3.889741,51.77967],[-3.889786,51.779748],[-3.88993,51.779865],[-3.890088,51.779948],[-3.890259,51.779998],[-3.890444,51.780016],[-3.890642,51.78],[-3.890793,51.779999],[-3.890899,51.780011],[-3.890958,51.780038],[-3.89097,51.780078],[-3.891007,51.780132],[-3.891069,51.7802],[-3.891155,51.780281],[-3.891266,51.780376],[-3.891329,51.780481],[-3.891345,51.780596],[-3.891313,51.780721],[-3.891233,51.780855],[-3.891207,51.780967],[-3.891235,51.781055],[-3.891316,51.781121],[-3.891451,51.781163],[-3.891603,51.781184],[-3.891772,51.781185],[-3.891958,51.781165],[-3.892162,51.781124],[-3.892337,51.781122],[-3.892484,51.781158],[-3.892602,51.781234],[-3.892692,51.781348]]]}}