{"type":"Feature","properties":{"id":"263325","COMMUNE":"Neath Port Talbot","PROVINCE":"Bridgend and Neath Port Talbot","COUNTRY":"UK","FIREDATE":"2025-03-15 16:13:35.356","FINALDATE":"2025-03-16 16:13:38.384","CLASS":"FireSeason","areaHA_geo":0.998},"geometry":{"type":"Polygon","coordinates":[[[-3.891678,51.741903],[-3.891701,51.741937],[-3.891763,51.741954],[-3.891866,51.741952],[-3.892009,51.741933],[-3.892143,51.741903],[-3.89227,51.74186],[-3.892389,51.741806],[-3.892501,51.741741],[-3.892579,51.741686],[-3.892625,51.741642],[-3.892637,51.741609],[-3.892616,51.741586],[-3.892585,51.741563],[-3.892542,51.741539],[-3.892487,51.741514],[-3.892422,51.741489],[-3.892352,51.741457],[-3.892278,51.741419],[-3.892199,51.741375],[-3.892116,51.741324],[-3.891946,51.741254],[-3.89169,51.741165],[-3.891348,51.741056],[-3.89092,51.740928],[-3.890562,51.740828],[-3.890274,51.740755],[-3.890057,51.740709],[-3.889909,51.740692],[-3.889796,51.740694],[-3.889717,51.740716],[-3.889671,51.740758],[-3.88966,51.740819],[-3.889757,51.740913],[-3.889961,51.741037],[-3.890273,51.741193],[-3.890693,51.741381],[-3.891021,51.741512],[-3.891258,51.741588],[-3.891402,51.741609],[-3.891456,51.741573],[-3.891516,51.741543],[-3.891584,51.741518],[-3.89166,51.741499],[-3.891744,51.741484],[-3.89182,51.741485],[-3.891889,51.741501],[-3.891951,51.741532],[-3.892006,51.741577],[-3.892024,51.741619],[-3.892005,51.741658],[-3.891951,51.741693],[-3.891859,51.741725],[-3.891786,51.741762],[-3.891732,51.741804],[-3.891696,51.741851],[-3.891678,51.741903]]]}}