{"type":"Feature","properties":{"id":"263349","COMMUNE":"Swansea","PROVINCE":"Swansea","COUNTRY":"UK","FIREDATE":"2025-03-21 03:23:00","CLASS":"FireSeason","areaHA_geo":20.162},"geometry":{"type":"Polygon","coordinates":[[[-4.061376,51.619649],[-4.061244,51.619466],[-4.061159,51.619313],[-4.061121,51.619189],[-4.061128,51.619096],[-4.061182,51.619033],[-4.061191,51.618968],[-4.061156,51.618901],[-4.061077,51.618832],[-4.060954,51.618762],[-4.060866,51.618673],[-4.060814,51.618565],[-4.060797,51.618439],[-4.060816,51.618295],[-4.06082,51.618147],[-4.06081,51.617998],[-4.060785,51.617846],[-4.060746,51.617691],[-4.060699,51.617528],[-4.060645,51.617355],[-4.060583,51.617173],[-4.060514,51.616983],[-4.060389,51.616828],[-4.06021,51.616711],[-4.059975,51.61663],[-4.059685,51.616585],[-4.059406,51.616566],[-4.059137,51.616573],[-4.058878,51.616606],[-4.05863,51.616665],[-4.05841,51.616676],[-4.058219,51.616639],[-4.058057,51.616555],[-4.057924,51.616423],[-4.057694,51.616305],[-4.057366,51.616199],[-4.056942,51.616107],[-4.05642,51.616028],[-4.055891,51.615937],[-4.055353,51.615834],[-4.054806,51.61572],[-4.054252,51.615594],[-4.053721,51.61547],[-4.053214,51.61535],[-4.052731,51.615232],[-4.052272,51.615117],[-4.051877,51.615029],[-4.051546,51.61497],[-4.051278,51.614938],[-4.051075,51.614935],[-4.050917,51.614975],[-4.050806,51.61506],[-4.050741,51.615189],[-4.050722,51.615362],[-4.05082,51.615552],[-4.051037,51.615759],[-4.051372,51.615983],[-4.051825,51.616224],[-4.05218,51.616441],[-4.052439,51.616634],[-4.0526,51.616804],[-4.052665,51.61695],[-4.052761,51.617082],[-4.05289,51.6172],[-4.053052,51.617304],[-4.053246,51.617394],[-4.053444,51.617486],[-4.053648,51.617578],[-4.053857,51.61767],[-4.05407,51.617764],[-4.054244,51.617835],[-4.054379,51.617884],[-4.054475,51.617911],[-4.054531,51.617916],[-4.05462,51.617949],[-4.054741,51.618011],[-4.054893,51.618102],[-4.055078,51.618222],[-4.055246,51.618331],[-4.055396,51.61843],[-4.05553,51.618517],[-4.055646,51.618594],[-4.055702,51.618677],[-4.055698,51.618766],[-4.055633,51.618861],[-4.055508,51.618961],[-4.055476,51.61904],[-4.055536,51.619099],[-4.055687,51.619136],[-4.055932,51.619152],[-4.056127,51.619181],[-4.056273,51.619223],[-4.056371,51.619278],[-4.05642,51.619346],[-4.056478,51.619397],[-4.056544,51.619432],[-4.056618,51.61945],[-4.056702,51.619451],[-4.056858,51.619495],[-4.057087,51.619581],[-4.05739,51.619709],[-4.057765,51.61988],[-4.058109,51.62],[-4.058421,51.62007],[-4.0587,51.62009],[-4.058949,51.62006],[-4.059145,51.620028],[-4.059291,51.619993],[-4.059385,51.619956],[-4.059428,51.619917],[-4.059456,51.619876],[-4.059471,51.619835],[-4.059471,51.619792],[-4.059457,51.619748],[-4.059482,51.619711],[-4.059546,51.619681],[-4.059649,51.619657],[-4.059791,51.61964],[-4.059929,51.61961],[-4.060063,51.619568],[-4.060193,51.619514],[-4.060319,51.619447],[-4.060407,51.619421],[-4.060458,51.619435],[-4.06047,51.619489],[-4.060444,51.619583],[-4.060465,51.619679],[-4.060533,51.619776],[-4.060646,51.619874],[-4.060807,51.619974],[-4.06096,51.620037],[-4.061105,51.620062],[-4.061244,51.620049],[-4.061375,51.619999],[-4.061441,51.619916],[-4.061441,51.619799],[-4.061376,51.619649]]]}}