{"type":"Feature","properties":{"id":"263332","COMMUNE":"Carmarthenshire","PROVINCE":"South West Wales","COUNTRY":"UK","FIREDATE":"2025-03-05 12:48:00","FINALDATE":"2025-03-05 12:48:00","CLASS":"FireSeason","areaHA_geo":76.545},"geometry":{"type":"Polygon","coordinates":[[[-3.810969,51.840151],[-3.811105,51.84023],[-3.811275,51.840164],[-3.81148,51.839953],[-3.811718,51.839597],[-3.811884,51.839266],[-3.811979,51.838958],[-3.812003,51.838674],[-3.811955,51.838413],[-3.811953,51.838207],[-3.811997,51.838053],[-3.812086,51.837953],[-3.812221,51.837906],[-3.812329,51.837786],[-3.81241,51.837593],[-3.812464,51.837325],[-3.812491,51.836985],[-3.812514,51.836632],[-3.812533,51.836266],[-3.812548,51.835889],[-3.81256,51.835499],[-3.812605,51.835179],[-3.812685,51.834929],[-3.8128,51.834749],[-3.812948,51.83464],[-3.813092,51.834502],[-3.813232,51.834338],[-3.813367,51.834145],[-3.813498,51.833925],[-3.813612,51.83372],[-3.813711,51.833529],[-3.813793,51.833353],[-3.813859,51.833192],[-3.813974,51.833081],[-3.814138,51.833021],[-3.814351,51.833011],[-3.814612,51.833051],[-3.814803,51.833024],[-3.814922,51.832928],[-3.814971,51.832763],[-3.814948,51.832531],[-3.814939,51.832261],[-3.814943,51.831954],[-3.81496,51.831609],[-3.814991,51.831227],[-3.815067,51.830991],[-3.815188,51.830899],[-3.815354,51.830954],[-3.815566,51.831154],[-3.815818,51.831313],[-3.816113,51.831431],[-3.816448,51.831509],[-3.816825,51.831546],[-3.817098,51.831624],[-3.817267,51.831742],[-3.817333,51.8319],[-3.817296,51.832099],[-3.817238,51.8323],[-3.81716,51.832504],[-3.817062,51.83271],[-3.816944,51.832918],[-3.816838,51.833109],[-3.816743,51.833284],[-3.816659,51.833443],[-3.816587,51.833584],[-3.816582,51.833715],[-3.816645,51.833835],[-3.816774,51.833945],[-3.816971,51.834045],[-3.817191,51.834123],[-3.817433,51.834182],[-3.817698,51.834219],[-3.817985,51.834236],[-3.818211,51.834161],[-3.818375,51.833993],[-3.818476,51.833733],[-3.818516,51.833381],[-3.818515,51.833069],[-3.818472,51.832798],[-3.818388,51.832568],[-3.818262,51.832378],[-3.818238,51.832194],[-3.818316,51.832016],[-3.818494,51.831844],[-3.818775,51.831678],[-3.818976,51.831524],[-3.819097,51.831381],[-3.81914,51.831251],[-3.819103,51.831133],[-3.819112,51.830973],[-3.819165,51.830773],[-3.819264,51.830531],[-3.819409,51.830248],[-3.819473,51.830015],[-3.819458,51.829833],[-3.819363,51.829701],[-3.819188,51.829619],[-3.819017,51.829576],[-3.818849,51.82957],[-3.818685,51.829602],[-3.818524,51.829673],[-3.818354,51.8297],[-3.818176,51.829686],[-3.817988,51.829629],[-3.817791,51.82953],[-3.817558,51.829396],[-3.817291,51.829228],[-3.816987,51.829027],[-3.816648,51.828791],[-3.816325,51.828553],[-3.816018,51.828313],[-3.815727,51.828072],[-3.815452,51.827828],[-3.815251,51.827553],[-3.815122,51.827246],[-3.815067,51.826908],[-3.815084,51.826537],[-3.815126,51.826233],[-3.815194,51.825995],[-3.815285,51.825823],[-3.815402,51.825717],[-3.815518,51.825599],[-3.815635,51.825467],[-3.815752,51.825323],[-3.815869,51.825166],[-3.816011,51.825049],[-3.816179,51.824973],[-3.816371,51.824938],[-3.816588,51.824942],[-3.816831,51.824924],[-3.8171,51.824882],[-3.817395,51.824816],[-3.817716,51.824727],[-3.818025,51.824639],[-3.818322,51.824553],[-3.818606,51.824468],[-3.818879,51.824384],[-3.819151,51.82427],[-3.819421,51.824126],[-3.81969,51.82395],[-3.819958,51.823745],[-3.820092,51.823575],[-3.820092,51.823442],[-3.819959,51.823346],[-3.819691,51.823286],[-3.8195,51.823193],[-3.819387,51.823069],[-3.819351,51.822912],[-3.819391,51.822723],[-3.819423,51.822545],[-3.819446,51.822379],[-3.81946,51.822224],[-3.819465,51.82208],[-3.819468,51.821942],[-3.819468,51.821809],[-3.819466,51.821681],[-3.819461,51.821559],[-3.819469,51.821425],[-3.81949,51.821279],[-3.819524,51.821122],[-3.819571,51.820953],[-3.81969,51.820816],[-3.819882,51.820711],[-3.820146,51.820639],[-3.820482,51.820599],[-3.820832,51.820537],[-3.821195,51.820453],[-3.821573,51.820347],[-3.821965,51.820219],[-3.822251,51.8201],[-3.822433,51.819992],[-3.822511,51.819893],[-3.822483,51.819804],[-3.822342,51.819698],[-3.822088,51.819575],[-3.821721,51.819435],[-3.82124,51.819277],[-3.820838,51.819143],[-3.820513,51.819033],[-3.820267,51.818948],[-3.820098,51.818886],[-3.819861,51.818791],[-3.819556,51.818664],[-3.819183,51.818504],[-3.818741,51.818311],[-3.818334,51.818175],[-3.817961,51.818096],[-3.817622,51.818075],[-3.817318,51.818111],[-3.817038,51.818119],[-3.816783,51.818098],[-3.816552,51.818049],[-3.816345,51.817971],[-3.816065,51.817869],[-3.81571,51.817742],[-3.815281,51.817591],[-3.814779,51.817416],[-3.814407,51.817355],[-3.814167,51.817409],[-3.814057,51.817578],[-3.814079,51.817862],[-3.814066,51.818101],[-3.814019,51.818296],[-3.813937,51.818446],[-3.813821,51.818552],[-3.813698,51.818705],[-3.813569,51.818904],[-3.813434,51.81915],[-3.813293,51.819443],[-3.813294,51.819607],[-3.813437,51.819641],[-3.813723,51.819545],[-3.814151,51.819321],[-3.814506,51.819156],[-3.814789,51.819051],[-3.814999,51.819005],[-3.815136,51.81902],[-3.815335,51.819086],[-3.815596,51.819203],[-3.815918,51.819372],[-3.816302,51.819592],[-3.816585,51.819796],[-3.816768,51.819984],[-3.81685,51.820156],[-3.816832,51.820311],[-3.816799,51.820484],[-3.81675,51.820674],[-3.816686,51.820881],[-3.816606,51.821105],[-3.816505,51.82134],[-3.816382,51.821584],[-3.816237,51.821839],[-3.816071,51.822105],[-3.815927,51.822324],[-3.815807,51.822496],[-3.815709,51.822623],[-3.815635,51.822704],[-3.815543,51.822783],[-3.815435,51.822863],[-3.81531,51.822941],[-3.815169,51.82302],[-3.815062,51.823158],[-3.814991,51.823355],[-3.814955,51.823613],[-3.814954,51.82393],[-3.814912,51.824262],[-3.814829,51.824609],[-3.814705,51.824972],[-3.81454,51.825349],[-3.814418,51.825716],[-3.814338,51.826074],[-3.814301,51.826421],[-3.814306,51.826757],[-3.81429,51.827066],[-3.814253,51.827347],[-3.814194,51.827599],[-3.814115,51.827823],[-3.814029,51.827949],[-3.813938,51.827975],[-3.81384,51.827902],[-3.813737,51.82773],[-3.813648,51.82759],[-3.813573,51.827481],[-3.813511,51.827404],[-3.813464,51.827359],[-3.813401,51.827251],[-3.813324,51.827081],[-3.813231,51.826849],[-3.813123,51.826555],[-3.812906,51.826338],[-3.81258,51.826198],[-3.812146,51.826134],[-3.811602,51.826148],[-3.811188,51.82623],[-3.810903,51.826382],[-3.810747,51.826602],[-3.810721,51.826891],[-3.810758,51.827143],[-3.810857,51.827356],[-3.81102,51.827531],[-3.811245,51.827668],[-3.811372,51.827811],[-3.811402,51.827961],[-3.811335,51.828117],[-3.81117,51.82828],[-3.811014,51.828447],[-3.810868,51.828618],[-3.810731,51.828792],[-3.810604,51.828971],[-3.810469,51.829163],[-3.810326,51.82937],[-3.810174,51.82959],[-3.810014,51.829823],[-3.809876,51.830032],[-3.809758,51.830214],[-3.809662,51.830371],[-3.809587,51.830503],[-3.8095,51.830679],[-3.809403,51.830901],[-3.809295,51.831167],[-3.809176,51.831477],[-3.809057,51.831762],[-3.808938,51.832022],[-3.80882,51.832256],[-3.808702,51.832464],[-3.808578,51.832653],[-3.808448,51.832821],[-3.808312,51.83297],[-3.80817,51.8331],[-3.808064,51.83324],[-3.807995,51.833392],[-3.807962,51.833554],[-3.807966,51.833727],[-3.808014,51.83388],[-3.808105,51.834013],[-3.808239,51.834124],[-3.808417,51.834216],[-3.808574,51.834333],[-3.808709,51.834475],[-3.808824,51.834643],[-3.808917,51.834837],[-3.80903,51.835012],[-3.809162,51.835171],[-3.809314,51.835311],[-3.809485,51.835434],[-3.809588,51.835591],[-3.809622,51.835781],[-3.809588,51.836005],[-3.809485,51.836262],[-3.809479,51.83647],[-3.80957,51.836628],[-3.809757,51.836736],[-3.810041,51.836795],[-3.810245,51.836878],[-3.81037,51.836986],[-3.810415,51.837118],[-3.810381,51.837276],[-3.810385,51.837475],[-3.810427,51.837715],[-3.810506,51.837997],[-3.810623,51.838321],[-3.810706,51.838613],[-3.810754,51.838873],[-3.810767,51.839102],[-3.810745,51.839298],[-3.810754,51.839502],[-3.810795,51.839712],[-3.810866,51.839928],[-3.810969,51.840151]]]}}