{"type":"Feature","properties":{"id":"263322","COMMUNE":"Neath Port Talbot","PROVINCE":"Bridgend and Neath Port Talbot","COUNTRY":"UK","FIREDATE":"2025-03-15 16:11:42.598","CLASS":"FireSeason","areaHA_geo":2.888},"geometry":{"type":"Polygon","coordinates":[[[-3.894375,51.759519],[-3.894445,51.759508],[-3.894499,51.759485],[-3.894537,51.759449],[-3.894559,51.7594],[-3.894564,51.759339],[-3.894595,51.759297],[-3.894649,51.759275],[-3.894729,51.759273],[-3.894833,51.759291],[-3.89496,51.759313],[-3.895112,51.759339],[-3.895287,51.75937],[-3.895487,51.759404],[-3.89564,51.759421],[-3.895746,51.759419],[-3.895805,51.7594],[-3.895818,51.759363],[-3.895822,51.759322],[-3.895816,51.759276],[-3.8958,51.759225],[-3.895774,51.75917],[-3.895753,51.759119],[-3.895737,51.759073],[-3.895725,51.759032],[-3.895718,51.758995],[-3.895725,51.758963],[-3.895748,51.758938],[-3.895786,51.758918],[-3.895839,51.758904],[-3.895867,51.758879],[-3.89587,51.758844],[-3.895849,51.758797],[-3.895802,51.758739],[-3.895777,51.758691],[-3.895773,51.758652],[-3.89579,51.758623],[-3.895829,51.758603],[-3.895856,51.758579],[-3.895872,51.758551],[-3.895876,51.758518],[-3.895869,51.758481],[-3.895846,51.758449],[-3.895807,51.758424],[-3.895752,51.758404],[-3.895682,51.758389],[-3.895623,51.758361],[-3.895576,51.75832],[-3.895539,51.758266],[-3.895514,51.758198],[-3.895448,51.758138],[-3.895341,51.758085],[-3.895194,51.758039],[-3.895006,51.758001],[-3.894858,51.757986],[-3.89475,51.757995],[-3.894682,51.758028],[-3.894655,51.758085],[-3.89462,51.758122],[-3.894579,51.758141],[-3.894531,51.758141],[-3.894476,51.758122],[-3.894428,51.758084],[-3.894388,51.758027],[-3.894355,51.757951],[-3.894329,51.757855],[-3.894304,51.757764],[-3.894279,51.757677],[-3.894254,51.757595],[-3.89423,51.757517],[-3.894221,51.757456],[-3.894228,51.757412],[-3.89425,51.757386],[-3.894288,51.757376],[-3.894321,51.757362],[-3.894348,51.757344],[-3.894369,51.757321],[-3.894385,51.757294],[-3.894415,51.757272],[-3.894459,51.757255],[-3.894517,51.757244],[-3.894589,51.757238],[-3.894634,51.757223],[-3.894651,51.757199],[-3.894641,51.757167],[-3.894603,51.757126],[-3.894554,51.757097],[-3.894494,51.75708],[-3.894422,51.757075],[-3.894338,51.757083],[-3.894269,51.757079],[-3.894215,51.757064],[-3.894176,51.757038],[-3.894152,51.757],[-3.894114,51.756974],[-3.894063,51.75696],[-3.893998,51.756958],[-3.893919,51.756967],[-3.893853,51.756987],[-3.8938,51.757016],[-3.893761,51.757054],[-3.893736,51.757103],[-3.893663,51.757171],[-3.893545,51.757257],[-3.89338,51.757362],[-3.893168,51.757486],[-3.893045,51.75761],[-3.893011,51.757736],[-3.893065,51.757862],[-3.893207,51.75799],[-3.893328,51.758092],[-3.893428,51.75817],[-3.893507,51.758223],[-3.893565,51.758251],[-3.893613,51.758313],[-3.893651,51.758407],[-3.893678,51.758534],[-3.893695,51.758694],[-3.893722,51.758824],[-3.89376,51.758924],[-3.893808,51.758995],[-3.893866,51.759036],[-3.893929,51.759095],[-3.893997,51.75917],[-3.894071,51.759262],[-3.894151,51.759372],[-3.894228,51.759451],[-3.894302,51.7595],[-3.894375,51.759519]]]}}