{"type":"Feature","properties":{"id":"263355","COMMUNE":"Swansea","PROVINCE":"Swansea","COUNTRY":"UK","FIREDATE":"2025-03-08 16:53:17.365","FINALDATE":"2025-03-09 16:53:19.48","CLASS":"FireSeason","areaHA_geo":3.038},"geometry":{"type":"Polygon","coordinates":[[[-4.189108,51.596818],[-4.189412,51.596724],[-4.189545,51.596601],[-4.189508,51.596449],[-4.189301,51.596268],[-4.189057,51.596124],[-4.188776,51.596016],[-4.188458,51.595945],[-4.188102,51.59591],[-4.187788,51.59589],[-4.187516,51.595884],[-4.187286,51.595893],[-4.187098,51.595916],[-4.186899,51.595947],[-4.186687,51.595987],[-4.186464,51.596036],[-4.18623,51.596093],[-4.186035,51.596158],[-4.18588,51.59623],[-4.185764,51.59631],[-4.185689,51.596398],[-4.185591,51.59647],[-4.185471,51.596528],[-4.185329,51.59657],[-4.185166,51.596597],[-4.185047,51.596638],[-4.184972,51.596694],[-4.184943,51.596763],[-4.184958,51.596847],[-4.185044,51.59692],[-4.185202,51.596982],[-4.185431,51.597034],[-4.185731,51.597076],[-4.186065,51.597097],[-4.186433,51.597098],[-4.186835,51.597079],[-4.187271,51.59704],[-4.187716,51.596994],[-4.188171,51.596942],[-4.188635,51.596884],[-4.189108,51.596818]]]}}