{"type":"Feature","properties":{"id":"263467","COMMUNE":"North Devon","PROVINCE":"Devon CC","COUNTRY":"UK","FIREDATE":"2025-03-10 12:53:00","CLASS":"FireSeason","areaHA_geo":28.73},"geometry":{"type":"Polygon","coordinates":[[[-3.645778,51.051649],[-3.646541,51.051773],[-3.647155,51.051804],[-3.64762,51.051743],[-3.647937,51.051588],[-3.648104,51.051341],[-3.648265,51.051186],[-3.648417,51.051124],[-3.648562,51.051154],[-3.6487,51.051277],[-3.648959,51.051385],[-3.649339,51.051478],[-3.649842,51.051558],[-3.650466,51.051622],[-3.650982,51.051665],[-3.651392,51.051686],[-3.651693,51.051685],[-3.651888,51.051662],[-3.652027,51.051604],[-3.65211,51.051512],[-3.652138,51.051386],[-3.65211,51.051225],[-3.65218,51.051106],[-3.652348,51.051029],[-3.652615,51.050994],[-3.65298,51.051001],[-3.653345,51.051008],[-3.65371,51.051015],[-3.654075,51.051023],[-3.654439,51.05103],[-3.654836,51.051043],[-3.655265,51.051061],[-3.655726,51.051085],[-3.656218,51.051115],[-3.656742,51.051081],[-3.657297,51.050983],[-3.657884,51.050822],[-3.658501,51.050597],[-3.658899,51.05043],[-3.659078,51.05032],[-3.659037,51.050268],[-3.658777,51.050274],[-3.658594,51.050235],[-3.658489,51.050153],[-3.658461,51.050027],[-3.658511,51.049857],[-3.658519,51.049733],[-3.658486,51.049655],[-3.658411,51.049623],[-3.658294,51.049636],[-3.658199,51.049622],[-3.658126,51.049581],[-3.658075,51.049511],[-3.658046,51.049413],[-3.657903,51.049323],[-3.657646,51.04924],[-3.657276,51.049164],[-3.656792,51.049095],[-3.656355,51.049033],[-3.655966,51.048979],[-3.655624,51.048931],[-3.65533,51.04889],[-3.655128,51.048807],[-3.65502,51.048681],[-3.655005,51.048512],[-3.655083,51.048301],[-3.655063,51.048183],[-3.654945,51.048159],[-3.654729,51.048229],[-3.654415,51.048393],[-3.654072,51.048493],[-3.653701,51.048531],[-3.653301,51.048506],[-3.652871,51.048418],[-3.652471,51.048327],[-3.6521,51.048232],[-3.651758,51.048134],[-3.651446,51.048032],[-3.651142,51.047977],[-3.650847,51.047968],[-3.650561,51.048005],[-3.650284,51.048088],[-3.650021,51.04817],[-3.649773,51.04825],[-3.64954,51.048328],[-3.649321,51.048405],[-3.649163,51.048417],[-3.649067,51.048366],[-3.649032,51.04825],[-3.649059,51.04807],[-3.649033,51.04788],[-3.648953,51.047681],[-3.64882,51.047473],[-3.648634,51.047255],[-3.648449,51.047091],[-3.648264,51.04698],[-3.648081,51.046923],[-3.647899,51.046919],[-3.64776,51.046961],[-3.647665,51.047048],[-3.647614,51.047181],[-3.647607,51.047358],[-3.647574,51.047517],[-3.647515,51.047657],[-3.64743,51.047777],[-3.647319,51.047879],[-3.64722,51.048001],[-3.647132,51.048144],[-3.647055,51.048308],[-3.646989,51.048493],[-3.646895,51.048681],[-3.646771,51.048872],[-3.646617,51.049067],[-3.646435,51.049266],[-3.646203,51.049534],[-3.645921,51.04987],[-3.645589,51.050276],[-3.645207,51.050751],[-3.645112,51.051138],[-3.645302,51.051437],[-3.645778,51.051649]]]}}