{"type":"Feature","properties":{"id":"263491","COMMUNE":"West Devon","PROVINCE":"Devon CC","COUNTRY":"UK","FIREDATE":"2025-03-20 13:31:00","FINALDATE":"2025-03-20 14:16:00","CLASS":"FireSeason","areaHA_geo":6.41},"geometry":{"type":"Polygon","coordinates":[[[-3.956416,50.556779],[-3.956943,50.556783],[-3.957304,50.556697],[-3.957498,50.556524],[-3.957527,50.556262],[-3.957591,50.55605],[-3.957693,50.555888],[-3.957831,50.555776],[-3.958005,50.555714],[-3.958226,50.55568],[-3.958493,50.555674],[-3.958805,50.555697],[-3.959164,50.555748],[-3.959472,50.555809],[-3.95973,50.555879],[-3.959937,50.55596],[-3.960092,50.556049],[-3.960259,50.556103],[-3.960437,50.556122],[-3.960625,50.556106],[-3.960824,50.556055],[-3.961001,50.556036],[-3.961156,50.556051],[-3.961288,50.556099],[-3.961399,50.556181],[-3.961517,50.556235],[-3.961643,50.55626],[-3.961776,50.556257],[-3.961917,50.556226],[-3.961957,50.556126],[-3.961895,50.555957],[-3.961732,50.555719],[-3.961467,50.555411],[-3.96116,50.555157],[-3.960809,50.554955],[-3.960415,50.554806],[-3.959978,50.55471],[-3.959634,50.554654],[-3.959382,50.554637],[-3.959222,50.55466],[-3.959155,50.554723],[-3.959174,50.554785],[-3.959279,50.554847],[-3.959469,50.554909],[-3.959745,50.55497],[-3.959979,50.555033],[-3.96017,50.555098],[-3.960319,50.555165],[-3.960426,50.555233],[-3.960407,50.555276],[-3.960262,50.555294],[-3.959991,50.555287],[-3.959595,50.555254],[-3.959215,50.555239],[-3.958851,50.555243],[-3.958503,50.555265],[-3.958172,50.555306],[-3.957865,50.555357],[-3.957584,50.555419],[-3.957326,50.555491],[-3.957094,50.555574],[-3.956884,50.55559],[-3.956696,50.555538],[-3.956532,50.555419],[-3.956389,50.555232],[-3.956215,50.555101],[-3.95601,50.555024],[-3.955772,50.555002],[-3.955503,50.555035],[-3.955273,50.555108],[-3.955081,50.555219],[-3.954928,50.555371],[-3.954814,50.555562],[-3.954699,50.555695],[-3.954582,50.55577],[-3.954464,50.555788],[-3.954344,50.555748],[-3.95421,50.555694],[-3.95406,50.555624],[-3.953895,50.555538],[-3.953714,50.555438],[-3.95356,50.555406],[-3.953431,50.555442],[-3.953328,50.555547],[-3.953252,50.555719],[-3.953291,50.555885],[-3.953446,50.556042],[-3.953716,50.556193],[-3.954103,50.556336],[-3.954566,50.556466],[-3.955106,50.556583],[-3.955723,50.556688],[-3.956416,50.556779]]]}}