{"type":"Feature","properties":{"id":"263458","COMMUNE":"Powys","PROVINCE":"Powys","COUNTRY":"UK","FIREDATE":"2025-03-18 14:10:00","CLASS":"FireSeason","areaHA_geo":3.182},"geometry":{"type":"Polygon","coordinates":[[[-3.123731,51.938797],[-3.123832,51.938847],[-3.123913,51.938851],[-3.123971,51.938808],[-3.124008,51.93872],[-3.124007,51.938636],[-3.123968,51.938556],[-3.12389,51.93848],[-3.123774,51.938409],[-3.123696,51.93834],[-3.123655,51.938274],[-3.123651,51.938209],[-3.123686,51.938147],[-3.123658,51.93809],[-3.123569,51.938038],[-3.123419,51.937992],[-3.123206,51.937951],[-3.123038,51.93791],[-3.122916,51.937869],[-3.122837,51.937827],[-3.122804,51.937786],[-3.122604,51.937698],[-3.122238,51.937564],[-3.121705,51.937384],[-3.121005,51.937158],[-3.120469,51.937003],[-3.120096,51.936918],[-3.119887,51.936904],[-3.11984,51.936961],[-3.119806,51.937024],[-3.119784,51.937091],[-3.119774,51.937163],[-3.119775,51.937241],[-3.119787,51.937332],[-3.119807,51.937437],[-3.119837,51.937555],[-3.119876,51.937687],[-3.119905,51.937823],[-3.119926,51.937963],[-3.119937,51.938108],[-3.119939,51.938257],[-3.120018,51.938373],[-3.120174,51.938456],[-3.120408,51.938505],[-3.120719,51.938522],[-3.120981,51.938519],[-3.121195,51.938495],[-3.121361,51.93845],[-3.121479,51.938385],[-3.121602,51.938355],[-3.12173,51.93836],[-3.121863,51.9384],[-3.122001,51.938476],[-3.122129,51.938534],[-3.122247,51.938576],[-3.122355,51.938601],[-3.122452,51.93861],[-3.122537,51.938603],[-3.12261,51.938582],[-3.122671,51.938546],[-3.122719,51.938495],[-3.122795,51.938466],[-3.122897,51.938458],[-3.123028,51.93847],[-3.123185,51.938505],[-3.123335,51.938554],[-3.123475,51.938619],[-3.123607,51.9387],[-3.123731,51.938797]]]}}