{"type":"Feature","properties":{"id":"263496","COMMUNE":"West Somerset","PROVINCE":"Somerset","COUNTRY":"UK","FIREDATE":"2025-03-05 12:48:00","FINALDATE":"2025-03-05 12:48:00","CLASS":"FireSeason","areaHA_geo":3.682},"geometry":{"type":"Polygon","coordinates":[[[-3.514184,51.133143],[-3.514314,51.133089],[-3.514427,51.133007],[-3.514524,51.132896],[-3.514603,51.132758],[-3.514681,51.132651],[-3.514758,51.132575],[-3.514835,51.13253],[-3.51491,51.132517],[-3.514995,51.132492],[-3.515091,51.132453],[-3.515196,51.132403],[-3.515311,51.13234],[-3.515408,51.132278],[-3.515487,51.132217],[-3.515546,51.132157],[-3.515587,51.132098],[-3.515585,51.13206],[-3.51554,51.132042],[-3.515452,51.132043],[-3.515321,51.132065],[-3.515192,51.132085],[-3.515064,51.132102],[-3.514939,51.132117],[-3.514815,51.132129],[-3.514712,51.132111],[-3.514629,51.132064],[-3.514566,51.131987],[-3.514524,51.13188],[-3.514509,51.131799],[-3.51452,51.131744],[-3.514558,51.131714],[-3.514622,51.131711],[-3.514718,51.131688],[-3.514846,51.131643],[-3.515006,51.131579],[-3.515198,51.131494],[-3.515335,51.131421],[-3.515419,51.131361],[-3.515448,51.131313],[-3.515424,51.131277],[-3.515378,51.131245],[-3.515312,51.131217],[-3.515224,51.131194],[-3.515115,51.131174],[-3.515025,51.131135],[-3.514954,51.131077],[-3.514903,51.130999],[-3.51487,51.130901],[-3.514805,51.130826],[-3.514706,51.130773],[-3.514575,51.130742],[-3.514411,51.130734],[-3.514281,51.13071],[-3.514185,51.130672],[-3.514124,51.130619],[-3.514097,51.130551],[-3.514062,51.130502],[-3.514018,51.130473],[-3.513967,51.130463],[-3.513908,51.130472],[-3.51386,51.130492],[-3.513822,51.130522],[-3.513796,51.130563],[-3.51378,51.130614],[-3.513751,51.130656],[-3.513709,51.130688],[-3.513653,51.13071],[-3.513585,51.130722],[-3.513521,51.130721],[-3.513462,51.130708],[-3.513408,51.130681],[-3.513358,51.130642],[-3.513309,51.130618],[-3.51326,51.13061],[-3.513211,51.130617],[-3.513163,51.13064],[-3.513117,51.130674],[-3.513073,51.130718],[-3.513032,51.130772],[-3.512993,51.130837],[-3.512977,51.130893],[-3.512984,51.130941],[-3.513014,51.13098],[-3.513068,51.13101],[-3.513108,51.131048],[-3.513134,51.131095],[-3.513146,51.131149],[-3.513144,51.131212],[-3.513138,51.131272],[-3.51313,51.131329],[-3.513117,51.131383],[-3.513102,51.131435],[-3.513094,51.131496],[-3.513095,51.131568],[-3.513104,51.131651],[-3.513121,51.131743],[-3.513128,51.131828],[-3.513125,51.131905],[-3.513112,51.131974],[-3.513089,51.132035],[-3.513051,51.132094],[-3.512997,51.132152],[-3.512929,51.132208],[-3.512845,51.132263],[-3.512786,51.132331],[-3.512752,51.132412],[-3.512742,51.132505],[-3.512756,51.132611],[-3.512775,51.132717],[-3.512798,51.132823],[-3.512825,51.132929],[-3.512856,51.133035],[-3.512897,51.133103],[-3.512947,51.133131],[-3.513006,51.133121],[-3.513074,51.133072],[-3.513134,51.133041],[-3.513187,51.133029],[-3.513233,51.133034],[-3.513271,51.133058],[-3.51333,51.133082],[-3.51341,51.133109],[-3.513511,51.133136],[-3.513633,51.133165],[-3.513761,51.13318],[-3.513896,51.133181],[-3.514037,51.133169],[-3.514184,51.133143]]]}}