{"type":"Feature","properties":{"id":"263420","COMMUNE":"Rhondda Cynon Taf","PROVINCE":"Central Valleys","COUNTRY":"UK","FIREDATE":"2025-03-20 12:14:00","CLASS":"FireSeason","areaHA_geo":3.732},"geometry":{"type":"Polygon","coordinates":[[[-3.572718,51.755201],[-3.572833,51.755227],[-3.57294,51.755216],[-3.573039,51.755168],[-3.57313,51.755083],[-3.573182,51.754981],[-3.573196,51.754862],[-3.573171,51.754727],[-3.573108,51.754574],[-3.573044,51.754445],[-3.572978,51.754338],[-3.572911,51.754254],[-3.572842,51.754193],[-3.572765,51.754152],[-3.57268,51.754133],[-3.572586,51.754134],[-3.572485,51.754156],[-3.572377,51.754175],[-3.572263,51.754191],[-3.572143,51.754204],[-3.572017,51.754213],[-3.571889,51.754218],[-3.571759,51.754217],[-3.571629,51.754212],[-3.571496,51.754202],[-3.571331,51.754182],[-3.571132,51.754152],[-3.5709,51.754113],[-3.570635,51.754064],[-3.570387,51.75401],[-3.570154,51.753951],[-3.569938,51.753887],[-3.569737,51.753818],[-3.569633,51.753753],[-3.569625,51.753692],[-3.569713,51.753636],[-3.569897,51.753583],[-3.569971,51.753539],[-3.569935,51.753503],[-3.569789,51.753476],[-3.569534,51.753457],[-3.569314,51.753463],[-3.56913,51.753495],[-3.568981,51.753552],[-3.568869,51.753635],[-3.568759,51.753709],[-3.568652,51.753774],[-3.568547,51.753831],[-3.568445,51.753879],[-3.568332,51.753901],[-3.568208,51.753897],[-3.568073,51.753868],[-3.567927,51.753813],[-3.567764,51.75379],[-3.567583,51.7538],[-3.567386,51.753841],[-3.567171,51.753915],[-3.567085,51.754016],[-3.567128,51.754144],[-3.567299,51.754298],[-3.567601,51.754479],[-3.567856,51.754583],[-3.568067,51.754612],[-3.568233,51.754563],[-3.568353,51.754439],[-3.568479,51.754326],[-3.568611,51.754226],[-3.568749,51.754138],[-3.568893,51.754062],[-3.568997,51.754031],[-3.569062,51.754045],[-3.569087,51.754105],[-3.569073,51.754209],[-3.569105,51.754314],[-3.569182,51.754418],[-3.569306,51.754522],[-3.569475,51.754625],[-3.569596,51.754682],[-3.56967,51.754691],[-3.569696,51.754654],[-3.569674,51.754569],[-3.569681,51.754508],[-3.569716,51.754472],[-3.569779,51.75446],[-3.56987,51.754473],[-3.569953,51.754527],[-3.570029,51.754624],[-3.570096,51.754763],[-3.570155,51.754944],[-3.570233,51.755082],[-3.570328,51.755177],[-3.570443,51.75523],[-3.570575,51.755241],[-3.570674,51.755221],[-3.570741,51.755172],[-3.570774,51.755094],[-3.570774,51.754986],[-3.570795,51.754903],[-3.570836,51.754845],[-3.570897,51.754813],[-3.570978,51.754806],[-3.571063,51.754823],[-3.571153,51.754863],[-3.571246,51.754926],[-3.571343,51.755012],[-3.571473,51.755071],[-3.571637,51.755102],[-3.571834,51.755105],[-3.572064,51.755081],[-3.572268,51.755078],[-3.572444,51.755098],[-3.572594,51.755139],[-3.572718,51.755201]]]}}