{"type":"Feature","properties":{"id":"263460","COMMUNE":"Powys","PROVINCE":"Powys","COUNTRY":"UK","FIREDATE":"2025-03-18 11:23:40.59","CLASS":"FireSeason","areaHA_geo":1.632},"geometry":{"type":"Polygon","coordinates":[[[-3.139205,51.944554],[-3.139195,51.944413],[-3.13916,51.944276],[-3.139099,51.944143],[-3.139014,51.944015],[-3.138903,51.943891],[-3.138753,51.943783],[-3.138562,51.943691],[-3.138331,51.943615],[-3.13806,51.943555],[-3.137806,51.943478],[-3.137567,51.943385],[-3.137345,51.943276],[-3.137139,51.94315],[-3.136974,51.943108],[-3.13685,51.943151],[-3.136766,51.943279],[-3.136724,51.943491],[-3.136718,51.943678],[-3.136751,51.94384],[-3.13682,51.943976],[-3.136927,51.944088],[-3.137022,51.944169],[-3.137106,51.944221],[-3.137179,51.944244],[-3.13724,51.944237],[-3.137285,51.944219],[-3.137313,51.94419],[-3.137325,51.94415],[-3.13732,51.944099],[-3.137401,51.944106],[-3.137568,51.944171],[-3.137821,51.944295],[-3.13816,51.944477],[-3.138448,51.944615],[-3.138687,51.944708],[-3.138875,51.944757],[-3.139014,51.944761],[-3.139115,51.944728],[-3.139179,51.944659],[-3.139205,51.944554]]]}}