{"type":"Feature","properties":{"id":"263448","COMMUNE":"Powys","PROVINCE":"Powys","COUNTRY":"UK","FIREDATE":"2025-03-20 11:14:08.411","FINALDATE":"2025-03-21 11:14:10.268","CLASS":"FireSeason","areaHA_geo":4.194},"geometry":{"type":"Polygon","coordinates":[[[-3.352293,51.803195],[-3.352349,51.803161],[-3.352399,51.803111],[-3.352443,51.803045],[-3.352481,51.802963],[-3.352513,51.802864],[-3.352543,51.802716],[-3.352573,51.80252],[-3.352601,51.802275],[-3.352627,51.801981],[-3.352638,51.801733],[-3.352635,51.80153],[-3.352616,51.801371],[-3.352582,51.801258],[-3.352559,51.801148],[-3.352546,51.801039],[-3.352544,51.800933],[-3.352552,51.800829],[-3.352567,51.800741],[-3.352587,51.800671],[-3.352614,51.800618],[-3.352647,51.800581],[-3.352675,51.800533],[-3.352696,51.800472],[-3.352712,51.800399],[-3.352721,51.800313],[-3.352731,51.800195],[-3.35274,51.800043],[-3.35275,51.799858],[-3.352759,51.799639],[-3.352767,51.799409],[-3.352774,51.799166],[-3.352779,51.798912],[-3.352782,51.798645],[-3.352764,51.798445],[-3.352724,51.798311],[-3.352662,51.798243],[-3.352578,51.798242],[-3.352479,51.798221],[-3.352365,51.79818],[-3.352237,51.798118],[-3.352093,51.798037],[-3.351961,51.797976],[-3.351838,51.797936],[-3.351727,51.797916],[-3.351626,51.797917],[-3.35154,51.797926],[-3.351471,51.797945],[-3.351418,51.797973],[-3.35138,51.79801],[-3.351324,51.798046],[-3.351248,51.79808],[-3.351154,51.798113],[-3.35104,51.798145],[-3.350953,51.798183],[-3.350893,51.798225],[-3.35086,51.798272],[-3.350854,51.798324],[-3.350854,51.79837],[-3.350861,51.798408],[-3.350875,51.79844],[-3.350896,51.798465],[-3.350908,51.7985],[-3.35091,51.798546],[-3.350904,51.798602],[-3.350889,51.798669],[-3.350906,51.798732],[-3.350954,51.79879],[-3.351034,51.798844],[-3.351146,51.798894],[-3.351256,51.798917],[-3.351365,51.798912],[-3.351472,51.798881],[-3.351578,51.798823],[-3.351674,51.798798],[-3.351761,51.798807],[-3.351837,51.79885],[-3.351904,51.798927],[-3.351968,51.798982],[-3.35203,51.799017],[-3.352088,51.799032],[-3.352143,51.799025],[-3.352182,51.79903],[-3.352204,51.799045],[-3.35221,51.799071],[-3.352199,51.799107],[-3.352173,51.799142],[-3.352131,51.799173],[-3.352075,51.799203],[-3.352004,51.79923],[-3.351948,51.799259],[-3.351906,51.79929],[-3.35188,51.799322],[-3.351868,51.799356],[-3.351865,51.799393],[-3.35187,51.799433],[-3.351884,51.799476],[-3.351907,51.799523],[-3.351941,51.799563],[-3.351987,51.799599],[-3.352045,51.799629],[-3.352114,51.799654],[-3.352134,51.799683],[-3.352104,51.799718],[-3.352026,51.799757],[-3.351898,51.799802],[-3.351776,51.799839],[-3.351659,51.799869],[-3.351548,51.799891],[-3.351443,51.799906],[-3.351357,51.799922],[-3.351292,51.799939],[-3.351246,51.799957],[-3.351221,51.799976],[-3.351207,51.799997],[-3.351202,51.800019],[-3.351208,51.800043],[-3.351225,51.800068],[-3.351225,51.800099],[-3.351209,51.800134],[-3.351178,51.800175],[-3.35113,51.800222],[-3.351071,51.800262],[-3.351,51.800298],[-3.350917,51.800327],[-3.350823,51.800352],[-3.350768,51.800376],[-3.350751,51.800401],[-3.350773,51.800427],[-3.350834,51.800452],[-3.350908,51.800474],[-3.350997,51.800491],[-3.3511,51.800503],[-3.351217,51.800512],[-3.351315,51.800502],[-3.351396,51.800476],[-3.351457,51.800431],[-3.3515,51.800369],[-3.351546,51.800321],[-3.351596,51.800287],[-3.351648,51.800267],[-3.351703,51.80026],[-3.351757,51.800279],[-3.35181,51.800322],[-3.351861,51.800389],[-3.35191,51.800481],[-3.351963,51.800551],[-3.352019,51.800599],[-3.352079,51.800625],[-3.352142,51.800628],[-3.35219,51.800658],[-3.352224,51.800712],[-3.352244,51.800792],[-3.352249,51.800897],[-3.352212,51.800978],[-3.352134,51.801033],[-3.352014,51.801063],[-3.351853,51.801068],[-3.351735,51.801093],[-3.35166,51.801138],[-3.351629,51.801203],[-3.351642,51.801289],[-3.351664,51.801362],[-3.351695,51.801422],[-3.351736,51.80147],[-3.351786,51.801505],[-3.351838,51.801542],[-3.351892,51.801582],[-3.351947,51.801625],[-3.352005,51.80167],[-3.35203,51.801709],[-3.352022,51.801742],[-3.351982,51.80177],[-3.351909,51.801792],[-3.351865,51.801817],[-3.351849,51.801844],[-3.351862,51.801875],[-3.351902,51.801908],[-3.351924,51.801943],[-3.351926,51.80198],[-3.351909,51.802018],[-3.351872,51.802057],[-3.351839,51.802102],[-3.351811,51.802153],[-3.351786,51.80221],[-3.351765,51.802272],[-3.351736,51.80232],[-3.3517,51.802354],[-3.351657,51.802374],[-3.351606,51.80238],[-3.351558,51.802382],[-3.351514,51.802382],[-3.351473,51.802379],[-3.351436,51.802372],[-3.351393,51.802376],[-3.351344,51.802389],[-3.35129,51.802413],[-3.351229,51.802447],[-3.351178,51.802491],[-3.351134,51.802545],[-3.351099,51.802609],[-3.351073,51.802683],[-3.351079,51.802755],[-3.351118,51.802827],[-3.35119,51.802897],[-3.351295,51.802967],[-3.351385,51.803019],[-3.351462,51.803054],[-3.351524,51.803071],[-3.351573,51.803071],[-3.351632,51.803071],[-3.351703,51.803073],[-3.351785,51.803075],[-3.351879,51.803078],[-3.351961,51.80309],[-3.352031,51.803112],[-3.35209,51.803143],[-3.352138,51.803184],[-3.352187,51.803206],[-3.352239,51.80321],[-3.352293,51.803195]]]}}