{"type":"Feature","properties":{"id":"263425","COMMUNE":"Rhondda Cynon Taf","PROVINCE":"Central Valleys","COUNTRY":"UK","FIREDATE":"2025-03-20 10:43:59.577","CLASS":"FireSeason","areaHA_geo":0.963},"geometry":{"type":"Polygon","coordinates":[[[-3.581028,51.750483],[-3.581103,51.750537],[-3.58123,51.750559],[-3.58141,51.75055],[-3.581642,51.750508],[-3.581828,51.750465],[-3.581967,51.75042],[-3.58206,51.750374],[-3.582105,51.750326],[-3.582149,51.750269],[-3.582192,51.750204],[-3.582233,51.750131],[-3.582273,51.750049],[-3.582308,51.749975],[-3.582339,51.749908],[-3.582365,51.749849],[-3.582387,51.749798],[-3.582381,51.749748],[-3.582347,51.749699],[-3.582286,51.749651],[-3.582198,51.749605],[-3.582105,51.749578],[-3.582009,51.749572],[-3.581908,51.749587],[-3.581803,51.749622],[-3.581699,51.749656],[-3.581595,51.749688],[-3.581492,51.749719],[-3.58139,51.749748],[-3.581287,51.749768],[-3.581184,51.74978],[-3.581081,51.749784],[-3.580978,51.749779],[-3.580868,51.749775],[-3.580752,51.749773],[-3.580629,51.749772],[-3.580499,51.749773],[-3.580394,51.749783],[-3.580312,51.749803],[-3.580253,51.749832],[-3.580219,51.74987],[-3.580207,51.749904],[-3.580218,51.749932],[-3.580252,51.749956],[-3.580309,51.749975],[-3.58037,51.749994],[-3.580435,51.750012],[-3.580506,51.750029],[-3.58058,51.750046],[-3.580654,51.750071],[-3.580726,51.750104],[-3.580798,51.750145],[-3.580868,51.750194],[-3.580927,51.750253],[-3.580973,51.75032],[-3.581007,51.750397],[-3.581028,51.750483]]]}}