{"type":"Feature","properties":{"id":"263411","COMMUNE":"Rhondda Cynon Taf","PROVINCE":"Central Valleys","COUNTRY":"UK","FIREDATE":"2025-03-19 02:21:00","FINALDATE":"2025-03-19 02:21:00","CLASS":"FireSeason","areaHA_geo":1.118},"geometry":{"type":"Polygon","coordinates":[[[-3.475925,51.661972],[-3.476261,51.662045],[-3.476506,51.662084],[-3.476659,51.662091],[-3.476721,51.662064],[-3.476738,51.662019],[-3.476713,51.661956],[-3.476644,51.661874],[-3.476533,51.661775],[-3.476457,51.661687],[-3.476419,51.661612],[-3.476417,51.661549],[-3.476452,51.661498],[-3.476441,51.661428],[-3.476382,51.661339],[-3.476278,51.661232],[-3.476126,51.661105],[-3.475973,51.661003],[-3.475817,51.660926],[-3.47566,51.660873],[-3.4755,51.660845],[-3.475344,51.660855],[-3.475192,51.660904],[-3.475044,51.660992],[-3.474899,51.661117],[-3.474817,51.661225],[-3.474797,51.661315],[-3.474839,51.661387],[-3.474943,51.661441],[-3.475006,51.661493],[-3.475028,51.661543],[-3.475008,51.661591],[-3.474946,51.661638],[-3.475007,51.661699],[-3.47519,51.661775],[-3.475496,51.661866],[-3.475925,51.661972]]]}}