{"type":"Feature","properties":{"id":"263488","COMMUNE":"Cornwall","PROVINCE":"Cornwall and Isles of Scilly","COUNTRY":"UK","FIREDATE":"2025-03-18 01:00:00","FINALDATE":"2025-03-18 01:24:00","CLASS":"FireSeason","areaHA_geo":7.561},"geometry":{"type":"Polygon","coordinates":[[[-4.631553,50.537442],[-4.631893,50.537458],[-4.632147,50.537399],[-4.632316,50.537265],[-4.632398,50.537055],[-4.632494,50.536888],[-4.632604,50.536764],[-4.632727,50.536683],[-4.632864,50.536644],[-4.632942,50.53659],[-4.632961,50.536519],[-4.632921,50.536433],[-4.632822,50.53633],[-4.632716,50.536215],[-4.632601,50.536089],[-4.632478,50.53595],[-4.632348,50.535799],[-4.63219,50.535665],[-4.632004,50.535548],[-4.63179,50.535447],[-4.631548,50.535363],[-4.631106,50.535352],[-4.630464,50.535413],[-4.629622,50.535548],[-4.628579,50.535756],[-4.627785,50.535926],[-4.62724,50.536059],[-4.626944,50.536155],[-4.626896,50.536214],[-4.626793,50.536279],[-4.626634,50.536352],[-4.626419,50.536432],[-4.626149,50.536519],[-4.625953,50.536605],[-4.62583,50.536689],[-4.625782,50.536771],[-4.625808,50.536851],[-4.625877,50.5369],[-4.62599,50.536917],[-4.626146,50.536902],[-4.626346,50.536855],[-4.626523,50.536838],[-4.626675,50.53685],[-4.626804,50.536891],[-4.626909,50.536961],[-4.627183,50.53703],[-4.627627,50.537099],[-4.62824,50.537167],[-4.629022,50.537233],[-4.629627,50.537276],[-4.630054,50.537294],[-4.630305,50.537288],[-4.630378,50.537258],[-4.630539,50.537258],[-4.630789,50.537289],[-4.631127,50.53735],[-4.631553,50.537442]]]}}