{"type":"Feature","properties":{"id":"263429","COMMUNE":"Rhondda Cynon Taf","PROVINCE":"Central Valleys","COUNTRY":"UK","FIREDATE":"2025-03-20 10:45:07.488","FINALDATE":"2025-03-21 10:45:11.165","CLASS":"FireSeason","areaHA_geo":0.275},"geometry":{"type":"Polygon","coordinates":[[[-3.576749,51.753631],[-3.576762,51.753668],[-3.576779,51.753701],[-3.576801,51.753728],[-3.576827,51.75375],[-3.576857,51.753767],[-3.576892,51.753779],[-3.576931,51.753786],[-3.576974,51.753787],[-3.577013,51.753785],[-3.577047,51.753779],[-3.577077,51.75377],[-3.577102,51.753757],[-3.577123,51.753741],[-3.577139,51.753721],[-3.577151,51.753697],[-3.577158,51.75367],[-3.57717,51.753645],[-3.577187,51.753623],[-3.577209,51.753605],[-3.577237,51.753589],[-3.577269,51.753575],[-3.577307,51.753565],[-3.577349,51.753558],[-3.577397,51.753553],[-3.577437,51.753546],[-3.577471,51.753536],[-3.577496,51.753524],[-3.577515,51.753509],[-3.577526,51.753491],[-3.57753,51.753471],[-3.577526,51.753448],[-3.577516,51.753423],[-3.577501,51.753401],[-3.577483,51.753381],[-3.577462,51.753365],[-3.577437,51.753351],[-3.577409,51.75334],[-3.577377,51.753332],[-3.577341,51.753327],[-3.577302,51.753325],[-3.577266,51.753321],[-3.577233,51.753314],[-3.577203,51.753304],[-3.577175,51.753292],[-3.577151,51.753278],[-3.577129,51.753261],[-3.57711,51.753242],[-3.577094,51.75322],[-3.577075,51.7532],[-3.577051,51.753183],[-3.577024,51.753167],[-3.576993,51.753154],[-3.576959,51.753142],[-3.57692,51.753133],[-3.576878,51.753126],[-3.576832,51.753121],[-3.576792,51.75312],[-3.576759,51.753122],[-3.576733,51.753129],[-3.576713,51.753139],[-3.5767,51.753153],[-3.576693,51.753171],[-3.576693,51.753193],[-3.576699,51.753219],[-3.576702,51.753243],[-3.576701,51.753263],[-3.576696,51.753282],[-3.576688,51.753298],[-3.576677,51.753312],[-3.576661,51.753323],[-3.576642,51.753332],[-3.57662,51.753338],[-3.576602,51.753345],[-3.576591,51.753352],[-3.576585,51.75336],[-3.576584,51.753368],[-3.576589,51.753377],[-3.5766,51.753386],[-3.576615,51.753395],[-3.576637,51.753405],[-3.576657,51.753419],[-3.576675,51.753437],[-3.576691,51.753459],[-3.576706,51.753485],[-3.576719,51.753516],[-3.576731,51.75355],[-3.576741,51.753588],[-3.576749,51.753631]]]}}