{"type":"Feature","properties":{"id":"263484","COMMUNE":"Torridge","PROVINCE":"Devon CC","COUNTRY":"UK","FIREDATE":"2025-03-20 11:25:00","FINALDATE":"2025-03-20 11:51:00","CLASS":"FireSeason","areaHA_geo":4.637},"geometry":{"type":"Polygon","coordinates":[[[-4.020964,50.915408],[-4.021461,50.915305],[-4.021761,50.915113],[-4.021866,50.914832],[-4.021775,50.914462],[-4.021506,50.914209],[-4.02106,50.914073],[-4.020436,50.914054],[-4.019635,50.914152],[-4.018985,50.914193],[-4.018485,50.914176],[-4.018137,50.914102],[-4.017939,50.913971],[-4.017708,50.91395],[-4.017443,50.914039],[-4.017145,50.914238],[-4.016812,50.914547],[-4.016643,50.914801],[-4.016636,50.914999],[-4.016793,50.915143],[-4.017112,50.915231],[-4.017414,50.915282],[-4.017699,50.915296],[-4.017968,50.915274],[-4.018219,50.915215],[-4.018448,50.915191],[-4.018653,50.915201],[-4.018835,50.915245],[-4.018995,50.915325],[-4.019287,50.915381],[-4.019713,50.915413],[-4.020272,50.915423],[-4.020964,50.915408]]]}}