{"type":"Feature","properties":{"id":"263433","COMMUNE":"Monmouthshire","PROVINCE":"Monmouthshire and Newport","COUNTRY":"UK","FIREDATE":"2025-03-19 01:05:00","FINALDATE":"2025-03-19 02:21:00","CLASS":"FireSeason","areaHA_geo":3.036},"geometry":{"type":"Polygon","coordinates":[[[-3.100402,51.806072],[-3.100507,51.806132],[-3.100628,51.806181],[-3.100766,51.806217],[-3.100921,51.806241],[-3.10105,51.806249],[-3.101155,51.806241],[-3.101235,51.806218],[-3.101291,51.806178],[-3.101398,51.806144],[-3.101557,51.806113],[-3.101767,51.806088],[-3.102029,51.806067],[-3.10232,51.805986],[-3.102641,51.805847],[-3.102991,51.805648],[-3.103371,51.805391],[-3.103676,51.805164],[-3.103907,51.804969],[-3.104063,51.804805],[-3.104144,51.804671],[-3.104148,51.804582],[-3.104075,51.804537],[-3.103923,51.804535],[-3.103695,51.804577],[-3.103481,51.804603],[-3.103283,51.804613],[-3.1031,51.804607],[-3.102933,51.804584],[-3.102729,51.804574],[-3.102488,51.804577],[-3.102211,51.804591],[-3.101897,51.804618],[-3.101634,51.804669],[-3.101421,51.804742],[-3.101259,51.804839],[-3.101147,51.804959],[-3.101026,51.805051],[-3.100898,51.805115],[-3.100761,51.805151],[-3.100616,51.805159],[-3.100531,51.805191],[-3.100508,51.805248],[-3.100545,51.805328],[-3.100643,51.805433],[-3.100678,51.80553],[-3.100651,51.80562],[-3.100561,51.805703],[-3.100409,51.805778],[-3.100317,51.805852],[-3.100285,51.805926],[-3.100313,51.805999],[-3.100402,51.806072]]]}}