{"type":"Feature","properties":{"id":"263459","COMMUNE":"Powys","PROVINCE":"Powys","COUNTRY":"UK","FIREDATE":"2025-03-18 11:23:48.696","CLASS":"FireSeason","areaHA_geo":2.773},"geometry":{"type":"Polygon","coordinates":[[[-3.140416,51.94766],[-3.140737,51.948147],[-3.141012,51.94845],[-3.141239,51.948569],[-3.14142,51.948503],[-3.141541,51.948423],[-3.141603,51.948328],[-3.141605,51.948219],[-3.141547,51.948096],[-3.141487,51.947999],[-3.141424,51.947929],[-3.141358,51.947884],[-3.141289,51.947866],[-3.14122,51.947811],[-3.14115,51.947718],[-3.14108,51.947588],[-3.14101,51.947421],[-3.140963,51.947282],[-3.140941,51.947171],[-3.140943,51.947088],[-3.140969,51.947033],[-3.140978,51.946958],[-3.14097,51.946861],[-3.140946,51.946744],[-3.140905,51.946606],[-3.140875,51.946459],[-3.140855,51.946302],[-3.140845,51.946136],[-3.140846,51.945961],[-3.140832,51.945809],[-3.140804,51.945679],[-3.140762,51.945572],[-3.140705,51.945488],[-3.14066,51.945353],[-3.140627,51.945169],[-3.140605,51.944935],[-3.140594,51.944651],[-3.140546,51.944426],[-3.14046,51.944261],[-3.140336,51.944155],[-3.140175,51.944108],[-3.140012,51.944047],[-3.139847,51.943971],[-3.139681,51.943882],[-3.139513,51.943777],[-3.139425,51.943747],[-3.139416,51.94379],[-3.139488,51.943907],[-3.139639,51.944097],[-3.139768,51.944256],[-3.139874,51.944383],[-3.139958,51.944479],[-3.140019,51.944544],[-3.140035,51.944613],[-3.140004,51.944688],[-3.139928,51.944768],[-3.139805,51.944853],[-3.139739,51.944932],[-3.139729,51.945004],[-3.139775,51.94507],[-3.139877,51.94513],[-3.139963,51.945208],[-3.140034,51.945304],[-3.140089,51.945418],[-3.140128,51.945549],[-3.140114,51.945663],[-3.140047,51.945758],[-3.139928,51.945834],[-3.139755,51.945893],[-3.139718,51.946104],[-3.139815,51.946469],[-3.140048,51.946988],[-3.140416,51.94766]]]}}