{"type":"Feature","properties":{"id":"263462","COMMUNE":"North Devon","PROVINCE":"Devon CC","COUNTRY":"UK","FIREDATE":"2025-03-19 01:56:00","FINALDATE":"2025-03-19 02:43:00","CLASS":"FireSeason","areaHA_geo":32.36},"geometry":{"type":"Polygon","coordinates":[[[-3.964262,51.218291],[-3.964589,51.218206],[-3.964833,51.218095],[-3.964995,51.217957],[-3.965075,51.217792],[-3.965186,51.217682],[-3.96533,51.217628],[-3.965505,51.217628],[-3.965712,51.217685],[-3.9659,51.217679],[-3.966069,51.21761],[-3.966219,51.217479],[-3.966349,51.217285],[-3.966508,51.217129],[-3.966697,51.21701],[-3.966915,51.216928],[-3.967162,51.216883],[-3.967279,51.216791],[-3.967266,51.216652],[-3.967122,51.216465],[-3.966849,51.216232],[-3.966535,51.216061],[-3.966181,51.215952],[-3.965787,51.215905],[-3.965352,51.215921],[-3.965025,51.215918],[-3.964805,51.215896],[-3.964692,51.215856],[-3.964686,51.215798],[-3.96473,51.215702],[-3.964825,51.215568],[-3.964971,51.215396],[-3.965168,51.215187],[-3.965278,51.215007],[-3.965303,51.214856],[-3.965242,51.214734],[-3.965094,51.21464],[-3.964917,51.214567],[-3.964711,51.214515],[-3.964476,51.214482],[-3.964211,51.21447],[-3.963995,51.214413],[-3.963827,51.214311],[-3.963707,51.214164],[-3.963636,51.213973],[-3.963487,51.213796],[-3.963259,51.213635],[-3.962953,51.213489],[-3.962569,51.213358],[-3.962275,51.213243],[-3.962073,51.213145],[-3.961962,51.213064],[-3.961942,51.213],[-3.961889,51.212934],[-3.961803,51.212867],[-3.961684,51.212798],[-3.961532,51.212728],[-3.96136,51.212641],[-3.961168,51.212538],[-3.960957,51.21242],[-3.960725,51.212285],[-3.960486,51.212173],[-3.960239,51.212084],[-3.959985,51.212019],[-3.959722,51.211977],[-3.959445,51.211934],[-3.959153,51.211892],[-3.958847,51.211849],[-3.958525,51.211807],[-3.95815,51.211765],[-3.957723,51.211725],[-3.957242,51.211685],[-3.956708,51.211646],[-3.95628,51.211683],[-3.955959,51.211796],[-3.955744,51.211985],[-3.955636,51.21225],[-3.955515,51.212483],[-3.955381,51.212685],[-3.955235,51.212854],[-3.955076,51.212992],[-3.954935,51.213122],[-3.954812,51.213245],[-3.954708,51.213359],[-3.954622,51.213466],[-3.954531,51.213555],[-3.954434,51.213626],[-3.954332,51.213679],[-3.954224,51.213714],[-3.954171,51.213772],[-3.954172,51.213854],[-3.954228,51.213958],[-3.954338,51.214085],[-3.954503,51.214205],[-3.954721,51.214315],[-3.954992,51.214417],[-3.955318,51.214511],[-3.95564,51.214585],[-3.95596,51.214639],[-3.956276,51.214673],[-3.956588,51.214687],[-3.956821,51.214711],[-3.956974,51.214744],[-3.957046,51.214787],[-3.957039,51.21484],[-3.957077,51.214904],[-3.957159,51.214979],[-3.957287,51.215065],[-3.957459,51.215163],[-3.957714,51.215258],[-3.958051,51.215351],[-3.95847,51.21544],[-3.958972,51.215528],[-3.959384,51.215615],[-3.959708,51.215702],[-3.959942,51.215788],[-3.960087,51.215874],[-3.960261,51.215938],[-3.960464,51.21598],[-3.960696,51.216],[-3.960956,51.215998],[-3.961124,51.216015],[-3.9612,51.21605],[-3.961184,51.216104],[-3.961076,51.216176],[-3.96095,51.216277],[-3.960806,51.216406],[-3.960643,51.216562],[-3.960463,51.216747],[-3.960321,51.216922],[-3.960217,51.217086],[-3.960152,51.217241],[-3.960125,51.217385],[-3.960168,51.217504],[-3.96028,51.217597],[-3.960461,51.217666],[-3.960712,51.21771],[-3.960889,51.217707],[-3.960993,51.217657],[-3.961022,51.217561],[-3.960978,51.217418],[-3.960981,51.217303],[-3.961032,51.217215],[-3.961129,51.217156],[-3.961273,51.217123],[-3.961407,51.217144],[-3.961531,51.217218],[-3.961644,51.217345],[-3.961747,51.217525],[-3.961908,51.2177],[-3.962126,51.21787],[-3.962403,51.218035],[-3.962737,51.218194],[-3.963089,51.2183],[-3.963461,51.218351],[-3.963852,51.218348],[-3.964262,51.218291]]]}}