{"type":"Feature","properties":{"id":"263431","COMMUNE":"Neath Port Talbot","PROVINCE":"Bridgend and Neath Port Talbot","COUNTRY":"UK","FIREDATE":"2025-03-20 13:31:00","CLASS":"FireSeason","areaHA_geo":25.298},"geometry":{"type":"Polygon","coordinates":[[[-3.753874,51.753955],[-3.753958,51.75413],[-3.754089,51.754226],[-3.754266,51.754244],[-3.754489,51.754185],[-3.754683,51.754153],[-3.75485,51.75415],[-3.754989,51.754175],[-3.755099,51.754229],[-3.755195,51.754182],[-3.755277,51.754036],[-3.755346,51.75379],[-3.7554,51.753444],[-3.755464,51.753163],[-3.755538,51.752947],[-3.755622,51.752797],[-3.755717,51.752711],[-3.755838,51.752657],[-3.755985,51.752636],[-3.756159,51.752646],[-3.75636,51.752689],[-3.756566,51.752691],[-3.756775,51.752654],[-3.75699,51.752577],[-3.757208,51.75246],[-3.757249,51.752319],[-3.75711,51.752153],[-3.756793,51.751963],[-3.756298,51.751748],[-3.755904,51.751515],[-3.755612,51.751264],[-3.755421,51.750995],[-3.755333,51.750708],[-3.7552,51.750485],[-3.755024,51.750328],[-3.754805,51.750236],[-3.754542,51.750209],[-3.75434,51.750175],[-3.7542,51.750134],[-3.754121,51.750085],[-3.754104,51.750029],[-3.754203,51.74998],[-3.754418,51.749938],[-3.754749,51.749903],[-3.755196,51.749875],[-3.755583,51.749759],[-3.755909,51.749555],[-3.756174,51.749263],[-3.756378,51.748883],[-3.756528,51.748553],[-3.756622,51.748272],[-3.756662,51.748042],[-3.756646,51.747862],[-3.756652,51.747673],[-3.756678,51.747475],[-3.756725,51.747269],[-3.756793,51.747054],[-3.756826,51.74687],[-3.756826,51.746717],[-3.756791,51.746595],[-3.756723,51.746503],[-3.756638,51.746381],[-3.756537,51.746227],[-3.75642,51.746043],[-3.756286,51.745827],[-3.756149,51.745655],[-3.756009,51.745526],[-3.755866,51.745442],[-3.755719,51.745401],[-3.755566,51.74532],[-3.755408,51.745198],[-3.755244,51.745035],[-3.755074,51.744832],[-3.754924,51.744705],[-3.754794,51.744654],[-3.754685,51.744679],[-3.754595,51.744781],[-3.754455,51.744868],[-3.754262,51.74494],[-3.754019,51.744998],[-3.753724,51.745041],[-3.753512,51.745104],[-3.753382,51.745185],[-3.753336,51.745286],[-3.753373,51.745406],[-3.753368,51.745508],[-3.75332,51.745592],[-3.75323,51.745658],[-3.753098,51.745707],[-3.752983,51.745802],[-3.752885,51.745941],[-3.752805,51.746127],[-3.752742,51.746358],[-3.752712,51.746587],[-3.752715,51.746814],[-3.752751,51.74704],[-3.75282,51.747263],[-3.75281,51.747457],[-3.75272,51.747621],[-3.75255,51.747755],[-3.7523,51.747859],[-3.752116,51.748021],[-3.751996,51.748242],[-3.751942,51.748522],[-3.751952,51.74886],[-3.752003,51.749121],[-3.752093,51.749305],[-3.752223,51.749412],[-3.752393,51.749441],[-3.752521,51.749474],[-3.752605,51.749509],[-3.752647,51.749548],[-3.752647,51.749589],[-3.752616,51.749642],[-3.752556,51.749707],[-3.752466,51.749784],[-3.752346,51.749873],[-3.752218,51.749971],[-3.752084,51.750078],[-3.751942,51.750194],[-3.751793,51.750319],[-3.751699,51.750428],[-3.75166,51.750519],[-3.751676,51.750594],[-3.751748,51.750652],[-3.751831,51.750725],[-3.751925,51.750813],[-3.752031,51.750916],[-3.752148,51.751035],[-3.752205,51.751167],[-3.752203,51.751312],[-3.752141,51.75147],[-3.75202,51.751642],[-3.751953,51.751782],[-3.751939,51.751891],[-3.75198,51.751969],[-3.752075,51.752016],[-3.752149,51.752069],[-3.752201,51.752129],[-3.752231,51.752196],[-3.752241,51.75227],[-3.752187,51.752379],[-3.752072,51.752525],[-3.751893,51.752708],[-3.751652,51.752927],[-3.751627,51.753095],[-3.751818,51.753214],[-3.752224,51.753281],[-3.752847,51.753299],[-3.753323,51.753375],[-3.753653,51.75351],[-3.753837,51.753703],[-3.753874,51.753955]]]}}