{"type":"Feature","properties":{"id":"263441","COMMUNE":"Powys","PROVINCE":"Powys","COUNTRY":"UK","FIREDATE":"2025-03-21 03:47:00","CLASS":"FireSeason","areaHA_geo":18.278},"geometry":{"type":"Polygon","coordinates":[[[-3.489551,51.82876],[-3.489559,51.828801],[-3.489648,51.8288],[-3.48982,51.828757],[-3.490075,51.828672],[-3.490269,51.828586],[-3.490403,51.8285],[-3.490476,51.828413],[-3.49049,51.828325],[-3.490502,51.828225],[-3.490513,51.828113],[-3.490523,51.827988],[-3.490531,51.827852],[-3.49055,51.827734],[-3.49058,51.827635],[-3.490621,51.827555],[-3.490672,51.827493],[-3.490703,51.827414],[-3.490714,51.827317],[-3.490704,51.827203],[-3.490674,51.827071],[-3.490659,51.826961],[-3.490657,51.826875],[-3.490671,51.826812],[-3.490699,51.826772],[-3.490715,51.826711],[-3.490721,51.826631],[-3.490715,51.826529],[-3.490698,51.826408],[-3.490672,51.826297],[-3.490636,51.826196],[-3.490592,51.826106],[-3.490537,51.826026],[-3.490479,51.82594],[-3.490416,51.825849],[-3.490349,51.825752],[-3.490278,51.825649],[-3.49021,51.825557],[-3.490145,51.825475],[-3.490083,51.825403],[-3.490025,51.825342],[-3.489962,51.825276],[-3.489895,51.825203],[-3.489824,51.825125],[-3.489748,51.825042],[-3.489682,51.824961],[-3.489623,51.824885],[-3.489574,51.824812],[-3.489533,51.824743],[-3.489479,51.824666],[-3.489414,51.824581],[-3.489335,51.824488],[-3.489245,51.824388],[-3.489147,51.824287],[-3.489041,51.824185],[-3.488927,51.824082],[-3.488806,51.823979],[-3.488681,51.823857],[-3.488553,51.823714],[-3.488421,51.823552],[-3.488286,51.823371],[-3.488181,51.823205],[-3.488106,51.823057],[-3.488061,51.822925],[-3.488046,51.82281],[-3.488021,51.822688],[-3.487987,51.822559],[-3.487944,51.822424],[-3.487891,51.822282],[-3.48782,51.822156],[-3.487732,51.822046],[-3.487626,51.821952],[-3.487502,51.821874],[-3.487345,51.821843],[-3.487155,51.821859],[-3.486931,51.821921],[-3.486674,51.822031],[-3.486466,51.822151],[-3.486305,51.822281],[-3.486192,51.82242],[-3.486127,51.822569],[-3.48611,51.822692],[-3.486138,51.822787],[-3.486214,51.822855],[-3.486337,51.822897],[-3.486398,51.822957],[-3.486397,51.823038],[-3.486335,51.823137],[-3.486211,51.823256],[-3.48615,51.823353],[-3.486152,51.823427],[-3.486218,51.823477],[-3.486346,51.823506],[-3.486416,51.823545],[-3.486427,51.823597],[-3.486378,51.823659],[-3.486271,51.823733],[-3.486173,51.823816],[-3.486085,51.823906],[-3.486008,51.824004],[-3.48594,51.824111],[-3.485894,51.824209],[-3.485871,51.824298],[-3.485871,51.824378],[-3.485892,51.824449],[-3.48588,51.824498],[-3.485833,51.824525],[-3.485752,51.82453],[-3.485637,51.824513],[-3.485543,51.824484],[-3.48547,51.824443],[-3.485419,51.82439],[-3.48539,51.824326],[-3.485317,51.824317],[-3.485201,51.824364],[-3.485043,51.824467],[-3.484841,51.824626],[-3.48468,51.824772],[-3.48456,51.824903],[-3.48448,51.82502],[-3.484441,51.825123],[-3.484446,51.825222],[-3.484496,51.825318],[-3.484589,51.825411],[-3.484726,51.8255],[-3.484808,51.825598],[-3.484836,51.825706],[-3.484809,51.825823],[-3.484727,51.82595],[-3.484684,51.826055],[-3.484679,51.826139],[-3.484713,51.826201],[-3.484786,51.826242],[-3.484842,51.82628],[-3.484883,51.826315],[-3.484908,51.826348],[-3.484917,51.826378],[-3.484965,51.826414],[-3.485053,51.826456],[-3.48518,51.826505],[-3.485347,51.826559],[-3.485466,51.826612],[-3.485536,51.826662],[-3.485558,51.826711],[-3.485532,51.826757],[-3.48555,51.826816],[-3.485612,51.826889],[-3.485718,51.826976],[-3.485869,51.827075],[-3.486015,51.827154],[-3.486158,51.827211],[-3.486296,51.827248],[-3.486431,51.827263],[-3.486557,51.827298],[-3.486673,51.827352],[-3.48678,51.827426],[-3.486879,51.827519],[-3.486979,51.827619],[-3.487081,51.827724],[-3.487185,51.827835],[-3.48729,51.827953],[-3.487417,51.828047],[-3.487564,51.82812],[-3.487731,51.82817],[-3.48792,51.828197],[-3.488119,51.828217],[-3.488328,51.82823],[-3.488547,51.828236],[-3.488776,51.828234],[-3.488967,51.828221],[-3.48912,51.828197],[-3.489235,51.828162],[-3.489311,51.828116],[-3.489392,51.828079],[-3.489479,51.828051],[-3.48957,51.828031],[-3.489667,51.82802],[-3.489718,51.828031],[-3.489723,51.828064],[-3.489682,51.82812],[-3.489596,51.828197],[-3.489548,51.828271],[-3.489539,51.82834],[-3.489568,51.828404],[-3.489636,51.828464],[-3.489669,51.82853],[-3.489665,51.828601],[-3.489626,51.828678],[-3.489551,51.82876]]]}}