{"type":"Feature","properties":{"id":"263482","COMMUNE":"North Devon","PROVINCE":"Devon CC","COUNTRY":"UK","FIREDATE":"2025-03-05 11:43:21.252","FINALDATE":"2025-03-06 11:43:23.218","CLASS":"FireSeason","areaHA_geo":5.667},"geometry":{"type":"Polygon","coordinates":[[[-3.768456,51.203526],[-3.768644,51.203689],[-3.768782,51.203744],[-3.768869,51.203691],[-3.768905,51.203532],[-3.76897,51.203393],[-3.769062,51.203276],[-3.769181,51.20318],[-3.769328,51.203105],[-3.769482,51.202991],[-3.769641,51.202837],[-3.769806,51.202644],[-3.769977,51.202411],[-3.770134,51.202229],[-3.770278,51.202097],[-3.770407,51.202017],[-3.770522,51.201987],[-3.770667,51.201968],[-3.770841,51.201962],[-3.771045,51.201967],[-3.771279,51.201984],[-3.771416,51.20197],[-3.771455,51.201927],[-3.771397,51.201853],[-3.771241,51.201749],[-3.77108,51.201651],[-3.770915,51.201559],[-3.770745,51.201472],[-3.77057,51.201391],[-3.77037,51.201303],[-3.770145,51.20121],[-3.769896,51.20111],[-3.769622,51.201004],[-3.769348,51.200871],[-3.769074,51.200712],[-3.7688,51.200526],[-3.768526,51.200314],[-3.76827,51.200239],[-3.768031,51.200303],[-3.767809,51.200504],[-3.767605,51.200843],[-3.767437,51.201153],[-3.767307,51.201434],[-3.767214,51.201686],[-3.767157,51.201909],[-3.767164,51.202115],[-3.767234,51.202302],[-3.767367,51.202472],[-3.767564,51.202624],[-3.767771,51.202806],[-3.767989,51.203017],[-3.768217,51.203257],[-3.768456,51.203526]]]}}