{"type":"Feature","properties":{"id":"263408","COMMUNE":"Neath Port Talbot","PROVINCE":"Bridgend and Neath Port Talbot","COUNTRY":"UK","FIREDATE":"2025-03-24 01:09:00","FINALDATE":"2025-03-24 02:28:00","CLASS":"FireSeason","areaHA_geo":18.974},"geometry":{"type":"Polygon","coordinates":[[[-3.60307,51.668085],[-3.603281,51.668218],[-3.603455,51.668301],[-3.60359,51.668332],[-3.603687,51.668314],[-3.60378,51.668278],[-3.60387,51.668227],[-3.603957,51.668159],[-3.60404,51.668074],[-3.60414,51.667989],[-3.604256,51.667905],[-3.604389,51.66782],[-3.604538,51.667735],[-3.604678,51.667638],[-3.604808,51.66753],[-3.604929,51.667409],[-3.605039,51.667276],[-3.605144,51.667132],[-3.605241,51.666977],[-3.605333,51.66681],[-3.605417,51.666632],[-3.605468,51.66648],[-3.605484,51.666355],[-3.605466,51.666256],[-3.605414,51.666184],[-3.605407,51.666126],[-3.605445,51.666082],[-3.605528,51.666053],[-3.605657,51.666038],[-3.605768,51.665993],[-3.605864,51.665918],[-3.605942,51.665814],[-3.606004,51.665679],[-3.606085,51.665573],[-3.606185,51.665494],[-3.606303,51.665442],[-3.606441,51.665419],[-3.606582,51.66537],[-3.606726,51.665297],[-3.606873,51.6652],[-3.607024,51.665077],[-3.607123,51.664968],[-3.607172,51.66487],[-3.60717,51.664785],[-3.607118,51.664713],[-3.607114,51.66466],[-3.607158,51.664627],[-3.607251,51.664613],[-3.607392,51.664619],[-3.607488,51.664593],[-3.60754,51.664535],[-3.607547,51.664444],[-3.60751,51.664321],[-3.607507,51.66423],[-3.607541,51.66417],[-3.607609,51.664141],[-3.607713,51.664144],[-3.607807,51.66413],[-3.607891,51.6641],[-3.607966,51.664053],[-3.608031,51.663989],[-3.608105,51.663959],[-3.608188,51.663962],[-3.608279,51.663999],[-3.608379,51.66407],[-3.608496,51.664121],[-3.608629,51.664152],[-3.608779,51.664163],[-3.608946,51.664155],[-3.609092,51.664134],[-3.609218,51.664101],[-3.609323,51.664055],[-3.609408,51.663996],[-3.609503,51.663916],[-3.609608,51.663814],[-3.609723,51.66369],[-3.609848,51.663544],[-3.60996,51.663435],[-3.610058,51.663362],[-3.610144,51.663325],[-3.610216,51.663324],[-3.610289,51.663306],[-3.610363,51.663271],[-3.610438,51.663219],[-3.610514,51.66315],[-3.610563,51.663073],[-3.610585,51.662986],[-3.61058,51.66289],[-3.610548,51.662786],[-3.610468,51.662711],[-3.610339,51.662666],[-3.610162,51.662651],[-3.609937,51.662667],[-3.609739,51.662694],[-3.609566,51.662733],[-3.60942,51.662783],[-3.6093,51.662846],[-3.609164,51.662914],[-3.609011,51.662988],[-3.608842,51.663068],[-3.608656,51.663153],[-3.608511,51.663196],[-3.608405,51.663198],[-3.60834,51.663157],[-3.608314,51.663074],[-3.608259,51.663015],[-3.608173,51.66298],[-3.608056,51.662969],[-3.607909,51.662983],[-3.607809,51.662978],[-3.607757,51.662954],[-3.607751,51.662912],[-3.607793,51.662851],[-3.607804,51.662803],[-3.607785,51.66277],[-3.607736,51.662751],[-3.607655,51.662745],[-3.607604,51.662726],[-3.607582,51.662693],[-3.607589,51.662646],[-3.607625,51.662586],[-3.607619,51.662532],[-3.607571,51.662483],[-3.607481,51.66244],[-3.607349,51.662404],[-3.607255,51.662365],[-3.607201,51.662325],[-3.607185,51.662283],[-3.607208,51.662239],[-3.607277,51.662191],[-3.607391,51.662141],[-3.607551,51.662086],[-3.607757,51.662029],[-3.607879,51.661972],[-3.607917,51.661917],[-3.60787,51.661864],[-3.60774,51.661812],[-3.607708,51.661772],[-3.607775,51.661743],[-3.60794,51.661727],[-3.608205,51.661722],[-3.608456,51.661718],[-3.608694,51.661714],[-3.608918,51.661711],[-3.609129,51.661709],[-3.609333,51.661701],[-3.609532,51.661687],[-3.609724,51.661667],[-3.609909,51.661642],[-3.610107,51.661615],[-3.610316,51.661587],[-3.610536,51.661557],[-3.610769,51.661526],[-3.610933,51.661489],[-3.611028,51.661446],[-3.611056,51.661397],[-3.611015,51.661342],[-3.610947,51.661304],[-3.610853,51.661283],[-3.610733,51.66128],[-3.610586,51.661293],[-3.61047,51.661279],[-3.610384,51.661236],[-3.61033,51.661166],[-3.610306,51.661068],[-3.610272,51.660991],[-3.610227,51.660934],[-3.610173,51.660899],[-3.610108,51.660884],[-3.609983,51.660885],[-3.609798,51.660903],[-3.609553,51.660938],[-3.609248,51.660988],[-3.608999,51.661011],[-3.608807,51.661005],[-3.608672,51.660972],[-3.608592,51.66091],[-3.608501,51.660882],[-3.608397,51.660889],[-3.608281,51.66093],[-3.608153,51.661005],[-3.608029,51.661056],[-3.607911,51.661085],[-3.607798,51.661091],[-3.60769,51.661074],[-3.607579,51.661052],[-3.607466,51.661026],[-3.607349,51.660996],[-3.60723,51.660961],[-3.607103,51.660945],[-3.606967,51.660948],[-3.606824,51.66097],[-3.606673,51.66101],[-3.606561,51.661058],[-3.606488,51.661116],[-3.606454,51.661181],[-3.606458,51.661256],[-3.606432,51.661307],[-3.606374,51.661336],[-3.606285,51.661343],[-3.606166,51.661327],[-3.606066,51.661302],[-3.605985,51.661266],[-3.605925,51.661221],[-3.605884,51.661166],[-3.605799,51.661141],[-3.605671,51.661147],[-3.605499,51.661183],[-3.605284,51.661249],[-3.605116,51.661333],[-3.604996,51.661435],[-3.604923,51.661555],[-3.604899,51.661693],[-3.604837,51.661903],[-3.60474,51.662188],[-3.604605,51.662546],[-3.604434,51.662977],[-3.604272,51.663348],[-3.604119,51.66366],[-3.603975,51.663911],[-3.60384,51.664103],[-3.603749,51.664276],[-3.603703,51.664431],[-3.603701,51.664568],[-3.603743,51.664686],[-3.603765,51.664813],[-3.603766,51.664947],[-3.603748,51.665089],[-3.603709,51.66524],[-3.603727,51.665369],[-3.603803,51.665478],[-3.603935,51.665566],[-3.604125,51.665634],[-3.604223,51.665693],[-3.604229,51.665742],[-3.604143,51.665783],[-3.603966,51.665815],[-3.603809,51.665858],[-3.603675,51.665911],[-3.603561,51.665975],[-3.603469,51.666049],[-3.603384,51.666127],[-3.603306,51.666209],[-3.603235,51.666295],[-3.603172,51.666385],[-3.603094,51.666468],[-3.603003,51.666544],[-3.602897,51.666613],[-3.602777,51.666676],[-3.602682,51.666737],[-3.602612,51.666795],[-3.602568,51.666852],[-3.602548,51.666907],[-3.602556,51.666958],[-3.602592,51.667006],[-3.602655,51.667051],[-3.602747,51.667093],[-3.602786,51.667134],[-3.602775,51.667175],[-3.602711,51.667215],[-3.602596,51.667254],[-3.602512,51.667303],[-3.602457,51.667362],[-3.602432,51.667431],[-3.602438,51.667508],[-3.602505,51.667613],[-3.602632,51.667744],[-3.60282,51.667901],[-3.60307,51.668085]]]}}