{"type":"Feature","properties":{"id":"263410","COMMUNE":"Rhondda Cynon Taf","PROVINCE":"Central Valleys","COUNTRY":"UK","FIREDATE":"2025-03-20 14:16:00","FINALDATE":"2025-03-20 14:16:00","CLASS":"FireSeason","areaHA_geo":88.176},"geometry":{"type":"Polygon","coordinates":[[[-3.50305,51.673371],[-3.50341,51.673348],[-3.503692,51.673276],[-3.503896,51.673156],[-3.504023,51.672985],[-3.504165,51.672831],[-3.504322,51.672693],[-3.504495,51.672571],[-3.504683,51.672465],[-3.504834,51.672332],[-3.504948,51.672173],[-3.505026,51.671988],[-3.505067,51.671776],[-3.505127,51.671569],[-3.505208,51.671369],[-3.505309,51.671174],[-3.50543,51.670985],[-3.505494,51.67079],[-3.505501,51.670588],[-3.505451,51.67038],[-3.505345,51.670166],[-3.505296,51.669988],[-3.505306,51.669848],[-3.505374,51.669744],[-3.505501,51.669678],[-3.505617,51.669619],[-3.505722,51.669568],[-3.505816,51.669524],[-3.5059,51.669489],[-3.505932,51.669404],[-3.505912,51.66927],[-3.505841,51.669087],[-3.505719,51.668855],[-3.50566,51.668661],[-3.505665,51.668505],[-3.505734,51.668387],[-3.505867,51.668307],[-3.505868,51.66825],[-3.505738,51.668217],[-3.505475,51.668207],[-3.505081,51.66822],[-3.504799,51.668169],[-3.504627,51.668053],[-3.504568,51.667872],[-3.504619,51.667626],[-3.504689,51.667336],[-3.504776,51.667002],[-3.504882,51.666624],[-3.505005,51.666201],[-3.50506,51.665853],[-3.505045,51.665579],[-3.504962,51.66538],[-3.504809,51.665255],[-3.504641,51.665178],[-3.504459,51.665147],[-3.504262,51.665163],[-3.504051,51.665227],[-3.503851,51.665258],[-3.503662,51.665258],[-3.503485,51.665225],[-3.503319,51.66516],[-3.5031,51.66512],[-3.502828,51.665107],[-3.502505,51.665118],[-3.502128,51.665156],[-3.501918,51.665145],[-3.501874,51.665085],[-3.501996,51.664977],[-3.502284,51.66482],[-3.502448,51.664646],[-3.50249,51.664453],[-3.502408,51.664242],[-3.502202,51.664013],[-3.502072,51.663818],[-3.502018,51.663656],[-3.50204,51.663527],[-3.502136,51.663431],[-3.502201,51.663343],[-3.502234,51.663261],[-3.502235,51.663187],[-3.502204,51.663119],[-3.50213,51.663021],[-3.502013,51.662892],[-3.501852,51.662732],[-3.501648,51.662542],[-3.501496,51.662377],[-3.501396,51.662236],[-3.501348,51.66212],[-3.501351,51.662029],[-3.501316,51.661964],[-3.501241,51.661924],[-3.501127,51.66191],[-3.500973,51.661921],[-3.500804,51.661873],[-3.500619,51.661765],[-3.500419,51.661597],[-3.500204,51.661369],[-3.500002,51.661203],[-3.499813,51.661099],[-3.499638,51.661056],[-3.499476,51.661075],[-3.499284,51.661027],[-3.499061,51.660914],[-3.498808,51.660735],[-3.498524,51.660489],[-3.498215,51.660342],[-3.497881,51.660293],[-3.497522,51.660343],[-3.497137,51.660491],[-3.496849,51.660622],[-3.496658,51.660735],[-3.496564,51.66083],[-3.496566,51.660908],[-3.496575,51.660988],[-3.496589,51.66107],[-3.49661,51.661155],[-3.496636,51.661243],[-3.496623,51.661312],[-3.496571,51.661364],[-3.496479,51.661397],[-3.496347,51.661413],[-3.496247,51.661392],[-3.496177,51.661335],[-3.496139,51.661242],[-3.496131,51.661114],[-3.496066,51.661001],[-3.495943,51.660906],[-3.495762,51.660826],[-3.495523,51.660763],[-3.495298,51.660721],[-3.495087,51.660701],[-3.494891,51.660701],[-3.494709,51.660722],[-3.494561,51.660716],[-3.494446,51.660684],[-3.494366,51.660626],[-3.494319,51.66054],[-3.494152,51.660448],[-3.493866,51.660349],[-3.493459,51.660242],[-3.492932,51.660128],[-3.492519,51.660026],[-3.492219,51.659934],[-3.492033,51.659854],[-3.491959,51.659785],[-3.491877,51.659736],[-3.491784,51.659708],[-3.491683,51.6597],[-3.491571,51.659713],[-3.491403,51.659686],[-3.491178,51.659618],[-3.490897,51.65951],[-3.490559,51.659361],[-3.490281,51.659281],[-3.490063,51.659271],[-3.489906,51.65933],[-3.489808,51.659458],[-3.489674,51.659571],[-3.489505,51.659668],[-3.489299,51.65975],[-3.489058,51.659817],[-3.488888,51.659897],[-3.48879,51.659989],[-3.488764,51.660094],[-3.48881,51.660212],[-3.48887,51.660289],[-3.488944,51.660326],[-3.489032,51.660322],[-3.489134,51.660278],[-3.489208,51.660281],[-3.489254,51.66033],[-3.489273,51.660427],[-3.489264,51.660571],[-3.489231,51.660704],[-3.489174,51.660827],[-3.489093,51.66094],[-3.488988,51.661043],[-3.488898,51.661146],[-3.488825,51.661248],[-3.488766,51.661351],[-3.488724,51.661453],[-3.488725,51.661543],[-3.48877,51.661623],[-3.488858,51.66169],[-3.48899,51.661746],[-3.489066,51.661815],[-3.489086,51.661897],[-3.489049,51.661992],[-3.488956,51.6621],[-3.488873,51.662198],[-3.4888,51.662288],[-3.488738,51.662368],[-3.488686,51.662439],[-3.488648,51.662519],[-3.488623,51.66261],[-3.488611,51.66271],[-3.488613,51.66282],[-3.488595,51.662942],[-3.488556,51.663076],[-3.488498,51.663222],[-3.48842,51.66338],[-3.488315,51.663525],[-3.488182,51.663657],[-3.488021,51.663776],[-3.487834,51.663882],[-3.487718,51.663975],[-3.487673,51.664055],[-3.487701,51.664121],[-3.487801,51.664174],[-3.487894,51.664257],[-3.487981,51.66437],[-3.488061,51.664513],[-3.488134,51.664686],[-3.488239,51.664922],[-3.488376,51.66522],[-3.488545,51.665581],[-3.488747,51.666005],[-3.488958,51.666401],[-3.489179,51.666771],[-3.489411,51.667113],[-3.489653,51.667428],[-3.489847,51.667691],[-3.489994,51.667901],[-3.490094,51.668057],[-3.490147,51.668161],[-3.490232,51.668202],[-3.490351,51.668178],[-3.490502,51.668091],[-3.490687,51.66794],[-3.490857,51.667844],[-3.491013,51.667803],[-3.491153,51.667818],[-3.491279,51.667887],[-3.491402,51.667923],[-3.491523,51.667925],[-3.491642,51.667894],[-3.491759,51.667828],[-3.491897,51.667731],[-3.492057,51.667603],[-3.492239,51.667442],[-3.492443,51.66725],[-3.492676,51.667076],[-3.492937,51.666919],[-3.493228,51.66678],[-3.493548,51.666658],[-3.49383,51.666545],[-3.494076,51.666438],[-3.494284,51.66634],[-3.494456,51.666248],[-3.494589,51.666162],[-3.494685,51.666079],[-3.494742,51.666001],[-3.494762,51.665928],[-3.49481,51.66587],[-3.494887,51.665829],[-3.494992,51.665804],[-3.495125,51.665795],[-3.495246,51.665763],[-3.495356,51.665708],[-3.495453,51.66563],[-3.495537,51.66553],[-3.495602,51.665482],[-3.495645,51.665487],[-3.495667,51.665544],[-3.495669,51.665654],[-3.495645,51.665757],[-3.495596,51.665854],[-3.495521,51.665943],[-3.49542,51.666026],[-3.495367,51.666146],[-3.495362,51.666302],[-3.495405,51.666495],[-3.495495,51.666724],[-3.495571,51.666874],[-3.495635,51.666944],[-3.495684,51.666935],[-3.49572,51.666847],[-3.495767,51.666801],[-3.495823,51.666797],[-3.49589,51.666837],[-3.495967,51.666918],[-3.496051,51.666978],[-3.496141,51.667016],[-3.496237,51.667033],[-3.496341,51.667027],[-3.496424,51.667045],[-3.496489,51.667086],[-3.496535,51.66715],[-3.496561,51.667238],[-3.496644,51.667337],[-3.496782,51.667447],[-3.496976,51.667569],[-3.497225,51.667702],[-3.497444,51.667795],[-3.497633,51.667847],[-3.497791,51.667859],[-3.497919,51.667832],[-3.498064,51.667818],[-3.498227,51.667819],[-3.498407,51.667833],[-3.498604,51.667862],[-3.498758,51.667929],[-3.498868,51.668032],[-3.498934,51.668174],[-3.498956,51.668352],[-3.499007,51.668512],[-3.499086,51.668652],[-3.499193,51.668772],[-3.499328,51.668873],[-3.499464,51.668941],[-3.499601,51.668977],[-3.499738,51.668981],[-3.499876,51.668952],[-3.500092,51.668928],[-3.500385,51.66891],[-3.500756,51.668898],[-3.501204,51.668891],[-3.50158,51.668912],[-3.501882,51.668961],[-3.502113,51.669038],[-3.50227,51.669143],[-3.502426,51.669191],[-3.502581,51.669183],[-3.502734,51.669118],[-3.502886,51.668997],[-3.503004,51.668885],[-3.503088,51.668781],[-3.503137,51.668686],[-3.503153,51.6686],[-3.503203,51.668563],[-3.503285,51.668576],[-3.503401,51.668639],[-3.50355,51.668751],[-3.503697,51.668857],[-3.503843,51.668957],[-3.503986,51.66905],[-3.504128,51.669138],[-3.504204,51.669226],[-3.504216,51.669315],[-3.504162,51.669406],[-3.504043,51.669497],[-3.503981,51.669613],[-3.503976,51.669753],[-3.504028,51.669917],[-3.504137,51.670105],[-3.50425,51.670269],[-3.504365,51.670407],[-3.504483,51.670522],[-3.504605,51.670611],[-3.504653,51.670683],[-3.504627,51.670738],[-3.504529,51.670776],[-3.504356,51.670796],[-3.504174,51.670809],[-3.503983,51.670815],[-3.503781,51.670814],[-3.503569,51.670806],[-3.503433,51.670816],[-3.503373,51.670842],[-3.503388,51.670885],[-3.50348,51.670946],[-3.503515,51.67101],[-3.503494,51.671077],[-3.503415,51.671148],[-3.503281,51.671222],[-3.503138,51.671315],[-3.502989,51.671426],[-3.502832,51.671556],[-3.502667,51.671705],[-3.502501,51.671805],[-3.502333,51.671857],[-3.502164,51.67186],[-3.501993,51.671815],[-3.501865,51.6718],[-3.50178,51.671813],[-3.501738,51.671855],[-3.501739,51.671926],[-3.501764,51.671993],[-3.501814,51.672055],[-3.501889,51.672113],[-3.501989,51.672166],[-3.502062,51.672217],[-3.502109,51.672267],[-3.502128,51.672315],[-3.502121,51.672361],[-3.502127,51.672432],[-3.502145,51.672527],[-3.502176,51.672646],[-3.50222,51.67279],[-3.502232,51.672917],[-3.502212,51.673026],[-3.502162,51.673118],[-3.502079,51.673192],[-3.502127,51.673254],[-3.502305,51.673305],[-3.502612,51.673344],[-3.50305,51.673371]]]}}