{"type":"Feature","properties":{"id":"263412","COMMUNE":"Rhondda Cynon Taf","PROVINCE":"Central Valleys","COUNTRY":"UK","FIREDATE":"2025-03-19 01:05:00","CLASS":"FireSeason","areaHA_geo":36.885},"geometry":{"type":"Polygon","coordinates":[[[-3.470375,51.66303],[-3.470726,51.662986],[-3.470978,51.662945],[-3.471131,51.662908],[-3.471184,51.662874],[-3.471163,51.662817],[-3.47107,51.662736],[-3.470903,51.662632],[-3.470663,51.662504],[-3.470529,51.662421],[-3.470501,51.662381],[-3.47058,51.662385],[-3.470765,51.662434],[-3.470916,51.662457],[-3.471035,51.662455],[-3.471121,51.662428],[-3.471175,51.662375],[-3.471285,51.662307],[-3.471451,51.662223],[-3.471675,51.662124],[-3.471955,51.66201],[-3.472115,51.661909],[-3.472155,51.661823],[-3.472075,51.661751],[-3.471875,51.661692],[-3.471672,51.661639],[-3.471465,51.661591],[-3.471256,51.661548],[-3.471043,51.66151],[-3.470855,51.661485],[-3.470691,51.661473],[-3.470551,51.661474],[-3.470435,51.661487],[-3.47029,51.661487],[-3.470116,51.661472],[-3.469912,51.661443],[-3.469679,51.6614],[-3.4695,51.661355],[-3.469376,51.661309],[-3.469307,51.661262],[-3.469292,51.661213],[-3.469233,51.661169],[-3.46913,51.661131],[-3.468983,51.661097],[-3.468792,51.661069],[-3.468593,51.661045],[-3.468386,51.661026],[-3.468171,51.661012],[-3.467948,51.661003],[-3.467761,51.660984],[-3.467611,51.660955],[-3.467497,51.660915],[-3.467419,51.660866],[-3.467344,51.660811],[-3.467273,51.660751],[-3.467204,51.660686],[-3.467139,51.660616],[-3.467067,51.66056],[-3.466988,51.660519],[-3.466903,51.660492],[-3.466811,51.660479],[-3.46676,51.660485],[-3.466748,51.66051],[-3.466777,51.660553],[-3.466846,51.660615],[-3.466906,51.660677],[-3.466956,51.66074],[-3.466997,51.660802],[-3.467028,51.660864],[-3.467027,51.660914],[-3.466994,51.660951],[-3.466929,51.660975],[-3.466832,51.660986],[-3.4667,51.660997],[-3.466533,51.661007],[-3.466331,51.661015],[-3.466094,51.661023],[-3.46591,51.661014],[-3.465779,51.660986],[-3.465701,51.660941],[-3.465676,51.660877],[-3.465639,51.66083],[-3.465592,51.660798],[-3.465534,51.660783],[-3.465465,51.660783],[-3.465398,51.660766],[-3.465335,51.660733],[-3.465274,51.660682],[-3.465216,51.660615],[-3.46515,51.660557],[-3.465075,51.660507],[-3.464992,51.660466],[-3.4649,51.660434],[-3.464815,51.660403],[-3.464737,51.660373],[-3.464665,51.660344],[-3.464601,51.660317],[-3.464566,51.660279],[-3.46456,51.660231],[-3.464585,51.660173],[-3.46464,51.660104],[-3.464661,51.660033],[-3.464649,51.659961],[-3.464603,51.659886],[-3.464523,51.65981],[-3.464442,51.659774],[-3.464358,51.659777],[-3.464272,51.659821],[-3.464184,51.659906],[-3.464101,51.659966],[-3.464024,51.660002],[-3.463952,51.660014],[-3.463886,51.660003],[-3.463837,51.659961],[-3.463807,51.659891],[-3.463794,51.659791],[-3.463799,51.659662],[-3.463761,51.659551],[-3.463679,51.659457],[-3.463554,51.659381],[-3.463385,51.659323],[-3.4632,51.659246],[-3.462998,51.659151],[-3.46278,51.659037],[-3.462545,51.658904],[-3.462387,51.65883],[-3.462307,51.658814],[-3.462304,51.658856],[-3.462378,51.658957],[-3.462399,51.659035],[-3.462365,51.659092],[-3.462278,51.659126],[-3.462137,51.659139],[-3.462008,51.659154],[-3.461891,51.659171],[-3.461785,51.659191],[-3.461691,51.659214],[-3.461602,51.659252],[-3.461518,51.659307],[-3.461438,51.659377],[-3.461364,51.659464],[-3.461292,51.65955],[-3.461223,51.659636],[-3.461158,51.659721],[-3.461095,51.659806],[-3.461018,51.659862],[-3.460925,51.659888],[-3.460817,51.659885],[-3.460694,51.659853],[-3.460579,51.659838],[-3.460473,51.65984],[-3.460375,51.659861],[-3.460286,51.659898],[-3.4602,51.659961],[-3.460116,51.660048],[-3.460035,51.660161],[-3.459957,51.660298],[-3.459869,51.660401],[-3.459773,51.660469],[-3.459668,51.660501],[-3.459554,51.660499],[-3.459438,51.660493],[-3.459318,51.660483],[-3.459196,51.66047],[-3.459072,51.660454],[-3.458917,51.660427],[-3.458733,51.66039],[-3.458519,51.660342],[-3.458275,51.660285],[-3.458054,51.66023],[-3.457856,51.660177],[-3.45768,51.660126],[-3.457527,51.660078],[-3.457403,51.660005],[-3.457307,51.659907],[-3.45724,51.659784],[-3.457202,51.659637],[-3.457132,51.659517],[-3.457029,51.659426],[-3.456893,51.659363],[-3.456725,51.659328],[-3.456595,51.659323],[-3.456501,51.659347],[-3.456445,51.659401],[-3.456427,51.659485],[-3.456403,51.659557],[-3.456373,51.659617],[-3.456339,51.659665],[-3.456299,51.6597],[-3.456279,51.659738],[-3.456278,51.659777],[-3.456297,51.659817],[-3.456335,51.65986],[-3.456366,51.659917],[-3.456391,51.65999],[-3.45641,51.660079],[-3.456422,51.660182],[-3.456492,51.660351],[-3.456619,51.660583],[-3.456802,51.66088],[-3.457043,51.661241],[-3.457249,51.661521],[-3.457419,51.66172],[-3.457553,51.661836],[-3.457652,51.661872],[-3.45771,51.661929],[-3.457728,51.662009],[-3.457705,51.662111],[-3.457641,51.662235],[-3.457581,51.662344],[-3.457525,51.662438],[-3.457472,51.662517],[-3.457422,51.662582],[-3.457351,51.662688],[-3.457261,51.662837],[-3.45715,51.663028],[-3.457019,51.663261],[-3.456913,51.663459],[-3.456833,51.663622],[-3.456779,51.66375],[-3.45675,51.663843],[-3.456803,51.663929],[-3.456937,51.664009],[-3.457153,51.664082],[-3.45745,51.664149],[-3.457713,51.664188],[-3.457943,51.664198],[-3.458139,51.66418],[-3.458301,51.664134],[-3.4585,51.664105],[-3.458736,51.664094],[-3.459008,51.664099],[-3.459317,51.664122],[-3.459459,51.664154],[-3.459434,51.664196],[-3.459242,51.664247],[-3.458883,51.664308],[-3.458612,51.664365],[-3.458429,51.664417],[-3.458335,51.664465],[-3.458329,51.664509],[-3.458505,51.664523],[-3.458863,51.664509],[-3.459402,51.664466],[-3.460123,51.664394],[-3.460668,51.6643],[-3.461035,51.664183],[-3.461226,51.664044],[-3.461241,51.663883],[-3.461295,51.663765],[-3.461389,51.66369],[-3.461522,51.663658],[-3.461695,51.663669],[-3.461817,51.663695],[-3.461885,51.663735],[-3.461902,51.663791],[-3.461867,51.663861],[-3.461833,51.663926],[-3.461801,51.663987],[-3.46177,51.664042],[-3.461741,51.664092],[-3.461795,51.664116],[-3.461933,51.664113],[-3.462154,51.664085],[-3.462459,51.66403],[-3.462701,51.663997],[-3.46288,51.663986],[-3.462996,51.663997],[-3.46305,51.66403],[-3.463171,51.664038],[-3.463358,51.664022],[-3.463612,51.663982],[-3.463932,51.663918],[-3.464227,51.663865],[-3.464494,51.663824],[-3.464736,51.663795],[-3.464951,51.663778],[-3.465175,51.66375],[-3.465409,51.663711],[-3.465652,51.663662],[-3.465905,51.663601],[-3.466181,51.663527],[-3.466482,51.66344],[-3.466808,51.663339],[-3.467157,51.663224],[-3.467464,51.663135],[-3.467728,51.663072],[-3.467949,51.663033],[-3.468128,51.66302],[-3.468315,51.66302],[-3.468511,51.663032],[-3.468715,51.663057],[-3.468928,51.663095],[-3.4692,51.663111],[-3.469532,51.663106],[-3.469923,51.663079],[-3.470375,51.66303]]]}}