{"type":"Feature","properties":{"id":"263449","COMMUNE":"Caerphilly","PROVINCE":"Gwent Valleys","COUNTRY":"UK","FIREDATE":"2025-03-21 03:47:00","FINALDATE":"2025-03-21 03:47:00","CLASS":"FireSeason","areaHA_geo":8.314},"geometry":{"type":"Polygon","coordinates":[[[-3.280514,51.740609],[-3.280621,51.74058],[-3.280697,51.740539],[-3.280741,51.740485],[-3.280754,51.740418],[-3.280726,51.74035],[-3.280659,51.740282],[-3.280552,51.740214],[-3.280405,51.740145],[-3.280255,51.740074],[-3.280102,51.74],[-3.279947,51.739925],[-3.279789,51.739847],[-3.279688,51.739782],[-3.279644,51.73973],[-3.279657,51.739692],[-3.279727,51.739666],[-3.27978,51.739632],[-3.279816,51.739588],[-3.279836,51.739536],[-3.279838,51.739476],[-3.27986,51.739435],[-3.279901,51.739416],[-3.279961,51.739416],[-3.280041,51.739437],[-3.280134,51.739458],[-3.28024,51.739477],[-3.280358,51.739496],[-3.28049,51.739513],[-3.280597,51.739521],[-3.280677,51.739518],[-3.280733,51.739505],[-3.280762,51.739481],[-3.280733,51.739447],[-3.280644,51.739403],[-3.280496,51.739349],[-3.280289,51.739284],[-3.280135,51.739228],[-3.280033,51.73918],[-3.279983,51.739141],[-3.279987,51.739111],[-3.280006,51.739074],[-3.280043,51.739032],[-3.280096,51.738985],[-3.280166,51.738931],[-3.280239,51.738912],[-3.280314,51.738926],[-3.280393,51.738973],[-3.280474,51.739055],[-3.280553,51.73912],[-3.280629,51.73917],[-3.280702,51.739203],[-3.280773,51.73922],[-3.280894,51.739257],[-3.281066,51.739313],[-3.281288,51.739388],[-3.281562,51.739483],[-3.281788,51.739556],[-3.281969,51.739606],[-3.282102,51.739633],[-3.28219,51.739638],[-3.282265,51.739646],[-3.28233,51.739656],[-3.282383,51.739669],[-3.282424,51.739685],[-3.282475,51.739704],[-3.282535,51.739728],[-3.282604,51.739755],[-3.282683,51.739786],[-3.282767,51.739815],[-3.282857,51.739842],[-3.282952,51.739865],[-3.283052,51.739887],[-3.283185,51.739899],[-3.283351,51.739901],[-3.28355,51.739894],[-3.283782,51.739878],[-3.283912,51.739853],[-3.283938,51.73982],[-3.283863,51.739778],[-3.283684,51.739728],[-3.283513,51.739662],[-3.283348,51.739581],[-3.283189,51.739485],[-3.283038,51.739374],[-3.282908,51.739287],[-3.2828,51.739225],[-3.282713,51.739188],[-3.282648,51.739175],[-3.282589,51.739158],[-3.282535,51.739136],[-3.282488,51.73911],[-3.282446,51.73908],[-3.282392,51.739057],[-3.282327,51.739043],[-3.28225,51.739038],[-3.282161,51.73904],[-3.282071,51.739044],[-3.28198,51.739048],[-3.281889,51.739052],[-3.281796,51.739058],[-3.28171,51.739046],[-3.28163,51.739016],[-3.281555,51.738968],[-3.281487,51.738903],[-3.281417,51.73885],[-3.281346,51.73881],[-3.281273,51.738783],[-3.2812,51.738769],[-3.28114,51.738745],[-3.281093,51.738711],[-3.281059,51.738668],[-3.281039,51.738615],[-3.281005,51.738559],[-3.280955,51.738502],[-3.28089,51.738443],[-3.280811,51.738381],[-3.280738,51.738333],[-3.280673,51.738299],[-3.280615,51.738279],[-3.280564,51.738272],[-3.280513,51.738259],[-3.280463,51.738241],[-3.280413,51.738217],[-3.280363,51.738187],[-3.2803,51.738166],[-3.280222,51.738154],[-3.280131,51.73815],[-3.280026,51.738154],[-3.279931,51.738143],[-3.279846,51.738116],[-3.27977,51.738074],[-3.279703,51.738016],[-3.279639,51.737986],[-3.279575,51.737986],[-3.279513,51.738015],[-3.279453,51.738072],[-3.279367,51.738115],[-3.279255,51.738144],[-3.279117,51.738159],[-3.278954,51.73816],[-3.278828,51.738148],[-3.278738,51.738121],[-3.278686,51.738081],[-3.27867,51.738028],[-3.278623,51.737971],[-3.278546,51.737912],[-3.278439,51.73785],[-3.278301,51.737785],[-3.27819,51.73773],[-3.278105,51.737685],[-3.278047,51.737651],[-3.278016,51.737627],[-3.277941,51.737591],[-3.277822,51.737544],[-3.277661,51.737486],[-3.277457,51.737416],[-3.277301,51.737382],[-3.277196,51.737384],[-3.27714,51.737422],[-3.277133,51.737496],[-3.277148,51.737572],[-3.277184,51.737651],[-3.277241,51.737733],[-3.277319,51.737817],[-3.277401,51.737889],[-3.277488,51.737947],[-3.277579,51.737992],[-3.277674,51.738024],[-3.277745,51.738066],[-3.277791,51.738119],[-3.277813,51.738182],[-3.277811,51.738256],[-3.277765,51.738315],[-3.277676,51.73836],[-3.277545,51.738392],[-3.27737,51.738409],[-3.277235,51.738408],[-3.27714,51.738389],[-3.277084,51.738351],[-3.277067,51.738295],[-3.277026,51.73823],[-3.276962,51.738157],[-3.276873,51.738075],[-3.27676,51.737985],[-3.276656,51.737923],[-3.276561,51.737891],[-3.276474,51.737889],[-3.276396,51.737915],[-3.276323,51.737937],[-3.276255,51.737955],[-3.276192,51.737969],[-3.276133,51.737978],[-3.276068,51.737997],[-3.275997,51.738025],[-3.27592,51.738063],[-3.275836,51.73811],[-3.275747,51.738148],[-3.275653,51.738177],[-3.275555,51.738195],[-3.275451,51.738205],[-3.275364,51.738228],[-3.275291,51.738267],[-3.275235,51.73832],[-3.275194,51.738388],[-3.275187,51.738444],[-3.275214,51.738487],[-3.275275,51.738519],[-3.275371,51.738538],[-3.275436,51.738562],[-3.275471,51.738591],[-3.275476,51.738624],[-3.275451,51.738662],[-3.275455,51.738716],[-3.275488,51.738786],[-3.27555,51.738871],[-3.275641,51.738971],[-3.275804,51.739078],[-3.27604,51.739191],[-3.276348,51.73931],[-3.276729,51.739436],[-3.27703,51.739532],[-3.277252,51.739599],[-3.277395,51.739636],[-3.277458,51.739644],[-3.277527,51.739666],[-3.277601,51.739701],[-3.27768,51.739751],[-3.277764,51.739815],[-3.277837,51.739857],[-3.277899,51.739879],[-3.277949,51.73988],[-3.277988,51.739861],[-3.278035,51.739859],[-3.278089,51.739876],[-3.27815,51.73991],[-3.278219,51.739963],[-3.278299,51.740014],[-3.278391,51.740063],[-3.278495,51.740109],[-3.278611,51.740154],[-3.278784,51.740215],[-3.279015,51.74029],[-3.279303,51.740382],[-3.279649,51.740488],[-3.279944,51.740565],[-3.280186,51.74061],[-3.280376,51.740625],[-3.280514,51.740609]]]}}