{"type":"Feature","properties":{"id":"263406","COMMUNE":"Neath Port Talbot","PROVINCE":"Bridgend and Neath Port Talbot","COUNTRY":"UK","FIREDATE":"2025-03-21 03:47:00","CLASS":"FireSeason","areaHA_geo":22.353},"geometry":{"type":"Polygon","coordinates":[[[-3.626725,51.677199],[-3.626808,51.677123],[-3.62689,51.676978],[-3.62697,51.676763],[-3.627048,51.676477],[-3.627089,51.676261],[-3.627091,51.676113],[-3.627054,51.676035],[-3.626979,51.676026],[-3.62693,51.675966],[-3.626907,51.675855],[-3.62691,51.675694],[-3.626939,51.675481],[-3.626989,51.675319],[-3.627059,51.675208],[-3.627151,51.675148],[-3.627264,51.67514],[-3.627361,51.675117],[-3.627444,51.675081],[-3.627511,51.67503],[-3.627564,51.674966],[-3.627631,51.674848],[-3.627711,51.674676],[-3.627806,51.67445],[-3.627915,51.67417],[-3.628023,51.673961],[-3.628129,51.673824],[-3.628233,51.673758],[-3.628336,51.673764],[-3.628442,51.673743],[-3.628554,51.673694],[-3.628669,51.673618],[-3.628789,51.673515],[-3.628917,51.673431],[-3.629052,51.673366],[-3.629194,51.67332],[-3.629345,51.673294],[-3.629456,51.673239],[-3.629528,51.673157],[-3.629562,51.673048],[-3.629556,51.67291],[-3.629684,51.672729],[-3.629947,51.672505],[-3.630344,51.672236],[-3.630876,51.671924],[-3.631339,51.671675],[-3.631732,51.671489],[-3.632056,51.671365],[-3.632311,51.671304],[-3.632554,51.671208],[-3.632785,51.671079],[-3.633003,51.670915],[-3.63321,51.670717],[-3.633359,51.670552],[-3.633453,51.670421],[-3.633489,51.670323],[-3.63347,51.670259],[-3.63337,51.67017],[-3.633192,51.670057],[-3.632934,51.669921],[-3.632597,51.66976],[-3.632337,51.66961],[-3.632154,51.669471],[-3.632048,51.669343],[-3.63202,51.669226],[-3.631958,51.669107],[-3.631864,51.668987],[-3.631736,51.668865],[-3.631576,51.668741],[-3.631451,51.668621],[-3.631362,51.668505],[-3.631308,51.668392],[-3.631289,51.668283],[-3.631246,51.668206],[-3.631178,51.668163],[-3.631087,51.668153],[-3.630971,51.668175],[-3.630843,51.668186],[-3.630702,51.668184],[-3.630549,51.668171],[-3.630382,51.668146],[-3.630274,51.668147],[-3.630225,51.668172],[-3.630233,51.668224],[-3.6303,51.668301],[-3.630293,51.668367],[-3.630213,51.668423],[-3.630059,51.668469],[-3.629833,51.668505],[-3.629622,51.668563],[-3.629426,51.668644],[-3.629247,51.668747],[-3.629084,51.668873],[-3.628998,51.669004],[-3.628988,51.669139],[-3.629056,51.669278],[-3.629201,51.669421],[-3.629261,51.669531],[-3.629238,51.669607],[-3.62913,51.66965],[-3.628938,51.669659],[-3.628803,51.669693],[-3.628723,51.669751],[-3.6287,51.669834],[-3.628733,51.669942],[-3.628786,51.670034],[-3.628861,51.670113],[-3.628956,51.670176],[-3.629071,51.670225],[-3.629111,51.670265],[-3.629073,51.670296],[-3.628959,51.670318],[-3.628769,51.670332],[-3.628605,51.670366],[-3.628467,51.670423],[-3.628356,51.6705],[-3.628271,51.6706],[-3.628239,51.670685],[-3.628261,51.670756],[-3.628336,51.670812],[-3.628464,51.670855],[-3.628575,51.670901],[-3.628669,51.67095],[-3.628747,51.671003],[-3.628807,51.671058],[-3.628797,51.671114],[-3.628717,51.67117],[-3.628566,51.671226],[-3.628346,51.671283],[-3.628145,51.671317],[-3.627965,51.671327],[-3.627804,51.671314],[-3.627663,51.671277],[-3.627576,51.671227],[-3.627542,51.671164],[-3.627562,51.671088],[-3.627636,51.670999],[-3.627696,51.670872],[-3.627743,51.670706],[-3.627776,51.670502],[-3.627796,51.670259],[-3.627765,51.670093],[-3.627684,51.670005],[-3.627552,51.669993],[-3.627371,51.670059],[-3.627174,51.670177],[-3.626963,51.670346],[-3.626737,51.670568],[-3.626496,51.670841],[-3.626312,51.671071],[-3.626185,51.671257],[-3.626116,51.6714],[-3.626103,51.6715],[-3.626059,51.671585],[-3.625983,51.671657],[-3.625876,51.671714],[-3.625738,51.671757],[-3.625634,51.671807],[-3.625565,51.671864],[-3.625531,51.671928],[-3.625531,51.671999],[-3.625561,51.672057],[-3.625621,51.672101],[-3.625712,51.672132],[-3.625832,51.672149],[-3.625928,51.672174],[-3.626,51.672208],[-3.626047,51.672251],[-3.62607,51.672301],[-3.626121,51.672329],[-3.626202,51.672333],[-3.626311,51.672313],[-3.626449,51.67227],[-3.626554,51.672264],[-3.626624,51.672293],[-3.62666,51.672359],[-3.626663,51.672461],[-3.626621,51.672565],[-3.626534,51.672671],[-3.626403,51.672779],[-3.626227,51.672889],[-3.62605,51.67298],[-3.62587,51.673052],[-3.625688,51.673106],[-3.625504,51.673141],[-3.62534,51.673192],[-3.625195,51.673261],[-3.62507,51.673345],[-3.624964,51.673447],[-3.624831,51.673519],[-3.624671,51.673563],[-3.624485,51.673577],[-3.624271,51.673562],[-3.624068,51.673541],[-3.623877,51.673514],[-3.623696,51.673482],[-3.623525,51.673444],[-3.623395,51.673424],[-3.623304,51.673421],[-3.623253,51.673436],[-3.623241,51.673469],[-3.623268,51.67351],[-3.623334,51.67356],[-3.623438,51.673619],[-3.623582,51.673687],[-3.623714,51.673767],[-3.623836,51.67386],[-3.623947,51.673965],[-3.624048,51.674082],[-3.624188,51.674171],[-3.624369,51.67423],[-3.624588,51.67426],[-3.624848,51.67426],[-3.625074,51.674274],[-3.625266,51.6743],[-3.625424,51.67434],[-3.625548,51.674392],[-3.625671,51.674424],[-3.625794,51.674437],[-3.625916,51.674429],[-3.626037,51.674401],[-3.626131,51.67441],[-3.626199,51.674456],[-3.626241,51.674538],[-3.626255,51.674657],[-3.626241,51.674756],[-3.626197,51.674837],[-3.626124,51.674899],[-3.626022,51.674942],[-3.625949,51.674993],[-3.625906,51.675052],[-3.625892,51.675118],[-3.625907,51.675192],[-3.625897,51.67527],[-3.62586,51.675352],[-3.625798,51.675439],[-3.625711,51.675529],[-3.625653,51.675625],[-3.625627,51.675726],[-3.62563,51.675833],[-3.625665,51.675944],[-3.625658,51.676063],[-3.625609,51.676189],[-3.62552,51.676322],[-3.62539,51.676462],[-3.625375,51.676601],[-3.625474,51.676739],[-3.625689,51.676875],[-3.626018,51.67701],[-3.626287,51.67711],[-3.626494,51.677175],[-3.62664,51.677204],[-3.626725,51.677199]]]}}