{"type":"Feature","properties":{"id":"263481","COMMUNE":"North Devon","PROVINCE":"Devon CC","COUNTRY":"UK","FIREDATE":"2025-03-05 11:43:11.351","FINALDATE":"2025-03-06 11:43:13.857","CLASS":"FireSeason","areaHA_geo":10.899},"geometry":{"type":"Polygon","coordinates":[[[-3.757889,51.203792],[-3.758171,51.203778],[-3.758338,51.203717],[-3.758392,51.203609],[-3.758332,51.203453],[-3.758285,51.203314],[-3.758251,51.203194],[-3.758232,51.203091],[-3.758225,51.203006],[-3.758205,51.202932],[-3.758169,51.202869],[-3.758119,51.202816],[-3.758054,51.202775],[-3.757996,51.202724],[-3.757945,51.202663],[-3.7579,51.202591],[-3.757863,51.20251],[-3.757842,51.202438],[-3.75784,51.202375],[-3.757854,51.202321],[-3.757886,51.202277],[-3.757909,51.202193],[-3.757921,51.202071],[-3.757923,51.201911],[-3.757914,51.201712],[-3.757891,51.201511],[-3.757853,51.20131],[-3.757799,51.201107],[-3.757731,51.200902],[-3.757471,51.200751],[-3.757019,51.200652],[-3.756376,51.200605],[-3.755541,51.200611],[-3.754882,51.200626],[-3.754399,51.200651],[-3.754092,51.200686],[-3.753962,51.20073],[-3.753776,51.200769],[-3.753534,51.200802],[-3.753237,51.200829],[-3.752884,51.200851],[-3.752596,51.200878],[-3.752374,51.200911],[-3.752217,51.200949],[-3.752126,51.200992],[-3.752115,51.201055],[-3.752186,51.201136],[-3.752337,51.201237],[-3.75257,51.201356],[-3.752747,51.201455],[-3.752869,51.201535],[-3.752936,51.201594],[-3.752948,51.201633],[-3.752924,51.201667],[-3.752864,51.201695],[-3.752767,51.201716],[-3.752635,51.201732],[-3.752528,51.201752],[-3.752447,51.201776],[-3.752392,51.201804],[-3.752362,51.201836],[-3.752352,51.201888],[-3.752361,51.201961],[-3.752389,51.202053],[-3.752436,51.202166],[-3.752506,51.202266],[-3.752598,51.202353],[-3.752712,51.202427],[-3.752848,51.202489],[-3.752961,51.202566],[-3.753052,51.202659],[-3.753119,51.202769],[-3.753164,51.202894],[-3.753215,51.202994],[-3.753274,51.203069],[-3.75334,51.203118],[-3.753412,51.203142],[-3.753504,51.203142],[-3.753614,51.203119],[-3.753744,51.203072],[-3.753892,51.203001],[-3.754033,51.202932],[-3.754167,51.202865],[-3.754292,51.2028],[-3.754411,51.202737],[-3.754502,51.202699],[-3.754567,51.202688],[-3.754606,51.202701],[-3.754618,51.202741],[-3.754683,51.202817],[-3.754802,51.202929],[-3.754975,51.203078],[-3.755201,51.203263],[-3.755397,51.203414],[-3.755564,51.203531],[-3.7557,51.203614],[-3.755806,51.203663],[-3.755925,51.203682],[-3.756056,51.203673],[-3.7562,51.203634],[-3.756356,51.203566],[-3.756495,51.203515],[-3.756619,51.20348],[-3.756726,51.203461],[-3.756816,51.203458],[-3.756881,51.203472],[-3.75692,51.203502],[-3.756932,51.203548],[-3.756918,51.203611],[-3.757007,51.203667],[-3.757199,51.203716],[-3.757492,51.203757],[-3.757889,51.203792]]]}}