{"type":"Feature","properties":{"id":"263556","COMMUNE":"Gwynedd","PROVINCE":"Gwynedd","COUNTRY":"UK","FIREDATE":"2025-03-20 11:51:00","FINALDATE":"2025-03-20 13:08:00","CLASS":"FireSeason","areaHA_geo":5.428},"geometry":{"type":"Polygon","coordinates":[[[-4.449715,52.968234],[-4.449237,52.96815],[-4.448597,52.968218],[-4.448298,52.968225],[-4.448285,52.968226],[-4.448145,52.968253],[-4.44748,52.968288],[-4.447412,52.968292],[-4.447301,52.968306],[-4.447359,52.968527],[-4.447534,52.968848],[-4.447787,52.969597],[-4.448259,52.970122],[-4.44891,52.970306],[-4.449281,52.970314],[-4.449373,52.970143],[-4.449526,52.970045],[-4.449741,52.970019],[-4.45031,52.969776],[-4.451232,52.969315],[-4.451749,52.968959],[-4.451863,52.968706],[-4.452019,52.968605],[-4.452219,52.968655],[-4.452505,52.968558],[-4.452878,52.968314],[-4.452768,52.968161],[-4.452175,52.968098],[-4.451781,52.968097],[-4.451585,52.968155],[-4.450453,52.968213],[-4.449715,52.968234]]]}}