{"type":"Feature","properties":{"id":"263504","COMMUNE":"Carmarthenshire","PROVINCE":"South West Wales","COUNTRY":"UK","FIREDATE":"2025-03-11 13:25:00","CLASS":"FireSeason","areaHA_geo":31.22},"geometry":{"type":"Polygon","coordinates":[[[-3.871454,52.120199],[-3.871638,52.120201],[-3.87183,52.120165],[-3.87203,52.120089],[-3.872236,52.119974],[-3.872451,52.11982],[-3.87267,52.119671],[-3.872894,52.119528],[-3.873123,52.11939],[-3.873357,52.119258],[-3.873593,52.119152],[-3.87383,52.119071],[-3.874069,52.119017],[-3.87431,52.118988],[-3.874518,52.118961],[-3.874694,52.118937],[-3.874838,52.118913],[-3.87495,52.118892],[-3.875058,52.118851],[-3.875164,52.11879],[-3.875266,52.11871],[-3.875366,52.11861],[-3.87546,52.11851],[-3.875547,52.118411],[-3.875627,52.118313],[-3.875702,52.118216],[-3.875784,52.118194],[-3.875873,52.118248],[-3.875969,52.118377],[-3.876073,52.118582],[-3.876246,52.118755],[-3.876487,52.118895],[-3.876797,52.119003],[-3.877176,52.119079],[-3.877465,52.119089],[-3.877664,52.119033],[-3.877773,52.118911],[-3.877793,52.118724],[-3.877777,52.118537],[-3.877724,52.11835],[-3.877636,52.118164],[-3.877512,52.117977],[-3.877433,52.117812],[-3.8774,52.117667],[-3.877414,52.117543],[-3.877473,52.117439],[-3.87759,52.117371],[-3.877763,52.117338],[-3.877994,52.117341],[-3.878282,52.117379],[-3.878519,52.117329],[-3.878705,52.117191],[-3.87884,52.116963],[-3.878925,52.116648],[-3.878931,52.116398],[-3.87886,52.116213],[-3.878711,52.116094],[-3.878484,52.116041],[-3.8783,52.11598],[-3.878161,52.115912],[-3.878065,52.115837],[-3.878012,52.115755],[-3.877918,52.115686],[-3.877782,52.115629],[-3.877605,52.115586],[-3.877385,52.115556],[-3.877169,52.115495],[-3.876956,52.115404],[-3.876747,52.115282],[-3.876541,52.115129],[-3.876375,52.114966],[-3.876247,52.114792],[-3.87616,52.114608],[-3.876111,52.114412],[-3.876096,52.114229],[-3.876114,52.114058],[-3.876166,52.113899],[-3.876251,52.113753],[-3.876288,52.113609],[-3.876277,52.11347],[-3.876218,52.113334],[-3.876111,52.113202],[-3.876091,52.113098],[-3.876159,52.113022],[-3.876314,52.112973],[-3.876557,52.112952],[-3.87678,52.11292],[-3.876983,52.112876],[-3.877165,52.11282],[-3.877328,52.112752],[-3.877449,52.112646],[-3.877527,52.1125],[-3.877564,52.112314],[-3.877559,52.11209],[-3.877523,52.111893],[-3.877457,52.111724],[-3.87736,52.111583],[-3.877232,52.111469],[-3.877093,52.111393],[-3.876943,52.111355],[-3.876782,52.111354],[-3.876609,52.11139],[-3.876483,52.111373],[-3.876401,52.111302],[-3.876365,52.111178],[-3.876375,52.111],[-3.876348,52.11081],[-3.876284,52.110609],[-3.876184,52.110395],[-3.876047,52.11017],[-3.875865,52.109957],[-3.875637,52.109755],[-3.875364,52.109564],[-3.875045,52.109385],[-3.8748,52.109225],[-3.874631,52.109084],[-3.874537,52.108962],[-3.874518,52.10886],[-3.874596,52.108742],[-3.87477,52.108609],[-3.875042,52.10846],[-3.87541,52.108296],[-3.875717,52.108155],[-3.875963,52.108038],[-3.876146,52.107943],[-3.876268,52.107873],[-3.876377,52.107791],[-3.876473,52.1077],[-3.876556,52.107597],[-3.876625,52.107485],[-3.876753,52.107411],[-3.87694,52.107377],[-3.877184,52.107382],[-3.877487,52.107427],[-3.877719,52.107381],[-3.87788,52.107245],[-3.877969,52.10702],[-3.877988,52.106704],[-3.877929,52.106455],[-3.877794,52.106275],[-3.877581,52.106161],[-3.87729,52.106115],[-3.876986,52.106149],[-3.876667,52.106263],[-3.876334,52.106458],[-3.875988,52.106732],[-3.875539,52.107038],[-3.874989,52.107377],[-3.874338,52.107748],[-3.873585,52.108151],[-3.873041,52.108497],[-3.872705,52.108786],[-3.872578,52.109018],[-3.872659,52.109193],[-3.872747,52.109358],[-3.872842,52.109511],[-3.872943,52.109654],[-3.87305,52.109786],[-3.873185,52.109943],[-3.873347,52.110125],[-3.873537,52.110331],[-3.873755,52.110563],[-3.873943,52.110733],[-3.874102,52.110843],[-3.874233,52.110892],[-3.874334,52.11088],[-3.874415,52.110991],[-3.874476,52.111225],[-3.874516,52.111582],[-3.874536,52.112062],[-3.874498,52.112451],[-3.874401,52.112748],[-3.874246,52.112953],[-3.874032,52.113067],[-3.873834,52.113211],[-3.873653,52.113385],[-3.873488,52.11359],[-3.873338,52.113825],[-3.873198,52.114086],[-3.873065,52.114376],[-3.872942,52.114692],[-3.872827,52.115035],[-3.872817,52.115348],[-3.872913,52.11563],[-3.873113,52.115881],[-3.87342,52.116103],[-3.873673,52.116302],[-3.873873,52.116479],[-3.874021,52.116634],[-3.874115,52.116768],[-3.874086,52.116882],[-3.873932,52.116977],[-3.873653,52.117052],[-3.87325,52.117108],[-3.872949,52.117182],[-3.872748,52.117274],[-3.872648,52.117384],[-3.872649,52.117513],[-3.872727,52.117592],[-3.872881,52.117622],[-3.873111,52.117603],[-3.873418,52.117534],[-3.873622,52.117506],[-3.873725,52.117518],[-3.873725,52.11757],[-3.873622,52.117662],[-3.873593,52.117736],[-3.873637,52.117791],[-3.873753,52.117828],[-3.873943,52.117846],[-3.874104,52.117877],[-3.874236,52.117921],[-3.87434,52.117979],[-3.874415,52.118051],[-3.874415,52.118103],[-3.87434,52.118136],[-3.87419,52.11815],[-3.873965,52.118145],[-3.873794,52.118175],[-3.873677,52.118241],[-3.873614,52.118343],[-3.873605,52.118481],[-3.873517,52.1186],[-3.873352,52.1187],[-3.873108,52.118781],[-3.872786,52.118843],[-3.872576,52.118864],[-3.872478,52.118844],[-3.872491,52.118782],[-3.872616,52.118678],[-3.872646,52.118584],[-3.87258,52.1185],[-3.872418,52.118424],[-3.872161,52.118358],[-3.87194,52.118306],[-3.871758,52.118268],[-3.871612,52.118243],[-3.871503,52.118231],[-3.871456,52.118259],[-3.87147,52.118326],[-3.871546,52.118431],[-3.871684,52.118576],[-3.871813,52.118725],[-3.871934,52.11888],[-3.872047,52.119039],[-3.872151,52.119204],[-3.872159,52.119374],[-3.87207,52.119549],[-3.871884,52.11973],[-3.871601,52.119916],[-3.871435,52.120057],[-3.871386,52.120151],[-3.871454,52.120199]]]}}