{"type":"Feature","properties":{"id":"263549","COMMUNE":"Gwynedd","PROVINCE":"Gwynedd","COUNTRY":"UK","FIREDATE":"2025-03-06 13:07:14.867","FINALDATE":"2025-03-07 13:07:17.387","CLASS":"FireSeason","areaHA_geo":8.873},"geometry":{"type":"Polygon","coordinates":[[[-3.99986,52.778238],[-3.999758,52.778461],[-4.00024,52.779003],[-3.999547,52.779453],[-3.999251,52.779718],[-3.998513,52.780266],[-3.997996,52.780709],[-3.998122,52.780882],[-3.998392,52.781184],[-3.998724,52.781501],[-3.999026,52.781753],[-3.999296,52.78194],[-3.999536,52.782061],[-3.999745,52.782117],[-3.999939,52.78214],[-4.000117,52.782131],[-4.00028,52.782088],[-4.000427,52.782014],[-4.000595,52.781913],[-4.000783,52.781787],[-4.000992,52.781636],[-4.001221,52.781459],[-4.001377,52.781294],[-4.001461,52.78114],[-4.001472,52.780998],[-4.00141,52.780867],[-4.001325,52.780739],[-4.001218,52.780614],[-4.001087,52.780491],[-4.000933,52.780371],[-4.000819,52.780255],[-4.000745,52.780143],[-4.00071,52.780035],[-4.000714,52.779931],[-4.000777,52.779817],[-4.000899,52.779693],[-4.00108,52.77956],[-4.001319,52.779416],[-4.001549,52.7793],[-4.001768,52.779211],[-4.001977,52.779149],[-4.002175,52.779114],[-4.002355,52.77911],[-4.002517,52.779136],[-4.00266,52.779194],[-4.002784,52.779283],[-4.002883,52.779395],[-4.002955,52.779531],[-4.003002,52.779689],[-4.003023,52.779871],[-4.003031,52.780028],[-4.003027,52.780161],[-4.00301,52.78027],[-4.00298,52.780354],[-4.002962,52.780459],[-4.002956,52.780587],[-4.002961,52.780736],[-4.002978,52.780906],[-4.00302,52.781109],[-4.003087,52.781342],[-4.003178,52.781608],[-4.003294,52.781905],[-4.003417,52.782034],[-4.003548,52.781996],[-4.003686,52.78179],[-4.003831,52.781416],[-4.003918,52.781037],[-4.003946,52.780654],[-4.003915,52.780266],[-4.003826,52.779874],[-4.003736,52.779568],[-4.003645,52.779348],[-4.003554,52.779215],[-4.003463,52.779169],[-4.003296,52.779067],[-4.003055,52.778912],[-4.002738,52.778702],[-4.002347,52.778437],[-4.001978,52.778228],[-4.001632,52.778073],[-4.001308,52.777973],[-4.001007,52.777928],[-4.00068,52.777949],[-4.000327,52.778037],[-3.999947,52.778191],[-3.99986,52.778238]]]}}