{"type":"Feature","properties":{"id":"263501","COMMUNE":"West Devon","PROVINCE":"Devon CC","COUNTRY":"UK","FIREDATE":"2025-03-20 12:10:39.399","FINALDATE":"2025-03-21 12:10:41.578","CLASS":"FireSeason","areaHA_geo":2.349},"geometry":{"type":"Polygon","coordinates":[[[-3.866615,50.628551],[-3.866829,50.628441],[-3.86706,50.628373],[-3.86731,50.628349],[-3.867577,50.628367],[-3.867862,50.628429],[-3.868094,50.62841],[-3.868273,50.62831],[-3.868399,50.628129],[-3.868473,50.627868],[-3.868489,50.627667],[-3.868447,50.627528],[-3.868347,50.62745],[-3.86819,50.627433],[-3.868048,50.627387],[-3.867921,50.627312],[-3.867809,50.627209],[-3.867712,50.627076],[-3.867577,50.627005],[-3.867403,50.626997],[-3.867191,50.62705],[-3.86694,50.627164],[-3.866682,50.627286],[-3.866416,50.627414],[-3.866143,50.62755],[-3.865862,50.627692],[-3.865705,50.62785],[-3.865671,50.628022],[-3.865761,50.62821],[-3.865974,50.628412],[-3.866187,50.628537],[-3.866401,50.628583],[-3.866615,50.628551]]]}}