{"type":"Feature","properties":{"id":"263506","COMMUNE":"Carmarthenshire","PROVINCE":"South West Wales","COUNTRY":"UK","FIREDATE":"2025-03-11 12:14:37.538","CLASS":"FireSeason","areaHA_geo":45.483},"geometry":{"type":"Polygon","coordinates":[[[-3.850089,52.124353],[-3.850385,52.124252],[-3.850779,52.124],[-3.85127,52.123599],[-3.851858,52.123047],[-3.852378,52.122519],[-3.85283,52.122015],[-3.853214,52.121535],[-3.853531,52.12108],[-3.853843,52.120675],[-3.854152,52.120321],[-3.854457,52.120017],[-3.854759,52.119764],[-3.855046,52.119531],[-3.855321,52.119318],[-3.855582,52.119124],[-3.855829,52.11895],[-3.856056,52.118795],[-3.856262,52.118658],[-3.856448,52.118539],[-3.856614,52.118439],[-3.856739,52.118336],[-3.856823,52.118229],[-3.856868,52.11812],[-3.856871,52.118007],[-3.856884,52.117901],[-3.856905,52.117802],[-3.856935,52.11771],[-3.856974,52.117625],[-3.857021,52.117545],[-3.857077,52.11747],[-3.85714,52.1174],[-3.857212,52.117335],[-3.857284,52.11724],[-3.857356,52.117115],[-3.857428,52.11696],[-3.857501,52.116774],[-3.857519,52.116642],[-3.85748,52.116562],[-3.857386,52.116535],[-3.857237,52.11656],[-3.8571,52.116615],[-3.856975,52.116698],[-3.856862,52.11681],[-3.856762,52.11695],[-3.856658,52.117069],[-3.856551,52.117166],[-3.85644,52.117242],[-3.856326,52.117295],[-3.856256,52.117294],[-3.856231,52.117236],[-3.856252,52.117123],[-3.856317,52.116955],[-3.856392,52.116787],[-3.856477,52.11662],[-3.856573,52.116454],[-3.856678,52.116289],[-3.856798,52.116158],[-3.856932,52.116062],[-3.85708,52.116],[-3.857242,52.115973],[-3.857375,52.115935],[-3.857478,52.115887],[-3.857551,52.115828],[-3.857595,52.115758],[-3.857651,52.115665],[-3.857719,52.115548],[-3.8578,52.115408],[-3.857893,52.115244],[-3.857986,52.115073],[-3.858081,52.114892],[-3.858176,52.114704],[-3.858272,52.114508],[-3.858351,52.114324],[-3.858415,52.114151],[-3.858463,52.113991],[-3.858495,52.113842],[-3.858562,52.113698],[-3.858662,52.113557],[-3.858796,52.113421],[-3.858964,52.113288],[-3.859066,52.113182],[-3.859099,52.113101],[-3.859066,52.113047],[-3.858965,52.113019],[-3.858842,52.113033],[-3.858695,52.113091],[-3.858527,52.113191],[-3.858335,52.113335],[-3.85816,52.113486],[-3.858,52.113646],[-3.857856,52.113814],[-3.857727,52.11399],[-3.857631,52.114152],[-3.857566,52.1143],[-3.857533,52.114435],[-3.857531,52.114556],[-3.857505,52.114659],[-3.857453,52.114746],[-3.857377,52.114815],[-3.857275,52.114867],[-3.857219,52.11493],[-3.85721,52.115004],[-3.857246,52.115088],[-3.857328,52.115183],[-3.857346,52.115259],[-3.857298,52.115317],[-3.857186,52.115356],[-3.857009,52.115377],[-3.856844,52.115419],[-3.856693,52.115481],[-3.856555,52.115564],[-3.85643,52.115667],[-3.856329,52.115721],[-3.856252,52.115726],[-3.856198,52.115682],[-3.856169,52.115589],[-3.856107,52.115506],[-3.856012,52.115433],[-3.855883,52.11537],[-3.855722,52.115316],[-3.855622,52.115258],[-3.855582,52.115194],[-3.855603,52.115126],[-3.855685,52.115052],[-3.855756,52.114955],[-3.855817,52.114835],[-3.855867,52.114692],[-3.855907,52.114527],[-3.855901,52.114385],[-3.855851,52.114266],[-3.855755,52.114171],[-3.855614,52.114099],[-3.8555,52.114016],[-3.855411,52.113922],[-3.855348,52.113817],[-3.855312,52.113701],[-3.855236,52.113607],[-3.855122,52.113536],[-3.854969,52.113488],[-3.854777,52.113462],[-3.854598,52.113458],[-3.854432,52.113473],[-3.85428,52.113509],[-3.85414,52.113566],[-3.854009,52.113598],[-3.853886,52.113604],[-3.853772,52.113586],[-3.853666,52.113542],[-3.853541,52.113542],[-3.853398,52.113588],[-3.853236,52.113677],[-3.853055,52.113811],[-3.852871,52.113927],[-3.852685,52.114026],[-3.852497,52.114106],[-3.852307,52.114169],[-3.85213,52.114202],[-3.851967,52.114205],[-3.851818,52.114179],[-3.851682,52.114122],[-3.851612,52.114121],[-3.851609,52.114173],[-3.851672,52.11428],[-3.851802,52.114442],[-3.851903,52.114585],[-3.851975,52.114709],[-3.852018,52.114814],[-3.852032,52.114901],[-3.851987,52.114977],[-3.851882,52.115041],[-3.851719,52.115095],[-3.851496,52.115137],[-3.851337,52.115198],[-3.851244,52.115278],[-3.851216,52.115376],[-3.851252,52.115492],[-3.851312,52.115587],[-3.851395,52.115662],[-3.8515,52.115716],[-3.851629,52.115749],[-3.851672,52.115802],[-3.851629,52.115875],[-3.851501,52.115969],[-3.851287,52.116083],[-3.851159,52.116184],[-3.851115,52.116274],[-3.851155,52.116352],[-3.851281,52.116417],[-3.851349,52.116487],[-3.85136,52.116563],[-3.851313,52.116642],[-3.851208,52.116727],[-3.851126,52.116801],[-3.851067,52.116864],[-3.851031,52.116917],[-3.851018,52.116959],[-3.851002,52.117013],[-3.850984,52.117079],[-3.850963,52.117158],[-3.850939,52.11725],[-3.850874,52.117314],[-3.850767,52.11735],[-3.850619,52.11736],[-3.85043,52.117342],[-3.85028,52.117358],[-3.850171,52.117407],[-3.850102,52.117489],[-3.850072,52.117605],[-3.850052,52.117706],[-3.850039,52.117792],[-3.850035,52.117863],[-3.85004,52.117919],[-3.850053,52.117994],[-3.850076,52.118087],[-3.850109,52.1182],[-3.85015,52.118332],[-3.850248,52.118393],[-3.850402,52.118382],[-3.850613,52.118301],[-3.850881,52.118149],[-3.851055,52.118088],[-3.851137,52.118119],[-3.851126,52.11824],[-3.851023,52.118454],[-3.850959,52.118618],[-3.850937,52.118733],[-3.850954,52.1188],[-3.851012,52.118817],[-3.851014,52.118865],[-3.85096,52.118944],[-3.85085,52.119053],[-3.850684,52.119193],[-3.850532,52.119304],[-3.850393,52.119385],[-3.850268,52.119436],[-3.850156,52.119457],[-3.850038,52.119489],[-3.849914,52.119532],[-3.849783,52.119585],[-3.849646,52.11965],[-3.849524,52.11969],[-3.849417,52.119707],[-3.849326,52.1197],[-3.849251,52.119668],[-3.849205,52.119628],[-3.849189,52.119577],[-3.849203,52.119517],[-3.849247,52.119448],[-3.849261,52.119378],[-3.849245,52.119307],[-3.8492,52.119236],[-3.849125,52.119165],[-3.849098,52.1191],[-3.849119,52.119041],[-3.849188,52.118988],[-3.849305,52.118942],[-3.849383,52.118889],[-3.849423,52.118828],[-3.849424,52.118759],[-3.849387,52.118683],[-3.849342,52.118622],[-3.849288,52.118577],[-3.849226,52.118546],[-3.849155,52.11853],[-3.849085,52.118504],[-3.849014,52.118468],[-3.848944,52.118422],[-3.848874,52.118366],[-3.848835,52.118295],[-3.848827,52.118207],[-3.84885,52.118104],[-3.848905,52.117985],[-3.848892,52.117924],[-3.848812,52.117921],[-3.848666,52.117977],[-3.848452,52.118091],[-3.848291,52.118204],[-3.848182,52.118318],[-3.848126,52.118431],[-3.848122,52.118544],[-3.848097,52.118643],[-3.848052,52.118729],[-3.847986,52.118801],[-3.847899,52.11886],[-3.847858,52.118917],[-3.847863,52.118972],[-3.847913,52.119027],[-3.848008,52.11908],[-3.848048,52.119143],[-3.848032,52.119218],[-3.84796,52.119303],[-3.847832,52.119398],[-3.847739,52.119498],[-3.84768,52.119601],[-3.847654,52.119709],[-3.847663,52.11982],[-3.847649,52.11989],[-3.847612,52.119919],[-3.847552,52.119906],[-3.847469,52.119851],[-3.847379,52.119824],[-3.84728,52.119823],[-3.847173,52.11985],[-3.847059,52.119904],[-3.846963,52.120017],[-3.846887,52.120191],[-3.846829,52.120425],[-3.84679,52.120719],[-3.846743,52.121018],[-3.846688,52.121322],[-3.846624,52.121632],[-3.846552,52.121946],[-3.846531,52.122189],[-3.846559,52.122363],[-3.846637,52.122466],[-3.846766,52.122499],[-3.846907,52.122539],[-3.847059,52.122585],[-3.847223,52.122638],[-3.8474,52.122698],[-3.847549,52.122774],[-3.84767,52.122869],[-3.847765,52.12298],[-3.847831,52.123109],[-3.847918,52.123227],[-3.848024,52.123335],[-3.84815,52.123433],[-3.848296,52.12352],[-3.848472,52.123622],[-3.84868,52.123738],[-3.848918,52.123869],[-3.849187,52.124014],[-3.849439,52.124135],[-3.849673,52.124232],[-3.849889,52.124305],[-3.850089,52.124353]]]}}