{"type":"Feature","properties":{"id":"263548","COMMUNE":"Gwynedd","PROVINCE":"Gwynedd","COUNTRY":"UK","FIREDATE":"2025-03-06 13:18:00","CLASS":"FireSeason","areaHA_geo":1.475},"geometry":{"type":"Polygon","coordinates":[[[-4.065019,52.776384],[-4.065677,52.776369],[-4.065988,52.776298],[-4.065951,52.77617],[-4.065566,52.775985],[-4.065291,52.775802],[-4.065127,52.77562],[-4.065073,52.77544],[-4.065128,52.77526],[-4.065114,52.77513],[-4.06503,52.775048],[-4.064876,52.775014],[-4.064652,52.775029],[-4.064463,52.775095],[-4.06431,52.775211],[-4.064193,52.775377],[-4.064111,52.775594],[-4.063957,52.775779],[-4.06373,52.775933],[-4.063431,52.776055],[-4.06306,52.776145],[-4.063033,52.776223],[-4.06335,52.776289],[-4.064012,52.776343],[-4.065019,52.776384]]]}}