{"type":"Feature","properties":{"id":"263551","COMMUNE":"Gwynedd","PROVINCE":"Gwynedd","COUNTRY":"UK","FIREDATE":"2025-03-06 13:14:49.536","CLASS":"FireSeason","areaHA_geo":5.827},"geometry":{"type":"Polygon","coordinates":[[[-4.211814,53.046943],[-4.212022,53.046987],[-4.212216,53.047004],[-4.212397,53.046994],[-4.212564,53.046958],[-4.212685,53.046906],[-4.212758,53.04684],[-4.212785,53.046759],[-4.212764,53.046664],[-4.212817,53.046587],[-4.212944,53.046528],[-4.213144,53.046488],[-4.213418,53.046465],[-4.213617,53.046427],[-4.213742,53.046373],[-4.213794,53.046304],[-4.213771,53.046219],[-4.213769,53.046137],[-4.213788,53.046059],[-4.213828,53.045985],[-4.213889,53.045914],[-4.213913,53.045826],[-4.213901,53.045723],[-4.213853,53.045605],[-4.213769,53.04547],[-4.213664,53.045386],[-4.213538,53.045354],[-4.213391,53.045373],[-4.213223,53.045444],[-4.213103,53.045509],[-4.21303,53.045568],[-4.213004,53.045622],[-4.213026,53.04567],[-4.213017,53.045707],[-4.212978,53.045733],[-4.212909,53.045749],[-4.21281,53.045754],[-4.212734,53.045742],[-4.212682,53.045713],[-4.212654,53.045667],[-4.21265,53.045603],[-4.21266,53.045542],[-4.212686,53.045484],[-4.212726,53.045427],[-4.212781,53.045374],[-4.212819,53.045324],[-4.21284,53.045277],[-4.212844,53.045235],[-4.212831,53.045196],[-4.212829,53.045159],[-4.212837,53.045124],[-4.212856,53.045092],[-4.212885,53.045062],[-4.212947,53.045046],[-4.213043,53.045047],[-4.213172,53.045063],[-4.213334,53.045094],[-4.21346,53.045101],[-4.213551,53.045086],[-4.213605,53.045046],[-4.213623,53.044983],[-4.21366,53.04494],[-4.213714,53.044917],[-4.213786,53.044914],[-4.213875,53.04493],[-4.213984,53.044942],[-4.21411,53.044951],[-4.214255,53.044955],[-4.214418,53.044956],[-4.214539,53.044938],[-4.214617,53.044902],[-4.214652,53.044847],[-4.214644,53.044774],[-4.214572,53.044725],[-4.214434,53.044699],[-4.214231,53.044697],[-4.213962,53.044719],[-4.213736,53.044738],[-4.21355,53.044756],[-4.213406,53.04477],[-4.213303,53.044782],[-4.213238,53.044784],[-4.213209,53.044774],[-4.213217,53.044752],[-4.213263,53.04472],[-4.213321,53.044679],[-4.213392,53.04463],[-4.213475,53.044573],[-4.213572,53.044508],[-4.213664,53.044467],[-4.213751,53.044452],[-4.213834,53.044461],[-4.213913,53.044496],[-4.213996,53.044512],[-4.214083,53.04451],[-4.214173,53.04449],[-4.214267,53.044452],[-4.214336,53.044415],[-4.21438,53.044379],[-4.2144,53.044345],[-4.214395,53.044312],[-4.214372,53.044283],[-4.214333,53.044257],[-4.214276,53.044235],[-4.214203,53.044217],[-4.214129,53.044189],[-4.214054,53.044151],[-4.213979,53.044102],[-4.213903,53.044044],[-4.213786,53.044012],[-4.213627,53.044008],[-4.213426,53.04403],[-4.213184,53.044079],[-4.212972,53.044122],[-4.212791,53.044159],[-4.212639,53.04419],[-4.212518,53.044214],[-4.212404,53.044226],[-4.212297,53.044225],[-4.212197,53.044212],[-4.212104,53.044186],[-4.211985,53.044184],[-4.211841,53.044207],[-4.211671,53.044253],[-4.211475,53.044324],[-4.211338,53.044389],[-4.21126,53.044449],[-4.21124,53.044503],[-4.211279,53.044553],[-4.211274,53.04459],[-4.211227,53.044616],[-4.211136,53.04463],[-4.211002,53.044633],[-4.210908,53.044625],[-4.210854,53.044606],[-4.21084,53.044576],[-4.210866,53.044536],[-4.210852,53.0445],[-4.210799,53.044467],[-4.210707,53.044439],[-4.210575,53.044414],[-4.210474,53.044411],[-4.210404,53.044429],[-4.210366,53.044469],[-4.210358,53.044531],[-4.210371,53.044598],[-4.210403,53.04467],[-4.210455,53.044747],[-4.210528,53.044829],[-4.210554,53.044908],[-4.210535,53.044985],[-4.210469,53.045058],[-4.210358,53.045129],[-4.210274,53.045189],[-4.210217,53.045238],[-4.210188,53.045276],[-4.210185,53.045303],[-4.210153,53.045341],[-4.210091,53.045391],[-4.209999,53.045451],[-4.209877,53.045523],[-4.209777,53.045591],[-4.209699,53.045654],[-4.209645,53.045713],[-4.209612,53.045767],[-4.209586,53.045829],[-4.209567,53.045899],[-4.209555,53.045976],[-4.20955,53.046061],[-4.209575,53.04612],[-4.209631,53.046154],[-4.209718,53.046162],[-4.209836,53.046145],[-4.20995,53.046141],[-4.210061,53.046151],[-4.210167,53.046176],[-4.21027,53.046214],[-4.210369,53.046207],[-4.210463,53.046153],[-4.210554,53.046054],[-4.21064,53.045909],[-4.210738,53.045789],[-4.210847,53.045693],[-4.210966,53.045622],[-4.211097,53.045576],[-4.211192,53.045562],[-4.211251,53.045578],[-4.211274,53.045626],[-4.211261,53.045705],[-4.211252,53.045774],[-4.211246,53.045834],[-4.211245,53.045884],[-4.211247,53.045924],[-4.211275,53.045956],[-4.211328,53.04598],[-4.211406,53.045996],[-4.21151,53.046004],[-4.211582,53.046024],[-4.211624,53.046056],[-4.211635,53.0461],[-4.211614,53.046156],[-4.211579,53.046231],[-4.211528,53.046325],[-4.211463,53.046437],[-4.211383,53.046568],[-4.211378,53.046684],[-4.211448,53.046785],[-4.211594,53.046871],[-4.211814,53.046943]]]}}