{"type":"Feature","properties":{"id":"263545","COMMUNE":"Gwynedd","PROVINCE":"Gwynedd","COUNTRY":"UK","FIREDATE":"2025-03-20 12:59:34.719","FINALDATE":"2025-03-21 12:59:38.809","CLASS":"FireSeason","areaHA_geo":10.25},"geometry":{"type":"Polygon","coordinates":[[[-4.126097,52.960803],[-4.126282,52.96081],[-4.126444,52.960804],[-4.126584,52.960783],[-4.126701,52.960749],[-4.126795,52.960702],[-4.126848,52.960654],[-4.126861,52.960606],[-4.126833,52.960558],[-4.126764,52.96051],[-4.12675,52.960471],[-4.126791,52.96044],[-4.126886,52.960419],[-4.127036,52.960406],[-4.127159,52.960405],[-4.127255,52.960417],[-4.127323,52.960441],[-4.127363,52.960478],[-4.127428,52.960494],[-4.127518,52.960489],[-4.127633,52.960464],[-4.127772,52.960418],[-4.127892,52.960404],[-4.127991,52.960422],[-4.12807,52.960471],[-4.128129,52.960552],[-4.128196,52.960609],[-4.128271,52.960645],[-4.128353,52.960657],[-4.128443,52.960646],[-4.128541,52.960617],[-4.128648,52.96057],[-4.128763,52.960506],[-4.128886,52.960423],[-4.128987,52.960348],[-4.129067,52.960283],[-4.129125,52.960226],[-4.129162,52.960177],[-4.129204,52.960146],[-4.129249,52.96013],[-4.1293,52.960132],[-4.129354,52.96015],[-4.129443,52.960202],[-4.129565,52.960289],[-4.129721,52.96041],[-4.12991,52.960566],[-4.13009,52.960667],[-4.130261,52.960716],[-4.130421,52.96071],[-4.130573,52.96065],[-4.130669,52.960571],[-4.130712,52.960472],[-4.1307,52.960353],[-4.130634,52.960215],[-4.130531,52.960078],[-4.13039,52.959942],[-4.130213,52.959807],[-4.129998,52.959674],[-4.129791,52.959572],[-4.129593,52.9595],[-4.129403,52.959459],[-4.12922,52.959449],[-4.129078,52.959431],[-4.128976,52.959406],[-4.128914,52.959372],[-4.128893,52.959331],[-4.128906,52.959294],[-4.128954,52.959261],[-4.129037,52.959233],[-4.129155,52.959209],[-4.129264,52.959198],[-4.129364,52.9592],[-4.129456,52.959214],[-4.129538,52.959241],[-4.129608,52.959248],[-4.129667,52.959235],[-4.129714,52.959201],[-4.129749,52.959148],[-4.129779,52.959098],[-4.129804,52.95905],[-4.129823,52.959004],[-4.129837,52.958961],[-4.129821,52.95891],[-4.129773,52.958853],[-4.129695,52.958788],[-4.129585,52.958715],[-4.129537,52.958658],[-4.12955,52.958616],[-4.129623,52.95859],[-4.129758,52.958579],[-4.129901,52.958582],[-4.130054,52.958601],[-4.130215,52.958634],[-4.130386,52.958682],[-4.130513,52.958758],[-4.130598,52.958861],[-4.13064,52.958992],[-4.13064,52.959151],[-4.130643,52.959283],[-4.130649,52.959387],[-4.130658,52.959464],[-4.13067,52.959514],[-4.130698,52.959559],[-4.13074,52.959601],[-4.130797,52.959638],[-4.130869,52.959671],[-4.130952,52.959708],[-4.131048,52.959751],[-4.131155,52.959798],[-4.131273,52.95985],[-4.131325,52.959891],[-4.131309,52.959922],[-4.131225,52.959943],[-4.131074,52.959954],[-4.131002,52.959985],[-4.131009,52.960037],[-4.131095,52.960109],[-4.13126,52.960201],[-4.131395,52.96026],[-4.1315,52.960284],[-4.131576,52.960274],[-4.131622,52.960229],[-4.131688,52.960206],[-4.131773,52.960205],[-4.131877,52.960224],[-4.132,52.960266],[-4.132065,52.960305],[-4.132071,52.960342],[-4.132019,52.960377],[-4.131908,52.96041],[-4.131866,52.960464],[-4.131893,52.96054],[-4.131989,52.960638],[-4.132155,52.960758],[-4.132275,52.960833],[-4.13235,52.960863],[-4.13238,52.960848],[-4.132364,52.960789],[-4.132376,52.96074],[-4.132416,52.960701],[-4.132484,52.960672],[-4.13258,52.960654],[-4.132648,52.960618],[-4.13269,52.960567],[-4.132706,52.960499],[-4.132694,52.960415],[-4.13268,52.960324],[-4.132663,52.960224],[-4.132644,52.960117],[-4.132623,52.960003],[-4.132572,52.95993],[-4.132493,52.959899],[-4.132385,52.95991],[-4.132248,52.959963],[-4.132122,52.959974],[-4.132008,52.959942],[-4.131906,52.959868],[-4.131814,52.959752],[-4.131732,52.95965],[-4.131658,52.959563],[-4.131593,52.959489],[-4.131537,52.95943],[-4.131495,52.959377],[-4.131467,52.959329],[-4.131453,52.959286],[-4.131453,52.95925],[-4.131469,52.959214],[-4.1315,52.95918],[-4.131547,52.959147],[-4.13161,52.959115],[-4.13163,52.959079],[-4.131608,52.959037],[-4.131544,52.958991],[-4.131438,52.95894],[-4.131339,52.958895],[-4.131247,52.958856],[-4.131162,52.958823],[-4.131084,52.958796],[-4.131027,52.95876],[-4.130992,52.958715],[-4.130978,52.958662],[-4.130986,52.9586],[-4.130972,52.958548],[-4.130936,52.958508],[-4.130879,52.958477],[-4.130799,52.958457],[-4.130717,52.958438],[-4.130634,52.958418],[-4.130548,52.958399],[-4.130461,52.95838],[-4.130377,52.958353],[-4.130298,52.958317],[-4.130224,52.958273],[-4.130154,52.95822],[-4.130065,52.958169],[-4.129959,52.958118],[-4.129835,52.958068],[-4.129693,52.958019],[-4.129606,52.957983],[-4.129574,52.95796],[-4.129597,52.95795],[-4.129675,52.957953],[-4.129757,52.957954],[-4.129842,52.957954],[-4.129931,52.957952],[-4.130023,52.957948],[-4.130103,52.957934],[-4.13017,52.95791],[-4.130225,52.957876],[-4.130267,52.957832],[-4.130319,52.957799],[-4.130381,52.957777],[-4.130453,52.957766],[-4.130534,52.957766],[-4.130599,52.95774],[-4.130649,52.957686],[-4.130682,52.957606],[-4.1307,52.957499],[-4.13069,52.957417],[-4.130652,52.957359],[-4.130588,52.957326],[-4.130495,52.957317],[-4.130397,52.957331],[-4.130294,52.957368],[-4.130184,52.957427],[-4.130069,52.957509],[-4.129957,52.957576],[-4.129848,52.957628],[-4.129743,52.957665],[-4.12964,52.957687],[-4.129545,52.957709],[-4.129456,52.95773],[-4.129375,52.957752],[-4.1293,52.957773],[-4.129229,52.957775],[-4.129161,52.957759],[-4.129095,52.957724],[-4.129033,52.95767],[-4.128971,52.957624],[-4.128909,52.957585],[-4.128848,52.957553],[-4.128787,52.957529],[-4.128723,52.957497],[-4.128655,52.957459],[-4.128584,52.957414],[-4.12851,52.957361],[-4.128436,52.95732],[-4.128363,52.957288],[-4.12829,52.957267],[-4.128217,52.957256],[-4.12817,52.957266],[-4.128147,52.957297],[-4.12815,52.957348],[-4.128178,52.95742],[-4.128171,52.957466],[-4.128128,52.957484],[-4.12805,52.957476],[-4.127937,52.957441],[-4.127849,52.957427],[-4.127787,52.957436],[-4.12775,52.957466],[-4.127739,52.957519],[-4.127719,52.957565],[-4.127689,52.957605],[-4.127651,52.957639],[-4.127603,52.957667],[-4.127542,52.9577],[-4.127467,52.957738],[-4.127379,52.957781],[-4.127277,52.95783],[-4.127174,52.957891],[-4.12707,52.957963],[-4.126964,52.958047],[-4.126858,52.958142],[-4.126794,52.958226],[-4.126773,52.958296],[-4.126794,52.958355],[-4.126858,52.958401],[-4.126946,52.958431],[-4.127059,52.958446],[-4.127196,52.958445],[-4.127357,52.958428],[-4.127474,52.958435],[-4.127546,52.958464],[-4.127575,52.958516],[-4.127559,52.958591],[-4.127519,52.958651],[-4.127454,52.958695],[-4.127365,52.958724],[-4.127252,52.958737],[-4.127154,52.958751],[-4.127073,52.958764],[-4.127009,52.958777],[-4.12696,52.95879],[-4.126921,52.958791],[-4.12689,52.958779],[-4.126869,52.958754],[-4.126856,52.958716],[-4.126825,52.958674],[-4.126775,52.958627],[-4.126707,52.958576],[-4.126619,52.958521],[-4.126517,52.958516],[-4.1264,52.958562],[-4.126268,52.958658],[-4.126121,52.958805],[-4.126,52.958937],[-4.125903,52.959056],[-4.125831,52.959161],[-4.125784,52.959252],[-4.125731,52.959317],[-4.125672,52.959356],[-4.125608,52.959368],[-4.125539,52.959355],[-4.125439,52.959381],[-4.125309,52.959448],[-4.125148,52.959555],[-4.124957,52.959702],[-4.124832,52.959837],[-4.124775,52.95996],[-4.124786,52.96007],[-4.124863,52.960168],[-4.124946,52.960227],[-4.125036,52.960246],[-4.125131,52.960224],[-4.125233,52.960163],[-4.125333,52.960117],[-4.12543,52.960086],[-4.125525,52.96007],[-4.125618,52.960069],[-4.125724,52.96009],[-4.125842,52.960135],[-4.125973,52.960202],[-4.126117,52.960293],[-4.126196,52.96036],[-4.12621,52.960403],[-4.12616,52.960423],[-4.126045,52.96042],[-4.125956,52.960441],[-4.125891,52.960486],[-4.125852,52.960556],[-4.125839,52.96065],[-4.125875,52.960723],[-4.125961,52.960774],[-4.126097,52.960803]]]}}