{"type":"Feature","properties":{"id":"263509","COMMUNE":"Gwynedd","PROVINCE":"Gwynedd","COUNTRY":"UK","FIREDATE":"2025-03-19 13:25:00","FINALDATE":"2025-03-19 13:53:00","CLASS":"FireSeason","areaHA_geo":64.91},"geometry":{"type":"Polygon","coordinates":[[[-3.873099,52.888167],[-3.873438,52.88799],[-3.873701,52.887818],[-3.873887,52.887652],[-3.873997,52.887491],[-3.874031,52.887337],[-3.874079,52.887228],[-3.874142,52.887164],[-3.874219,52.887145],[-3.874311,52.887172],[-3.874398,52.887247],[-3.874479,52.887369],[-3.874555,52.887539],[-3.874626,52.887757],[-3.874803,52.887887],[-3.875088,52.887929],[-3.87548,52.887883],[-3.87598,52.887749],[-3.876369,52.887581],[-3.876648,52.887379],[-3.876817,52.887143],[-3.876875,52.886873],[-3.876918,52.886651],[-3.876946,52.886478],[-3.876958,52.886355],[-3.876955,52.88628],[-3.876971,52.886168],[-3.877006,52.886019],[-3.877061,52.885834],[-3.877135,52.885612],[-3.877145,52.885451],[-3.877092,52.88535],[-3.876975,52.885311],[-3.876794,52.885332],[-3.876584,52.885312],[-3.876346,52.885252],[-3.876078,52.885152],[-3.875782,52.885011],[-3.875515,52.884926],[-3.875276,52.884897],[-3.875066,52.884925],[-3.874884,52.885009],[-3.874745,52.885028],[-3.874647,52.884983],[-3.87459,52.884874],[-3.874576,52.8847],[-3.874443,52.884564],[-3.874193,52.884468],[-3.873825,52.884411],[-3.873339,52.884392],[-3.872961,52.884305],[-3.872691,52.884148],[-3.87253,52.883922],[-3.872476,52.883627],[-3.872474,52.883426],[-3.872523,52.88332],[-3.872623,52.883308],[-3.872775,52.883391],[-3.872896,52.883427],[-3.872987,52.883416],[-3.873047,52.883359],[-3.873076,52.883255],[-3.873151,52.883149],[-3.873272,52.883041],[-3.87344,52.88293],[-3.873654,52.882818],[-3.873898,52.882717],[-3.874172,52.882628],[-3.874476,52.882552],[-3.87481,52.882488],[-3.875044,52.882388],[-3.875177,52.882254],[-3.875211,52.882083],[-3.875144,52.881878],[-3.875024,52.881732],[-3.87485,52.881645],[-3.874622,52.881619],[-3.874341,52.881651],[-3.874073,52.881645],[-3.873818,52.8816],[-3.873577,52.881515],[-3.873349,52.881391],[-3.87313,52.881247],[-3.872921,52.881083],[-3.872721,52.880899],[-3.872529,52.880696],[-3.87246,52.880547],[-3.872514,52.880453],[-3.872689,52.880413],[-3.872986,52.880429],[-3.873156,52.88039],[-3.873199,52.880297],[-3.873115,52.88015],[-3.872904,52.879949],[-3.872707,52.879809],[-3.872525,52.87973],[-3.872357,52.879711],[-3.872204,52.879754],[-3.872053,52.879772],[-3.871905,52.879764],[-3.871759,52.879731],[-3.871614,52.879673],[-3.871494,52.879589],[-3.871396,52.879482],[-3.871322,52.879349],[-3.871271,52.879192],[-3.871114,52.87906],[-3.87085,52.878952],[-3.870479,52.87887],[-3.870001,52.878813],[-3.869599,52.878794],[-3.869271,52.878813],[-3.869019,52.878871],[-3.868841,52.878967],[-3.86864,52.878975],[-3.868416,52.878894],[-3.868168,52.878726],[-3.867897,52.878469],[-3.867603,52.878236],[-3.867286,52.878028],[-3.866945,52.877845],[-3.866581,52.877687],[-3.86622,52.877538],[-3.865861,52.877398],[-3.865506,52.877267],[-3.865154,52.877145],[-3.864841,52.877049],[-3.864569,52.876981],[-3.864336,52.876939],[-3.864143,52.876924],[-3.863972,52.876827],[-3.86382,52.876651],[-3.86369,52.876393],[-3.863581,52.876054],[-3.863449,52.875809],[-3.863296,52.875657],[-3.863121,52.875599],[-3.862924,52.875635],[-3.862727,52.875639],[-3.86253,52.875612],[-3.862334,52.875553],[-3.862138,52.875463],[-3.861739,52.875503],[-3.861137,52.875674],[-3.860332,52.875975],[-3.859324,52.876407],[-3.858545,52.876805],[-3.857996,52.87717],[-3.857675,52.877503],[-3.857584,52.877802],[-3.857552,52.878026],[-3.857579,52.878173],[-3.857665,52.878245],[-3.857809,52.87824],[-3.857976,52.878255],[-3.858164,52.87829],[-3.858375,52.878344],[-3.858607,52.878417],[-3.858809,52.878459],[-3.858979,52.878471],[-3.859119,52.878452],[-3.859228,52.878401],[-3.859325,52.878443],[-3.85941,52.878578],[-3.859483,52.878804],[-3.859545,52.879124],[-3.859664,52.879395],[-3.85984,52.879619],[-3.860075,52.879796],[-3.860367,52.879925],[-3.860687,52.880126],[-3.861037,52.880399],[-3.861414,52.880744],[-3.86182,52.881162],[-3.862133,52.88142],[-3.862353,52.88152],[-3.86248,52.881461],[-3.862514,52.881244],[-3.8626,52.881121],[-3.862737,52.881092],[-3.862925,52.881158],[-3.863164,52.881318],[-3.863363,52.881383],[-3.86352,52.881352],[-3.863635,52.881226],[-3.863709,52.881004],[-3.863787,52.880693],[-3.863866,52.880295],[-3.863949,52.879808],[-3.864034,52.879233],[-3.864164,52.878861],[-3.864339,52.87869],[-3.864557,52.878721],[-3.86482,52.878953],[-3.865037,52.879204],[-3.865207,52.879473],[-3.865331,52.87976],[-3.865409,52.880065],[-3.865419,52.880321],[-3.865361,52.880529],[-3.865235,52.880688],[-3.865041,52.880798],[-3.864924,52.880937],[-3.864885,52.881105],[-3.864922,52.881302],[-3.865036,52.881527],[-3.865196,52.881731],[-3.865402,52.881914],[-3.865652,52.882076],[-3.865948,52.882217],[-3.866187,52.882293],[-3.866367,52.882303],[-3.86649,52.882248],[-3.866556,52.882128],[-3.866594,52.881988],[-3.866605,52.88183],[-3.86659,52.881653],[-3.866547,52.881457],[-3.866558,52.881327],[-3.86662,52.881263],[-3.866736,52.881266],[-3.866904,52.881334],[-3.867071,52.881383],[-3.867238,52.881414],[-3.867403,52.881426],[-3.867568,52.881419],[-3.867676,52.881463],[-3.867728,52.881558],[-3.867722,52.881703],[-3.86766,52.881898],[-3.86763,52.882062],[-3.867631,52.882194],[-3.867663,52.882293],[-3.867727,52.882361],[-3.867852,52.882394],[-3.868039,52.882391],[-3.868287,52.882352],[-3.868597,52.882278],[-3.868846,52.882274],[-3.869034,52.88234],[-3.869162,52.882476],[-3.869228,52.882682],[-3.869245,52.882878],[-3.869211,52.883064],[-3.869127,52.88324],[-3.868993,52.883406],[-3.868903,52.883611],[-3.868856,52.883855],[-3.868854,52.884138],[-3.868895,52.884459],[-3.86894,52.884743],[-3.868988,52.884988],[-3.869039,52.885196],[-3.869094,52.885365],[-3.869184,52.885515],[-3.86931,52.885644],[-3.86947,52.885754],[-3.869667,52.885844],[-3.869824,52.885961],[-3.869943,52.886104],[-3.870024,52.886273],[-3.870067,52.886469],[-3.870252,52.88672],[-3.870581,52.887027],[-3.871053,52.88739],[-3.871668,52.887807],[-3.872214,52.888076],[-3.872691,52.888196],[-3.873099,52.888167]]]}}