{"type":"Feature","properties":{"id":"263562","COMMUNE":"Powys","PROVINCE":"Powys","COUNTRY":"UK","FIREDATE":"2025-03-19 12:34:00","FINALDATE":"2025-03-19 12:34:00","CLASS":"FireSeason","areaHA_geo":170.997},"geometry":{"type":"Polygon","coordinates":[[[-3.514986,52.678162],[-3.515408,52.678416],[-3.516026,52.678525],[-3.516839,52.678491],[-3.517846,52.678314],[-3.51869,52.678108],[-3.519368,52.677873],[-3.519883,52.677611],[-3.520233,52.67732],[-3.520571,52.677015],[-3.520899,52.676695],[-3.521216,52.676361],[-3.521522,52.676012],[-3.522137,52.675679],[-3.523062,52.675362],[-3.524297,52.67506],[-3.525841,52.674774],[-3.527035,52.674489],[-3.52788,52.674204],[-3.528374,52.67392],[-3.528519,52.673637],[-3.528704,52.673357],[-3.528928,52.673081],[-3.529193,52.672807],[-3.529497,52.672537],[-3.529795,52.672245],[-3.530085,52.671929],[-3.530368,52.671591],[-3.530644,52.67123],[-3.530798,52.670935],[-3.530829,52.670704],[-3.530738,52.670538],[-3.530525,52.670437],[-3.530289,52.670346],[-3.530031,52.670266],[-3.52975,52.670196],[-3.529446,52.670137],[-3.529147,52.67003],[-3.528852,52.669875],[-3.528562,52.669673],[-3.528277,52.669424],[-3.528213,52.669262],[-3.528372,52.669189],[-3.528752,52.669205],[-3.529355,52.669308],[-3.529691,52.669325],[-3.52976,52.669254],[-3.529561,52.669096],[-3.529096,52.668852],[-3.52879,52.66864],[-3.528643,52.668461],[-3.528655,52.668314],[-3.528827,52.6682],[-3.529048,52.66812],[-3.529319,52.668074],[-3.529639,52.668061],[-3.530008,52.668081],[-3.530349,52.668113],[-3.53066,52.668155],[-3.530943,52.668209],[-3.531197,52.668274],[-3.531344,52.668352],[-3.531385,52.668441],[-3.53132,52.668543],[-3.531148,52.668656],[-3.531035,52.668795],[-3.530983,52.668957],[-3.530989,52.669145],[-3.531056,52.669357],[-3.531191,52.669604],[-3.531396,52.669886],[-3.531671,52.670204],[-3.532015,52.670556],[-3.532316,52.670855],[-3.532574,52.6711],[-3.532789,52.671291],[-3.532962,52.671428],[-3.53312,52.671602],[-3.533264,52.671813],[-3.533393,52.672061],[-3.533508,52.672345],[-3.533559,52.672571],[-3.533546,52.672737],[-3.53347,52.672844],[-3.533329,52.672891],[-3.533219,52.672955],[-3.53314,52.673034],[-3.533092,52.67313],[-3.533076,52.673242],[-3.533161,52.673306],[-3.533348,52.673324],[-3.533637,52.673295],[-3.534028,52.673219],[-3.534401,52.673188],[-3.534755,52.673202],[-3.535091,52.673262],[-3.535409,52.673367],[-3.535773,52.673431],[-3.536183,52.673455],[-3.536638,52.673438],[-3.537138,52.673381],[-3.537552,52.673376],[-3.537878,52.673425],[-3.538118,52.673527],[-3.53827,52.673682],[-3.538342,52.673831],[-3.538335,52.673973],[-3.538248,52.674108],[-3.538081,52.674237],[-3.538075,52.674324],[-3.538232,52.674369],[-3.538551,52.674371],[-3.539031,52.674332],[-3.539472,52.674333],[-3.539874,52.674373],[-3.540236,52.674453],[-3.540559,52.674573],[-3.540969,52.674726],[-3.541469,52.674912],[-3.542056,52.675131],[-3.542731,52.675383],[-3.543354,52.675613],[-3.543926,52.675822],[-3.544445,52.67601],[-3.544912,52.676176],[-3.545302,52.676284],[-3.545616,52.676334],[-3.545854,52.676327],[-3.546015,52.676261],[-3.546053,52.676178],[-3.54597,52.676078],[-3.545765,52.675961],[-3.545437,52.675826],[-3.545241,52.675676],[-3.545176,52.675511],[-3.545243,52.67533],[-3.545441,52.675135],[-3.545647,52.675006],[-3.545861,52.674942],[-3.546082,52.674944],[-3.54631,52.675012],[-3.546444,52.675005],[-3.546483,52.674922],[-3.546427,52.674764],[-3.546276,52.67453],[-3.546187,52.674348],[-3.546159,52.674218],[-3.546193,52.67414],[-3.546288,52.674113],[-3.546335,52.674057],[-3.546334,52.673971],[-3.546285,52.673855],[-3.546187,52.673709],[-3.546077,52.673565],[-3.545955,52.673422],[-3.54582,52.673281],[-3.545672,52.673141],[-3.545614,52.673038],[-3.545645,52.672972],[-3.545765,52.672942],[-3.545975,52.67295],[-3.546117,52.672926],[-3.54619,52.67287],[-3.546195,52.672783],[-3.546132,52.672665],[-3.546133,52.672563],[-3.546197,52.672477],[-3.546324,52.672408],[-3.546515,52.672355],[-3.546713,52.672367],[-3.546919,52.672446],[-3.547133,52.67259],[-3.547354,52.6728],[-3.547566,52.672959],[-3.54777,52.673069],[-3.547963,52.67313],[-3.548148,52.67314],[-3.548319,52.673148],[-3.548476,52.673153],[-3.54862,52.673156],[-3.54875,52.673157],[-3.548887,52.673181],[-3.549031,52.673227],[-3.549182,52.673296],[-3.549341,52.673387],[-3.549536,52.673451],[-3.549768,52.673488],[-3.550036,52.673496],[-3.550341,52.673477],[-3.550624,52.673448],[-3.550884,52.673411],[-3.551123,52.673364],[-3.551338,52.673308],[-3.551545,52.673264],[-3.551743,52.673234],[-3.551932,52.673216],[-3.552112,52.673211],[-3.552268,52.673252],[-3.552398,52.673339],[-3.552505,52.673472],[-3.552587,52.673651],[-3.552695,52.673748],[-3.55283,52.673764],[-3.552991,52.673699],[-3.553178,52.673552],[-3.553327,52.673488],[-3.553436,52.673506],[-3.553507,52.673608],[-3.553539,52.673793],[-3.553605,52.673981],[-3.553704,52.674174],[-3.553837,52.67437],[-3.554003,52.67457],[-3.554205,52.674614],[-3.554442,52.674501],[-3.554714,52.67423],[-3.55502,52.673803],[-3.555044,52.673299],[-3.554784,52.672717],[-3.55424,52.672058],[-3.553413,52.671322],[-3.552454,52.670703],[-3.551363,52.6702],[-3.55014,52.669815],[-3.548785,52.669547],[-3.547595,52.669307],[-3.546569,52.669095],[-3.545708,52.668911],[-3.545011,52.668756],[-3.544271,52.668629],[-3.543489,52.66853],[-3.542663,52.66846],[-3.541794,52.668418],[-3.540977,52.668273],[-3.540212,52.668023],[-3.539498,52.66767],[-3.538837,52.667212],[-3.538187,52.666754],[-3.537551,52.666293],[-3.536927,52.665832],[-3.536315,52.665369],[-3.53581,52.665038],[-3.535411,52.664841],[-3.535118,52.664776],[-3.534932,52.664845],[-3.53464,52.664906],[-3.534242,52.664959],[-3.533738,52.665005],[-3.533128,52.665043],[-3.532528,52.665053],[-3.531939,52.665034],[-3.53136,52.664987],[-3.530792,52.664911],[-3.53025,52.664918],[-3.529734,52.665008],[-3.529244,52.665182],[-3.52878,52.665439],[-3.528275,52.665567],[-3.527731,52.665566],[-3.527146,52.665437],[-3.526521,52.665179],[-3.526006,52.665003],[-3.5256,52.664908],[-3.525304,52.664895],[-3.525118,52.664963],[-3.524894,52.665056],[-3.524633,52.665172],[-3.524333,52.665312],[-3.523995,52.665476],[-3.523683,52.665617],[-3.523396,52.665736],[-3.523135,52.665833],[-3.522899,52.665907],[-3.522831,52.665981],[-3.522932,52.666056],[-3.523202,52.666131],[-3.52364,52.666206],[-3.524038,52.666318],[-3.524395,52.666465],[-3.524712,52.666648],[-3.524988,52.666868],[-3.525201,52.667071],[-3.52535,52.667257],[-3.525435,52.667428],[-3.525458,52.667582],[-3.525518,52.667712],[-3.525616,52.667819],[-3.525752,52.667901],[-3.525926,52.66796],[-3.526096,52.66807],[-3.526263,52.668231],[-3.526427,52.668443],[-3.526588,52.668707],[-3.526647,52.66894],[-3.526606,52.66914],[-3.526465,52.669309],[-3.526223,52.669447],[-3.525987,52.669564],[-3.525758,52.669661],[-3.525536,52.669737],[-3.52532,52.669793],[-3.525106,52.669876],[-3.524894,52.669987],[-3.524684,52.670124],[-3.524477,52.670289],[-3.524296,52.670435],[-3.524141,52.670563],[-3.524013,52.670671],[-3.523911,52.670761],[-3.523817,52.670874],[-3.52373,52.671009],[-3.52365,52.671168],[-3.523577,52.671348],[-3.523461,52.671499],[-3.523305,52.671619],[-3.523106,52.671708],[-3.522865,52.671767],[-3.522708,52.671847],[-3.522637,52.67195],[-3.52265,52.672074],[-3.522747,52.672219],[-3.522767,52.672366],[-3.522709,52.672514],[-3.522574,52.672662],[-3.522362,52.672812],[-3.522156,52.672859],[-3.521957,52.672803],[-3.521765,52.672645],[-3.52158,52.672384],[-3.521392,52.672135],[-3.521201,52.671898],[-3.521008,52.671673],[-3.520811,52.671461],[-3.52061,52.671315],[-3.520404,52.671237],[-3.520193,52.671225],[-3.519978,52.671281],[-3.519894,52.671409],[-3.519943,52.671607],[-3.520125,52.671876],[-3.520438,52.672217],[-3.520631,52.6725],[-3.520702,52.672727],[-3.520652,52.672898],[-3.52048,52.673011],[-3.520313,52.672995],[-3.52015,52.672849],[-3.519993,52.672573],[-3.51984,52.672167],[-3.519703,52.671897],[-3.519583,52.671762],[-3.519479,52.671762],[-3.519392,52.671897],[-3.519303,52.672005],[-3.519212,52.672086],[-3.519118,52.67214],[-3.519023,52.672167],[-3.518872,52.67216],[-3.518665,52.672121],[-3.518403,52.672049],[-3.518085,52.671944],[-3.517833,52.671907],[-3.517648,52.671936],[-3.517529,52.672032],[-3.517476,52.672194],[-3.517298,52.672289],[-3.516995,52.672316],[-3.516567,52.672275],[-3.516015,52.672165],[-3.515529,52.672103],[-3.515109,52.672088],[-3.514756,52.672121],[-3.51447,52.672201],[-3.514228,52.672299],[-3.514032,52.672415],[-3.513879,52.67255],[-3.513772,52.672704],[-3.51381,52.672805],[-3.513994,52.672855],[-3.514324,52.672852],[-3.514799,52.672798],[-3.5152,52.672815],[-3.515526,52.672903],[-3.515777,52.673063],[-3.515953,52.673293],[-3.516165,52.673477],[-3.516415,52.673613],[-3.516702,52.673702],[-3.517027,52.673743],[-3.517268,52.673809],[-3.517426,52.673901],[-3.517501,52.674018],[-3.517494,52.67416],[-3.517424,52.674289],[-3.517292,52.674406],[-3.517098,52.674511],[-3.516842,52.674603],[-3.516666,52.674725],[-3.516571,52.674877],[-3.516556,52.675059],[-3.516623,52.675271],[-3.516637,52.675442],[-3.5166,52.675571],[-3.516511,52.67566],[-3.51637,52.675707],[-3.516208,52.675769],[-3.516024,52.675845],[-3.515819,52.675935],[-3.515592,52.676039],[-3.515353,52.676102],[-3.5151,52.676123],[-3.514834,52.676102],[-3.514555,52.67604],[-3.514254,52.675968],[-3.513931,52.675888],[-3.513585,52.675798],[-3.513217,52.675699],[-3.512949,52.675651],[-3.512782,52.675654],[-3.512715,52.675709],[-3.512748,52.675815],[-3.512832,52.675919],[-3.512968,52.676021],[-3.513155,52.676121],[-3.513393,52.67622],[-3.513613,52.676343],[-3.513815,52.676493],[-3.514,52.676668],[-3.514166,52.676868],[-3.514348,52.677118],[-3.514545,52.677417],[-3.514758,52.677765],[-3.514986,52.678162]]]}}