{"type":"Feature","properties":{"id":"263541","COMMUNE":"Gwynedd","PROVINCE":"Gwynedd","COUNTRY":"UK","FIREDATE":"2025-03-20 12:14:00","CLASS":"FireSeason","areaHA_geo":2.523},"geometry":{"type":"Polygon","coordinates":[[[-4.147898,52.955105],[-4.148009,52.95515],[-4.148117,52.955164],[-4.148222,52.955148],[-4.148323,52.955101],[-4.148408,52.955031],[-4.148477,52.954937],[-4.14853,52.95482],[-4.148568,52.95468],[-4.148577,52.954556],[-4.148557,52.954447],[-4.148509,52.954355],[-4.148432,52.954279],[-4.148366,52.954198],[-4.148312,52.954111],[-4.148268,52.954019],[-4.148236,52.953922],[-4.148174,52.953845],[-4.148081,52.953789],[-4.147957,52.953752],[-4.147803,52.953735],[-4.147664,52.953686],[-4.14754,52.953604],[-4.147431,52.953489],[-4.147337,52.953341],[-4.147245,52.953226],[-4.147157,52.953143],[-4.147071,52.953093],[-4.146988,52.953076],[-4.146914,52.953035],[-4.146851,52.952971],[-4.146798,52.952883],[-4.146755,52.952772],[-4.146681,52.952677],[-4.146578,52.952598],[-4.146444,52.952536],[-4.14628,52.952489],[-4.146139,52.952448],[-4.14602,52.952412],[-4.145924,52.95238],[-4.145851,52.952354],[-4.145795,52.952356],[-4.145757,52.952386],[-4.145735,52.952444],[-4.145731,52.952529],[-4.145742,52.952607],[-4.145768,52.952675],[-4.145809,52.952735],[-4.145865,52.952787],[-4.145899,52.952841],[-4.145911,52.952898],[-4.145902,52.952957],[-4.145871,52.953019],[-4.145865,52.953071],[-4.145886,52.953113],[-4.145932,52.953146],[-4.146004,52.953168],[-4.146099,52.953211],[-4.146217,52.953275],[-4.146358,52.953359],[-4.146521,52.953463],[-4.146643,52.953572],[-4.146722,52.953685],[-4.146759,52.953801],[-4.146754,52.953922],[-4.146701,52.954007],[-4.146601,52.954056],[-4.146454,52.954069],[-4.146259,52.954045],[-4.146109,52.954047],[-4.146004,52.954073],[-4.145945,52.954123],[-4.145932,52.954199],[-4.145955,52.954266],[-4.146017,52.954324],[-4.146116,52.954374],[-4.146252,52.954416],[-4.146365,52.95446],[-4.146455,52.954506],[-4.14652,52.954553],[-4.146562,52.954602],[-4.146622,52.954632],[-4.1467,52.954642],[-4.146795,52.954633],[-4.146908,52.954604],[-4.147028,52.954584],[-4.147153,52.954573],[-4.147285,52.954571],[-4.147423,52.954578],[-4.147525,52.954603],[-4.147591,52.954648],[-4.147622,52.954711],[-4.147617,52.954793],[-4.147642,52.954873],[-4.147697,52.954952],[-4.147782,52.955029],[-4.147898,52.955105]]]}}