{"type":"Feature","properties":{"id":"263546","COMMUNE":"Gwynedd","PROVINCE":"Gwynedd","COUNTRY":"UK","FIREDATE":"2025-03-20 13:05:25.799","FINALDATE":"2025-03-21 13:05:28.104","CLASS":"FireSeason","areaHA_geo":6.899},"geometry":{"type":"Polygon","coordinates":[[[-4.335854,52.975093],[-4.335922,52.975159],[-4.336074,52.975178],[-4.33631,52.975151],[-4.33663,52.975077],[-4.336868,52.975006],[-4.337024,52.974938],[-4.337098,52.974872],[-4.337091,52.974808],[-4.337067,52.974748],[-4.337028,52.974691],[-4.336973,52.974637],[-4.336902,52.974586],[-4.336834,52.974516],[-4.336768,52.974426],[-4.336704,52.974316],[-4.336642,52.974187],[-4.336609,52.974071],[-4.336604,52.97397],[-4.336628,52.973882],[-4.336679,52.973809],[-4.33673,52.973788],[-4.336782,52.973821],[-4.336833,52.973907],[-4.336884,52.974046],[-4.336939,52.97416],[-4.336998,52.974248],[-4.33706,52.974311],[-4.337127,52.974348],[-4.33717,52.97435],[-4.337189,52.974315],[-4.337186,52.974245],[-4.337159,52.974138],[-4.337163,52.974063],[-4.337197,52.97402],[-4.337263,52.974008],[-4.337359,52.974029],[-4.337417,52.974033],[-4.337435,52.974022],[-4.337415,52.973994],[-4.337355,52.97395],[-4.337318,52.973902],[-4.337303,52.97385],[-4.33731,52.973794],[-4.337339,52.973735],[-4.33738,52.973683],[-4.337432,52.973639],[-4.337496,52.973603],[-4.337572,52.973575],[-4.337628,52.973533],[-4.337666,52.973478],[-4.337684,52.973408],[-4.337683,52.973325],[-4.337706,52.973246],[-4.337755,52.97317],[-4.337828,52.973098],[-4.337926,52.97303],[-4.337992,52.973],[-4.338027,52.97301],[-4.338029,52.973058],[-4.338,52.973144],[-4.337988,52.973212],[-4.337994,52.973261],[-4.338016,52.973292],[-4.338056,52.973303],[-4.338102,52.973295],[-4.338156,52.973269],[-4.338217,52.973223],[-4.338285,52.973158],[-4.33837,52.973114],[-4.338474,52.973089],[-4.338596,52.973085],[-4.338735,52.9731],[-4.338831,52.973123],[-4.338884,52.973153],[-4.338893,52.97319],[-4.338859,52.973234],[-4.338859,52.973274],[-4.338896,52.973308],[-4.338967,52.973338],[-4.339074,52.973363],[-4.339167,52.973385],[-4.339245,52.973405],[-4.339309,52.973423],[-4.339359,52.973439],[-4.339408,52.973451],[-4.339456,52.973462],[-4.339504,52.973469],[-4.33955,52.973475],[-4.339595,52.973489],[-4.339639,52.973512],[-4.339681,52.973543],[-4.339721,52.973584],[-4.339764,52.973625],[-4.339809,52.973667],[-4.339857,52.973709],[-4.339907,52.973751],[-4.339916,52.973793],[-4.339883,52.973835],[-4.339808,52.973876],[-4.339692,52.973917],[-4.339604,52.973957],[-4.339543,52.973997],[-4.33951,52.974035],[-4.339505,52.974074],[-4.339511,52.974115],[-4.339528,52.974158],[-4.339556,52.974205],[-4.339595,52.974254],[-4.339606,52.9743],[-4.339589,52.974344],[-4.339545,52.974385],[-4.339472,52.974423],[-4.339384,52.974468],[-4.339278,52.974521],[-4.339156,52.974582],[-4.339018,52.97465],[-4.338885,52.974709],[-4.338757,52.974761],[-4.338634,52.974805],[-4.338516,52.97484],[-4.338426,52.974868],[-4.338363,52.974888],[-4.338328,52.974899],[-4.33832,52.974903],[-4.338336,52.974913],[-4.338375,52.97493],[-4.338437,52.974953],[-4.338524,52.974983],[-4.338569,52.975011],[-4.338572,52.975036],[-4.338535,52.975058],[-4.338457,52.975079],[-4.33839,52.975105],[-4.338334,52.975139],[-4.338289,52.975179],[-4.338256,52.975226],[-4.338221,52.975279],[-4.338185,52.975337],[-4.338147,52.975401],[-4.338107,52.97547],[-4.338068,52.97553],[-4.33803,52.975582],[-4.337991,52.975625],[-4.337954,52.975659],[-4.337918,52.975692],[-4.337884,52.975725],[-4.337852,52.975756],[-4.337822,52.975786],[-4.33782,52.975822],[-4.337847,52.975861],[-4.337902,52.975906],[-4.337986,52.975955],[-4.338062,52.97598],[-4.33813,52.975983],[-4.33819,52.975962],[-4.338242,52.975918],[-4.338278,52.975862],[-4.338298,52.975794],[-4.338301,52.975714],[-4.338288,52.975621],[-4.338297,52.975542],[-4.338329,52.975477],[-4.338383,52.975425],[-4.338459,52.975386],[-4.338528,52.975366],[-4.338588,52.975366],[-4.33864,52.975384],[-4.338684,52.975422],[-4.338744,52.97546],[-4.33882,52.975499],[-4.338912,52.975539],[-4.339019,52.97558],[-4.339114,52.975588],[-4.339195,52.975564],[-4.339263,52.975506],[-4.339318,52.975417],[-4.339387,52.97534],[-4.339469,52.975278],[-4.339564,52.97523],[-4.339673,52.975195],[-4.339745,52.975153],[-4.33978,52.975103],[-4.339778,52.975045],[-4.339738,52.97498],[-4.339736,52.974922],[-4.339773,52.974871],[-4.339847,52.974826],[-4.33996,52.974788],[-4.340071,52.974774],[-4.340182,52.974782],[-4.34029,52.974813],[-4.340398,52.974867],[-4.340501,52.9749],[-4.340599,52.974913],[-4.340693,52.974904],[-4.340781,52.974875],[-4.340852,52.974833],[-4.340905,52.974778],[-4.340941,52.97471],[-4.340959,52.97463],[-4.340984,52.974562],[-4.341017,52.974506],[-4.341056,52.974461],[-4.341104,52.974429],[-4.341146,52.974388],[-4.341183,52.974337],[-4.341214,52.974278],[-4.341241,52.974211],[-4.341244,52.974148],[-4.341225,52.97409],[-4.341182,52.974037],[-4.341117,52.973988],[-4.341048,52.973953],[-4.340976,52.973932],[-4.340901,52.973925],[-4.340823,52.973932],[-4.340733,52.973942],[-4.340632,52.973954],[-4.34052,52.973969],[-4.340396,52.973986],[-4.340328,52.973982],[-4.340317,52.973955],[-4.340362,52.973906],[-4.340463,52.973835],[-4.340542,52.973765],[-4.340598,52.973698],[-4.340631,52.973633],[-4.340641,52.97357],[-4.340623,52.973522],[-4.340579,52.973488],[-4.340506,52.973469],[-4.340406,52.973465],[-4.340311,52.973464],[-4.34022,52.973466],[-4.340133,52.97347],[-4.34005,52.973477],[-4.339957,52.97347],[-4.339853,52.973447],[-4.339739,52.97341],[-4.339614,52.973358],[-4.339516,52.973283],[-4.339445,52.973186],[-4.339402,52.973065],[-4.339385,52.972922],[-4.339411,52.972787],[-4.33948,52.972659],[-4.339592,52.972539],[-4.339746,52.972426],[-4.33985,52.972332],[-4.339903,52.972255],[-4.339905,52.972197],[-4.339856,52.972158],[-4.339795,52.972121],[-4.339723,52.972086],[-4.33964,52.972055],[-4.339545,52.972026],[-4.33946,52.972017],[-4.339386,52.972029],[-4.339322,52.972061],[-4.339268,52.972113],[-4.339186,52.972165],[-4.339078,52.972215],[-4.338943,52.972265],[-4.33878,52.972314],[-4.33866,52.972363],[-4.338582,52.972411],[-4.338547,52.972459],[-4.338554,52.972507],[-4.338526,52.972553],[-4.338463,52.972598],[-4.338364,52.972642],[-4.338231,52.972685],[-4.338094,52.97273],[-4.337953,52.972777],[-4.337808,52.972825],[-4.337659,52.972875],[-4.337537,52.972926],[-4.33744,52.972978],[-4.337369,52.973031],[-4.337325,52.973085],[-4.337288,52.973149],[-4.337259,52.973224],[-4.337239,52.973309],[-4.337226,52.973404],[-4.337136,52.973404],[-4.336969,52.973307],[-4.336726,52.973114],[-4.336405,52.972825],[-4.336144,52.972623],[-4.335945,52.972507],[-4.335805,52.972478],[-4.335726,52.972536],[-4.335584,52.972615],[-4.335378,52.972715],[-4.335108,52.972836],[-4.334776,52.972979],[-4.334473,52.973122],[-4.334202,52.973266],[-4.333961,52.973411],[-4.33375,52.973558],[-4.333663,52.973645],[-4.333699,52.973672],[-4.333859,52.973641],[-4.334142,52.973551],[-4.33435,52.973491],[-4.334484,52.973463],[-4.334543,52.973466],[-4.334528,52.9735],[-4.334506,52.973552],[-4.334478,52.973621],[-4.334443,52.973708],[-4.334402,52.973812],[-4.33438,52.973911],[-4.334378,52.974004],[-4.334395,52.974091],[-4.334431,52.974173],[-4.334478,52.974231],[-4.334535,52.974268],[-4.334602,52.974281],[-4.334679,52.974272],[-4.33476,52.97423],[-4.334845,52.974155],[-4.334933,52.974048],[-4.335025,52.973908],[-4.335116,52.973769],[-4.335206,52.973632],[-4.335296,52.973496],[-4.335385,52.973362],[-4.33547,52.973272],[-4.335551,52.973226],[-4.335628,52.973224],[-4.3357,52.973266],[-4.335742,52.973312],[-4.335755,52.973362],[-4.335737,52.973415],[-4.335689,52.973472],[-4.335635,52.973542],[-4.335576,52.973627],[-4.335512,52.973727],[-4.335443,52.97384],[-4.335416,52.973913],[-4.335431,52.973946],[-4.33549,52.973939],[-4.33559,52.973892],[-4.335672,52.973864],[-4.335737,52.973855],[-4.335782,52.973865],[-4.33581,52.973893],[-4.335852,52.973933],[-4.33591,52.973984],[-4.335982,52.974046],[-4.336069,52.974119],[-4.336088,52.974165],[-4.336039,52.974186],[-4.335922,52.974181],[-4.335737,52.974149],[-4.335578,52.974135],[-4.335444,52.974138],[-4.335337,52.974157],[-4.335255,52.974194],[-4.335242,52.974257],[-4.335296,52.974346],[-4.335418,52.97446],[-4.335609,52.974601],[-4.335748,52.974735],[-4.335835,52.974862],[-4.335871,52.974981],[-4.335854,52.975093]]]}}