{"type":"Feature","properties":{"id":"263559","COMMUNE":"Gwynedd","PROVINCE":"Gwynedd","COUNTRY":"UK","FIREDATE":"2025-03-20 14:36:45.154","FINALDATE":"2025-03-21 14:36:47.695","CLASS":"FireSeason","areaHA_geo":6.055},"geometry":{"type":"Polygon","coordinates":[[[-4.062489,52.658418],[-4.062578,52.65847],[-4.062667,52.658485],[-4.062756,52.658464],[-4.062845,52.658407],[-4.06293,52.658368],[-4.063012,52.658348],[-4.06309,52.658347],[-4.063164,52.658364],[-4.063235,52.658368],[-4.063303,52.658358],[-4.063368,52.658336],[-4.063429,52.6583],[-4.063479,52.658257],[-4.063516,52.658207],[-4.063542,52.65815],[-4.063555,52.658086],[-4.063578,52.658035],[-4.063611,52.657997],[-4.063654,52.657973],[-4.063706,52.657961],[-4.063787,52.657945],[-4.063896,52.657922],[-4.064033,52.657895],[-4.064199,52.657862],[-4.064335,52.657856],[-4.064443,52.657876],[-4.064521,52.657921],[-4.06457,52.657994],[-4.064629,52.658039],[-4.064698,52.658058],[-4.064776,52.658051],[-4.064864,52.658017],[-4.0649,52.657963],[-4.064885,52.65789],[-4.064818,52.657796],[-4.064699,52.657683],[-4.064625,52.657586],[-4.064594,52.657505],[-4.064607,52.65744],[-4.064665,52.657392],[-4.064696,52.657331],[-4.0647,52.657258],[-4.064677,52.657172],[-4.064628,52.657074],[-4.064607,52.65699],[-4.064614,52.65692],[-4.06465,52.656865],[-4.064714,52.656823],[-4.064764,52.656772],[-4.0648,52.65671],[-4.064822,52.656639],[-4.06483,52.656557],[-4.064868,52.656488],[-4.064938,52.65643],[-4.065038,52.656384],[-4.065169,52.65635],[-4.065306,52.656313],[-4.06545,52.656273],[-4.0656,52.656229],[-4.065757,52.656182],[-4.065895,52.656154],[-4.066015,52.656146],[-4.066117,52.656158],[-4.0662,52.65619],[-4.066267,52.656207],[-4.066317,52.656209],[-4.06635,52.656195],[-4.066367,52.656167],[-4.066406,52.656141],[-4.066466,52.656115],[-4.066549,52.656091],[-4.066653,52.656068],[-4.066773,52.656052],[-4.066907,52.656043],[-4.067057,52.65604],[-4.067222,52.656044],[-4.067316,52.656004],[-4.06734,52.65592],[-4.067295,52.655793],[-4.067179,52.655622],[-4.067068,52.6555],[-4.066963,52.655427],[-4.066862,52.655402],[-4.066767,52.655427],[-4.066698,52.655467],[-4.066657,52.655524],[-4.066642,52.655598],[-4.066654,52.655687],[-4.06664,52.655759],[-4.066599,52.655813],[-4.066533,52.65585],[-4.06644,52.655869],[-4.066325,52.655873],[-4.066189,52.655864],[-4.06603,52.65584],[-4.06585,52.655801],[-4.065689,52.655756],[-4.065547,52.655704],[-4.065425,52.655645],[-4.065322,52.655579],[-4.065018,52.655577],[-4.064513,52.655638],[-4.063808,52.655763],[-4.062901,52.655952],[-4.062231,52.656106],[-4.061797,52.656227],[-4.0616,52.656313],[-4.061638,52.656366],[-4.061646,52.656416],[-4.061622,52.656463],[-4.061568,52.656507],[-4.061483,52.656548],[-4.061476,52.656679],[-4.061547,52.656898],[-4.061697,52.657206],[-4.061925,52.657602],[-4.062118,52.657922],[-4.062276,52.658164],[-4.0624,52.65833],[-4.062489,52.658418]]]}}