{"type":"Feature","properties":{"id":"263500","COMMUNE":"Torridge","PROVINCE":"Devon CC","COUNTRY":"UK","FIREDATE":"2025-03-05 12:48:00","CLASS":"FireSeason","areaHA_geo":1.903},"geometry":{"type":"Polygon","coordinates":[[[-4.476287,50.950215],[-4.476398,50.950134],[-4.476373,50.949995],[-4.476214,50.949797],[-4.475919,50.949541],[-4.475645,50.949339],[-4.475391,50.949191],[-4.475158,50.949097],[-4.474945,50.949057],[-4.474687,50.949033],[-4.474384,50.949026],[-4.474037,50.949034],[-4.473644,50.949059],[-4.473433,50.949129],[-4.473403,50.949246],[-4.473555,50.949409],[-4.473888,50.949618],[-4.4742,50.949811],[-4.47449,50.949988],[-4.474757,50.950149],[-4.475004,50.950294],[-4.475207,50.950388],[-4.475367,50.95043],[-4.475485,50.950422],[-4.475559,50.950362],[-4.475676,50.950312],[-4.475837,50.95027],[-4.47604,50.950238],[-4.476287,50.950215]]]}}