{"type":"Feature","properties":{"id":"263558","COMMUNE":"Gwynedd","PROVINCE":"Gwynedd","COUNTRY":"UK","FIREDATE":"2025-03-20 13:08:00","FINALDATE":"2025-03-20 13:08:00","CLASS":"FireSeason","areaHA_geo":38.509},"geometry":{"type":"Polygon","coordinates":[[[-4.038507,52.672736],[-4.03855,52.672765],[-4.038591,52.672787],[-4.038628,52.6728],[-4.038663,52.672805],[-4.038694,52.672803],[-4.038723,52.672792],[-4.038749,52.672773],[-4.038771,52.672747],[-4.038803,52.672718],[-4.038844,52.672689],[-4.038894,52.672658],[-4.038954,52.672626],[-4.039022,52.672593],[-4.0391,52.672558],[-4.039187,52.672523],[-4.039283,52.672485],[-4.039362,52.672446],[-4.039425,52.672405],[-4.039471,52.672362],[-4.039501,52.672317],[-4.039514,52.672271],[-4.03951,52.672222],[-4.03949,52.672171],[-4.039453,52.672119],[-4.039428,52.672077],[-4.039416,52.672044],[-4.039417,52.672021],[-4.03943,52.672009],[-4.039455,52.672006],[-4.039493,52.672013],[-4.039544,52.67203],[-4.039606,52.672057],[-4.039666,52.672081],[-4.039723,52.672102],[-4.039776,52.672119],[-4.039827,52.672134],[-4.039874,52.672146],[-4.039918,52.672154],[-4.039959,52.67216],[-4.039997,52.672162],[-4.04003,52.672162],[-4.040058,52.67216],[-4.040082,52.672155],[-4.040101,52.672147],[-4.040115,52.672137],[-4.040124,52.672125],[-4.040129,52.67211],[-4.040129,52.672093],[-4.040123,52.672075],[-4.04011,52.672058],[-4.040091,52.672039],[-4.040065,52.672021],[-4.040032,52.672002],[-4.039993,52.671983],[-4.039948,52.671964],[-4.039896,52.671944],[-4.039855,52.671925],[-4.039826,52.671906],[-4.039809,52.671887],[-4.039803,52.671869],[-4.039809,52.671851],[-4.039826,52.671834],[-4.039854,52.671817],[-4.039894,52.6718],[-4.039935,52.671784],[-4.039976,52.67177],[-4.040017,52.671757],[-4.040059,52.671745],[-4.040101,52.671734],[-4.040144,52.671725],[-4.040186,52.671717],[-4.04023,52.67171],[-4.040272,52.671702],[-4.040313,52.671693],[-4.040353,52.671683],[-4.040392,52.671671],[-4.04043,52.671658],[-4.040467,52.671644],[-4.040503,52.671629],[-4.040537,52.671613],[-4.040561,52.671598],[-4.040575,52.671583],[-4.040578,52.671568],[-4.040571,52.671555],[-4.040553,52.671542],[-4.040525,52.671529],[-4.040486,52.671517],[-4.040437,52.671506],[-4.040399,52.671494],[-4.040374,52.671481],[-4.040361,52.671468],[-4.040359,52.671455],[-4.040369,52.67144],[-4.040392,52.671426],[-4.040426,52.671411],[-4.040472,52.671395],[-4.040516,52.671379],[-4.040559,52.671362],[-4.040599,52.671346],[-4.040638,52.671329],[-4.040675,52.671313],[-4.04071,52.671295],[-4.040743,52.671278],[-4.040774,52.671261],[-4.040804,52.671248],[-4.040831,52.671241],[-4.040857,52.671239],[-4.040881,52.671242],[-4.040903,52.671251],[-4.040923,52.671264],[-4.040941,52.671283],[-4.040957,52.671307],[-4.040983,52.671329],[-4.041017,52.671349],[-4.04106,52.671367],[-4.041112,52.671383],[-4.041174,52.671397],[-4.041244,52.67141],[-4.041323,52.67142],[-4.041411,52.671429],[-4.041494,52.671435],[-4.041571,52.671439],[-4.041641,52.67144],[-4.041707,52.671439],[-4.041766,52.671436],[-4.04182,52.67143],[-4.041868,52.671423],[-4.04191,52.671412],[-4.04196,52.671401],[-4.042016,52.671389],[-4.04208,52.671376],[-4.042151,52.671361],[-4.042228,52.671346],[-4.042313,52.671329],[-4.042406,52.671311],[-4.042505,52.671293],[-4.042593,52.67127],[-4.042669,52.671243],[-4.042733,52.671213],[-4.042786,52.671178],[-4.042827,52.671139],[-4.042857,52.671097],[-4.042875,52.67105],[-4.042881,52.670999],[-4.042891,52.67096],[-4.042906,52.670933],[-4.042925,52.670918],[-4.042948,52.670914],[-4.042975,52.670923],[-4.043007,52.670942],[-4.043042,52.670974],[-4.043082,52.671018],[-4.043131,52.671057],[-4.043188,52.671092],[-4.043255,52.671124],[-4.043331,52.671151],[-4.043416,52.671174],[-4.043509,52.671193],[-4.043612,52.671208],[-4.043724,52.671219],[-4.043825,52.671226],[-4.043915,52.671231],[-4.043994,52.671233],[-4.044061,52.671232],[-4.044118,52.671228],[-4.044165,52.67122],[-4.0442,52.67121],[-4.044224,52.671197],[-4.044248,52.671187],[-4.044271,52.67118],[-4.044294,52.671176],[-4.044316,52.671175],[-4.044338,52.671177],[-4.04436,52.671182],[-4.044381,52.67119],[-4.044402,52.671202],[-4.044426,52.671213],[-4.044453,52.671225],[-4.044484,52.671237],[-4.044518,52.671249],[-4.044555,52.671262],[-4.044596,52.671275],[-4.044639,52.671288],[-4.044686,52.671301],[-4.04473,52.671315],[-4.044771,52.671328],[-4.044808,52.671341],[-4.044842,52.671354],[-4.044873,52.671367],[-4.044901,52.67138],[-4.044926,52.671393],[-4.044947,52.671406],[-4.04495,52.671417],[-4.044933,52.671427],[-4.044898,52.671434],[-4.044845,52.67144],[-4.044772,52.671443],[-4.044681,52.671445],[-4.044571,52.671445],[-4.044442,52.671443],[-4.044323,52.671443],[-4.044214,52.671445],[-4.044115,52.671448],[-4.044025,52.671454],[-4.043946,52.671461],[-4.043876,52.67147],[-4.043817,52.671481],[-4.043767,52.671494],[-4.043722,52.671511],[-4.043682,52.671532],[-4.043648,52.671557],[-4.043619,52.671586],[-4.043596,52.67162],[-4.043577,52.671657],[-4.043564,52.671699],[-4.043556,52.671745],[-4.043566,52.671792],[-4.043595,52.67184],[-4.043642,52.671889],[-4.043707,52.67194],[-4.04379,52.671992],[-4.043891,52.672046],[-4.044011,52.6721],[-4.044149,52.672156],[-4.044269,52.672207],[-4.044373,52.672252],[-4.044459,52.672291],[-4.044529,52.672325],[-4.044581,52.672353],[-4.044616,52.672376],[-4.044635,52.672394],[-4.044636,52.672406],[-4.04463,52.672416],[-4.044618,52.672424],[-4.044599,52.672431],[-4.044573,52.672435],[-4.044541,52.672438],[-4.044502,52.67244],[-4.044457,52.672439],[-4.044405,52.672437],[-4.044359,52.672438],[-4.044319,52.672442],[-4.044286,52.672451],[-4.044258,52.672463],[-4.044237,52.672478],[-4.044222,52.672497],[-4.044213,52.67252],[-4.04421,52.672546],[-4.044211,52.672572],[-4.044218,52.672598],[-4.044229,52.672624],[-4.044244,52.672649],[-4.044264,52.672675],[-4.044289,52.6727],[-4.044318,52.672726],[-4.044352,52.672751],[-4.044382,52.672776],[-4.044408,52.6728],[-4.044431,52.672823],[-4.04445,52.672846],[-4.044465,52.672868],[-4.044476,52.672889],[-4.044483,52.67291],[-4.044487,52.67293],[-4.044487,52.672951],[-4.044481,52.672973],[-4.044472,52.672995],[-4.044458,52.673018],[-4.04444,52.673042],[-4.044417,52.673067],[-4.04439,52.673092],[-4.044359,52.673118],[-4.044332,52.673143],[-4.04431,52.673166],[-4.044292,52.673187],[-4.044278,52.673207],[-4.044269,52.673225],[-4.044264,52.673241],[-4.044264,52.673256],[-4.044269,52.67327],[-4.04427,52.673285],[-4.044268,52.673302],[-4.044262,52.673322],[-4.044254,52.673344],[-4.044242,52.673367],[-4.044227,52.673393],[-4.044208,52.673421],[-4.044187,52.673451],[-4.044169,52.67348],[-4.044154,52.673508],[-4.044144,52.673535],[-4.044136,52.673561],[-4.044133,52.673586],[-4.044132,52.67361],[-4.044136,52.673632],[-4.044143,52.673654],[-4.044148,52.673677],[-4.044151,52.673701],[-4.044152,52.673726],[-4.04415,52.673753],[-4.044147,52.673781],[-4.044142,52.673811],[-4.044134,52.673842],[-4.044125,52.673874],[-4.044125,52.673902],[-4.044136,52.673925],[-4.044156,52.673945],[-4.044187,52.67396],[-4.044228,52.673971],[-4.044278,52.673978],[-4.044339,52.673981],[-4.04441,52.673979],[-4.044475,52.673985],[-4.044536,52.673999],[-4.044592,52.674021],[-4.044643,52.67405],[-4.044689,52.674087],[-4.04473,52.674132],[-4.044765,52.674184],[-4.044796,52.674244],[-4.044827,52.674296],[-4.044857,52.674341],[-4.044887,52.674378],[-4.044916,52.674407],[-4.044945,52.674429],[-4.044974,52.674442],[-4.045002,52.674449],[-4.04503,52.674447],[-4.045059,52.67444],[-4.045088,52.674427],[-4.045119,52.674409],[-4.045149,52.674386],[-4.045181,52.674357],[-4.045213,52.674323],[-4.045246,52.674283],[-4.04528,52.674237],[-4.045314,52.674194],[-4.045349,52.674152],[-4.045385,52.674113],[-4.045421,52.674075],[-4.045457,52.674039],[-4.045495,52.674005],[-4.045533,52.673972],[-4.045571,52.673942],[-4.045596,52.673912],[-4.045608,52.673882],[-4.045606,52.673853],[-4.045591,52.673823],[-4.045562,52.673795],[-4.04552,52.673766],[-4.045465,52.673738],[-4.045396,52.67371],[-4.045334,52.673684],[-4.045279,52.67366],[-4.045231,52.673638],[-4.045191,52.673617],[-4.045157,52.673599],[-4.04513,52.673583],[-4.045111,52.673569],[-4.045098,52.673557],[-4.045094,52.673545],[-4.045097,52.673534],[-4.045109,52.673524],[-4.045129,52.673515],[-4.045157,52.673507],[-4.045193,52.673499],[-4.045237,52.673492],[-4.045289,52.673486],[-4.045337,52.673483],[-4.045382,52.673482],[-4.045423,52.673485],[-4.045461,52.673491],[-4.045495,52.6735],[-4.045525,52.673512],[-4.045551,52.673527],[-4.045574,52.673545],[-4.045598,52.67356],[-4.045623,52.673573],[-4.045649,52.673582],[-4.045675,52.67359],[-4.045703,52.673594],[-4.045731,52.673596],[-4.04576,52.673595],[-4.04579,52.673591],[-4.045827,52.673575],[-4.045871,52.673544],[-4.045921,52.673501],[-4.045978,52.673444],[-4.046042,52.673374],[-4.046112,52.673291],[-4.046189,52.673195],[-4.046273,52.673085],[-4.046354,52.672992],[-4.04643,52.672916],[-4.046503,52.672857],[-4.046572,52.672816],[-4.046637,52.672791],[-4.046699,52.672783],[-4.046756,52.672792],[-4.046811,52.672819],[-4.046851,52.672847],[-4.046878,52.672878],[-4.046892,52.672911],[-4.046892,52.672946],[-4.046879,52.672984],[-4.046852,52.673024],[-4.046811,52.673066],[-4.046757,52.67311],[-4.046712,52.673151],[-4.046676,52.673188],[-4.046649,52.673222],[-4.04663,52.673253],[-4.04662,52.67328],[-4.04662,52.673304],[-4.046628,52.673324],[-4.046644,52.673341],[-4.046666,52.673352],[-4.046693,52.673356],[-4.046724,52.673355],[-4.04676,52.673347],[-4.0468,52.673333],[-4.046846,52.673313],[-4.046896,52.673287],[-4.046951,52.673255],[-4.047003,52.673228],[-4.047052,52.673206],[-4.047099,52.673189],[-4.047142,52.673178],[-4.047182,52.673172],[-4.04722,52.673172],[-4.047255,52.673177],[-4.047286,52.673187],[-4.047316,52.673193],[-4.047345,52.673197],[-4.047371,52.673198],[-4.047396,52.673196],[-4.047419,52.673191],[-4.047441,52.673183],[-4.047461,52.673172],[-4.047479,52.673158],[-4.047494,52.673141],[-4.047507,52.673122],[-4.047516,52.6731],[-4.047522,52.673076],[-4.047526,52.67305],[-4.047526,52.673021],[-4.047524,52.67299],[-4.047519,52.672956],[-4.047521,52.672927],[-4.047529,52.672904],[-4.047545,52.672886],[-4.047568,52.672872],[-4.047598,52.672865],[-4.047635,52.672862],[-4.047678,52.672864],[-4.047729,52.672872],[-4.047775,52.672877],[-4.047817,52.672878],[-4.047853,52.672877],[-4.047884,52.672872],[-4.04791,52.672865],[-4.047932,52.672854],[-4.047948,52.67284],[-4.04796,52.672823],[-4.047968,52.672804],[-4.047973,52.672784],[-4.047974,52.672761],[-4.047971,52.672736],[-4.047966,52.67271],[-4.047956,52.672681],[-4.047944,52.672651],[-4.047927,52.672618],[-4.047921,52.672589],[-4.047925,52.672564],[-4.047939,52.672542],[-4.047963,52.672523],[-4.047997,52.672509],[-4.048041,52.672497],[-4.048095,52.67249],[-4.048159,52.672485],[-4.048217,52.672487],[-4.048267,52.672495],[-4.048312,52.672509],[-4.048349,52.672528],[-4.048381,52.672554],[-4.048405,52.672585],[-4.048423,52.672623],[-4.048434,52.672666],[-4.048452,52.672705],[-4.048478,52.672738],[-4.04851,52.672767],[-4.048549,52.672791],[-4.048595,52.67281],[-4.048648,52.672824],[-4.048708,52.672833],[-4.048775,52.672837],[-4.048834,52.672836],[-4.048885,52.67283],[-4.048929,52.67282],[-4.048965,52.672804],[-4.048994,52.672784],[-4.049015,52.672758],[-4.049028,52.672728],[-4.049034,52.672693],[-4.04904,52.67266],[-4.049047,52.67263],[-4.049053,52.672602],[-4.049061,52.672576],[-4.049068,52.672552],[-4.049076,52.672531],[-4.049085,52.672512],[-4.049094,52.672496],[-4.049109,52.672484],[-4.049132,52.672478],[-4.049162,52.672476],[-4.049199,52.672479],[-4.049242,52.672488],[-4.049293,52.672501],[-4.049351,52.672519],[-4.049415,52.672543],[-4.049485,52.672569],[-4.04956,52.672597],[-4.049641,52.672627],[-4.049727,52.67266],[-4.049819,52.672695],[-4.049916,52.672733],[-4.050018,52.672772],[-4.050126,52.672815],[-4.050225,52.67285],[-4.050314,52.672877],[-4.050394,52.672898],[-4.050466,52.672911],[-4.050528,52.672917],[-4.05058,52.672915],[-4.050624,52.672906],[-4.050659,52.67289],[-4.050697,52.672878],[-4.050739,52.672871],[-4.050784,52.672869],[-4.050833,52.672871],[-4.050886,52.672877],[-4.050942,52.672888],[-4.051002,52.672903],[-4.051066,52.672923],[-4.051124,52.672938],[-4.051177,52.672948],[-4.051225,52.672954],[-4.051268,52.672954],[-4.051305,52.672949],[-4.051338,52.672939],[-4.051365,52.672924],[-4.051387,52.672904],[-4.051398,52.672884],[-4.051398,52.672865],[-4.051387,52.672845],[-4.051365,52.672825],[-4.051332,52.672805],[-4.051287,52.672786],[-4.051232,52.672766],[-4.051166,52.672746],[-4.051108,52.672726],[-4.051058,52.672706],[-4.051016,52.672685],[-4.050982,52.672664],[-4.050956,52.672643],[-4.050939,52.672622],[-4.050929,52.6726],[-4.050927,52.672577],[-4.05093,52.672556],[-4.050938,52.672537],[-4.050951,52.672518],[-4.050968,52.6725],[-4.05099,52.672484],[-4.051016,52.672469],[-4.051047,52.672455],[-4.051083,52.672442],[-4.05112,52.672432],[-4.05116,52.672425],[-4.051202,52.67242],[-4.051245,52.672418],[-4.051291,52.672419],[-4.051338,52.672423],[-4.051388,52.67243],[-4.051439,52.672439],[-4.051488,52.672444],[-4.051534,52.672443],[-4.051578,52.672438],[-4.051619,52.672428],[-4.051657,52.672413],[-4.051692,52.672394],[-4.051725,52.672369],[-4.051756,52.67234],[-4.051779,52.672309],[-4.051797,52.672276],[-4.051807,52.672242],[-4.051811,52.672206],[-4.051809,52.672169],[-4.0518,52.67213],[-4.051784,52.672089],[-4.051762,52.672047],[-4.051732,52.672009],[-4.051695,52.671976],[-4.05165,52.671947],[-4.051598,52.671922],[-4.051538,52.671902],[-4.051471,52.671885],[-4.051396,52.671874],[-4.051314,52.671866],[-4.051242,52.671856],[-4.051181,52.671844],[-4.051131,52.67183],[-4.051092,52.671813],[-4.051063,52.671794],[-4.051044,52.671772],[-4.051036,52.671749],[-4.051039,52.671722],[-4.051034,52.671699],[-4.051021,52.671679],[-4.051001,52.671662],[-4.050972,52.671649],[-4.050935,52.671638],[-4.050891,52.67163],[-4.050838,52.671626],[-4.050778,52.671624],[-4.050721,52.671626],[-4.050668,52.67163],[-4.050618,52.671638],[-4.050572,52.671649],[-4.050529,52.671662],[-4.050489,52.671679],[-4.050454,52.671699],[-4.050421,52.671722],[-4.050388,52.671741],[-4.050353,52.671755],[-4.050318,52.671766],[-4.050282,52.671773],[-4.050245,52.671776],[-4.050207,52.671775],[-4.050168,52.67177],[-4.050128,52.671761],[-4.050092,52.671749],[-4.050061,52.671734],[-4.050034,52.671715],[-4.050011,52.671694],[-4.049993,52.671669],[-4.049979,52.671642],[-4.049969,52.671611],[-4.049964,52.671577],[-4.04995,52.671545],[-4.049928,52.671514],[-4.049897,52.671484],[-4.049858,52.671456],[-4.049811,52.67143],[-4.049755,52.671405],[-4.049691,52.671381],[-4.049618,52.671358],[-4.049546,52.671339],[-4.049476,52.671324],[-4.049406,52.671311],[-4.049338,52.671302],[-4.04927,52.671296],[-4.049204,52.671294],[-4.049139,52.671295],[-4.049075,52.671299],[-4.04901,52.671302],[-4.048945,52.671305],[-4.04888,52.671307],[-4.048815,52.671307],[-4.04875,52.671308],[-4.048684,52.671307],[-4.048618,52.671305],[-4.048552,52.671303],[-4.04849,52.671303],[-4.048433,52.671306],[-4.04838,52.671313],[-4.048331,52.671322],[-4.048288,52.671334],[-4.048248,52.671349],[-4.048214,52.671367],[-4.048183,52.671388],[-4.048152,52.671404],[-4.048121,52.671416],[-4.048088,52.671424],[-4.048055,52.671427],[-4.048021,52.671425],[-4.047987,52.671419],[-4.047951,52.671409],[-4.047915,52.671395],[-4.047883,52.671385],[-4.047856,52.67138],[-4.047833,52.67138],[-4.047815,52.671385],[-4.047801,52.671394],[-4.047792,52.671409],[-4.047786,52.671428],[-4.047786,52.671452],[-4.047778,52.671476],[-4.047764,52.671499],[-4.047742,52.671522],[-4.047714,52.671544],[-4.047679,52.671566],[-4.047636,52.671587],[-4.047587,52.671608],[-4.047531,52.671629],[-4.047477,52.671653],[-4.047425,52.671683],[-4.047374,52.671716],[-4.047325,52.671754],[-4.047278,52.671796],[-4.047232,52.671842],[-4.047188,52.671892],[-4.047147,52.671947],[-4.047106,52.671998],[-4.047066,52.672043],[-4.047027,52.672084],[-4.046989,52.672121],[-4.046952,52.672152],[-4.046916,52.672179],[-4.04688,52.672202],[-4.046846,52.67222],[-4.046826,52.672213],[-4.046819,52.672183],[-4.046825,52.672129],[-4.046846,52.672051],[-4.046879,52.671949],[-4.046927,52.671823],[-4.046987,52.671673],[-4.047062,52.671499],[-4.047126,52.671344],[-4.047179,52.67121],[-4.047221,52.671096],[-4.047253,52.671002],[-4.047275,52.670928],[-4.047286,52.670874],[-4.047286,52.670839],[-4.047276,52.670825],[-4.04727,52.67081],[-4.047268,52.670794],[-4.047271,52.670778],[-4.047278,52.670761],[-4.04729,52.670743],[-4.047306,52.670724],[-4.047326,52.670705],[-4.047351,52.670684],[-4.047379,52.670662],[-4.047412,52.670637],[-4.047448,52.67061],[-4.047488,52.67058],[-4.047532,52.670548],[-4.04758,52.670513],[-4.047632,52.670476],[-4.047688,52.670437],[-4.047738,52.670398],[-4.047782,52.670359],[-4.047821,52.67032],[-4.047854,52.670282],[-4.047881,52.670244],[-4.047903,52.670206],[-4.047919,52.670168],[-4.04793,52.670131],[-4.047943,52.670098],[-4.047957,52.670069],[-4.047974,52.670044],[-4.047993,52.670024],[-4.048014,52.670008],[-4.048038,52.669996],[-4.048063,52.669989],[-4.04809,52.669985],[-4.048114,52.66998],[-4.048132,52.669973],[-4.048147,52.669963],[-4.048158,52.669952],[-4.048164,52.669938],[-4.048166,52.669922],[-4.048164,52.669904],[-4.048157,52.669885],[-4.048153,52.669866],[-4.048151,52.669848],[-4.048151,52.669832],[-4.048153,52.669817],[-4.048158,52.669804],[-4.048164,52.669791],[-4.048173,52.66978],[-4.048184,52.66977],[-4.048191,52.669756],[-4.048193,52.669736],[-4.048191,52.669711],[-4.048184,52.669682],[-4.048173,52.669648],[-4.048157,52.669609],[-4.048137,52.669565],[-4.048113,52.669516],[-4.048102,52.669477],[-4.048104,52.669446],[-4.048119,52.669425],[-4.048148,52.669413],[-4.04819,52.66941],[-4.048246,52.669417],[-4.048315,52.669432],[-4.048397,52.669457],[-4.048464,52.669484],[-4.048517,52.669515],[-4.048555,52.669548],[-4.048578,52.669584],[-4.048586,52.669622],[-4.04858,52.669664],[-4.048558,52.669709],[-4.048523,52.669756],[-4.048493,52.669801],[-4.04847,52.669842],[-4.048452,52.669882],[-4.048442,52.669918],[-4.048437,52.669952],[-4.048439,52.669983],[-4.048446,52.670012],[-4.048461,52.670038],[-4.048477,52.670058],[-4.048496,52.670074],[-4.048518,52.670084],[-4.048543,52.670089],[-4.04857,52.670088],[-4.048599,52.670083],[-4.048631,52.670072],[-4.048666,52.670056],[-4.0487,52.670044],[-4.048734,52.670037],[-4.048768,52.670034],[-4.048801,52.670037],[-4.048834,52.670043],[-4.048867,52.670054],[-4.0489,52.67007],[-4.048932,52.67009],[-4.048968,52.670103],[-4.049007,52.670108],[-4.04905,52.670106],[-4.049097,52.670096],[-4.049147,52.670079],[-4.049201,52.670054],[-4.049258,52.670021],[-4.049319,52.669981],[-4.049374,52.669942],[-4.049423,52.669902],[-4.049465,52.669863],[-4.0495,52.669825],[-4.04953,52.669786],[-4.049553,52.669748],[-4.04957,52.669711],[-4.049581,52.669673],[-4.049593,52.669638],[-4.049608,52.669605],[-4.049625,52.669574],[-4.049644,52.669545],[-4.049665,52.669518],[-4.049689,52.669493],[-4.049714,52.669471],[-4.049742,52.66945],[-4.049773,52.669424],[-4.049807,52.669392],[-4.049845,52.669355],[-4.049887,52.669312],[-4.049932,52.669264],[-4.049981,52.66921],[-4.050033,52.66915],[-4.050089,52.669085],[-4.050138,52.669024],[-4.050181,52.668968],[-4.050217,52.668915],[-4.050247,52.668867],[-4.05027,52.668823],[-4.050287,52.668783],[-4.050298,52.668747],[-4.050302,52.668716],[-4.050309,52.668685],[-4.050319,52.668657],[-4.050333,52.668629],[-4.05035,52.668603],[-4.050371,52.668578],[-4.050394,52.668555],[-4.050421,52.668533],[-4.050452,52.668512],[-4.050482,52.668488],[-4.050512,52.668463],[-4.050542,52.668434],[-4.050571,52.668403],[-4.050601,52.668369],[-4.050631,52.668333],[-4.05066,52.668294],[-4.050689,52.668253],[-4.050717,52.668218],[-4.050745,52.66819],[-4.050771,52.668168],[-4.050796,52.668153],[-4.05082,52.668145],[-4.050842,52.668143],[-4.050864,52.668148],[-4.050885,52.668159],[-4.050906,52.668164],[-4.050928,52.668162],[-4.05095,52.668154],[-4.050972,52.668139],[-4.050995,52.668118],[-4.051018,52.66809],[-4.051041,52.668056],[-4.051065,52.668016],[-4.05109,52.66798],[-4.051116,52.66795],[-4.051144,52.667925],[-4.051173,52.667905],[-4.051204,52.66789],[-4.051236,52.667881],[-4.051269,52.667877],[-4.051303,52.667878],[-4.051337,52.667874],[-4.051369,52.667866],[-4.0514,52.667853],[-4.05143,52.667836],[-4.051459,52.667814],[-4.051487,52.667788],[-4.051513,52.667757],[-4.051538,52.667721],[-4.051567,52.667685],[-4.051599,52.66765],[-4.051634,52.667615],[-4.051673,52.66758],[-4.051715,52.667546],[-4.05176,52.667512],[-4.051808,52.667478],[-4.05186,52.667444],[-4.051898,52.667408],[-4.051922,52.667371],[-4.051932,52.667331],[-4.051928,52.667289],[-4.051911,52.667245],[-4.05188,52.6672],[-4.051835,52.667152],[-4.051776,52.667102],[-4.051718,52.667061],[-4.051662,52.66703],[-4.051608,52.667007],[-4.051555,52.666994],[-4.051504,52.666989],[-4.051454,52.666994],[-4.051406,52.667007],[-4.051359,52.66703],[-4.051314,52.667046],[-4.05127,52.667056],[-4.051228,52.667059],[-4.051187,52.667055],[-4.051147,52.667045],[-4.051109,52.667028],[-4.051072,52.667004],[-4.051036,52.666974],[-4.050952,52.666935],[-4.050818,52.666888],[-4.050635,52.666832],[-4.050404,52.666767],[-4.050123,52.666694],[-4.049793,52.666612],[-4.049414,52.666522],[-4.048986,52.666423],[-4.048598,52.666337],[-4.048251,52.666265],[-4.047943,52.666205],[-4.047676,52.666158],[-4.047449,52.666125],[-4.047262,52.666104],[-4.047116,52.666097],[-4.04701,52.666103],[-4.046913,52.666111],[-4.046828,52.66612],[-4.046752,52.666132],[-4.046687,52.666146],[-4.046632,52.666162],[-4.046587,52.666179],[-4.046553,52.666199],[-4.046528,52.666221],[-4.046499,52.666239],[-4.046465,52.666254],[-4.046425,52.666266],[-4.046381,52.666273],[-4.046331,52.666278],[-4.046277,52.666279],[-4.046217,52.666276],[-4.046153,52.66627],[-4.046092,52.66626],[-4.046036,52.666245],[-4.045985,52.666227],[-4.045938,52.666204],[-4.045895,52.666177],[-4.045856,52.666146],[-4.045822,52.66611],[-4.045792,52.666071],[-4.045735,52.66604],[-4.045651,52.666017],[-4.045541,52.666003],[-4.045404,52.665997],[-4.04524,52.665999],[-4.045049,52.66601],[-4.044831,52.666028],[-4.044587,52.666056],[-4.044377,52.666089],[-4.044202,52.666129],[-4.044061,52.666175],[-4.043956,52.666227],[-4.043885,52.666285],[-4.043849,52.66635],[-4.043848,52.666421],[-4.043882,52.666498],[-4.043918,52.666564],[-4.043959,52.666619],[-4.044002,52.666664],[-4.044049,52.666698],[-4.044099,52.666721],[-4.044152,52.666734],[-4.044208,52.666736],[-4.044268,52.666727],[-4.044321,52.666725],[-4.044366,52.666728],[-4.044404,52.666738],[-4.044435,52.666754],[-4.044459,52.666777],[-4.044475,52.666805],[-4.044484,52.66684],[-4.044486,52.666881],[-4.044478,52.666924],[-4.04446,52.666967],[-4.044433,52.667013],[-4.044395,52.667059],[-4.044348,52.667107],[-4.044291,52.667157],[-4.044224,52.667208],[-4.044147,52.66726],[-4.04408,52.667309],[-4.044023,52.667355],[-4.043976,52.667398],[-4.043939,52.667437],[-4.043912,52.667474],[-4.043895,52.667507],[-4.043888,52.667537],[-4.043891,52.667565],[-4.043891,52.667589],[-4.043887,52.667609],[-4.043879,52.667627],[-4.043868,52.667641],[-4.043854,52.667652],[-4.043836,52.66766],[-4.043814,52.667664],[-4.043789,52.667665],[-4.043758,52.667672],[-4.043722,52.667684],[-4.04368,52.6677],[-4.043633,52.667722],[-4.043581,52.667749],[-4.043523,52.667782],[-4.04346,52.667819],[-4.043391,52.667862],[-4.043331,52.667903],[-4.04328,52.667944],[-4.043238,52.667983],[-4.043205,52.668021],[-4.043181,52.668059],[-4.043166,52.668095],[-4.04316,52.66813],[-4.043162,52.668164],[-4.043151,52.6682],[-4.043125,52.668238],[-4.043085,52.668277],[-4.043032,52.668317],[-4.042964,52.66836],[-4.042882,52.668404],[-4.042786,52.66845],[-4.042677,52.668497],[-4.042575,52.668555],[-4.042482,52.668623],[-4.042397,52.668701],[-4.04232,52.668789],[-4.042252,52.668888],[-4.042192,52.668996],[-4.04214,52.669115],[-4.042097,52.669244],[-4.042057,52.66936],[-4.04202,52.669462],[-4.041987,52.669551],[-4.041957,52.669626],[-4.041931,52.669687],[-4.041908,52.669735],[-4.041888,52.669769],[-4.041872,52.66979],[-4.041856,52.669811],[-4.041839,52.669832],[-4.041822,52.669853],[-4.041805,52.669874],[-4.041787,52.669895],[-4.041769,52.669916],[-4.041751,52.669937],[-4.041732,52.669958],[-4.04172,52.669979],[-4.041716,52.669999],[-4.041718,52.670019],[-4.041727,52.670039],[-4.041743,52.670058],[-4.041766,52.670077],[-4.041797,52.670095],[-4.041834,52.670113],[-4.041863,52.670132],[-4.041883,52.670151],[-4.041895,52.67017],[-4.041899,52.670191],[-4.041894,52.670211],[-4.041881,52.670233],[-4.04186,52.670255],[-4.04183,52.670277],[-4.04181,52.670301],[-4.041799,52.670327],[-4.041798,52.670355],[-4.041806,52.670384],[-4.041823,52.670415],[-4.04185,52.670447],[-4.041886,52.670481],[-4.041932,52.670517],[-4.041965,52.670548],[-4.041986,52.670573],[-4.041993,52.670593],[-4.041988,52.670607],[-4.04197,52.670616],[-4.041939,52.67062],[-4.041895,52.670618],[-4.041839,52.670611],[-4.041772,52.670608],[-4.041696,52.670608],[-4.041609,52.670612],[-4.041512,52.670621],[-4.041404,52.670632],[-4.041287,52.670648],[-4.04116,52.670668],[-4.041022,52.670691],[-4.040896,52.670706],[-4.040781,52.670713],[-4.040679,52.670712],[-4.040587,52.670703],[-4.040508,52.670686],[-4.04044,52.670661],[-4.040383,52.670628],[-4.040339,52.670587],[-4.040295,52.670552],[-4.040252,52.670523],[-4.040211,52.670501],[-4.04017,52.670486],[-4.04013,52.670476],[-4.040091,52.670473],[-4.040054,52.670476],[-4.040017,52.670486],[-4.039982,52.670493],[-4.039949,52.670497],[-4.039919,52.6705],[-4.03989,52.6705],[-4.039864,52.670497],[-4.03984,52.670492],[-4.039817,52.670485],[-4.039797,52.670476],[-4.039769,52.670473],[-4.039732,52.670477],[-4.039688,52.670488],[-4.039636,52.670507],[-4.039575,52.670532],[-4.039507,52.670564],[-4.03943,52.670603],[-4.039345,52.67065],[-4.039268,52.670695],[-4.039199,52.670741],[-4.039137,52.670785],[-4.039083,52.67083],[-4.039037,52.670873],[-4.038999,52.670917],[-4.038968,52.67096],[-4.038944,52.671002],[-4.038921,52.671044],[-4.038898,52.671087],[-4.038875,52.671129],[-4.038851,52.671171],[-4.038828,52.671214],[-4.038805,52.671256],[-4.038782,52.671298],[-4.038758,52.671341],[-4.038739,52.671381],[-4.038724,52.67142],[-4.038713,52.671456],[-4.038705,52.67149],[-4.038702,52.671523],[-4.038703,52.671553],[-4.038707,52.671582],[-4.038716,52.671608],[-4.038716,52.671645],[-4.038709,52.671692],[-4.038693,52.671749],[-4.03867,52.671817],[-4.038638,52.671894],[-4.038598,52.671982],[-4.03855,52.67208],[-4.038494,52.672188],[-4.038451,52.672288],[-4.038421,52.672378],[-4.038403,52.67246],[-4.038398,52.672533],[-4.038406,52.672597],[-4.038427,52.672652],[-4.038461,52.672698],[-4.038507,52.672736]]]}}