{"type":"Feature","properties":{"id":"263697","COMMUNE":"Scottish Borders","PROVINCE":"Scottish Borders","COUNTRY":"UK","FIREDATE":"2025-03-09 12:21:00","CLASS":"FireSeason","areaHA_geo":8.596},"geometry":{"type":"Polygon","coordinates":[[[-3.287202,55.569944],[-3.287346,55.57002],[-3.287541,55.569989],[-3.287787,55.569849],[-3.288086,55.569602],[-3.288327,55.569395],[-3.288511,55.569229],[-3.288637,55.569103],[-3.288707,55.569019],[-3.288736,55.568955],[-3.288727,55.568911],[-3.288677,55.568889],[-3.288589,55.568887],[-3.288494,55.568868],[-3.288393,55.568832],[-3.288287,55.568778],[-3.288175,55.568707],[-3.288139,55.56863],[-3.28818,55.568549],[-3.288297,55.568462],[-3.288491,55.568369],[-3.288667,55.568294],[-3.288823,55.568236],[-3.288962,55.568195],[-3.289081,55.568171],[-3.289193,55.568148],[-3.289298,55.568126],[-3.289396,55.568104],[-3.289487,55.568084],[-3.289578,55.568077],[-3.289669,55.568084],[-3.289759,55.568105],[-3.289849,55.56814],[-3.289964,55.568166],[-3.290102,55.568185],[-3.290265,55.568195],[-3.290452,55.568197],[-3.290595,55.568221],[-3.290694,55.568266],[-3.290748,55.568332],[-3.290758,55.56842],[-3.290781,55.568496],[-3.290818,55.568561],[-3.290868,55.568615],[-3.290932,55.568659],[-3.290983,55.568672],[-3.291022,55.568657],[-3.291049,55.568613],[-3.291063,55.56854],[-3.291091,55.56847],[-3.291133,55.568405],[-3.291188,55.568344],[-3.291257,55.568287],[-3.291351,55.568267],[-3.291469,55.568285],[-3.291613,55.56834],[-3.291782,55.568433],[-3.291885,55.568462],[-3.291922,55.568428],[-3.291894,55.56833],[-3.2918,55.568168],[-3.291747,55.568048],[-3.291735,55.567969],[-3.291764,55.567931],[-3.291834,55.567935],[-3.291903,55.567958],[-3.291971,55.568001],[-3.292039,55.568063],[-3.292105,55.568144],[-3.292162,55.568218],[-3.29221,55.568285],[-3.292247,55.568345],[-3.292275,55.568397],[-3.29234,55.568418],[-3.292444,55.568407],[-3.292587,55.568364],[-3.292767,55.56829],[-3.292866,55.56822],[-3.292883,55.568155],[-3.292818,55.568094],[-3.292672,55.568037],[-3.292539,55.567986],[-3.292421,55.567941],[-3.292317,55.567901],[-3.292227,55.567866],[-3.292169,55.567826],[-3.292144,55.567782],[-3.292152,55.567733],[-3.292192,55.567678],[-3.292245,55.567645],[-3.292309,55.567633],[-3.292386,55.567641],[-3.292474,55.567671],[-3.292558,55.567679],[-3.292636,55.567665],[-3.29271,55.567629],[-3.292779,55.567572],[-3.29282,55.567512],[-3.292833,55.56745],[-3.292818,55.567385],[-3.292776,55.567318],[-3.29271,55.567247],[-3.292622,55.567174],[-3.29251,55.567097],[-3.292375,55.567017],[-3.29221,55.566995],[-3.292016,55.567029],[-3.291793,55.56712],[-3.291539,55.567269],[-3.291314,55.567392],[-3.291117,55.567491],[-3.290948,55.567564],[-3.290808,55.567612],[-3.290662,55.567609],[-3.290512,55.567556],[-3.290356,55.567452],[-3.290196,55.567298],[-3.290038,55.567179],[-3.289883,55.567096],[-3.289729,55.567048],[-3.289578,55.567037],[-3.289435,55.567017],[-3.289298,55.56699],[-3.289169,55.566956],[-3.289046,55.566913],[-3.288942,55.566866],[-3.288856,55.566814],[-3.288788,55.566758],[-3.288738,55.566697],[-3.288722,55.566649],[-3.288739,55.566614],[-3.28879,55.566592],[-3.288876,55.566583],[-3.288951,55.566595],[-3.289017,55.56663],[-3.289072,55.566686],[-3.289119,55.566764],[-3.289185,55.566824],[-3.289272,55.566864],[-3.28938,55.566886],[-3.289509,55.566889],[-3.289542,55.566827],[-3.289479,55.566701],[-3.289322,55.56651],[-3.289068,55.566255],[-3.288802,55.566076],[-3.288522,55.565973],[-3.288228,55.565946],[-3.287922,55.565995],[-3.287671,55.566043],[-3.287477,55.566092],[-3.287339,55.566139],[-3.287257,55.566187],[-3.287187,55.566242],[-3.287131,55.566307],[-3.287087,55.566379],[-3.287055,55.56646],[-3.287025,55.566536],[-3.286995,55.566609],[-3.286967,55.566677],[-3.286939,55.56674],[-3.286896,55.5668],[-3.286837,55.566856],[-3.286761,55.566909],[-3.28667,55.566957],[-3.286576,55.567011],[-3.286478,55.567071],[-3.286378,55.567137],[-3.286275,55.567209],[-3.28618,55.567282],[-3.286092,55.567354],[-3.286011,55.567428],[-3.285938,55.567502],[-3.285873,55.567584],[-3.285815,55.567673],[-3.285764,55.56777],[-3.285721,55.567874],[-3.285714,55.567962],[-3.285743,55.568033],[-3.285809,55.568089],[-3.28591,55.568128],[-3.286001,55.568164],[-3.286081,55.568197],[-3.28615,55.568227],[-3.286208,55.568254],[-3.286255,55.568292],[-3.286291,55.56834],[-3.286316,55.5684],[-3.28633,55.56847],[-3.286364,55.568521],[-3.286419,55.568551],[-3.286493,55.568561],[-3.286588,55.568551],[-3.286655,55.568554],[-3.286694,55.568569],[-3.286706,55.568597],[-3.28669,55.568637],[-3.286655,55.568685],[-3.286601,55.568741],[-3.286526,55.568804],[-3.286433,55.568875],[-3.286371,55.568952],[-3.28634,55.569035],[-3.286341,55.569125],[-3.286374,55.569221],[-3.286446,55.569274],[-3.286557,55.569285],[-3.286708,55.569252],[-3.286898,55.569177],[-3.287027,55.569147],[-3.287096,55.569161],[-3.287104,55.569221],[-3.287052,55.569327],[-3.287035,55.569451],[-3.287055,55.569596],[-3.28711,55.56976],[-3.287202,55.569944]]]}}