{"type":"Feature","properties":{"id":"263652","COMMUNE":"Powys","PROVINCE":"Powys","COUNTRY":"UK","FIREDATE":"2025-03-19 11:47:00","CLASS":"FireSeason","areaHA_geo":0.402},"geometry":{"type":"Polygon","coordinates":[[[-3.176465,52.191387],[-3.176511,52.191299],[-3.176467,52.191218],[-3.176334,52.191143],[-3.17611,52.191074],[-3.175797,52.191012],[-3.175546,52.190976],[-3.175357,52.190967],[-3.175231,52.190985],[-3.175167,52.19103],[-3.175126,52.191088],[-3.175109,52.19116],[-3.175115,52.191245],[-3.175144,52.191342],[-3.175216,52.191409],[-3.17533,52.191445],[-3.175487,52.191451],[-3.175686,52.191425],[-3.175861,52.191414],[-3.176012,52.191418],[-3.176139,52.191436],[-3.176241,52.191469],[-3.17633,52.191471],[-3.176405,52.191444],[-3.176465,52.191387]]]}}