{"type":"Feature","properties":{"id":"263651","COMMUNE":"Powys","PROVINCE":"Powys","COUNTRY":"UK","FIREDATE":"2025-03-19 11:47:00","FINALDATE":"2025-03-19 11:47:00","CLASS":"FireSeason","areaHA_geo":2.491},"geometry":{"type":"Polygon","coordinates":[[[-3.17832,52.187408],[-3.178504,52.187452],[-3.17869,52.18745],[-3.178877,52.187402],[-3.179065,52.187308],[-3.179217,52.187211],[-3.179331,52.187109],[-3.179408,52.187004],[-3.179448,52.186896],[-3.179451,52.186801],[-3.179417,52.186722],[-3.179345,52.186656],[-3.179237,52.186605],[-3.179137,52.186556],[-3.179046,52.18651],[-3.178963,52.186465],[-3.178888,52.186423],[-3.178844,52.186383],[-3.17883,52.186345],[-3.178846,52.186309],[-3.178893,52.186276],[-3.179006,52.186253],[-3.179186,52.18624],[-3.179432,52.186239],[-3.179745,52.186248],[-3.179911,52.186204],[-3.179931,52.186107],[-3.179805,52.185957],[-3.179532,52.185754],[-3.179264,52.185597],[-3.179001,52.185486],[-3.178742,52.185421],[-3.178489,52.185402],[-3.178232,52.185419],[-3.177971,52.185472],[-3.177707,52.185561],[-3.17744,52.185685],[-3.177289,52.185821],[-3.177256,52.185967],[-3.177339,52.186123],[-3.177539,52.18629],[-3.177697,52.186443],[-3.177813,52.186582],[-3.177888,52.186706],[-3.177921,52.186816],[-3.177939,52.186911],[-3.177942,52.186991],[-3.177931,52.187057],[-3.177905,52.187107],[-3.177931,52.187167],[-3.178008,52.187238],[-3.178138,52.187318],[-3.17832,52.187408]]]}}