{"type":"Feature","properties":{"id":"263636","COMMUNE":"Powys","PROVINCE":"Powys","COUNTRY":"UK","FIREDATE":"2025-03-20 13:55:00","FINALDATE":"2025-03-20 13:55:00","CLASS":"FireSeason","areaHA_geo":1.414},"geometry":{"type":"Polygon","coordinates":[[[-3.227141,52.161436],[-3.227209,52.161409],[-3.227253,52.161377],[-3.227272,52.161339],[-3.227266,52.161295],[-3.227236,52.161245],[-3.227181,52.161189],[-3.227101,52.161128],[-3.226997,52.161061],[-3.226894,52.160998],[-3.226793,52.16094],[-3.226694,52.160887],[-3.226597,52.160838],[-3.226502,52.160794],[-3.226408,52.160754],[-3.226316,52.160719],[-3.226226,52.160689],[-3.226143,52.160659],[-3.226068,52.160629],[-3.226,52.160599],[-3.22594,52.160569],[-3.225887,52.160539],[-3.225842,52.160509],[-3.225805,52.160479],[-3.225775,52.160449],[-3.225741,52.16042],[-3.225702,52.160391],[-3.22566,52.160362],[-3.225613,52.160334],[-3.225562,52.160306],[-3.225507,52.160279],[-3.225447,52.160252],[-3.225384,52.160225],[-3.225318,52.160201],[-3.225251,52.160181],[-3.225181,52.160165],[-3.225109,52.160152],[-3.225036,52.160142],[-3.22496,52.160136],[-3.224883,52.160133],[-3.224804,52.160134],[-3.224733,52.160132],[-3.224672,52.160127],[-3.22462,52.16012],[-3.224578,52.16011],[-3.224544,52.160098],[-3.224519,52.160083],[-3.224504,52.160065],[-3.224498,52.160044],[-3.224504,52.160025],[-3.224523,52.160008],[-3.224553,52.159992],[-3.224596,52.159977],[-3.224651,52.159964],[-3.224719,52.159953],[-3.224799,52.159943],[-3.224891,52.159934],[-3.224963,52.159924],[-3.225014,52.159913],[-3.225045,52.159901],[-3.225056,52.159887],[-3.225047,52.159872],[-3.225017,52.159856],[-3.224967,52.159839],[-3.224897,52.15982],[-3.224829,52.159806],[-3.224763,52.159798],[-3.2247,52.159794],[-3.224639,52.159795],[-3.22458,52.159802],[-3.224523,52.159813],[-3.224469,52.15983],[-3.224417,52.159851],[-3.224371,52.159875],[-3.224331,52.1599],[-3.224298,52.159927],[-3.22427,52.159957],[-3.224249,52.159988],[-3.224235,52.160021],[-3.224226,52.160056],[-3.224224,52.160093],[-3.224232,52.160134],[-3.22425,52.160179],[-3.224279,52.160228],[-3.224318,52.160281],[-3.224368,52.160338],[-3.224428,52.160399],[-3.224498,52.160464],[-3.224579,52.160533],[-3.224673,52.160603],[-3.22478,52.160675],[-3.2249,52.160747],[-3.225033,52.16082],[-3.225179,52.160894],[-3.225339,52.160969],[-3.225511,52.161046],[-3.225697,52.161123],[-3.225865,52.161193],[-3.226016,52.161255],[-3.226149,52.16131],[-3.226266,52.161357],[-3.226365,52.161397],[-3.226446,52.161429],[-3.226511,52.161453],[-3.226558,52.16147],[-3.226611,52.161482],[-3.226669,52.161489],[-3.226734,52.161492],[-3.226804,52.16149],[-3.226879,52.161483],[-3.226961,52.161472],[-3.227048,52.161456],[-3.227141,52.161436]]]}}