{"type":"Feature","properties":{"id":"263656","COMMUNE":"Sheffield","PROVINCE":"Sheffield","COUNTRY":"UK","FIREDATE":"2025-03-21 01:17:00","FINALDATE":"2025-03-21 02:06:00","CLASS":"FireSeason","areaHA_geo":65.014},"geometry":{"type":"Polygon","coordinates":[[[-1.73404,53.437233],[-1.734229,53.437143],[-1.734366,53.436985],[-1.734451,53.43676],[-1.734484,53.436468],[-1.73455,53.436235],[-1.73465,53.436061],[-1.734782,53.435946],[-1.734948,53.43589],[-1.735108,53.435783],[-1.735264,53.435623],[-1.735414,53.435412],[-1.73556,53.435148],[-1.735648,53.434933],[-1.735678,53.434766],[-1.73565,53.434647],[-1.735563,53.434576],[-1.735553,53.434443],[-1.735617,53.434247],[-1.735757,53.433988],[-1.735973,53.433667],[-1.736154,53.433454],[-1.736301,53.433349],[-1.736414,53.433352],[-1.736492,53.433463],[-1.736623,53.433524],[-1.736807,53.433535],[-1.737044,53.433495],[-1.737333,53.433404],[-1.73755,53.433297],[-1.737696,53.433172],[-1.737771,53.43303],[-1.737775,53.432871],[-1.737828,53.432737],[-1.737931,53.432628],[-1.738084,53.432544],[-1.738286,53.432484],[-1.738441,53.432417],[-1.738549,53.432341],[-1.738609,53.432257],[-1.738621,53.432166],[-1.738669,53.432079],[-1.738751,53.431997],[-1.738868,53.431921],[-1.739019,53.431849],[-1.739133,53.431746],[-1.73921,53.431611],[-1.73925,53.431445],[-1.739252,53.431246],[-1.739299,53.431007],[-1.739393,53.430726],[-1.739532,53.430403],[-1.739716,53.43004],[-1.73978,53.429712],[-1.739723,53.429421],[-1.739545,53.429165],[-1.739246,53.428945],[-1.738919,53.428787],[-1.738564,53.428691],[-1.738181,53.428658],[-1.737771,53.428686],[-1.737427,53.428727],[-1.737152,53.428779],[-1.736943,53.428843],[-1.736803,53.428919],[-1.736653,53.428996],[-1.736493,53.429074],[-1.736325,53.429153],[-1.736147,53.429233],[-1.73599,53.429275],[-1.735853,53.42928],[-1.735737,53.429247],[-1.735642,53.429177],[-1.735508,53.429124],[-1.735336,53.429087],[-1.735125,53.429066],[-1.734877,53.429062],[-1.734661,53.429072],[-1.734477,53.429095],[-1.734325,53.429133],[-1.734206,53.429184],[-1.734095,53.42921],[-1.73399,53.429212],[-1.733894,53.429189],[-1.733804,53.429141],[-1.733708,53.42912],[-1.733605,53.429128],[-1.733496,53.429162],[-1.73338,53.429225],[-1.733241,53.429291],[-1.73308,53.42936],[-1.732895,53.429433],[-1.732688,53.42951],[-1.732549,53.429539],[-1.732477,53.429521],[-1.732473,53.429455],[-1.732537,53.429341],[-1.732635,53.429239],[-1.732767,53.42915],[-1.732934,53.429073],[-1.733134,53.429008],[-1.733275,53.428932],[-1.733356,53.428845],[-1.733376,53.428747],[-1.733336,53.428637],[-1.733208,53.428545],[-1.732992,53.42847],[-1.732688,53.428411],[-1.732296,53.42837],[-1.731935,53.428356],[-1.731606,53.428368],[-1.731307,53.428407],[-1.73104,53.428473],[-1.730831,53.428544],[-1.730681,53.428621],[-1.73059,53.428704],[-1.730557,53.428792],[-1.73052,53.428846],[-1.730478,53.428867],[-1.730432,53.428855],[-1.730381,53.428809],[-1.730311,53.428778],[-1.73022,53.428761],[-1.73011,53.428759],[-1.729981,53.428771],[-1.729846,53.428794],[-1.729708,53.428828],[-1.729566,53.428871],[-1.729419,53.428925],[-1.729295,53.42895],[-1.729194,53.428946],[-1.729115,53.428912],[-1.72906,53.42885],[-1.729065,53.428781],[-1.72913,53.428707],[-1.729255,53.428627],[-1.729441,53.428541],[-1.729587,53.42846],[-1.729695,53.428384],[-1.729763,53.428314],[-1.729793,53.428249],[-1.729764,53.428187],[-1.729676,53.428127],[-1.729529,53.428071],[-1.729324,53.428017],[-1.729033,53.428055],[-1.728655,53.428186],[-1.72819,53.428408],[-1.72764,53.428722],[-1.727158,53.428994],[-1.726746,53.429224],[-1.726403,53.429411],[-1.72613,53.429557],[-1.725814,53.42968],[-1.725456,53.42978],[-1.725056,53.429857],[-1.724614,53.429911],[-1.724335,53.429994],[-1.724218,53.430104],[-1.724264,53.430243],[-1.724472,53.430409],[-1.724645,53.430564],[-1.724785,53.430706],[-1.72489,53.430836],[-1.72496,53.430954],[-1.725051,53.431102],[-1.725163,53.431281],[-1.725295,53.43149],[-1.725447,53.43173],[-1.725587,53.431892],[-1.725715,53.431976],[-1.725831,53.431982],[-1.725934,53.431909],[-1.726008,53.431867],[-1.726052,53.431854],[-1.726066,53.431871],[-1.726051,53.431918],[-1.726044,53.431989],[-1.726047,53.432085],[-1.726059,53.432206],[-1.72608,53.432351],[-1.726147,53.432472],[-1.72626,53.432568],[-1.726418,53.432641],[-1.726621,53.432689],[-1.726782,53.432702],[-1.726899,53.432679],[-1.726974,53.432621],[-1.727005,53.432527],[-1.727046,53.432454],[-1.727098,53.4324],[-1.72716,53.432368],[-1.727233,53.432355],[-1.7273,53.432364],[-1.727361,53.432395],[-1.727416,53.432447],[-1.727465,53.432522],[-1.7275,53.432606],[-1.727522,53.4327],[-1.727529,53.432804],[-1.727523,53.432918],[-1.727484,53.433021],[-1.727415,53.433113],[-1.727313,53.433194],[-1.72718,53.433263],[-1.727089,53.433344],[-1.727038,53.433437],[-1.727029,53.433541],[-1.727061,53.433657],[-1.727087,53.433761],[-1.727108,53.433852],[-1.727123,53.433931],[-1.727132,53.433998],[-1.727171,53.434098],[-1.727241,53.43423],[-1.727341,53.434394],[-1.727472,53.434591],[-1.727603,53.43472],[-1.727734,53.434781],[-1.727865,53.434774],[-1.727997,53.434699],[-1.728107,53.434659],[-1.728197,53.434656],[-1.728266,53.434689],[-1.728313,53.434758],[-1.728328,53.434836],[-1.728309,53.434923],[-1.728257,53.435019],[-1.728172,53.435123],[-1.728097,53.435215],[-1.728034,53.435295],[-1.727981,53.435363],[-1.727939,53.435418],[-1.727917,53.435475],[-1.727914,53.435535],[-1.727932,53.435597],[-1.727969,53.435661],[-1.727974,53.435723],[-1.727947,53.435782],[-1.727889,53.435839],[-1.7278,53.435893],[-1.727712,53.435937],[-1.727626,53.435971],[-1.727542,53.435994],[-1.72746,53.436008],[-1.727313,53.436018],[-1.727101,53.436025],[-1.726823,53.436028],[-1.72648,53.436027],[-1.726223,53.436051],[-1.72605,53.436099],[-1.725963,53.436171],[-1.725961,53.436267],[-1.726007,53.436355],[-1.7261,53.436433],[-1.726241,53.436503],[-1.726429,53.436564],[-1.726626,53.436612],[-1.72683,53.436646],[-1.727043,53.436666],[-1.727264,53.436673],[-1.727436,53.436657],[-1.727558,53.43662],[-1.727632,53.43656],[-1.727657,53.436479],[-1.727715,53.436414],[-1.727807,53.436365],[-1.727931,53.436333],[-1.728089,53.436318],[-1.728232,53.436287],[-1.728362,53.43624],[-1.728478,53.436178],[-1.72858,53.4361],[-1.728692,53.436074],[-1.728813,53.436099],[-1.728944,53.436175],[-1.729084,53.436303],[-1.729244,53.436433],[-1.729423,53.436566],[-1.729623,53.436701],[-1.729842,53.436838],[-1.73004,53.436926],[-1.730217,53.436966],[-1.730374,53.436956],[-1.73051,53.436897],[-1.730711,53.436867],[-1.730977,53.436863],[-1.731307,53.436888],[-1.731702,53.43694],[-1.732008,53.436951],[-1.732223,53.436922],[-1.732349,53.436851],[-1.732385,53.43674],[-1.732437,53.436619],[-1.732505,53.436488],[-1.73259,53.436347],[-1.73269,53.436195],[-1.732764,53.436136],[-1.732811,53.436168],[-1.732831,53.436292],[-1.732825,53.436508],[-1.73283,53.436683],[-1.732849,53.436817],[-1.732879,53.43691],[-1.732922,53.436963],[-1.732983,53.437018],[-1.733061,53.437075],[-1.733156,53.437135],[-1.733268,53.437198],[-1.733413,53.437239],[-1.73359,53.437259],[-1.733799,53.437257],[-1.73404,53.437233]]]}}