{"type":"Feature","properties":{"id":"263665","COMMUNE":"High Peak","PROVINCE":"South and West Derbyshire","COUNTRY":"UK","FIREDATE":"2025-03-08 15:47:14.276","FINALDATE":"2025-03-09 15:47:25.253","CLASS":"FireSeason","areaHA_geo":6.125},"geometry":{"type":"Polygon","coordinates":[[[-1.832347,53.481365],[-1.832425,53.48142],[-1.832514,53.481458],[-1.832614,53.481478],[-1.832725,53.481481],[-1.832823,53.481472],[-1.832907,53.481451],[-1.832977,53.481419],[-1.833034,53.481375],[-1.833083,53.481347],[-1.833126,53.481335],[-1.833161,53.481338],[-1.83319,53.481357],[-1.833212,53.481389],[-1.83323,53.481434],[-1.833241,53.481492],[-1.833247,53.481562],[-1.833244,53.48163],[-1.833232,53.481694],[-1.833211,53.481755],[-1.833181,53.481812],[-1.833164,53.481866],[-1.83316,53.481915],[-1.833168,53.481961],[-1.833189,53.482003],[-1.833225,53.48201],[-1.833277,53.481981],[-1.833344,53.481918],[-1.833427,53.481819],[-1.833498,53.481713],[-1.833555,53.4816],[-1.833601,53.481478],[-1.833634,53.481349],[-1.833641,53.481244],[-1.833623,53.481162],[-1.833579,53.481105],[-1.83351,53.48107],[-1.833432,53.481045],[-1.833347,53.481029],[-1.833254,53.481022],[-1.833154,53.481023],[-1.833092,53.481016],[-1.833069,53.481001],[-1.833085,53.480977],[-1.833141,53.480944],[-1.833167,53.480908],[-1.833165,53.480868],[-1.833135,53.480825],[-1.833076,53.480779],[-1.833059,53.480736],[-1.833085,53.480695],[-1.833152,53.480657],[-1.833262,53.480622],[-1.833371,53.480621],[-1.83348,53.480656],[-1.833588,53.480725],[-1.833695,53.480829],[-1.833803,53.480931],[-1.833911,53.48103],[-1.83402,53.481126],[-1.834129,53.481219],[-1.834226,53.481267],[-1.834312,53.481269],[-1.834386,53.481226],[-1.834449,53.481138],[-1.834511,53.481063],[-1.834571,53.481001],[-1.834631,53.480952],[-1.83469,53.480916],[-1.834709,53.480877],[-1.834688,53.480834],[-1.834627,53.480787],[-1.834525,53.480737],[-1.834462,53.480684],[-1.834437,53.480629],[-1.834451,53.480572],[-1.834503,53.480512],[-1.834524,53.480447],[-1.834514,53.480377],[-1.834472,53.480302],[-1.834399,53.480221],[-1.834359,53.48016],[-1.834351,53.480117],[-1.834377,53.480092],[-1.834435,53.480087],[-1.834504,53.48012],[-1.834584,53.480193],[-1.834676,53.480305],[-1.834778,53.480456],[-1.834865,53.480562],[-1.834937,53.480622],[-1.834994,53.480636],[-1.835036,53.480605],[-1.835086,53.48058],[-1.835146,53.480562],[-1.835214,53.48055],[-1.835291,53.480545],[-1.835356,53.480521],[-1.835411,53.480478],[-1.835454,53.480415],[-1.835486,53.480332],[-1.835497,53.480267],[-1.835486,53.480221],[-1.835454,53.480192],[-1.8354,53.480181],[-1.835355,53.480165],[-1.83532,53.480145],[-1.835294,53.480121],[-1.835276,53.480093],[-1.83528,53.48006],[-1.835304,53.480022],[-1.835348,53.479979],[-1.835413,53.479932],[-1.835446,53.479882],[-1.835448,53.47983],[-1.835418,53.479776],[-1.835356,53.479719],[-1.835304,53.479692],[-1.835264,53.479694],[-1.835234,53.479727],[-1.835214,53.479789],[-1.835176,53.479836],[-1.835118,53.479869],[-1.835042,53.479888],[-1.834946,53.479892],[-1.834866,53.479844],[-1.834802,53.479745],[-1.834753,53.479595],[-1.834719,53.479393],[-1.83468,53.479232],[-1.834635,53.479112],[-1.834584,53.479033],[-1.834527,53.478995],[-1.834478,53.478943],[-1.834437,53.478879],[-1.834404,53.478802],[-1.834379,53.478711],[-1.834346,53.478634],[-1.834305,53.478571],[-1.834257,53.478522],[-1.834201,53.478487],[-1.834145,53.478433],[-1.83409,53.47836],[-1.834036,53.478269],[-1.833982,53.478159],[-1.833926,53.47809],[-1.833868,53.478062],[-1.833807,53.478074],[-1.833743,53.478127],[-1.833701,53.47818],[-1.833679,53.478234],[-1.833678,53.478289],[-1.833698,53.478345],[-1.833712,53.478392],[-1.833719,53.478433],[-1.833719,53.478466],[-1.833712,53.478491],[-1.833712,53.478528],[-1.833719,53.478576],[-1.833732,53.478637],[-1.833752,53.478708],[-1.833752,53.478779],[-1.833732,53.478848],[-1.833693,53.478915],[-1.833633,53.478981],[-1.833609,53.479036],[-1.833622,53.47908],[-1.83367,53.479113],[-1.833754,53.479135],[-1.833822,53.479162],[-1.833872,53.479194],[-1.833905,53.479231],[-1.833922,53.479273],[-1.833958,53.479308],[-1.834014,53.479337],[-1.834091,53.479359],[-1.834187,53.479374],[-1.834256,53.479403],[-1.834298,53.479447],[-1.834313,53.479505],[-1.834301,53.479577],[-1.834264,53.479636],[-1.8342,53.47968],[-1.834111,53.479711],[-1.833996,53.479728],[-1.83389,53.479734],[-1.833792,53.47973],[-1.833703,53.479716],[-1.833622,53.479691],[-1.833517,53.479689],[-1.833388,53.479712],[-1.833234,53.479757],[-1.833055,53.479827],[-1.832915,53.479891],[-1.832812,53.479951],[-1.832746,53.480005],[-1.832719,53.480054],[-1.832652,53.480087],[-1.832547,53.480105],[-1.832402,53.480106],[-1.832218,53.480091],[-1.832114,53.480075],[-1.832088,53.480057],[-1.832141,53.480037],[-1.832273,53.480016],[-1.832378,53.479984],[-1.832456,53.47994],[-1.832506,53.479886],[-1.832529,53.479821],[-1.832537,53.479747],[-1.83253,53.479663],[-1.832507,53.479569],[-1.832469,53.479466],[-1.832422,53.479384],[-1.832365,53.479322],[-1.8323,53.479282],[-1.832225,53.479262],[-1.832173,53.479261],[-1.832144,53.479281],[-1.832138,53.47932],[-1.832154,53.479378],[-1.832146,53.479423],[-1.832113,53.479453],[-1.832056,53.47947],[-1.831974,53.479472],[-1.831863,53.47948],[-1.831724,53.479494],[-1.831557,53.479513],[-1.831362,53.479538],[-1.831252,53.479531],[-1.831227,53.479492],[-1.831288,53.479422],[-1.831434,53.47932],[-1.831537,53.479237],[-1.831597,53.479172],[-1.831614,53.479126],[-1.831588,53.479099],[-1.831534,53.479088],[-1.83145,53.479093],[-1.831338,53.479115],[-1.831197,53.479154],[-1.831058,53.47918],[-1.830922,53.479195],[-1.830788,53.479198],[-1.830657,53.479189],[-1.830587,53.47917],[-1.830579,53.479142],[-1.830633,53.479105],[-1.830749,53.479058],[-1.830811,53.479015],[-1.830821,53.478976],[-1.830778,53.47894],[-1.830682,53.478909],[-1.830568,53.478904],[-1.830436,53.478927],[-1.830286,53.478976],[-1.830119,53.479053],[-1.83,53.479139],[-1.829928,53.479235],[-1.829903,53.479341],[-1.829926,53.479456],[-1.829924,53.479544],[-1.829897,53.479604],[-1.829845,53.479636],[-1.829769,53.479641],[-1.829726,53.479702],[-1.829717,53.479819],[-1.829743,53.479992],[-1.829802,53.480221],[-1.829866,53.480398],[-1.829932,53.480521],[-1.830003,53.480591],[-1.830076,53.480609],[-1.830145,53.480615],[-1.830208,53.48061],[-1.830266,53.480594],[-1.830318,53.480567],[-1.83037,53.480557],[-1.830422,53.480563],[-1.830475,53.480585],[-1.830527,53.480623],[-1.830593,53.480647],[-1.830674,53.480655],[-1.830769,53.480649],[-1.830878,53.480627],[-1.831018,53.480611],[-1.83119,53.480599],[-1.831393,53.480593],[-1.831627,53.480592],[-1.831817,53.480575],[-1.831962,53.480543],[-1.832063,53.480496],[-1.832119,53.480433],[-1.83217,53.480397],[-1.832215,53.480389],[-1.832256,53.480407],[-1.832292,53.480453],[-1.832309,53.480528],[-1.832306,53.480634],[-1.832284,53.480769],[-1.832243,53.480935],[-1.832229,53.481077],[-1.832241,53.481196],[-1.832281,53.481292],[-1.832347,53.481365]]]}}