{"type":"Feature","properties":{"id":"263666","COMMUNE":"Tameside","PROVINCE":"Greater Manchester South East","COUNTRY":"UK","FIREDATE":"2025-03-06 14:09:00","FINALDATE":"2025-03-06 14:09:00","CLASS":"FireSeason","areaHA_geo":6.671},"geometry":{"type":"Polygon","coordinates":[[[-2.01818,53.47473],[-2.018212,53.474765],[-2.01827,53.474787],[-2.018354,53.474797],[-2.018464,53.474793],[-2.018554,53.474776],[-2.018626,53.474746],[-2.018678,53.474702],[-2.018711,53.474645],[-2.018778,53.474591],[-2.018879,53.474541],[-2.019014,53.474494],[-2.019182,53.47445],[-2.019312,53.474399],[-2.019402,53.474341],[-2.019454,53.474276],[-2.019466,53.474204],[-2.019487,53.474145],[-2.019518,53.474099],[-2.019557,53.474067],[-2.019605,53.474047],[-2.01965,53.474016],[-2.019694,53.473974],[-2.019735,53.473921],[-2.019774,53.473856],[-2.019827,53.473798],[-2.019893,53.473749],[-2.019973,53.473708],[-2.020066,53.473674],[-2.020159,53.473625],[-2.020252,53.473561],[-2.020344,53.473481],[-2.020436,53.473386],[-2.020524,53.473295],[-2.020606,53.473207],[-2.020682,53.473123],[-2.020754,53.473043],[-2.020842,53.472952],[-2.020947,53.472851],[-2.021069,53.47274],[-2.021207,53.472619],[-2.021349,53.472498],[-2.021493,53.472377],[-2.021641,53.472257],[-2.021792,53.472136],[-2.021911,53.47207],[-2.021998,53.472058],[-2.022053,53.472099],[-2.022076,53.472195],[-2.022077,53.472288],[-2.022058,53.472378],[-2.022017,53.472465],[-2.021954,53.472549],[-2.02191,53.472627],[-2.021883,53.472698],[-2.021873,53.472763],[-2.021882,53.47282],[-2.021898,53.472863],[-2.021922,53.472892],[-2.021955,53.472905],[-2.021996,53.472903],[-2.022043,53.472898],[-2.022096,53.472891],[-2.022156,53.47288],[-2.022221,53.472866],[-2.022267,53.472871],[-2.022293,53.472896],[-2.022298,53.472939],[-2.022283,53.473002],[-2.022253,53.473063],[-2.022209,53.473124],[-2.022149,53.473184],[-2.022076,53.473242],[-2.021988,53.473311],[-2.021887,53.473389],[-2.021773,53.473478],[-2.021644,53.473576],[-2.021538,53.473663],[-2.021455,53.473739],[-2.021394,53.473803],[-2.021356,53.473856],[-2.021315,53.473924],[-2.021273,53.474007],[-2.02123,53.474106],[-2.021184,53.474221],[-2.021165,53.474313],[-2.021173,53.474383],[-2.021207,53.474431],[-2.021268,53.474457],[-2.021284,53.4745],[-2.021256,53.47456],[-2.021183,53.474638],[-2.021066,53.474733],[-2.021023,53.474788],[-2.021052,53.474805],[-2.021155,53.474782],[-2.02133,53.474721],[-2.021524,53.474609],[-2.021735,53.474448],[-2.021964,53.474236],[-2.02221,53.473974],[-2.022395,53.473763],[-2.022518,53.473603],[-2.022579,53.473494],[-2.022579,53.473435],[-2.022583,53.473374],[-2.022592,53.473311],[-2.022605,53.473246],[-2.022623,53.473178],[-2.022643,53.473107],[-2.022665,53.473034],[-2.02269,53.472959],[-2.022717,53.47288],[-2.022731,53.472801],[-2.022731,53.472722],[-2.022717,53.472642],[-2.02269,53.472561],[-2.022682,53.472484],[-2.022694,53.472409],[-2.022725,53.472338],[-2.022776,53.472269],[-2.022802,53.472182],[-2.022805,53.472077],[-2.022784,53.471953],[-2.02274,53.471811],[-2.02269,53.471701],[-2.022635,53.471623],[-2.022575,53.471578],[-2.022509,53.471565],[-2.022449,53.471545],[-2.022394,53.471519],[-2.022345,53.471486],[-2.022301,53.471446],[-2.022258,53.471405],[-2.022217,53.471363],[-2.022178,53.471319],[-2.022141,53.471274],[-2.022093,53.471242],[-2.022037,53.471223],[-2.02197,53.471218],[-2.021894,53.471225],[-2.021822,53.471226],[-2.021752,53.471219],[-2.021685,53.471206],[-2.021622,53.471185],[-2.021567,53.471178],[-2.021522,53.471184],[-2.021485,53.471203],[-2.021457,53.471235],[-2.021429,53.471264],[-2.021402,53.471292],[-2.021375,53.471316],[-2.021349,53.471338],[-2.021305,53.471349],[-2.021245,53.471348],[-2.021169,53.471334],[-2.021075,53.47131],[-2.020985,53.471285],[-2.020898,53.471261],[-2.020814,53.471237],[-2.020733,53.471213],[-2.020674,53.471188],[-2.020638,53.471161],[-2.020624,53.471132],[-2.020632,53.471102],[-2.020655,53.471072],[-2.020693,53.471041],[-2.020747,53.47101],[-2.020816,53.470978],[-2.020867,53.470947],[-2.020899,53.470916],[-2.020913,53.470885],[-2.020908,53.470853],[-2.020852,53.470824],[-2.020743,53.470797],[-2.020583,53.470772],[-2.020371,53.470749],[-2.020187,53.470771],[-2.020031,53.470836],[-2.019902,53.470946],[-2.019802,53.4711],[-2.019706,53.47126],[-2.019613,53.471424],[-2.019523,53.471594],[-2.019437,53.471769],[-2.019349,53.471929],[-2.019259,53.472075],[-2.019167,53.472206],[-2.019073,53.472323],[-2.01905,53.472396],[-2.019099,53.472424],[-2.01922,53.472408],[-2.019413,53.472347],[-2.019527,53.472327],[-2.019564,53.472348],[-2.019523,53.472409],[-2.019404,53.472511],[-2.019313,53.472615],[-2.019251,53.472721],[-2.019216,53.472827],[-2.01921,53.472935],[-2.019174,53.47303],[-2.019109,53.473111],[-2.019014,53.473179],[-2.018889,53.473233],[-2.018765,53.473302],[-2.018642,53.473388],[-2.018518,53.47349],[-2.018395,53.473607],[-2.01832,53.473701],[-2.018293,53.473772],[-2.018314,53.47382],[-2.018383,53.473845],[-2.018415,53.473909],[-2.018409,53.474013],[-2.018366,53.474155],[-2.018286,53.474336],[-2.018228,53.474485],[-2.018191,53.4746],[-2.018175,53.474681],[-2.01818,53.47473]]]}}