{"type":"Feature","properties":{"id":"263695","COMMUNE":"Scottish Borders","PROVINCE":"Scottish Borders","COUNTRY":"UK","FIREDATE":"2025-03-19 12:12:00","CLASS":"FireSeason","areaHA_geo":0.336},"geometry":{"type":"Polygon","coordinates":[[[-3.274432,55.571206],[-3.274591,55.57104],[-3.274727,55.570936],[-3.27484,55.570893],[-3.27493,55.570913],[-3.274997,55.570994],[-3.275076,55.571039],[-3.275166,55.571046],[-3.275269,55.571015],[-3.275383,55.570948],[-3.275448,55.570894],[-3.275464,55.570854],[-3.27543,55.570827],[-3.275347,55.570814],[-3.27528,55.570781],[-3.275228,55.570728],[-3.275191,55.570656],[-3.27517,55.570564],[-3.275088,55.570524],[-3.274945,55.570537],[-3.274741,55.570601],[-3.274477,55.570717],[-3.274285,55.57084],[-3.274167,55.570969],[-3.274122,55.571103],[-3.27415,55.571244],[-3.274211,55.571308],[-3.274305,55.571296],[-3.274432,55.571206]]]}}