{"type":"Feature","properties":{"id":"263698","COMMUNE":"Scottish Borders","PROVINCE":"Scottish Borders","COUNTRY":"UK","FIREDATE":"2025-03-09 11:57:00","CLASS":"FireSeason","areaHA_geo":35.263},"geometry":{"type":"Polygon","coordinates":[[[-3.295902,55.567114],[-3.296068,55.567112],[-3.296213,55.567077],[-3.296337,55.56701],[-3.296441,55.566911],[-3.296529,55.566846],[-3.296602,55.566816],[-3.29666,55.566821],[-3.296703,55.566861],[-3.296769,55.566888],[-3.296857,55.566904],[-3.296969,55.566907],[-3.297103,55.566898],[-3.297217,55.56688],[-3.29731,55.56685],[-3.297382,55.566811],[-3.297434,55.566761],[-3.29754,55.566721],[-3.297701,55.56669],[-3.297917,55.566668],[-3.298187,55.566656],[-3.298405,55.566662],[-3.29857,55.566686],[-3.298682,55.566728],[-3.298742,55.566789],[-3.298825,55.566831],[-3.298931,55.566856],[-3.299061,55.566863],[-3.299214,55.566852],[-3.299362,55.56684],[-3.299505,55.566828],[-3.299643,55.566815],[-3.299775,55.566801],[-3.299894,55.56681],[-3.299998,55.566844],[-3.300088,55.5669],[-3.300165,55.566981],[-3.300241,55.567027],[-3.300319,55.567038],[-3.300397,55.567014],[-3.300475,55.566956],[-3.300544,55.566935],[-3.300603,55.566951],[-3.300653,55.567004],[-3.300693,55.567094],[-3.300742,55.567158],[-3.300799,55.567196],[-3.300864,55.567208],[-3.300938,55.567195],[-3.301031,55.567159],[-3.301144,55.5671],[-3.301275,55.567018],[-3.301426,55.566914],[-3.301571,55.566843],[-3.30171,55.566806],[-3.301844,55.566803],[-3.301972,55.566834],[-3.302121,55.566846],[-3.30229,55.566839],[-3.30248,55.566813],[-3.30269,55.566769],[-3.302873,55.566716],[-3.303029,55.566655],[-3.303157,55.566586],[-3.303259,55.566509],[-3.303383,55.56647],[-3.303529,55.566468],[-3.303698,55.566504],[-3.30389,55.566578],[-3.304071,55.566629],[-3.304243,55.566658],[-3.304404,55.566665],[-3.304556,55.566648],[-3.304674,55.566657],[-3.304758,55.566689],[-3.304809,55.566746],[-3.304827,55.566827],[-3.304878,55.566876],[-3.304962,55.566892],[-3.305079,55.566875],[-3.305229,55.566826],[-3.305332,55.56677],[-3.305389,55.566705],[-3.305399,55.566634],[-3.305362,55.566555],[-3.30539,55.566465],[-3.305483,55.566363],[-3.305641,55.566251],[-3.305864,55.566128],[-3.306068,55.566021],[-3.306252,55.565929],[-3.306418,55.565854],[-3.306564,55.565794],[-3.30664,55.565707],[-3.306645,55.565593],[-3.30658,55.565452],[-3.306445,55.565283],[-3.306333,55.56515],[-3.306246,55.565051],[-3.306182,55.564988],[-3.306143,55.564958],[-3.306051,55.564889],[-3.305906,55.56478],[-3.305709,55.564631],[-3.305458,55.564442],[-3.305235,55.564312],[-3.30504,55.564241],[-3.304872,55.56423],[-3.304731,55.564278],[-3.304623,55.564292],[-3.304548,55.564273],[-3.304505,55.564219],[-3.304495,55.564132],[-3.304531,55.564041],[-3.304611,55.563946],[-3.304737,55.563849],[-3.304909,55.563747],[-3.305028,55.563643],[-3.305095,55.563537],[-3.305109,55.563427],[-3.305071,55.563315],[-3.305045,55.563218],[-3.305032,55.563137],[-3.305032,55.56307],[-3.305044,55.563019],[-3.305005,55.562968],[-3.304914,55.562917],[-3.304771,55.562865],[-3.304577,55.562814],[-3.304403,55.562783],[-3.304247,55.562772],[-3.30411,55.562781],[-3.303993,55.56281],[-3.303855,55.562815],[-3.303696,55.562795],[-3.303518,55.562752],[-3.303318,55.562685],[-3.3031,55.562655],[-3.302863,55.562664],[-3.302607,55.56271],[-3.302331,55.562795],[-3.302093,55.562808],[-3.301892,55.562749],[-3.301728,55.562618],[-3.3016,55.562416],[-3.301479,55.562263],[-3.301366,55.562158],[-3.301259,55.562103],[-3.301159,55.562097],[-3.301054,55.562063],[-3.300944,55.562],[-3.30083,55.561908],[-3.300711,55.561788],[-3.300575,55.561662],[-3.300423,55.561532],[-3.300255,55.561396],[-3.30007,55.561255],[-3.299885,55.56115],[-3.299699,55.561082],[-3.299514,55.561049],[-3.299329,55.561052],[-3.299143,55.56106],[-3.298957,55.561074],[-3.29877,55.561094],[-3.298583,55.56112],[-3.298398,55.561153],[-3.298216,55.561194],[-3.298037,55.561244],[-3.29786,55.561301],[-3.297711,55.561382],[-3.29759,55.561486],[-3.297496,55.561614],[-3.29743,55.561765],[-3.29735,55.561882],[-3.297256,55.561967],[-3.297148,55.562019],[-3.297027,55.562037],[-3.296934,55.56208],[-3.296869,55.562148],[-3.296831,55.56224],[-3.296822,55.562357],[-3.296832,55.562474],[-3.296862,55.56259],[-3.296911,55.562705],[-3.296979,55.562819],[-3.297042,55.56289],[-3.2971,55.562917],[-3.297153,55.562901],[-3.297202,55.56284],[-3.297258,55.562834],[-3.297324,55.562883],[-3.297398,55.562985],[-3.297481,55.563143],[-3.29756,55.563277],[-3.297637,55.563388],[-3.297711,55.563475],[-3.297782,55.56354],[-3.297856,55.563606],[-3.297933,55.563676],[-3.298014,55.563747],[-3.298098,55.563822],[-3.298179,55.563903],[-3.298258,55.563991],[-3.298335,55.564087],[-3.298409,55.56419],[-3.298478,55.564225],[-3.29854,55.564194],[-3.298597,55.564095],[-3.298649,55.563929],[-3.298699,55.56381],[-3.298749,55.563739],[-3.298797,55.563714],[-3.298844,55.563737],[-3.298909,55.563813],[-3.298992,55.563943],[-3.299093,55.564126],[-3.299212,55.564362],[-3.299318,55.564579],[-3.299409,55.564777],[-3.299487,55.564955],[-3.299551,55.565115],[-3.299579,55.565242],[-3.299572,55.565337],[-3.29953,55.565399],[-3.299452,55.56543],[-3.299376,55.565467],[-3.299303,55.56551],[-3.299232,55.565561],[-3.299163,55.565618],[-3.299108,55.565679],[-3.299066,55.565744],[-3.299038,55.565814],[-3.299024,55.565887],[-3.298968,55.565923],[-3.29887,55.565923],[-3.298729,55.565885],[-3.298547,55.56581],[-3.298411,55.565733],[-3.29832,55.565655],[-3.298276,55.565573],[-3.298277,55.56549],[-3.298229,55.565421],[-3.298131,55.565365],[-3.297985,55.565322],[-3.297789,55.565293],[-3.297639,55.565294],[-3.297537,55.565324],[-3.297481,55.565384],[-3.297472,55.565473],[-3.297426,55.56554],[-3.297344,55.565585],[-3.297224,55.565607],[-3.297067,55.565607],[-3.29696,55.565574],[-3.296904,55.565509],[-3.296897,55.56541],[-3.29694,55.565278],[-3.296929,55.565185],[-3.296861,55.565131],[-3.296739,55.565116],[-3.296561,55.565141],[-3.296415,55.565152],[-3.296302,55.56515],[-3.296221,55.565135],[-3.296172,55.565107],[-3.296155,55.565064],[-3.296169,55.565004],[-3.296214,55.564929],[-3.296291,55.564837],[-3.296372,55.564771],[-3.296455,55.564729],[-3.296542,55.564711],[-3.296633,55.564718],[-3.296735,55.564721],[-3.296847,55.56472],[-3.29697,55.564716],[-3.297105,55.564707],[-3.297201,55.564687],[-3.297259,55.564656],[-3.297279,55.564614],[-3.297261,55.56456],[-3.297189,55.5645],[-3.297063,55.564433],[-3.296884,55.56436],[-3.296651,55.564279],[-3.29648,55.564202],[-3.296371,55.564128],[-3.296325,55.564056],[-3.296341,55.563988],[-3.296346,55.563916],[-3.29634,55.563839],[-3.296322,55.563758],[-3.296293,55.563672],[-3.296278,55.563599],[-3.296277,55.563538],[-3.29629,55.56349],[-3.296317,55.563454],[-3.296339,55.563388],[-3.296355,55.563292],[-3.296367,55.563167],[-3.296373,55.563011],[-3.296297,55.562861],[-3.296141,55.562717],[-3.295903,55.562579],[-3.295583,55.562447],[-3.295324,55.562354],[-3.295125,55.562301],[-3.294985,55.562286],[-3.294905,55.562311],[-3.294803,55.562326],[-3.294677,55.562331],[-3.294528,55.562326],[-3.294357,55.562311],[-3.294223,55.562316],[-3.294128,55.56234],[-3.294072,55.562383],[-3.294054,55.562446],[-3.294014,55.562522],[-3.293951,55.562612],[-3.293866,55.562715],[-3.293759,55.562831],[-3.293657,55.562928],[-3.29356,55.563004],[-3.293469,55.563061],[-3.293383,55.563098],[-3.293291,55.563151],[-3.293192,55.563219],[-3.293086,55.563304],[-3.292973,55.563404],[-3.292867,55.563503],[-3.292767,55.563599],[-3.292674,55.563693],[-3.292588,55.563785],[-3.292581,55.563866],[-3.292653,55.563936],[-3.292806,55.563995],[-3.293037,55.564042],[-3.293248,55.564086],[-3.293438,55.564127],[-3.293608,55.564164],[-3.293757,55.564198],[-3.293898,55.56424],[-3.294033,55.564289],[-3.29416,55.564347],[-3.29428,55.564411],[-3.294395,55.564471],[-3.294507,55.564526],[-3.294615,55.564575],[-3.294718,55.564619],[-3.294811,55.564669],[-3.294893,55.564724],[-3.294965,55.564784],[-3.295026,55.56485],[-3.295044,55.564917],[-3.295019,55.564986],[-3.294949,55.565057],[-3.294837,55.56513],[-3.294695,55.565167],[-3.294524,55.565168],[-3.294324,55.565134],[-3.294094,55.565064],[-3.293894,55.565029],[-3.293722,55.565028],[-3.293579,55.565061],[-3.293464,55.565128],[-3.293331,55.565191],[-3.293179,55.565249],[-3.293008,55.565301],[-3.292819,55.565349],[-3.292681,55.565406],[-3.292596,55.565473],[-3.292564,55.56555],[-3.292583,55.565637],[-3.292592,55.565715],[-3.292591,55.565784],[-3.29258,55.565845],[-3.292559,55.565897],[-3.292544,55.565955],[-3.292536,55.566019],[-3.292536,55.56609],[-3.292542,55.566167],[-3.292579,55.566232],[-3.292646,55.566286],[-3.292744,55.566328],[-3.292872,55.566359],[-3.293016,55.566393],[-3.293176,55.566432],[-3.293352,55.566474],[-3.293544,55.56652],[-3.293717,55.566552],[-3.293869,55.566569],[-3.294003,55.566571],[-3.294116,55.566559],[-3.294206,55.566563],[-3.294272,55.566584],[-3.294314,55.566621],[-3.294332,55.566675],[-3.294368,55.566715],[-3.294421,55.566743],[-3.294492,55.566757],[-3.294581,55.566759],[-3.294666,55.56675],[-3.294748,55.56673],[-3.294825,55.5667],[-3.2949,55.566659],[-3.294982,55.566655],[-3.295072,55.56669],[-3.29517,55.566763],[-3.295276,55.566873],[-3.295403,55.566964],[-3.295549,55.567034],[-3.295715,55.567084],[-3.295902,55.567114]]]}}