{"type":"Feature","properties":{"id":"263696","COMMUNE":"Scottish Borders","PROVINCE":"Scottish Borders","COUNTRY":"UK","FIREDATE":"2025-03-19 12:12:00","CLASS":"FireSeason","areaHA_geo":0.467},"geometry":{"type":"Polygon","coordinates":[[[-3.273484,55.570493],[-3.273603,55.57054],[-3.273708,55.570532],[-3.273799,55.570468],[-3.273877,55.570349],[-3.273947,55.570216],[-3.274009,55.570068],[-3.274065,55.569906],[-3.274113,55.569729],[-3.27415,55.569594],[-3.274177,55.5695],[-3.274194,55.569447],[-3.274199,55.569435],[-3.274159,55.569453],[-3.274072,55.569501],[-3.273939,55.569579],[-3.27376,55.569686],[-3.273618,55.569758],[-3.273512,55.569794],[-3.273444,55.569795],[-3.273412,55.569759],[-3.273364,55.569746],[-3.273298,55.569756],[-3.273216,55.569788],[-3.273117,55.569843],[-3.273054,55.569904],[-3.273028,55.56997],[-3.273038,55.570042],[-3.273084,55.57012],[-3.273151,55.570205],[-3.273241,55.570295],[-3.273352,55.570391],[-3.273484,55.570493]]]}}