{"type":"Feature","properties":{"id":"263663","COMMUNE":"High Peak","PROVINCE":"South and West Derbyshire","COUNTRY":"UK","FIREDATE":"2025-03-06 01:00:00","FINALDATE":"2025-03-06 10:06:00","CLASS":"FireSeason","areaHA_geo":197.182},"geometry":{"type":"Polygon","coordinates":[[[-1.849545,53.521086],[-1.849897,53.520982],[-1.850166,53.520873],[-1.850354,53.520759],[-1.850459,53.52064],[-1.850483,53.520516],[-1.850553,53.520387],[-1.850669,53.520254],[-1.850832,53.520116],[-1.851041,53.519974],[-1.851174,53.519811],[-1.851233,53.519627],[-1.851215,53.519422],[-1.851123,53.519197],[-1.850974,53.519007],[-1.85077,53.518853],[-1.85051,53.518736],[-1.850194,53.518654],[-1.850081,53.51855],[-1.85017,53.518423],[-1.850461,53.518275],[-1.850955,53.518105],[-1.851398,53.517688],[-1.851789,53.517024],[-1.85213,53.516112],[-1.852419,53.514954],[-1.85263,53.514012],[-1.852763,53.513286],[-1.852818,53.512776],[-1.852794,53.512483],[-1.852829,53.51206],[-1.852922,53.511508],[-1.853075,53.510826],[-1.853286,53.510014],[-1.853349,53.509404],[-1.853263,53.508995],[-1.853029,53.508787],[-1.852647,53.508782],[-1.852316,53.508814],[-1.852036,53.508885],[-1.851807,53.508995],[-1.851629,53.509142],[-1.851476,53.509236],[-1.851347,53.509274],[-1.851244,53.509258],[-1.851166,53.509188],[-1.851107,53.509083],[-1.851068,53.508943],[-1.851048,53.508769],[-1.851048,53.508561],[-1.850961,53.50833],[-1.850788,53.508078],[-1.850528,53.507803],[-1.850182,53.507507],[-1.849838,53.507234],[-1.849497,53.506985],[-1.849159,53.50676],[-1.848825,53.506558],[-1.848395,53.506396],[-1.84787,53.506274],[-1.847251,53.506191],[-1.846536,53.506148],[-1.845958,53.506136],[-1.845517,53.506153],[-1.845212,53.5062],[-1.845043,53.506278],[-1.844893,53.506379],[-1.84476,53.506506],[-1.844645,53.506656],[-1.844547,53.506831],[-1.844478,53.507003],[-1.844438,53.507172],[-1.844426,53.507338],[-1.844443,53.507501],[-1.844396,53.507597],[-1.844287,53.507625],[-1.844115,53.507586],[-1.84388,53.507478],[-1.84369,53.507441],[-1.843545,53.507472],[-1.843446,53.507573],[-1.843391,53.507744],[-1.843312,53.507815],[-1.843209,53.507786],[-1.843081,53.507657],[-1.842929,53.507428],[-1.842752,53.507305],[-1.842549,53.507285],[-1.842321,53.507371],[-1.842067,53.507561],[-1.841847,53.507665],[-1.841662,53.507683],[-1.841511,53.507616],[-1.841395,53.507462],[-1.841255,53.507289],[-1.841091,53.507096],[-1.840903,53.506884],[-1.840692,53.506653],[-1.840531,53.506456],[-1.840419,53.506293],[-1.840357,53.506164],[-1.840346,53.50607],[-1.840204,53.505995],[-1.839932,53.505939],[-1.83953,53.505902],[-1.838999,53.505885],[-1.838572,53.50589],[-1.83825,53.505917],[-1.838034,53.505966],[-1.837922,53.506038],[-1.837795,53.506055],[-1.837653,53.506017],[-1.837495,53.505924],[-1.837322,53.505776],[-1.837087,53.505681],[-1.83679,53.505641],[-1.836431,53.505654],[-1.836011,53.505722],[-1.835557,53.505797],[-1.835068,53.505879],[-1.834544,53.50597],[-1.833986,53.506068],[-1.833557,53.506169],[-1.833257,53.506272],[-1.833085,53.506378],[-1.833043,53.506487],[-1.833012,53.5066],[-1.832995,53.50672],[-1.832989,53.506844],[-1.832996,53.506974],[-1.832971,53.507119],[-1.832914,53.507282],[-1.832825,53.50746],[-1.832704,53.507654],[-1.832579,53.507847],[-1.832449,53.508038],[-1.832316,53.508227],[-1.832178,53.508414],[-1.832063,53.508604],[-1.83197,53.508795],[-1.8319,53.508989],[-1.831853,53.509185],[-1.831868,53.509331],[-1.831946,53.509428],[-1.832088,53.509475],[-1.832292,53.509472],[-1.832483,53.509464],[-1.832663,53.509451],[-1.832829,53.509432],[-1.832984,53.509409],[-1.833135,53.5094],[-1.833284,53.509407],[-1.833429,53.50943],[-1.833571,53.509468],[-1.833628,53.509513],[-1.833598,53.509563],[-1.833482,53.50962],[-1.83328,53.509684],[-1.833093,53.509746],[-1.83292,53.509806],[-1.832761,53.509865],[-1.832616,53.509923],[-1.832483,53.509999],[-1.832363,53.510093],[-1.832256,53.510206],[-1.832161,53.510337],[-1.832072,53.510489],[-1.831989,53.510662],[-1.831912,53.510857],[-1.83184,53.511072],[-1.831784,53.511291],[-1.831744,53.511512],[-1.831719,53.511736],[-1.831709,53.511963],[-1.831665,53.512169],[-1.831585,53.512355],[-1.831471,53.512521],[-1.831321,53.512666],[-1.831192,53.512792],[-1.831082,53.512898],[-1.830993,53.512985],[-1.830925,53.513053],[-1.830864,53.51315],[-1.830812,53.513277],[-1.830768,53.513433],[-1.830732,53.513619],[-1.830648,53.513749],[-1.830515,53.513823],[-1.830333,53.513841],[-1.830103,53.513802],[-1.829788,53.513801],[-1.829388,53.513836],[-1.828903,53.513907],[-1.828333,53.514015],[-1.8279,53.514075],[-1.827603,53.514087],[-1.827443,53.51405],[-1.827419,53.513966],[-1.827368,53.513929],[-1.827291,53.513941],[-1.827187,53.514001],[-1.827057,53.51411],[-1.826946,53.514251],[-1.826856,53.514425],[-1.826786,53.514632],[-1.826736,53.514871],[-1.826706,53.515079],[-1.826697,53.515253],[-1.826707,53.515396],[-1.826738,53.515506],[-1.826747,53.515618],[-1.826736,53.515732],[-1.826702,53.515848],[-1.826648,53.515967],[-1.826614,53.516081],[-1.826601,53.516191],[-1.826608,53.516296],[-1.826637,53.516398],[-1.82668,53.516485],[-1.826736,53.516558],[-1.826808,53.516616],[-1.826893,53.51666],[-1.827057,53.516735],[-1.827299,53.516841],[-1.82762,53.516979],[-1.828018,53.517149],[-1.828449,53.5173],[-1.82891,53.517433],[-1.829404,53.517548],[-1.829928,53.517644],[-1.830355,53.517715],[-1.830682,53.517761],[-1.830911,53.517782],[-1.831042,53.517778],[-1.83132,53.517764],[-1.831745,53.51774],[-1.832317,53.517705],[-1.833037,53.517661],[-1.833679,53.517602],[-1.834244,53.517529],[-1.834732,53.517442],[-1.835143,53.517341],[-1.83566,53.517201],[-1.836283,53.517023],[-1.837013,53.516806],[-1.837848,53.51655],[-1.838307,53.516435],[-1.838387,53.516462],[-1.838091,53.51663],[-1.837416,53.51694],[-1.83691,53.517196],[-1.836571,53.517399],[-1.836401,53.517548],[-1.836399,53.517644],[-1.836357,53.51773],[-1.836276,53.517808],[-1.836156,53.517876],[-1.835997,53.517935],[-1.835883,53.517999],[-1.835814,53.518066],[-1.835791,53.518138],[-1.835812,53.518214],[-1.835792,53.518275],[-1.835732,53.51832],[-1.83563,53.518349],[-1.835488,53.518363],[-1.835357,53.518393],[-1.835239,53.51844],[-1.835132,53.518503],[-1.835037,53.518581],[-1.834852,53.518654],[-1.834578,53.51872],[-1.834214,53.518779],[-1.83376,53.518833],[-1.833486,53.518886],[-1.833391,53.518938],[-1.833475,53.518991],[-1.833739,53.519043],[-1.834064,53.519066],[-1.83445,53.519058],[-1.834897,53.519021],[-1.835405,53.518954],[-1.835925,53.518877],[-1.836457,53.51879],[-1.837,53.518693],[-1.837556,53.518586],[-1.838131,53.518495],[-1.838724,53.518419],[-1.839337,53.518359],[-1.839969,53.518315],[-1.84057,53.518295],[-1.841143,53.518299],[-1.841685,53.518329],[-1.842198,53.518383],[-1.842646,53.518441],[-1.84303,53.518503],[-1.843349,53.51857],[-1.843603,53.51864],[-1.843856,53.518722],[-1.844109,53.518814],[-1.844361,53.518918],[-1.844613,53.519032],[-1.844879,53.519106],[-1.845159,53.519139],[-1.845454,53.519132],[-1.845762,53.519085],[-1.845959,53.51908],[-1.846043,53.51912],[-1.846015,53.519203],[-1.845875,53.51933],[-1.845832,53.519451],[-1.845887,53.519568],[-1.846039,53.519679],[-1.846288,53.519785],[-1.846583,53.519884],[-1.846924,53.519977],[-1.84731,53.520062],[-1.847743,53.520142],[-1.848051,53.520224],[-1.848237,53.52031],[-1.848298,53.5204],[-1.848237,53.520493],[-1.848245,53.520601],[-1.848323,53.520724],[-1.848472,53.520861],[-1.84869,53.521013],[-1.848942,53.521102],[-1.849227,53.521126],[-1.849545,53.521086]]]}}