{"type":"Feature","properties":{"id":"263650","COMMUNE":"Powys","PROVINCE":"Powys","COUNTRY":"UK","FIREDATE":"2025-03-19 11:47:00","CLASS":"FireSeason","areaHA_geo":1.318},"geometry":{"type":"Polygon","coordinates":[[[-3.177984,52.190949],[-3.178005,52.19083],[-3.178012,52.190722],[-3.178003,52.190625],[-3.17798,52.190539],[-3.177942,52.190464],[-3.177859,52.190388],[-3.177729,52.190309],[-3.177554,52.190228],[-3.177333,52.190146],[-3.177126,52.190077],[-3.176934,52.190023],[-3.176757,52.189983],[-3.176594,52.189957],[-3.176431,52.189954],[-3.176266,52.189974],[-3.176101,52.190017],[-3.175935,52.190083],[-3.1758,52.190156],[-3.175697,52.190235],[-3.175626,52.190322],[-3.175587,52.190414],[-3.175597,52.19049],[-3.175655,52.190548],[-3.175763,52.190589],[-3.17592,52.190612],[-3.17608,52.190646],[-3.176243,52.190689],[-3.176409,52.190742],[-3.176577,52.190805],[-3.176774,52.190867],[-3.176999,52.190927],[-3.177251,52.190986],[-3.177532,52.191043],[-3.177748,52.191056],[-3.177898,52.191024],[-3.177984,52.190949]]]}}