{"type":"Feature","properties":{"id":"263738","COMMUNE":"Scottish Borders","PROVINCE":"Scottish Borders","COUNTRY":"UK","FIREDATE":"2025-03-19 12:34:00","CLASS":"FireSeason","areaHA_geo":13.96},"geometry":{"type":"Polygon","coordinates":[[[-3.218998,55.565413],[-3.21909,55.565675],[-3.219298,55.565962],[-3.219621,55.566275],[-3.220061,55.566613],[-3.220465,55.56689],[-3.220834,55.567106],[-3.221168,55.567261],[-3.221466,55.567355],[-3.221699,55.567408],[-3.221865,55.56742],[-3.221967,55.56739],[-3.222002,55.56732],[-3.222068,55.567263],[-3.222164,55.567219],[-3.222291,55.567189],[-3.222448,55.567172],[-3.222593,55.567184],[-3.222725,55.567225],[-3.222844,55.567294],[-3.222951,55.567391],[-3.223062,55.567444],[-3.223176,55.567453],[-3.223293,55.567418],[-3.223415,55.567338],[-3.223522,55.56725],[-3.223615,55.567152],[-3.223693,55.567046],[-3.223758,55.56693],[-3.223865,55.566831],[-3.224015,55.566748],[-3.224207,55.566682],[-3.224442,55.566632],[-3.22464,55.566572],[-3.224801,55.5665],[-3.224925,55.566418],[-3.225012,55.566326],[-3.225119,55.566246],[-3.225244,55.566178],[-3.225388,55.566123],[-3.225552,55.566081],[-3.225571,55.566016],[-3.225445,55.565929],[-3.225175,55.56582],[-3.22476,55.565688],[-3.224428,55.565591],[-3.224178,55.56553],[-3.22401,55.565503],[-3.223924,55.565513],[-3.223804,55.565508],[-3.22365,55.565491],[-3.223462,55.565461],[-3.22324,55.565417],[-3.22305,55.565368],[-3.222891,55.565314],[-3.222764,55.565254],[-3.222668,55.565189],[-3.222637,55.56513],[-3.22267,55.565076],[-3.222769,55.565028],[-3.222932,55.564986],[-3.223027,55.564926],[-3.223052,55.564848],[-3.223009,55.564752],[-3.222896,55.564639],[-3.222731,55.564522],[-3.222514,55.564403],[-3.222243,55.564281],[-3.22192,55.564156],[-3.221522,55.564031],[-3.22105,55.563905],[-3.220504,55.563779],[-3.219884,55.563652],[-3.219391,55.563539],[-3.219024,55.563439],[-3.218785,55.563354],[-3.218672,55.563282],[-3.218488,55.56322],[-3.218233,55.563167],[-3.217908,55.563124],[-3.217512,55.563091],[-3.2172,55.563111],[-3.216974,55.563185],[-3.216832,55.563313],[-3.216774,55.563494],[-3.216624,55.563608],[-3.216381,55.563655],[-3.216044,55.563634],[-3.215615,55.563545],[-3.215301,55.563514],[-3.215102,55.563539],[-3.215018,55.563621],[-3.21505,55.563759],[-3.215186,55.563908],[-3.215424,55.564067],[-3.215766,55.564236],[-3.216211,55.564415],[-3.216622,55.564591],[-3.216999,55.564764],[-3.217341,55.564935],[-3.21765,55.565103],[-3.21794,55.565196],[-3.218212,55.565213],[-3.218467,55.565155],[-3.218703,55.565022],[-3.218874,55.564981],[-3.21898,55.565032],[-3.219022,55.565176],[-3.218998,55.565413]]]}}