{"type":"Feature","properties":{"id":"263736","COMMUNE":"Scottish Borders","PROVINCE":"Scottish Borders","COUNTRY":"UK","FIREDATE":"2025-03-19 12:34:00","FINALDATE":"2025-03-19 13:53:00","CLASS":"FireSeason","areaHA_geo":5.314},"geometry":{"type":"Polygon","coordinates":[[[-3.222518,55.570868],[-3.222591,55.571172],[-3.22284,55.571384],[-3.223265,55.571504],[-3.223867,55.571532],[-3.224332,55.571486],[-3.224661,55.571363],[-3.224854,55.571165],[-3.22491,55.570892],[-3.224987,55.570704],[-3.225086,55.570602],[-3.225206,55.570585],[-3.225347,55.570654],[-3.225479,55.570692],[-3.2256,55.5707],[-3.225711,55.570678],[-3.225812,55.570626],[-3.225921,55.570566],[-3.226039,55.570499],[-3.226166,55.570425],[-3.226302,55.570344],[-3.226436,55.570238],[-3.226569,55.570107],[-3.226702,55.569951],[-3.226833,55.56977],[-3.226837,55.569594],[-3.226713,55.569423],[-3.22646,55.569257],[-3.226081,55.569097],[-3.225773,55.568987],[-3.225539,55.568928],[-3.225377,55.56892],[-3.225288,55.568963],[-3.22515,55.568982],[-3.224963,55.568976],[-3.224727,55.568947],[-3.224443,55.568893],[-3.22418,55.568904],[-3.223939,55.56898],[-3.223719,55.56912],[-3.223522,55.569325],[-3.223346,55.569494],[-3.223191,55.569627],[-3.223057,55.569725],[-3.222945,55.569787],[-3.222835,55.569932],[-3.222727,55.570161],[-3.222621,55.570473],[-3.222518,55.570868]]]}}