{"type":"Feature","properties":{"id":"263765","COMMUNE":"Scottish Borders","PROVINCE":"Scottish Borders","COUNTRY":"UK","FIREDATE":"2025-03-21 12:49:00","FINALDATE":"2025-03-21 13:14:00","CLASS":"FireSeason","areaHA_geo":2.188},"geometry":{"type":"Polygon","coordinates":[[[-2.994521,55.718894],[-2.994465,55.718787],[-2.994376,55.71864],[-2.994254,55.718455],[-2.994099,55.718231],[-2.993911,55.717967],[-2.993687,55.717778],[-2.993428,55.717664],[-2.993133,55.717623],[-2.992803,55.717658],[-2.99253,55.717714],[-2.992315,55.717793],[-2.992158,55.717894],[-2.992058,55.718017],[-2.991886,55.718151],[-2.991643,55.718295],[-2.991327,55.718449],[-2.99094,55.718613],[-2.990721,55.718757],[-2.990672,55.718881],[-2.990792,55.718984],[-2.991081,55.719068],[-2.991337,55.719098],[-2.991561,55.719075],[-2.991752,55.718999],[-2.99191,55.718869],[-2.992085,55.718763],[-2.992279,55.718681],[-2.992491,55.718623],[-2.99272,55.718588],[-2.992925,55.718598],[-2.993104,55.718653],[-2.993258,55.718753],[-2.993387,55.718898],[-2.993547,55.719003],[-2.99374,55.719068],[-2.993964,55.719093],[-2.99422,55.719078],[-2.994399,55.71904],[-2.994499,55.718978],[-2.994521,55.718894]]]}}