{"type":"Feature","properties":{"id":"263763","COMMUNE":"Scottish Borders","PROVINCE":"Scottish Borders","COUNTRY":"UK","FIREDATE":"2025-03-18 12:04:00","FINALDATE":"2025-03-18 13:46:00","CLASS":"FireSeason","areaHA_geo":12.37},"geometry":{"type":"Polygon","coordinates":[[[-3.040862,55.708214],[-3.041163,55.708274],[-3.041443,55.708267],[-3.0417,55.708195],[-3.041936,55.708058],[-3.042149,55.707855],[-3.042285,55.707629],[-3.042342,55.70738],[-3.042322,55.707107],[-3.042223,55.706812],[-3.04215,55.706548],[-3.042102,55.706316],[-3.04208,55.706114],[-3.042084,55.705944],[-3.042054,55.705809],[-3.04199,55.705708],[-3.041892,55.705642],[-3.041761,55.70561],[-3.041604,55.705607],[-3.041421,55.705631],[-3.041213,55.705684],[-3.040978,55.705765],[-3.040792,55.705807],[-3.040652,55.70581],[-3.04056,55.705774],[-3.040515,55.7057],[-3.040514,55.705623],[-3.040558,55.705545],[-3.040647,55.705465],[-3.040781,55.705384],[-3.040878,55.705297],[-3.040938,55.705206],[-3.040961,55.705111],[-3.040947,55.70501],[-3.040991,55.704929],[-3.041091,55.704868],[-3.041248,55.704826],[-3.041462,55.704804],[-3.041619,55.704765],[-3.041721,55.704709],[-3.041767,55.704637],[-3.041758,55.704547],[-3.041809,55.704474],[-3.04192,55.704417],[-3.042093,55.704377],[-3.042326,55.704353],[-3.042545,55.704378],[-3.042751,55.704453],[-3.042943,55.704577],[-3.043122,55.704751],[-3.043265,55.704895],[-3.043374,55.705008],[-3.043447,55.705091],[-3.043484,55.705143],[-3.043534,55.705246],[-3.043594,55.705398],[-3.043667,55.7056],[-3.043751,55.705851],[-3.043863,55.706035],[-3.044002,55.70615],[-3.044168,55.706198],[-3.044363,55.706178],[-3.044479,55.706104],[-3.044516,55.705975],[-3.044475,55.705793],[-3.044356,55.705556],[-3.044299,55.705356],[-3.044304,55.705191],[-3.044372,55.705063],[-3.044502,55.70497],[-3.044539,55.70487],[-3.044483,55.704763],[-3.044334,55.704648],[-3.044092,55.704526],[-3.04396,55.704387],[-3.043938,55.704231],[-3.044026,55.704058],[-3.044224,55.703868],[-3.044298,55.703699],[-3.044249,55.703551],[-3.044076,55.703425],[-3.043779,55.70332],[-3.043532,55.70321],[-3.043332,55.703095],[-3.043182,55.702975],[-3.04308,55.70285],[-3.043028,55.702711],[-3.043027,55.702558],[-3.043077,55.702392],[-3.043178,55.702212],[-3.04316,55.702052],[-3.043023,55.701914],[-3.042768,55.701796],[-3.042394,55.701699],[-3.0421,55.701693],[-3.041887,55.701777],[-3.041755,55.701952],[-3.041703,55.702217],[-3.041594,55.702449],[-3.041429,55.702647],[-3.041208,55.702812],[-3.04093,55.702942],[-3.04073,55.703065],[-3.040607,55.703179],[-3.040562,55.703286],[-3.040595,55.703384],[-3.040661,55.703431],[-3.04076,55.703426],[-3.040892,55.70337],[-3.041057,55.703263],[-3.041223,55.703172],[-3.041389,55.703098],[-3.041556,55.703041],[-3.041723,55.703001],[-3.041891,55.703007],[-3.042059,55.703057],[-3.042226,55.703153],[-3.042394,55.703294],[-3.042506,55.703435],[-3.042564,55.703576],[-3.042566,55.703717],[-3.042512,55.703858],[-3.042404,55.703955],[-3.04224,55.704005],[-3.042021,55.704011],[-3.041746,55.703972],[-3.041483,55.703965],[-3.04123,55.703991],[-3.040989,55.70405],[-3.040758,55.704142],[-3.04055,55.704226],[-3.040364,55.704301],[-3.040201,55.704369],[-3.04006,55.704429],[-3.03994,55.704506],[-3.039841,55.704602],[-3.039763,55.704714],[-3.039706,55.704845],[-3.03967,55.705007],[-3.039654,55.705201],[-3.039659,55.705426],[-3.039685,55.705684],[-3.039655,55.70582],[-3.03957,55.705834],[-3.039428,55.705727],[-3.039231,55.705499],[-3.039094,55.705284],[-3.039017,55.705083],[-3.039,55.704895],[-3.039042,55.704721],[-3.039027,55.704632],[-3.038956,55.704628],[-3.038827,55.704709],[-3.038641,55.704876],[-3.038456,55.705042],[-3.03827,55.705208],[-3.038084,55.705374],[-3.037899,55.705541],[-3.037797,55.705732],[-3.037779,55.705949],[-3.037845,55.706191],[-3.037994,55.706458],[-3.038176,55.706685],[-3.038389,55.706873],[-3.038634,55.70702],[-3.038911,55.707127],[-3.039186,55.707259],[-3.03946,55.707418],[-3.039733,55.707602],[-3.040004,55.707811],[-3.040282,55.707983],[-3.040569,55.708117],[-3.040862,55.708214]]]}}