{"type":"Feature","properties":{"id":"263750","COMMUNE":"Scottish Borders","PROVINCE":"Scottish Borders","COUNTRY":"UK","FIREDATE":"2025-03-19 12:34:00","CLASS":"FireSeason","areaHA_geo":4.018},"geometry":{"type":"Polygon","coordinates":[[[-2.917272,55.5655],[-2.917375,55.565385],[-2.917496,55.565283],[-2.917634,55.565192],[-2.917789,55.565114],[-2.917962,55.565047],[-2.918118,55.564978],[-2.918256,55.564905],[-2.918378,55.56483],[-2.918482,55.564752],[-2.918558,55.564671],[-2.918606,55.564587],[-2.918626,55.564499],[-2.918617,55.564408],[-2.918577,55.564325],[-2.918503,55.56425],[-2.918397,55.564183],[-2.918259,55.564124],[-2.918132,55.564078],[-2.918018,55.564043],[-2.917917,55.564022],[-2.917827,55.564013],[-2.91775,55.563975],[-2.917684,55.563908],[-2.917631,55.563813],[-2.917591,55.563689],[-2.917512,55.56359],[-2.917396,55.563516],[-2.917242,55.563468],[-2.91705,55.563445],[-2.916864,55.563447],[-2.916684,55.563475],[-2.91651,55.563528],[-2.916341,55.563606],[-2.916184,55.563639],[-2.916039,55.563627],[-2.915906,55.563568],[-2.915785,55.563465],[-2.915602,55.5634],[-2.915355,55.563373],[-2.915045,55.563385],[-2.914672,55.563436],[-2.914462,55.563488],[-2.914415,55.563542],[-2.91453,55.563597],[-2.914809,55.563654],[-2.91498,55.563722],[-2.915044,55.563801],[-2.915,55.563891],[-2.91485,55.563992],[-2.914768,55.56409],[-2.914757,55.564186],[-2.914815,55.56428],[-2.914942,55.56437],[-2.915082,55.564434],[-2.915234,55.56447],[-2.9154,55.564479],[-2.915578,55.564461],[-2.915719,55.564462],[-2.915822,55.564482],[-2.915889,55.564521],[-2.915919,55.564579],[-2.915914,55.564637],[-2.915874,55.564696],[-2.915799,55.564756],[-2.915689,55.564816],[-2.915606,55.564877],[-2.91555,55.564937],[-2.915522,55.564998],[-2.91552,55.56506],[-2.915467,55.565112],[-2.915363,55.565157],[-2.915207,55.565193],[-2.915,55.56522],[-2.914828,55.56525],[-2.914693,55.565282],[-2.914593,55.565317],[-2.91453,55.565354],[-2.914539,55.565382],[-2.914621,55.565401],[-2.914776,55.565411],[-2.915003,55.565412],[-2.915241,55.565412],[-2.91549,55.565411],[-2.915749,55.565409],[-2.916018,55.565406],[-2.916264,55.56542],[-2.916486,55.565452],[-2.916683,55.565502],[-2.916857,55.56557],[-2.917013,55.565592],[-2.917152,55.565569],[-2.917272,55.5655]]]}}