{"type":"Feature","properties":{"id":"263786","COMMUNE":"Scottish Borders","PROVINCE":"Scottish Borders","COUNTRY":"UK","FIREDATE":"2025-03-09 12:21:00","FINALDATE":"2025-03-09 12:21:00","CLASS":"FireSeason","areaHA_geo":2.981},"geometry":{"type":"Polygon","coordinates":[[[-3.042668,55.678568],[-3.042762,55.678445],[-3.042506,55.678189],[-3.041899,55.6778],[-3.040942,55.677279],[-3.040157,55.676902],[-3.039544,55.676671],[-3.039103,55.676584],[-3.038833,55.676641],[-3.038612,55.676706],[-3.038438,55.676778],[-3.038312,55.676856],[-3.038234,55.676941],[-3.038207,55.677018],[-3.038229,55.677086],[-3.038303,55.677146],[-3.038426,55.677197],[-3.03857,55.677265],[-3.038735,55.677348],[-3.03892,55.677448],[-3.039126,55.677563],[-3.039283,55.677686],[-3.039391,55.677816],[-3.03945,55.677954],[-3.03946,55.678098],[-3.039488,55.678221],[-3.039533,55.678324],[-3.039597,55.678405],[-3.039678,55.678465],[-3.039743,55.678491],[-3.039794,55.678484],[-3.03983,55.678443],[-3.03985,55.678368],[-3.039932,55.67831],[-3.040074,55.67827],[-3.040277,55.678247],[-3.040541,55.678241],[-3.040738,55.678248],[-3.040866,55.678269],[-3.040927,55.678303],[-3.04092,55.678351],[-3.040956,55.678395],[-3.041033,55.678434],[-3.041153,55.678468],[-3.041315,55.678499],[-3.041548,55.678524],[-3.041851,55.678544],[-3.042224,55.678558],[-3.042668,55.678568]]]}}