{"type":"Feature","properties":{"id":"263718","COMMUNE":"Scottish Borders","PROVINCE":"Scottish Borders","COUNTRY":"UK","FIREDATE":"2025-03-20 12:17:00","FINALDATE":"2025-03-20 13:31:00","CLASS":"FireSeason","areaHA_geo":33.591},"geometry":{"type":"Polygon","coordinates":[[[-3.242491,55.593812],[-3.242617,55.593773],[-3.242741,55.59375],[-3.242865,55.59374],[-3.242987,55.593745],[-3.243107,55.593765],[-3.243173,55.593758],[-3.243184,55.593724],[-3.24314,55.593665],[-3.243041,55.593579],[-3.242911,55.593499],[-3.24275,55.593425],[-3.242558,55.593357],[-3.242335,55.593295],[-3.242225,55.593247],[-3.24223,55.593215],[-3.242349,55.593197],[-3.242582,55.593194],[-3.242784,55.593198],[-3.242956,55.59321],[-3.243097,55.59323],[-3.243208,55.593258],[-3.243291,55.59327],[-3.243346,55.593266],[-3.243374,55.593246],[-3.243375,55.59321],[-3.243383,55.593177],[-3.243398,55.593147],[-3.24342,55.59312],[-3.24345,55.593095],[-3.243452,55.593046],[-3.243427,55.592972],[-3.243375,55.592873],[-3.243295,55.592749],[-3.243258,55.592645],[-3.243264,55.592561],[-3.243314,55.592496],[-3.243406,55.59245],[-3.243469,55.592395],[-3.243504,55.592329],[-3.243509,55.592252],[-3.243486,55.592165],[-3.243507,55.592095],[-3.243571,55.592042],[-3.243679,55.592006],[-3.243831,55.591986],[-3.243928,55.591948],[-3.243973,55.591892],[-3.243963,55.591817],[-3.2439,55.591724],[-3.243837,55.591663],[-3.243773,55.591634],[-3.243709,55.591637],[-3.243645,55.591672],[-3.243582,55.591697],[-3.243521,55.59171],[-3.24346,55.591713],[-3.2434,55.591705],[-3.243353,55.591682],[-3.243318,55.591643],[-3.243294,55.591588],[-3.243283,55.591518],[-3.243276,55.591444],[-3.243271,55.591366],[-3.24327,55.591284],[-3.243273,55.591198],[-3.243265,55.591109],[-3.243247,55.591019],[-3.243219,55.590925],[-3.24318,55.590829],[-3.243113,55.590725],[-3.243018,55.590612],[-3.242895,55.59049],[-3.242743,55.59036],[-3.242595,55.590276],[-3.24245,55.59024],[-3.242308,55.590251],[-3.242169,55.590308],[-3.242043,55.590346],[-3.241929,55.590365],[-3.241828,55.590365],[-3.241739,55.590346],[-3.241718,55.590311],[-3.241764,55.59026],[-3.241877,55.590192],[-3.242058,55.590109],[-3.242199,55.590023],[-3.242302,55.589934],[-3.242366,55.589841],[-3.24239,55.589746],[-3.242399,55.589636],[-3.242392,55.589512],[-3.242369,55.589374],[-3.24233,55.589221],[-3.242267,55.589101],[-3.24218,55.589013],[-3.24207,55.588959],[-3.241937,55.588937],[-3.241793,55.588911],[-3.24164,55.588879],[-3.241477,55.588841],[-3.241305,55.588799],[-3.241179,55.588778],[-3.241101,55.588779],[-3.241069,55.588802],[-3.241084,55.588847],[-3.241131,55.588896],[-3.241208,55.588948],[-3.241318,55.589004],[-3.241458,55.589065],[-3.241509,55.589107],[-3.241469,55.58913],[-3.24134,55.589136],[-3.241121,55.589123],[-3.240943,55.589098],[-3.240807,55.589061],[-3.240713,55.589011],[-3.24066,55.588949],[-3.240632,55.588884],[-3.240628,55.588817],[-3.240649,55.588747],[-3.240694,55.588674],[-3.240721,55.588592],[-3.240731,55.5885],[-3.240724,55.588398],[-3.240699,55.588287],[-3.240599,55.588166],[-3.240426,55.588036],[-3.240178,55.587897],[-3.239856,55.587749],[-3.239626,55.587667],[-3.239488,55.587652],[-3.239442,55.587702],[-3.239488,55.587818],[-3.23948,55.587913],[-3.239419,55.587985],[-3.239305,55.588036],[-3.239138,55.588064],[-3.239021,55.588113],[-3.238956,55.588182],[-3.238942,55.588272],[-3.23898,55.588382],[-3.238983,55.588481],[-3.238952,55.588568],[-3.238888,55.588643],[-3.238789,55.588707],[-3.2387,55.588746],[-3.238619,55.58876],[-3.238547,55.588749],[-3.238484,55.588713],[-3.238437,55.588665],[-3.238404,55.588606],[-3.238387,55.588536],[-3.238384,55.588454],[-3.238357,55.588397],[-3.238305,55.588365],[-3.238228,55.588358],[-3.238127,55.588376],[-3.238018,55.588404],[-3.237902,55.588443],[-3.237778,55.588493],[-3.237646,55.588553],[-3.237544,55.588592],[-3.237471,55.588611],[-3.237428,55.588608],[-3.237414,55.588585],[-3.23741,55.588549],[-3.237416,55.588502],[-3.237432,55.588443],[-3.237459,55.588373],[-3.237458,55.588309],[-3.237429,55.588251],[-3.237372,55.5882],[-3.237288,55.588155],[-3.237197,55.588127],[-3.237101,55.588114],[-3.236999,55.588116],[-3.236892,55.588135],[-3.236803,55.588157],[-3.236732,55.588182],[-3.23668,55.588211],[-3.236647,55.588243],[-3.23657,55.588257],[-3.236448,55.588254],[-3.236283,55.588233],[-3.236074,55.588194],[-3.235867,55.588153],[-3.235663,55.588108],[-3.23546,55.588061],[-3.23526,55.588011],[-3.235062,55.587995],[-3.234866,55.588014],[-3.234672,55.588067],[-3.23448,55.588155],[-3.234281,55.588239],[-3.234074,55.58832],[-3.23386,55.588397],[-3.233638,55.58847],[-3.233452,55.588533],[-3.233302,55.588584],[-3.233188,55.588625],[-3.233109,55.588655],[-3.233002,55.588711],[-3.232866,55.588795],[-3.232701,55.588906],[-3.232508,55.589044],[-3.232365,55.589159],[-3.232272,55.589251],[-3.232231,55.58932],[-3.23224,55.589365],[-3.23229,55.589425],[-3.232382,55.589499],[-3.232514,55.589588],[-3.232688,55.589691],[-3.232821,55.589833],[-3.232914,55.590014],[-3.232966,55.590234],[-3.232978,55.590493],[-3.233023,55.590704],[-3.2331,55.590868],[-3.23321,55.590983],[-3.233353,55.59105],[-3.23342,55.591113],[-3.233412,55.591173],[-3.233328,55.591229],[-3.233169,55.591281],[-3.233061,55.591403],[-3.233006,55.591595],[-3.233002,55.591855],[-3.23305,55.592186],[-3.233186,55.592419],[-3.23341,55.592556],[-3.23372,55.592597],[-3.234119,55.592541],[-3.234452,55.592497],[-3.23472,55.592467],[-3.234923,55.59245],[-3.235061,55.592447],[-3.235214,55.592441],[-3.235382,55.592434],[-3.235566,55.592426],[-3.235765,55.592415],[-3.235927,55.592413],[-3.236052,55.592417],[-3.236139,55.592429],[-3.23619,55.592449],[-3.23626,55.592463],[-3.236348,55.592472],[-3.236455,55.592475],[-3.236581,55.592472],[-3.236663,55.592496],[-3.236703,55.592548],[-3.236699,55.592626],[-3.236652,55.59273],[-3.236663,55.592815],[-3.236732,55.592879],[-3.236859,55.592923],[-3.237044,55.592946],[-3.237217,55.592964],[-3.237376,55.592978],[-3.237523,55.592986],[-3.237657,55.59299],[-3.23779,55.593018],[-3.237921,55.59307],[-3.238051,55.593147],[-3.23818,55.593247],[-3.238301,55.593334],[-3.238415,55.593408],[-3.23852,55.593468],[-3.238618,55.593515],[-3.238737,55.593568],[-3.238877,55.593626],[-3.239038,55.59369],[-3.23922,55.59376],[-3.23941,55.593813],[-3.239609,55.59385],[-3.239816,55.593869],[-3.240032,55.593871],[-3.240218,55.593871],[-3.240376,55.593869],[-3.240504,55.593864],[-3.240603,55.593857],[-3.240708,55.593852],[-3.240821,55.593849],[-3.240941,55.593848],[-3.241068,55.593849],[-3.241175,55.593825],[-3.241262,55.593774],[-3.24133,55.593698],[-3.241378,55.593597],[-3.241435,55.593519],[-3.241502,55.593464],[-3.241578,55.593432],[-3.241663,55.593423],[-3.241728,55.593432],[-3.241772,55.593459],[-3.241796,55.593505],[-3.241798,55.593569],[-3.241831,55.59363],[-3.241895,55.593687],[-3.241989,55.593741],[-3.242114,55.593792],[-3.242239,55.593821],[-3.242365,55.593828],[-3.242491,55.593812]]]}}