{"type":"Feature","properties":{"id":"263758","COMMUNE":"Scottish Borders","PROVINCE":"Scottish Borders","COUNTRY":"UK","FIREDATE":"2025-03-18 12:04:00","CLASS":"FireSeason","areaHA_geo":3.565},"geometry":{"type":"Polygon","coordinates":[[[-2.94981,55.665809],[-2.950033,55.665849],[-2.950356,55.665816],[-2.95078,55.66571],[-2.951305,55.66553],[-2.951712,55.665337],[-2.951998,55.665131],[-2.952166,55.664912],[-2.952214,55.66468],[-2.952231,55.664466],[-2.952215,55.664272],[-2.952167,55.664096],[-2.952087,55.66394],[-2.952047,55.663816],[-2.952045,55.663726],[-2.952082,55.663669],[-2.952157,55.663646],[-2.952202,55.66359],[-2.952214,55.663503],[-2.952196,55.663383],[-2.952145,55.663231],[-2.951995,55.663157],[-2.951745,55.663159],[-2.951396,55.663238],[-2.950946,55.663394],[-2.95057,55.663584],[-2.950268,55.663807],[-2.95004,55.664064],[-2.949886,55.664354],[-2.949761,55.664618],[-2.949665,55.664855],[-2.949599,55.665066],[-2.949563,55.66525],[-2.949566,55.665417],[-2.949608,55.665565],[-2.949689,55.665696],[-2.94981,55.665809]]]}}