{"type":"Feature","properties":{"id":"263711","COMMUNE":"Midlothian","PROVINCE":"East Lothian and Midlothian","COUNTRY":"UK","FIREDATE":"2025-03-19 12:34:00","FINALDATE":"2025-03-19 13:53:00","CLASS":"FireSeason","areaHA_geo":2.206},"geometry":{"type":"Polygon","coordinates":[[[-3.106367,55.725656],[-3.106471,55.725632],[-3.106657,55.725532],[-3.106923,55.725357],[-3.10727,55.725107],[-3.107652,55.724804],[-3.108067,55.724446],[-3.108518,55.724036],[-3.109002,55.723572],[-3.109376,55.723207],[-3.109639,55.722943],[-3.109791,55.722778],[-3.109833,55.722713],[-3.109818,55.722673],[-3.109747,55.72266],[-3.109619,55.722671],[-3.109435,55.722708],[-3.109253,55.722742],[-3.109073,55.722773],[-3.108896,55.722802],[-3.10872,55.722827],[-3.108577,55.722851],[-3.108468,55.722873],[-3.10839,55.722893],[-3.108346,55.722912],[-3.108329,55.722942],[-3.10834,55.722984],[-3.108379,55.723037],[-3.108445,55.723102],[-3.108473,55.723168],[-3.108465,55.723237],[-3.108419,55.723308],[-3.108335,55.723381],[-3.108237,55.723431],[-3.108122,55.723459],[-3.107993,55.723464],[-3.107847,55.723447],[-3.107745,55.723455],[-3.107687,55.723488],[-3.107671,55.723546],[-3.107699,55.723629],[-3.107698,55.723716],[-3.107669,55.723808],[-3.107611,55.723905],[-3.107525,55.724007],[-3.10743,55.724089],[-3.107328,55.724152],[-3.107217,55.724194],[-3.107098,55.724217],[-3.106989,55.724253],[-3.106891,55.7243],[-3.106803,55.72436],[-3.106726,55.724433],[-3.106646,55.724496],[-3.106563,55.724551],[-3.106477,55.724598],[-3.106388,55.724635],[-3.106309,55.724696],[-3.106239,55.72478],[-3.106178,55.724887],[-3.106127,55.725017],[-3.106113,55.725127],[-3.106136,55.725215],[-3.106197,55.725283],[-3.106295,55.72533],[-3.10636,55.725373],[-3.106393,55.725413],[-3.106392,55.725448],[-3.106358,55.72548],[-3.106339,55.725517],[-3.106334,55.725559],[-3.106343,55.725605],[-3.106367,55.725656]]]}}