{"type":"Feature","properties":{"id":"263743","COMMUNE":"Scottish Borders","PROVINCE":"Scottish Borders","COUNTRY":"UK","FIREDATE":"2025-03-18 16:40:20.316","FINALDATE":"2025-03-19 16:40:22.569","CLASS":"FireSeason","areaHA_geo":3.265},"geometry":{"type":"Polygon","coordinates":[[[-3.155306,55.604684],[-3.155488,55.604826],[-3.155701,55.604904],[-3.155946,55.60492],[-3.156223,55.604873],[-3.156507,55.604811],[-3.156799,55.604734],[-3.157097,55.604643],[-3.157403,55.604538],[-3.157637,55.604424],[-3.1578,55.604302],[-3.15789,55.604171],[-3.157908,55.604031],[-3.157859,55.603899],[-3.157744,55.603773],[-3.157562,55.603655],[-3.157313,55.603543],[-3.157079,55.603439],[-3.15686,55.603343],[-3.156655,55.603254],[-3.156465,55.603173],[-3.156227,55.603093],[-3.15594,55.603013],[-3.155604,55.602933],[-3.15522,55.602854],[-3.154938,55.602838],[-3.154758,55.602884],[-3.154681,55.602993],[-3.154706,55.603165],[-3.154706,55.603321],[-3.15468,55.603461],[-3.154628,55.603586],[-3.154551,55.603695],[-3.154524,55.603796],[-3.154547,55.60389],[-3.154621,55.603976],[-3.154745,55.604055],[-3.154876,55.604165],[-3.155013,55.604307],[-3.155156,55.60448],[-3.155306,55.604684]]]}}