{"type":"Feature","properties":{"id":"263785","COMMUNE":"Scottish Borders","PROVINCE":"Scottish Borders","COUNTRY":"UK","FIREDATE":"2025-03-09 12:21:00","FINALDATE":"2025-03-09 12:21:00","CLASS":"FireSeason","areaHA_geo":0.92},"geometry":{"type":"Polygon","coordinates":[[[-3.04149,55.679525],[-3.041746,55.67956],[-3.041983,55.679544],[-3.042204,55.679476],[-3.042407,55.679357],[-3.042427,55.679244],[-3.042262,55.679137],[-3.041913,55.679036],[-3.041379,55.678941],[-3.040926,55.678876],[-3.040553,55.67884],[-3.04026,55.678833],[-3.040047,55.678855],[-3.039868,55.678903],[-3.039722,55.678978],[-3.039609,55.67908],[-3.03953,55.679208],[-3.039506,55.679305],[-3.039536,55.679373],[-3.039621,55.67941],[-3.03976,55.679417],[-3.039884,55.679409],[-3.039994,55.679384],[-3.040089,55.679345],[-3.040169,55.679289],[-3.040262,55.679254],[-3.040367,55.679239],[-3.040485,55.679244],[-3.040615,55.679269],[-3.04078,55.679309],[-3.040981,55.679366],[-3.041218,55.679437],[-3.04149,55.679525]]]}}