{"type":"Feature","properties":{"id":"263705","COMMUNE":"Midlothian","PROVINCE":"East Lothian and Midlothian","COUNTRY":"UK","FIREDATE":"2025-03-19 12:12:00","FINALDATE":"2025-03-19 13:53:00","CLASS":"FireSeason","areaHA_geo":9.254},"geometry":{"type":"Polygon","coordinates":[[[-3.120609,55.724131],[-3.120475,55.72392],[-3.120337,55.723755],[-3.120194,55.723634],[-3.120049,55.723558],[-3.119899,55.723527],[-3.119769,55.723506],[-3.119661,55.723494],[-3.119573,55.723492],[-3.119505,55.723499],[-3.11941,55.72349],[-3.119288,55.723465],[-3.119138,55.723425],[-3.11896,55.723368],[-3.118826,55.723308],[-3.118735,55.723245],[-3.118687,55.723177],[-3.118682,55.723106],[-3.118647,55.723022],[-3.118582,55.722923],[-3.118488,55.722811],[-3.118363,55.722685],[-3.118239,55.72257],[-3.118115,55.722467],[-3.117992,55.722376],[-3.11787,55.722296],[-3.117823,55.722244],[-3.117849,55.722219],[-3.117951,55.722223],[-3.118126,55.722255],[-3.118301,55.722308],[-3.118475,55.722383],[-3.118648,55.722479],[-3.118821,55.722596],[-3.118987,55.722702],[-3.119145,55.722796],[-3.119297,55.722878],[-3.119441,55.722949],[-3.119565,55.723006],[-3.119668,55.723048],[-3.11975,55.723077],[-3.119813,55.723092],[-3.119887,55.723122],[-3.119975,55.723166],[-3.120076,55.723225],[-3.12019,55.723299],[-3.120271,55.723333],[-3.120319,55.723326],[-3.120335,55.723279],[-3.120318,55.723191],[-3.12027,55.723068],[-3.120191,55.722908],[-3.120081,55.722713],[-3.11994,55.722481],[-3.119814,55.722291],[-3.119704,55.722142],[-3.119609,55.722034],[-3.119529,55.721968],[-3.119424,55.721903],[-3.119291,55.72184],[-3.119133,55.721779],[-3.118948,55.72172],[-3.118777,55.721658],[-3.118619,55.721594],[-3.118475,55.721528],[-3.118344,55.72146],[-3.118199,55.721396],[-3.118039,55.721336],[-3.117865,55.72128],[-3.117676,55.721228],[-3.117508,55.721191],[-3.117361,55.721169],[-3.117235,55.721161],[-3.11713,55.721169],[-3.117018,55.721185],[-3.116899,55.72121],[-3.116774,55.721243],[-3.116643,55.721286],[-3.116493,55.721308],[-3.116326,55.721311],[-3.116142,55.721295],[-3.115939,55.721259],[-3.115738,55.72122],[-3.115537,55.721179],[-3.115336,55.721134],[-3.115137,55.721087],[-3.114959,55.72105],[-3.114804,55.721021],[-3.11467,55.721002],[-3.114559,55.720992],[-3.114488,55.720974],[-3.114457,55.720947],[-3.114465,55.720911],[-3.114514,55.720867],[-3.114657,55.720845],[-3.114895,55.720845],[-3.115227,55.720867],[-3.115655,55.720912],[-3.116012,55.720943],[-3.1163,55.720959],[-3.116518,55.720961],[-3.116666,55.72095],[-3.116708,55.720922],[-3.116642,55.720879],[-3.11647,55.72082],[-3.116192,55.720746],[-3.115951,55.720685],[-3.115748,55.720639],[-3.115583,55.720606],[-3.115457,55.720587],[-3.115311,55.720573],[-3.115146,55.720563],[-3.114962,55.720558],[-3.114759,55.720558],[-3.114589,55.720571],[-3.114452,55.720598],[-3.114348,55.720638],[-3.114277,55.720692],[-3.114192,55.720739],[-3.114091,55.72078],[-3.113976,55.720814],[-3.113846,55.720842],[-3.113727,55.72087],[-3.113619,55.720899],[-3.113523,55.720929],[-3.113438,55.720959],[-3.113354,55.721001],[-3.11327,55.721054],[-3.113188,55.721119],[-3.113105,55.721195],[-3.113017,55.721262],[-3.112922,55.721318],[-3.11282,55.721364],[-3.112711,55.7214],[-3.112606,55.721431],[-3.112503,55.721456],[-3.112404,55.721475],[-3.112307,55.721489],[-3.112211,55.721524],[-3.112116,55.72158],[-3.112021,55.721658],[-3.111928,55.721757],[-3.111901,55.721837],[-3.111941,55.721899],[-3.112047,55.721942],[-3.11222,55.721967],[-3.112417,55.721962],[-3.112636,55.721926],[-3.112879,55.721861],[-3.113145,55.721766],[-3.113385,55.721692],[-3.1136,55.721642],[-3.113788,55.721613],[-3.113951,55.721607],[-3.114051,55.721616],[-3.114088,55.721641],[-3.114061,55.721681],[-3.113972,55.721736],[-3.113911,55.721794],[-3.113877,55.721853],[-3.11387,55.721913],[-3.113891,55.721975],[-3.113861,55.722013],[-3.11378,55.722027],[-3.113648,55.722016],[-3.113465,55.721982],[-3.113304,55.721969],[-3.113164,55.721978],[-3.113046,55.722009],[-3.11295,55.722062],[-3.112837,55.722114],[-3.112709,55.722165],[-3.112564,55.722215],[-3.112402,55.722264],[-3.112262,55.722327],[-3.112143,55.722406],[-3.112044,55.722499],[-3.111966,55.722607],[-3.111934,55.722694],[-3.111946,55.722761],[-3.112005,55.722806],[-3.112108,55.722831],[-3.112238,55.722836],[-3.112395,55.722822],[-3.112579,55.722788],[-3.112789,55.722734],[-3.113001,55.722706],[-3.113217,55.722705],[-3.113435,55.722731],[-3.113655,55.722783],[-3.113834,55.722798],[-3.113973,55.722776],[-3.114071,55.722718],[-3.114128,55.722623],[-3.114208,55.722556],[-3.114312,55.722516],[-3.11444,55.722505],[-3.114591,55.722521],[-3.11472,55.722514],[-3.114827,55.722483],[-3.114912,55.722429],[-3.114975,55.722351],[-3.115046,55.722307],[-3.115125,55.722297],[-3.115212,55.722321],[-3.115308,55.722379],[-3.115407,55.722421],[-3.115511,55.722448],[-3.11562,55.722459],[-3.115732,55.722454],[-3.115817,55.722466],[-3.115874,55.722494],[-3.115903,55.722538],[-3.115905,55.722598],[-3.115935,55.722638],[-3.115996,55.722657],[-3.116085,55.722654],[-3.116204,55.722631],[-3.116322,55.722624],[-3.116439,55.722631],[-3.116554,55.722654],[-3.116669,55.722692],[-3.116809,55.722708],[-3.116975,55.722704],[-3.117168,55.722677],[-3.117386,55.72263],[-3.117555,55.722623],[-3.117675,55.722657],[-3.117744,55.722731],[-3.117764,55.722847],[-3.117747,55.722932],[-3.117692,55.722986],[-3.1176,55.723009],[-3.11747,55.723001],[-3.117379,55.723008],[-3.117327,55.723032],[-3.117313,55.723071],[-3.117338,55.723125],[-3.117337,55.723179],[-3.11731,55.723231],[-3.117258,55.723283],[-3.11718,55.723334],[-3.117139,55.723375],[-3.117137,55.723406],[-3.117172,55.723426],[-3.117246,55.723436],[-3.117327,55.723442],[-3.117416,55.723443],[-3.117513,55.72344],[-3.117619,55.723433],[-3.117703,55.723442],[-3.117765,55.723468],[-3.117806,55.72351],[-3.117826,55.723568],[-3.117885,55.723627],[-3.117985,55.723687],[-3.118123,55.723746],[-3.118302,55.723806],[-3.118459,55.723832],[-3.118593,55.723826],[-3.118704,55.723785],[-3.118794,55.723712],[-3.118878,55.723667],[-3.118958,55.723649],[-3.119033,55.72366],[-3.119103,55.723699],[-3.119166,55.723748],[-3.11922,55.723807],[-3.119267,55.723875],[-3.119306,55.723953],[-3.119311,55.724024],[-3.119282,55.724087],[-3.119218,55.724144],[-3.119121,55.724193],[-3.119056,55.72424],[-3.119023,55.724285],[-3.119023,55.724327],[-3.119055,55.724366],[-3.119117,55.72439],[-3.119209,55.724398],[-3.11933,55.724391],[-3.119481,55.724368],[-3.119663,55.724358],[-3.119876,55.724361],[-3.120121,55.724376],[-3.120397,55.724405],[-3.12057,55.724373],[-3.120641,55.724282],[-3.120609,55.724131]]]}}