{"type":"Feature","properties":{"id":"263719","COMMUNE":"Scottish Borders","PROVINCE":"Scottish Borders","COUNTRY":"UK","FIREDATE":"2025-03-20 13:08:00","CLASS":"FireSeason","areaHA_geo":1.576},"geometry":{"type":"Polygon","coordinates":[[[-3.24849,55.590282],[-3.248532,55.590398],[-3.248605,55.590463],[-3.248708,55.590478],[-3.248841,55.590443],[-3.248966,55.590433],[-3.249082,55.59045],[-3.24919,55.590492],[-3.249289,55.59056],[-3.249393,55.590605],[-3.249501,55.590628],[-3.249615,55.590627],[-3.249734,55.590604],[-3.249816,55.590594],[-3.249861,55.590599],[-3.249871,55.590616],[-3.249843,55.590648],[-3.249806,55.590683],[-3.249759,55.590722],[-3.249703,55.590764],[-3.249636,55.59081],[-3.249602,55.590856],[-3.249602,55.590901],[-3.249634,55.590945],[-3.249699,55.590988],[-3.249773,55.591004],[-3.249854,55.590994],[-3.249945,55.590956],[-3.250043,55.590892],[-3.250115,55.590868],[-3.250162,55.590883],[-3.250181,55.590937],[-3.250175,55.59103],[-3.250198,55.591096],[-3.250249,55.591136],[-3.250329,55.591148],[-3.250437,55.591133],[-3.250537,55.591099],[-3.250626,55.591047],[-3.250707,55.590976],[-3.250778,55.590886],[-3.250828,55.590797],[-3.250858,55.590708],[-3.250868,55.59062],[-3.250857,55.590532],[-3.250821,55.590477],[-3.25076,55.590455],[-3.250673,55.590466],[-3.250562,55.590509],[-3.250473,55.590529],[-3.250408,55.590523],[-3.250366,55.590493],[-3.250348,55.590438],[-3.250329,55.590363],[-3.250309,55.590269],[-3.25029,55.590155],[-3.25027,55.590021],[-3.250208,55.589899],[-3.250105,55.589789],[-3.249959,55.58969],[-3.249771,55.589603],[-3.249594,55.589546],[-3.249427,55.589519],[-3.24927,55.589522],[-3.249123,55.589555],[-3.248968,55.589578],[-3.248804,55.58959],[-3.248632,55.589591],[-3.248452,55.589581],[-3.248334,55.589593],[-3.248279,55.589625],[-3.248286,55.589679],[-3.248355,55.589754],[-3.248411,55.589852],[-3.248451,55.589972],[-3.248478,55.590116],[-3.24849,55.590282]]]}}