{"type":"Feature","properties":{"id":"263739","COMMUNE":"Scottish Borders","PROVINCE":"Scottish Borders","COUNTRY":"UK","FIREDATE":"2025-03-18 16:37:18.088","CLASS":"FireSeason","areaHA_geo":3.02},"geometry":{"type":"Polygon","coordinates":[[[-3.231416,55.567557],[-3.231506,55.567702],[-3.231668,55.56781],[-3.231903,55.567882],[-3.232211,55.567916],[-3.232479,55.56793],[-3.232706,55.567923],[-3.232892,55.567894],[-3.233039,55.567846],[-3.233168,55.567834],[-3.23328,55.56786],[-3.233376,55.567923],[-3.233454,55.568023],[-3.233558,55.568111],[-3.233686,55.568185],[-3.23384,55.568246],[-3.234019,55.568294],[-3.234181,55.568281],[-3.234327,55.568207],[-3.234455,55.568072],[-3.234567,55.567877],[-3.234615,55.5677],[-3.234599,55.567543],[-3.234519,55.567405],[-3.234375,55.567287],[-3.234239,55.567203],[-3.234112,55.567154],[-3.233992,55.567139],[-3.23388,55.567159],[-3.233732,55.567179],[-3.233546,55.567199],[-3.233323,55.567218],[-3.233063,55.567237],[-3.232909,55.567232],[-3.232863,55.567204],[-3.232923,55.567152],[-3.23309,55.567075],[-3.233205,55.566978],[-3.233268,55.566858],[-3.233279,55.566717],[-3.233239,55.566554],[-3.233114,55.566433],[-3.232902,55.566355],[-3.232605,55.56632],[-3.232223,55.566327],[-3.231905,55.566318],[-3.231653,55.566295],[-3.231466,55.566256],[-3.231344,55.566202],[-3.231221,55.5662],[-3.231098,55.566251],[-3.230973,55.566354],[-3.230848,55.566509],[-3.230791,55.566624],[-3.230801,55.566698],[-3.230879,55.566732],[-3.231024,55.566725],[-3.231142,55.566744],[-3.231231,55.566789],[-3.231292,55.566859],[-3.231325,55.566956],[-3.231353,55.567074],[-3.231378,55.567214],[-3.231399,55.567375],[-3.231416,55.567557]]]}}