{"type":"Feature","properties":{"id":"263756","COMMUNE":"Scottish Borders","PROVINCE":"Scottish Borders","COUNTRY":"UK","FIREDATE":"2025-03-18 12:04:00","CLASS":"FireSeason","areaHA_geo":3.321},"geometry":{"type":"Polygon","coordinates":[[[-2.946654,55.662879],[-2.946938,55.663191],[-2.947199,55.663391],[-2.947438,55.66348],[-2.947653,55.663458],[-2.947855,55.663394],[-2.948043,55.663289],[-2.948217,55.663141],[-2.948377,55.662952],[-2.948482,55.662775],[-2.948531,55.662609],[-2.948525,55.662455],[-2.948464,55.662312],[-2.948387,55.662194],[-2.948294,55.662102],[-2.948184,55.662035],[-2.948059,55.661993],[-2.947932,55.661933],[-2.947802,55.661856],[-2.947669,55.661762],[-2.947535,55.661651],[-2.94744,55.661533],[-2.947385,55.661409],[-2.94737,55.661279],[-2.947395,55.661143],[-2.947389,55.661032],[-2.947354,55.660946],[-2.947288,55.660884],[-2.947192,55.660846],[-2.947093,55.660788],[-2.94699,55.660708],[-2.946883,55.660608],[-2.946773,55.660486],[-2.946653,55.660417],[-2.946523,55.660403],[-2.946383,55.660443],[-2.946234,55.660537],[-2.946119,55.660633],[-2.94604,55.660732],[-2.945997,55.660832],[-2.945989,55.660935],[-2.945968,55.661027],[-2.945932,55.661109],[-2.945883,55.661181],[-2.94582,55.661243],[-2.945782,55.661319],[-2.945771,55.66141],[-2.945785,55.661517],[-2.945825,55.661638],[-2.945932,55.661835],[-2.946106,55.662107],[-2.946346,55.662455],[-2.946654,55.662879]]]}}