{"type":"Feature","properties":{"id":"263764","COMMUNE":"Scottish Borders","PROVINCE":"Scottish Borders","COUNTRY":"UK","FIREDATE":"2025-03-21 12:49:00","CLASS":"FireSeason","areaHA_geo":8.193},"geometry":{"type":"Polygon","coordinates":[[[-2.985388,55.723647],[-2.985714,55.723675],[-2.986031,55.723631],[-2.986339,55.723515],[-2.986638,55.723326],[-2.986995,55.723235],[-2.98741,55.723243],[-2.987883,55.72335],[-2.988414,55.723555],[-2.988854,55.723685],[-2.989204,55.72374],[-2.989463,55.723719],[-2.989632,55.723622],[-2.989687,55.723501],[-2.989628,55.723354],[-2.989455,55.723182],[-2.989169,55.722986],[-2.989044,55.722823],[-2.989082,55.722695],[-2.989282,55.722601],[-2.989644,55.722541],[-2.989921,55.722526],[-2.990112,55.722558],[-2.990218,55.722634],[-2.990239,55.722757],[-2.990386,55.722914],[-2.990661,55.723106],[-2.991064,55.723333],[-2.991593,55.723595],[-2.991999,55.723757],[-2.992281,55.723818],[-2.992439,55.72378],[-2.992473,55.72364],[-2.992458,55.723506],[-2.992395,55.723377],[-2.992284,55.723253],[-2.992123,55.723133],[-2.991976,55.723024],[-2.991843,55.722925],[-2.991722,55.722836],[-2.991616,55.722756],[-2.991603,55.722687],[-2.991683,55.722628],[-2.991858,55.722578],[-2.992126,55.722539],[-2.992296,55.72246],[-2.992366,55.722339],[-2.992338,55.722178],[-2.99221,55.721977],[-2.992003,55.721792],[-2.991716,55.721623],[-2.991349,55.721472],[-2.990902,55.721337],[-2.990544,55.721213],[-2.990275,55.721099],[-2.990095,55.720996],[-2.990004,55.720904],[-2.989802,55.720856],[-2.98949,55.720855],[-2.989067,55.720898],[-2.988534,55.720987],[-2.988164,55.721099],[-2.987957,55.721233],[-2.987914,55.72139],[-2.988034,55.72157],[-2.988186,55.721724],[-2.988369,55.721852],[-2.988584,55.721955],[-2.988831,55.722031],[-2.988977,55.722106],[-2.989021,55.722181],[-2.988966,55.722254],[-2.988809,55.722327],[-2.988628,55.722374],[-2.988424,55.722395],[-2.988197,55.72239],[-2.987945,55.72236],[-2.987665,55.722349],[-2.987356,55.722358],[-2.987019,55.722387],[-2.986654,55.722436],[-2.986335,55.722446],[-2.986064,55.722418],[-2.985841,55.72235],[-2.985665,55.722244],[-2.985482,55.722192],[-2.985292,55.722195],[-2.985095,55.722252],[-2.98489,55.722363],[-2.98478,55.722471],[-2.984765,55.722574],[-2.984843,55.722674],[-2.985015,55.722769],[-2.985099,55.722871],[-2.985095,55.722978],[-2.985002,55.723093],[-2.984821,55.723213],[-2.984769,55.723329],[-2.984846,55.723439],[-2.985053,55.723545],[-2.985388,55.723647]]]}}