{"type":"Feature","properties":{"id":"263752","COMMUNE":"Scottish Borders","PROVINCE":"Scottish Borders","COUNTRY":"UK","FIREDATE":"2025-03-18 16:44:38.144","FINALDATE":"2025-03-19 16:44:39.925","CLASS":"FireSeason","areaHA_geo":2.31},"geometry":{"type":"Polygon","coordinates":[[[-2.896611,55.557031],[-2.896805,55.557095],[-2.89695,55.557108],[-2.897046,55.557069],[-2.897092,55.556979],[-2.897144,55.556908],[-2.897203,55.556856],[-2.897268,55.556823],[-2.897339,55.55681],[-2.897435,55.556823],[-2.897557,55.556862],[-2.897703,55.556928],[-2.897874,55.557021],[-2.897971,55.557104],[-2.897996,55.557178],[-2.897947,55.557243],[-2.897824,55.557298],[-2.897851,55.557362],[-2.898026,55.557436],[-2.898351,55.557519],[-2.898825,55.557611],[-2.899191,55.557672],[-2.899451,55.557704],[-2.899602,55.557705],[-2.899647,55.557676],[-2.899704,55.557627],[-2.899774,55.557559],[-2.899856,55.557471],[-2.89995,55.557364],[-2.900017,55.55727],[-2.900055,55.557189],[-2.900066,55.557123],[-2.900048,55.557069],[-2.900089,55.557021],[-2.900188,55.556977],[-2.900346,55.556938],[-2.900562,55.556904],[-2.900695,55.556864],[-2.900745,55.556819],[-2.900712,55.556769],[-2.900597,55.556714],[-2.900473,55.556676],[-2.900342,55.556656],[-2.900203,55.556653],[-2.900057,55.556668],[-2.899879,55.55667],[-2.899669,55.556658],[-2.899428,55.556632],[-2.899156,55.556593],[-2.898942,55.556552],[-2.898788,55.55651],[-2.898692,55.556466],[-2.898656,55.556421],[-2.898603,55.556391],[-2.898533,55.556377],[-2.898447,55.556378],[-2.898344,55.556395],[-2.898248,55.556397],[-2.898157,55.556385],[-2.898073,55.556359],[-2.897994,55.556318],[-2.897882,55.556305],[-2.897735,55.55632],[-2.897555,55.556363],[-2.89734,55.556434],[-2.897158,55.556474],[-2.89701,55.556483],[-2.896895,55.556461],[-2.896812,55.556409],[-2.896708,55.556395],[-2.896581,55.55642],[-2.896432,55.556484],[-2.89626,55.556588],[-2.896192,55.556694],[-2.896228,55.556803],[-2.896368,55.556916],[-2.896611,55.557031]]]}}