{"type":"Feature","properties":{"id":"263737","COMMUNE":"Scottish Borders","PROVINCE":"Scottish Borders","COUNTRY":"UK","FIREDATE":"2025-03-19 12:34:00","CLASS":"FireSeason","areaHA_geo":5.588},"geometry":{"type":"Polygon","coordinates":[[[-3.228163,55.569387],[-3.228382,55.569598],[-3.22862,55.56969],[-3.228877,55.569663],[-3.229154,55.569517],[-3.229336,55.569345],[-3.229425,55.569148],[-3.22942,55.568925],[-3.229322,55.568676],[-3.229249,55.568395],[-3.229203,55.568083],[-3.229183,55.567738],[-3.229189,55.567361],[-3.229263,55.567033],[-3.229406,55.566755],[-3.229618,55.566526],[-3.229897,55.566346],[-3.23006,55.566193],[-3.230107,55.566067],[-3.230036,55.565968],[-3.229849,55.565896],[-3.229718,55.565815],[-3.229644,55.565727],[-3.229626,55.565631],[-3.229665,55.565526],[-3.229736,55.565396],[-3.229838,55.565238],[-3.229972,55.565055],[-3.230139,55.564845],[-3.230271,55.564635],[-3.23037,55.564424],[-3.230436,55.564212],[-3.230468,55.564],[-3.230431,55.56388],[-3.230326,55.563854],[-3.230152,55.56392],[-3.22991,55.56408],[-3.229632,55.564286],[-3.229318,55.564541],[-3.228968,55.564843],[-3.228583,55.565193],[-3.228278,55.565541],[-3.228054,55.565886],[-3.227911,55.566229],[-3.227849,55.56657],[-3.227796,55.566919],[-3.227753,55.567274],[-3.22772,55.567637],[-3.227697,55.568007],[-3.227729,55.568367],[-3.227818,55.568717],[-3.227962,55.569058],[-3.228163,55.569387]]]}}