{"type":"Feature","properties":{"id":"263895","COMMUNE":"Caithness and Sutherland","PROVINCE":"Caithness & Sutherland and Ross & Cromarty","COUNTRY":"UK","FIREDATE":"2025-03-20 12:17:00","FINALDATE":"2025-03-20 13:33:00","CLASS":"FireSeason","areaHA_geo":3.198},"geometry":{"type":"Polygon","coordinates":[[[-3.861889,58.075731],[-3.86213,58.075853],[-3.862317,58.075898],[-3.86245,58.075865],[-3.862528,58.075754],[-3.862617,58.075647],[-3.862716,58.075544],[-3.862826,58.075444],[-3.862947,58.075348],[-3.862999,58.075202],[-3.862983,58.075004],[-3.862899,58.074757],[-3.862747,58.074459],[-3.862611,58.074184],[-3.86249,58.073934],[-3.862384,58.073708],[-3.862293,58.073506],[-3.86216,58.073318],[-3.861984,58.073144],[-3.861764,58.072985],[-3.861502,58.072839],[-3.861255,58.072789],[-3.861025,58.072836],[-3.86081,58.072978],[-3.860612,58.073217],[-3.860515,58.0735],[-3.860521,58.073826],[-3.860628,58.074196],[-3.860836,58.07461],[-3.861067,58.074971],[-3.861319,58.075278],[-3.861593,58.075531],[-3.861889,58.075731]]]}}