{"type":"Feature","properties":{"id":"263824","COMMUNE":"Scottish Borders","PROVINCE":"Scottish Borders","COUNTRY":"UK","FIREDATE":"2025-03-02 12:04:00","CLASS":"FireSeason","areaHA_geo":1.438},"geometry":{"type":"Polygon","coordinates":[[[-3.026244,55.749401],[-3.02676,55.749397],[-3.027191,55.74936],[-3.027536,55.749289],[-3.027797,55.749184],[-3.027971,55.749046],[-3.02812,55.748947],[-3.028242,55.748885],[-3.028338,55.748861],[-3.028407,55.748875],[-3.028463,55.748877],[-3.028505,55.748866],[-3.028533,55.748843],[-3.028548,55.748807],[-3.028589,55.748773],[-3.028656,55.748742],[-3.02875,55.748712],[-3.028871,55.748685],[-3.028997,55.74868],[-3.029131,55.748697],[-3.029271,55.748737],[-3.029417,55.748799],[-3.029516,55.74886],[-3.029569,55.748919],[-3.029574,55.748978],[-3.029532,55.749036],[-3.029487,55.749097],[-3.029438,55.749161],[-3.029385,55.749228],[-3.029329,55.749298],[-3.029251,55.749348],[-3.029153,55.749379],[-3.029034,55.749389],[-3.028894,55.74938],[-3.028831,55.749401],[-3.028846,55.74945],[-3.028938,55.74953],[-3.029108,55.749638],[-3.02924,55.749694],[-3.029337,55.749697],[-3.029396,55.749647],[-3.029419,55.749544],[-3.029465,55.749448],[-3.029536,55.749358],[-3.029631,55.749275],[-3.02975,55.749199],[-3.029845,55.749124],[-3.029916,55.74905],[-3.029962,55.748978],[-3.029984,55.748907],[-3.029996,55.748835],[-3.029998,55.748762],[-3.029991,55.748688],[-3.029973,55.748613],[-3.029944,55.748548],[-3.029903,55.748495],[-3.029851,55.748452],[-3.029787,55.74842],[-3.029697,55.748389],[-3.02958,55.748358],[-3.029436,55.748328],[-3.029267,55.748298],[-3.029107,55.748287],[-3.028956,55.748293],[-3.028816,55.748316],[-3.028685,55.748358],[-3.028558,55.748395],[-3.028434,55.748429],[-3.028314,55.74846],[-3.028197,55.748487],[-3.028104,55.748519],[-3.028034,55.748555],[-3.027988,55.748595],[-3.027965,55.748641],[-3.02792,55.748679],[-3.027853,55.748712],[-3.027764,55.748738],[-3.027652,55.748758],[-3.027566,55.748792],[-3.027506,55.748839],[-3.027471,55.748899],[-3.027461,55.748973],[-3.027418,55.74903],[-3.02734,55.74907],[-3.027228,55.749093],[-3.027081,55.7491],[-3.026983,55.749089],[-3.026934,55.74906],[-3.026932,55.749013],[-3.026979,55.748948],[-3.026922,55.748918],[-3.02676,55.748924],[-3.026494,55.748966],[-3.026124,55.749043],[-3.02584,55.749116],[-3.025642,55.749185],[-3.025531,55.749251],[-3.025506,55.749314],[-3.025617,55.74936],[-3.025863,55.749389],[-3.026244,55.749401]]]}}