{"type":"Feature","properties":{"id":"263821","COMMUNE":"Scottish Borders","PROVINCE":"Scottish Borders","COUNTRY":"UK","FIREDATE":"2025-03-20 13:08:00","FINALDATE":"2025-03-20 13:08:00","CLASS":"FireSeason","areaHA_geo":0.526},"geometry":{"type":"Polygon","coordinates":[[[-3.15672,55.626935],[-3.1567,55.62677],[-3.156667,55.626648],[-3.156623,55.626567],[-3.156567,55.626529],[-3.156499,55.626532],[-3.156424,55.626519],[-3.156343,55.626491],[-3.156254,55.626447],[-3.156159,55.626387],[-3.156046,55.626333],[-3.155916,55.626285],[-3.15577,55.626242],[-3.155606,55.626205],[-3.155481,55.6262],[-3.155393,55.626226],[-3.155344,55.626285],[-3.155333,55.626375],[-3.155344,55.626442],[-3.155377,55.626487],[-3.15543,55.62651],[-3.155506,55.62651],[-3.155573,55.626535],[-3.155631,55.626585],[-3.15568,55.62666],[-3.155721,55.62676],[-3.155771,55.626839],[-3.155832,55.626897],[-3.155902,55.626933],[-3.155983,55.626948],[-3.156057,55.626973],[-3.156124,55.627009],[-3.156184,55.627055],[-3.156237,55.627111],[-3.156304,55.627152],[-3.156385,55.627179],[-3.15648,55.62719],[-3.156589,55.627187],[-3.156665,55.627143],[-3.156709,55.627059],[-3.15672,55.626935]]]}}