{"type":"Feature","properties":{"id":"263891","COMMUNE":"Caithness and Sutherland","PROVINCE":"Caithness & Sutherland and Ross & Cromarty","COUNTRY":"UK","FIREDATE":"2025-03-03 13:29:00","CLASS":"FireSeason","areaHA_geo":4.551},"geometry":{"type":"Polygon","coordinates":[[[-3.847867,58.065308],[-3.848228,58.065303],[-3.848505,58.065243],[-3.848697,58.06513],[-3.848806,58.064964],[-3.848829,58.064743],[-3.848908,58.064586],[-3.849041,58.064492],[-3.849229,58.064461],[-3.849472,58.064494],[-3.849677,58.06453],[-3.849844,58.06457],[-3.849973,58.064614],[-3.850064,58.064662],[-3.850252,58.064662],[-3.850536,58.064613],[-3.850916,58.064516],[-3.851393,58.06437],[-3.851792,58.064205],[-3.852115,58.06402],[-3.85236,58.063817],[-3.852529,58.063594],[-3.852637,58.063413],[-3.852686,58.063273],[-3.852675,58.063175],[-3.852605,58.063118],[-3.85238,58.063092],[-3.852,58.063097],[-3.851465,58.063132],[-3.850775,58.063197],[-3.850211,58.063272],[-3.849771,58.063357],[-3.849456,58.06345],[-3.849266,58.063554],[-3.849089,58.06363],[-3.848926,58.063679],[-3.848777,58.063701],[-3.848642,58.063696],[-3.848434,58.063722],[-3.848154,58.06378],[-3.847801,58.06387],[-3.847375,58.063991],[-3.847008,58.064099],[-3.846698,58.064192],[-3.846447,58.064271],[-3.846254,58.064336],[-3.846174,58.064394],[-3.846206,58.064445],[-3.84635,58.064489],[-3.846607,58.064527],[-3.84682,58.0646],[-3.84699,58.064711],[-3.847117,58.064858],[-3.8472,58.065042],[-3.847353,58.065178],[-3.847575,58.065267],[-3.847867,58.065308]]]}}