{"type":"Feature","properties":{"id":"263866","COMMUNE":"Hambleton","PROVINCE":"North Yorkshire CC","COUNTRY":"UK","FIREDATE":"2025-03-20 11:51:00","FINALDATE":"2025-03-20 13:31:00","CLASS":"FireSeason","areaHA_geo":6.869},"geometry":{"type":"Polygon","coordinates":[[[-0.977119,54.466435],[-0.977377,54.466448],[-0.977718,54.466384],[-0.978142,54.466242],[-0.978649,54.466023],[-0.979113,54.465858],[-0.979534,54.465748],[-0.97991,54.465693],[-0.980243,54.465692],[-0.980568,54.465661],[-0.980885,54.465599],[-0.981193,54.465506],[-0.981493,54.465382],[-0.98174,54.465247],[-0.981933,54.465099],[-0.982073,54.464939],[-0.98216,54.464766],[-0.982195,54.46463],[-0.982176,54.46453],[-0.982105,54.464466],[-0.981981,54.464439],[-0.981844,54.464393],[-0.981693,54.464329],[-0.98153,54.464247],[-0.981353,54.464146],[-0.981173,54.46408],[-0.980989,54.464048],[-0.980802,54.46405],[-0.980612,54.464087],[-0.980455,54.46406],[-0.980331,54.463969],[-0.980239,54.463815],[-0.980181,54.463598],[-0.980111,54.463384],[-0.98003,54.463173],[-0.979937,54.462966],[-0.979832,54.462763],[-0.979697,54.462615],[-0.979531,54.462524],[-0.979334,54.462488],[-0.979106,54.462508],[-0.978959,54.462613],[-0.978894,54.462803],[-0.978909,54.463077],[-0.979005,54.463437],[-0.978976,54.463746],[-0.978821,54.464007],[-0.97854,54.464218],[-0.978134,54.46438],[-0.977833,54.464531],[-0.977637,54.464669],[-0.977546,54.464796],[-0.97756,54.46491],[-0.97752,54.465011],[-0.977426,54.465097],[-0.977279,54.465168],[-0.977078,54.465224],[-0.976921,54.465292],[-0.976808,54.465369],[-0.97674,54.465458],[-0.976717,54.465557],[-0.976756,54.465623],[-0.976857,54.465658],[-0.97702,54.46566],[-0.977245,54.46563],[-0.977419,54.465627],[-0.977542,54.46565],[-0.977613,54.465699],[-0.977633,54.465775],[-0.977617,54.465837],[-0.977563,54.465885],[-0.977472,54.46592],[-0.977345,54.465941],[-0.97722,54.465971],[-0.977097,54.466011],[-0.976977,54.466061],[-0.97686,54.46612],[-0.976815,54.466186],[-0.976844,54.466261],[-0.976945,54.466344],[-0.977119,54.466435]]]}}