{"type":"Feature","properties":{"id":"263822","COMMUNE":"Scottish Borders","PROVINCE":"Scottish Borders","COUNTRY":"UK","FIREDATE":"2025-03-20 13:08:00","FINALDATE":"2025-03-20 13:08:00","CLASS":"FireSeason","areaHA_geo":1.007},"geometry":{"type":"Polygon","coordinates":[[[-3.157189,55.625602],[-3.157269,55.625653],[-3.15732,55.625644],[-3.157345,55.625574],[-3.157342,55.625442],[-3.157359,55.625341],[-3.157397,55.625269],[-3.157455,55.625227],[-3.157533,55.625215],[-3.157582,55.625193],[-3.157602,55.62516],[-3.157593,55.625116],[-3.157554,55.625062],[-3.157509,55.625025],[-3.157458,55.625005],[-3.1574,55.625003],[-3.157336,55.625017],[-3.157271,55.625024],[-3.157206,55.625023],[-3.15714,55.625014],[-3.157072,55.624998],[-3.157008,55.624945],[-3.156947,55.624854],[-3.156888,55.624727],[-3.156833,55.624562],[-3.156833,55.624449],[-3.156887,55.624387],[-3.156997,55.624377],[-3.157162,55.624417],[-3.157296,55.624469],[-3.1574,55.624532],[-3.157473,55.624606],[-3.157515,55.62469],[-3.157572,55.624763],[-3.157644,55.624823],[-3.15773,55.624871],[-3.157832,55.624907],[-3.157917,55.624922],[-3.157988,55.624917],[-3.158043,55.624891],[-3.158082,55.624844],[-3.158055,55.624769],[-3.157962,55.624667],[-3.157803,55.624536],[-3.157578,55.624378],[-3.157384,55.62424],[-3.157221,55.624124],[-3.15709,55.624028],[-3.156989,55.623953],[-3.156888,55.623887],[-3.156786,55.62383],[-3.156684,55.623782],[-3.156581,55.623742],[-3.15647,55.623732],[-3.156349,55.62375],[-3.156219,55.623798],[-3.15608,55.623874],[-3.156012,55.623942],[-3.156014,55.624002],[-3.156088,55.624053],[-3.156233,55.624096],[-3.156349,55.62417],[-3.156436,55.624276],[-3.156494,55.624412],[-3.156523,55.624579],[-3.156536,55.62471],[-3.156534,55.624806],[-3.156516,55.624865],[-3.156482,55.624887],[-3.156474,55.624914],[-3.156491,55.624946],[-3.156534,55.624981],[-3.156602,55.62502],[-3.156637,55.625057],[-3.156638,55.625092],[-3.156606,55.625124],[-3.156541,55.625154],[-3.156503,55.625189],[-3.156492,55.625229],[-3.156509,55.625274],[-3.156553,55.625324],[-3.156605,55.625356],[-3.156665,55.625371],[-3.156733,55.625369],[-3.156809,55.625349],[-3.156893,55.625363],[-3.156984,55.625409],[-3.157083,55.625489],[-3.157189,55.625602]]]}}