{"type":"Feature","properties":{"id":"263835","COMMUNE":"Scottish Borders","PROVINCE":"Scottish Borders","COUNTRY":"UK","FIREDATE":"2025-03-09 11:34:00","FINALDATE":"2025-03-10 11:34:00","CLASS":"FireSeason","areaHA_geo":31.454},"geometry":{"type":"Polygon","coordinates":[[[-2.476056,55.783083],[-2.476231,55.783127],[-2.476584,55.783025],[-2.477115,55.782777],[-2.477825,55.782381],[-2.47839,55.782096],[-2.478812,55.78192],[-2.479089,55.781854],[-2.479222,55.781898],[-2.47926,55.781971],[-2.479201,55.782075],[-2.479046,55.782209],[-2.478796,55.782373],[-2.478526,55.782555],[-2.478236,55.782754],[-2.477926,55.78297],[-2.477597,55.783204],[-2.477424,55.783395],[-2.477407,55.783544],[-2.477546,55.78365],[-2.477842,55.783714],[-2.478122,55.783719],[-2.478385,55.783664],[-2.478631,55.783551],[-2.47886,55.783379],[-2.479066,55.783231],[-2.479247,55.783107],[-2.479403,55.783007],[-2.479535,55.782932],[-2.47969,55.782849],[-2.479867,55.782756],[-2.480067,55.782655],[-2.480289,55.782546],[-2.480501,55.782477],[-2.480703,55.782449],[-2.480896,55.782463],[-2.481079,55.782517],[-2.481118,55.782597],[-2.481014,55.782702],[-2.480767,55.782834],[-2.480376,55.782991],[-2.480043,55.783162],[-2.479767,55.783347],[-2.479548,55.783545],[-2.479386,55.783758],[-2.479318,55.783919],[-2.479345,55.78403],[-2.479465,55.78409],[-2.47968,55.7841],[-2.479933,55.784044],[-2.480224,55.783923],[-2.480555,55.783735],[-2.480924,55.783482],[-2.481255,55.783268],[-2.481549,55.783095],[-2.481804,55.782961],[-2.482022,55.782867],[-2.482256,55.782799],[-2.482504,55.782757],[-2.482767,55.78274],[-2.483045,55.782748],[-2.483283,55.782765],[-2.483479,55.782789],[-2.483634,55.782822],[-2.483748,55.782862],[-2.483906,55.782895],[-2.484107,55.782922],[-2.484352,55.782942],[-2.484641,55.782954],[-2.484819,55.782981],[-2.484887,55.78302],[-2.484845,55.783074],[-2.484691,55.78314],[-2.484605,55.783201],[-2.484585,55.783254],[-2.484633,55.783301],[-2.484747,55.783341],[-2.484901,55.783435],[-2.485094,55.783581],[-2.485328,55.78378],[-2.485602,55.784031],[-2.485876,55.784292],[-2.48615,55.784562],[-2.486426,55.78484],[-2.486702,55.785128],[-2.48702,55.785341],[-2.487382,55.785481],[-2.487787,55.785547],[-2.488234,55.785539],[-2.488617,55.785602],[-2.488936,55.785735],[-2.48919,55.78594],[-2.489379,55.786215],[-2.489489,55.78647],[-2.489518,55.786705],[-2.489467,55.786919],[-2.489336,55.787113],[-2.489375,55.787283],[-2.489583,55.78743],[-2.48996,55.787554],[-2.490507,55.787655],[-2.490896,55.787716],[-2.491128,55.787737],[-2.491202,55.787718],[-2.491119,55.787659],[-2.49104,55.787598],[-2.490965,55.787536],[-2.490894,55.787472],[-2.490827,55.787407],[-2.490789,55.787339],[-2.490781,55.787271],[-2.490802,55.7872],[-2.490852,55.787128],[-2.490873,55.787055],[-2.490863,55.786981],[-2.490823,55.786906],[-2.490752,55.786831],[-2.490715,55.786765],[-2.490711,55.786708],[-2.49074,55.786662],[-2.490801,55.786625],[-2.49084,55.78656],[-2.490857,55.786468],[-2.490851,55.786349],[-2.490822,55.786202],[-2.490752,55.786082],[-2.490639,55.78599],[-2.490485,55.785925],[-2.49029,55.785888],[-2.490158,55.785835],[-2.49009,55.785767],[-2.490086,55.785684],[-2.490146,55.785585],[-2.490252,55.785512],[-2.490403,55.785466],[-2.490598,55.785447],[-2.49084,55.785454],[-2.491046,55.785438],[-2.491217,55.785398],[-2.491352,55.785334],[-2.491453,55.785246],[-2.49157,55.785188],[-2.491703,55.78516],[-2.491853,55.78516],[-2.492018,55.78519],[-2.492166,55.785208],[-2.492297,55.785213],[-2.492409,55.785206],[-2.492504,55.785186],[-2.492577,55.785193],[-2.49263,55.785227],[-2.49266,55.785287],[-2.49267,55.785374],[-2.492688,55.785439],[-2.492716,55.785483],[-2.492753,55.785505],[-2.492799,55.785506],[-2.492897,55.785496],[-2.493047,55.785476],[-2.493249,55.785446],[-2.493502,55.785405],[-2.493695,55.785347],[-2.493827,55.785272],[-2.493899,55.78518],[-2.493909,55.785071],[-2.493906,55.784966],[-2.493888,55.784868],[-2.493856,55.784774],[-2.493809,55.784686],[-2.493764,55.784602],[-2.49372,55.784524],[-2.493679,55.784451],[-2.493638,55.784382],[-2.493588,55.784318],[-2.493527,55.784257],[-2.493455,55.784199],[-2.493374,55.784145],[-2.493312,55.784088],[-2.49327,55.784028],[-2.493247,55.783964],[-2.493244,55.783898],[-2.493222,55.783843],[-2.493181,55.783801],[-2.49312,55.78377],[-2.493041,55.783752],[-2.492974,55.783714],[-2.492918,55.783655],[-2.492874,55.783575],[-2.492842,55.783475],[-2.492794,55.783397],[-2.49273,55.783342],[-2.492651,55.783308],[-2.492555,55.783297],[-2.492484,55.783254],[-2.492437,55.783179],[-2.492414,55.783071],[-2.492415,55.782932],[-2.492446,55.782847],[-2.492505,55.782818],[-2.492594,55.782844],[-2.492712,55.782926],[-2.492898,55.782969],[-2.493153,55.782975],[-2.493475,55.782943],[-2.493866,55.782873],[-2.494134,55.782784],[-2.494278,55.782674],[-2.494298,55.782544],[-2.494195,55.782394],[-2.494073,55.782264],[-2.493932,55.782154],[-2.493773,55.782064],[-2.493594,55.781994],[-2.493424,55.781943],[-2.493261,55.78191],[-2.493107,55.781895],[-2.492962,55.781899],[-2.492822,55.781887],[-2.492689,55.781859],[-2.492563,55.781815],[-2.492442,55.781755],[-2.49231,55.781699],[-2.492165,55.781649],[-2.492008,55.781604],[-2.491839,55.781564],[-2.491687,55.781518],[-2.491551,55.781467],[-2.491432,55.781411],[-2.491329,55.781349],[-2.491175,55.781299],[-2.490971,55.781263],[-2.490715,55.781239],[-2.490409,55.781228],[-2.490192,55.781213],[-2.490067,55.781195],[-2.490032,55.781172],[-2.490088,55.781146],[-2.490223,55.781093],[-2.490436,55.781012],[-2.490728,55.780905],[-2.491098,55.78077],[-2.491362,55.780656],[-2.491521,55.780563],[-2.491573,55.780491],[-2.49152,55.780439],[-2.491476,55.780388],[-2.491441,55.780337],[-2.491416,55.780287],[-2.4914,55.780237],[-2.491399,55.780175],[-2.491412,55.780102],[-2.49144,55.780016],[-2.491482,55.779919],[-2.491546,55.779839],[-2.491631,55.779777],[-2.491739,55.779731],[-2.491867,55.779703],[-2.491968,55.779652],[-2.492041,55.779577],[-2.492085,55.77948],[-2.492102,55.77936],[-2.49219,55.779261],[-2.492348,55.779183],[-2.492578,55.779127],[-2.492879,55.779092],[-2.493131,55.779051],[-2.493332,55.779006],[-2.493483,55.778955],[-2.493584,55.778898],[-2.493595,55.778824],[-2.493515,55.778731],[-2.493344,55.77862],[-2.493082,55.778491],[-2.49286,55.778408],[-2.492679,55.778372],[-2.492537,55.778382],[-2.492436,55.778439],[-2.492305,55.778468],[-2.492146,55.778471],[-2.491956,55.778447],[-2.491738,55.778397],[-2.491538,55.778361],[-2.491357,55.77834],[-2.491195,55.778334],[-2.49105,55.778344],[-2.490989,55.778374],[-2.49101,55.778426],[-2.491114,55.7785],[-2.491301,55.778595],[-2.49147,55.778684],[-2.49162,55.778767],[-2.491753,55.778844],[-2.491868,55.778916],[-2.491879,55.778986],[-2.491786,55.779054],[-2.491589,55.779121],[-2.491289,55.779187],[-2.491029,55.77925],[-2.490809,55.779311],[-2.49063,55.779368],[-2.490492,55.779423],[-2.490431,55.779493],[-2.490449,55.779576],[-2.490544,55.779674],[-2.490718,55.779786],[-2.490734,55.77987],[-2.490592,55.779928],[-2.490291,55.779959],[-2.489833,55.779963],[-2.489464,55.779951],[-2.489184,55.779922],[-2.488992,55.779876],[-2.48889,55.779814],[-2.488765,55.779746],[-2.488617,55.779673],[-2.488447,55.779595],[-2.488255,55.77951],[-2.488066,55.779409],[-2.487882,55.779291],[-2.4877,55.779155],[-2.487523,55.779002],[-2.487377,55.778918],[-2.487262,55.778904],[-2.487178,55.778959],[-2.487126,55.779083],[-2.487147,55.779226],[-2.487241,55.77939],[-2.487407,55.779574],[-2.487647,55.779777],[-2.487868,55.779951],[-2.488071,55.780096],[-2.488255,55.780212],[-2.488421,55.780299],[-2.488583,55.780354],[-2.488742,55.780377],[-2.488897,55.780368],[-2.48905,55.780327],[-2.489182,55.780303],[-2.489294,55.780294],[-2.489386,55.780302],[-2.489458,55.780326],[-2.489504,55.780355],[-2.489524,55.780389],[-2.489518,55.780428],[-2.489487,55.780473],[-2.489461,55.780543],[-2.489442,55.780641],[-2.489429,55.780765],[-2.489422,55.780915],[-2.489379,55.781032],[-2.4893,55.781114],[-2.489184,55.781163],[-2.489033,55.781178],[-2.488924,55.781204],[-2.488858,55.781242],[-2.488835,55.781291],[-2.488854,55.781351],[-2.488883,55.781421],[-2.488923,55.781503],[-2.488973,55.781594],[-2.489034,55.781697],[-2.489123,55.781776],[-2.489242,55.781831],[-2.48939,55.781863],[-2.489567,55.781871],[-2.489675,55.781898],[-2.489712,55.781943],[-2.48968,55.782007],[-2.489578,55.78209],[-2.489567,55.7822],[-2.489648,55.782339],[-2.489822,55.782507],[-2.490086,55.782703],[-2.490294,55.78287],[-2.490445,55.78301],[-2.490538,55.783122],[-2.490574,55.783207],[-2.490626,55.783253],[-2.490693,55.783262],[-2.490776,55.783233],[-2.490874,55.783167],[-2.490986,55.783138],[-2.491113,55.783146],[-2.491254,55.783191],[-2.491409,55.783274],[-2.491488,55.783342],[-2.491491,55.783396],[-2.491419,55.783435],[-2.491271,55.78346],[-2.4912,55.78351],[-2.491205,55.783584],[-2.491287,55.783683],[-2.491446,55.783807],[-2.491543,55.783899],[-2.491576,55.783961],[-2.491547,55.783991],[-2.491454,55.783989],[-2.491325,55.78398],[-2.491159,55.783963],[-2.490955,55.783938],[-2.490715,55.783905],[-2.490508,55.783888],[-2.490333,55.783887],[-2.490191,55.783903],[-2.490081,55.783934],[-2.490025,55.783987],[-2.490022,55.784063],[-2.490071,55.78416],[-2.490173,55.784279],[-2.490294,55.784375],[-2.490433,55.784449],[-2.490589,55.784501],[-2.490764,55.78453],[-2.490851,55.784579],[-2.49085,55.784649],[-2.490762,55.784739],[-2.490586,55.78485],[-2.490285,55.784843],[-2.48986,55.78472],[-2.48931,55.78448],[-2.488635,55.784124],[-2.488082,55.783865],[-2.487649,55.783704],[-2.487337,55.78364],[-2.487146,55.783675],[-2.48696,55.783684],[-2.486781,55.783668],[-2.486607,55.783627],[-2.486439,55.783561],[-2.486268,55.783479],[-2.486093,55.78338],[-2.485916,55.783265],[-2.485736,55.783133],[-2.485594,55.783012],[-2.485491,55.782904],[-2.485425,55.782807],[-2.485398,55.782722],[-2.485449,55.782672],[-2.485577,55.782657],[-2.485783,55.782676],[-2.486067,55.782731],[-2.486252,55.782742],[-2.486338,55.782711],[-2.486326,55.782636],[-2.486215,55.782518],[-2.486097,55.782416],[-2.485973,55.78233],[-2.485843,55.78226],[-2.485706,55.782207],[-2.48561,55.782149],[-2.485553,55.782087],[-2.485537,55.782022],[-2.48556,55.781952],[-2.485389,55.781833],[-2.485022,55.781662],[-2.48446,55.781442],[-2.483702,55.781171],[-2.483059,55.780969],[-2.482529,55.780835],[-2.482113,55.78077],[-2.481812,55.780774],[-2.481508,55.780767],[-2.481204,55.780748],[-2.480898,55.780718],[-2.48059,55.780676],[-2.480347,55.780661],[-2.480167,55.780674],[-2.480051,55.780714],[-2.479999,55.780781],[-2.479906,55.780848],[-2.479771,55.780915],[-2.479596,55.780983],[-2.479378,55.781051],[-2.479098,55.781137],[-2.478755,55.78124],[-2.478348,55.781362],[-2.477878,55.781501],[-2.477456,55.781662],[-2.477083,55.781843],[-2.476757,55.782046],[-2.47648,55.782269],[-2.476271,55.782485],[-2.47613,55.782692],[-2.476059,55.782891],[-2.476056,55.783083]]]}}