{"type":"Feature","properties":{"id":"263823","COMMUNE":"Scottish Borders","PROVINCE":"Scottish Borders","COUNTRY":"UK","FIREDATE":"2025-03-20 13:08:00","CLASS":"FireSeason","areaHA_geo":1.971},"geometry":{"type":"Polygon","coordinates":[[[-3.15252,55.624942],[-3.152715,55.624848],[-3.152883,55.624744],[-3.153023,55.624631],[-3.153136,55.624507],[-3.153222,55.624375],[-3.153265,55.624277],[-3.153265,55.624215],[-3.153221,55.624189],[-3.153135,55.624198],[-3.153065,55.624224],[-3.15301,55.624266],[-3.152972,55.624325],[-3.152949,55.624401],[-3.152903,55.624456],[-3.152832,55.624491],[-3.152737,55.624505],[-3.152618,55.624498],[-3.15253,55.624467],[-3.152474,55.624413],[-3.15245,55.624335],[-3.152457,55.624234],[-3.152491,55.624146],[-3.152552,55.624072],[-3.15264,55.624011],[-3.152754,55.623965],[-3.152832,55.623905],[-3.152873,55.623833],[-3.152878,55.623748],[-3.152845,55.623651],[-3.152815,55.623563],[-3.152789,55.623485],[-3.152766,55.623415],[-3.152746,55.623355],[-3.152663,55.623288],[-3.152517,55.623212],[-3.152309,55.623128],[-3.152037,55.623036],[-3.151816,55.622967],[-3.151646,55.622919],[-3.151525,55.622892],[-3.151455,55.622888],[-3.151396,55.622892],[-3.151349,55.622905],[-3.151313,55.622926],[-3.151289,55.622956],[-3.151242,55.622964],[-3.151172,55.62295],[-3.151079,55.622914],[-3.150964,55.622856],[-3.150882,55.622833],[-3.150834,55.622844],[-3.15082,55.622889],[-3.15084,55.622968],[-3.150871,55.623035],[-3.150914,55.623091],[-3.150968,55.623135],[-3.151034,55.623167],[-3.151103,55.623201],[-3.151178,55.623238],[-3.151256,55.623277],[-3.151339,55.623319],[-3.151404,55.623363],[-3.15145,55.623411],[-3.151479,55.623461],[-3.15149,55.623514],[-3.151477,55.623567],[-3.15144,55.623619],[-3.151378,55.623671],[-3.151292,55.623722],[-3.151243,55.623821],[-3.151231,55.623968],[-3.151255,55.624162],[-3.151315,55.624404],[-3.151412,55.624605],[-3.151545,55.624765],[-3.151714,55.624885],[-3.151919,55.624964],[-3.152122,55.625],[-3.152322,55.624993],[-3.15252,55.624942]]]}}