{"type":"Feature","properties":{"id":"263808","COMMUNE":"Scottish Borders","PROVINCE":"Scottish Borders","COUNTRY":"UK","FIREDATE":"2025-03-09 13:40:00","FINALDATE":"2025-03-09 14:01:00","CLASS":"FireSeason","areaHA_geo":4.836},"geometry":{"type":"Polygon","coordinates":[[[-3.076544,55.73436],[-3.076632,55.734475],[-3.076772,55.734549],[-3.076962,55.734582],[-3.077202,55.734573],[-3.077452,55.734527],[-3.07771,55.734444],[-3.077977,55.734324],[-3.078254,55.734166],[-3.078483,55.733975],[-3.078666,55.733751],[-3.078801,55.733493],[-3.07889,55.733202],[-3.079,55.732923],[-3.079133,55.732656],[-3.079287,55.732401],[-3.079463,55.732157],[-3.079682,55.73186],[-3.079944,55.731511],[-3.080249,55.731109],[-3.080598,55.730654],[-3.08079,55.730298],[-3.080825,55.730041],[-3.080704,55.729883],[-3.080426,55.729823],[-3.080141,55.729804],[-3.079848,55.729826],[-3.079547,55.72989],[-3.079238,55.729994],[-3.079023,55.730142],[-3.0789,55.730331],[-3.078871,55.730564],[-3.078935,55.730839],[-3.078939,55.731076],[-3.078884,55.731275],[-3.07877,55.731436],[-3.078596,55.731558],[-3.078497,55.731669],[-3.078473,55.731768],[-3.078524,55.731856],[-3.07865,55.731931],[-3.078725,55.732006],[-3.07875,55.73208],[-3.078724,55.732153],[-3.078648,55.732225],[-3.07855,55.732306],[-3.078429,55.732395],[-3.078287,55.732492],[-3.078122,55.732598],[-3.077933,55.732688],[-3.077722,55.732762],[-3.077488,55.732821],[-3.07723,55.732863],[-3.077062,55.732929],[-3.076985,55.733018],[-3.076997,55.733129],[-3.077099,55.733263],[-3.077126,55.733396],[-3.077076,55.733525],[-3.076951,55.733653],[-3.07675,55.733779],[-3.076608,55.733912],[-3.076527,55.734053],[-3.076505,55.734203],[-3.076544,55.73436]]]}}