{"type":"Feature","properties":{"id":"263901","COMMUNE":"Inverness and Nairn","PROVINCE":"Inverness & Nairn and Moray, Badenoch & Strathspey","COUNTRY":"UK","FIREDATE":"2025-03-19 13:27:00","FINALDATE":"2025-03-19 14:16:00","CLASS":"FireSeason","areaHA_geo":16.204},"geometry":{"type":"Polygon","coordinates":[[[-4.52904,57.137657],[-4.529148,57.137731],[-4.529291,57.137758],[-4.52947,57.137737],[-4.529683,57.137668],[-4.52984,57.137588],[-4.529941,57.137495],[-4.529985,57.137391],[-4.529973,57.137276],[-4.529986,57.137187],[-4.530023,57.137124],[-4.530086,57.137088],[-4.530173,57.137078],[-4.530248,57.137053],[-4.530311,57.137012],[-4.530362,57.136956],[-4.5304,57.136884],[-4.530406,57.13682],[-4.53038,57.136765],[-4.530322,57.136718],[-4.530232,57.136678],[-4.530156,57.136638],[-4.530094,57.136598],[-4.530047,57.136557],[-4.530014,57.136516],[-4.53,57.136465],[-4.530005,57.136403],[-4.530029,57.136332],[-4.530072,57.136251],[-4.530121,57.136185],[-4.530175,57.136134],[-4.530236,57.136098],[-4.530302,57.136077],[-4.530356,57.136044],[-4.530396,57.135999],[-4.530423,57.135942],[-4.530438,57.135873],[-4.530419,57.13582],[-4.530367,57.135783],[-4.530282,57.135762],[-4.530164,57.135757],[-4.530073,57.135742],[-4.530009,57.135715],[-4.529971,57.135678],[-4.52996,57.135629],[-4.529971,57.135589],[-4.530004,57.135556],[-4.530058,57.135531],[-4.530135,57.135513],[-4.530222,57.135508],[-4.53032,57.135515],[-4.530429,57.135534],[-4.530549,57.135566],[-4.530669,57.135565],[-4.530789,57.135531],[-4.530908,57.135465],[-4.531027,57.135366],[-4.531128,57.135292],[-4.531212,57.135242],[-4.531279,57.135216],[-4.531328,57.135215],[-4.531396,57.135209],[-4.531483,57.135197],[-4.531588,57.13518],[-4.531712,57.135157],[-4.531819,57.135113],[-4.53191,57.135049],[-4.531985,57.134964],[-4.532043,57.134859],[-4.53206,57.134792],[-4.532036,57.134763],[-4.531971,57.134772],[-4.531866,57.13482],[-4.53178,57.134834],[-4.531714,57.134815],[-4.531668,57.134761],[-4.531642,57.134674],[-4.531609,57.1346],[-4.531569,57.13454],[-4.531521,57.134492],[-4.531466,57.134458],[-4.531441,57.134416],[-4.531446,57.134366],[-4.531482,57.134308],[-4.531547,57.134242],[-4.531618,57.13419],[-4.531694,57.134153],[-4.531776,57.134129],[-4.531864,57.134119],[-4.531956,57.13409],[-4.532053,57.13404],[-4.532154,57.133972],[-4.532261,57.133883],[-4.532337,57.133803],[-4.532383,57.13373],[-4.532399,57.133666],[-4.532385,57.133609],[-4.53238,57.13356],[-4.532385,57.133519],[-4.532399,57.133486],[-4.532422,57.133461],[-4.532448,57.133415],[-4.532476,57.133349],[-4.532506,57.133262],[-4.532539,57.133155],[-4.532527,57.13309],[-4.532473,57.133067],[-4.532374,57.133086],[-4.532232,57.133147],[-4.532108,57.133178],[-4.532,57.133179],[-4.53191,57.133149],[-4.531837,57.13309],[-4.531748,57.133054],[-4.531643,57.133041],[-4.531523,57.133051],[-4.531386,57.133084],[-4.531296,57.133128],[-4.531251,57.133183],[-4.531252,57.133248],[-4.531298,57.133324],[-4.531355,57.133396],[-4.531424,57.133465],[-4.531504,57.13353],[-4.531594,57.133592],[-4.531645,57.133651],[-4.531655,57.133708],[-4.531624,57.133764],[-4.531554,57.133816],[-4.531453,57.133866],[-4.531322,57.133912],[-4.53116,57.133955],[-4.530969,57.133994],[-4.530809,57.134016],[-4.530681,57.134019],[-4.530586,57.134004],[-4.530523,57.13397],[-4.530445,57.133928],[-4.53035,57.133878],[-4.53024,57.13382],[-4.530114,57.133753],[-4.529974,57.13369],[-4.529818,57.133631],[-4.529647,57.133576],[-4.529461,57.133525],[-4.529366,57.13348],[-4.529364,57.133442],[-4.529453,57.133411],[-4.529634,57.133386],[-4.529798,57.133376],[-4.529945,57.13338],[-4.530074,57.133398],[-4.530187,57.13343],[-4.530262,57.133436],[-4.530299,57.133416],[-4.5303,57.13337],[-4.530263,57.133298],[-4.530219,57.133233],[-4.530168,57.133176],[-4.530109,57.133126],[-4.530042,57.133084],[-4.529967,57.133044],[-4.529881,57.133007],[-4.529786,57.132971],[-4.529682,57.132938],[-4.52959,57.13291],[-4.529511,57.132888],[-4.529444,57.13287],[-4.529389,57.132858],[-4.529331,57.132837],[-4.529269,57.132806],[-4.529203,57.132765],[-4.529134,57.132714],[-4.529072,57.132664],[-4.529019,57.132613],[-4.528975,57.132563],[-4.528939,57.132513],[-4.528866,57.132478],[-4.528758,57.132456],[-4.528614,57.132448],[-4.528434,57.132455],[-4.528279,57.13248],[-4.528146,57.132524],[-4.528038,57.132587],[-4.527954,57.132669],[-4.527933,57.132729],[-4.527973,57.13277],[-4.528077,57.13279],[-4.528242,57.132789],[-4.528381,57.132795],[-4.528494,57.132807],[-4.52858,57.132825],[-4.52864,57.13285],[-4.52868,57.132879],[-4.528702,57.132913],[-4.528704,57.132951],[-4.528688,57.132993],[-4.528688,57.133036],[-4.528705,57.133079],[-4.528738,57.133122],[-4.528789,57.133166],[-4.528772,57.133193],[-4.528689,57.133202],[-4.528538,57.133194],[-4.528321,57.133169],[-4.528126,57.133153],[-4.527953,57.133145],[-4.527802,57.133146],[-4.527673,57.133156],[-4.527565,57.133181],[-4.527476,57.13322],[-4.527408,57.133274],[-4.52736,57.133342],[-4.527289,57.133397],[-4.527193,57.133439],[-4.527074,57.133469],[-4.526931,57.133485],[-4.526819,57.133512],[-4.526739,57.13355],[-4.52669,57.133599],[-4.526672,57.13366],[-4.526633,57.133708],[-4.526572,57.133744],[-4.526491,57.133768],[-4.526387,57.133779],[-4.526321,57.133806],[-4.526292,57.133847],[-4.526299,57.133904],[-4.526344,57.133975],[-4.526332,57.13406],[-4.526262,57.134157],[-4.526136,57.134268],[-4.525952,57.134392],[-4.525786,57.134524],[-4.525638,57.134665],[-4.525508,57.134813],[-4.525395,57.13497],[-4.525329,57.135103],[-4.52531,57.135213],[-4.525338,57.1353],[-4.525413,57.135363],[-4.52551,57.135426],[-4.52563,57.135489],[-4.525773,57.135552],[-4.525939,57.135615],[-4.526044,57.135671],[-4.526089,57.135722],[-4.526074,57.135768],[-4.525998,57.135808],[-4.525904,57.135817],[-4.525792,57.135796],[-4.525662,57.135744],[-4.525514,57.135662],[-4.525376,57.135592],[-4.52525,57.135534],[-4.525134,57.135489],[-4.52503,57.135456],[-4.5249,57.135447],[-4.524744,57.135462],[-4.524563,57.135501],[-4.524355,57.135565],[-4.524205,57.135627],[-4.524113,57.135686],[-4.524077,57.135744],[-4.524099,57.1358],[-4.524101,57.135847],[-4.524083,57.135885],[-4.524045,57.135914],[-4.523986,57.135934],[-4.523924,57.135977],[-4.523859,57.136043],[-4.52379,57.136132],[-4.523718,57.136243],[-4.523733,57.136342],[-4.523837,57.136427],[-4.524029,57.136498],[-4.52431,57.136557],[-4.524519,57.136583],[-4.524657,57.136576],[-4.524725,57.136537],[-4.524722,57.136466],[-4.524757,57.136413],[-4.524831,57.13638],[-4.524944,57.136367],[-4.525096,57.136372],[-4.525222,57.136403],[-4.525323,57.136459],[-4.525398,57.136541],[-4.525449,57.136647],[-4.525464,57.136743],[-4.525443,57.136829],[-4.525388,57.136904],[-4.525297,57.136968],[-4.525249,57.137036],[-4.525244,57.137109],[-4.525283,57.137185],[-4.525364,57.137266],[-4.52545,57.137325],[-4.525539,57.137362],[-4.525632,57.137378],[-4.525729,57.137371],[-4.525894,57.13737],[-4.526128,57.137373],[-4.52643,57.137381],[-4.5268,57.137393],[-4.527099,57.137417],[-4.527329,57.137452],[-4.527488,57.137498],[-4.527577,57.137556],[-4.527681,57.137608],[-4.527799,57.137655],[-4.527932,57.137698],[-4.528079,57.137735],[-4.528211,57.137737],[-4.528326,57.137704],[-4.528426,57.137636],[-4.52851,57.137532],[-4.528586,57.137453],[-4.528656,57.137398],[-4.528719,57.137367],[-4.528774,57.137361],[-4.528834,57.137387],[-4.528898,57.137445],[-4.528967,57.137535],[-4.52904,57.137657]]]}}