{"type":"Feature","properties":{"id":"263902","COMMUNE":"Inverness and Nairn","PROVINCE":"Inverness & Nairn and Moray, Badenoch & Strathspey","COUNTRY":"UK","FIREDATE":"2025-03-19 13:27:00","CLASS":"FireSeason","areaHA_geo":4.299},"geometry":{"type":"Polygon","coordinates":[[[-4.520459,57.143218],[-4.52059,57.143297],[-4.520735,57.143334],[-4.520895,57.143327],[-4.521068,57.143278],[-4.521255,57.143185],[-4.521391,57.143085],[-4.521473,57.142979],[-4.521504,57.142867],[-4.521482,57.142748],[-4.52151,57.142656],[-4.521588,57.142591],[-4.521717,57.142553],[-4.521895,57.142542],[-4.522063,57.142542],[-4.522221,57.142554],[-4.522369,57.142577],[-4.522507,57.142611],[-4.522588,57.142612],[-4.522613,57.14258],[-4.522581,57.142515],[-4.522493,57.142417],[-4.522435,57.142321],[-4.522406,57.142227],[-4.522408,57.142136],[-4.522439,57.142047],[-4.522504,57.141996],[-4.522602,57.141983],[-4.522735,57.142007],[-4.5229,57.14207],[-4.523037,57.142106],[-4.523145,57.142117],[-4.523224,57.142101],[-4.523274,57.142059],[-4.523262,57.142004],[-4.52319,57.141936],[-4.523056,57.141854],[-4.522861,57.141759],[-4.522732,57.141678],[-4.522668,57.141611],[-4.52267,57.141558],[-4.522738,57.141519],[-4.522793,57.14146],[-4.522837,57.141381],[-4.522868,57.141282],[-4.522888,57.141163],[-4.52288,57.141057],[-4.522843,57.140964],[-4.522779,57.140885],[-4.522686,57.140819],[-4.52257,57.140766],[-4.52243,57.140725],[-4.522265,57.140698],[-4.522077,57.140683],[-4.521901,57.140658],[-4.521739,57.140625],[-4.521589,57.140582],[-4.521453,57.14053],[-4.521366,57.140467],[-4.521328,57.140392],[-4.52134,57.140307],[-4.521402,57.14021],[-4.521501,57.140136],[-4.521638,57.140084],[-4.521814,57.140056],[-4.522027,57.14005],[-4.522189,57.140033],[-4.522298,57.140005],[-4.522355,57.139966],[-4.522361,57.139916],[-4.522325,57.139879],[-4.52225,57.139856],[-4.522134,57.139847],[-4.521978,57.139851],[-4.521844,57.139832],[-4.521733,57.13979],[-4.521643,57.139726],[-4.521576,57.139639],[-4.521502,57.139558],[-4.521422,57.139481],[-4.521336,57.13941],[-4.521244,57.139344],[-4.521143,57.139289],[-4.521035,57.139245],[-4.520918,57.139212],[-4.520793,57.13919],[-4.520683,57.139194],[-4.520587,57.139225],[-4.520506,57.139283],[-4.52044,57.139366],[-4.520394,57.139446],[-4.520369,57.13952],[-4.520366,57.139591],[-4.520383,57.139656],[-4.520434,57.139702],[-4.52052,57.139728],[-4.520638,57.139735],[-4.520791,57.139723],[-4.520904,57.139746],[-4.520977,57.139805],[-4.52101,57.139901],[-4.521004,57.140032],[-4.520973,57.140149],[-4.520918,57.140251],[-4.520839,57.14034],[-4.520735,57.140415],[-4.520654,57.140482],[-4.520595,57.140543],[-4.520558,57.140596],[-4.520543,57.140643],[-4.52051,57.140707],[-4.520459,57.14079],[-4.520391,57.140889],[-4.520304,57.141007],[-4.520256,57.141126],[-4.520245,57.141246],[-4.520272,57.141368],[-4.520337,57.141491],[-4.520401,57.141597],[-4.520466,57.141687],[-4.520529,57.14176],[-4.520593,57.141815],[-4.520631,57.141882],[-4.520645,57.141959],[-4.520634,57.142047],[-4.520598,57.142145],[-4.520545,57.142222],[-4.520476,57.142277],[-4.520389,57.14231],[-4.520286,57.142322],[-4.520217,57.142349],[-4.520184,57.142391],[-4.520186,57.142448],[-4.520223,57.14252],[-4.520283,57.142579],[-4.520367,57.142623],[-4.520474,57.142654],[-4.520605,57.142671],[-4.52067,57.142708],[-4.520668,57.142767],[-4.5206,57.142847],[-4.520465,57.142947],[-4.520397,57.143042],[-4.520395,57.143133],[-4.520459,57.143218]]]}}