{"type":"Feature","properties":{"id":"264045","COMMUNE":"New Forest","PROVINCE":"Central Hampshire","COUNTRY":"UK","FIREDATE":"2025-03-18 12:04:00","CLASS":"FireSeason","areaHA_geo":3.846},"geometry":{"type":"Polygon","coordinates":[[[-1.697331,50.812745],[-1.697468,50.812879],[-1.697679,50.813001],[-1.697965,50.813111],[-1.698325,50.813208],[-1.698642,50.813285],[-1.698916,50.813341],[-1.699146,50.813377],[-1.699333,50.813392],[-1.699487,50.813384],[-1.69961,50.813353],[-1.699701,50.813298],[-1.699761,50.81322],[-1.699831,50.813154],[-1.699914,50.813099],[-1.700008,50.813055],[-1.700113,50.813022],[-1.700188,50.812983],[-1.700233,50.812936],[-1.700248,50.812882],[-1.700232,50.812822],[-1.700185,50.81277],[-1.700105,50.812729],[-1.699993,50.812696],[-1.699849,50.812674],[-1.699753,50.812626],[-1.699705,50.812553],[-1.699705,50.812455],[-1.699753,50.812331],[-1.699751,50.812223],[-1.6997,50.812128],[-1.699599,50.812048],[-1.699449,50.811982],[-1.699328,50.811933],[-1.699236,50.8119],[-1.699172,50.811884],[-1.699138,50.811885],[-1.699066,50.811845],[-1.698957,50.811766],[-1.698811,50.811647],[-1.698627,50.811488],[-1.698393,50.811378],[-1.698109,50.811317],[-1.697773,50.811304],[-1.697387,50.81134],[-1.697048,50.811394],[-1.696754,50.811464],[-1.696507,50.811552],[-1.696307,50.811656],[-1.69623,50.81177],[-1.696276,50.811893],[-1.696445,50.812025],[-1.696738,50.812167],[-1.696973,50.81231],[-1.69715,50.812454],[-1.697269,50.812599],[-1.697331,50.812745]]]}}