{"type":"Feature","properties":{"id":"264048","COMMUNE":"New Forest","PROVINCE":"Central Hampshire","COUNTRY":"UK","FIREDATE":"2025-03-15 12:59:00","FINALDATE":"2025-03-15 12:59:00","CLASS":"FireSeason","areaHA_geo":4.468},"geometry":{"type":"Polygon","coordinates":[[[-1.7206,50.804121],[-1.720799,50.804029],[-1.721,50.803859],[-1.721203,50.803612],[-1.721407,50.803288],[-1.721548,50.802999],[-1.721625,50.802747],[-1.721639,50.80253],[-1.721589,50.802349],[-1.72148,50.802172],[-1.721313,50.802],[-1.721088,50.801831],[-1.720804,50.801666],[-1.720539,50.801562],[-1.720293,50.801517],[-1.720067,50.801532],[-1.71986,50.801606],[-1.719663,50.801687],[-1.719477,50.801773],[-1.719302,50.801866],[-1.719137,50.801964],[-1.719025,50.802065],[-1.718967,50.802168],[-1.718961,50.802273],[-1.719009,50.80238],[-1.719027,50.802486],[-1.719018,50.80259],[-1.718979,50.802693],[-1.718912,50.802794],[-1.718856,50.802906],[-1.718813,50.803029],[-1.718781,50.803163],[-1.718762,50.803307],[-1.718757,50.803419],[-1.718766,50.803497],[-1.718791,50.803541],[-1.71883,50.803553],[-1.718879,50.803582],[-1.718937,50.80363],[-1.719006,50.803695],[-1.719083,50.803779],[-1.719198,50.803858],[-1.71935,50.803931],[-1.719539,50.804],[-1.719765,50.804064],[-1.719984,50.804107],[-1.720196,50.804132],[-1.720402,50.804136],[-1.7206,50.804121]]]}}