{"type":"Feature","properties":{"id":"264053","COMMUNE":"New Forest","PROVINCE":"Central Hampshire","COUNTRY":"UK","FIREDATE":"2025-03-15 12:59:00","CLASS":"FireSeason","areaHA_geo":3.738},"geometry":{"type":"Polygon","coordinates":[[[-1.725987,50.80792],[-1.726044,50.807851],[-1.726074,50.807764],[-1.726078,50.807658],[-1.726054,50.807533],[-1.726098,50.807334],[-1.72621,50.80706],[-1.72639,50.806711],[-1.726638,50.806288],[-1.726871,50.805887],[-1.72709,50.805508],[-1.727294,50.805151],[-1.727483,50.804816],[-1.727554,50.804602],[-1.727506,50.80451],[-1.72734,50.80454],[-1.727056,50.804691],[-1.726808,50.804812],[-1.726597,50.804903],[-1.726422,50.804962],[-1.726284,50.804992],[-1.726184,50.805026],[-1.726121,50.805066],[-1.726096,50.80511],[-1.726109,50.80516],[-1.72607,50.805238],[-1.72598,50.805344],[-1.725838,50.805478],[-1.725646,50.805641],[-1.725482,50.805816],[-1.725348,50.806003],[-1.725243,50.806202],[-1.725168,50.806413],[-1.725084,50.806585],[-1.724992,50.806717],[-1.724892,50.806809],[-1.724785,50.80686],[-1.724671,50.806931],[-1.724552,50.807019],[-1.724428,50.807126],[-1.724298,50.807252],[-1.724197,50.807369],[-1.724124,50.807478],[-1.724079,50.80758],[-1.724062,50.807673],[-1.724159,50.807758],[-1.724367,50.807833],[-1.724689,50.8079],[-1.725124,50.807957],[-1.725471,50.807988],[-1.72573,50.807992],[-1.725902,50.807969],[-1.725987,50.80792]]]}}