{"type":"Feature","properties":{"id":"264308","COMMUNE":"Hambleton","PROVINCE":"North Yorkshire CC","COUNTRY":"UK","FIREDATE":"2025-03-06 11:38:00","FINALDATE":"2025-03-06 13:18:00","CLASS":"FireSeason","areaHA_geo":0.419},"geometry":{"type":"Polygon","coordinates":[[[-1.136625,54.424694],[-1.136717,54.424737],[-1.136859,54.424736],[-1.137053,54.424691],[-1.137298,54.424602],[-1.137457,54.42452],[-1.13753,54.424445],[-1.137518,54.424376],[-1.137419,54.424314],[-1.137253,54.424258],[-1.137019,54.424208],[-1.136718,54.424164],[-1.136349,54.424126],[-1.136082,54.424121],[-1.135918,54.424148],[-1.135857,54.424207],[-1.135898,54.424298],[-1.135947,54.424357],[-1.136003,54.424385],[-1.136067,54.424382],[-1.13614,54.424347],[-1.136211,54.424332],[-1.136282,54.424338],[-1.136352,54.424363],[-1.136422,54.424409],[-1.136484,54.424465],[-1.136538,54.424531],[-1.136586,54.424608],[-1.136625,54.424694]]]}}