{"type":"Feature","properties":{"id":"264384","COMMUNE":"Richmondshire","PROVINCE":"North Yorkshire CC","COUNTRY":"UK","FIREDATE":"2025-03-05 13:14:00","FINALDATE":"2025-03-05 13:37:00","CLASS":"FireSeason","areaHA_geo":12.61},"geometry":{"type":"Polygon","coordinates":[[[-1.789594,54.25978],[-1.789703,54.259841],[-1.790062,54.259901],[-1.790671,54.259961],[-1.79153,54.260019],[-1.792206,54.260049],[-1.792698,54.26005],[-1.793007,54.260023],[-1.793133,54.259967],[-1.793281,54.259924],[-1.793452,54.259893],[-1.793644,54.259874],[-1.793859,54.259868],[-1.794056,54.259842],[-1.794235,54.259795],[-1.794395,54.259729],[-1.794537,54.259642],[-1.794676,54.259574],[-1.794812,54.259524],[-1.794945,54.259493],[-1.795075,54.259481],[-1.795317,54.259403],[-1.795672,54.259259],[-1.796139,54.25905],[-1.796719,54.258775],[-1.797179,54.258559],[-1.797517,54.258402],[-1.797735,54.258305],[-1.797833,54.258266],[-1.797965,54.258234],[-1.798133,54.258208],[-1.798336,54.258189],[-1.798574,54.258175],[-1.798756,54.258141],[-1.798882,54.258085],[-1.798951,54.258008],[-1.798965,54.257909],[-1.798884,54.257826],[-1.79871,54.257757],[-1.798443,54.257704],[-1.798082,54.257666],[-1.797807,54.257662],[-1.79762,54.257692],[-1.79752,54.257756],[-1.797506,54.257855],[-1.797463,54.257952],[-1.79739,54.258046],[-1.797287,54.258139],[-1.797155,54.258229],[-1.79704,54.258295],[-1.796944,54.258336],[-1.796865,54.258352],[-1.796804,54.258343],[-1.796789,54.258319],[-1.796819,54.25828],[-1.796895,54.258225],[-1.797017,54.258155],[-1.797087,54.258079],[-1.797105,54.257997],[-1.797072,54.257909],[-1.796986,54.257815],[-1.796864,54.257739],[-1.796706,54.257681],[-1.796511,54.257642],[-1.79628,54.25762],[-1.796165,54.257567],[-1.796165,54.257482],[-1.796282,54.257365],[-1.796514,54.257216],[-1.796651,54.257103],[-1.796691,54.257026],[-1.796636,54.256985],[-1.796484,54.25698],[-1.796321,54.257014],[-1.796146,54.257087],[-1.795959,54.257199],[-1.79576,54.257349],[-1.795593,54.257458],[-1.795458,54.257524],[-1.795355,54.257549],[-1.795283,54.257531],[-1.795137,54.25756],[-1.794916,54.257635],[-1.794622,54.257756],[-1.794253,54.257923],[-1.793904,54.25801],[-1.793577,54.258017],[-1.793271,54.257944],[-1.792985,54.257792],[-1.792717,54.257693],[-1.792467,54.257649],[-1.792234,54.25766],[-1.792019,54.257724],[-1.791722,54.257786],[-1.791343,54.257844],[-1.790881,54.257899],[-1.790337,54.257952],[-1.789916,54.25798],[-1.789617,54.257985],[-1.789441,54.257965],[-1.789386,54.257922],[-1.789263,54.257897],[-1.789069,54.257891],[-1.788806,54.257905],[-1.788473,54.257937],[-1.78823,54.258018],[-1.788076,54.25815],[-1.788011,54.258331],[-1.788036,54.258563],[-1.7881,54.258745],[-1.788205,54.258878],[-1.78835,54.258963],[-1.788536,54.258999],[-1.788625,54.25904],[-1.788617,54.259087],[-1.788514,54.259139],[-1.788313,54.259198],[-1.788164,54.259264],[-1.788064,54.25934],[-1.788015,54.259423],[-1.788017,54.259516],[-1.788049,54.259571],[-1.788113,54.259589],[-1.788208,54.25957],[-1.788333,54.259514],[-1.788489,54.259462],[-1.788675,54.259412],[-1.788891,54.259366],[-1.789137,54.259323],[-1.789349,54.259313],[-1.789527,54.259337],[-1.789671,54.259395],[-1.789781,54.259487],[-1.789828,54.259571],[-1.789812,54.259648],[-1.789734,54.259718],[-1.789594,54.25978]]]}}