{"type":"Feature","properties":{"id":"264306","COMMUNE":"Hambleton","PROVINCE":"North Yorkshire CC","COUNTRY":"UK","FIREDATE":"2025-03-06 11:38:00","CLASS":"FireSeason","areaHA_geo":3.095},"geometry":{"type":"Polygon","coordinates":[[[-1.131516,54.425252],[-1.131492,54.425164],[-1.131511,54.425092],[-1.131574,54.425037],[-1.131679,54.424997],[-1.131828,54.424974],[-1.131935,54.424941],[-1.132001,54.424897],[-1.132025,54.424843],[-1.132007,54.424778],[-1.131911,54.424723],[-1.131735,54.424677],[-1.131481,54.424641],[-1.131147,54.424614],[-1.130827,54.424584],[-1.13052,54.42455],[-1.130226,54.424512],[-1.129946,54.424471],[-1.129711,54.424446],[-1.129521,54.424438],[-1.129376,54.424445],[-1.129276,54.424468],[-1.129168,54.424506],[-1.129052,54.424559],[-1.128928,54.424627],[-1.128796,54.424711],[-1.128699,54.424738],[-1.128639,54.424711],[-1.128614,54.424627],[-1.128625,54.424489],[-1.128604,54.424373],[-1.128551,54.424281],[-1.128465,54.424212],[-1.128346,54.424166],[-1.128258,54.42415],[-1.128201,54.424165],[-1.128174,54.42421],[-1.128179,54.424285],[-1.128184,54.424371],[-1.128189,54.424468],[-1.128196,54.424575],[-1.128204,54.424693],[-1.128185,54.424768],[-1.128141,54.424801],[-1.128071,54.42479],[-1.127975,54.424737],[-1.127894,54.42468],[-1.127828,54.424617],[-1.127777,54.424549],[-1.127741,54.424476],[-1.127721,54.424404],[-1.127718,54.42433],[-1.12773,54.424257],[-1.127759,54.424183],[-1.127776,54.424109],[-1.12778,54.424035],[-1.127773,54.423961],[-1.127752,54.423887],[-1.127713,54.423853],[-1.127653,54.423858],[-1.127573,54.423904],[-1.127474,54.423988],[-1.127382,54.424063],[-1.127298,54.424128],[-1.127221,54.424182],[-1.127151,54.424226],[-1.127063,54.42427],[-1.126957,54.424313],[-1.126831,54.424355],[-1.126688,54.424396],[-1.12661,54.424433],[-1.126598,54.424465],[-1.126652,54.424492],[-1.126773,54.424514],[-1.126888,54.424556],[-1.126998,54.424617],[-1.127104,54.424698],[-1.127204,54.424798],[-1.127322,54.424884],[-1.127456,54.424958],[-1.127607,54.425017],[-1.127774,54.425064],[-1.127917,54.425109],[-1.128035,54.425153],[-1.128128,54.425195],[-1.128196,54.425237],[-1.128264,54.42529],[-1.12833,54.425355],[-1.128396,54.425432],[-1.128461,54.425521],[-1.128569,54.42558],[-1.12872,54.425609],[-1.128913,54.425608],[-1.129149,54.425577],[-1.129379,54.425553],[-1.129603,54.425535],[-1.12982,54.425524],[-1.130031,54.425519],[-1.130219,54.42552],[-1.130383,54.425526],[-1.130525,54.425538],[-1.130644,54.425556],[-1.130742,54.425548],[-1.130819,54.425515],[-1.130874,54.425457],[-1.130909,54.425373],[-1.130971,54.425319],[-1.131063,54.425294],[-1.131182,54.425298],[-1.13133,54.425332],[-1.131435,54.425336],[-1.131497,54.425309],[-1.131516,54.425252]]]}}