{"type":"Feature","properties":{"id":"264386","COMMUNE":"Harrogate","PROVINCE":"North Yorkshire CC","COUNTRY":"UK","FIREDATE":"2025-03-09 14:01:00","FINALDATE":"2025-03-09 14:01:00","CLASS":"FireSeason","areaHA_geo":3.788},"geometry":{"type":"Polygon","coordinates":[[[-1.790332,54.147198],[-1.790769,54.147173],[-1.791056,54.147102],[-1.791192,54.146988],[-1.791179,54.146828],[-1.7912,54.146673],[-1.791253,54.146521],[-1.79134,54.146374],[-1.79146,54.14623],[-1.791546,54.146092],[-1.791597,54.145959],[-1.791613,54.145832],[-1.791595,54.145711],[-1.791603,54.145614],[-1.791639,54.14554],[-1.791701,54.145489],[-1.79179,54.145461],[-1.791821,54.145387],[-1.791795,54.145267],[-1.791711,54.1451],[-1.79157,54.144887],[-1.791492,54.144645],[-1.791479,54.144372],[-1.79153,54.14407],[-1.791645,54.143737],[-1.791688,54.143492],[-1.791659,54.143335],[-1.791558,54.143264],[-1.791385,54.143281],[-1.791249,54.143341],[-1.79115,54.143445],[-1.791087,54.143593],[-1.791061,54.143784],[-1.791016,54.143937],[-1.790952,54.144052],[-1.790869,54.144129],[-1.790767,54.144167],[-1.790635,54.144286],[-1.790474,54.144485],[-1.790284,54.144766],[-1.790064,54.145127],[-1.789918,54.145408],[-1.789846,54.145609],[-1.789848,54.145729],[-1.789924,54.145769],[-1.789965,54.145826],[-1.78997,54.145901],[-1.78994,54.145994],[-1.789875,54.146104],[-1.789828,54.146208],[-1.789799,54.146305],[-1.789789,54.146396],[-1.789796,54.14648],[-1.789767,54.146547],[-1.7897,54.146596],[-1.789596,54.146627],[-1.789455,54.146641],[-1.789325,54.146681],[-1.789207,54.146749],[-1.789101,54.146845],[-1.789007,54.146967],[-1.789083,54.147064],[-1.789329,54.147134],[-1.789746,54.147179],[-1.790332,54.147198]]]}}