{"type":"Feature","properties":{"id":"264383","COMMUNE":"Harrogate","PROVINCE":"North Yorkshire CC","COUNTRY":"UK","FIREDATE":"2025-03-06 13:18:00","CLASS":"FireSeason","areaHA_geo":3.174},"geometry":{"type":"Polygon","coordinates":[[[-1.873525,54.206424],[-1.873571,54.206449],[-1.87365,54.206458],[-1.873763,54.20645],[-1.87391,54.206426],[-1.874029,54.20639],[-1.87412,54.206341],[-1.874183,54.206279],[-1.874218,54.206205],[-1.874274,54.20614],[-1.874351,54.206083],[-1.874448,54.206034],[-1.874566,54.205994],[-1.874655,54.205954],[-1.874716,54.205912],[-1.874748,54.20587],[-1.874752,54.205827],[-1.874776,54.205783],[-1.874819,54.205736],[-1.874882,54.205687],[-1.874964,54.205637],[-1.875024,54.205591],[-1.87506,54.20555],[-1.875074,54.205513],[-1.875065,54.205481],[-1.875103,54.205447],[-1.875191,54.205413],[-1.875326,54.205377],[-1.875509,54.205341],[-1.87565,54.205302],[-1.875747,54.205262],[-1.875802,54.20522],[-1.875814,54.205176],[-1.87578,54.205144],[-1.875701,54.205124],[-1.875578,54.205114],[-1.875408,54.205117],[-1.875284,54.2051],[-1.875206,54.205065],[-1.875172,54.205012],[-1.875184,54.20494],[-1.875229,54.20488],[-1.875308,54.204832],[-1.875421,54.204797],[-1.875568,54.204773],[-1.875673,54.204724],[-1.875737,54.204649],[-1.875758,54.204549],[-1.875738,54.204423],[-1.875748,54.204333],[-1.875789,54.204277],[-1.87586,54.204256],[-1.875961,54.204269],[-1.876034,54.204251],[-1.87608,54.204199],[-1.876098,54.204114],[-1.876088,54.203997],[-1.876103,54.203851],[-1.876141,54.203675],[-1.876203,54.203469],[-1.876289,54.203234],[-1.876383,54.203048],[-1.876485,54.20291],[-1.876595,54.202822],[-1.876712,54.202782],[-1.876806,54.202748],[-1.876875,54.20272],[-1.876919,54.202698],[-1.876938,54.202682],[-1.876935,54.202643],[-1.87691,54.202582],[-1.876861,54.202498],[-1.87679,54.202392],[-1.876735,54.202286],[-1.876697,54.202181],[-1.876675,54.202077],[-1.87667,54.201974],[-1.876638,54.201906],[-1.87658,54.201874],[-1.876496,54.201877],[-1.876386,54.201916],[-1.876316,54.201958],[-1.876284,54.202004],[-1.876292,54.202053],[-1.87634,54.202105],[-1.876322,54.202156],[-1.87624,54.202207],[-1.876092,54.202256],[-1.87588,54.202305],[-1.875714,54.20236],[-1.875594,54.202422],[-1.87552,54.202489],[-1.875493,54.202562],[-1.875514,54.20262],[-1.875582,54.20266],[-1.875698,54.202684],[-1.875862,54.202692],[-1.875951,54.202708],[-1.875967,54.202733],[-1.875907,54.202766],[-1.875774,54.202807],[-1.875671,54.20287],[-1.875598,54.202955],[-1.875556,54.203062],[-1.875545,54.20319],[-1.875524,54.203329],[-1.875494,54.203479],[-1.875455,54.203638],[-1.875407,54.203808],[-1.875315,54.203958],[-1.875178,54.204087],[-1.874997,54.204195],[-1.874772,54.204283],[-1.874616,54.20438],[-1.874529,54.204485],[-1.874511,54.204599],[-1.874563,54.204722],[-1.874539,54.204829],[-1.874441,54.204921],[-1.874267,54.204998],[-1.874018,54.20506],[-1.873839,54.205134],[-1.87373,54.205221],[-1.873692,54.205319],[-1.873724,54.205429],[-1.873724,54.205536],[-1.873694,54.205641],[-1.873632,54.205743],[-1.873539,54.205841],[-1.873496,54.205914],[-1.873501,54.205961],[-1.873555,54.205981],[-1.873659,54.205976],[-1.873739,54.205981],[-1.873796,54.205997],[-1.87383,54.206023],[-1.873841,54.20606],[-1.873826,54.2061],[-1.873786,54.206144],[-1.873721,54.206192],[-1.873631,54.206243],[-1.873566,54.206292],[-1.873527,54.206338],[-1.873513,54.206382],[-1.873525,54.206424]]]}}