{"type":"Feature","properties":{"id":"264303","COMMUNE":"Ryedale","PROVINCE":"North Yorkshire CC","COUNTRY":"UK","FIREDATE":"2025-03-19 13:25:00","CLASS":"FireSeason","areaHA_geo":16.988},"geometry":{"type":"Polygon","coordinates":[[[-0.712356,54.340308],[-0.712678,54.340541],[-0.713004,54.340732],[-0.713332,54.340881],[-0.713662,54.340989],[-0.713996,54.341055],[-0.71441,54.341073],[-0.714904,54.341043],[-0.715478,54.340964],[-0.716132,54.340837],[-0.716617,54.340723],[-0.716935,54.340623],[-0.717084,54.340535],[-0.717064,54.34046],[-0.717077,54.340396],[-0.717123,54.340341],[-0.717201,54.340296],[-0.717312,54.340261],[-0.717384,54.3402],[-0.717416,54.340115],[-0.717409,54.340004],[-0.717363,54.339868],[-0.717357,54.339753],[-0.717392,54.339658],[-0.717468,54.339583],[-0.717585,54.339528],[-0.717674,54.339441],[-0.717735,54.339321],[-0.717769,54.339169],[-0.717776,54.338984],[-0.717803,54.338827],[-0.717851,54.338699],[-0.717921,54.338599],[-0.718011,54.338528],[-0.718097,54.338436],[-0.718176,54.338324],[-0.718251,54.338192],[-0.71832,54.33804],[-0.718391,54.337904],[-0.718463,54.337783],[-0.718537,54.337678],[-0.718612,54.337589],[-0.718686,54.337496],[-0.718759,54.337401],[-0.718832,54.337303],[-0.718903,54.337201],[-0.718989,54.337132],[-0.719088,54.337094],[-0.719202,54.337089],[-0.719329,54.337116],[-0.719566,54.337035],[-0.719915,54.336846],[-0.720375,54.336548],[-0.720945,54.336142],[-0.721325,54.33583],[-0.721513,54.33561],[-0.72151,54.335483],[-0.721315,54.335449],[-0.721072,54.335445],[-0.720778,54.33547],[-0.720436,54.335526],[-0.720043,54.335611],[-0.719777,54.335623],[-0.719635,54.335562],[-0.719619,54.335429],[-0.719729,54.335222],[-0.719662,54.33512],[-0.719417,54.335122],[-0.718995,54.335229],[-0.718395,54.33544],[-0.717863,54.335625],[-0.717397,54.335783],[-0.716998,54.335915],[-0.716665,54.33602],[-0.716436,54.336115],[-0.716311,54.336199],[-0.716289,54.336272],[-0.716371,54.336335],[-0.71634,54.336406],[-0.716197,54.336485],[-0.715942,54.336573],[-0.715574,54.336668],[-0.715249,54.33677],[-0.714966,54.336877],[-0.714726,54.33699],[-0.714528,54.337109],[-0.714359,54.337227],[-0.714221,54.337344],[-0.714112,54.33746],[-0.714033,54.337575],[-0.714055,54.337649],[-0.714178,54.337683],[-0.714403,54.337676],[-0.714728,54.337629],[-0.714929,54.337696],[-0.715003,54.337877],[-0.714952,54.338172],[-0.714775,54.338581],[-0.714575,54.338871],[-0.714352,54.339039],[-0.714105,54.339088],[-0.713836,54.339016],[-0.713619,54.33896],[-0.713456,54.33892],[-0.713346,54.338897],[-0.71329,54.338889],[-0.713212,54.338924],[-0.713112,54.339003],[-0.712991,54.339125],[-0.712849,54.33929],[-0.712694,54.33944],[-0.712528,54.339575],[-0.712349,54.339696],[-0.712159,54.339801],[-0.712096,54.339939],[-0.712162,54.340108],[-0.712356,54.340308]]]}}