{"type":"Feature","properties":{"id":"264373","COMMUNE":"Craven","PROVINCE":"North Yorkshire CC","COUNTRY":"UK","FIREDATE":"2025-03-18 12:29:00","FINALDATE":"2025-03-18 14:10:00","CLASS":"FireSeason","areaHA_geo":25.506},"geometry":{"type":"Polygon","coordinates":[[[-1.90553,54.017195],[-1.905628,54.01702],[-1.905699,54.01688],[-1.905742,54.016772],[-1.905758,54.016699],[-1.905747,54.016658],[-1.905707,54.016622],[-1.905639,54.01659],[-1.905543,54.016562],[-1.905419,54.016537],[-1.905316,54.016485],[-1.905235,54.016406],[-1.905175,54.0163],[-1.905137,54.016166],[-1.905163,54.016101],[-1.905254,54.016103],[-1.905409,54.016174],[-1.905628,54.016313],[-1.905791,54.016392],[-1.905898,54.016411],[-1.905949,54.016371],[-1.905944,54.016271],[-1.905934,54.016182],[-1.90592,54.016106],[-1.905901,54.016041],[-1.905878,54.015988],[-1.905869,54.015942],[-1.905873,54.015903],[-1.905891,54.01587],[-1.905923,54.015844],[-1.905976,54.015847],[-1.906052,54.015879],[-1.906149,54.015939],[-1.906268,54.016028],[-1.906373,54.01608],[-1.906463,54.016094],[-1.906538,54.01607],[-1.906599,54.01601],[-1.906613,54.015938],[-1.906582,54.015857],[-1.906505,54.015765],[-1.906382,54.015662],[-1.906297,54.015551],[-1.906251,54.015432],[-1.906244,54.015304],[-1.906275,54.015169],[-1.90632,54.015052],[-1.906378,54.014955],[-1.906449,54.014877],[-1.906534,54.014818],[-1.906612,54.014798],[-1.906683,54.014816],[-1.906748,54.014873],[-1.906807,54.014968],[-1.906892,54.015001],[-1.907005,54.014971],[-1.907145,54.01488],[-1.907311,54.014726],[-1.907412,54.014589],[-1.907448,54.014469],[-1.907418,54.014365],[-1.907323,54.014278],[-1.907215,54.014207],[-1.907093,54.01415],[-1.906958,54.014108],[-1.90681,54.014081],[-1.906684,54.014015],[-1.906579,54.013908],[-1.906496,54.013761],[-1.906434,54.013575],[-1.9064,54.013416],[-1.906394,54.013284],[-1.906414,54.013179],[-1.906462,54.013101],[-1.906465,54.013024],[-1.906424,54.012947],[-1.906338,54.012872],[-1.906208,54.012798],[-1.906011,54.012731],[-1.905748,54.012672],[-1.905419,54.012621],[-1.905024,54.012577],[-1.904615,54.012526],[-1.904193,54.012469],[-1.903757,54.012405],[-1.903308,54.012335],[-1.902994,54.012262],[-1.902817,54.012188],[-1.902776,54.012112],[-1.90287,54.012034],[-1.902882,54.011968],[-1.902812,54.011913],[-1.902659,54.011869],[-1.902424,54.011837],[-1.902166,54.011822],[-1.901885,54.011825],[-1.901583,54.011844],[-1.901257,54.01188],[-1.900966,54.011911],[-1.900708,54.011936],[-1.900483,54.011956],[-1.900292,54.01197],[-1.900107,54.011965],[-1.899929,54.011941],[-1.899756,54.011899],[-1.89959,54.011837],[-1.899454,54.011809],[-1.899346,54.011815],[-1.899268,54.011855],[-1.899219,54.011928],[-1.899126,54.011988],[-1.898991,54.012033],[-1.898813,54.012064],[-1.898591,54.012081],[-1.89839,54.012087],[-1.898209,54.012082],[-1.898048,54.012065],[-1.897908,54.012038],[-1.89777,54.012001],[-1.897636,54.011954],[-1.897505,54.011899],[-1.897377,54.011833],[-1.897181,54.011777],[-1.896918,54.011729],[-1.896587,54.011691],[-1.896188,54.011661],[-1.895891,54.011646],[-1.895696,54.011647],[-1.895603,54.011663],[-1.895612,54.011694],[-1.895524,54.011719],[-1.895338,54.011737],[-1.895054,54.011749],[-1.894673,54.011754],[-1.894457,54.011784],[-1.894407,54.011839],[-1.894522,54.01192],[-1.894802,54.012025],[-1.895043,54.012106],[-1.895247,54.012161],[-1.895412,54.012192],[-1.895538,54.012198],[-1.895626,54.012184],[-1.895674,54.012149],[-1.895684,54.012095],[-1.895655,54.01202],[-1.895734,54.01197],[-1.895922,54.011944],[-1.896218,54.011944],[-1.896624,54.011969],[-1.896918,54.012004],[-1.897103,54.01205],[-1.897178,54.012107],[-1.897143,54.012174],[-1.897123,54.012246],[-1.897117,54.012322],[-1.897127,54.012403],[-1.897151,54.012487],[-1.897136,54.01256],[-1.897083,54.01262],[-1.896992,54.012668],[-1.896862,54.012703],[-1.896773,54.01279],[-1.896727,54.012927],[-1.896722,54.013116],[-1.89676,54.013355],[-1.896843,54.013545],[-1.896973,54.013685],[-1.89715,54.013777],[-1.897373,54.013819],[-1.89756,54.01392],[-1.897711,54.014079],[-1.897826,54.014297],[-1.897905,54.014573],[-1.898019,54.0148],[-1.898168,54.014978],[-1.898351,54.015107],[-1.898569,54.015186],[-1.898738,54.015239],[-1.898858,54.015263],[-1.89893,54.015261],[-1.898952,54.015231],[-1.899039,54.015213],[-1.899189,54.015205],[-1.899402,54.015208],[-1.89968,54.015222],[-1.899863,54.015202],[-1.899953,54.015147],[-1.899949,54.015058],[-1.899851,54.014935],[-1.899818,54.01484],[-1.899849,54.014773],[-1.899945,54.014734],[-1.900106,54.014722],[-1.90025,54.014736],[-1.900378,54.014774],[-1.90049,54.014836],[-1.900585,54.014923],[-1.900648,54.015],[-1.900679,54.015068],[-1.900679,54.015127],[-1.900646,54.015176],[-1.900656,54.015232],[-1.900709,54.015296],[-1.900806,54.015366],[-1.900945,54.015444],[-1.901097,54.015511],[-1.901261,54.015566],[-1.901438,54.015609],[-1.901626,54.015641],[-1.901806,54.015697],[-1.901977,54.015776],[-1.90214,54.01588],[-1.902293,54.016007],[-1.902461,54.016117],[-1.902645,54.016212],[-1.902843,54.01629],[-1.903055,54.016351],[-1.903232,54.016381],[-1.903372,54.016379],[-1.903475,54.016345],[-1.903542,54.016278],[-1.903635,54.016264],[-1.903755,54.0163],[-1.903901,54.016388],[-1.904074,54.016527],[-1.904227,54.016655],[-1.904363,54.016772],[-1.904479,54.016879],[-1.904577,54.016974],[-1.904691,54.017067],[-1.904823,54.017158],[-1.904971,54.017245],[-1.905135,54.01733],[-1.905284,54.01735],[-1.905415,54.017305],[-1.90553,54.017195]]]}}