{"type":"Feature","properties":{"id":"264393","COMMUNE":"Richmondshire","PROVINCE":"North Yorkshire CC","COUNTRY":"UK","FIREDATE":"2025-03-19 14:14:00","FINALDATE":"2025-03-19 14:14:00","CLASS":"FireSeason","areaHA_geo":1.457},"geometry":{"type":"Polygon","coordinates":[[[-1.984491,54.375014],[-1.984619,54.375016],[-1.984719,54.374998],[-1.98479,54.374959],[-1.984833,54.374899],[-1.984884,54.374854],[-1.984945,54.374825],[-1.985015,54.374811],[-1.985093,54.374813],[-1.985185,54.374797],[-1.98529,54.374764],[-1.985409,54.374713],[-1.985541,54.374646],[-1.98562,54.374582],[-1.985646,54.374522],[-1.985619,54.374465],[-1.985539,54.374412],[-1.985515,54.37436],[-1.985549,54.374311],[-1.985639,54.374264],[-1.985787,54.374218],[-1.985897,54.37417],[-1.985969,54.374118],[-1.986003,54.374064],[-1.986,54.374007],[-1.98598,54.373961],[-1.985944,54.373926],[-1.985892,54.373901],[-1.985823,54.373887],[-1.985752,54.373887],[-1.985678,54.373902],[-1.985602,54.373932],[-1.985523,54.373976],[-1.985447,54.374008],[-1.985374,54.374029],[-1.985303,54.374038],[-1.985236,54.374036],[-1.985175,54.374025],[-1.985121,54.374005],[-1.985074,54.373976],[-1.985034,54.373938],[-1.985027,54.373912],[-1.985054,54.373897],[-1.985115,54.373893],[-1.985208,54.373901],[-1.985282,54.373889],[-1.985335,54.373858],[-1.985369,54.373807],[-1.985382,54.373737],[-1.985353,54.37369],[-1.985284,54.373666],[-1.985173,54.373666],[-1.985021,54.373689],[-1.984902,54.373717],[-1.984814,54.373751],[-1.984759,54.37379],[-1.984737,54.373835],[-1.984702,54.373862],[-1.984656,54.373871],[-1.984597,54.373862],[-1.984527,54.373836],[-1.984444,54.373824],[-1.984349,54.373826],[-1.984241,54.373844],[-1.984121,54.373876],[-1.984004,54.373927],[-1.983889,54.373995],[-1.983776,54.374082],[-1.983666,54.374186],[-1.983595,54.374286],[-1.983562,54.37438],[-1.983568,54.37447],[-1.983613,54.374556],[-1.983668,54.374625],[-1.983733,54.374678],[-1.983808,54.374716],[-1.983892,54.374738],[-1.98396,54.374765],[-1.984013,54.374799],[-1.984049,54.374839],[-1.984069,54.374885],[-1.984124,54.374926],[-1.984212,54.374961],[-1.984334,54.37499],[-1.984491,54.375014]]]}}