{"type":"Feature","properties":{"id":"264309","COMMUNE":"Redcar and Cleveland","PROVINCE":"South Teesside","COUNTRY":"UK","FIREDATE":"2025-03-20 11:28:00","FINALDATE":"2025-03-20 13:08:00","CLASS":"FireSeason","areaHA_geo":2.194},"geometry":{"type":"Polygon","coordinates":[[[-0.98932,54.519034],[-0.989399,54.519021],[-0.989455,54.518999],[-0.989487,54.518967],[-0.989497,54.518925],[-0.989483,54.518873],[-0.989562,54.51881],[-0.989735,54.518736],[-0.990001,54.518651],[-0.99036,54.518555],[-0.990636,54.5185],[-0.990829,54.518485],[-0.99094,54.518511],[-0.990967,54.518578],[-0.991026,54.518618],[-0.991116,54.518631],[-0.991239,54.518618],[-0.991393,54.518577],[-0.991509,54.518525],[-0.991588,54.518459],[-0.991629,54.518381],[-0.991632,54.51829],[-0.99167,54.518159],[-0.991743,54.517988],[-0.991851,54.517776],[-0.991994,54.517524],[-0.992039,54.517323],[-0.991985,54.517174],[-0.991832,54.517075],[-0.991581,54.517029],[-0.991395,54.517044],[-0.991274,54.517121],[-0.991217,54.517261],[-0.991226,54.517462],[-0.991202,54.517632],[-0.991148,54.517769],[-0.991062,54.517876],[-0.990944,54.51795],[-0.990817,54.518004],[-0.990679,54.518037],[-0.990531,54.518051],[-0.990373,54.518043],[-0.990205,54.51803],[-0.990026,54.518012],[-0.989836,54.517988],[-0.989635,54.517958],[-0.989491,54.517916],[-0.989403,54.517863],[-0.989372,54.517798],[-0.989397,54.517721],[-0.989355,54.517657],[-0.989245,54.517605],[-0.989067,54.517567],[-0.988822,54.517541],[-0.988661,54.517547],[-0.988584,54.517586],[-0.988592,54.517657],[-0.988684,54.51776],[-0.988721,54.517841],[-0.988705,54.517898],[-0.988634,54.517933],[-0.988508,54.517944],[-0.988469,54.51802],[-0.988517,54.518162],[-0.988651,54.51837],[-0.988871,54.518643],[-0.989056,54.518844],[-0.989205,54.518975],[-0.98932,54.519034]]]}}