{"type":"Feature","properties":{"id":"264389","COMMUNE":"Harrogate","PROVINCE":"North Yorkshire CC","COUNTRY":"UK","FIREDATE":"2025-03-06 12:29:00","FINALDATE":"2025-03-06 13:18:00","CLASS":"FireSeason","areaHA_geo":1.578},"geometry":{"type":"Polygon","coordinates":[[[-1.732208,54.140333],[-1.732363,54.140377],[-1.732508,54.140395],[-1.732645,54.140388],[-1.732773,54.140355],[-1.73283,54.140306],[-1.732818,54.140239],[-1.732736,54.140154],[-1.732584,54.140053],[-1.73247,54.139942],[-1.732395,54.139821],[-1.732358,54.13969],[-1.732359,54.13955],[-1.732412,54.139464],[-1.732516,54.139434],[-1.732672,54.139459],[-1.73288,54.13954],[-1.733074,54.139596],[-1.733255,54.139629],[-1.733421,54.139638],[-1.733575,54.139623],[-1.733716,54.139585],[-1.733846,54.139522],[-1.733963,54.139436],[-1.734069,54.139325],[-1.734166,54.139233],[-1.734254,54.139158],[-1.734334,54.139102],[-1.734405,54.139063],[-1.734442,54.139011],[-1.734444,54.138947],[-1.734412,54.13887],[-1.734345,54.13878],[-1.734254,54.138719],[-1.734139,54.138686],[-1.733999,54.138681],[-1.733834,54.138705],[-1.733727,54.138738],[-1.733678,54.138781],[-1.733686,54.138833],[-1.733751,54.138895],[-1.73379,54.138952],[-1.733802,54.139005],[-1.733786,54.139054],[-1.733744,54.139098],[-1.733689,54.139128],[-1.733622,54.139145],[-1.733542,54.139148],[-1.73345,54.139136],[-1.733377,54.139109],[-1.733324,54.139066],[-1.73329,54.139007],[-1.733276,54.138933],[-1.7332,54.138883],[-1.733063,54.138858],[-1.732864,54.138858],[-1.732605,54.138883],[-1.732401,54.138919],[-1.732253,54.138965],[-1.732161,54.139022],[-1.732126,54.139089],[-1.732063,54.139146],[-1.731974,54.139193],[-1.731857,54.139229],[-1.731714,54.139255],[-1.731625,54.139305],[-1.731591,54.139378],[-1.731612,54.139475],[-1.731688,54.139596],[-1.731727,54.139692],[-1.731729,54.139761],[-1.731696,54.139806],[-1.731626,54.139824],[-1.731591,54.139858],[-1.731591,54.139906],[-1.731626,54.139969],[-1.731695,54.140046],[-1.731789,54.140121],[-1.731905,54.140194],[-1.732045,54.140265],[-1.732208,54.140333]]]}}