{"type":"Feature","properties":{"id":"264307","COMMUNE":"Hambleton","PROVINCE":"North Yorkshire CC","COUNTRY":"UK","FIREDATE":"2025-03-06 13:18:00","CLASS":"FireSeason","areaHA_geo":3.152},"geometry":{"type":"Polygon","coordinates":[[[-1.124759,54.422114],[-1.124907,54.42211],[-1.124999,54.422074],[-1.125035,54.422004],[-1.125015,54.421902],[-1.124996,54.421807],[-1.124976,54.421721],[-1.124957,54.421644],[-1.124939,54.421574],[-1.12492,54.421506],[-1.124902,54.421439],[-1.124884,54.421373],[-1.124866,54.421308],[-1.124893,54.421255],[-1.124963,54.421213],[-1.125077,54.421182],[-1.125235,54.421163],[-1.125364,54.42116],[-1.125465,54.421172],[-1.125538,54.4212],[-1.125583,54.421243],[-1.125614,54.421292],[-1.125633,54.421348],[-1.12564,54.421409],[-1.125634,54.421476],[-1.125618,54.421539],[-1.125593,54.421598],[-1.125559,54.421653],[-1.125516,54.421704],[-1.125472,54.421758],[-1.125426,54.421815],[-1.125379,54.421873],[-1.12533,54.421935],[-1.125319,54.421983],[-1.125345,54.422019],[-1.125408,54.422041],[-1.125508,54.422051],[-1.125606,54.422028],[-1.125701,54.421972],[-1.125793,54.421883],[-1.125882,54.421761],[-1.125979,54.42168],[-1.126082,54.42164],[-1.126192,54.421641],[-1.12631,54.421682],[-1.126411,54.421734],[-1.126497,54.421795],[-1.126567,54.421865],[-1.126622,54.421946],[-1.12669,54.422001],[-1.126771,54.422032],[-1.126867,54.422037],[-1.126976,54.422018],[-1.127074,54.421974],[-1.127161,54.421904],[-1.127237,54.42181],[-1.127302,54.42169],[-1.127333,54.421564],[-1.12733,54.421431],[-1.127292,54.421292],[-1.12722,54.421147],[-1.127139,54.421019],[-1.127048,54.420909],[-1.126947,54.420816],[-1.126837,54.420741],[-1.126764,54.420669],[-1.12673,54.420601],[-1.126732,54.420537],[-1.126773,54.420476],[-1.126733,54.420417],[-1.126611,54.420359],[-1.126408,54.420303],[-1.126124,54.420248],[-1.125887,54.420226],[-1.125699,54.420236],[-1.125557,54.420278],[-1.125463,54.420353],[-1.125366,54.420391],[-1.125264,54.420394],[-1.125159,54.420359],[-1.12505,54.420288],[-1.12495,54.420236],[-1.124859,54.420201],[-1.124778,54.420185],[-1.124705,54.420187],[-1.124659,54.420212],[-1.124639,54.420262],[-1.124647,54.420334],[-1.124681,54.420431],[-1.124677,54.420507],[-1.124635,54.420563],[-1.124555,54.420599],[-1.124437,54.420614],[-1.124319,54.420658],[-1.1242,54.42073],[-1.12408,54.420831],[-1.123961,54.420961],[-1.123906,54.421069],[-1.123918,54.421156],[-1.123994,54.421221],[-1.124137,54.421265],[-1.124207,54.421313],[-1.124205,54.421365],[-1.124131,54.421422],[-1.123984,54.421483],[-1.123904,54.421557],[-1.123892,54.421646],[-1.123946,54.421749],[-1.124068,54.421866],[-1.12421,54.421961],[-1.124372,54.422034],[-1.124555,54.422085],[-1.124759,54.422114]]]}}