{"type":"Feature","properties":{"id":"264302","COMMUNE":"Ryedale","PROVINCE":"North Yorkshire CC","COUNTRY":"UK","FIREDATE":"2025-03-19 13:25:00","CLASS":"FireSeason","areaHA_geo":1.653},"geometry":{"type":"Polygon","coordinates":[[[-0.708192,54.342413],[-0.70843,54.342322],[-0.708656,54.342195],[-0.708869,54.34203],[-0.70907,54.341828],[-0.709259,54.341589],[-0.70945,54.341421],[-0.709643,54.341325],[-0.709838,54.3413],[-0.710036,54.341347],[-0.710221,54.341354],[-0.710393,54.341323],[-0.710552,54.341254],[-0.710698,54.341146],[-0.710803,54.341045],[-0.710865,54.34095],[-0.710886,54.340862],[-0.710865,54.340782],[-0.710746,54.340711],[-0.710528,54.34065],[-0.710212,54.3406],[-0.709798,54.34056],[-0.709453,54.340573],[-0.709175,54.340638],[-0.708966,54.340757],[-0.708825,54.340928],[-0.708697,54.341066],[-0.708583,54.341171],[-0.708482,54.341244],[-0.708394,54.341283],[-0.708329,54.341349],[-0.708288,54.341442],[-0.70827,54.341561],[-0.708275,54.341707],[-0.708251,54.341855],[-0.708198,54.342006],[-0.708115,54.342159],[-0.708003,54.342315],[-0.707978,54.342409],[-0.708041,54.342442],[-0.708192,54.342413]]]}}