{"type":"Feature","properties":{"id":"264380","COMMUNE":"Harrogate","PROVINCE":"North Yorkshire CC","COUNTRY":"UK","FIREDATE":"2025-03-05 13:14:00","FINALDATE":"2025-03-06 11:38:00","CLASS":"FireSeason","areaHA_geo":4.271},"geometry":{"type":"Polygon","coordinates":[[[-1.742951,54.065128],[-1.743026,54.065236],[-1.743222,54.06532],[-1.743537,54.065381],[-1.743972,54.065419],[-1.744367,54.065426],[-1.744722,54.065402],[-1.745036,54.065348],[-1.74531,54.065264],[-1.745479,54.065231],[-1.745544,54.065252],[-1.745504,54.065324],[-1.745358,54.06545],[-1.745278,54.065539],[-1.745262,54.065594],[-1.74531,54.065613],[-1.745423,54.065597],[-1.745571,54.065579],[-1.745755,54.065558],[-1.745974,54.065536],[-1.746229,54.065511],[-1.746508,54.065441],[-1.746809,54.065324],[-1.747133,54.065162],[-1.74748,54.064954],[-1.747768,54.064797],[-1.747995,54.06469],[-1.748162,54.064634],[-1.748269,54.064629],[-1.748382,54.064608],[-1.748503,54.06457],[-1.748629,54.064515],[-1.748763,54.064444],[-1.748965,54.064368],[-1.749235,54.064286],[-1.749574,54.064199],[-1.749981,54.064107],[-1.750305,54.064014],[-1.750544,54.063919],[-1.7507,54.063823],[-1.750772,54.063726],[-1.750728,54.063651],[-1.750568,54.063598],[-1.750293,54.063566],[-1.749902,54.063556],[-1.749618,54.063567],[-1.749442,54.0636],[-1.749374,54.063654],[-1.749414,54.06373],[-1.749356,54.063797],[-1.749201,54.063854],[-1.748948,54.063902],[-1.748598,54.063941],[-1.748307,54.063966],[-1.748075,54.063978],[-1.747903,54.063976],[-1.74779,54.063961],[-1.747617,54.063969],[-1.747382,54.064003],[-1.747087,54.06406],[-1.746731,54.064142],[-1.746535,54.064224],[-1.7465,54.064307],[-1.746625,54.06439],[-1.746911,54.064474],[-1.747114,54.064545],[-1.747234,54.064602],[-1.747271,54.064646],[-1.747226,54.064677],[-1.747121,54.064705],[-1.746957,54.064732],[-1.746733,54.064756],[-1.74645,54.064778],[-1.746197,54.064785],[-1.745974,54.064777],[-1.74578,54.064755],[-1.745616,54.064718],[-1.745501,54.064679],[-1.745435,54.064637],[-1.745418,54.064594],[-1.745451,54.064549],[-1.745472,54.064496],[-1.745482,54.064437],[-1.745482,54.064371],[-1.74547,54.064298],[-1.745425,54.064243],[-1.745347,54.064205],[-1.745235,54.064186],[-1.74509,54.064184],[-1.744868,54.064221],[-1.744569,54.064297],[-1.744193,54.064413],[-1.74374,54.064568],[-1.743389,54.064717],[-1.743141,54.06486],[-1.742995,54.064997],[-1.742951,54.065128]]]}}