{"type":"Feature","properties":{"id":"264310","COMMUNE":"Ryedale","PROVINCE":"North Yorkshire CC","COUNTRY":"UK","FIREDATE":"2025-03-19 12:10:00","CLASS":"FireSeason","areaHA_geo":27.935},"geometry":{"type":"Polygon","coordinates":[[[-0.650113,54.328566],[-0.650393,54.328703],[-0.650658,54.328763],[-0.650909,54.328744],[-0.651145,54.328648],[-0.651366,54.328473],[-0.651524,54.328314],[-0.65162,54.32817],[-0.651653,54.328041],[-0.651624,54.327927],[-0.651688,54.327808],[-0.651844,54.327684],[-0.652094,54.327556],[-0.652437,54.327423],[-0.652646,54.327275],[-0.652721,54.327113],[-0.652661,54.326937],[-0.652467,54.326747],[-0.652324,54.326591],[-0.652232,54.32647],[-0.65219,54.326383],[-0.652199,54.32633],[-0.652258,54.326293],[-0.652369,54.32627],[-0.652531,54.326263],[-0.652744,54.32627],[-0.652903,54.326252],[-0.653008,54.326207],[-0.653059,54.326136],[-0.653056,54.326039],[-0.653031,54.325954],[-0.652984,54.32588],[-0.652915,54.325818],[-0.652825,54.325768],[-0.652766,54.325715],[-0.652741,54.325659],[-0.652748,54.3256],[-0.652787,54.325538],[-0.652759,54.32545],[-0.652663,54.325336],[-0.652498,54.325195],[-0.652266,54.325027],[-0.652005,54.324841],[-0.651713,54.324637],[-0.651392,54.324414],[-0.651041,54.324172],[-0.650593,54.32371],[-0.65005,54.323025],[-0.649411,54.32212],[-0.648675,54.320993],[-0.648089,54.320122],[-0.647652,54.319506],[-0.647365,54.319146],[-0.647227,54.319041],[-0.647091,54.319001],[-0.646959,54.319026],[-0.646829,54.319115],[-0.646703,54.319268],[-0.64657,54.319409],[-0.646431,54.319537],[-0.646286,54.319654],[-0.646135,54.319757],[-0.64599,54.31986],[-0.64585,54.319963],[-0.645716,54.320065],[-0.645587,54.320167],[-0.645342,54.320294],[-0.644981,54.320445],[-0.644505,54.32062],[-0.643913,54.32082],[-0.643475,54.321015],[-0.643191,54.321205],[-0.643061,54.321389],[-0.643085,54.321568],[-0.643149,54.321749],[-0.643251,54.321931],[-0.643393,54.322114],[-0.643574,54.322299],[-0.643745,54.322466],[-0.643905,54.322613],[-0.644055,54.322743],[-0.644195,54.322854],[-0.64434,54.322962],[-0.644489,54.323069],[-0.644644,54.323174],[-0.644804,54.323276],[-0.644979,54.323396],[-0.645169,54.323531],[-0.645375,54.323683],[-0.645596,54.323852],[-0.64579,54.323989],[-0.645956,54.324094],[-0.646094,54.324168],[-0.646205,54.32421],[-0.646319,54.324255],[-0.646437,54.324303],[-0.646559,54.324354],[-0.646684,54.324408],[-0.646803,54.324472],[-0.646917,54.324546],[-0.647024,54.324631],[-0.647127,54.324725],[-0.647233,54.324805],[-0.647344,54.32487],[-0.64746,54.32492],[-0.64758,54.324955],[-0.647731,54.324948],[-0.647913,54.3249],[-0.648125,54.32481],[-0.648369,54.324679],[-0.648566,54.324594],[-0.648717,54.324555],[-0.648822,54.324562],[-0.64888,54.324615],[-0.648849,54.324691],[-0.64873,54.324788],[-0.648523,54.324908],[-0.648226,54.325051],[-0.648017,54.325205],[-0.647893,54.325371],[-0.647856,54.325549],[-0.647905,54.325738],[-0.648006,54.325914],[-0.648159,54.326076],[-0.648363,54.326223],[-0.64862,54.326356],[-0.648816,54.32648],[-0.648951,54.326594],[-0.649025,54.326699],[-0.649039,54.326795],[-0.649092,54.326851],[-0.649184,54.326865],[-0.649316,54.326839],[-0.649488,54.326773],[-0.649625,54.326746],[-0.649729,54.32676],[-0.649798,54.326814],[-0.649834,54.326908],[-0.649822,54.326991],[-0.649763,54.327064],[-0.649657,54.327127],[-0.649504,54.327179],[-0.649416,54.327287],[-0.649391,54.327451],[-0.649432,54.32767],[-0.649536,54.327946],[-0.649685,54.328187],[-0.649877,54.328394],[-0.650113,54.328566]]]}}