{"type":"Feature","properties":{"id":"264305","COMMUNE":"Ryedale","PROVINCE":"North Yorkshire CC","COUNTRY":"UK","FIREDATE":"2025-03-19 13:40:00","CLASS":"FireSeason","areaHA_geo":0.832},"geometry":{"type":"Polygon","coordinates":[[[-0.722005,54.33393],[-0.722313,54.33394],[-0.722623,54.333878],[-0.722938,54.333744],[-0.723255,54.333538],[-0.723469,54.333356],[-0.72358,54.333197],[-0.723588,54.333061],[-0.723494,54.332948],[-0.723291,54.332923],[-0.72298,54.332985],[-0.722561,54.333135],[-0.722033,54.333371],[-0.721714,54.333569],[-0.721603,54.333728],[-0.7217,54.333849],[-0.722005,54.33393]]]}}