{"type":"Feature","properties":{"id":"264304","COMMUNE":"Ryedale","PROVINCE":"North Yorkshire CC","COUNTRY":"UK","FIREDATE":"2025-03-19 13:25:00","CLASS":"FireSeason","areaHA_geo":1.121},"geometry":{"type":"Polygon","coordinates":[[[-0.721203,54.337696],[-0.721399,54.337787],[-0.721518,54.337891],[-0.721563,54.338008],[-0.721531,54.338138],[-0.721556,54.338223],[-0.721637,54.338264],[-0.721775,54.33826],[-0.72197,54.338211],[-0.722109,54.338129],[-0.722194,54.338013],[-0.722223,54.337865],[-0.722198,54.337683],[-0.722217,54.337506],[-0.722282,54.337335],[-0.722391,54.33717],[-0.722546,54.33701],[-0.722643,54.336871],[-0.722683,54.336753],[-0.722666,54.336656],[-0.722592,54.33658],[-0.722414,54.336588],[-0.722132,54.336679],[-0.721747,54.336854],[-0.721258,54.337113],[-0.72096,54.337327],[-0.720851,54.337495],[-0.720932,54.337618],[-0.721203,54.337696]]]}}