{"type":"Feature","properties":{"id":"264381","COMMUNE":"Harrogate","PROVINCE":"North Yorkshire CC","COUNTRY":"UK","FIREDATE":"2025-03-06 11:38:00","CLASS":"FireSeason","areaHA_geo":2.398},"geometry":{"type":"Polygon","coordinates":[[[-1.747795,54.066049],[-1.747909,54.066075],[-1.748031,54.066074],[-1.74816,54.066045],[-1.748298,54.06599],[-1.748462,54.06594],[-1.748653,54.065895],[-1.74887,54.065855],[-1.749113,54.065821],[-1.749326,54.065777],[-1.749509,54.065722],[-1.749662,54.065657],[-1.749785,54.065582],[-1.749914,54.065516],[-1.750047,54.065461],[-1.750186,54.065416],[-1.750329,54.065381],[-1.750488,54.065367],[-1.750661,54.065374],[-1.75085,54.065402],[-1.751054,54.065452],[-1.751249,54.065473],[-1.751437,54.065465],[-1.751616,54.065429],[-1.751788,54.065365],[-1.751931,54.065305],[-1.752046,54.065249],[-1.752133,54.065197],[-1.752192,54.065149],[-1.752256,54.065096],[-1.752325,54.065039],[-1.7524,54.064978],[-1.752481,54.064912],[-1.752598,54.064853],[-1.75275,54.064801],[-1.752938,54.064757],[-1.753163,54.064719],[-1.753393,54.064662],[-1.753629,54.064587],[-1.75387,54.064492],[-1.754118,54.064378],[-1.754332,54.064266],[-1.754513,54.064156],[-1.754661,54.064048],[-1.754775,54.063942],[-1.754785,54.063878],[-1.754689,54.063859],[-1.754488,54.063882],[-1.754181,54.063948],[-1.753908,54.064003],[-1.753667,54.064044],[-1.753458,54.064074],[-1.753282,54.064091],[-1.753136,54.06411],[-1.753021,54.064132],[-1.752935,54.064156],[-1.752879,54.064182],[-1.752817,54.064226],[-1.752748,54.064285],[-1.752673,54.064361],[-1.752591,54.064454],[-1.752474,54.064529],[-1.752323,54.064585],[-1.752138,54.064625],[-1.751918,54.064646],[-1.751714,54.064683],[-1.751526,54.064735],[-1.751353,54.064803],[-1.751196,54.064887],[-1.751028,54.064964],[-1.75085,54.065035],[-1.75066,54.065098],[-1.750459,54.065154],[-1.750293,54.065183],[-1.750163,54.065185],[-1.750068,54.06516],[-1.750008,54.065108],[-1.749889,54.065086],[-1.749711,54.065095],[-1.749474,54.065135],[-1.749178,54.065206],[-1.748928,54.065282],[-1.748725,54.065362],[-1.748569,54.065447],[-1.748459,54.065537],[-1.748329,54.06562],[-1.748178,54.065696],[-1.748008,54.065764],[-1.747818,54.065824],[-1.747701,54.065883],[-1.747658,54.06594],[-1.74769,54.065995],[-1.747795,54.066049]]]}}