{"type":"Feature","properties":{"id":"265261","COMMUNE":"Powys","PROVINCE":"Powys","COUNTRY":"UK","FIREDATE":"2025-03-26 12:53:00","FINALDATE":"2025-03-26 13:21:00","CLASS":"FireSeason","areaHA_geo":178.74},"geometry":{"type":"Polygon","coordinates":[[[-3.718538,51.833729],[-3.719707,51.833326],[-3.720832,51.833044],[-3.721915,51.832883],[-3.723193,51.83279],[-3.724668,51.832766],[-3.725445,51.83284],[-3.725525,51.833013],[-3.725803,51.833039],[-3.726277,51.832917],[-3.726857,51.832832],[-3.727543,51.832784],[-3.727983,51.832898],[-3.728176,51.833174],[-3.728064,51.833378],[-3.727646,51.833511],[-3.726986,51.833597],[-3.726082,51.833637],[-3.725416,51.833749],[-3.724987,51.833932],[-3.724816,51.834251],[-3.724903,51.834706],[-3.725384,51.834998],[-3.726259,51.835127],[-3.726957,51.835161],[-3.727477,51.835099],[-3.728237,51.834636],[-3.729236,51.833771],[-3.730173,51.832881],[-3.731049,51.831964],[-3.731804,51.831094],[-3.732439,51.830272],[-3.733046,51.82962],[-3.733624,51.829136],[-3.734138,51.828578],[-3.734589,51.827943],[-3.735063,51.827165],[-3.735559,51.826243],[-3.735987,51.825188],[-3.736347,51.824],[-3.736263,51.823247],[-3.735733,51.822927],[-3.735222,51.822539],[-3.734731,51.822082],[-3.734177,51.821816],[-3.73356,51.821739],[-3.733271,51.821458],[-3.73331,51.820972],[-3.733381,51.820507],[-3.733487,51.820063],[-3.732767,51.819608],[-3.731222,51.819143],[-3.730007,51.818829],[-3.729123,51.818668],[-3.727273,51.818479],[-3.724458,51.818263],[-3.722852,51.818469],[-3.722453,51.819097],[-3.7215,51.819459],[-3.719994,51.819553],[-3.718815,51.819792],[-3.717963,51.820174],[-3.717838,51.820554],[-3.71844,51.820932],[-3.719149,51.821222],[-3.719966,51.821424],[-3.72035,51.821711],[-3.720303,51.822082],[-3.720435,51.822465],[-3.720746,51.82286],[-3.721152,51.82326],[-3.721655,51.823666],[-3.721815,51.824054],[-3.721633,51.824424],[-3.721532,51.824884],[-3.721514,51.825434],[-3.721408,51.82592],[-3.721214,51.826341],[-3.72038,51.82678],[-3.718904,51.827236],[-3.718153,51.827465],[-3.718127,51.827468],[-3.717559,51.827461],[-3.716448,51.827442],[-3.715515,51.82756],[-3.714758,51.827816],[-3.714339,51.828114],[-3.714256,51.828456],[-3.71421,51.829051],[-3.714202,51.829898],[-3.714289,51.830834],[-3.714471,51.831859],[-3.714586,51.832451],[-3.714636,51.832611],[-3.715484,51.833001],[-3.71713,51.833621],[-3.718538,51.833729]]]}}