{"type":"Feature","properties":{"id":"265578","COMMUNE":"Northumberland","PROVINCE":"Northumberland","COUNTRY":"UK","FIREDATE":"2025-03-06 11:38:00","CLASS":"FireSeason","areaHA_geo":7.081},"geometry":{"type":"Polygon","coordinates":[[[-2.456298,54.944495],[-2.456218,54.944635],[-2.456308,54.944686],[-2.456567,54.944648],[-2.456995,54.94452],[-2.457325,54.944411],[-2.457555,54.944321],[-2.457687,54.944249],[-2.45772,54.944196],[-2.45778,54.944153],[-2.457868,54.94412],[-2.457984,54.944096],[-2.458127,54.944081],[-2.458285,54.944034],[-2.458457,54.943953],[-2.458643,54.943839],[-2.458844,54.943692],[-2.45902,54.943547],[-2.459173,54.943404],[-2.459302,54.943264],[-2.459407,54.943127],[-2.45951,54.943031],[-2.45961,54.942979],[-2.459709,54.942969],[-2.459805,54.943002],[-2.45988,54.942996],[-2.459934,54.942952],[-2.459967,54.942869],[-2.459979,54.942748],[-2.459959,54.942644],[-2.459907,54.942557],[-2.459824,54.942488],[-2.45971,54.942436],[-2.459656,54.942392],[-2.459663,54.942356],[-2.459731,54.942328],[-2.459861,54.942308],[-2.45996,54.942239],[-2.460028,54.942123],[-2.460066,54.941959],[-2.460074,54.941746],[-2.4601,54.941561],[-2.460144,54.941405],[-2.460206,54.941277],[-2.460285,54.941177],[-2.460305,54.941103],[-2.460266,54.941054],[-2.460166,54.94103],[-2.460006,54.941032],[-2.459866,54.941027],[-2.459745,54.941014],[-2.459644,54.940994],[-2.459562,54.940967],[-2.459536,54.940926],[-2.459568,54.94087],[-2.459657,54.940799],[-2.459803,54.940714],[-2.459964,54.940657],[-2.46014,54.940629],[-2.460331,54.940629],[-2.460537,54.940658],[-2.46069,54.940665],[-2.46079,54.940652],[-2.460838,54.940617],[-2.460833,54.940561],[-2.460784,54.940502],[-2.460691,54.940441],[-2.460554,54.940377],[-2.460373,54.94031],[-2.460151,54.94025],[-2.459888,54.940195],[-2.459584,54.940146],[-2.459238,54.940103],[-2.458932,54.940089],[-2.458666,54.940106],[-2.45844,54.940151],[-2.458254,54.940226],[-2.458174,54.940303],[-2.458198,54.940382],[-2.458328,54.940463],[-2.458563,54.940545],[-2.458703,54.940619],[-2.458748,54.940685],[-2.458698,54.940743],[-2.458553,54.940793],[-2.458365,54.94083],[-2.458132,54.940853],[-2.457855,54.940863],[-2.457534,54.94086],[-2.457312,54.940851],[-2.45719,54.940835],[-2.457168,54.940812],[-2.457245,54.940783],[-2.457323,54.940745],[-2.457401,54.940699],[-2.457479,54.940643],[-2.457557,54.940579],[-2.457566,54.940529],[-2.457506,54.940492],[-2.457376,54.94047],[-2.457176,54.940462],[-2.456923,54.940448],[-2.456615,54.94043],[-2.456254,54.940406],[-2.455839,54.940377],[-2.455464,54.940378],[-2.455128,54.940408],[-2.454833,54.940468],[-2.454577,54.940557],[-2.454505,54.940631],[-2.454616,54.940691],[-2.45491,54.940735],[-2.455387,54.940765],[-2.45572,54.940827],[-2.455909,54.940921],[-2.455954,54.941047],[-2.455856,54.941205],[-2.455903,54.941328],[-2.456096,54.941414],[-2.456435,54.941465],[-2.45692,54.94148],[-2.457292,54.94151],[-2.457552,54.941554],[-2.4577,54.941613],[-2.457735,54.941688],[-2.457778,54.941775],[-2.457828,54.941876],[-2.457885,54.94199],[-2.457949,54.942118],[-2.458063,54.942177],[-2.458226,54.942168],[-2.458439,54.94209],[-2.458701,54.941944],[-2.458914,54.941855],[-2.459077,54.941825],[-2.45919,54.941852],[-2.459253,54.941938],[-2.459224,54.94205],[-2.459101,54.94219],[-2.458885,54.942356],[-2.458575,54.94255],[-2.458302,54.94272],[-2.458065,54.942868],[-2.457863,54.942992],[-2.457698,54.943093],[-2.457555,54.943191],[-2.457437,54.943284],[-2.457341,54.943373],[-2.457269,54.943458],[-2.4572,54.943542],[-2.457134,54.943627],[-2.45707,54.943711],[-2.45701,54.943795],[-2.456903,54.943915],[-2.456748,54.944072],[-2.456547,54.944265],[-2.456298,54.944495]]]}}