{"type":"Feature","properties":{"id":"265666","COMMUNE":"East Lothian","PROVINCE":"East Lothian and Midlothian","COUNTRY":"UK","FIREDATE":"2025-04-03 13:46:00","FINALDATE":"2025-04-03 13:46:00","CLASS":"FireSeason","areaHA_geo":1.313},"geometry":{"type":"Polygon","coordinates":[[[-2.69626,55.867236],[-2.696363,55.867239],[-2.696471,55.867194],[-2.696584,55.8671],[-2.696701,55.866959],[-2.696789,55.866853],[-2.696847,55.866782],[-2.696877,55.866747],[-2.696877,55.866747],[-2.69687,55.866726],[-2.696857,55.866686],[-2.696837,55.866625],[-2.69681,55.866543],[-2.696753,55.866473],[-2.696665,55.866413],[-2.696547,55.866363],[-2.696398,55.866325],[-2.696282,55.866283],[-2.696199,55.866238],[-2.69615,55.866189],[-2.696133,55.866138],[-2.696031,55.866098],[-2.695845,55.866071],[-2.695575,55.866056],[-2.69522,55.866054],[-2.694951,55.866096],[-2.694768,55.866183],[-2.694672,55.866315],[-2.694661,55.866492],[-2.694691,55.866643],[-2.694759,55.86677],[-2.694867,55.866872],[-2.695015,55.866949],[-2.695174,55.867009],[-2.695345,55.867053],[-2.695528,55.86708],[-2.695722,55.867091],[-2.695893,55.867113],[-2.696039,55.867144],[-2.696162,55.867185],[-2.69626,55.867236]]]}}