{"type":"Feature","properties":{"id":"265618","COMMUNE":"Scottish Borders","PROVINCE":"Scottish Borders","COUNTRY":"UK","FIREDATE":"2025-03-30 11:13:00","CLASS":"FireSeason","areaHA_geo":7.208},"geometry":{"type":"Polygon","coordinates":[[[-2.431297,55.890156],[-2.431753,55.890199],[-2.432184,55.890174],[-2.43259,55.890083],[-2.432971,55.889924],[-2.433237,55.889761],[-2.433386,55.889593],[-2.43342,55.889421],[-2.433338,55.889243],[-2.433235,55.88909],[-2.43311,55.888959],[-2.432965,55.888853],[-2.432798,55.888769],[-2.432637,55.888671],[-2.43248,55.888558],[-2.432328,55.888431],[-2.432181,55.888289],[-2.432071,55.888203],[-2.431998,55.888175],[-2.431963,55.888203],[-2.431964,55.888288],[-2.431941,55.888344],[-2.431892,55.88837],[-2.431818,55.888367],[-2.431718,55.888334],[-2.431589,55.888288],[-2.43143,55.888229],[-2.431242,55.888156],[-2.431024,55.888071],[-2.430875,55.888043],[-2.430796,55.888072],[-2.430785,55.888158],[-2.430844,55.888302],[-2.430791,55.888404],[-2.430625,55.888463],[-2.430348,55.888479],[-2.429958,55.888453],[-2.429692,55.888465],[-2.429549,55.888515],[-2.429529,55.888602],[-2.429633,55.888727],[-2.429642,55.888798],[-2.429558,55.888813],[-2.42938,55.888774],[-2.429109,55.888679],[-2.428854,55.888608],[-2.428616,55.88856],[-2.428395,55.888535],[-2.428192,55.888534],[-2.427977,55.888511],[-2.427753,55.888465],[-2.427519,55.888397],[-2.427274,55.888307],[-2.427072,55.888243],[-2.426914,55.888205],[-2.426799,55.888194],[-2.426727,55.888208],[-2.426622,55.888198],[-2.426485,55.888166],[-2.426314,55.888109],[-2.426111,55.88803],[-2.42592,55.888011],[-2.425743,55.888053],[-2.425579,55.888157],[-2.425429,55.888321],[-2.425364,55.888457],[-2.425386,55.888566],[-2.425494,55.888646],[-2.425689,55.888698],[-2.425857,55.888765],[-2.425997,55.888847],[-2.426111,55.888945],[-2.426198,55.889057],[-2.426292,55.889152],[-2.426392,55.889227],[-2.426499,55.889284],[-2.426614,55.889323],[-2.426879,55.889388],[-2.427296,55.889479],[-2.427864,55.889596],[-2.428583,55.889739],[-2.42915,55.889842],[-2.429564,55.889904],[-2.429826,55.889927],[-2.429934,55.889909],[-2.430136,55.889923],[-2.43043,55.889969],[-2.430817,55.890046],[-2.431297,55.890156]]]}}