{"type":"Feature","properties":{"id":"265608","COMMUNE":"East Lothian","PROVINCE":"East Lothian and Midlothian","COUNTRY":"UK","FIREDATE":"2025-04-01 13:29:00","CLASS":"FireSeason","areaHA_geo":18.172},"geometry":{"type":"Polygon","coordinates":[[[-2.773809,55.859812],[-2.773959,55.859941],[-2.774105,55.860015],[-2.774246,55.860032],[-2.774384,55.859994],[-2.774515,55.859979],[-2.774639,55.859987],[-2.774756,55.860017],[-2.774867,55.86007],[-2.77497,55.860086],[-2.775067,55.860064],[-2.775156,55.860005],[-2.775239,55.859908],[-2.775343,55.859843],[-2.775468,55.859811],[-2.775614,55.85981],[-2.775782,55.859841],[-2.775963,55.859882],[-2.776159,55.859932],[-2.776368,55.859993],[-2.776591,55.860062],[-2.7768,55.86011],[-2.776995,55.860137],[-2.777175,55.860142],[-2.777341,55.860125],[-2.777485,55.860121],[-2.777606,55.860131],[-2.777705,55.860154],[-2.777781,55.860191],[-2.777938,55.860194],[-2.778175,55.860164],[-2.778492,55.860101],[-2.778889,55.860004],[-2.779207,55.859911],[-2.779446,55.859821],[-2.779605,55.859734],[-2.779685,55.859649],[-2.7796,55.859584],[-2.779352,55.859537],[-2.778941,55.859508],[-2.778365,55.859498],[-2.777939,55.859453],[-2.777662,55.859373],[-2.777535,55.859257],[-2.777557,55.859106],[-2.77769,55.859017],[-2.777935,55.858988],[-2.77829,55.85902],[-2.778757,55.859114],[-2.779147,55.859172],[-2.779459,55.859197],[-2.779693,55.859187],[-2.779851,55.859143],[-2.779973,55.85912],[-2.780062,55.859117],[-2.780116,55.859135],[-2.780136,55.859173],[-2.780203,55.859183],[-2.780319,55.859165],[-2.780483,55.85912],[-2.780695,55.859046],[-2.780837,55.858974],[-2.78091,55.858902],[-2.780914,55.858831],[-2.780848,55.858762],[-2.780742,55.858685],[-2.780597,55.858602],[-2.780412,55.858511],[-2.780186,55.858414],[-2.780095,55.858328],[-2.780139,55.858253],[-2.780317,55.85819],[-2.780629,55.858138],[-2.78088,55.858065],[-2.78107,55.85797],[-2.781199,55.857852],[-2.781268,55.857713],[-2.781361,55.857594],[-2.781479,55.857496],[-2.781622,55.857419],[-2.781789,55.857362],[-2.781944,55.857256],[-2.782086,55.857101],[-2.782216,55.856897],[-2.782333,55.856645],[-2.782394,55.856446],[-2.7824,55.856301],[-2.782351,55.85621],[-2.782245,55.856173],[-2.782158,55.856053],[-2.782088,55.855852],[-2.782036,55.855568],[-2.782001,55.855203],[-2.78199,55.854918],[-2.782002,55.854715],[-2.782036,55.854592],[-2.782094,55.85455],[-2.782129,55.854494],[-2.782142,55.854425],[-2.782133,55.854341],[-2.782101,55.854244],[-2.78208,55.854133],[-2.782071,55.854008],[-2.782074,55.853868],[-2.782087,55.853714],[-2.782047,55.853569],[-2.781952,55.853432],[-2.781802,55.853304],[-2.781598,55.853184],[-2.781447,55.853071],[-2.781347,55.852965],[-2.7813,55.852866],[-2.781306,55.852773],[-2.781281,55.852688],[-2.781227,55.852611],[-2.781144,55.852543],[-2.781031,55.852482],[-2.780908,55.852378],[-2.780773,55.852231],[-2.780629,55.852041],[-2.780473,55.851808],[-2.780329,55.851613],[-2.780194,55.851454],[-2.78007,55.851332],[-2.779956,55.851247],[-2.779875,55.851168],[-2.779826,55.851095],[-2.779809,55.851028],[-2.779825,55.850966],[-2.779801,55.850888],[-2.779738,55.850794],[-2.779635,55.850684],[-2.779494,55.850558],[-2.779338,55.850455],[-2.779169,55.850374],[-2.778985,55.850315],[-2.778787,55.850279],[-2.778682,55.850311],[-2.778668,55.850413],[-2.778748,55.850583],[-2.778919,55.850823],[-2.779097,55.851042],[-2.779281,55.851242],[-2.779471,55.851423],[-2.779666,55.851583],[-2.779803,55.85172],[-2.779879,55.851832],[-2.779896,55.851921],[-2.779852,55.851986],[-2.779726,55.851939],[-2.779517,55.851782],[-2.779225,55.851514],[-2.77885,55.851134],[-2.778567,55.850891],[-2.778374,55.850785],[-2.778273,55.850814],[-2.778263,55.850979],[-2.7783,55.851163],[-2.778384,55.851365],[-2.778516,55.851585],[-2.778694,55.851824],[-2.77883,55.85203],[-2.778923,55.852203],[-2.778973,55.852343],[-2.778979,55.852451],[-2.779032,55.852605],[-2.77913,55.852805],[-2.779274,55.853053],[-2.779463,55.853346],[-2.77959,55.85359],[-2.779654,55.853784],[-2.779655,55.853928],[-2.779593,55.854023],[-2.779576,55.854199],[-2.779603,55.854457],[-2.779676,55.854796],[-2.779793,55.855218],[-2.779923,55.855607],[-2.780066,55.855966],[-2.780222,55.856293],[-2.78039,55.856589],[-2.780471,55.856833],[-2.780463,55.857026],[-2.780367,55.857168],[-2.780182,55.857259],[-2.780036,55.857369],[-2.779928,55.857499],[-2.779859,55.857647],[-2.779828,55.857814],[-2.779793,55.857947],[-2.779754,55.858045],[-2.779711,55.858109],[-2.779663,55.858138],[-2.779602,55.858131],[-2.779527,55.858088],[-2.779438,55.85801],[-2.779337,55.857896],[-2.779141,55.857806],[-2.77885,55.857739],[-2.778466,55.857695],[-2.777987,55.857676],[-2.777606,55.857625],[-2.777322,55.857543],[-2.777135,55.857431],[-2.777045,55.857288],[-2.776939,55.857185],[-2.776819,55.857123],[-2.776683,55.857102],[-2.776532,55.857121],[-2.776478,55.857223],[-2.776521,55.857407],[-2.77666,55.857673],[-2.776897,55.858022],[-2.777002,55.858277],[-2.776976,55.858438],[-2.776819,55.858505],[-2.776532,55.858478],[-2.776279,55.858424],[-2.776063,55.858341],[-2.775882,55.858231],[-2.775736,55.858094],[-2.775568,55.858015],[-2.775375,55.857997],[-2.77516,55.858037],[-2.774921,55.858138],[-2.77478,55.858245],[-2.774735,55.85836],[-2.774788,55.858482],[-2.774938,55.858611],[-2.775109,55.858758],[-2.775303,55.858923],[-2.775519,55.859106],[-2.775756,55.859306],[-2.775898,55.859445],[-2.775945,55.859523],[-2.775897,55.859539],[-2.775753,55.859493],[-2.775602,55.859435],[-2.775443,55.859365],[-2.775276,55.859283],[-2.775102,55.859188],[-2.774909,55.859091],[-2.774698,55.858992],[-2.774468,55.858891],[-2.77422,55.858788],[-2.774009,55.858717],[-2.773835,55.858679],[-2.773699,55.858672],[-2.7736,55.858698],[-2.773534,55.858742],[-2.773501,55.858804],[-2.7735,55.858883],[-2.773532,55.85898],[-2.773546,55.859067],[-2.773543,55.859143],[-2.773521,55.859209],[-2.773483,55.859265],[-2.773492,55.859354],[-2.77355,55.859474],[-2.773655,55.859627],[-2.773809,55.859812]]]}}