{"type":"Feature","properties":{"id":"265646","COMMUNE":"Scottish Borders","PROVINCE":"Scottish Borders","COUNTRY":"UK","FIREDATE":"2025-04-01 13:57:00","CLASS":"FireSeason","areaHA_geo":5.471},"geometry":{"type":"Polygon","coordinates":[[[-2.945502,55.667442],[-2.945643,55.667688],[-2.94592,55.667912],[-2.946334,55.668114],[-2.946884,55.668294],[-2.94733,55.668422],[-2.94767,55.668498],[-2.947905,55.668521],[-2.948036,55.668492],[-2.948186,55.668447],[-2.948355,55.668386],[-2.948543,55.668309],[-2.948751,55.668217],[-2.948893,55.668054],[-2.94897,55.667821],[-2.948982,55.667518],[-2.948928,55.667145],[-2.948855,55.666872],[-2.948763,55.6667],[-2.948652,55.666628],[-2.948522,55.666658],[-2.948364,55.666678],[-2.948178,55.666689],[-2.947965,55.666691],[-2.947725,55.666684],[-2.947538,55.666662],[-2.947407,55.666624],[-2.94733,55.666571],[-2.947307,55.666502],[-2.947359,55.666438],[-2.947486,55.666377],[-2.947688,55.666321],[-2.947965,55.666269],[-2.948089,55.666199],[-2.94806,55.666111],[-2.947878,55.666005],[-2.947543,55.665882],[-2.947218,55.66583],[-2.946902,55.665851],[-2.946596,55.665944],[-2.9463,55.666108],[-2.945973,55.666197],[-2.945613,55.666211],[-2.945221,55.666148],[-2.944796,55.66601],[-2.944417,55.665923],[-2.944083,55.665886],[-2.943793,55.6659],[-2.943548,55.665965],[-2.943509,55.666058],[-2.943675,55.666179],[-2.944047,55.666328],[-2.944624,55.666506],[-2.945058,55.666706],[-2.945349,55.666929],[-2.945497,55.667174],[-2.945502,55.667442]]]}}