{"type":"Feature","properties":{"id":"265713","COMMUNE":"Skye and Lochalsh","PROVINCE":"Lochaber, Skye & Lochalsh, Arran & Cumbrae and Argyll & Bute","COUNTRY":"UK","FIREDATE":"2025-04-03 12:06:00","FINALDATE":"2025-04-03 14:33:00","CLASS":"FireSeason","areaHA_geo":17.84},"geometry":{"type":"Polygon","coordinates":[[[-6.035931,57.445528],[-6.036009,57.445572],[-6.036104,57.4456],[-6.036214,57.445612],[-6.036339,57.445608],[-6.036431,57.445593],[-6.036489,57.445568],[-6.036513,57.445533],[-6.036504,57.445487],[-6.036519,57.44545],[-6.03656,57.445422],[-6.036627,57.445402],[-6.036719,57.445391],[-6.036787,57.445365],[-6.03683,57.445324],[-6.036849,57.445268],[-6.036843,57.445197],[-6.036873,57.445137],[-6.036937,57.445086],[-6.037037,57.445046],[-6.037172,57.445015],[-6.037272,57.444976],[-6.037337,57.444926],[-6.037368,57.444868],[-6.037363,57.4448],[-6.037378,57.444746],[-6.037411,57.444706],[-6.037464,57.44468],[-6.037535,57.444669],[-6.037583,57.444643],[-6.037606,57.444603],[-6.037605,57.444549],[-6.03758,57.444481],[-6.037577,57.444424],[-6.037596,57.444379],[-6.037636,57.444346],[-6.037698,57.444325],[-6.037745,57.4443],[-6.037776,57.444272],[-6.037791,57.444239],[-6.03779,57.444204],[-6.037804,57.444177],[-6.037832,57.444158],[-6.037873,57.444148],[-6.037929,57.444147],[-6.038022,57.444116],[-6.038154,57.444054],[-6.038323,57.443963],[-6.03853,57.443841],[-6.038716,57.443739],[-6.038881,57.443655],[-6.039025,57.443591],[-6.039148,57.443546],[-6.039251,57.443501],[-6.039335,57.443458],[-6.039398,57.443416],[-6.039441,57.443375],[-6.03945,57.443329],[-6.039426,57.443279],[-6.039367,57.443224],[-6.039274,57.443164],[-6.039185,57.443116],[-6.0391,57.44308],[-6.039019,57.443055],[-6.038942,57.443043],[-6.038885,57.44302],[-6.038848,57.442988],[-6.03883,57.442945],[-6.038833,57.442893],[-6.038856,57.442844],[-6.0389,57.442799],[-6.038964,57.442757],[-6.03905,57.442719],[-6.039115,57.442665],[-6.03916,57.442593],[-6.039185,57.442505],[-6.03919,57.4424],[-6.039212,57.442319],[-6.039251,57.442263],[-6.039307,57.44223],[-6.039379,57.442221],[-6.039455,57.442194],[-6.039532,57.44215],[-6.039613,57.442089],[-6.039696,57.44201],[-6.039764,57.441943],[-6.039819,57.441887],[-6.039859,57.441842],[-6.039885,57.441809],[-6.039908,57.441771],[-6.039929,57.441731],[-6.039946,57.441686],[-6.03996,57.441637],[-6.039991,57.441585],[-6.040038,57.441528],[-6.0401,57.441468],[-6.040179,57.441403],[-6.040219,57.441337],[-6.04022,57.44127],[-6.040182,57.441201],[-6.040105,57.441131],[-6.040063,57.441073],[-6.040056,57.441028],[-6.040083,57.440994],[-6.040145,57.440973],[-6.040188,57.440941],[-6.04021,57.4409],[-6.040213,57.440849],[-6.040197,57.440788],[-6.040194,57.440727],[-6.040206,57.440667],[-6.040232,57.440607],[-6.040272,57.440547],[-6.04029,57.440497],[-6.040285,57.440458],[-6.040258,57.440429],[-6.040209,57.440411],[-6.040163,57.440416],[-6.040119,57.440444],[-6.040079,57.440497],[-6.04004,57.440573],[-6.039991,57.440625],[-6.039929,57.440653],[-6.039855,57.440657],[-6.03977,57.440638],[-6.039685,57.440623],[-6.039599,57.440615],[-6.039513,57.440612],[-6.039428,57.440614],[-6.03934,57.440614],[-6.03925,57.440613],[-6.039158,57.44061],[-6.039064,57.440605],[-6.038952,57.440588],[-6.038825,57.440559],[-6.03868,57.440517],[-6.038518,57.440463],[-6.038352,57.440426],[-6.038183,57.440407],[-6.03801,57.440406],[-6.037833,57.440422],[-6.037677,57.44043],[-6.037542,57.440431],[-6.037427,57.440423],[-6.037333,57.440407],[-6.037265,57.440404],[-6.037224,57.440413],[-6.037208,57.440435],[-6.037218,57.440469],[-6.037187,57.440508],[-6.037117,57.440551],[-6.037006,57.440598],[-6.036855,57.44065],[-6.03673,57.440682],[-6.036632,57.440696],[-6.036559,57.44069],[-6.036512,57.440666],[-6.03643,57.44067],[-6.036311,57.440702],[-6.036157,57.440763],[-6.035966,57.440852],[-6.035805,57.440938],[-6.035672,57.44102],[-6.035569,57.441099],[-6.035495,57.441174],[-6.035431,57.441262],[-6.035379,57.441363],[-6.035337,57.441477],[-6.035306,57.441604],[-6.035262,57.441702],[-6.035206,57.441771],[-6.035136,57.44181],[-6.035054,57.441821],[-6.034989,57.44184],[-6.034943,57.441867],[-6.034914,57.441904],[-6.034904,57.441949],[-6.034886,57.441996],[-6.034861,57.442044],[-6.034829,57.442094],[-6.034791,57.442145],[-6.034721,57.44216],[-6.034619,57.442138],[-6.034486,57.44208],[-6.034322,57.441985],[-6.034167,57.441911],[-6.034024,57.441857],[-6.03389,57.441824],[-6.033767,57.441812],[-6.033616,57.441805],[-6.033437,57.441804],[-6.033229,57.441808],[-6.032993,57.441818],[-6.032771,57.441825],[-6.032561,57.441831],[-6.032364,57.441834],[-6.032181,57.441834],[-6.032062,57.441846],[-6.032008,57.441869],[-6.032019,57.441903],[-6.032096,57.441949],[-6.032163,57.441994],[-6.03222,57.442037],[-6.032268,57.44208],[-6.032307,57.442122],[-6.032326,57.442159],[-6.032325,57.44219],[-6.032303,57.442217],[-6.032262,57.442239],[-6.032235,57.442265],[-6.032223,57.442297],[-6.032227,57.442333],[-6.032245,57.442375],[-6.032272,57.442414],[-6.032308,57.442449],[-6.032353,57.442481],[-6.032407,57.44251],[-6.032452,57.442552],[-6.032489,57.442606],[-6.032517,57.442673],[-6.032537,57.442753],[-6.032553,57.442813],[-6.032565,57.442853],[-6.032574,57.442872],[-6.032579,57.442872],[-6.032569,57.442875],[-6.032544,57.442882],[-6.032504,57.442893],[-6.032449,57.442908],[-6.032402,57.442926],[-6.032363,57.442948],[-6.032332,57.442972],[-6.032308,57.443],[-6.03227,57.443021],[-6.032219,57.443037],[-6.032153,57.443048],[-6.032073,57.443052],[-6.032013,57.443066],[-6.031973,57.44309],[-6.031952,57.443124],[-6.031951,57.443168],[-6.031966,57.443206],[-6.031997,57.443236],[-6.032045,57.44326],[-6.032108,57.443277],[-6.032133,57.443307],[-6.032119,57.443349],[-6.032065,57.443405],[-6.031973,57.443474],[-6.031899,57.44354],[-6.031842,57.443604],[-6.031804,57.443664],[-6.031783,57.443721],[-6.031805,57.44376],[-6.03187,57.443779],[-6.031977,57.44378],[-6.032128,57.443761],[-6.032253,57.443792],[-6.032355,57.443871],[-6.032432,57.444],[-6.032484,57.444177],[-6.032557,57.444306],[-6.032648,57.444386],[-6.03276,57.444419],[-6.03289,57.444403],[-6.033004,57.444397],[-6.033102,57.444403],[-6.033182,57.44442],[-6.033245,57.444448],[-6.033314,57.44447],[-6.033388,57.444487],[-6.033467,57.444499],[-6.033551,57.444505],[-6.033614,57.444517],[-6.033655,57.444535],[-6.033675,57.44456],[-6.033673,57.44459],[-6.033648,57.444615],[-6.033601,57.444635],[-6.03353,57.444649],[-6.033437,57.444658],[-6.033363,57.444669],[-6.033308,57.444684],[-6.033273,57.444703],[-6.033257,57.444724],[-6.033258,57.444759],[-6.033278,57.444809],[-6.033315,57.444873],[-6.03337,57.444951],[-6.033425,57.445014],[-6.033482,57.44506],[-6.033539,57.445091],[-6.033596,57.445106],[-6.033639,57.445127],[-6.033667,57.445155],[-6.03368,57.44519],[-6.033677,57.445232],[-6.03369,57.445263],[-6.033717,57.445284],[-6.033759,57.445296],[-6.033816,57.445297],[-6.033863,57.445288],[-6.0339,57.445268],[-6.033928,57.445238],[-6.033946,57.445197],[-6.03397,57.445165],[-6.034001,57.445142],[-6.034038,57.445128],[-6.034082,57.445123],[-6.034123,57.445131],[-6.034163,57.445152],[-6.034202,57.445186],[-6.034238,57.445234],[-6.034253,57.445271],[-6.034247,57.445298],[-6.03422,57.445314],[-6.034171,57.44532],[-6.03414,57.445333],[-6.034125,57.445353],[-6.034128,57.445379],[-6.034148,57.445412],[-6.03419,57.445438],[-6.034254,57.445456],[-6.034341,57.445467],[-6.034449,57.44547],[-6.034542,57.445465],[-6.034618,57.445453],[-6.034678,57.445434],[-6.034723,57.445406],[-6.034769,57.445393],[-6.034818,57.445394],[-6.034869,57.445409],[-6.034923,57.445438],[-6.034992,57.445458],[-6.035076,57.44547],[-6.035176,57.445472],[-6.035291,57.445466],[-6.035397,57.445457],[-6.035493,57.445444],[-6.03558,57.445427],[-6.035658,57.445406],[-6.035732,57.445406],[-6.035802,57.445426],[-6.035868,57.445467],[-6.035931,57.445528]]]}}