{"type":"Feature","properties":{"id":"265729","COMMUNE":"Caithness and Sutherland","PROVINCE":"Caithness & Sutherland and Ross & Cromarty","COUNTRY":"UK","FIREDATE":"2025-04-05 11:53:00","FINALDATE":"2025-04-05 13:55:00","CLASS":"FireSeason","areaHA_geo":135.651},"geometry":{"type":"Polygon","coordinates":[[[-3.873251,58.532405],[-3.873244,58.532304],[-3.873115,58.532181],[-3.872864,58.532035],[-3.872491,58.531865],[-3.871996,58.531672],[-3.871642,58.531511],[-3.87143,58.531381],[-3.871359,58.531284],[-3.87143,58.531217],[-3.871444,58.53109],[-3.871401,58.530901],[-3.871303,58.53065],[-3.871147,58.530338],[-3.871001,58.53009],[-3.870864,58.529907],[-3.870737,58.529787],[-3.870618,58.529732],[-3.870545,58.529618],[-3.870517,58.529444],[-3.870534,58.529211],[-3.870595,58.528918],[-3.870627,58.528671],[-3.870628,58.528469],[-3.870598,58.528312],[-3.870538,58.528201],[-3.8705,58.528074],[-3.870485,58.527933],[-3.870491,58.527776],[-3.87052,58.527605],[-3.870629,58.527533],[-3.870817,58.52756],[-3.871084,58.527686],[-3.87143,58.527911],[-3.871736,58.528104],[-3.872001,58.528266],[-3.872226,58.528396],[-3.87241,58.528495],[-3.872577,58.528572],[-3.872728,58.528628],[-3.872863,58.528663],[-3.87298,58.528676],[-3.873253,58.528774],[-3.873679,58.528957],[-3.87426,58.529225],[-3.874996,58.529578],[-3.875539,58.52977],[-3.875889,58.529801],[-3.876047,58.529671],[-3.876013,58.52938],[-3.876086,58.529116],[-3.876266,58.528879],[-3.876554,58.528668],[-3.876948,58.528484],[-3.877243,58.528302],[-3.877438,58.528122],[-3.877532,58.527944],[-3.877527,58.527768],[-3.877526,58.527621],[-3.877528,58.527503],[-3.877533,58.527414],[-3.877541,58.527354],[-3.877523,58.527297],[-3.877477,58.527243],[-3.877405,58.527192],[-3.877305,58.527143],[-3.877231,58.527058],[-3.877183,58.526937],[-3.877161,58.526779],[-3.877166,58.526585],[-3.877219,58.526445],[-3.877322,58.526359],[-3.877474,58.526326],[-3.877676,58.526348],[-3.877834,58.526411],[-3.877948,58.526517],[-3.878019,58.526665],[-3.878046,58.526856],[-3.878055,58.527106],[-3.878048,58.527413],[-3.878023,58.52778],[-3.877982,58.528205],[-3.877959,58.528546],[-3.877956,58.528803],[-3.877972,58.528976],[-3.878007,58.529065],[-3.878065,58.529141],[-3.878146,58.529204],[-3.878251,58.529254],[-3.878378,58.529291],[-3.878499,58.529403],[-3.878612,58.529589],[-3.878719,58.529849],[-3.878819,58.530184],[-3.878937,58.530453],[-3.879075,58.530658],[-3.87923,58.530798],[-3.879405,58.530872],[-3.87959,58.530964],[-3.879787,58.531074],[-3.879994,58.531202],[-3.880213,58.531348],[-3.880413,58.531407],[-3.880596,58.53138],[-3.88076,58.531266],[-3.880907,58.531066],[-3.881039,58.53093],[-3.881156,58.530859],[-3.881258,58.530853],[-3.881345,58.530911],[-3.881506,58.530962],[-3.881741,58.531005],[-3.882049,58.53104],[-3.88243,58.531068],[-3.882663,58.531046],[-3.882748,58.530974],[-3.882683,58.530853],[-3.882471,58.530681],[-3.882356,58.530544],[-3.882339,58.53044],[-3.882421,58.530371],[-3.8826,58.530335],[-3.88274,58.530262],[-3.882841,58.53015],[-3.882903,58.530001],[-3.882926,58.529814],[-3.88301,58.529691],[-3.883157,58.529634],[-3.883365,58.529642],[-3.883636,58.529715],[-3.883858,58.529787],[-3.88403,58.529857],[-3.884154,58.529926],[-3.884229,58.529994],[-3.88443,58.530104],[-3.884755,58.530255],[-3.885206,58.530448],[-3.885782,58.530683],[-3.886242,58.530848],[-3.886586,58.530943],[-3.886813,58.530968],[-3.886924,58.530923],[-3.887087,58.530916],[-3.887301,58.530949],[-3.887567,58.53102],[-3.887884,58.53113],[-3.888112,58.531168],[-3.888251,58.531132],[-3.888301,58.531024],[-3.888262,58.530843],[-3.888141,58.530689],[-3.887938,58.530563],[-3.887653,58.530464],[-3.887287,58.530393],[-3.887024,58.530309],[-3.886865,58.530212],[-3.886809,58.530102],[-3.886857,58.529979],[-3.886977,58.529916],[-3.88717,58.529913],[-3.887434,58.52997],[-3.88777,58.530086],[-3.888018,58.530124],[-3.888179,58.530082],[-3.888252,58.529961],[-3.888237,58.52976],[-3.888111,58.529554],[-3.887875,58.529343],[-3.887528,58.529127],[-3.88707,58.528905],[-3.886752,58.528723],[-3.886576,58.528582],[-3.88654,58.52848],[-3.886644,58.528419],[-3.886825,58.528398],[-3.887083,58.528418],[-3.887417,58.528478],[-3.887827,58.528578],[-3.888157,58.528639],[-3.888406,58.528659],[-3.888576,58.52864],[-3.888665,58.52858],[-3.888713,58.528497],[-3.888719,58.528391],[-3.888685,58.528262],[-3.888609,58.52811],[-3.888637,58.52803],[-3.88877,58.52802],[-3.889008,58.528082],[-3.88935,58.528215],[-3.889584,58.528277],[-3.88971,58.528268],[-3.889727,58.528188],[-3.889635,58.528038],[-3.889635,58.527926],[-3.889727,58.527854],[-3.889911,58.52782],[-3.890187,58.527825],[-3.890449,58.527836],[-3.890697,58.527852],[-3.890932,58.527874],[-3.891152,58.527902],[-3.891302,58.527895],[-3.891382,58.527853],[-3.891392,58.527776],[-3.891332,58.527664],[-3.891243,58.527571],[-3.891124,58.527494],[-3.890976,58.527436],[-3.890799,58.527396],[-3.890658,58.527345],[-3.890554,58.527284],[-3.890485,58.527214],[-3.890453,58.527133],[-3.890474,58.527082],[-3.890546,58.527062],[-3.890671,58.527072],[-3.890848,58.527113],[-3.890977,58.527102],[-3.891057,58.527039],[-3.891088,58.526924],[-3.89107,58.526757],[-3.891109,58.526631],[-3.891204,58.526546],[-3.891356,58.526501],[-3.891563,58.526496],[-3.891744,58.526545],[-3.891897,58.526647],[-3.892022,58.526802],[-3.892121,58.527011],[-3.892236,58.527179],[-3.892368,58.527309],[-3.892516,58.527399],[-3.892681,58.527449],[-3.892829,58.52752],[-3.892962,58.527611],[-3.893079,58.527723],[-3.89318,58.527856],[-3.893284,58.527988],[-3.893393,58.52812],[-3.893505,58.528251],[-3.893621,58.528382],[-3.893734,58.528514],[-3.893842,58.528646],[-3.893947,58.528778],[-3.894047,58.52891],[-3.894176,58.528981],[-3.894333,58.52899],[-3.894517,58.528937],[-3.89473,58.528823],[-3.894899,58.528721],[-3.895025,58.528632],[-3.895108,58.528556],[-3.895147,58.528493],[-3.895208,58.528424],[-3.895291,58.528348],[-3.895396,58.528266],[-3.895522,58.528177],[-3.895601,58.528083],[-3.895634,58.527982],[-3.89562,58.527877],[-3.89556,58.527765],[-3.895428,58.527634],[-3.895223,58.527482],[-3.894946,58.527311],[-3.894597,58.52712],[-3.894317,58.526993],[-3.894107,58.526931],[-3.893967,58.526933],[-3.893896,58.526999],[-3.893791,58.527029],[-3.893652,58.527022],[-3.893478,58.526979],[-3.893269,58.5269],[-3.893102,58.526812],[-3.892975,58.526716],[-3.892889,58.526611],[-3.892845,58.526498],[-3.892761,58.526408],[-3.892637,58.526341],[-3.892475,58.526296],[-3.892273,58.526275],[-3.892083,58.526253],[-3.891905,58.526229],[-3.891738,58.526205],[-3.891583,58.526179],[-3.891444,58.526134],[-3.891323,58.526071],[-3.891218,58.525989],[-3.89113,58.525889],[-3.891143,58.525829],[-3.891255,58.525809],[-3.891469,58.525829],[-3.891782,58.525889],[-3.89213,58.525903],[-3.892513,58.525872],[-3.892929,58.525795],[-3.89338,58.525673],[-3.893638,58.525541],[-3.893703,58.525399],[-3.893575,58.525249],[-3.893254,58.525088],[-3.892927,58.524983],[-3.892593,58.524934],[-3.892253,58.52494],[-3.891907,58.525001],[-3.891658,58.525014],[-3.891508,58.524979],[-3.891455,58.524896],[-3.8915,58.524765],[-3.891484,58.524634],[-3.891408,58.524503],[-3.891272,58.524372],[-3.891075,58.524241],[-3.890825,58.524128],[-3.890522,58.524033],[-3.890166,58.523957],[-3.889756,58.523898],[-3.889326,58.523859],[-3.888875,58.523838],[-3.888403,58.523836],[-3.88791,58.523854],[-3.887515,58.523842],[-3.887217,58.523801],[-3.887016,58.523732],[-3.886913,58.523633],[-3.886866,58.523545],[-3.886876,58.523468],[-3.886943,58.523403],[-3.887066,58.523348],[-3.887137,58.523292],[-3.887155,58.523236],[-3.88712,58.523178],[-3.887033,58.52312],[-3.886852,58.523059],[-3.886577,58.522995],[-3.886208,58.522928],[-3.885745,58.522858],[-3.885372,58.522821],[-3.885089,58.522816],[-3.884895,58.522845],[-3.88479,58.522906],[-3.884665,58.522917],[-3.884521,58.522877],[-3.884356,58.522787],[-3.884172,58.522646],[-3.883956,58.522547],[-3.883707,58.522488],[-3.883426,58.522471],[-3.883114,58.522495],[-3.882922,58.522487],[-3.88285,58.522449],[-3.882899,58.522378],[-3.883068,58.522277],[-3.88314,58.522185],[-3.883116,58.522103],[-3.882995,58.522032],[-3.882778,58.52197],[-3.882377,58.521915],[-3.881794,58.521866],[-3.881029,58.521823],[-3.88008,58.521787],[-3.87935,58.521782],[-3.878837,58.52181],[-3.878543,58.52187],[-3.878466,58.521962],[-3.878223,58.522029],[-3.877813,58.522072],[-3.877236,58.522089],[-3.876492,58.522082],[-3.875851,58.522079],[-3.875312,58.52208],[-3.874875,58.522085],[-3.87454,58.522095],[-3.874047,58.522079],[-3.873394,58.522037],[-3.872582,58.521969],[-3.871612,58.521876],[-3.870864,58.521808],[-3.87034,58.521766],[-3.870039,58.521748],[-3.869962,58.521756],[-3.869501,58.521732],[-3.868658,58.521677],[-3.867432,58.521589],[-3.865822,58.521469],[-3.864592,58.521403],[-3.863742,58.52139],[-3.86327,58.52143],[-3.863179,58.521524],[-3.863096,58.521621],[-3.863023,58.521721],[-3.862959,58.521824],[-3.862904,58.521931],[-3.862889,58.522035],[-3.862913,58.522138],[-3.862977,58.522239],[-3.86308,58.522337],[-3.863133,58.522429],[-3.863133,58.522513],[-3.863083,58.52259],[-3.862982,58.522659],[-3.862939,58.522724],[-3.862955,58.522786],[-3.86303,58.522843],[-3.863164,58.522897],[-3.863279,58.522965],[-3.863376,58.523047],[-3.863455,58.523144],[-3.863515,58.523256],[-3.863536,58.523401],[-3.863518,58.52358],[-3.86346,58.523792],[-3.863364,58.524037],[-3.863289,58.524255],[-3.863235,58.524446],[-3.863203,58.524609],[-3.863192,58.524745],[-3.863258,58.524831],[-3.863401,58.524866],[-3.86362,58.524852],[-3.863917,58.524788],[-3.864201,58.524752],[-3.864472,58.524745],[-3.86473,58.524767],[-3.864976,58.524817],[-3.865206,58.52481],[-3.865423,58.524746],[-3.865624,58.524624],[-3.865811,58.524445],[-3.866056,58.524318],[-3.866357,58.524245],[-3.866715,58.524225],[-3.867131,58.524258],[-3.867462,58.524333],[-3.86771,58.52445],[-3.867874,58.52461],[-3.867953,58.524812],[-3.867891,58.524951],[-3.867688,58.525027],[-3.867342,58.525039],[-3.866855,58.524989],[-3.866458,58.524981],[-3.86615,58.525018],[-3.865932,58.525097],[-3.865803,58.52522],[-3.865675,58.525315],[-3.865549,58.525383],[-3.865424,58.525423],[-3.8653,58.525436],[-3.865217,58.52548],[-3.865174,58.525556],[-3.865172,58.525663],[-3.865211,58.525802],[-3.865184,58.525908],[-3.865092,58.525981],[-3.864935,58.52602],[-3.864711,58.526027],[-3.864564,58.526092],[-3.864493,58.526217],[-3.864497,58.526402],[-3.864577,58.526646],[-3.864591,58.526824],[-3.864538,58.526934],[-3.864418,58.526978],[-3.864232,58.526955],[-3.86407,58.526913],[-3.863933,58.526852],[-3.863821,58.526771],[-3.863733,58.52667],[-3.863626,58.526612],[-3.863498,58.526596],[-3.863351,58.526621],[-3.863185,58.526689],[-3.863084,58.52679],[-3.863048,58.526924],[-3.863078,58.527091],[-3.863173,58.527292],[-3.863188,58.527454],[-3.863125,58.527579],[-3.862981,58.527665],[-3.862759,58.527713],[-3.862601,58.527763],[-3.862509,58.527815],[-3.862482,58.527868],[-3.862519,58.527923],[-3.862581,58.527967],[-3.862667,58.528001],[-3.862776,58.528023],[-3.86291,58.528034],[-3.863042,58.528094],[-3.863173,58.528203],[-3.863304,58.52836],[-3.863433,58.528565],[-3.863601,58.528737],[-3.863809,58.528875],[-3.864056,58.52898],[-3.864341,58.529052],[-3.86457,58.529121],[-3.864741,58.529187],[-3.864855,58.529251],[-3.864911,58.529312],[-3.865064,58.529412],[-3.865311,58.529551],[-3.865655,58.529728],[-3.866094,58.529943],[-3.866514,58.530108],[-3.866913,58.530222],[-3.867293,58.530286],[-3.867653,58.5303],[-3.867979,58.530352],[-3.868273,58.530444],[-3.868534,58.530574],[-3.868762,58.530744],[-3.869014,58.530914],[-3.86929,58.531083],[-3.869591,58.531252],[-3.869915,58.53142],[-3.87022,58.531561],[-3.870506,58.531675],[-3.870774,58.531761],[-3.871023,58.531819],[-3.871326,58.531903],[-3.871683,58.532014],[-3.872095,58.53215],[-3.872562,58.532312],[-3.87291,58.532408],[-3.87314,58.532439],[-3.873251,58.532405]]]}}