{"type":"Feature","properties":{"id":"265748","COMMUNE":"Angus","PROVINCE":"Angus and Dundee City","COUNTRY":"UK","FIREDATE":"2025-04-01 12:42:00","FINALDATE":"2025-04-01 13:57:00","CLASS":"FireSeason","areaHA_geo":6.875},"geometry":{"type":"Polygon","coordinates":[[[-2.840203,56.944319],[-2.84008,56.944382],[-2.839996,56.944436],[-2.839951,56.944481],[-2.839945,56.944517],[-2.83998,56.944545],[-2.840057,56.944565],[-2.840176,56.944578],[-2.840335,56.944582],[-2.840483,56.944571],[-2.840618,56.944545],[-2.840742,56.944504],[-2.840852,56.944447],[-2.840942,56.944422],[-2.841009,56.944428],[-2.841054,56.944465],[-2.841078,56.944534],[-2.841118,56.944589],[-2.841173,56.944629],[-2.841245,56.944655],[-2.841333,56.944666],[-2.841407,56.944631],[-2.841467,56.944549],[-2.841514,56.94442],[-2.841546,56.944244],[-2.841606,56.944073],[-2.841693,56.943907],[-2.841808,56.943746],[-2.84195,56.943589],[-2.842076,56.943454],[-2.842185,56.943339],[-2.842278,56.943245],[-2.842355,56.943171],[-2.84239,56.943096],[-2.842383,56.943021],[-2.842334,56.942945],[-2.842242,56.942867],[-2.842196,56.94278],[-2.842195,56.942684],[-2.84224,56.942578],[-2.842331,56.942462],[-2.842401,56.942348],[-2.84245,56.942233],[-2.842479,56.94212],[-2.842487,56.942008],[-2.842513,56.941916],[-2.842559,56.941846],[-2.842623,56.941796],[-2.842707,56.941768],[-2.842768,56.941717],[-2.842809,56.941644],[-2.842827,56.94155],[-2.842825,56.941433],[-2.842842,56.941343],[-2.842881,56.941278],[-2.842939,56.941239],[-2.843019,56.941226],[-2.843084,56.941187],[-2.843136,56.941121],[-2.843174,56.941028],[-2.843198,56.940909],[-2.843238,56.9408],[-2.843292,56.9407],[-2.843361,56.940611],[-2.843446,56.940531],[-2.8435,56.940424],[-2.843523,56.94029],[-2.843517,56.940128],[-2.84348,56.939939],[-2.843406,56.939799],[-2.843296,56.939708],[-2.843149,56.939667],[-2.842965,56.939675],[-2.842801,56.939691],[-2.842656,56.939716],[-2.84253,56.939749],[-2.842423,56.93979],[-2.84225,56.939794],[-2.842011,56.939762],[-2.841705,56.939693],[-2.841334,56.939588],[-2.841055,56.939548],[-2.840868,56.939574],[-2.840774,56.939666],[-2.840772,56.939824],[-2.840745,56.939995],[-2.840693,56.940181],[-2.840614,56.94038],[-2.840511,56.940594],[-2.840461,56.94076],[-2.840464,56.940879],[-2.840522,56.940951],[-2.840633,56.940975],[-2.840722,56.941012],[-2.84079,56.941061],[-2.840837,56.941123],[-2.840862,56.941196],[-2.840852,56.941261],[-2.840806,56.941316],[-2.840724,56.941362],[-2.840606,56.941399],[-2.840502,56.94145],[-2.840413,56.941515],[-2.840338,56.941594],[-2.840276,56.941686],[-2.84028,56.941764],[-2.840348,56.941829],[-2.840482,56.941879],[-2.840681,56.941915],[-2.840824,56.941952],[-2.840911,56.941989],[-2.840942,56.942026],[-2.840918,56.942064],[-2.840844,56.942119],[-2.840719,56.942189],[-2.840544,56.942276],[-2.840319,56.94238],[-2.840148,56.942471],[-2.84003,56.942548],[-2.839966,56.942613],[-2.839956,56.942665],[-2.840006,56.942722],[-2.840116,56.942785],[-2.840286,56.942853],[-2.840516,56.942927],[-2.840652,56.942997],[-2.840694,56.943064],[-2.840641,56.943128],[-2.840494,56.943188],[-2.840405,56.943287],[-2.840373,56.943425],[-2.840399,56.943601],[-2.840482,56.943816],[-2.840504,56.943996],[-2.840465,56.944139],[-2.840365,56.944247],[-2.840203,56.944319]]]}}