{"type":"Feature","properties":{"id":"265714","COMMUNE":"Skye and Lochalsh","PROVINCE":"Lochaber, Skye & Lochalsh, Arran & Cumbrae and Argyll & Bute","COUNTRY":"UK","FIREDATE":"2025-03-18 13:46:00","FINALDATE":"2025-03-18 14:33:00","CLASS":"FireSeason","areaHA_geo":20.642},"geometry":{"type":"Polygon","coordinates":[[[-6.075098,57.438524],[-6.075225,57.438605],[-6.075304,57.4386],[-6.075333,57.438507],[-6.075312,57.438329],[-6.075332,57.43819],[-6.075392,57.438092],[-6.075491,57.438035],[-6.07563,57.438017],[-6.075661,57.437947],[-6.075584,57.437822],[-6.075399,57.437644],[-6.075106,57.437412],[-6.074832,57.437233],[-6.074578,57.437107],[-6.074344,57.437033],[-6.074129,57.437013],[-6.073923,57.436953],[-6.073726,57.436855],[-6.073537,57.436719],[-6.073357,57.436544],[-6.073266,57.436388],[-6.073264,57.43625],[-6.073351,57.436131],[-6.073527,57.436031],[-6.073625,57.435896],[-6.073647,57.435728],[-6.07359,57.435526],[-6.073457,57.435291],[-6.073292,57.435041],[-6.073095,57.434778],[-6.072866,57.434501],[-6.072605,57.43421],[-6.072325,57.433933],[-6.072026,57.43367],[-6.071707,57.433422],[-6.071369,57.433188],[-6.071049,57.43292],[-6.070747,57.432618],[-6.070463,57.432283],[-6.070197,57.431914],[-6.069946,57.431602],[-6.069709,57.431347],[-6.069486,57.43115],[-6.069278,57.431011],[-6.069108,57.430943],[-6.068978,57.430947],[-6.068887,57.431023],[-6.068835,57.431172],[-6.068856,57.431342],[-6.068948,57.431536],[-6.069113,57.431752],[-6.069351,57.431991],[-6.06952,57.43219],[-6.06962,57.432351],[-6.069652,57.432474],[-6.069616,57.432557],[-6.069534,57.432597],[-6.069407,57.432593],[-6.069236,57.432545],[-6.069019,57.432453],[-6.068787,57.432334],[-6.068539,57.432187],[-6.068275,57.432013],[-6.067995,57.431811],[-6.067816,57.431723],[-6.06774,57.431748],[-6.067764,57.431887],[-6.06789,57.432139],[-6.067917,57.432317],[-6.067846,57.432421],[-6.067675,57.43245],[-6.067405,57.432404],[-6.067146,57.432348],[-6.066896,57.43228],[-6.066655,57.432201],[-6.066425,57.432111],[-6.066153,57.432037],[-6.065841,57.431977],[-6.065487,57.431932],[-6.065092,57.431902],[-6.064873,57.431929],[-6.064829,57.432013],[-6.064961,57.432154],[-6.065269,57.432353],[-6.065565,57.432523],[-6.065848,57.432665],[-6.066118,57.43278],[-6.066376,57.432866],[-6.06656,57.432974],[-6.066668,57.433102],[-6.066701,57.433252],[-6.066659,57.433422],[-6.066669,57.433579],[-6.066732,57.433721],[-6.066847,57.433848],[-6.067014,57.433962],[-6.067188,57.434082],[-6.067369,57.43421],[-6.067557,57.434344],[-6.067752,57.434486],[-6.0679,57.434647],[-6.068002,57.434827],[-6.068057,57.435027],[-6.068066,57.435247],[-6.067984,57.435385],[-6.067811,57.435442],[-6.067547,57.435417],[-6.067192,57.435311],[-6.066933,57.435266],[-6.066771,57.435282],[-6.066706,57.435359],[-6.066738,57.435497],[-6.06686,57.435658],[-6.067073,57.43584],[-6.067376,57.436045],[-6.06777,57.436272],[-6.068144,57.436471],[-6.068497,57.43664],[-6.068831,57.43678],[-6.069144,57.436891],[-6.069413,57.437002],[-6.069638,57.437112],[-6.069818,57.437222],[-6.069955,57.437331],[-6.070102,57.437407],[-6.070261,57.437451],[-6.07043,57.437461],[-6.070611,57.437439],[-6.070774,57.43745],[-6.070919,57.437496],[-6.071046,57.437575],[-6.071154,57.437687],[-6.07132,57.437781],[-6.071544,57.437856],[-6.071826,57.437912],[-6.072165,57.437949],[-6.072537,57.437936],[-6.072943,57.437874],[-6.073382,57.437763],[-6.073854,57.437602],[-6.074214,57.437528],[-6.074462,57.437541],[-6.074597,57.43764],[-6.074621,57.437827],[-6.074683,57.438008],[-6.074783,57.438185],[-6.074921,57.438357],[-6.075098,57.438524]]]}}