{"type":"Feature","properties":{"id":"265771","COMMUNE":"Angus","PROVINCE":"Angus and Dundee City","COUNTRY":"UK","FIREDATE":"2025-03-18 11:13:00","CLASS":"FireSeason","areaHA_geo":1.028},"geometry":{"type":"Polygon","coordinates":[[[-3.020086,56.923836],[-3.020148,56.923835],[-3.020224,56.923809],[-3.020317,56.923757],[-3.020425,56.923681],[-3.020533,56.923618],[-3.020642,56.923566],[-3.020752,56.923526],[-3.020862,56.923499],[-3.020961,56.923462],[-3.02105,56.923417],[-3.021128,56.923362],[-3.021195,56.923298],[-3.021275,56.923232],[-3.021367,56.923164],[-3.021471,56.923093],[-3.021588,56.92302],[-3.021674,56.92294],[-3.021729,56.922853],[-3.021754,56.922759],[-3.021749,56.922658],[-3.02163,56.922602],[-3.021399,56.92259],[-3.021054,56.922624],[-3.020596,56.922703],[-3.020256,56.922772],[-3.020034,56.922833],[-3.019931,56.922886],[-3.019946,56.922929],[-3.019934,56.922968],[-3.019893,56.923002],[-3.019825,56.923033],[-3.01973,56.923059],[-3.019643,56.923094],[-3.019565,56.923138],[-3.019496,56.923192],[-3.019436,56.923255],[-3.019412,56.923311],[-3.019425,56.923358],[-3.019475,56.923398],[-3.019561,56.92343],[-3.019658,56.923447],[-3.019767,56.923448],[-3.019887,56.923434],[-3.020018,56.923404],[-3.020102,56.923408],[-3.020137,56.923445],[-3.020124,56.923516],[-3.020064,56.92362],[-3.020029,56.923704],[-3.020022,56.923768],[-3.020041,56.923812],[-3.020086,56.923836]]]}}