{"type":"Feature","properties":{"id":"265757","COMMUNE":"Ross and Cromarty","PROVINCE":"Caithness & Sutherland and Ross & Cromarty","COUNTRY":"UK","FIREDATE":"2025-03-22 02:41:00","FINALDATE":"2025-03-22 02:41:00","CLASS":"FireSeason","areaHA_geo":50.356},"geometry":{"type":"Polygon","coordinates":[[[-5.594554,57.875648],[-5.594555,57.87553],[-5.594583,57.875436],[-5.594636,57.875366],[-5.594716,57.875319],[-5.594821,57.875295],[-5.594887,57.875253],[-5.594912,57.875191],[-5.594898,57.87511],[-5.594844,57.875011],[-5.594829,57.87492],[-5.594852,57.87484],[-5.594912,57.874768],[-5.595012,57.874706],[-5.595164,57.874623],[-5.595371,57.874517],[-5.595631,57.87439],[-5.595944,57.874242],[-5.596153,57.874112],[-5.596258,57.874002],[-5.596258,57.873912],[-5.596153,57.87384],[-5.596032,57.87379],[-5.595893,57.873762],[-5.595738,57.873756],[-5.595566,57.87377],[-5.59538,57.873797],[-5.595181,57.873834],[-5.594969,57.873883],[-5.594743,57.873943],[-5.594532,57.873978],[-5.594336,57.873987],[-5.594156,57.873971],[-5.593991,57.873929],[-5.593876,57.873888],[-5.593811,57.873849],[-5.593797,57.87381],[-5.593833,57.873772],[-5.593883,57.87373],[-5.593947,57.873683],[-5.594024,57.873632],[-5.594116,57.873577],[-5.594219,57.873535],[-5.594333,57.873508],[-5.594458,57.873494],[-5.594595,57.873495],[-5.594709,57.873484],[-5.594799,57.873462],[-5.594866,57.873429],[-5.59491,57.873385],[-5.594909,57.873342],[-5.594865,57.8733],[-5.594776,57.873259],[-5.594643,57.873219],[-5.594502,57.873191],[-5.594354,57.873175],[-5.594197,57.873171],[-5.594032,57.873179],[-5.59388,57.873172],[-5.593739,57.87315],[-5.593609,57.873112],[-5.593492,57.873059],[-5.593365,57.873005],[-5.593231,57.872948],[-5.593087,57.87289],[-5.592935,57.87283],[-5.59281,57.872761],[-5.592713,57.872683],[-5.592644,57.872596],[-5.592603,57.872501],[-5.592593,57.872406],[-5.592615,57.872311],[-5.592668,57.872217],[-5.592754,57.872123],[-5.592814,57.872045],[-5.59285,57.871982],[-5.592861,57.871935],[-5.592847,57.871903],[-5.592799,57.87186],[-5.592718,57.871805],[-5.592603,57.871739],[-5.592454,57.871662],[-5.592353,57.871582],[-5.592301,57.871499],[-5.592298,57.871413],[-5.592343,57.871324],[-5.592273,57.871209],[-5.592086,57.87107],[-5.591783,57.870905],[-5.591364,57.870714],[-5.591064,57.870556],[-5.590883,57.87043],[-5.590821,57.870335],[-5.590878,57.870273],[-5.590865,57.87022],[-5.590784,57.870176],[-5.590632,57.870143],[-5.590412,57.870119],[-5.590123,57.8701],[-5.589765,57.870086],[-5.589338,57.870078],[-5.588843,57.870076],[-5.588496,57.870062],[-5.588297,57.870039],[-5.588245,57.870004],[-5.588341,57.869959],[-5.588472,57.869923],[-5.588639,57.869895],[-5.58884,57.869875],[-5.589077,57.869864],[-5.589265,57.869843],[-5.589404,57.869813],[-5.589494,57.869773],[-5.589536,57.869723],[-5.589515,57.869645],[-5.589432,57.869537],[-5.589286,57.869401],[-5.589078,57.869236],[-5.588928,57.869073],[-5.588836,57.868911],[-5.588803,57.86875],[-5.588829,57.868591],[-5.588789,57.868414],[-5.588683,57.86822],[-5.588513,57.868009],[-5.588277,57.86778],[-5.58804,57.86761],[-5.587803,57.867499],[-5.587564,57.867446],[-5.587325,57.867452],[-5.587159,57.867433],[-5.587066,57.867388],[-5.587046,57.867318],[-5.587099,57.867222],[-5.5872,57.867134],[-5.587348,57.867052],[-5.587544,57.866977],[-5.587788,57.866909],[-5.588079,57.866836],[-5.588418,57.866756],[-5.588804,57.866672],[-5.589237,57.866581],[-5.589605,57.866557],[-5.589907,57.8666],[-5.590143,57.866708],[-5.590314,57.866883],[-5.590432,57.867034],[-5.590497,57.86716],[-5.59051,57.867262],[-5.59047,57.867339],[-5.590475,57.867389],[-5.590527,57.86741],[-5.590624,57.867404],[-5.590767,57.867371],[-5.590913,57.867405],[-5.591063,57.867507],[-5.591216,57.867678],[-5.591372,57.867916],[-5.591395,57.86815],[-5.591285,57.868381],[-5.591042,57.868607],[-5.590666,57.86883],[-5.590376,57.869034],[-5.590172,57.869217],[-5.590054,57.86938],[-5.590022,57.869523],[-5.590041,57.869628],[-5.590112,57.869695],[-5.590235,57.869724],[-5.590409,57.869714],[-5.590596,57.869671],[-5.590794,57.869595],[-5.591003,57.869485],[-5.591224,57.869342],[-5.591419,57.869234],[-5.591587,57.869161],[-5.591728,57.869123],[-5.591843,57.869121],[-5.591957,57.869142],[-5.592071,57.869187],[-5.592185,57.869256],[-5.592299,57.869348],[-5.59241,57.869398],[-5.592518,57.869405],[-5.592623,57.869369],[-5.592725,57.86929],[-5.592797,57.86919],[-5.59284,57.869071],[-5.592853,57.868931],[-5.592836,57.868771],[-5.592811,57.868606],[-5.592779,57.868434],[-5.592738,57.868256],[-5.59269,57.868072],[-5.592644,57.867906],[-5.5926,57.867758],[-5.592559,57.867627],[-5.592521,57.867515],[-5.592525,57.867433],[-5.592571,57.867383],[-5.59266,57.867364],[-5.592792,57.867376],[-5.592892,57.867366],[-5.592962,57.867333],[-5.593,57.867276],[-5.593008,57.867197],[-5.593062,57.867117],[-5.593163,57.867035],[-5.593311,57.866952],[-5.593506,57.866868],[-5.593675,57.866817],[-5.59382,57.8668],[-5.59394,57.866816],[-5.594036,57.866866],[-5.594137,57.866882],[-5.594245,57.866864],[-5.594358,57.866811],[-5.594478,57.866725],[-5.594515,57.866616],[-5.594468,57.866485],[-5.594339,57.866331],[-5.594126,57.866156],[-5.593914,57.865995],[-5.593704,57.86585],[-5.593495,57.86572],[-5.593288,57.865605],[-5.593116,57.865549],[-5.59298,57.865551],[-5.592881,57.865611],[-5.592817,57.86573],[-5.592758,57.8658],[-5.592704,57.865821],[-5.592654,57.865792],[-5.59261,57.865713],[-5.592566,57.865629],[-5.592521,57.86554],[-5.592477,57.865444],[-5.592434,57.865344],[-5.592387,57.865249],[-5.592338,57.86516],[-5.592286,57.865076],[-5.592231,57.864999],[-5.592204,57.864919],[-5.592205,57.864835],[-5.592233,57.864748],[-5.592288,57.864658],[-5.592289,57.864594],[-5.592235,57.864555],[-5.592128,57.864543],[-5.591965,57.864557],[-5.591807,57.864566],[-5.591651,57.86457],[-5.591499,57.86457],[-5.59135,57.864565],[-5.591251,57.864581],[-5.591204,57.864617],[-5.591208,57.864674],[-5.591262,57.864751],[-5.591283,57.864829],[-5.591269,57.864905],[-5.591221,57.864982],[-5.591139,57.865059],[-5.591056,57.865118],[-5.590974,57.865158],[-5.590892,57.86518],[-5.59081,57.865184],[-5.590731,57.865171],[-5.590655,57.865141],[-5.590582,57.865094],[-5.590512,57.86503],[-5.590426,57.864973],[-5.590326,57.864924],[-5.590211,57.864882],[-5.59008,57.864847],[-5.589939,57.864799],[-5.589787,57.864739],[-5.589624,57.864667],[-5.58945,57.864581],[-5.58929,57.864528],[-5.589144,57.864506],[-5.589012,57.864516],[-5.588894,57.864558],[-5.588763,57.864541],[-5.58862,57.864466],[-5.588465,57.864332],[-5.588297,57.86414],[-5.588122,57.864022],[-5.58794,57.863976],[-5.58775,57.864004],[-5.587552,57.864106],[-5.587345,57.864203],[-5.587128,57.864296],[-5.586901,57.864384],[-5.586664,57.864468],[-5.586559,57.864553],[-5.586586,57.864639],[-5.586745,57.864726],[-5.587035,57.864814],[-5.587229,57.864896],[-5.587324,57.864971],[-5.587322,57.86504],[-5.587223,57.865102],[-5.587074,57.865174],[-5.586873,57.865256],[-5.586622,57.865349],[-5.58632,57.865451],[-5.586047,57.865542],[-5.585803,57.865621],[-5.585588,57.865689],[-5.585402,57.865744],[-5.585225,57.865768],[-5.585059,57.86576],[-5.584903,57.865719],[-5.584756,57.865648],[-5.584672,57.865564],[-5.584652,57.865469],[-5.584695,57.865362],[-5.584801,57.865243],[-5.58484,57.86514],[-5.584812,57.865051],[-5.584717,57.864977],[-5.584555,57.864918],[-5.584371,57.864872],[-5.584167,57.864837],[-5.583942,57.864815],[-5.583697,57.864805],[-5.583546,57.864816],[-5.583492,57.864847],[-5.583533,57.8649],[-5.58367,57.864973],[-5.583761,57.865039],[-5.583808,57.865097],[-5.583809,57.865149],[-5.583765,57.865193],[-5.583677,57.865219],[-5.583543,57.865226],[-5.583365,57.865215],[-5.583142,57.865186],[-5.582914,57.865192],[-5.58268,57.865234],[-5.58244,57.865311],[-5.582195,57.865424],[-5.582018,57.865541],[-5.581908,57.865663],[-5.581866,57.865789],[-5.581891,57.86592],[-5.581916,57.866063],[-5.581942,57.866219],[-5.581968,57.866388],[-5.581994,57.866569],[-5.582119,57.866717],[-5.582343,57.866833],[-5.582665,57.866916],[-5.583086,57.866967],[-5.58341,57.867052],[-5.583635,57.867174],[-5.583764,57.86733],[-5.583794,57.867522],[-5.583877,57.867682],[-5.584012,57.867811],[-5.584199,57.867909],[-5.584438,57.867975],[-5.584646,57.868006],[-5.584823,57.868002],[-5.584968,57.867963],[-5.585083,57.867888],[-5.585193,57.867852],[-5.5853,57.867856],[-5.585403,57.8679],[-5.585502,57.867983],[-5.585579,57.868008],[-5.585632,57.867973],[-5.585663,57.867881],[-5.58567,57.867729],[-5.585708,57.867623],[-5.585776,57.867562],[-5.585874,57.867546],[-5.586003,57.867575],[-5.58611,57.867623],[-5.586196,57.867688],[-5.586261,57.867771],[-5.586305,57.867871],[-5.586365,57.867986],[-5.586441,57.868113],[-5.586534,57.868254],[-5.586643,57.868409],[-5.586673,57.868556],[-5.586623,57.868696],[-5.586494,57.868828],[-5.586286,57.868953],[-5.586037,57.869033],[-5.585747,57.869067],[-5.585417,57.869056],[-5.585046,57.869],[-5.584747,57.868929],[-5.584521,57.868844],[-5.584368,57.868745],[-5.584287,57.868632],[-5.584186,57.868556],[-5.584064,57.868517],[-5.583922,57.868516],[-5.583759,57.868552],[-5.58368,57.868612],[-5.583684,57.868695],[-5.583773,57.868802],[-5.583945,57.868932],[-5.584017,57.869025],[-5.583989,57.869081],[-5.583861,57.869101],[-5.583632,57.869083],[-5.583312,57.86915],[-5.5829,57.869302],[-5.582397,57.869539],[-5.581801,57.869861],[-5.581321,57.870128],[-5.580956,57.870341],[-5.580708,57.870501],[-5.580575,57.870606],[-5.580428,57.870757],[-5.580267,57.870954],[-5.580092,57.871198],[-5.579902,57.871488],[-5.579832,57.871737],[-5.579879,57.871943],[-5.580045,57.872108],[-5.58033,57.87223],[-5.580556,57.872304],[-5.580724,57.872328],[-5.580835,57.872304],[-5.580887,57.872231],[-5.58096,57.8722],[-5.581054,57.872211],[-5.581169,57.872265],[-5.581305,57.87236],[-5.581438,57.872448],[-5.581567,57.872527],[-5.581693,57.872599],[-5.581815,57.872662],[-5.581934,57.872725],[-5.58205,57.872787],[-5.582163,57.872847],[-5.582273,57.872907],[-5.58239,57.872965],[-5.582515,57.873023],[-5.582648,57.87308],[-5.582787,57.873136],[-5.582948,57.87318],[-5.58313,57.873211],[-5.583333,57.87323],[-5.583556,57.873237],[-5.583756,57.873236],[-5.58393,57.873226],[-5.58408,57.873209],[-5.584205,57.873183],[-5.584342,57.873147],[-5.58449,57.873102],[-5.58465,57.873046],[-5.584822,57.872981],[-5.584968,57.872908],[-5.585091,57.872827],[-5.585188,57.872737],[-5.585261,57.872639],[-5.585372,57.872573],[-5.58552,57.872539],[-5.585705,57.872537],[-5.585928,57.872566],[-5.586143,57.872564],[-5.586349,57.872531],[-5.586547,57.872468],[-5.586737,57.872373],[-5.586923,57.87231],[-5.587104,57.87228],[-5.587281,57.872283],[-5.587454,57.872318],[-5.587615,57.872326],[-5.587764,57.872305],[-5.5879,57.872257],[-5.588025,57.872181],[-5.588115,57.872098],[-5.58817,57.872008],[-5.588191,57.87191],[-5.588177,57.871806],[-5.588226,57.871718],[-5.588336,57.871646],[-5.588509,57.871591],[-5.588744,57.871552],[-5.588947,57.871499],[-5.589117,57.871431],[-5.589255,57.871349],[-5.58936,57.871253],[-5.589462,57.871173],[-5.58956,57.871108],[-5.589654,57.871059],[-5.589745,57.871026],[-5.589806,57.87104],[-5.589838,57.8711],[-5.58984,57.871207],[-5.589812,57.871361],[-5.589779,57.871496],[-5.58974,57.871612],[-5.589695,57.87171],[-5.589645,57.871788],[-5.589644,57.871846],[-5.589691,57.871882],[-5.589787,57.871897],[-5.589932,57.871891],[-5.590076,57.871907],[-5.590218,57.871946],[-5.590361,57.872008],[-5.590502,57.872091],[-5.590644,57.872158],[-5.590787,57.872208],[-5.59093,57.872241],[-5.591074,57.872258],[-5.591219,57.872291],[-5.591367,57.87234],[-5.591516,57.872406],[-5.591668,57.872489],[-5.591733,57.872579],[-5.591712,57.872676],[-5.591605,57.872781],[-5.591413,57.872893],[-5.591269,57.872992],[-5.591175,57.873078],[-5.591131,57.873152],[-5.591137,57.873213],[-5.591169,57.87328],[-5.591227,57.873354],[-5.591312,57.873435],[-5.591423,57.873522],[-5.591488,57.873598],[-5.591506,57.873663],[-5.591476,57.873716],[-5.5914,57.873759],[-5.591359,57.873827],[-5.591352,57.873919],[-5.59138,57.874038],[-5.591442,57.874181],[-5.591549,57.874313],[-5.591702,57.874435],[-5.5919,57.874545],[-5.592143,57.874645],[-5.592315,57.874744],[-5.592416,57.874844],[-5.592446,57.874943],[-5.592405,57.875043],[-5.592416,57.875128],[-5.592478,57.875199],[-5.592592,57.875255],[-5.592757,57.875297],[-5.592891,57.875296],[-5.592993,57.875254],[-5.593064,57.875169],[-5.593103,57.875041],[-5.593163,57.874955],[-5.593243,57.874909],[-5.593343,57.874904],[-5.593464,57.87494],[-5.593572,57.875002],[-5.593669,57.875091],[-5.593753,57.875207],[-5.593825,57.875349],[-5.593918,57.875472],[-5.594031,57.875576],[-5.594165,57.87566],[-5.59432,57.875726],[-5.594436,57.875745],[-5.594514,57.875719],[-5.594554,57.875648]]]}}