{"type":"Feature","properties":{"id":"265706","COMMUNE":"East Lothian","PROVINCE":"East Lothian and Midlothian","COUNTRY":"UK","FIREDATE":"2025-03-18 18:32:20.335","CLASS":"FireSeason","areaHA_geo":14.544},"geometry":{"type":"Polygon","coordinates":[[[-2.493068,55.911756],[-2.493421,55.911693],[-2.493807,55.911503],[-2.494227,55.911188],[-2.494681,55.910747],[-2.495103,55.910452],[-2.495493,55.910304],[-2.495851,55.910303],[-2.496177,55.910448],[-2.496359,55.910594],[-2.496397,55.910742],[-2.496292,55.91089],[-2.496042,55.91104],[-2.495863,55.911206],[-2.495754,55.911389],[-2.495716,55.911589],[-2.495748,55.911805],[-2.495843,55.911957],[-2.496002,55.912046],[-2.496225,55.912071],[-2.49651,55.912032],[-2.496764,55.911968],[-2.496987,55.911878],[-2.497178,55.911763],[-2.497337,55.911622],[-2.497487,55.911495],[-2.497628,55.911382],[-2.497759,55.911283],[-2.497881,55.911198],[-2.498059,55.911086],[-2.498294,55.910948],[-2.498586,55.910784],[-2.498934,55.910593],[-2.499206,55.910412],[-2.499403,55.910242],[-2.499523,55.910081],[-2.499568,55.909931],[-2.499639,55.909832],[-2.499736,55.909786],[-2.499859,55.909792],[-2.500008,55.909851],[-2.500072,55.909803],[-2.50005,55.909648],[-2.499943,55.909388],[-2.49975,55.909021],[-2.499336,55.908676],[-2.498701,55.908352],[-2.497845,55.908051],[-2.496768,55.907771],[-2.495886,55.907621],[-2.495199,55.9076],[-2.494708,55.907708],[-2.494412,55.907946],[-2.494201,55.908144],[-2.494075,55.908303],[-2.494034,55.908422],[-2.494078,55.908501],[-2.494166,55.90857],[-2.494297,55.90863],[-2.494472,55.908681],[-2.49469,55.908722],[-2.494866,55.908791],[-2.494999,55.908887],[-2.49509,55.909011],[-2.495139,55.909163],[-2.495145,55.909298],[-2.495109,55.909416],[-2.49503,55.909518],[-2.494908,55.909603],[-2.494781,55.909655],[-2.494647,55.909673],[-2.494507,55.909658],[-2.494361,55.90961],[-2.494099,55.909591],[-2.493721,55.909603],[-2.493226,55.909644],[-2.492616,55.909714],[-2.492116,55.909839],[-2.491727,55.910018],[-2.491448,55.910252],[-2.49128,55.91054],[-2.491224,55.910772],[-2.491281,55.910949],[-2.491451,55.911071],[-2.491733,55.911137],[-2.491952,55.911209],[-2.492107,55.911287],[-2.4922,55.911372],[-2.492229,55.911463],[-2.492331,55.911547],[-2.492504,55.911624],[-2.49275,55.911693],[-2.493068,55.911756]]]}}