{"type":"Feature","properties":{"id":"265750","COMMUNE":"Angus","PROVINCE":"Angus and Dundee City","COUNTRY":"UK","FIREDATE":"2025-04-01 13:08:00","CLASS":"FireSeason","areaHA_geo":0.597},"geometry":{"type":"Polygon","coordinates":[[[-2.847997,56.941189],[-2.848072,56.941238],[-2.848181,56.941242],[-2.848323,56.941203],[-2.848499,56.941119],[-2.848717,56.941042],[-2.848977,56.94097],[-2.849278,56.940905],[-2.84962,56.940846],[-2.849848,56.940768],[-2.849959,56.940674],[-2.849955,56.940561],[-2.849836,56.940431],[-2.849685,56.940349],[-2.849501,56.940317],[-2.849286,56.940333],[-2.849038,56.940398],[-2.848857,56.940459],[-2.848741,56.940516],[-2.848692,56.94057],[-2.848709,56.940619],[-2.848669,56.940672],[-2.848573,56.94073],[-2.848419,56.940792],[-2.848209,56.940859],[-2.848062,56.940932],[-2.847978,56.941011],[-2.847956,56.941097],[-2.847997,56.941189]]]}}