{"type":"Feature","properties":{"id":"265704","COMMUNE":"East Lothian","PROVINCE":"East Lothian and Midlothian","COUNTRY":"UK","FIREDATE":"2025-03-19 13:53:00","FINALDATE":"2025-03-19 13:53:00","CLASS":"FireSeason","areaHA_geo":4.587},"geometry":{"type":"Polygon","coordinates":[[[-2.466804,55.910218],[-2.466446,55.909857],[-2.466138,55.909564],[-2.465879,55.909339],[-2.465671,55.909182],[-2.465512,55.909093],[-2.465165,55.909029],[-2.46463,55.908987],[-2.463908,55.90897],[-2.462997,55.908976],[-2.462364,55.909036],[-2.462009,55.909149],[-2.461933,55.909315],[-2.462134,55.909535],[-2.462272,55.90972],[-2.462348,55.909869],[-2.462361,55.909982],[-2.462312,55.91006],[-2.462336,55.910136],[-2.462434,55.91021],[-2.462606,55.910282],[-2.462852,55.910351],[-2.463076,55.91041],[-2.463277,55.910458],[-2.463457,55.910495],[-2.463614,55.910522],[-2.463797,55.910553],[-2.464004,55.91059],[-2.464237,55.910632],[-2.464494,55.91068],[-2.464841,55.910716],[-2.465277,55.910741],[-2.465803,55.910755],[-2.466419,55.910757],[-2.466791,55.910668],[-2.466919,55.910488],[-2.466804,55.910218]]]}}