{"type":"Feature","properties":{"id":"265768","COMMUNE":"Angus","PROVINCE":"Angus and Dundee City","COUNTRY":"UK","FIREDATE":"2025-03-18 11:13:00","CLASS":"FireSeason","areaHA_geo":13.202},"geometry":{"type":"Polygon","coordinates":[[[-3.018456,56.928461],[-3.018619,56.928417],[-3.018691,56.928299],[-3.01867,56.92811],[-3.018556,56.927848],[-3.018483,56.927638],[-3.018449,56.927478],[-3.018456,56.927369],[-3.018504,56.927312],[-3.018498,56.927195],[-3.018441,56.92702],[-3.018331,56.926785],[-3.018169,56.926492],[-3.018022,56.92625],[-3.017888,56.92606],[-3.017769,56.925921],[-3.017664,56.925834],[-3.017566,56.925751],[-3.017475,56.925672],[-3.017391,56.925598],[-3.017315,56.925528],[-3.017201,56.925442],[-3.017049,56.925339],[-3.01686,56.92522],[-3.016633,56.925084],[-3.016326,56.924973],[-3.015938,56.924888],[-3.015469,56.924828],[-3.014919,56.924793],[-3.014478,56.924784],[-3.014148,56.924799],[-3.013926,56.924838],[-3.013814,56.924903],[-3.013712,56.924953],[-3.01362,56.924988],[-3.013538,56.92501],[-3.013465,56.925017],[-3.013324,56.925078],[-3.013114,56.925193],[-3.012835,56.925362],[-3.012486,56.925584],[-3.012208,56.925782],[-3.012,56.925956],[-3.011861,56.926105],[-3.011793,56.92623],[-3.011742,56.926369],[-3.011709,56.926521],[-3.011694,56.926686],[-3.011696,56.926866],[-3.011729,56.927029],[-3.011792,56.927178],[-3.011885,56.927311],[-3.012008,56.927429],[-3.012108,56.927533],[-3.012184,56.927623],[-3.012237,56.927699],[-3.012266,56.927762],[-3.012333,56.927815],[-3.012438,56.927859],[-3.012581,56.927895],[-3.012762,56.927922],[-3.012977,56.927937],[-3.013225,56.92794],[-3.013506,56.927932],[-3.01382,56.927913],[-3.014042,56.927917],[-3.014171,56.927945],[-3.014208,56.927996],[-3.014152,56.928071],[-3.014124,56.928152],[-3.014123,56.928237],[-3.014151,56.928328],[-3.014207,56.928424],[-3.014291,56.928487],[-3.014402,56.928517],[-3.014541,56.928513],[-3.014707,56.928476],[-3.014859,56.928468],[-3.014997,56.928488],[-3.015121,56.928538],[-3.015231,56.928617],[-3.015332,56.92865],[-3.015425,56.928639],[-3.01551,56.928583],[-3.015587,56.928481],[-3.015727,56.928407],[-3.015931,56.92836],[-3.016199,56.92834],[-3.01653,56.928348],[-3.016766,56.928301],[-3.016907,56.928202],[-3.016952,56.928048],[-3.016903,56.927841],[-3.016902,56.927726],[-3.01695,56.927703],[-3.017047,56.927772],[-3.017192,56.927933],[-3.017314,56.928089],[-3.017412,56.928243],[-3.017487,56.928392],[-3.017537,56.928538],[-3.017588,56.928624],[-3.017639,56.928652],[-3.017689,56.92862],[-3.01774,56.928529],[-3.017842,56.928468],[-3.017995,56.928437],[-3.0182,56.928434],[-3.018456,56.928461]]]}}