{"type":"Feature","properties":{"id":"265709","COMMUNE":"Lochaber","PROVINCE":"Lochaber, Skye & Lochalsh, Arran & Cumbrae and Argyll & Bute","COUNTRY":"UK","FIREDATE":"2025-03-18 12:29:00","CLASS":"FireSeason","areaHA_geo":2.137},"geometry":{"type":"Polygon","coordinates":[[[-5.700557,56.96629],[-5.700273,56.966418],[-5.700166,56.966521],[-5.700236,56.9666],[-5.700483,56.966654],[-5.7007,56.96669],[-5.700886,56.96671],[-5.701041,56.966712],[-5.701166,56.966697],[-5.701273,56.96667],[-5.701361,56.966632],[-5.701431,56.966582],[-5.701482,56.966522],[-5.701581,56.966477],[-5.701728,56.966449],[-5.701922,56.966436],[-5.702163,56.966441],[-5.702384,56.966387],[-5.702583,56.966274],[-5.702762,56.966103],[-5.70292,56.965873],[-5.703091,56.965716],[-5.703275,56.965631],[-5.703472,56.965617],[-5.703683,56.965675],[-5.703836,56.965691],[-5.703933,56.965665],[-5.703973,56.965596],[-5.703957,56.965484],[-5.703988,56.965402],[-5.704066,56.965348],[-5.70419,56.965324],[-5.704362,56.965328],[-5.70445,56.965297],[-5.704453,56.965232],[-5.704372,56.965131],[-5.704206,56.964996],[-5.704023,56.96491],[-5.703822,56.964873],[-5.703603,56.964886],[-5.703367,56.964949],[-5.703165,56.964973],[-5.702997,56.96496],[-5.702863,56.964909],[-5.702764,56.964821],[-5.702674,56.964778],[-5.702594,56.964781],[-5.702525,56.964831],[-5.702465,56.964926],[-5.702377,56.965017],[-5.702263,56.965102],[-5.702121,56.965183],[-5.701952,56.965258],[-5.701835,56.965338],[-5.701771,56.965424],[-5.701759,56.965515],[-5.7018,56.965611],[-5.701821,56.965692],[-5.701822,56.965759],[-5.701804,56.965812],[-5.701766,56.96585],[-5.701622,56.965917],[-5.701373,56.966013],[-5.701018,56.966137],[-5.700557,56.96629]]]}}