{"type":"Feature","properties":{"id":"265747","COMMUNE":"Angus","PROVINCE":"Angus and Dundee City","COUNTRY":"UK","FIREDATE":"2025-04-01 11:49:00","FINALDATE":"2025-04-01 13:57:00","CLASS":"FireSeason","areaHA_geo":47.538},"geometry":{"type":"Polygon","coordinates":[[[-2.824921,56.953148],[-2.825141,56.953227],[-2.825286,56.953254],[-2.825353,56.953227],[-2.825344,56.953146],[-2.825287,56.953062],[-2.825182,56.952973],[-2.825029,56.95288],[-2.824828,56.952784],[-2.82458,56.952624],[-2.824285,56.952402],[-2.823943,56.952117],[-2.823554,56.95177],[-2.823238,56.951495],[-2.822996,56.951293],[-2.822829,56.951164],[-2.822735,56.951107],[-2.822594,56.950955],[-2.822406,56.950706],[-2.822172,56.950363],[-2.821891,56.949923],[-2.821691,56.949593],[-2.821573,56.949371],[-2.821537,56.949258],[-2.821582,56.949253],[-2.821706,56.949339],[-2.821911,56.949514],[-2.822195,56.949779],[-2.822559,56.950134],[-2.822932,56.950507],[-2.823313,56.950899],[-2.823703,56.951308],[-2.824101,56.951736],[-2.824451,56.952085],[-2.824753,56.952354],[-2.825007,56.952545],[-2.825213,56.952657],[-2.825429,56.952791],[-2.825656,56.952949],[-2.825893,56.95313],[-2.82614,56.953334],[-2.826352,56.953477],[-2.826529,56.953558],[-2.826671,56.953579],[-2.826778,56.953538],[-2.826804,56.953465],[-2.82675,56.953361],[-2.826615,56.953226],[-2.826399,56.95306],[-2.826304,56.952952],[-2.82633,56.952904],[-2.826476,56.952915],[-2.826742,56.952985],[-2.826959,56.953002],[-2.827128,56.952965],[-2.827249,56.952874],[-2.82732,56.95273],[-2.827308,56.952605],[-2.827211,56.952501],[-2.827031,56.952416],[-2.826766,56.95235],[-2.826605,56.952295],[-2.826548,56.95225],[-2.826594,56.952215],[-2.826744,56.95219],[-2.826903,56.952173],[-2.827072,56.952164],[-2.827251,56.952163],[-2.82744,56.95217],[-2.82761,56.952094],[-2.82776,56.951937],[-2.827893,56.951698],[-2.828006,56.951377],[-2.828085,56.95112],[-2.828131,56.950928],[-2.828143,56.9508],[-2.828121,56.950736],[-2.827948,56.950667],[-2.827625,56.950592],[-2.82715,56.950512],[-2.826525,56.950427],[-2.826052,56.950371],[-2.82573,56.950344],[-2.825561,56.950347],[-2.825544,56.950379],[-2.825592,56.950437],[-2.825704,56.95052],[-2.825881,56.950628],[-2.826123,56.950761],[-2.826292,56.950841],[-2.826389,56.950867],[-2.826415,56.950839],[-2.826368,56.950757],[-2.826395,56.950708],[-2.826496,56.95069],[-2.826671,56.950704],[-2.82692,56.950751],[-2.827124,56.950816],[-2.827283,56.950899],[-2.827397,56.951001],[-2.827466,56.951121],[-2.827466,56.95121],[-2.827398,56.951267],[-2.82726,56.951294],[-2.827053,56.951289],[-2.826918,56.951314],[-2.826853,56.951368],[-2.826858,56.951453],[-2.826935,56.951567],[-2.82696,56.95166],[-2.826933,56.951731],[-2.826854,56.951781],[-2.826724,56.951809],[-2.826542,56.951739],[-2.826308,56.951572],[-2.826021,56.951307],[-2.825683,56.950945],[-2.825445,56.950652],[-2.825308,56.950429],[-2.825272,56.950277],[-2.825337,56.950194],[-2.825449,56.950141],[-2.825608,56.950118],[-2.825815,56.950124],[-2.82607,56.95016],[-2.826303,56.950182],[-2.826516,56.950192],[-2.826708,56.950188],[-2.826879,56.950171],[-2.827081,56.950169],[-2.827314,56.950181],[-2.827577,56.950209],[-2.827871,56.950251],[-2.828108,56.950209],[-2.828289,56.950085],[-2.828413,56.949877],[-2.828481,56.949586],[-2.828508,56.949375],[-2.828496,56.949244],[-2.828444,56.949193],[-2.828351,56.949223],[-2.828254,56.949239],[-2.828153,56.949241],[-2.828046,56.94923],[-2.827936,56.949206],[-2.827846,56.949174],[-2.827776,56.949135],[-2.827728,56.949089],[-2.8277,56.949036],[-2.827753,56.948994],[-2.827887,56.948963],[-2.828101,56.948943],[-2.828396,56.948934],[-2.82865,56.948961],[-2.828863,56.949024],[-2.829034,56.949122],[-2.829164,56.949257],[-2.829289,56.949364],[-2.829409,56.949443],[-2.829525,56.949495],[-2.829636,56.94952],[-2.829789,56.949606],[-2.829984,56.949754],[-2.830222,56.949964],[-2.830501,56.950236],[-2.83074,56.950437],[-2.830939,56.950567],[-2.831097,56.950627],[-2.831214,56.950615],[-2.831296,56.950625],[-2.831344,56.950656],[-2.831357,56.950708],[-2.831336,56.950781],[-2.831343,56.950856],[-2.831379,56.950934],[-2.831444,56.951014],[-2.831537,56.951096],[-2.831598,56.951172],[-2.831627,56.951243],[-2.831624,56.951308],[-2.831588,56.951368],[-2.831573,56.951419],[-2.831579,56.951461],[-2.831604,56.951496],[-2.831651,56.951521],[-2.831696,56.951572],[-2.83174,56.951646],[-2.831783,56.951744],[-2.831825,56.951867],[-2.831912,56.951964],[-2.832043,56.952035],[-2.83222,56.95208],[-2.83244,56.952098],[-2.832593,56.952089],[-2.832678,56.952053],[-2.832696,56.951989],[-2.832646,56.951898],[-2.83264,56.951847],[-2.832679,56.951838],[-2.832763,56.951871],[-2.83289,56.951945],[-2.833026,56.951981],[-2.83317,56.951979],[-2.833322,56.95194],[-2.833482,56.951863],[-2.833566,56.951756],[-2.833574,56.951618],[-2.833507,56.951449],[-2.833364,56.95125],[-2.833206,56.951088],[-2.833033,56.950963],[-2.832844,56.950875],[-2.832641,56.950824],[-2.832506,56.950758],[-2.83244,56.950675],[-2.832444,56.950577],[-2.832517,56.950463],[-2.832541,56.950366],[-2.832518,56.950284],[-2.832447,56.950219],[-2.832327,56.95017],[-2.832228,56.950111],[-2.832149,56.950043],[-2.832089,56.949965],[-2.83205,56.949877],[-2.831985,56.949796],[-2.831894,56.949721],[-2.831777,56.949653],[-2.831635,56.949591],[-2.831502,56.94951],[-2.83138,56.94941],[-2.831267,56.949292],[-2.831164,56.949155],[-2.831112,56.949059],[-2.831112,56.949003],[-2.831162,56.948988],[-2.831264,56.949013],[-2.831345,56.949044],[-2.831404,56.949082],[-2.831442,56.949125],[-2.831459,56.949174],[-2.831553,56.949251],[-2.831724,56.949356],[-2.831972,56.949489],[-2.832298,56.94965],[-2.832562,56.949774],[-2.832765,56.949864],[-2.832906,56.949917],[-2.832987,56.949934],[-2.833044,56.949918],[-2.833079,56.949869],[-2.83309,56.949787],[-2.833078,56.949671],[-2.832971,56.949535],[-2.832768,56.949377],[-2.832469,56.949198],[-2.832074,56.948999],[-2.831697,56.948836],[-2.831337,56.948709],[-2.830994,56.948618],[-2.830668,56.948564],[-2.830401,56.948494],[-2.830195,56.948408],[-2.830048,56.948306],[-2.829961,56.948188],[-2.829936,56.948116],[-2.829975,56.948092],[-2.830076,56.948115],[-2.830239,56.948185],[-2.830376,56.948231],[-2.830486,56.948254],[-2.83057,56.948252],[-2.830626,56.948226],[-2.830644,56.948178],[-2.830625,56.948109],[-2.830569,56.948018],[-2.830474,56.947906],[-2.830368,56.947807],[-2.83025,56.947722],[-2.830121,56.947651],[-2.829981,56.947594],[-2.829892,56.947534],[-2.829857,56.947472],[-2.829874,56.947406],[-2.829944,56.947339],[-2.829996,56.947252],[-2.83003,56.947147],[-2.830046,56.947024],[-2.830043,56.946882],[-2.830062,56.946775],[-2.830103,56.946702],[-2.830164,56.946664],[-2.830247,56.946661],[-2.830304,56.946677],[-2.830334,56.946712],[-2.830339,56.946766],[-2.830318,56.94684],[-2.83034,56.946946],[-2.830407,56.947087],[-2.830518,56.947261],[-2.830674,56.947469],[-2.830871,56.947678],[-2.831111,56.947888],[-2.831393,56.948099],[-2.831717,56.948311],[-2.832038,56.948473],[-2.832356,56.948586],[-2.832672,56.94865],[-2.832984,56.948665],[-2.8332,56.948656],[-2.833319,56.948624],[-2.833342,56.948569],[-2.833268,56.94849],[-2.833269,56.948436],[-2.833343,56.948409],[-2.833491,56.948407],[-2.833714,56.94843],[-2.833879,56.948416],[-2.833987,56.948365],[-2.834038,56.948276],[-2.834032,56.94815],[-2.834004,56.948042],[-2.833955,56.947953],[-2.833884,56.947883],[-2.833792,56.947831],[-2.833637,56.947788],[-2.833421,56.947753],[-2.833142,56.947728],[-2.832801,56.947711],[-2.832555,56.947682],[-2.832406,56.947641],[-2.832353,56.947587],[-2.832396,56.947522],[-2.8325,56.947479],[-2.832665,56.947458],[-2.832891,56.947458],[-2.833178,56.94748],[-2.833464,56.947474],[-2.83375,56.947438],[-2.834035,56.947373],[-2.834319,56.947278],[-2.834576,56.947214],[-2.834806,56.947178],[-2.835009,56.947172],[-2.835185,56.947195],[-2.835345,56.947282],[-2.83549,56.947433],[-2.835619,56.947647],[-2.835733,56.947925],[-2.835864,56.948131],[-2.836012,56.948263],[-2.836177,56.948323],[-2.836359,56.94831],[-2.836475,56.948328],[-2.836524,56.948376],[-2.836507,56.948456],[-2.836424,56.948565],[-2.836313,56.948677],[-2.836175,56.948789],[-2.836009,56.948904],[-2.835816,56.949019],[-2.835628,56.949095],[-2.835444,56.949131],[-2.835266,56.949127],[-2.835093,56.949083],[-2.834945,56.949074],[-2.834823,56.949098],[-2.834727,56.949157],[-2.834657,56.949251],[-2.834662,56.949334],[-2.834743,56.949407],[-2.8349,56.94947],[-2.835132,56.949524],[-2.835308,56.949575],[-2.835427,56.949624],[-2.83549,56.949671],[-2.835496,56.949716],[-2.835562,56.94975],[-2.835686,56.949773],[-2.83587,56.949786],[-2.836112,56.949787],[-2.836296,56.949827],[-2.836421,56.949906],[-2.836487,56.950024],[-2.836494,56.950181],[-2.836551,56.950256],[-2.836656,56.950251],[-2.83681,56.950165],[-2.837013,56.949997],[-2.837167,56.949834],[-2.83727,56.949674],[-2.837323,56.949517],[-2.837327,56.949365],[-2.837357,56.949221],[-2.837413,56.949086],[-2.837495,56.948959],[-2.837604,56.948842],[-2.837686,56.948728],[-2.837741,56.948619],[-2.83777,56.948513],[-2.837772,56.948411],[-2.837797,56.948321],[-2.837845,56.948243],[-2.837915,56.948176],[-2.838008,56.948121],[-2.838109,56.948049],[-2.838218,56.94796],[-2.838335,56.947853],[-2.83846,56.947729],[-2.838569,56.947606],[-2.838663,56.947485],[-2.83874,56.947366],[-2.838802,56.947248],[-2.838877,56.947167],[-2.838964,56.947123],[-2.839064,56.947115],[-2.839177,56.947145],[-2.839277,56.947159],[-2.839365,56.947158],[-2.839441,56.947142],[-2.839504,56.94711],[-2.839543,56.947065],[-2.839556,56.947008],[-2.839543,56.946938],[-2.839506,56.946856],[-2.839464,56.946789],[-2.839418,56.946737],[-2.839369,56.946702],[-2.839315,56.946682],[-2.839224,56.946693],[-2.839094,56.946737],[-2.838927,56.946812],[-2.838721,56.946918],[-2.838553,56.947016],[-2.83842,56.947106],[-2.838325,56.947186],[-2.838265,56.947258],[-2.838184,56.947298],[-2.838079,56.947306],[-2.837952,56.947281],[-2.837803,56.947225],[-2.837648,56.947201],[-2.837487,56.947209],[-2.837322,56.94725],[-2.837152,56.947323],[-2.837044,56.94739],[-2.837001,56.947453],[-2.837021,56.947511],[-2.837104,56.947564],[-2.837143,56.947616],[-2.837137,56.947667],[-2.837087,56.947718],[-2.836992,56.947768],[-2.836881,56.947748],[-2.836753,56.947659],[-2.836607,56.947501],[-2.836445,56.947273],[-2.83628,56.947076],[-2.836111,56.94691],[-2.835939,56.946775],[-2.835763,56.946671],[-2.835624,56.946577],[-2.835521,56.946493],[-2.835454,56.94642],[-2.835423,56.946357],[-2.835356,56.946291],[-2.835253,56.946222],[-2.835115,56.946151],[-2.83494,56.946077],[-2.834803,56.946003],[-2.834703,56.945929],[-2.83464,56.945855],[-2.834615,56.945782],[-2.83455,56.945702],[-2.834446,56.945615],[-2.834303,56.945523],[-2.83412,56.945424],[-2.833776,56.945278],[-2.833272,56.945084],[-2.832607,56.944843],[-2.831782,56.944554],[-2.831103,56.944355],[-2.830572,56.944245],[-2.830188,56.944224],[-2.829951,56.944294],[-2.829748,56.94434],[-2.82958,56.944365],[-2.829445,56.944367],[-2.829345,56.944346],[-2.829272,56.944363],[-2.829226,56.944419],[-2.829206,56.944512],[-2.829214,56.944643],[-2.829237,56.944752],[-2.829276,56.944837],[-2.82933,56.944899],[-2.829399,56.944937],[-2.829439,56.945007],[-2.82945,56.945107],[-2.829433,56.945239],[-2.829386,56.945401],[-2.829358,56.945543],[-2.829349,56.945666],[-2.829359,56.945769],[-2.829387,56.945853],[-2.829379,56.945897],[-2.829334,56.945901],[-2.829252,56.945866],[-2.829133,56.945791],[-2.828982,56.945668],[-2.828797,56.945496],[-2.828579,56.945275],[-2.828328,56.945005],[-2.82807,56.94483],[-2.827805,56.94475],[-2.827533,56.944764],[-2.827254,56.944873],[-2.827052,56.944969],[-2.826927,56.945053],[-2.826879,56.945124],[-2.826908,56.945182],[-2.826955,56.945229],[-2.827018,56.945266],[-2.8271,56.945292],[-2.827198,56.945308],[-2.82729,56.945344],[-2.827375,56.945402],[-2.827453,56.945481],[-2.827524,56.94558],[-2.827603,56.945694],[-2.827689,56.945823],[-2.827783,56.945966],[-2.827883,56.946123],[-2.827916,56.946261],[-2.827882,56.946379],[-2.827781,56.946476],[-2.827612,56.946554],[-2.82742,56.946586],[-2.827206,56.946571],[-2.826969,56.946511],[-2.826709,56.946405],[-2.826487,56.946335],[-2.826303,56.946303],[-2.826158,56.946307],[-2.826051,56.946348],[-2.825959,56.946351],[-2.825882,56.946315],[-2.825819,56.946242],[-2.825771,56.946129],[-2.825722,56.946014],[-2.825672,56.945894],[-2.82562,56.945771],[-2.825568,56.945644],[-2.825472,56.945555],[-2.825333,56.945503],[-2.825151,56.945488],[-2.824925,56.94551],[-2.824799,56.945624],[-2.824772,56.94583],[-2.824844,56.946127],[-2.825015,56.946517],[-2.825127,56.946823],[-2.82518,56.947046],[-2.825175,56.947186],[-2.825111,56.947243],[-2.825128,56.947362],[-2.825227,56.947543],[-2.825408,56.947785],[-2.825671,56.948089],[-2.825891,56.948324],[-2.826069,56.948489],[-2.826204,56.948585],[-2.826297,56.948611],[-2.826359,56.94865],[-2.826391,56.9487],[-2.826391,56.948762],[-2.82636,56.948836],[-2.826322,56.948893],[-2.826275,56.948933],[-2.82622,56.948957],[-2.826157,56.948963],[-2.826061,56.948919],[-2.825931,56.948825],[-2.825767,56.948682],[-2.82557,56.948488],[-2.825366,56.948326],[-2.825154,56.948198],[-2.824935,56.948101],[-2.824708,56.948037],[-2.824481,56.947958],[-2.824253,56.947864],[-2.824024,56.947755],[-2.823795,56.94763],[-2.823523,56.947434],[-2.823207,56.947165],[-2.822848,56.946825],[-2.822446,56.946413],[-2.822118,56.946217],[-2.821864,56.946237],[-2.821685,56.946473],[-2.821579,56.946925],[-2.821501,56.947275],[-2.82145,56.947521],[-2.821427,56.947664],[-2.821432,56.947704],[-2.821416,56.947767],[-2.82138,56.947851],[-2.821324,56.947959],[-2.821247,56.948088],[-2.821208,56.948206],[-2.821208,56.948313],[-2.821245,56.948408],[-2.82132,56.948492],[-2.821358,56.948567],[-2.821357,56.948633],[-2.821319,56.94869],[-2.821242,56.948739],[-2.821188,56.948791],[-2.821156,56.948847],[-2.821147,56.948908],[-2.821159,56.948973],[-2.821157,56.949047],[-2.821139,56.94913],[-2.821105,56.949222],[-2.821056,56.949323],[-2.821106,56.949516],[-2.821255,56.949801],[-2.821503,56.950178],[-2.82185,56.950646],[-2.822223,56.951089],[-2.822623,56.951506],[-2.823048,56.951898],[-2.8235,56.952265],[-2.823913,56.952573],[-2.824288,56.952823],[-2.824624,56.953015],[-2.824921,56.953148]]]}}