{"type":"Feature","properties":{"id":"265770","COMMUNE":"Angus","PROVINCE":"Angus and Dundee City","COUNTRY":"UK","FIREDATE":"2025-03-18 11:13:00","CLASS":"FireSeason","areaHA_geo":6.93},"geometry":{"type":"Polygon","coordinates":[[[-3.023022,56.927405],[-3.0231,56.927448],[-3.023118,56.927434],[-3.023074,56.927363],[-3.02297,56.927235],[-3.02291,56.927126],[-3.022893,56.927036],[-3.022921,56.926965],[-3.022992,56.926913],[-3.023029,56.926846],[-3.02303,56.926765],[-3.022997,56.926668],[-3.022928,56.926557],[-3.022905,56.926469],[-3.022927,56.926403],[-3.022994,56.926361],[-3.023107,56.926341],[-3.023187,56.926342],[-3.023236,56.926364],[-3.023253,56.926406],[-3.023237,56.926469],[-3.023249,56.926529],[-3.023287,56.926586],[-3.023353,56.92664],[-3.023446,56.926692],[-3.023525,56.926753],[-3.02359,56.926821],[-3.023641,56.926899],[-3.023678,56.926985],[-3.023695,56.92706],[-3.023692,56.927126],[-3.023668,56.927181],[-3.023624,56.927226],[-3.023612,56.927287],[-3.023631,56.927362],[-3.023681,56.927453],[-3.023763,56.927559],[-3.023803,56.927663],[-3.023801,56.927765],[-3.023757,56.927865],[-3.023672,56.927963],[-3.023621,56.928041],[-3.023603,56.928098],[-3.023619,56.928134],[-3.023669,56.928149],[-3.023734,56.928131],[-3.023814,56.92808],[-3.023908,56.927997],[-3.024016,56.92788],[-3.024095,56.927773],[-3.024143,56.927676],[-3.024162,56.92759],[-3.02415,56.927514],[-3.024164,56.927451],[-3.024203,56.927402],[-3.024267,56.927367],[-3.024357,56.927346],[-3.024441,56.927314],[-3.02452,56.927272],[-3.024593,56.927219],[-3.02466,56.927155],[-3.024714,56.927089],[-3.024754,56.927022],[-3.02478,56.926953],[-3.024793,56.926883],[-3.024815,56.926807],[-3.024847,56.926726],[-3.024888,56.926641],[-3.024939,56.92655],[-3.024965,56.926448],[-3.024966,56.926333],[-3.024943,56.926207],[-3.024895,56.92607],[-3.02483,56.925958],[-3.024747,56.925873],[-3.024648,56.925813],[-3.024532,56.92578],[-3.024438,56.925718],[-3.024365,56.925628],[-3.024314,56.925509],[-3.024285,56.925361],[-3.024256,56.925239],[-3.024226,56.925142],[-3.024195,56.92507],[-3.024164,56.925025],[-3.024137,56.924968],[-3.024114,56.924901],[-3.024094,56.924824],[-3.024079,56.924736],[-3.02404,56.924668],[-3.023979,56.924622],[-3.023895,56.924595],[-3.023789,56.92459],[-3.023726,56.924559],[-3.023707,56.924504],[-3.023731,56.924424],[-3.023799,56.92432],[-3.023867,56.924203],[-3.023934,56.924074],[-3.024001,56.923933],[-3.024067,56.923779],[-3.024087,56.92366],[-3.024061,56.923575],[-3.023989,56.923524],[-3.023871,56.923508],[-3.023764,56.92349],[-3.023668,56.923471],[-3.023583,56.923451],[-3.023508,56.92343],[-3.023409,56.923424],[-3.023285,56.923432],[-3.023136,56.923455],[-3.022962,56.923493],[-3.022816,56.923535],[-3.022698,56.923582],[-3.022608,56.923633],[-3.022545,56.923688],[-3.022426,56.923733],[-3.022251,56.923767],[-3.02202,56.92379],[-3.021733,56.923802],[-3.021486,56.923827],[-3.021278,56.923864],[-3.021111,56.923914],[-3.020983,56.923976],[-3.020862,56.924025],[-3.020747,56.92406],[-3.02064,56.924084],[-3.020539,56.924094],[-3.020476,56.924112],[-3.020452,56.924139],[-3.020466,56.924174],[-3.020518,56.924218],[-3.020535,56.924275],[-3.020515,56.924347],[-3.020458,56.924432],[-3.020366,56.924531],[-3.020305,56.92463],[-3.020276,56.924728],[-3.020279,56.924827],[-3.020313,56.924925],[-3.020363,56.925005],[-3.020429,56.925065],[-3.020511,56.925107],[-3.020608,56.92513],[-3.020686,56.925132],[-3.020743,56.925114],[-3.02078,56.925076],[-3.020797,56.925017],[-3.020832,56.924974],[-3.020886,56.924946],[-3.020958,56.924934],[-3.021049,56.924937],[-3.021123,56.924968],[-3.021181,56.925027],[-3.021223,56.925115],[-3.021248,56.92523],[-3.021297,56.925334],[-3.02137,56.925424],[-3.021466,56.925502],[-3.021586,56.925567],[-3.021713,56.925626],[-3.021847,56.925678],[-3.021987,56.925723],[-3.022135,56.925761],[-3.022253,56.925805],[-3.022342,56.925855],[-3.0224,56.925911],[-3.02243,56.925973],[-3.022451,56.92604],[-3.022464,56.92611],[-3.022469,56.926183],[-3.022466,56.926261],[-3.022473,56.926344],[-3.022489,56.926432],[-3.022514,56.926525],[-3.022548,56.926624],[-3.022556,56.926705],[-3.022537,56.92677],[-3.022493,56.926819],[-3.022421,56.92685],[-3.022362,56.92689],[-3.022315,56.926937],[-3.022281,56.926993],[-3.022258,56.927056],[-3.022257,56.927119],[-3.022279,56.927182],[-3.022324,56.927245],[-3.02239,56.927308],[-3.022441,56.92734],[-3.022475,56.927343],[-3.022494,56.927316],[-3.022496,56.927258],[-3.022509,56.927214],[-3.022532,56.927184],[-3.022565,56.927166],[-3.022608,56.927162],[-3.022676,56.927183],[-3.022767,56.927231],[-3.022882,56.927305],[-3.023022,56.927405]]]}}