{"type":"Feature","properties":{"id":"265724","COMMUNE":"Skye and Lochalsh","PROVINCE":"Lochaber, Skye & Lochalsh, Arran & Cumbrae and Argyll & Bute","COUNTRY":"UK","FIREDATE":"2025-04-01 18:58:53.558","FINALDATE":"2025-04-01 18:58:59.037","CLASS":"FireSeason","areaHA_geo":79.299},"geometry":{"type":"Polygon","coordinates":[[[-6.365284,57.252593],[-6.365436,57.252498],[-6.365587,57.252361],[-6.365739,57.252182],[-6.365891,57.251961],[-6.366043,57.251697],[-6.366267,57.251506],[-6.366564,57.251387],[-6.366934,57.25134],[-6.367377,57.251366],[-6.367735,57.251377],[-6.368009,57.251375],[-6.368198,57.251358],[-6.368303,57.251327],[-6.368385,57.251269],[-6.368443,57.251183],[-6.368479,57.251069],[-6.368491,57.250928],[-6.368539,57.250823],[-6.368621,57.250755],[-6.368739,57.250723],[-6.368892,57.250726],[-6.369002,57.250756],[-6.36907,57.250812],[-6.369095,57.250893],[-6.369078,57.251],[-6.369147,57.251112],[-6.369302,57.251229],[-6.369543,57.251351],[-6.369869,57.251478],[-6.370106,57.251555],[-6.370252,57.25158],[-6.370307,57.251554],[-6.370273,57.251477],[-6.370256,57.251396],[-6.370256,57.251312],[-6.370273,57.251224],[-6.370308,57.251132],[-6.370358,57.251069],[-6.370423,57.251035],[-6.370504,57.251029],[-6.3706,57.251052],[-6.370682,57.251089],[-6.370749,57.251142],[-6.3708,57.251209],[-6.370837,57.251292],[-6.370956,57.251358],[-6.371156,57.251409],[-6.371438,57.251443],[-6.371802,57.251461],[-6.372159,57.251342],[-6.372508,57.251085],[-6.372849,57.250692],[-6.373183,57.250161],[-6.373408,57.249766],[-6.373524,57.249507],[-6.373531,57.249384],[-6.373429,57.249397],[-6.373355,57.249382],[-6.373309,57.249338],[-6.37329,57.249266],[-6.373299,57.249166],[-6.373249,57.249061],[-6.37314,57.248949],[-6.372972,57.248832],[-6.372745,57.24871],[-6.372546,57.248646],[-6.372377,57.248641],[-6.372237,57.248696],[-6.372126,57.248808],[-6.372014,57.248849],[-6.371903,57.248816],[-6.371791,57.248711],[-6.371679,57.248533],[-6.371538,57.248404],[-6.371367,57.248324],[-6.371167,57.248293],[-6.370938,57.24831],[-6.370771,57.248299],[-6.370667,57.24826],[-6.370626,57.248192],[-6.370648,57.248097],[-6.370715,57.247998],[-6.370826,57.247897],[-6.370981,57.247793],[-6.371182,57.247686],[-6.371353,57.247563],[-6.371495,57.247422],[-6.371608,57.247266],[-6.371692,57.247092],[-6.37178,57.246968],[-6.37187,57.246892],[-6.371963,57.246866],[-6.37206,57.246889],[-6.372206,57.24686],[-6.372402,57.24678],[-6.372648,57.246649],[-6.372943,57.246466],[-6.373153,57.246307],[-6.373276,57.246172],[-6.373312,57.246061],[-6.373263,57.245975],[-6.373198,57.245885],[-6.37312,57.245793],[-6.373026,57.245699],[-6.372918,57.245602],[-6.372845,57.24551],[-6.372805,57.245422],[-6.3728,57.245338],[-6.372829,57.245259],[-6.372916,57.245211],[-6.37306,57.245196],[-6.373262,57.245213],[-6.373521,57.245261],[-6.37368,57.245263],[-6.373741,57.245218],[-6.373702,57.245125],[-6.373564,57.244986],[-6.373496,57.244863],[-6.373498,57.244758],[-6.373569,57.244671],[-6.37371,57.244601],[-6.373788,57.244528],[-6.373803,57.244454],[-6.373756,57.244377],[-6.373645,57.244298],[-6.373601,57.24423],[-6.373625,57.244175],[-6.373716,57.244132],[-6.373874,57.2441],[-6.374013,57.244055],[-6.374132,57.243996],[-6.374232,57.243924],[-6.374312,57.243838],[-6.37442,57.243801],[-6.374555,57.243813],[-6.374717,57.243874],[-6.374906,57.243984],[-6.375115,57.244042],[-6.375344,57.244048],[-6.375593,57.244002],[-6.375862,57.243904],[-6.376095,57.243768],[-6.376292,57.243595],[-6.376454,57.243384],[-6.37658,57.243136],[-6.376627,57.242884],[-6.376594,57.242629],[-6.376481,57.242372],[-6.376289,57.242111],[-6.376018,57.241927],[-6.375668,57.24182],[-6.37524,57.24179],[-6.374733,57.241836],[-6.374339,57.241885],[-6.37406,57.241935],[-6.373894,57.241986],[-6.373842,57.242039],[-6.373772,57.242068],[-6.373683,57.242074],[-6.373575,57.242056],[-6.373448,57.242013],[-6.373325,57.241974],[-6.373206,57.241936],[-6.373091,57.241902],[-6.372979,57.241869],[-6.372842,57.241834],[-6.37268,57.241796],[-6.372492,57.241756],[-6.372279,57.241713],[-6.372177,57.241672],[-6.372187,57.241633],[-6.372308,57.241596],[-6.37254,57.241561],[-6.372678,57.241509],[-6.372722,57.241439],[-6.372673,57.241352],[-6.372529,57.241248],[-6.372377,57.241166],[-6.372215,57.241105],[-6.372043,57.241065],[-6.371863,57.241048],[-6.371672,57.241043],[-6.371471,57.241051],[-6.371259,57.241072],[-6.371037,57.241105],[-6.370825,57.241119],[-6.370623,57.241113],[-6.37043,57.241086],[-6.370248,57.241039],[-6.37013,57.240993],[-6.370077,57.240948],[-6.37009,57.240902],[-6.370167,57.240858],[-6.370258,57.240808],[-6.370363,57.240754],[-6.370482,57.240696],[-6.370616,57.240632],[-6.370771,57.24057],[-6.370949,57.24051],[-6.371149,57.240451],[-6.371371,57.240394],[-6.371579,57.240377],[-6.371772,57.240399],[-6.371951,57.240461],[-6.372115,57.240562],[-6.372287,57.240616],[-6.372468,57.240622],[-6.372657,57.240581],[-6.372854,57.240492],[-6.372952,57.240397],[-6.372949,57.240295],[-6.372847,57.240187],[-6.372645,57.240073],[-6.372422,57.23999],[-6.372177,57.239936],[-6.371911,57.239913],[-6.371623,57.23992],[-6.371445,57.239908],[-6.371377,57.239876],[-6.371418,57.239824],[-6.37157,57.239753],[-6.371668,57.239689],[-6.371713,57.239634],[-6.371706,57.239587],[-6.371645,57.239548],[-6.371571,57.239515],[-6.371484,57.239489],[-6.371383,57.239468],[-6.371269,57.239453],[-6.371169,57.239428],[-6.371083,57.239393],[-6.371011,57.239346],[-6.370953,57.23929],[-6.370924,57.239229],[-6.370922,57.239166],[-6.370949,57.239098],[-6.371003,57.239027],[-6.371016,57.238966],[-6.370988,57.238915],[-6.370918,57.238872],[-6.370806,57.23884],[-6.370684,57.238826],[-6.370552,57.238831],[-6.370409,57.238855],[-6.370255,57.238898],[-6.370153,57.238946],[-6.370101,57.238999],[-6.3701,57.239057],[-6.37015,57.239121],[-6.37016,57.239221],[-6.37013,57.239359],[-6.37006,57.239533],[-6.36995,57.239745],[-6.36989,57.239926],[-6.369881,57.240075],[-6.369924,57.240193],[-6.370016,57.240281],[-6.37005,57.24035],[-6.370025,57.240403],[-6.369941,57.240438],[-6.369799,57.240456],[-6.36969,57.240508],[-6.369614,57.240593],[-6.369573,57.240712],[-6.369566,57.240864],[-6.369527,57.241011],[-6.369456,57.241154],[-6.369353,57.241292],[-6.369219,57.241425],[-6.369085,57.241489],[-6.368953,57.241482],[-6.368822,57.241406],[-6.368692,57.241259],[-6.368596,57.241106],[-6.368535,57.240945],[-6.368508,57.240777],[-6.368516,57.240601],[-6.36853,57.240428],[-6.368551,57.240256],[-6.368577,57.240087],[-6.36861,57.23992],[-6.368653,57.239787],[-6.368706,57.239687],[-6.368768,57.239621],[-6.36884,57.239589],[-6.368924,57.239572],[-6.369021,57.239572],[-6.36913,57.239587],[-6.369252,57.239618],[-6.369363,57.239614],[-6.369464,57.239575],[-6.369555,57.239501],[-6.369636,57.239392],[-6.369658,57.239311],[-6.369624,57.239257],[-6.369531,57.239231],[-6.369381,57.239232],[-6.369243,57.239208],[-6.369118,57.239157],[-6.369005,57.239079],[-6.368905,57.238976],[-6.368753,57.238871],[-6.36855,57.238766],[-6.368295,57.23866],[-6.367989,57.238553],[-6.367744,57.238483],[-6.367562,57.238447],[-6.367441,57.238448],[-6.367382,57.238485],[-6.367288,57.238469],[-6.367161,57.238401],[-6.366999,57.23828],[-6.366803,57.238107],[-6.366633,57.237985],[-6.366487,57.237913],[-6.366367,57.237892],[-6.366273,57.237921],[-6.366205,57.237962],[-6.366163,57.238013],[-6.366148,57.238076],[-6.36616,57.238151],[-6.366132,57.238192],[-6.366066,57.2382],[-6.365961,57.238176],[-6.365817,57.238118],[-6.365636,57.238099],[-6.365418,57.238118],[-6.365163,57.238175],[-6.364871,57.23827],[-6.364751,57.238358],[-6.364804,57.238438],[-6.365028,57.238512],[-6.365424,57.238578],[-6.365781,57.238635],[-6.366098,57.238682],[-6.366376,57.238719],[-6.366615,57.238747],[-6.366811,57.238782],[-6.366965,57.238824],[-6.367075,57.238872],[-6.367143,57.238928],[-6.367131,57.238979],[-6.367038,57.239025],[-6.366866,57.239068],[-6.366613,57.239105],[-6.366378,57.239126],[-6.366159,57.239131],[-6.365956,57.239119],[-6.365771,57.23909],[-6.365592,57.239063],[-6.365419,57.239038],[-6.365253,57.239015],[-6.365093,57.238995],[-6.364921,57.239009],[-6.364739,57.239059],[-6.364545,57.239143],[-6.364339,57.239262],[-6.364188,57.239365],[-6.364093,57.239453],[-6.364052,57.239525],[-6.364067,57.239581],[-6.364053,57.23966],[-6.364012,57.239761],[-6.363944,57.239885],[-6.363847,57.240031],[-6.363781,57.240177],[-6.363744,57.240324],[-6.363737,57.240472],[-6.36376,57.24062],[-6.363779,57.240782],[-6.363793,57.240958],[-6.363802,57.241147],[-6.363806,57.24135],[-6.363794,57.241522],[-6.363765,57.241662],[-6.363719,57.241771],[-6.363657,57.241849],[-6.363632,57.241926],[-6.363645,57.242003],[-6.363696,57.24208],[-6.363783,57.242156],[-6.363776,57.242302],[-6.363673,57.242519],[-6.363476,57.242805],[-6.363182,57.243162],[-6.362998,57.243456],[-6.362923,57.243687],[-6.362958,57.243854],[-6.363101,57.243958],[-6.363186,57.244069],[-6.363212,57.244188],[-6.36318,57.244314],[-6.363088,57.244448],[-6.363048,57.244575],[-6.363059,57.244696],[-6.363121,57.24481],[-6.363234,57.244918],[-6.363336,57.245032],[-6.363427,57.245151],[-6.363507,57.245276],[-6.363576,57.245407],[-6.363713,57.24555],[-6.363917,57.245704],[-6.364188,57.245871],[-6.364526,57.246049],[-6.364729,57.246207],[-6.364795,57.246344],[-6.364726,57.24646],[-6.364521,57.246556],[-6.364377,57.246686],[-6.364294,57.246851],[-6.364272,57.24705],[-6.364312,57.247283],[-6.364375,57.247473],[-6.364462,57.247619],[-6.364573,57.247721],[-6.364707,57.24778],[-6.364792,57.247849],[-6.364827,57.247929],[-6.364814,57.248019],[-6.364751,57.24812],[-6.364654,57.248199],[-6.364524,57.248257],[-6.364359,57.248292],[-6.36416,57.248306],[-6.363939,57.248348],[-6.363696,57.248419],[-6.363431,57.24852],[-6.363144,57.248649],[-6.362959,57.248803],[-6.362878,57.248982],[-6.362899,57.249186],[-6.363022,57.249415],[-6.363104,57.249628],[-6.363145,57.249827],[-6.363143,57.25001],[-6.3631,57.250179],[-6.363063,57.250339],[-6.363034,57.250491],[-6.363012,57.250635],[-6.362997,57.25077],[-6.363044,57.25094],[-6.363151,57.251145],[-6.36332,57.251384],[-6.36355,57.251657],[-6.363795,57.251904],[-6.364055,57.252124],[-6.364331,57.252318],[-6.364621,57.252485],[-6.364876,57.252586],[-6.365097,57.252622],[-6.365284,57.252593]]]}}