{"type":"Feature","properties":{"id":"265749","COMMUNE":"Angus","PROVINCE":"Angus and Dundee City","COUNTRY":"UK","FIREDATE":"2025-04-01 12:42:00","CLASS":"FireSeason","areaHA_geo":0.674},"geometry":{"type":"Polygon","coordinates":[[[-2.84594,56.942262],[-2.846086,56.94224],[-2.846327,56.942155],[-2.846663,56.942007],[-2.847093,56.941797],[-2.84739,56.941623],[-2.847552,56.941485],[-2.84758,56.941383],[-2.847473,56.941318],[-2.847293,56.941302],[-2.84704,56.941338],[-2.846714,56.941423],[-2.846313,56.94156],[-2.846014,56.941671],[-2.845815,56.941756],[-2.845717,56.941817],[-2.84572,56.941852],[-2.84568,56.941905],[-2.845598,56.941977],[-2.845473,56.942067],[-2.845305,56.942175],[-2.845227,56.942245],[-2.845238,56.942277],[-2.845338,56.942271],[-2.845528,56.942227],[-2.845683,56.942204],[-2.845803,56.942202],[-2.845889,56.942221],[-2.84594,56.942262]]]}}