{"type":"Feature","properties":{"id":"265707","COMMUNE":"Dumfries and Galloway","PROVINCE":"Dumfries & Galloway","COUNTRY":"UK","FIREDATE":"2025-04-04 01:02:00","FINALDATE":"2025-04-07 13:18:00","CLASS":"FireSeason","areaHA_geo":6720.223},"geometry":{"type":"Polygon","coordinates":[[[-4.442497,55.151305],[-4.442462,55.150921],[-4.442472,55.150661],[-4.442528,55.150525],[-4.442628,55.150513],[-4.44266,55.15041],[-4.442624,55.150215],[-4.44252,55.149928],[-4.442347,55.14955],[-4.442271,55.149126],[-4.442292,55.148655],[-4.44241,55.148138],[-4.442624,55.147576],[-4.442661,55.14679],[-4.442521,55.14578],[-4.442203,55.144547],[-4.441708,55.143091],[-4.441291,55.141945],[-4.440951,55.141108],[-4.440689,55.140581],[-4.440505,55.140363],[-4.440267,55.140092],[-4.439974,55.139768],[-4.439627,55.13939],[-4.439225,55.138958],[-4.438919,55.138765],[-4.438708,55.138809],[-4.438592,55.139092],[-4.438572,55.139612],[-4.438478,55.139976],[-4.438309,55.140185],[-4.438066,55.140238],[-4.43775,55.140136],[-4.43743,55.139979],[-4.437109,55.139767],[-4.436785,55.139501],[-4.436459,55.13918],[-4.436095,55.138999],[-4.435695,55.138956],[-4.435258,55.139051],[-4.434785,55.139285],[-4.434303,55.139451],[-4.433815,55.139548],[-4.433318,55.139575],[-4.432814,55.139534],[-4.432392,55.139479],[-4.432052,55.139409],[-4.431794,55.139324],[-4.431618,55.139225],[-4.431531,55.139081],[-4.431532,55.138892],[-4.431621,55.138657],[-4.431799,55.138378],[-4.432048,55.138125],[-4.432367,55.137898],[-4.432758,55.137699],[-4.433219,55.137526],[-4.433658,55.13734],[-4.434075,55.137142],[-4.43447,55.136932],[-4.434843,55.136709],[-4.435211,55.136497],[-4.435575,55.136296],[-4.435933,55.136105],[-4.436287,55.135924],[-4.436508,55.135764],[-4.436597,55.135624],[-4.436553,55.135505],[-4.436378,55.135406],[-4.436071,55.135332],[-4.435634,55.135283],[-4.435067,55.135259],[-4.434369,55.135261],[-4.433749,55.135238],[-4.433208,55.135192],[-4.432746,55.135121],[-4.432362,55.135026],[-4.432123,55.134825],[-4.432028,55.134517],[-4.432079,55.134103],[-4.432273,55.133582],[-4.43249,55.133144],[-4.432727,55.132788],[-4.432985,55.132514],[-4.433265,55.132322],[-4.433572,55.132182],[-4.433906,55.132093],[-4.434268,55.132056],[-4.434658,55.13207],[-4.435101,55.132113],[-4.435599,55.132185],[-4.436151,55.132285],[-4.436756,55.132414],[-4.437243,55.132671],[-4.43761,55.133056],[-4.437858,55.13357],[-4.437987,55.134213],[-4.438141,55.134588],[-4.438321,55.134697],[-4.438525,55.134539],[-4.438755,55.134113],[-4.439059,55.133774],[-4.439439,55.133521],[-4.439893,55.133354],[-4.440422,55.133272],[-4.440976,55.133138],[-4.441554,55.132951],[-4.442157,55.132712],[-4.442785,55.13242],[-4.443356,55.132239],[-4.443872,55.132169],[-4.444333,55.13221],[-4.444737,55.132362],[-4.44512,55.132357],[-4.44548,55.132196],[-4.445818,55.131878],[-4.446135,55.131403],[-4.446461,55.131101],[-4.446799,55.130972],[-4.447147,55.131016],[-4.447505,55.131233],[-4.44801,55.131324],[-4.44866,55.131288],[-4.449457,55.131126],[-4.4504,55.130837],[-4.451031,55.130723],[-4.451351,55.130786],[-4.451359,55.131024],[-4.451055,55.131438],[-4.451002,55.131817],[-4.451197,55.132163],[-4.451643,55.132475],[-4.452338,55.132752],[-4.452904,55.13306],[-4.453341,55.133397],[-4.45365,55.133765],[-4.453829,55.134162],[-4.454119,55.134502],[-4.454519,55.134784],[-4.455029,55.135008],[-4.455648,55.135175],[-4.456209,55.135349],[-4.456712,55.135529],[-4.457156,55.135717],[-4.457541,55.135911],[-4.457937,55.136014],[-4.458343,55.136027],[-4.45876,55.135948],[-4.459187,55.135779],[-4.459566,55.13569],[-4.459894,55.135682],[-4.460174,55.135754],[-4.460404,55.135906],[-4.460748,55.136011],[-4.461205,55.136067],[-4.461776,55.136075],[-4.46246,55.136035],[-4.463002,55.136037],[-4.463402,55.13608],[-4.46366,55.136164],[-4.463776,55.13629],[-4.463984,55.136381],[-4.464283,55.136435],[-4.464674,55.136454],[-4.465158,55.136438],[-4.465614,55.13642],[-4.466043,55.1364],[-4.466446,55.136378],[-4.466821,55.136354],[-4.467192,55.136316],[-4.467557,55.136263],[-4.467917,55.136196],[-4.468272,55.136115],[-4.468622,55.136044],[-4.468966,55.135984],[-4.469306,55.135935],[-4.469642,55.135896],[-4.469982,55.135727],[-4.470327,55.135427],[-4.470677,55.134998],[-4.471032,55.134439],[-4.471164,55.133985],[-4.471072,55.133637],[-4.470756,55.133395],[-4.470217,55.133259],[-4.469796,55.133014],[-4.469493,55.132661],[-4.469307,55.1322],[-4.469239,55.13163],[-4.469278,55.131162],[-4.469424,55.130797],[-4.469678,55.130533],[-4.470038,55.130372],[-4.470344,55.130207],[-4.470597,55.130038],[-4.470796,55.129865],[-4.470942,55.129689],[-4.471153,55.12955],[-4.47143,55.129448],[-4.471773,55.129383],[-4.472182,55.129355],[-4.472478,55.129231],[-4.472659,55.129011],[-4.472727,55.128694],[-4.472681,55.128281],[-4.472559,55.127922],[-4.47236,55.127616],[-4.472085,55.127364],[-4.471734,55.127166],[-4.471519,55.126962],[-4.471443,55.126752],[-4.471504,55.126536],[-4.471702,55.126314],[-4.471922,55.126173],[-4.472162,55.126115],[-4.472425,55.12614],[-4.472708,55.126246],[-4.473042,55.126371],[-4.473426,55.126516],[-4.473861,55.126679],[-4.474347,55.126862],[-4.474807,55.126997],[-4.475241,55.127086],[-4.475649,55.127128],[-4.476032,55.127123],[-4.476358,55.127155],[-4.476627,55.127223],[-4.47684,55.127328],[-4.476996,55.127469],[-4.477179,55.127587],[-4.477389,55.127682],[-4.477625,55.127754],[-4.477887,55.127803],[-4.478127,55.12779],[-4.478344,55.127715],[-4.478538,55.127578],[-4.47871,55.127379],[-4.478816,55.127142],[-4.478856,55.126869],[-4.47883,55.126558],[-4.478738,55.12621],[-4.478711,55.12592],[-4.478748,55.125686],[-4.478849,55.12551],[-4.479015,55.125391],[-4.479176,55.125258],[-4.479332,55.12511],[-4.479483,55.124948],[-4.479628,55.124772],[-4.479795,55.124583],[-4.479983,55.124382],[-4.480194,55.124168],[-4.480425,55.123942],[-4.480663,55.12378],[-4.480907,55.123681],[-4.481156,55.123647],[-4.481412,55.123677],[-4.481658,55.123683],[-4.481896,55.123666],[-4.482126,55.123624],[-4.482346,55.123558],[-4.482546,55.123555],[-4.482725,55.123614],[-4.482882,55.123735],[-4.483019,55.123918],[-4.483196,55.124067],[-4.483412,55.124181],[-4.483668,55.124261],[-4.483964,55.124306],[-4.484249,55.124392],[-4.484522,55.124519],[-4.484785,55.124688],[-4.485036,55.124898],[-4.485239,55.125118],[-4.485393,55.125349],[-4.485498,55.125591],[-4.485555,55.125843],[-4.485557,55.126062],[-4.485502,55.126248],[-4.485392,55.1264],[-4.485226,55.126519],[-4.485023,55.126657],[-4.484784,55.126815],[-4.484507,55.126991],[-4.484195,55.127187],[-4.484004,55.127384],[-4.483937,55.127581],[-4.483991,55.127778],[-4.484168,55.127977],[-4.484399,55.12806],[-4.484684,55.128026],[-4.485023,55.127877],[-4.485415,55.127612],[-4.485787,55.127315],[-4.486138,55.126985],[-4.486469,55.126623],[-4.486779,55.126228],[-4.487004,55.125863],[-4.487144,55.125528],[-4.487198,55.125223],[-4.487167,55.124948],[-4.48709,55.124688],[-4.486966,55.124443],[-4.486795,55.124214],[-4.486577,55.124001],[-4.486227,55.123783],[-4.485744,55.12356],[-4.485129,55.123333],[-4.48438,55.123102],[-4.483836,55.122832],[-4.483497,55.122523],[-4.483361,55.122175],[-4.48343,55.121789],[-4.483638,55.121475],[-4.483987,55.121235],[-4.484477,55.121069],[-4.485106,55.120975],[-4.485676,55.120884],[-4.486184,55.120795],[-4.486633,55.120708],[-4.487021,55.120622],[-4.487373,55.120512],[-4.48769,55.120375],[-4.487972,55.120213],[-4.488217,55.120025],[-4.488366,55.119833],[-4.488417,55.119638],[-4.48837,55.119439],[-4.488227,55.119237],[-4.488285,55.119086],[-4.488545,55.118985],[-4.489008,55.118936],[-4.489672,55.118939],[-4.490288,55.118951],[-4.490855,55.118975],[-4.491374,55.119009],[-4.491844,55.119053],[-4.492237,55.119052],[-4.492552,55.119006],[-4.492789,55.118913],[-4.492948,55.118775],[-4.493122,55.118655],[-4.493312,55.118553],[-4.493517,55.11847],[-4.493738,55.118404],[-4.493937,55.11847],[-4.494114,55.118669],[-4.49427,55.118999],[-4.494403,55.119462],[-4.494573,55.119805],[-4.494777,55.120031],[-4.495017,55.120137],[-4.495292,55.120125],[-4.495469,55.11999],[-4.49555,55.119731],[-4.495533,55.11935],[-4.495418,55.118845],[-4.495417,55.118412],[-4.49553,55.11805],[-4.495755,55.11776],[-4.496095,55.117541],[-4.496489,55.117425],[-4.496938,55.117413],[-4.497443,55.117503],[-4.498003,55.117697],[-4.498494,55.117799],[-4.498917,55.117809],[-4.499271,55.117728],[-4.499557,55.117555],[-4.499979,55.117491],[-4.500537,55.117535],[-4.50123,55.117688],[-4.502059,55.11795],[-4.502554,55.118061],[-4.502715,55.118023],[-4.502541,55.117834],[-4.502033,55.117495],[-4.501706,55.117199],[-4.501562,55.116947],[-4.501599,55.116739],[-4.501818,55.116574],[-4.501875,55.116393],[-4.501768,55.116196],[-4.501498,55.115984],[-4.501065,55.115755],[-4.500923,55.115533],[-4.501071,55.115316],[-4.501509,55.115106],[-4.502238,55.114901],[-4.502946,55.114664],[-4.503633,55.114394],[-4.5043,55.114092],[-4.504946,55.113758],[-4.505613,55.113481],[-4.506301,55.113261],[-4.50701,55.113098],[-4.50774,55.112993],[-4.508573,55.11298],[-4.50951,55.11306],[-4.510551,55.113232],[-4.511696,55.113497],[-4.512637,55.113636],[-4.513375,55.113649],[-4.51391,55.113536],[-4.514242,55.113298],[-4.514588,55.113074],[-4.514947,55.112862],[-4.51532,55.112664],[-4.515707,55.11248],[-4.51611,55.112268],[-4.516529,55.11203],[-4.516965,55.111765],[-4.517417,55.111473],[-4.517897,55.111163],[-4.518406,55.110834],[-4.518942,55.110488],[-4.519507,55.110123],[-4.519889,55.109759],[-4.520089,55.109397],[-4.520105,55.109037],[-4.519939,55.108678],[-4.519733,55.108448],[-4.519487,55.108347],[-4.5192,55.108376],[-4.518874,55.108533],[-4.518505,55.108646],[-4.518093,55.108714],[-4.517639,55.108738],[-4.517142,55.108716],[-4.516611,55.108649],[-4.516046,55.108536],[-4.515447,55.108377],[-4.514813,55.108172],[-4.514431,55.107938],[-4.514299,55.107674],[-4.514419,55.107381],[-4.51479,55.107059],[-4.51499,55.106697],[-4.515018,55.106295],[-4.514874,55.105854],[-4.514558,55.105373],[-4.514464,55.104995],[-4.514591,55.104722],[-4.514939,55.104551],[-4.515508,55.104485],[-4.515843,55.104326],[-4.515943,55.104075],[-4.515809,55.103732],[-4.515441,55.103297],[-4.514979,55.102918],[-4.514424,55.102595],[-4.513777,55.102327],[-4.513036,55.102115],[-4.512479,55.101761],[-4.512106,55.101267],[-4.511918,55.100632],[-4.511913,55.099855],[-4.511582,55.099331],[-4.510925,55.09906],[-4.50994,55.09904],[-4.508629,55.099273],[-4.507553,55.099554],[-4.506712,55.099881],[-4.506107,55.100256],[-4.505737,55.100677],[-4.505384,55.101072],[-4.505047,55.10144],[-4.504727,55.101782],[-4.504423,55.102096],[-4.504007,55.102394],[-4.503481,55.102674],[-4.502845,55.102938],[-4.502097,55.103185],[-4.501428,55.103482],[-4.50084,55.10383],[-4.50033,55.104228],[-4.499901,55.104676],[-4.499411,55.105152],[-4.498861,55.105654],[-4.498251,55.106184],[-4.497581,55.10674],[-4.496896,55.107278],[-4.496196,55.107798],[-4.49548,55.1083],[-4.494748,55.108784],[-4.494208,55.109241],[-4.493858,55.10967],[-4.4937,55.110072],[-4.493732,55.110447],[-4.493826,55.110754],[-4.493984,55.110995],[-4.494205,55.111168],[-4.494488,55.111275],[-4.494738,55.11141],[-4.494955,55.111574],[-4.495139,55.111766],[-4.495289,55.111988],[-4.49553,55.112194],[-4.495862,55.112384],[-4.496284,55.112559],[-4.496796,55.112718],[-4.497077,55.11289],[-4.497126,55.113073],[-4.496944,55.113269],[-4.496531,55.113476],[-4.496106,55.113626],[-4.495667,55.113717],[-4.495217,55.113749],[-4.494753,55.113724],[-4.494311,55.113636],[-4.493889,55.113486],[-4.493489,55.113274],[-4.493109,55.112999],[-4.492816,55.112889],[-4.492609,55.112943],[-4.492488,55.113162],[-4.492453,55.113544],[-4.492386,55.113841],[-4.492289,55.114051],[-4.492159,55.114176],[-4.491999,55.114215],[-4.491819,55.114176],[-4.491619,55.11406],[-4.4914,55.113866],[-4.491162,55.113595],[-4.490927,55.113384],[-4.490697,55.113231],[-4.490471,55.113138],[-4.490249,55.113104],[-4.490012,55.113028],[-4.489758,55.112908],[-4.489489,55.112745],[-4.489205,55.112539],[-4.488843,55.112362],[-4.488405,55.112214],[-4.48789,55.112095],[-4.487299,55.112005],[-4.486826,55.111881],[-4.486471,55.111723],[-4.486235,55.111531],[-4.486118,55.111306],[-4.486229,55.111178],[-4.486567,55.111149],[-4.487134,55.111217],[-4.487928,55.111384],[-4.488412,55.111397],[-4.488588,55.111257],[-4.488455,55.110963],[-4.488013,55.110517],[-4.487596,55.110187],[-4.487204,55.109974],[-4.486837,55.109877],[-4.486495,55.109897],[-4.486205,55.109891],[-4.485966,55.10986],[-4.485779,55.109802],[-4.485644,55.109718],[-4.48539,55.109718],[-4.485019,55.109801],[-4.48453,55.109967],[-4.483923,55.110218],[-4.483387,55.110425],[-4.482923,55.110588],[-4.482531,55.110709],[-4.48221,55.110786],[-4.481737,55.110831],[-4.481114,55.110844],[-4.480338,55.110825],[-4.479412,55.110774],[-4.478781,55.110768],[-4.478446,55.110807],[-4.478407,55.110891],[-4.478664,55.111021],[-4.478841,55.111194],[-4.478937,55.111412],[-4.478954,55.111674],[-4.478891,55.11198],[-4.479012,55.112215],[-4.479316,55.112379],[-4.479804,55.112471],[-4.480475,55.112492],[-4.480862,55.112597],[-4.480965,55.112784],[-4.480785,55.113054],[-4.48032,55.113407],[-4.479882,55.113762],[-4.47947,55.114118],[-4.479086,55.114477],[-4.478729,55.114837],[-4.4787,55.115095],[-4.479001,55.115249],[-4.479631,55.1153],[-4.480589,55.115248],[-4.481039,55.115404],[-4.480981,55.11577],[-4.480413,55.116344],[-4.479337,55.117127],[-4.478455,55.117773],[-4.477767,55.118281],[-4.477274,55.118652],[-4.476975,55.118886],[-4.47665,55.119099],[-4.476301,55.119289],[-4.475926,55.119457],[-4.475525,55.119603],[-4.475127,55.119829],[-4.474732,55.120134],[-4.474339,55.120518],[-4.47395,55.120982],[-4.473253,55.121322],[-4.472249,55.121539],[-4.470938,55.121632],[-4.46932,55.121602],[-4.467854,55.121578],[-4.466538,55.121562],[-4.465374,55.121554],[-4.46436,55.121552],[-4.463765,55.121403],[-4.463586,55.121105],[-4.463825,55.120659],[-4.464482,55.120064],[-4.465028,55.119527],[-4.465465,55.119048],[-4.465792,55.118627],[-4.466008,55.118263],[-4.466268,55.117874],[-4.466571,55.11746],[-4.466918,55.117021],[-4.467308,55.116558],[-4.467596,55.116151],[-4.467782,55.1158],[-4.467867,55.115507],[-4.467851,55.115269],[-4.467887,55.114961],[-4.467976,55.114583],[-4.468118,55.114133],[-4.468312,55.113612],[-4.468568,55.113069],[-4.468886,55.112505],[-4.469266,55.111918],[-4.469707,55.111308],[-4.470219,55.11082],[-4.470801,55.110454],[-4.471454,55.110208],[-4.472177,55.110084],[-4.472991,55.109875],[-4.473896,55.10958],[-4.474892,55.1092],[-4.47598,55.108734],[-4.476908,55.108432],[-4.477678,55.108292],[-4.478289,55.108316],[-4.478741,55.108502],[-4.479147,55.108634],[-4.479506,55.108711],[-4.47982,55.108734],[-4.480088,55.108703],[-4.480338,55.108525],[-4.480568,55.108199],[-4.48078,55.107726],[-4.480972,55.107106],[-4.48121,55.10656],[-4.481492,55.106089],[-4.481819,55.105693],[-4.48219,55.10537],[-4.482562,55.104978],[-4.482935,55.104517],[-4.483308,55.103985],[-4.483683,55.103383],[-4.483972,55.102862],[-4.484178,55.102419],[-4.484298,55.102057],[-4.484335,55.101774],[-4.484379,55.101465],[-4.484432,55.10113],[-4.484492,55.100769],[-4.484561,55.100383],[-4.484562,55.099979],[-4.484496,55.099559],[-4.484363,55.099121],[-4.484162,55.098666],[-4.483942,55.098254],[-4.483702,55.097884],[-4.483443,55.097555],[-4.483164,55.097269],[-4.48288,55.096969],[-4.48259,55.096654],[-4.482296,55.096325],[-4.481996,55.095981],[-4.481711,55.095726],[-4.48144,55.095558],[-4.481185,55.095478],[-4.480943,55.095487],[-4.480718,55.095588],[-4.48051,55.095781],[-4.480317,55.096068],[-4.480141,55.096447],[-4.479918,55.096792],[-4.479647,55.097102],[-4.479329,55.097378],[-4.478963,55.09762],[-4.478658,55.097765],[-4.478414,55.097814],[-4.478231,55.097765],[-4.478108,55.09762],[-4.477908,55.097574],[-4.47763,55.097626],[-4.477275,55.097777],[-4.476842,55.098027],[-4.476478,55.098199],[-4.47618,55.098293],[-4.475951,55.09831],[-4.475789,55.098249],[-4.475702,55.098105],[-4.475689,55.097878],[-4.47575,55.097567],[-4.475885,55.097172],[-4.476078,55.096816],[-4.476329,55.096498],[-4.476637,55.096218],[-4.477003,55.095976],[-4.47676,55.09586],[-4.475908,55.09587],[-4.474448,55.096006],[-4.472379,55.096267],[-4.470662,55.096607],[-4.469296,55.097025],[-4.468281,55.097522],[-4.467618,55.098097],[-4.467065,55.098401],[-4.466623,55.098432],[-4.466291,55.098192],[-4.46607,55.09768],[-4.465832,55.09729],[-4.465577,55.09702],[-4.465305,55.096873],[-4.465016,55.096847],[-4.464565,55.09683],[-4.463951,55.096822],[-4.463175,55.096823],[-4.462236,55.096832],[-4.461554,55.096782],[-4.46113,55.096672],[-4.460964,55.096503],[-4.461055,55.096273],[-4.461201,55.096027],[-4.461402,55.095764],[-4.461658,55.095486],[-4.46197,55.09519],[-4.462368,55.094895],[-4.462854,55.094599],[-4.463427,55.094303],[-4.464087,55.094007],[-4.46444,55.093682],[-4.464485,55.093328],[-4.464224,55.092946],[-4.463655,55.092534],[-4.463201,55.092149],[-4.462861,55.09179],[-4.462635,55.091458],[-4.462524,55.091152],[-4.462327,55.090946],[-4.462044,55.090839],[-4.461675,55.090833],[-4.46122,55.090926],[-4.460722,55.090899],[-4.46018,55.090753],[-4.459595,55.090488],[-4.458966,55.090103],[-4.458268,55.089741],[-4.457499,55.089402],[-4.45666,55.089087],[-4.455751,55.088794],[-4.45502,55.088511],[-4.454466,55.088237],[-4.454091,55.087972],[-4.453893,55.087716],[-4.453658,55.087405],[-4.453385,55.087039],[-4.453075,55.086617],[-4.452727,55.086139],[-4.452359,55.085729],[-4.451973,55.085386],[-4.451567,55.085109],[-4.451142,55.0849],[-4.45071,55.084577],[-4.450272,55.08414],[-4.449828,55.083589],[-4.449377,55.082925],[-4.448975,55.082394],[-4.448621,55.081997],[-4.448316,55.081734],[-4.44806,55.081604],[-4.447882,55.081595],[-4.447783,55.081706],[-4.447762,55.081938],[-4.44782,55.082289],[-4.447797,55.082586],[-4.447693,55.082827],[-4.447508,55.083013],[-4.447241,55.083144],[-4.446932,55.083204],[-4.44658,55.083196],[-4.446185,55.083117],[-4.445747,55.082969],[-4.44533,55.082853],[-4.444933,55.08277],[-4.444557,55.082719],[-4.444202,55.082701],[-4.443838,55.082614],[-4.443468,55.082458],[-4.44309,55.082233],[-4.442704,55.081939],[-4.442467,55.081673],[-4.442381,55.081434],[-4.442443,55.081223],[-4.442656,55.081039],[-4.442727,55.080876],[-4.442659,55.080734],[-4.442449,55.080614],[-4.442099,55.080516],[-4.441798,55.080406],[-4.441545,55.080287],[-4.441341,55.080156],[-4.441185,55.080015],[-4.441001,55.079917],[-4.440789,55.079862],[-4.440549,55.07985],[-4.440281,55.079881],[-4.439952,55.079909],[-4.43956,55.079935],[-4.439106,55.079958],[-4.43859,55.079978],[-4.438259,55.079907],[-4.438113,55.079745],[-4.438151,55.079492],[-4.438375,55.079147],[-4.438711,55.078894],[-4.439158,55.078732],[-4.439717,55.078662],[-4.440387,55.078684],[-4.440907,55.078673],[-4.441275,55.07863],[-4.441492,55.078555],[-4.441557,55.078448],[-4.441708,55.078405],[-4.441943,55.078428],[-4.442262,55.078515],[-4.442666,55.078667],[-4.443019,55.078845],[-4.44332,55.079049],[-4.443569,55.079279],[-4.443767,55.079535],[-4.444079,55.079747],[-4.444507,55.079917],[-4.44505,55.080043],[-4.445708,55.080125],[-4.446167,55.080067],[-4.446425,55.079868],[-4.446485,55.079527],[-4.446345,55.079045],[-4.446332,55.078698],[-4.446447,55.078486],[-4.446689,55.078408],[-4.447058,55.078464],[-4.447449,55.078484],[-4.447861,55.078465],[-4.448294,55.07841],[-4.448749,55.078317],[-4.449156,55.078334],[-4.449517,55.078462],[-4.44983,55.078699],[-4.450096,55.079047],[-4.450302,55.079326],[-4.450449,55.079538],[-4.450536,55.079682],[-4.450564,55.079759],[-4.450736,55.079848],[-4.451052,55.079951],[-4.451513,55.080067],[-4.452118,55.080195],[-4.452632,55.080265],[-4.453054,55.080275],[-4.453385,55.080227],[-4.453625,55.080119],[-4.453953,55.080086],[-4.45437,55.080127],[-4.454874,55.080242],[-4.455466,55.080432],[-4.456229,55.080802],[-4.457161,55.08135],[-4.458263,55.082078],[-4.459535,55.082986],[-4.460583,55.083635],[-4.461406,55.084027],[-4.462004,55.084162],[-4.462378,55.084038],[-4.46268,55.083909],[-4.462909,55.083772],[-4.463067,55.083629],[-4.463152,55.08348],[-4.463281,55.08338],[-4.463455,55.08333],[-4.463673,55.08333],[-4.463935,55.083379],[-4.464178,55.0834],[-4.464403,55.083394],[-4.464609,55.08336],[-4.464796,55.083298],[-4.465096,55.083308],[-4.465509,55.083389],[-4.466036,55.083542],[-4.466676,55.083766],[-4.467252,55.084008],[-4.467765,55.084267],[-4.468214,55.084543],[-4.4686,55.084836],[-4.469065,55.085106],[-4.469608,55.085351],[-4.470229,55.085573],[-4.470929,55.08577],[-4.471453,55.085938],[-4.4718,55.086076],[-4.471971,55.086186],[-4.471965,55.086266],[-4.471878,55.086411],[-4.47171,55.08662],[-4.47146,55.086893],[-4.47113,55.08723],[-4.471056,55.087508],[-4.47124,55.087725],[-4.471681,55.087883],[-4.47238,55.087981],[-4.473021,55.087991],[-4.473603,55.087913],[-4.474127,55.087747],[-4.474593,55.087493],[-4.474963,55.087216],[-4.475237,55.086915],[-4.475416,55.086591],[-4.475498,55.086242],[-4.475645,55.085927],[-4.475856,55.085643],[-4.476131,55.085392],[-4.47647,55.085173],[-4.476761,55.085039],[-4.477005,55.084991],[-4.477202,55.085028],[-4.477351,55.08515],[-4.477621,55.085243],[-4.47801,55.085307],[-4.47852,55.085342],[-4.479151,55.085348],[-4.479651,55.085285],[-4.480021,55.085152],[-4.480262,55.084949],[-4.480372,55.084678],[-4.480527,55.084455],[-4.480726,55.084283],[-4.480969,55.08416],[-4.481256,55.084086],[-4.481539,55.083954],[-4.481818,55.083762],[-4.482093,55.083511],[-4.482364,55.0832],[-4.482554,55.082884],[-4.482664,55.082563],[-4.482693,55.082235],[-4.482641,55.081903],[-4.482459,55.081715],[-4.482147,55.081672],[-4.481704,55.081773],[-4.481131,55.082019],[-4.480632,55.082182],[-4.480207,55.082262],[-4.479857,55.082258],[-4.479581,55.082171],[-4.479506,55.082085],[-4.479632,55.082],[-4.47996,55.081917],[-4.480488,55.081836],[-4.480815,55.081703],[-4.48094,55.081519],[-4.480863,55.081284],[-4.480584,55.080998],[-4.480277,55.08073],[-4.479942,55.08048],[-4.479579,55.080249],[-4.479187,55.080035],[-4.479052,55.079857],[-4.479174,55.079713],[-4.479553,55.079604],[-4.480189,55.07953],[-4.480589,55.079359],[-4.480753,55.079091],[-4.480681,55.078726],[-4.480373,55.078264],[-4.480028,55.077891],[-4.479646,55.077607],[-4.479226,55.077412],[-4.478768,55.077306],[-4.478408,55.077178],[-4.478145,55.07703],[-4.477978,55.07686],[-4.477909,55.076669],[-4.477764,55.076487],[-4.477544,55.076313],[-4.477248,55.076149],[-4.476877,55.075993],[-4.476678,55.075852],[-4.476649,55.075726],[-4.476792,55.075614],[-4.477106,55.075518],[-4.477427,55.075515],[-4.477757,55.075606],[-4.478095,55.075791],[-4.47844,55.076069],[-4.478931,55.07641],[-4.479566,55.076814],[-4.480347,55.077281],[-4.481272,55.07781],[-4.482067,55.078195],[-4.48273,55.078436],[-4.483263,55.078534],[-4.483665,55.078487],[-4.483907,55.078314],[-4.48399,55.078015],[-4.483914,55.077591],[-4.483679,55.077041],[-4.483633,55.076653],[-4.483778,55.076427],[-4.484112,55.076363],[-4.484636,55.076461],[-4.485221,55.076487],[-4.485868,55.076442],[-4.486575,55.076324],[-4.487343,55.076135],[-4.488045,55.075883],[-4.488681,55.07557],[-4.489251,55.075195],[-4.489755,55.074758],[-4.489985,55.074432],[-4.489942,55.074218],[-4.489625,55.074115],[-4.489035,55.074124],[-4.488439,55.074114],[-4.487835,55.074085],[-4.487224,55.074037],[-4.486607,55.07397],[-4.486091,55.073871],[-4.485677,55.07374],[-4.485365,55.073577],[-4.485154,55.073383],[-4.484836,55.073226],[-4.484408,55.073106],[-4.483873,55.073025],[-4.483229,55.07298],[-4.48268,55.07291],[-4.482226,55.072814],[-4.481867,55.072691],[-4.481604,55.072543],[-4.481172,55.072459],[-4.480572,55.072439],[-4.479803,55.072484],[-4.478866,55.072593],[-4.47809,55.072664],[-4.477474,55.072696],[-4.477018,55.07269],[-4.476722,55.072645],[-4.476508,55.07256],[-4.476376,55.072436],[-4.476325,55.072273],[-4.476356,55.07207],[-4.476325,55.071889],[-4.476233,55.071731],[-4.476078,55.071594],[-4.475862,55.07148],[-4.475631,55.071323],[-4.475383,55.071123],[-4.47512,55.07088],[-4.474842,55.070593],[-4.474662,55.070316],[-4.474582,55.070046],[-4.4746,55.069785],[-4.474717,55.069532],[-4.474909,55.069316],[-4.475174,55.069135],[-4.475514,55.068991],[-4.475928,55.068883],[-4.476241,55.068737],[-4.476454,55.068553],[-4.476564,55.068331],[-4.476574,55.068071],[-4.476502,55.0678],[-4.476348,55.067519],[-4.476111,55.067228],[-4.475792,55.066927],[-4.475431,55.06675],[-4.475028,55.066697],[-4.474584,55.066769],[-4.474097,55.066966],[-4.473627,55.067065],[-4.473175,55.067068],[-4.47274,55.066975],[-4.472322,55.066784],[-4.471893,55.066685],[-4.471454,55.066677],[-4.471005,55.066759],[-4.470544,55.066932],[-4.47018,55.067034],[-4.469913,55.067066],[-4.469741,55.067026],[-4.469666,55.066915],[-4.469524,55.066907],[-4.469314,55.067001],[-4.469037,55.067198],[-4.468692,55.067497],[-4.46847,55.067797],[-4.46837,55.068097],[-4.468392,55.068398],[-4.468537,55.0687],[-4.468713,55.068968],[-4.46892,55.069203],[-4.469159,55.069404],[-4.46943,55.069572],[-4.469798,55.069698],[-4.470265,55.069783],[-4.47083,55.069827],[-4.471494,55.069829],[-4.472015,55.069848],[-4.472394,55.069883],[-4.472631,55.069935],[-4.472726,55.070004],[-4.472663,55.070071],[-4.472443,55.070136],[-4.472065,55.0702],[-4.47153,55.070263],[-4.470796,55.070403],[-4.469864,55.070622],[-4.468733,55.070918],[-4.467404,55.071292],[-4.466327,55.071542],[-4.465501,55.071669],[-4.464926,55.071671],[-4.464603,55.071549],[-4.464305,55.071499],[-4.464034,55.071521],[-4.463789,55.071614],[-4.46357,55.071779],[-4.463242,55.071907],[-4.462804,55.071998],[-4.462257,55.072052],[-4.4616,55.072069],[-4.460918,55.072113],[-4.460212,55.072186],[-4.459481,55.072286],[-4.458725,55.072414],[-4.458142,55.072512],[-4.457731,55.07258],[-4.457491,55.072618],[-4.457424,55.072625],[-4.457223,55.072694],[-4.456886,55.072823],[-4.456414,55.073012],[-4.455807,55.073262],[-4.455313,55.073509],[-4.45493,55.073753],[-4.45466,55.073993],[-4.454502,55.074231],[-4.454336,55.07442],[-4.45416,55.07456],[-4.453975,55.074651],[-4.453781,55.074693],[-4.453533,55.074682],[-4.45323,55.074618],[-4.452874,55.0745],[-4.452463,55.074329],[-4.452263,55.074213],[-4.452276,55.074152],[-4.4525,55.074146],[-4.452937,55.074194],[-4.453218,55.074152],[-4.453343,55.074017],[-4.453314,55.073792],[-4.453129,55.073475],[-4.453004,55.073156],[-4.45294,55.072835],[-4.452935,55.072511],[-4.452992,55.072186],[-4.453077,55.071917],[-4.453192,55.071705],[-4.453335,55.071549],[-4.453508,55.071449],[-4.453786,55.071396],[-4.454168,55.071392],[-4.454654,55.071435],[-4.455245,55.071525],[-4.455838,55.071571],[-4.456431,55.071571],[-4.457025,55.071527],[-4.45762,55.071437],[-4.458221,55.071387],[-4.458828,55.071376],[-4.45944,55.071405],[-4.460057,55.071472],[-4.460328,55.071401],[-4.460251,55.07119],[-4.459828,55.070841],[-4.459058,55.070354],[-4.458314,55.069893],[-4.457598,55.069458],[-4.45691,55.069051],[-4.456248,55.06867],[-4.455533,55.06831],[-4.454765,55.067971],[-4.453943,55.067654],[-4.453068,55.067357],[-4.452115,55.067135],[-4.451084,55.066986],[-4.449976,55.066911],[-4.44879,55.06691],[-4.447678,55.066945],[-4.44664,55.067016],[-4.445676,55.067123],[-4.444787,55.067267],[-4.444062,55.067311],[-4.443501,55.067257],[-4.443106,55.067104],[-4.442875,55.066852],[-4.442555,55.066645],[-4.442148,55.066484],[-4.441652,55.066367],[-4.441068,55.066296],[-4.440559,55.066261],[-4.440123,55.066261],[-4.439762,55.066299],[-4.439474,55.066372],[-4.439096,55.066411],[-4.438627,55.066416],[-4.438067,55.066386],[-4.437416,55.066323],[-4.436827,55.066262],[-4.436301,55.066204],[-4.435836,55.066148],[-4.435433,55.066096],[-4.434984,55.066058],[-4.434487,55.066036],[-4.433945,55.06603],[-4.433355,55.066039],[-4.432835,55.066025],[-4.432386,55.065987],[-4.432007,55.065927],[-4.431697,55.065843],[-4.431517,55.065755],[-4.431466,55.065661],[-4.431543,55.065563],[-4.43175,55.065459],[-4.431902,55.065302],[-4.432,55.065091],[-4.432043,55.064827],[-4.432033,55.06451],[-4.431821,55.064285],[-4.431407,55.064154],[-4.430792,55.064116],[-4.429975,55.064172],[-4.429333,55.064132],[-4.428865,55.063997],[-4.428573,55.063767],[-4.428455,55.063442],[-4.428256,55.063182],[-4.427975,55.062985],[-4.427614,55.062853],[-4.42717,55.062785],[-4.426792,55.06268],[-4.426479,55.062537],[-4.426231,55.062357],[-4.426047,55.062139],[-4.425813,55.062022],[-4.425528,55.062006],[-4.425192,55.062089],[-4.424806,55.062274],[-4.424431,55.062492],[-4.424069,55.062743],[-4.423719,55.063028],[-4.423381,55.063346],[-4.423058,55.063657],[-4.42275,55.063962],[-4.422457,55.06426],[-4.422179,55.064551],[-4.422059,55.064894],[-4.422097,55.065287],[-4.422294,55.065733],[-4.422648,55.066229],[-4.423001,55.066576],[-4.423351,55.066775],[-4.423701,55.066824],[-4.424048,55.066724],[-4.424436,55.066688],[-4.424865,55.066718],[-4.425336,55.066813],[-4.425847,55.066972],[-4.426361,55.067117],[-4.426879,55.067246],[-4.4274,55.067359],[-4.427924,55.067458],[-4.428276,55.067636],[-4.428457,55.067893],[-4.428466,55.068231],[-4.428303,55.068648],[-4.428245,55.068994],[-4.428292,55.069267],[-4.428444,55.069468],[-4.4287,55.069598],[-4.428762,55.06977],[-4.428631,55.069984],[-4.428306,55.070241],[-4.427786,55.070541],[-4.42728,55.070898],[-4.426785,55.071314],[-4.426303,55.071789],[-4.425834,55.072321],[-4.425444,55.07276],[-4.425133,55.073105],[-4.424901,55.073356],[-4.424749,55.073513],[-4.424451,55.073677],[-4.424007,55.073848],[-4.423418,55.074026],[-4.422683,55.074211],[-4.421965,55.074325],[-4.421265,55.074366],[-4.420583,55.074336],[-4.419918,55.074234],[-4.419301,55.074191],[-4.418731,55.074208],[-4.418209,55.074283],[-4.417735,55.074418],[-4.417204,55.07454],[-4.416615,55.074648],[-4.415969,55.074743],[-4.415267,55.074825],[-4.414784,55.07496],[-4.414521,55.07515],[-4.414479,55.075394],[-4.414657,55.075692],[-4.415028,55.075923],[-4.415593,55.076086],[-4.416352,55.076182],[-4.417304,55.076211],[-4.418096,55.076184],[-4.418729,55.0761],[-4.419201,55.075961],[-4.419514,55.075765],[-4.419844,55.075642],[-4.420192,55.075591],[-4.420558,55.075614],[-4.420941,55.075708],[-4.421191,55.075844],[-4.421307,55.076019],[-4.421289,55.076236],[-4.421138,55.076492],[-4.420831,55.076702],[-4.420367,55.076866],[-4.419746,55.076983],[-4.41897,55.077053],[-4.418406,55.077183],[-4.418057,55.077373],[-4.417921,55.077623],[-4.417998,55.077933],[-4.417952,55.078167],[-4.417783,55.078326],[-4.417491,55.07841],[-4.417075,55.078418],[-4.41671,55.078446],[-4.416396,55.078492],[-4.416132,55.078558],[-4.415918,55.078642],[-4.415606,55.078719],[-4.415194,55.078786],[-4.414684,55.078846],[-4.414074,55.078897],[-4.413521,55.078911],[-4.413025,55.078889],[-4.412585,55.078831],[-4.412202,55.078736],[-4.411952,55.07884],[-4.411835,55.079142],[-4.411851,55.079643],[-4.412,55.080343],[-4.411573,55.08097],[-4.41057,55.081524],[-4.408992,55.082006],[-4.406838,55.082416],[-4.405095,55.082828],[-4.403762,55.083241],[-4.40284,55.083657],[-4.402328,55.084075],[-4.401825,55.084442],[-4.401329,55.084758],[-4.400841,55.085024],[-4.400361,55.085239],[-4.399927,55.085439],[-4.39954,55.085623],[-4.3992,55.085792],[-4.398907,55.085946],[-4.398804,55.086072],[-4.398893,55.086171],[-4.399172,55.086244],[-4.399642,55.086289],[-4.399894,55.086623],[-4.399928,55.087246],[-4.399743,55.088159],[-4.399341,55.089361],[-4.399082,55.090376],[-4.398964,55.091207],[-4.398988,55.091851],[-4.399154,55.09231],[-4.399352,55.092785],[-4.399582,55.093276],[-4.399845,55.093783],[-4.400139,55.094306],[-4.400495,55.094902],[-4.400911,55.095571],[-4.401389,55.096312],[-4.401929,55.097126],[-4.402461,55.097801],[-4.402987,55.098337],[-4.403506,55.098735],[-4.404019,55.098994],[-4.404193,55.099208],[-4.404027,55.099377],[-4.403522,55.0995],[-4.402678,55.099578],[-4.401972,55.09963],[-4.401406,55.099656],[-4.400978,55.099656],[-4.40069,55.099629],[-4.400303,55.099645],[-4.399817,55.099701],[-4.399233,55.099799],[-4.39855,55.099938],[-4.397896,55.100009],[-4.397268,55.100012],[-4.396669,55.099947],[-4.396097,55.099814],[-4.395698,55.09982],[-4.395472,55.099966],[-4.395418,55.100251],[-4.395537,55.100675],[-4.395558,55.101022],[-4.39548,55.101289],[-4.395305,55.101479],[-4.395031,55.101591],[-4.394672,55.101826],[-4.394226,55.102187],[-4.393695,55.102672],[-4.393078,55.103281],[-4.392521,55.103813],[-4.392023,55.104269],[-4.391584,55.104649],[-4.391205,55.104952],[-4.390937,55.105341],[-4.390778,55.105818],[-4.390729,55.106381],[-4.39079,55.107031],[-4.3908,55.107543],[-4.390761,55.107916],[-4.390671,55.10815],[-4.390532,55.108246],[-4.390408,55.108435],[-4.3903,55.108716],[-4.390209,55.10909],[-4.390134,55.109557],[-4.390209,55.109956],[-4.390434,55.110289],[-4.390809,55.110554],[-4.391335,55.110752],[-4.391688,55.11098],[-4.391869,55.111238],[-4.391877,55.111525],[-4.391713,55.111843],[-4.391618,55.112183],[-4.391591,55.112544],[-4.391634,55.112928],[-4.391746,55.113333],[-4.39186,55.113718],[-4.391975,55.114083],[-4.392091,55.114428],[-4.392209,55.114753],[-4.392425,55.115037],[-4.39274,55.115279],[-4.393153,55.11548],[-4.393665,55.11564],[-4.39405,55.115884],[-4.394309,55.116212],[-4.394441,55.116625],[-4.394446,55.117122],[-4.394302,55.117542],[-4.394007,55.117885],[-4.393562,55.118151],[-4.392967,55.118339],[-4.39231,55.1185],[-4.39159,55.118633],[-4.390808,55.118739],[-4.389963,55.118817],[-4.389307,55.118958],[-4.38884,55.119161],[-4.388561,55.119428],[-4.388471,55.119757],[-4.388341,55.12017],[-4.388172,55.120668],[-4.387964,55.121249],[-4.387717,55.121915],[-4.387627,55.122438],[-4.387695,55.122819],[-4.387921,55.123057],[-4.388304,55.123152],[-4.388604,55.123256],[-4.38882,55.123371],[-4.388952,55.123495],[-4.389001,55.123628],[-4.388935,55.123785],[-4.388756,55.123965],[-4.388463,55.124169],[-4.388057,55.124395],[-4.387796,55.124639],[-4.387681,55.124901],[-4.387713,55.125182],[-4.387891,55.12548],[-4.387958,55.125761],[-4.387914,55.126025],[-4.387759,55.126272],[-4.387493,55.126502],[-4.387286,55.1267],[-4.387136,55.126866],[-4.387046,55.127001],[-4.387013,55.127105],[-4.386929,55.127234],[-4.386793,55.127389],[-4.386606,55.12757],[-4.386366,55.127777],[-4.38606,55.128017],[-4.385688,55.128289],[-4.385248,55.128594],[-4.384742,55.128931],[-4.384294,55.129262],[-4.383905,55.129586],[-4.383575,55.129903],[-4.383303,55.130213],[-4.383029,55.130519],[-4.382754,55.130819],[-4.382477,55.131115],[-4.382199,55.131407],[-4.381866,55.131694],[-4.38148,55.131978],[-4.38104,55.132258],[-4.380546,55.132534],[-4.380088,55.132786],[-4.379664,55.133014],[-4.379275,55.133219],[-4.378922,55.133399],[-4.378758,55.133597],[-4.378783,55.133813],[-4.378999,55.134047],[-4.379405,55.134299],[-4.379848,55.134462],[-4.380329,55.134536],[-4.380847,55.13452],[-4.381403,55.134416],[-4.381937,55.134394],[-4.382447,55.134454],[-4.382936,55.134597],[-4.383401,55.134822],[-4.383654,55.135062],[-4.383694,55.135316],[-4.383521,55.135585],[-4.383135,55.135868],[-4.382757,55.136007],[-4.382387,55.136],[-4.382027,55.135847],[-4.381674,55.13555],[-4.38116,55.135335],[-4.380484,55.135205],[-4.379646,55.135157],[-4.378646,55.135193],[-4.378098,55.135272],[-4.378002,55.135392],[-4.378358,55.135555],[-4.379166,55.135761],[-4.379802,55.135951],[-4.380268,55.136126],[-4.380561,55.136286],[-4.380684,55.136431],[-4.380795,55.136617],[-4.380895,55.136845],[-4.380983,55.137113],[-4.381061,55.137423],[-4.381167,55.137789],[-4.381303,55.138211],[-4.381468,55.13869],[-4.381662,55.139225],[-4.381769,55.139716],[-4.381791,55.140161],[-4.381727,55.140562],[-4.381576,55.140918],[-4.381483,55.141238],[-4.381445,55.141521],[-4.381465,55.141767],[-4.381541,55.141978],[-4.381742,55.142074],[-4.382068,55.142056],[-4.382518,55.141924],[-4.383092,55.141678],[-4.383584,55.141517],[-4.383993,55.14144],[-4.384318,55.141447],[-4.384561,55.141538],[-4.38487,55.141522],[-4.385244,55.141399],[-4.385685,55.141169],[-4.386191,55.140832],[-4.386639,55.140501],[-4.387028,55.140177],[-4.387359,55.13986],[-4.38763,55.13955],[-4.387875,55.139213],[-4.388092,55.138849],[-4.388283,55.138458],[-4.388446,55.138041],[-4.388813,55.137755],[-4.389386,55.137599],[-4.390162,55.137573],[-4.391144,55.137679],[-4.391909,55.137814],[-4.392458,55.13798],[-4.392791,55.138175],[-4.392908,55.1384],[-4.393126,55.138544],[-4.393445,55.138607],[-4.393866,55.138588],[-4.394389,55.138488],[-4.394719,55.138265],[-4.394856,55.137921],[-4.3948,55.137454],[-4.394552,55.136866],[-4.394447,55.13636],[-4.394486,55.135937],[-4.394668,55.135598],[-4.394994,55.135341],[-4.395353,55.135199],[-4.395746,55.135174],[-4.396171,55.135264],[-4.39663,55.13547],[-4.397003,55.13568],[-4.397291,55.135896],[-4.397493,55.136116],[-4.39761,55.136342],[-4.39778,55.136521],[-4.398003,55.136655],[-4.398279,55.136742],[-4.398609,55.136784],[-4.398857,55.136745],[-4.399023,55.136626],[-4.399108,55.136427],[-4.399112,55.136148],[-4.399261,55.136006],[-4.399556,55.136002],[-4.399998,55.136135],[-4.400585,55.136405],[-4.401053,55.136684],[-4.401402,55.136973],[-4.401632,55.137269],[-4.401743,55.137575],[-4.401983,55.137851],[-4.402352,55.138097],[-4.402849,55.138313],[-4.403476,55.138499],[-4.40389,55.138581],[-4.404091,55.138558],[-4.404079,55.13843],[-4.403855,55.138197],[-4.403666,55.137965],[-4.403512,55.137734],[-4.403394,55.137503],[-4.40331,55.137274],[-4.403108,55.137029],[-4.402786,55.136767],[-4.402345,55.13649],[-4.401784,55.136196],[-4.401288,55.135935],[-4.400855,55.135707],[-4.400487,55.13551],[-4.400183,55.135346],[-4.399721,55.135181],[-4.399102,55.135014],[-4.398325,55.134845],[-4.397389,55.134675],[-4.396639,55.134508],[-4.396073,55.134344],[-4.395692,55.134184],[-4.395496,55.134028],[-4.395429,55.133916],[-4.395492,55.133849],[-4.395685,55.133827],[-4.396007,55.133849],[-4.396235,55.133778],[-4.396367,55.133613],[-4.396404,55.133355],[-4.396346,55.133003],[-4.39639,55.132809],[-4.396533,55.132772],[-4.396778,55.132893],[-4.397124,55.133172],[-4.397529,55.133399],[-4.397994,55.133574],[-4.398519,55.133697],[-4.399104,55.133769],[-4.399666,55.133898],[-4.400205,55.134084],[-4.400722,55.134328],[-4.401215,55.134629],[-4.401821,55.134878],[-4.402538,55.135073],[-4.403367,55.135216],[-4.404308,55.135306],[-4.405055,55.135369],[-4.40561,55.135404],[-4.405971,55.135412],[-4.406138,55.135393],[-4.406221,55.135572],[-4.406219,55.135951],[-4.406131,55.136528],[-4.405959,55.137305],[-4.405854,55.137955],[-4.405817,55.138477],[-4.405847,55.138872],[-4.405944,55.139139],[-4.406149,55.139464],[-4.406463,55.139846],[-4.406884,55.140285],[-4.407414,55.140781],[-4.407674,55.141209],[-4.407665,55.141569],[-4.407386,55.14186],[-4.406838,55.142083],[-4.406294,55.14222],[-4.405754,55.142273],[-4.405218,55.142241],[-4.404687,55.142123],[-4.404156,55.141936],[-4.403626,55.141679],[-4.403096,55.141352],[-4.402568,55.140955],[-4.402129,55.140588],[-4.401779,55.14025],[-4.401519,55.139941],[-4.401348,55.139662],[-4.401157,55.13945],[-4.400948,55.139306],[-4.400718,55.139228],[-4.40047,55.139217],[-4.400281,55.139273],[-4.400151,55.139398],[-4.400081,55.13959],[-4.400071,55.13985],[-4.399932,55.140021],[-4.399664,55.140102],[-4.399268,55.140093],[-4.398743,55.139994],[-4.398386,55.140021],[-4.398197,55.140172],[-4.398175,55.140449],[-4.39832,55.14085],[-4.398616,55.141279],[-4.399061,55.141735],[-4.399655,55.142219],[-4.4004,55.14273],[-4.401015,55.143102],[-4.401501,55.143334],[-4.401858,55.143427],[-4.402086,55.143381],[-4.402183,55.143215],[-4.40215,55.14293],[-4.401986,55.142526],[-4.401691,55.142003],[-4.401642,55.141749],[-4.401841,55.141766],[-4.402285,55.142053],[-4.402977,55.14261],[-4.403432,55.14319],[-4.40365,55.143792],[-4.403633,55.144416],[-4.403378,55.145063],[-4.403231,55.145573],[-4.403192,55.145946],[-4.40326,55.146182],[-4.403436,55.146281],[-4.40349,55.146404],[-4.403421,55.146552],[-4.40323,55.146723],[-4.402917,55.146919],[-4.402732,55.147085],[-4.402677,55.147221],[-4.40275,55.147327],[-4.402952,55.147403],[-4.403144,55.147545],[-4.403324,55.147753],[-4.403494,55.148027],[-4.403652,55.148367],[-4.403738,55.148651],[-4.40375,55.148879],[-4.40369,55.14905],[-4.403557,55.149165],[-4.403565,55.149353],[-4.403712,55.149615],[-4.404,55.14995],[-4.404428,55.150358],[-4.404674,55.150748],[-4.404739,55.151119],[-4.404622,55.151471],[-4.404324,55.151804],[-4.404167,55.152216],[-4.404153,55.152705],[-4.404281,55.153273],[-4.40455,55.153919],[-4.404578,55.154453],[-4.404365,55.154877],[-4.40391,55.155188],[-4.403214,55.155388],[-4.402817,55.155594],[-4.402719,55.155804],[-4.402919,55.15602],[-4.403419,55.156241],[-4.403895,55.15635],[-4.404349,55.156347],[-4.404779,55.156233],[-4.405186,55.156006],[-4.405529,55.155892],[-4.405808,55.155889],[-4.406022,55.155999],[-4.406173,55.15622],[-4.406276,55.156482],[-4.406334,55.156784],[-4.406344,55.157127],[-4.406309,55.157509],[-4.406284,55.157945],[-4.406269,55.158435],[-4.406266,55.158978],[-4.406273,55.159575],[-4.406341,55.160099],[-4.406471,55.160552],[-4.406662,55.160933],[-4.406914,55.161243],[-4.40709,55.161536],[-4.407191,55.161813],[-4.407216,55.162074],[-4.407165,55.162319],[-4.407328,55.162599],[-4.407705,55.162914],[-4.408295,55.163263],[-4.409099,55.163648],[-4.409659,55.164036],[-4.409977,55.164428],[-4.41005,55.164822],[-4.40988,55.165221],[-4.409919,55.165639],[-4.410166,55.166079],[-4.410622,55.166539],[-4.411286,55.167019],[-4.411689,55.16748],[-4.411832,55.167922],[-4.411715,55.168344],[-4.411337,55.168746],[-4.410979,55.169131],[-4.41064,55.169499],[-4.410322,55.16985],[-4.410024,55.170183],[-4.40975,55.170583],[-4.4095,55.17105],[-4.409274,55.171584],[-4.409073,55.172185],[-4.408954,55.172697],[-4.408915,55.17312],[-4.408958,55.173453],[-4.409081,55.173698],[-4.409163,55.173947],[-4.409203,55.174202],[-4.409201,55.174461],[-4.409158,55.174725],[-4.409087,55.174987],[-4.408989,55.175247],[-4.408865,55.175506],[-4.408713,55.175762],[-4.408606,55.176068],[-4.408543,55.176424],[-4.408524,55.17683],[-4.40855,55.177285],[-4.408585,55.177694],[-4.40863,55.178057],[-4.408684,55.178374],[-4.408748,55.178646],[-4.408729,55.178932],[-4.408629,55.179232],[-4.408446,55.179547],[-4.408181,55.179877],[-4.40793,55.180195],[-4.407691,55.180501],[-4.407466,55.180796],[-4.407255,55.181079],[-4.407004,55.181352],[-4.406715,55.181615],[-4.406387,55.181867],[-4.40602,55.182109],[-4.405922,55.182369],[-4.406094,55.182648],[-4.406534,55.182945],[-4.407244,55.183262],[-4.407735,55.183553],[-4.408007,55.18382],[-4.40806,55.184063],[-4.407895,55.184281],[-4.40772,55.184476],[-4.407538,55.184646],[-4.407346,55.184793],[-4.407146,55.184916],[-4.407006,55.185037],[-4.406927,55.185155],[-4.406908,55.185272],[-4.40695,55.185387],[-4.407104,55.185449],[-4.407369,55.185458],[-4.407747,55.185414],[-4.408236,55.185317],[-4.408544,55.185322],[-4.408669,55.185426],[-4.408613,55.185632],[-4.408375,55.185939],[-4.408276,55.186219],[-4.408316,55.186473],[-4.408495,55.186701],[-4.408813,55.186903],[-4.409102,55.187024],[-4.409361,55.187064],[-4.409591,55.187022],[-4.409791,55.1869],[-4.41001,55.186829],[-4.410249,55.186812],[-4.410506,55.186847],[-4.410783,55.186934],[-4.41105,55.187067],[-4.411308,55.187247],[-4.411556,55.187472],[-4.411794,55.187743],[-4.411896,55.18795],[-4.411861,55.188094],[-4.411689,55.188173],[-4.41138,55.188189],[-4.41099,55.188175],[-4.410519,55.18813],[-4.409966,55.188054],[-4.409333,55.187949],[-4.408731,55.187854],[-4.408158,55.187771],[-4.407616,55.187699],[-4.407105,55.187639],[-4.406632,55.187589],[-4.406198,55.18755],[-4.405803,55.187521],[-4.405446,55.187503],[-4.405068,55.187472],[-4.404667,55.187429],[-4.404245,55.187373],[-4.4038,55.187305],[-4.403371,55.187206],[-4.402956,55.187074],[-4.402555,55.186912],[-4.40217,55.186717],[-4.40182,55.186549],[-4.401506,55.186406],[-4.401227,55.186289],[-4.400984,55.186198],[-4.400704,55.186101],[-4.400387,55.185998],[-4.400033,55.18589],[-4.399642,55.185776],[-4.399209,55.185741],[-4.398736,55.185786],[-4.398222,55.18591],[-4.397666,55.186114],[-4.397404,55.186284],[-4.397436,55.186419],[-4.397762,55.186521],[-4.398381,55.186589],[-4.398896,55.186683],[-4.399308,55.186805],[-4.399615,55.186954],[-4.399819,55.187129],[-4.399893,55.18731],[-4.399838,55.187495],[-4.399654,55.187686],[-4.39934,55.187882],[-4.399013,55.188014],[-4.398671,55.188084],[-4.398315,55.18809],[-4.397944,55.188033],[-4.397656,55.188107],[-4.39745,55.18831],[-4.397326,55.188643],[-4.397285,55.189106],[-4.397362,55.18951],[-4.397557,55.189856],[-4.397871,55.190143],[-4.398304,55.190372],[-4.398688,55.190511],[-4.399021,55.190562],[-4.399304,55.190525],[-4.399538,55.190398],[-4.399772,55.190296],[-4.400007,55.190219],[-4.400241,55.190167],[-4.400476,55.19014],[-4.400611,55.190319],[-4.400646,55.190703],[-4.400581,55.191293],[-4.400415,55.192089],[-4.400435,55.192744],[-4.400639,55.193258],[-4.401029,55.193631],[-4.401603,55.193863],[-4.402119,55.194032],[-4.402577,55.194139],[-4.402978,55.194182],[-4.403321,55.194162],[-4.403597,55.19408],[-4.403807,55.193936],[-4.403951,55.193731],[-4.404028,55.193463],[-4.404095,55.193166],[-4.404152,55.192841],[-4.404198,55.192487],[-4.404234,55.192105],[-4.404179,55.191762],[-4.404035,55.19146],[-4.4038,55.191199],[-4.403474,55.190978],[-4.403352,55.190763],[-4.403434,55.190554],[-4.403719,55.190352],[-4.404207,55.190156],[-4.404623,55.189928],[-4.404966,55.18967],[-4.405237,55.189379],[-4.405434,55.189058],[-4.405759,55.188821],[-4.406211,55.188669],[-4.40679,55.188602],[-4.407496,55.18862],[-4.408051,55.18868],[-4.408456,55.188782],[-4.40871,55.188927],[-4.408813,55.189114],[-4.408812,55.189279],[-4.408706,55.18942],[-4.408495,55.189539],[-4.408181,55.189636],[-4.407938,55.189858],[-4.407767,55.190206],[-4.407669,55.190681],[-4.407642,55.191281],[-4.407674,55.191776],[-4.407762,55.192164],[-4.407909,55.192445],[-4.408112,55.192621],[-4.408254,55.192794],[-4.408333,55.192964],[-4.40835,55.193131],[-4.408305,55.193296],[-4.408276,55.193503],[-4.408262,55.193754],[-4.408264,55.194047],[-4.408281,55.194384],[-4.408251,55.194686],[-4.408174,55.194954],[-4.408049,55.195188],[-4.407877,55.195387],[-4.407939,55.195509],[-4.408235,55.195554],[-4.408766,55.195523],[-4.409531,55.195414],[-4.410107,55.195362],[-4.410493,55.195367],[-4.410691,55.195429],[-4.410699,55.195548],[-4.41062,55.195786],[-4.410452,55.196144],[-4.410198,55.196621],[-4.409855,55.197219],[-4.409923,55.197694],[-4.410402,55.198047],[-4.41129,55.198277],[-4.412589,55.198386],[-4.413698,55.198501],[-4.414618,55.198624],[-4.415347,55.198753],[-4.415886,55.19889],[-4.416455,55.199033],[-4.417052,55.199183],[-4.417677,55.199339],[-4.418331,55.199503],[-4.419013,55.199598],[-4.419723,55.199625],[-4.42046,55.199584],[-4.421226,55.199476],[-4.421903,55.199293],[-4.422491,55.199035],[-4.422991,55.198703],[-4.423403,55.198297],[-4.423667,55.197893],[-4.423783,55.197491],[-4.423751,55.197091],[-4.423571,55.196694],[-4.423519,55.196431],[-4.423595,55.196303],[-4.423798,55.196309],[-4.42413,55.19645],[-4.424458,55.196462],[-4.424782,55.196344],[-4.425104,55.196098],[-4.425422,55.195722],[-4.425674,55.19536],[-4.425861,55.195009],[-4.425983,55.194671],[-4.42604,55.194346],[-4.426167,55.194072],[-4.426366,55.19385],[-4.426636,55.193679],[-4.426978,55.19356],[-4.427209,55.193379],[-4.427331,55.193136],[-4.427342,55.192831],[-4.427243,55.192464],[-4.427372,55.192145],[-4.427728,55.191875],[-4.428312,55.191653],[-4.429123,55.191479],[-4.429702,55.191292],[-4.430049,55.191092],[-4.430164,55.19088],[-4.430047,55.190654],[-4.429991,55.190477],[-4.429996,55.190347],[-4.430063,55.190264],[-4.43019,55.19023],[-4.430312,55.190156],[-4.430428,55.190043],[-4.430538,55.18989],[-4.430644,55.189699],[-4.430764,55.18955],[-4.430901,55.189445],[-4.431053,55.189382],[-4.431221,55.189363],[-4.431395,55.189313],[-4.431575,55.189232],[-4.431762,55.189121],[-4.431955,55.188979],[-4.432172,55.188829],[-4.432412,55.188672],[-4.432675,55.188507],[-4.432962,55.188334],[-4.433283,55.188182],[-4.433638,55.188052],[-4.434026,55.187942],[-4.434449,55.187853],[-4.43492,55.187803],[-4.435441,55.187792],[-4.436011,55.187821],[-4.43663,55.187888],[-4.437148,55.187893],[-4.437564,55.187835],[-4.437878,55.187714],[-4.438091,55.18753],[-4.438312,55.187369],[-4.438543,55.187233],[-4.438782,55.187121],[-4.439029,55.187032],[-4.439383,55.186946],[-4.439842,55.186863],[-4.440407,55.186782],[-4.441078,55.186704],[-4.441558,55.186723],[-4.441845,55.186839],[-4.44194,55.187053],[-4.441843,55.187363],[-4.441795,55.187637],[-4.441794,55.187876],[-4.441842,55.18808],[-4.441938,55.188248],[-4.442123,55.188371],[-4.442396,55.188448],[-4.442758,55.188481],[-4.443208,55.188469],[-4.44364,55.188573],[-4.444053,55.188794],[-4.444447,55.189131],[-4.444823,55.189586],[-4.445228,55.189882],[-4.445664,55.190021],[-4.446129,55.190002],[-4.446624,55.189825],[-4.447049,55.189646],[-4.447403,55.189465],[-4.447686,55.189283],[-4.447899,55.189099],[-4.448151,55.18888],[-4.448444,55.188627],[-4.448776,55.188339],[-4.449148,55.188017],[-4.449519,55.187715],[-4.449888,55.187433],[-4.450256,55.187171],[-4.450623,55.18693],[-4.451005,55.186706],[-4.451402,55.186501],[-4.451815,55.186313],[-4.452243,55.186144],[-4.452624,55.18599],[-4.452958,55.185852],[-4.453245,55.185728],[-4.453486,55.185621],[-4.453778,55.185557],[-4.45412,55.185537],[-4.454514,55.185561],[-4.454958,55.185629],[-4.455326,55.185726],[-4.455616,55.185851],[-4.45583,55.186005],[-4.455967,55.186189],[-4.456099,55.186407],[-4.456227,55.186661],[-4.45635,55.186951],[-4.456469,55.187276],[-4.456625,55.187561],[-4.45682,55.187808],[-4.457053,55.188014],[-4.457324,55.188182],[-4.45763,55.188396],[-4.457969,55.188655],[-4.458343,55.18896],[-4.458751,55.189311],[-4.459202,55.189587],[-4.459695,55.189789],[-4.460231,55.189916],[-4.46081,55.189968],[-4.461331,55.189932],[-4.461793,55.189809],[-4.462197,55.189597],[-4.462542,55.189298],[-4.46285,55.189158],[-4.463119,55.189176],[-4.46335,55.189354],[-4.463542,55.18969],[-4.463823,55.189906],[-4.46419,55.190003],[-4.464645,55.18998],[-4.465188,55.189837],[-4.465572,55.189668],[-4.465798,55.189472],[-4.465866,55.18925],[-4.465775,55.189002],[-4.465772,55.188803],[-4.465858,55.188653],[-4.466031,55.188553],[-4.466293,55.188503],[-4.466612,55.188491],[-4.466989,55.188517],[-4.467423,55.188581],[-4.467915,55.188683],[-4.468221,55.188657],[-4.46834,55.188504],[-4.468272,55.188223],[-4.468018,55.187814],[-4.467911,55.187498],[-4.467951,55.187274],[-4.46814,55.187143],[-4.468475,55.187104],[-4.469051,55.186932],[-4.469867,55.186628],[-4.470923,55.186191],[-4.472219,55.185622],[-4.47329,55.185129],[-4.474134,55.184712],[-4.474753,55.184371],[-4.475146,55.184106],[-4.475504,55.183985],[-4.475827,55.184007],[-4.476115,55.184172],[-4.476368,55.184482],[-4.476687,55.184853],[-4.477073,55.185286],[-4.477525,55.185781],[-4.478043,55.186338],[-4.478441,55.186875],[-4.478717,55.18739],[-4.478871,55.187885],[-4.478905,55.188359],[-4.478906,55.188817],[-4.478875,55.189259],[-4.478812,55.189685],[-4.478717,55.190094],[-4.478613,55.190505],[-4.478501,55.190916],[-4.478381,55.191329],[-4.478252,55.191742],[-4.478258,55.19207],[-4.4784,55.192312],[-4.478676,55.192469],[-4.479087,55.192541],[-4.479389,55.192675],[-4.479584,55.192872],[-4.47967,55.193131],[-4.479647,55.193452],[-4.479676,55.193722],[-4.479757,55.193942],[-4.479888,55.194111],[-4.480072,55.194229],[-4.480229,55.19435],[-4.480362,55.194474],[-4.48047,55.194601],[-4.480552,55.194731],[-4.480687,55.194884],[-4.480875,55.195062],[-4.481114,55.195263],[-4.481407,55.195488],[-4.481656,55.195643],[-4.481862,55.195729],[-4.482025,55.195745],[-4.482146,55.195691],[-4.482286,55.195644],[-4.482447,55.195606],[-4.482628,55.195575],[-4.48283,55.195551],[-4.483199,55.195389],[-4.483736,55.195087],[-4.484441,55.194646],[-4.485313,55.194067],[-4.486161,55.193659],[-4.486985,55.193424],[-4.487784,55.19336],[-4.488559,55.193469],[-4.489107,55.19358],[-4.489428,55.193692],[-4.489522,55.193805],[-4.489389,55.19392],[-4.489455,55.194052],[-4.489719,55.194201],[-4.490182,55.194366],[-4.490843,55.194548],[-4.49132,55.194726],[-4.491611,55.194901],[-4.491718,55.195073],[-4.49164,55.195242],[-4.49163,55.195382],[-4.491689,55.195495],[-4.491816,55.19558],[-4.492012,55.195637],[-4.492364,55.19562],[-4.492874,55.195531],[-4.493541,55.195369],[-4.494364,55.195133],[-4.494948,55.194936],[-4.495292,55.194776],[-4.495396,55.194654],[-4.495261,55.19457],[-4.495234,55.194499],[-4.495318,55.194439],[-4.49551,55.194392],[-4.495812,55.194357],[-4.496084,55.19431],[-4.496325,55.194252],[-4.496536,55.194183],[-4.496716,55.194102],[-4.496999,55.193989],[-4.497383,55.193845],[-4.49787,55.193669],[-4.498459,55.19346],[-4.498924,55.193252],[-4.499268,55.193042],[-4.499488,55.192832],[-4.499586,55.192622],[-4.499612,55.192335],[-4.499567,55.191972],[-4.499449,55.191532],[-4.499261,55.191016],[-4.498741,55.190673],[-4.497892,55.190504],[-4.496712,55.190507],[-4.495202,55.190683],[-4.493986,55.190874],[-4.493065,55.191081],[-4.492438,55.191304],[-4.492105,55.191542],[-4.491701,55.191729],[-4.491225,55.191864],[-4.490679,55.191947],[-4.490061,55.191979],[-4.489563,55.191933],[-4.489184,55.191808],[-4.488926,55.191604],[-4.488788,55.191321],[-4.488712,55.191091],[-4.4887,55.190913],[-4.48875,55.190788],[-4.488863,55.190715],[-4.489026,55.190706],[-4.489239,55.190761],[-4.489501,55.190879],[-4.489813,55.191062],[-4.490096,55.191169],[-4.490352,55.191198],[-4.49058,55.191152],[-4.49078,55.191029],[-4.490921,55.190888],[-4.491003,55.190729],[-4.491026,55.190552],[-4.490989,55.190357],[-4.491042,55.190167],[-4.491184,55.189981],[-4.491415,55.1898],[-4.491735,55.189623],[-4.492102,55.189406],[-4.492515,55.189149],[-4.492975,55.188851],[-4.493481,55.188513],[-4.493873,55.188223],[-4.494152,55.187982],[-4.494317,55.187788],[-4.494369,55.187642],[-4.494391,55.18751],[-4.494382,55.187392],[-4.494344,55.187287],[-4.494275,55.187195],[-4.494123,55.187138],[-4.493888,55.187116],[-4.493569,55.187128],[-4.493166,55.187175],[-4.492819,55.187136],[-4.492528,55.18701],[-4.492294,55.186799],[-4.492115,55.186501],[-4.492073,55.186267],[-4.492168,55.186096],[-4.4924,55.18599],[-4.492769,55.185947],[-4.49313,55.185929],[-4.493483,55.185938],[-4.493828,55.185973],[-4.494165,55.186033],[-4.494392,55.186031],[-4.494508,55.185968],[-4.494515,55.185843],[-4.494412,55.185655],[-4.49439,55.185524],[-4.494449,55.185447],[-4.49459,55.185425],[-4.494812,55.185459],[-4.49501,55.185451],[-4.495184,55.185401],[-4.495334,55.185309],[-4.49546,55.185175],[-4.49549,55.184922],[-4.495424,55.184551],[-4.495263,55.184062],[-4.495006,55.183455],[-4.494837,55.182971],[-4.494758,55.182612],[-4.494768,55.182377],[-4.494868,55.182266],[-4.494943,55.182112],[-4.494994,55.181917],[-4.495021,55.18168],[-4.495023,55.181401],[-4.495005,55.181134],[-4.494964,55.18088],[-4.494902,55.180638],[-4.494818,55.180409],[-4.494772,55.18014],[-4.494764,55.179832],[-4.494795,55.179485],[-4.494863,55.179099],[-4.494967,55.178808],[-4.495105,55.178612],[-4.495278,55.178512],[-4.495487,55.178508],[-4.495632,55.178596],[-4.495716,55.178775],[-4.495736,55.179047],[-4.495694,55.17941],[-4.495703,55.179673],[-4.495762,55.179835],[-4.495873,55.179897],[-4.496033,55.179859],[-4.496168,55.179748],[-4.496276,55.179566],[-4.496358,55.179313],[-4.496414,55.178988],[-4.496537,55.178749],[-4.496726,55.178598],[-4.496982,55.178533],[-4.497305,55.178555],[-4.49763,55.178676],[-4.497955,55.178897],[-4.498282,55.179218],[-4.498611,55.179638],[-4.498873,55.179901],[-4.49907,55.180007],[-4.4992,55.179957],[-4.499264,55.179751],[-4.499419,55.179623],[-4.499664,55.179575],[-4.499998,55.179605],[-4.500423,55.179715],[-4.500911,55.179758],[-4.501462,55.179733],[-4.502076,55.179642],[-4.502752,55.179483],[-4.503319,55.179312],[-4.503777,55.179129],[-4.504125,55.178934],[-4.504364,55.178727],[-4.504589,55.178601],[-4.5048,55.178557],[-4.504997,55.178594],[-4.505181,55.178712],[-4.505461,55.178833],[-4.505839,55.178958],[-4.506315,55.179087],[-4.506888,55.179219],[-4.507382,55.179301],[-4.507796,55.179333],[-4.50813,55.179314],[-4.508384,55.179244],[-4.50857,55.179227],[-4.508688,55.179263],[-4.508738,55.179352],[-4.50872,55.179494],[-4.508776,55.179622],[-4.508905,55.179736],[-4.509108,55.179837],[-4.509385,55.179924],[-4.509632,55.180025],[-4.509849,55.180139],[-4.510035,55.180266],[-4.510192,55.180407],[-4.510381,55.180495],[-4.510604,55.180529],[-4.510859,55.180509],[-4.511147,55.180435],[-4.511427,55.180438],[-4.511701,55.180515],[-4.511967,55.180668],[-4.512225,55.180897],[-4.512525,55.181046],[-4.512866,55.181116],[-4.513247,55.181107],[-4.513669,55.181017],[-4.513972,55.180912],[-4.514155,55.180791],[-4.514218,55.180654],[-4.514162,55.180502],[-4.514222,55.180355],[-4.514398,55.180215],[-4.51469,55.180081],[-4.515098,55.179954],[-4.515379,55.179812],[-4.515531,55.179654],[-4.515555,55.179482],[-4.515452,55.179295],[-4.515433,55.179148],[-4.515498,55.179041],[-4.515649,55.178973],[-4.515883,55.178946],[-4.516224,55.178921],[-4.516671,55.178899],[-4.517223,55.178879],[-4.517882,55.178862],[-4.518411,55.1789],[-4.518813,55.178992],[-4.519085,55.17914],[-4.519229,55.179342],[-4.519425,55.179493],[-4.519672,55.179594],[-4.51997,55.179644],[-4.520319,55.179643],[-4.520607,55.179569],[-4.520834,55.179423],[-4.520998,55.179205],[-4.521102,55.178914],[-4.521264,55.178641],[-4.521485,55.178386],[-4.521766,55.178149],[-4.522105,55.17793],[-4.522402,55.177761],[-4.522655,55.177642],[-4.522866,55.177572],[-4.523034,55.177553],[-4.523256,55.177492],[-4.523534,55.17739],[-4.523866,55.177246],[-4.524253,55.177061],[-4.524718,55.177017],[-4.52526,55.177113],[-4.52588,55.177349],[-4.526578,55.177726],[-4.527013,55.178079],[-4.527186,55.178407],[-4.527097,55.178711],[-4.526745,55.178991],[-4.52649,55.17925],[-4.526332,55.179488],[-4.526271,55.179704],[-4.526308,55.179899],[-4.526676,55.179996],[-4.527375,55.179994],[-4.528405,55.179893],[-4.529766,55.179694],[-4.530785,55.17949],[-4.53146,55.179282],[-4.531793,55.179069],[-4.531783,55.178851],[-4.531864,55.178667],[-4.532037,55.178517],[-4.532301,55.178402],[-4.532656,55.17832],[-4.532951,55.178266],[-4.533185,55.178238],[-4.53336,55.178238],[-4.533475,55.178264],[-4.533873,55.178183],[-4.534556,55.177993],[-4.535523,55.177696],[-4.536773,55.177291],[-4.537811,55.1769],[-4.538635,55.176525],[-4.539246,55.176165],[-4.539644,55.175819],[-4.53978,55.175499],[-4.539655,55.175205],[-4.539268,55.174937],[-4.538619,55.174694],[-4.538047,55.174517],[-4.537551,55.174406],[-4.537132,55.17436],[-4.53679,55.17438],[-4.536513,55.174343],[-4.536304,55.174248],[-4.53616,55.174095],[-4.536083,55.173885],[-4.536121,55.173701],[-4.536273,55.173544],[-4.53654,55.173413],[-4.536921,55.173309],[-4.537262,55.173284],[-4.537562,55.173338],[-4.537821,55.173473],[-4.538039,55.173686],[-4.538258,55.17371],[-4.538477,55.173545],[-4.538697,55.173191],[-4.538917,55.172647],[-4.538873,55.172313],[-4.538566,55.17219],[-4.537994,55.172277],[-4.537159,55.172574],[-4.536466,55.172784],[-4.535917,55.172908],[-4.535511,55.172946],[-4.535248,55.172897],[-4.534591,55.172964],[-4.533539,55.173147],[-4.532092,55.173445],[-4.53025,55.17386],[-4.52871,55.174239],[-4.527472,55.174583],[-4.526536,55.174892],[-4.525901,55.175165],[-4.525328,55.175342],[-4.524815,55.175422],[-4.524363,55.175405],[-4.523971,55.175291],[-4.523478,55.175235],[-4.522883,55.175234],[-4.522187,55.175291],[-4.521389,55.175404],[-4.520674,55.175433],[-4.520041,55.175377],[-4.519491,55.175237],[-4.519024,55.175013],[-4.518388,55.174803],[-4.517582,55.174609],[-4.516607,55.174429],[-4.515462,55.174264],[-4.514407,55.174153],[-4.513442,55.174096],[-4.512567,55.174094],[-4.511781,55.174146],[-4.511006,55.174226],[-4.510242,55.174336],[-4.509488,55.174474],[-4.508744,55.17464],[-4.507998,55.174752],[-4.50725,55.17481],[-4.506499,55.174813],[-4.505745,55.174761],[-4.504972,55.174822],[-4.504178,55.174994],[-4.503364,55.175278],[-4.50253,55.175674],[-4.501806,55.175968],[-4.501194,55.176159],[-4.500693,55.176247],[-4.500303,55.176233],[-4.499912,55.176289],[-4.499521,55.176414],[-4.499129,55.176609],[-4.498736,55.176874],[-4.498396,55.177068],[-4.498109,55.177191],[-4.497875,55.177243],[-4.497693,55.177225],[-4.497663,55.177119],[-4.497784,55.176925],[-4.498058,55.176644],[-4.498482,55.176276],[-4.498799,55.175876],[-4.499008,55.175443],[-4.499109,55.174978],[-4.499102,55.174481],[-4.498978,55.174047],[-4.498738,55.173677],[-4.498381,55.17337],[-4.497907,55.173126],[-4.49744,55.172902],[-4.49698,55.172696],[-4.496527,55.17251],[-4.496081,55.172343],[-4.495817,55.17217],[-4.495734,55.17199],[-4.495832,55.171804],[-4.496111,55.171612],[-4.496141,55.171455],[-4.495921,55.171331],[-4.495451,55.171241],[-4.494731,55.171186],[-4.494123,55.171028],[-4.493625,55.170767],[-4.493239,55.170404],[-4.492963,55.169938],[-4.4926,55.169517],[-4.492148,55.169142],[-4.491607,55.168811],[-4.490978,55.168526],[-4.490408,55.168209],[-4.489896,55.16786],[-4.489442,55.16748],[-4.489046,55.167068],[-4.488726,55.166742],[-4.488481,55.166502],[-4.488311,55.166347],[-4.488216,55.166279],[-4.488159,55.166171],[-4.48814,55.166023],[-4.488159,55.165837],[-4.488217,55.165611],[-4.48835,55.165451],[-4.488561,55.165357],[-4.488847,55.165328],[-4.489211,55.165366],[-4.489549,55.165431],[-4.489863,55.165524],[-4.490152,55.165644],[-4.490416,55.165793],[-4.490641,55.165881],[-4.490826,55.165909],[-4.490971,55.165877],[-4.491078,55.165785],[-4.491226,55.165738],[-4.491418,55.165736],[-4.491652,55.165778],[-4.491929,55.165865],[-4.492147,55.165984],[-4.492307,55.166135],[-4.492409,55.166317],[-4.492452,55.166531],[-4.492738,55.166667],[-4.493266,55.166725],[-4.494037,55.166705],[-4.49505,55.166607],[-4.495859,55.166547],[-4.496463,55.166527],[-4.496863,55.166545],[-4.497059,55.166602],[-4.497275,55.166596],[-4.497513,55.166529],[-4.497771,55.166399],[-4.498051,55.166207],[-4.498324,55.16607],[-4.498592,55.165989],[-4.498853,55.165964],[-4.499109,55.165994],[-4.499487,55.165999],[-4.499987,55.165981],[-4.50061,55.165938],[-4.501355,55.165871],[-4.502112,55.165768],[-4.502883,55.165628],[-4.503667,55.165452],[-4.504463,55.165239],[-4.505012,55.164996],[-4.505314,55.164722],[-4.505368,55.164416],[-4.505175,55.16408],[-4.504951,55.163803],[-4.504696,55.163583],[-4.50441,55.163423],[-4.504093,55.16332],[-4.503679,55.163239],[-4.503167,55.163179],[-4.502559,55.163141],[-4.501853,55.163124],[-4.501293,55.163099],[-4.50088,55.163068],[-4.500612,55.163029],[-4.500491,55.162984],[-4.500349,55.162931],[-4.500187,55.16287],[-4.500004,55.162802],[-4.499802,55.162726],[-4.499583,55.162607],[-4.499349,55.162445],[-4.4991,55.16224],[-4.498834,55.161992],[-4.498324,55.161817],[-4.497571,55.161716],[-4.496573,55.161688],[-4.49533,55.161733],[-4.494355,55.161743],[-4.493646,55.161716],[-4.493203,55.161653],[-4.493027,55.161554],[-4.492554,55.161505],[-4.491785,55.161505],[-4.49072,55.161554],[-4.489357,55.161653],[-4.488229,55.161675],[-4.487335,55.16162],[-4.486675,55.161488],[-4.486248,55.161279],[-4.486093,55.161332],[-4.486208,55.161647],[-4.486594,55.162225],[-4.487251,55.163064],[-4.487573,55.163634],[-4.48756,55.163935],[-4.487213,55.163965],[-4.486531,55.163726],[-4.485937,55.163536],[-4.485431,55.163396],[-4.485014,55.163305],[-4.484684,55.163264],[-4.484442,55.163178],[-4.484289,55.163046],[-4.484225,55.162869],[-4.484249,55.162648],[-4.484078,55.162419],[-4.483712,55.162182],[-4.483151,55.161939],[-4.482395,55.161688],[-4.481859,55.161467],[-4.481544,55.161275],[-4.48145,55.161111],[-4.481576,55.160977],[-4.481473,55.160815],[-4.481141,55.160625],[-4.48058,55.160406],[-4.479791,55.160159],[-4.479147,55.159976],[-4.478648,55.159854],[-4.478295,55.159796],[-4.478086,55.1598],[-4.477772,55.159752],[-4.477351,55.159652],[-4.476823,55.159499],[-4.476189,55.159294],[-4.475706,55.159097],[-4.475374,55.158906],[-4.475193,55.158723],[-4.475164,55.158547],[-4.475058,55.158425],[-4.474876,55.158357],[-4.474617,55.158342],[-4.474282,55.158381],[-4.473994,55.158455],[-4.473754,55.158562],[-4.473561,55.158704],[-4.473416,55.158881],[-4.473196,55.159021],[-4.472902,55.159125],[-4.472533,55.159193],[-4.47209,55.159224],[-4.471818,55.159196],[-4.471716,55.159108],[-4.471784,55.158961],[-4.472023,55.158754],[-4.472173,55.158517],[-4.472233,55.158251],[-4.472204,55.157956],[-4.472085,55.157631],[-4.471866,55.157413],[-4.471545,55.157301],[-4.471124,55.157295],[-4.470601,55.157396],[-4.47017,55.157461],[-4.469832,55.15749],[-4.469585,55.157484],[-4.46943,55.157443],[-4.46938,55.157354],[-4.469435,55.157218],[-4.469596,55.157035],[-4.469861,55.156805],[-4.470146,55.156602],[-4.470449,55.156428],[-4.470771,55.156281],[-4.471112,55.156161],[-4.471355,55.155988],[-4.471499,55.155762],[-4.471546,55.155483],[-4.471495,55.15515],[-4.471552,55.15495],[-4.471719,55.15488],[-4.471995,55.154943],[-4.472381,55.155137],[-4.472735,55.15527],[-4.473059,55.155342],[-4.473351,55.155352],[-4.473612,55.155302],[-4.473928,55.15528],[-4.474297,55.155287],[-4.474721,55.155322],[-4.475199,55.155386],[-4.475487,55.155362],[-4.475586,55.155251],[-4.475496,55.155053],[-4.475217,55.154766],[-4.47498,55.154475],[-4.474784,55.15418],[-4.474631,55.153879],[-4.474519,55.153573],[-4.474373,55.153316],[-4.474192,55.153108],[-4.473977,55.152949],[-4.473727,55.152839],[-4.473645,55.152759],[-4.473732,55.152709],[-4.473987,55.152689],[-4.47441,55.152699],[-4.474744,55.15268],[-4.474988,55.152632],[-4.475143,55.152554],[-4.475209,55.152447],[-4.475177,55.152336],[-4.475048,55.152222],[-4.474822,55.152104],[-4.474498,55.151982],[-4.474104,55.151789],[-4.47364,55.151524],[-4.473107,55.151188],[-4.472504,55.15078],[-4.471884,55.150494],[-4.471247,55.150329],[-4.470593,55.150286],[-4.469922,55.150364],[-4.4693,55.150382],[-4.468725,55.150339],[-4.468198,55.150236],[-4.467719,55.150073],[-4.467312,55.149916],[-4.466978,55.149766],[-4.466716,55.149622],[-4.466526,55.149485],[-4.466286,55.149403],[-4.465997,55.149377],[-4.465659,55.149406],[-4.46527,55.149492],[-4.464846,55.149551],[-4.464387,55.149584],[-4.463892,55.149592],[-4.463361,55.149574],[-4.46282,55.149603],[-4.462271,55.149677],[-4.461712,55.149796],[-4.461143,55.149962],[-4.460654,55.150154],[-4.460243,55.150371],[-4.459912,55.150613],[-4.459661,55.150882],[-4.459353,55.151117],[-4.45899,55.151318],[-4.458571,55.151487],[-4.458096,55.151622],[-4.457671,55.151776],[-4.457297,55.151949],[-4.456974,55.152141],[-4.456702,55.152352],[-4.456458,55.152594],[-4.456243,55.152868],[-4.456057,55.153173],[-4.455901,55.15351],[-4.455518,55.153923],[-4.45491,55.154412],[-4.454076,55.154978],[-4.453017,55.155619],[-4.452063,55.156118],[-4.451214,55.156476],[-4.450471,55.156692],[-4.449834,55.156766],[-4.449282,55.156999],[-4.448813,55.157392],[-4.448429,55.157945],[-4.448129,55.158657],[-4.447708,55.15894],[-4.447165,55.158794],[-4.446501,55.158219],[-4.445716,55.157215],[-4.445019,55.156405],[-4.44441,55.155788],[-4.443889,55.155366],[-4.443456,55.155137],[-4.443125,55.154827],[-4.442895,55.154436],[-4.442766,55.153963],[-4.442739,55.153408],[-4.442698,55.152865],[-4.442645,55.152334],[-4.442578,55.151814],[-4.442497,55.151305]]]}}