{"type":"Feature","properties":{"id":"265755","COMMUNE":"Angus","PROVINCE":"Angus and Dundee City","COUNTRY":"UK","FIREDATE":"2025-04-02 09:54:00","CLASS":"FireSeason","areaHA_geo":21.721},"geometry":{"type":"Polygon","coordinates":[[[-2.945271,56.957913],[-2.945319,56.957882],[-2.945381,56.957858],[-2.945458,56.957842],[-2.945551,56.957835],[-2.945657,56.957835],[-2.94576,56.957851],[-2.945859,56.957883],[-2.945954,56.957932],[-2.946045,56.957997],[-2.946123,56.958015],[-2.946191,56.957984],[-2.946246,56.957906],[-2.94629,56.957779],[-2.946361,56.957528],[-2.946459,56.957153],[-2.946585,56.956653],[-2.946738,56.956028],[-2.946851,56.955534],[-2.946925,56.955171],[-2.946959,56.95494],[-2.946953,56.95484],[-2.946942,56.954618],[-2.946925,56.954276],[-2.946903,56.953811],[-2.946875,56.953226],[-2.946887,56.952785],[-2.94694,56.952488],[-2.947033,56.952335],[-2.947166,56.952327],[-2.947259,56.952273],[-2.947312,56.952172],[-2.947324,56.952025],[-2.947296,56.951832],[-2.947267,56.9516],[-2.947236,56.951331],[-2.947205,56.951022],[-2.947172,56.950676],[-2.947172,56.950318],[-2.947205,56.949949],[-2.94727,56.949569],[-2.947367,56.949177],[-2.947458,56.948844],[-2.947542,56.948567],[-2.94762,56.948349],[-2.947691,56.948188],[-2.947716,56.948058],[-2.947696,56.94796],[-2.947632,56.947892],[-2.947522,56.947855],[-2.947495,56.947813],[-2.947551,56.947765],[-2.94769,56.947711],[-2.947913,56.947652],[-2.948104,56.947578],[-2.948263,56.947491],[-2.948391,56.947389],[-2.948487,56.947274],[-2.94854,56.947174],[-2.94855,56.947091],[-2.948517,56.947024],[-2.948441,56.946974],[-2.948437,56.946906],[-2.948505,56.946823],[-2.948646,56.946722],[-2.948858,56.946606],[-2.949029,56.946496],[-2.949158,56.946393],[-2.949247,56.946297],[-2.949293,56.946207],[-2.949409,56.9461],[-2.949595,56.945976],[-2.949849,56.945834],[-2.950173,56.945674],[-2.950423,56.945519],[-2.9506,56.945369],[-2.950702,56.945223],[-2.950731,56.945083],[-2.950748,56.944957],[-2.950753,56.944845],[-2.950746,56.944747],[-2.950727,56.944664],[-2.950747,56.944582],[-2.950806,56.944499],[-2.950904,56.944416],[-2.95104,56.944334],[-2.951155,56.944252],[-2.951249,56.944171],[-2.951321,56.944091],[-2.951371,56.944012],[-2.951476,56.943915],[-2.951636,56.943801],[-2.95185,56.94367],[-2.952119,56.943521],[-2.9523,56.943403],[-2.952391,56.943317],[-2.952394,56.943263],[-2.952309,56.943239],[-2.95218,56.943248],[-2.95201,56.943289],[-2.951797,56.943362],[-2.951542,56.943467],[-2.951319,56.94356],[-2.951128,56.94364],[-2.950969,56.943707],[-2.950842,56.943762],[-2.950674,56.943781],[-2.950463,56.943762],[-2.95021,56.943706],[-2.949916,56.943614],[-2.949663,56.943606],[-2.949451,56.943683],[-2.949281,56.943844],[-2.949153,56.94409],[-2.94897,56.944273],[-2.948735,56.944392],[-2.948445,56.944447],[-2.948102,56.944439],[-2.947798,56.944487],[-2.947532,56.94459],[-2.947306,56.944749],[-2.947118,56.944964],[-2.94694,56.945173],[-2.946772,56.945375],[-2.946613,56.945571],[-2.946465,56.945761],[-2.946381,56.945902],[-2.946359,56.945994],[-2.946401,56.946038],[-2.946506,56.946033],[-2.946583,56.946044],[-2.946631,56.946071],[-2.946651,56.946114],[-2.946642,56.946173],[-2.9466,56.946221],[-2.946525,56.946257],[-2.946418,56.946283],[-2.946277,56.946297],[-2.946142,56.946321],[-2.946012,56.946355],[-2.945889,56.946399],[-2.945772,56.946453],[-2.945646,56.946539],[-2.945511,56.946656],[-2.945368,56.946804],[-2.945217,56.946983],[-2.9451,56.947061],[-2.945019,56.947037],[-2.944973,56.946912],[-2.944963,56.946685],[-2.94493,56.946443],[-2.944875,56.946186],[-2.944798,56.945915],[-2.944698,56.945628],[-2.944591,56.945417],[-2.944477,56.945283],[-2.944355,56.945225],[-2.944225,56.945243],[-2.944141,56.945373],[-2.944104,56.945616],[-2.944112,56.94597],[-2.944167,56.946436],[-2.94419,56.946785],[-2.944183,56.947016],[-2.944145,56.94713],[-2.944075,56.947126],[-2.944003,56.947051],[-2.943928,56.946905],[-2.943851,56.946688],[-2.94377,56.946399],[-2.943672,56.946179],[-2.943557,56.946029],[-2.943424,56.945948],[-2.943274,56.945937],[-2.943185,56.946015],[-2.943155,56.946182],[-2.943186,56.946439],[-2.943277,56.946785],[-2.94329,56.947047],[-2.943225,56.947226],[-2.943083,56.947321],[-2.942864,56.947332],[-2.942762,56.947369],[-2.942779,56.947431],[-2.942913,56.947518],[-2.943166,56.947631],[-2.943419,56.947721],[-2.94367,56.947788],[-2.943922,56.947833],[-2.944173,56.947856],[-2.944421,56.947907],[-2.944667,56.947986],[-2.944911,56.948092],[-2.945152,56.948227],[-2.94534,56.948348],[-2.945474,56.948454],[-2.945554,56.948545],[-2.94558,56.948622],[-2.945562,56.948695],[-2.945499,56.948765],[-2.945391,56.948832],[-2.945237,56.948895],[-2.945134,56.948959],[-2.945079,56.949026],[-2.945073,56.949094],[-2.945117,56.949164],[-2.945184,56.949218],[-2.945275,56.949257],[-2.94539,56.94928],[-2.945529,56.949287],[-2.945646,56.949323],[-2.945741,56.949388],[-2.945815,56.949481],[-2.945867,56.949603],[-2.945884,56.949827],[-2.945865,56.950152],[-2.945811,56.950578],[-2.945722,56.951107],[-2.94568,56.951538],[-2.945683,56.951871],[-2.945734,56.952108],[-2.94583,56.952246],[-2.945844,56.952587],[-2.945774,56.953129],[-2.945621,56.953873],[-2.945385,56.954819],[-2.945223,56.955572],[-2.945135,56.956132],[-2.945122,56.956499],[-2.945182,56.956673],[-2.945204,56.956822],[-2.945189,56.956946],[-2.945135,56.957044],[-2.945044,56.957117],[-2.944994,56.957217],[-2.944985,56.957345],[-2.945017,56.957501],[-2.94509,56.957684],[-2.945157,56.957814],[-2.945217,56.95789],[-2.945271,56.957913]]]}}