{"type":"Feature","properties":{"id":"265711","COMMUNE":"Skye and Lochalsh","PROVINCE":"Lochaber, Skye & Lochalsh, Arran & Cumbrae and Argyll & Bute","COUNTRY":"UK","FIREDATE":"2025-04-03 11:13:00","CLASS":"FireSeason","areaHA_geo":62.643},"geometry":{"type":"Polygon","coordinates":[[[-6.46635,57.371815],[-6.466648,57.371791],[-6.466923,57.371733],[-6.467177,57.371642],[-6.467409,57.371518],[-6.467579,57.371413],[-6.467689,57.371327],[-6.467737,57.371259],[-6.467725,57.371211],[-6.467688,57.371171],[-6.467627,57.371139],[-6.467542,57.371114],[-6.467432,57.371098],[-6.467322,57.371075],[-6.467211,57.371044],[-6.467098,57.371006],[-6.466985,57.37096],[-6.466866,57.370924],[-6.466743,57.370898],[-6.466614,57.37088],[-6.466481,57.370872],[-6.466371,57.370844],[-6.466284,57.370795],[-6.46622,57.370726],[-6.466179,57.370636],[-6.46611,57.370581],[-6.466013,57.370561],[-6.465887,57.370576],[-6.465733,57.370625],[-6.465622,57.370624],[-6.465552,57.370573],[-6.465525,57.370472],[-6.46554,57.37032],[-6.465569,57.370194],[-6.465612,57.370094],[-6.465669,57.370019],[-6.465739,57.36997],[-6.46582,57.369918],[-6.46591,57.369861],[-6.466011,57.369801],[-6.466121,57.369737],[-6.46623,57.369665],[-6.466337,57.369584],[-6.466443,57.369494],[-6.466547,57.369396],[-6.466636,57.369285],[-6.46671,57.369161],[-6.466769,57.369024],[-6.466812,57.368873],[-6.466851,57.368744],[-6.466885,57.368635],[-6.466915,57.368546],[-6.46694,57.368478],[-6.466972,57.368399],[-6.46701,57.368309],[-6.467055,57.368209],[-6.467107,57.368097],[-6.467124,57.368008],[-6.467108,57.36794],[-6.467057,57.367894],[-6.466972,57.36787],[-6.466873,57.367858],[-6.466761,57.367857],[-6.466636,57.367868],[-6.466498,57.36789],[-6.466349,57.367914],[-6.466188,57.367939],[-6.466017,57.367966],[-6.465835,57.367994],[-6.465749,57.367983],[-6.465758,57.367932],[-6.465863,57.367841],[-6.466064,57.367711],[-6.466206,57.367604],[-6.466289,57.367521],[-6.466314,57.367462],[-6.466279,57.367426],[-6.466193,57.3674],[-6.466055,57.367382],[-6.465866,57.367374],[-6.465625,57.367374],[-6.465419,57.367367],[-6.46525,57.367351],[-6.465116,57.367327],[-6.465017,57.367294],[-6.464871,57.367299],[-6.464677,57.367341],[-6.464434,57.367421],[-6.464143,57.367537],[-6.463913,57.367634],[-6.463744,57.36771],[-6.463634,57.367767],[-6.463586,57.367803],[-6.463541,57.367801],[-6.4635,57.367761],[-6.463462,57.367683],[-6.463429,57.367568],[-6.463408,57.367451],[-6.463401,57.367332],[-6.463407,57.367211],[-6.463426,57.367089],[-6.463392,57.367019],[-6.463304,57.367],[-6.463164,57.367033],[-6.46297,57.367117],[-6.462787,57.367179],[-6.462614,57.367218],[-6.462452,57.367235],[-6.462301,57.367229],[-6.46219,57.367245],[-6.462118,57.367281],[-6.462086,57.367339],[-6.462094,57.367418],[-6.462073,57.36748],[-6.462025,57.367526],[-6.461948,57.367556],[-6.461842,57.367569],[-6.461745,57.367602],[-6.461657,57.367653],[-6.461577,57.367723],[-6.461506,57.367812],[-6.461422,57.367912],[-6.461324,57.368024],[-6.461213,57.368148],[-6.461088,57.368284],[-6.460992,57.3684],[-6.460924,57.368496],[-6.460884,57.368572],[-6.460873,57.368628],[-6.460826,57.368685],[-6.460746,57.368743],[-6.46063,57.368801],[-6.460481,57.36886],[-6.460385,57.36888],[-6.460344,57.36886],[-6.460357,57.368801],[-6.460424,57.368703],[-6.460445,57.368627],[-6.460422,57.368576],[-6.460353,57.368547],[-6.460239,57.368541],[-6.460119,57.368532],[-6.459992,57.368518],[-6.459859,57.3685],[-6.459719,57.368477],[-6.459605,57.368436],[-6.459517,57.368375],[-6.459455,57.368294],[-6.459419,57.368194],[-6.459407,57.368111],[-6.45942,57.368047],[-6.459457,57.368001],[-6.459519,57.367974],[-6.459576,57.36794],[-6.459628,57.367901],[-6.459675,57.367857],[-6.459717,57.367806],[-6.459799,57.367767],[-6.459921,57.367739],[-6.460083,57.367723],[-6.460285,57.367717],[-6.460419,57.367695],[-6.460485,57.367657],[-6.460483,57.367602],[-6.460414,57.367531],[-6.460324,57.367481],[-6.460214,57.367453],[-6.460083,57.367445],[-6.459932,57.36746],[-6.459825,57.367454],[-6.459763,57.36743],[-6.459745,57.367386],[-6.459772,57.367323],[-6.459765,57.36726],[-6.459723,57.367198],[-6.459647,57.367136],[-6.459536,57.367076],[-6.459411,57.367015],[-6.459273,57.366956],[-6.45912,57.366896],[-6.458955,57.366837],[-6.458764,57.366784],[-6.458547,57.366737],[-6.458306,57.366695],[-6.458039,57.366659],[-6.457812,57.36665],[-6.457626,57.366669],[-6.457479,57.366715],[-6.457373,57.366788],[-6.457279,57.366842],[-6.457198,57.366878],[-6.457129,57.366894],[-6.457072,57.366891],[-6.457022,57.366873],[-6.456978,57.366838],[-6.456942,57.366788],[-6.456912,57.366722],[-6.456902,57.366664],[-6.456913,57.366616],[-6.456943,57.366576],[-6.456994,57.366544],[-6.457102,57.366491],[-6.457267,57.366415],[-6.45749,57.366317],[-6.45777,57.366196],[-6.457991,57.366096],[-6.458154,57.366015],[-6.458259,57.365955],[-6.458306,57.365914],[-6.458371,57.365879],[-6.458456,57.365851],[-6.45856,57.365829],[-6.458683,57.365814],[-6.458811,57.365835],[-6.458943,57.365893],[-6.459081,57.365988],[-6.459224,57.366119],[-6.459371,57.366202],[-6.45952,57.366235],[-6.459673,57.36622],[-6.45983,57.366155],[-6.459912,57.36607],[-6.45992,57.365964],[-6.459854,57.365837],[-6.459713,57.365691],[-6.459575,57.365565],[-6.459439,57.365459],[-6.459306,57.365375],[-6.459175,57.365312],[-6.458996,57.365197],[-6.458768,57.365032],[-6.458491,57.364815],[-6.458166,57.364546],[-6.457876,57.364331],[-6.457622,57.364169],[-6.457403,57.364059],[-6.45722,57.364003],[-6.457109,57.363994],[-6.457072,57.364034],[-6.457107,57.364122],[-6.457214,57.364258],[-6.457257,57.364356],[-6.457233,57.364416],[-6.457143,57.364439],[-6.456988,57.364424],[-6.456856,57.364398],[-6.456746,57.364362],[-6.456661,57.364315],[-6.456598,57.364259],[-6.456521,57.364206],[-6.456429,57.364158],[-6.456323,57.364114],[-6.456203,57.364074],[-6.456081,57.364023],[-6.455956,57.363962],[-6.455828,57.363889],[-6.455697,57.363806],[-6.455599,57.363728],[-6.455533,57.363653],[-6.4555,57.363584],[-6.455498,57.363519],[-6.455449,57.363493],[-6.455353,57.363505],[-6.455209,57.363556],[-6.455017,57.363645],[-6.454815,57.363712],[-6.454603,57.363756],[-6.454381,57.363778],[-6.454149,57.363778],[-6.453986,57.363798],[-6.453894,57.36384],[-6.453871,57.363903],[-6.453918,57.363987],[-6.453936,57.364052],[-6.453924,57.364098],[-6.453884,57.364126],[-6.453813,57.364135],[-6.453737,57.364124],[-6.453654,57.364095],[-6.453565,57.364046],[-6.453469,57.363979],[-6.453394,57.3639],[-6.453339,57.363809],[-6.453305,57.363708],[-6.453291,57.363594],[-6.453265,57.363502],[-6.453228,57.363429],[-6.453179,57.363377],[-6.453118,57.363344],[-6.453047,57.36331],[-6.452965,57.363273],[-6.452873,57.363233],[-6.45277,57.363191],[-6.452658,57.363169],[-6.452537,57.363167],[-6.452406,57.363185],[-6.452265,57.363223],[-6.452192,57.363272],[-6.452187,57.363333],[-6.45225,57.363404],[-6.45238,57.363488],[-6.452492,57.363567],[-6.452587,57.363643],[-6.452663,57.363714],[-6.452721,57.363781],[-6.452755,57.363846],[-6.452764,57.363907],[-6.452749,57.363965],[-6.452708,57.36402],[-6.452649,57.364043],[-6.45257,57.364033],[-6.452472,57.36399],[-6.452355,57.363915],[-6.452249,57.363841],[-6.452156,57.363768],[-6.452075,57.363696],[-6.452006,57.363625],[-6.451933,57.363547],[-6.451858,57.363462],[-6.451779,57.363369],[-6.451697,57.36327],[-6.451608,57.363185],[-6.451511,57.363115],[-6.451407,57.36306],[-6.451296,57.363019],[-6.451212,57.363018],[-6.451156,57.363058],[-6.451127,57.363137],[-6.451125,57.363257],[-6.45109,57.363364],[-6.451021,57.363458],[-6.450918,57.363538],[-6.450781,57.363605],[-6.450673,57.363674],[-6.450593,57.363744],[-6.450542,57.363815],[-6.450519,57.363888],[-6.450517,57.363961],[-6.450536,57.364033],[-6.450575,57.364106],[-6.450636,57.364178],[-6.450706,57.364205],[-6.450786,57.364188],[-6.450876,57.364125],[-6.450976,57.364017],[-6.451055,57.363961],[-6.451114,57.363956],[-6.451151,57.364003],[-6.451167,57.364101],[-6.451183,57.364182],[-6.451199,57.364248],[-6.451214,57.364297],[-6.451229,57.36433],[-6.45123,57.364373],[-6.451217,57.364427],[-6.451191,57.364492],[-6.45115,57.364567],[-6.451141,57.364629],[-6.451164,57.364679],[-6.451217,57.364716],[-6.451302,57.36474],[-6.451377,57.364735],[-6.451441,57.364702],[-6.451494,57.364641],[-6.451537,57.36455],[-6.451597,57.364458],[-6.451675,57.364363],[-6.451771,57.364266],[-6.451884,57.364167],[-6.451967,57.36413],[-6.45202,57.364156],[-6.452044,57.364244],[-6.452038,57.364395],[-6.452019,57.364523],[-6.451988,57.364629],[-6.451945,57.364713],[-6.451889,57.364775],[-6.451794,57.364827],[-6.45166,57.364869],[-6.451487,57.364901],[-6.451274,57.364923],[-6.451067,57.364923],[-6.450867,57.364901],[-6.450673,57.364857],[-6.450486,57.364791],[-6.450313,57.364753],[-6.450155,57.364743],[-6.450013,57.364761],[-6.449885,57.364807],[-6.449799,57.364859],[-6.449756,57.364917],[-6.449755,57.364981],[-6.449795,57.365051],[-6.449766,57.365108],[-6.449665,57.365153],[-6.449495,57.365186],[-6.449253,57.365207],[-6.44911,57.365255],[-6.449065,57.36533],[-6.449119,57.365433],[-6.449271,57.365564],[-6.449314,57.365664],[-6.449248,57.365735],[-6.449074,57.365776],[-6.448791,57.365787],[-6.448583,57.365804],[-6.44845,57.365829],[-6.448393,57.36586],[-6.44841,57.365897],[-6.448395,57.365942],[-6.448348,57.365992],[-6.44827,57.36605],[-6.448159,57.366114],[-6.448066,57.366153],[-6.447989,57.366168],[-6.447929,57.366158],[-6.447885,57.366123],[-6.447821,57.36611],[-6.447737,57.366119],[-6.447632,57.366148],[-6.447506,57.366199],[-6.447421,57.366257],[-6.447376,57.366323],[-6.447372,57.366396],[-6.447408,57.366476],[-6.447434,57.366547],[-6.447448,57.366611],[-6.447452,57.366665],[-6.447445,57.366711],[-6.447414,57.366755],[-6.447358,57.366797],[-6.447279,57.366837],[-6.447175,57.366875],[-6.447109,57.366922],[-6.447078,57.366978],[-6.447085,57.367043],[-6.447127,57.367118],[-6.447128,57.367201],[-6.447086,57.367294],[-6.447002,57.367396],[-6.446876,57.367507],[-6.446829,57.367634],[-6.446861,57.367777],[-6.446972,57.367936],[-6.447163,57.368112],[-6.447313,57.368259],[-6.447422,57.368377],[-6.44749,57.368467],[-6.447518,57.368528],[-6.447567,57.368585],[-6.447636,57.368636],[-6.447726,57.368682],[-6.447838,57.368722],[-6.447963,57.368774],[-6.448102,57.368836],[-6.448256,57.368909],[-6.448424,57.368993],[-6.448592,57.369062],[-6.448761,57.369118],[-6.448931,57.36916],[-6.449101,57.369189],[-6.449261,57.369228],[-6.449409,57.369279],[-6.449547,57.369342],[-6.449673,57.369416],[-6.449839,57.369482],[-6.450047,57.369541],[-6.450295,57.369592],[-6.450584,57.369635],[-6.450831,57.369683],[-6.451036,57.369737],[-6.4512,57.369796],[-6.451321,57.369861],[-6.451463,57.369917],[-6.451623,57.369964],[-6.451803,57.370002],[-6.452002,57.370032],[-6.452215,57.370061],[-6.452441,57.37009],[-6.452681,57.370118],[-6.452935,57.370146],[-6.453213,57.37017],[-6.453515,57.370192],[-6.453841,57.37021],[-6.454192,57.370226],[-6.454495,57.370245],[-6.454751,57.370267],[-6.45496,57.370293],[-6.455122,57.370323],[-6.455296,57.370317],[-6.455481,57.370276],[-6.455679,57.3702],[-6.455889,57.370088],[-6.45605,57.370024],[-6.456163,57.370007],[-6.456228,57.370038],[-6.456244,57.370116],[-6.456375,57.370215],[-6.45662,57.370336],[-6.456979,57.370479],[-6.457453,57.370644],[-6.457949,57.370777],[-6.458468,57.370878],[-6.45901,57.370948],[-6.459575,57.370986],[-6.460039,57.371027],[-6.460403,57.371071],[-6.460665,57.371118],[-6.460827,57.371167],[-6.461039,57.371211],[-6.461303,57.37125],[-6.461617,57.371284],[-6.461983,57.371313],[-6.462297,57.37135],[-6.462559,57.371397],[-6.46277,57.371452],[-6.462929,57.371517],[-6.463106,57.371578],[-6.463299,57.371636],[-6.463509,57.371691],[-6.463736,57.371742],[-6.463999,57.371778],[-6.464297,57.3718],[-6.46463,57.371808],[-6.464998,57.371801],[-6.465354,57.371799],[-6.465698,57.3718],[-6.46603,57.371805],[-6.46635,57.371815]]]}}