{"type":"Feature","properties":{"id":"265760","COMMUNE":"Angus","PROVINCE":"Angus and Dundee City","COUNTRY":"UK","FIREDATE":"2025-03-07 13:52:00","FINALDATE":"2025-03-07 14:18:00","CLASS":"FireSeason","areaHA_geo":13.266},"geometry":{"type":"Polygon","coordinates":[[[-2.84523,56.9648],[-2.845212,56.964922],[-2.845272,56.965012],[-2.84541,56.965068],[-2.845627,56.965092],[-2.845813,56.965085],[-2.845967,56.965047],[-2.846089,56.964978],[-2.84618,56.964878],[-2.846228,56.964788],[-2.846234,56.964708],[-2.846197,56.964638],[-2.846118,56.964577],[-2.846099,56.964505],[-2.846142,56.964421],[-2.846244,56.964326],[-2.846408,56.964219],[-2.846545,56.964187],[-2.846656,56.964231],[-2.846741,56.96435],[-2.846799,56.964544],[-2.846839,56.964713],[-2.846859,56.964856],[-2.84686,56.964975],[-2.846842,56.965067],[-2.846816,56.965155],[-2.846781,56.965238],[-2.846739,56.965316],[-2.84669,56.96539],[-2.846634,56.965458],[-2.846572,56.965521],[-2.846504,56.965579],[-2.84643,56.965631],[-2.84639,56.965679],[-2.846384,56.96572],[-2.846411,56.965756],[-2.846471,56.965787],[-2.846495,56.965826],[-2.846483,56.965875],[-2.846434,56.965934],[-2.846349,56.966001],[-2.846282,56.966061],[-2.846233,56.966114],[-2.846203,56.966159],[-2.846191,56.966196],[-2.846188,56.966237],[-2.846194,56.966279],[-2.84621,56.966324],[-2.846234,56.966372],[-2.846277,56.966418],[-2.846338,56.966462],[-2.846418,56.966504],[-2.846515,56.966544],[-2.846599,56.966589],[-2.846671,56.966639],[-2.846729,56.966694],[-2.846775,56.966753],[-2.846829,56.966827],[-2.846893,56.966916],[-2.846967,56.96702],[-2.84705,56.967139],[-2.84715,56.967224],[-2.847267,56.967274],[-2.847401,56.967289],[-2.847553,56.967269],[-2.847631,56.967198],[-2.847635,56.967075],[-2.847564,56.9669],[-2.847419,56.966673],[-2.847275,56.966485],[-2.847132,56.966335],[-2.846989,56.966224],[-2.846847,56.966152],[-2.846814,56.966098],[-2.84689,56.966063],[-2.847074,56.966047],[-2.847368,56.96605],[-2.847612,56.966062],[-2.847807,56.966084],[-2.847953,56.966115],[-2.848051,56.966155],[-2.848198,56.966208],[-2.848396,56.966272],[-2.848643,56.966349],[-2.848941,56.966438],[-2.849138,56.966482],[-2.849234,56.966482],[-2.849228,56.966437],[-2.849123,56.966347],[-2.849069,56.966251],[-2.849067,56.966149],[-2.849117,56.966041],[-2.84922,56.965926],[-2.849268,56.965823],[-2.849262,56.965733],[-2.849201,56.965655],[-2.849087,56.965589],[-2.848971,56.965536],[-2.848853,56.965498],[-2.848734,56.965473],[-2.848614,56.965463],[-2.848518,56.965433],[-2.848447,56.965386],[-2.848402,56.96532],[-2.848381,56.965236],[-2.84847,56.965161],[-2.848669,56.965096],[-2.848977,56.96504],[-2.849396,56.964994],[-2.849631,56.964925],[-2.849683,56.964833],[-2.849551,56.964719],[-2.849237,56.964582],[-2.848966,56.964454],[-2.848737,56.964336],[-2.848552,56.964227],[-2.848409,56.964127],[-2.848317,56.964084],[-2.848275,56.964097],[-2.848285,56.964167],[-2.848345,56.964293],[-2.848375,56.9644],[-2.848377,56.964489],[-2.848348,56.964559],[-2.848291,56.96461],[-2.84823,56.964622],[-2.848166,56.964594],[-2.8481,56.964526],[-2.848029,56.96442],[-2.847982,56.96432],[-2.847959,56.964227],[-2.847958,56.96414],[-2.847981,56.964061],[-2.848028,56.96399],[-2.848098,56.963928],[-2.848193,56.963876],[-2.848311,56.963832],[-2.848403,56.96377],[-2.848466,56.963688],[-2.848503,56.963588],[-2.848512,56.963469],[-2.848486,56.963346],[-2.848426,56.96322],[-2.848332,56.963091],[-2.848203,56.962958],[-2.848142,56.962841],[-2.848149,56.962741],[-2.848224,56.962656],[-2.848367,56.962587],[-2.848486,56.96255],[-2.84858,56.962545],[-2.84865,56.962573],[-2.848695,56.962632],[-2.84875,56.962706],[-2.848814,56.962795],[-2.848888,56.962899],[-2.84897,56.963018],[-2.849058,56.963104],[-2.849151,56.963156],[-2.84925,56.963175],[-2.849353,56.96316],[-2.849447,56.963167],[-2.849532,56.963195],[-2.849607,56.963244],[-2.849673,56.963315],[-2.849739,56.963353],[-2.849803,56.963358],[-2.849866,56.96333],[-2.849929,56.963269],[-2.849997,56.963218],[-2.85007,56.963177],[-2.850149,56.963145],[-2.850233,56.963123],[-2.850292,56.963094],[-2.850326,56.963059],[-2.850335,56.963017],[-2.850318,56.962969],[-2.850322,56.962931],[-2.850346,56.962904],[-2.85039,56.962887],[-2.850455,56.96288],[-2.850493,56.962858],[-2.850505,56.962821],[-2.850491,56.962768],[-2.85045,56.962699],[-2.850452,56.962647],[-2.850494,56.962614],[-2.850578,56.962597],[-2.850704,56.962599],[-2.850795,56.962578],[-2.850851,56.962536],[-2.850873,56.962473],[-2.850861,56.962387],[-2.850828,56.962328],[-2.850775,56.962295],[-2.850701,56.962287],[-2.850607,56.962306],[-2.850523,56.962314],[-2.850447,56.962312],[-2.85038,56.962301],[-2.850323,56.962279],[-2.850255,56.962265],[-2.850178,56.962259],[-2.850091,56.962261],[-2.849994,56.962271],[-2.84991,56.962274],[-2.849837,56.962269],[-2.849777,56.962258],[-2.849729,56.96224],[-2.849672,56.962219],[-2.849605,56.962194],[-2.849528,56.962165],[-2.849442,56.962132],[-2.849378,56.962093],[-2.849337,56.962047],[-2.849319,56.961994],[-2.849324,56.961935],[-2.849359,56.961861],[-2.849424,56.961772],[-2.84952,56.96167],[-2.849647,56.961552],[-2.849718,56.961449],[-2.849733,56.961359],[-2.849692,56.961282],[-2.849595,56.961219],[-2.849481,56.961162],[-2.849351,56.961111],[-2.849204,56.961066],[-2.849041,56.961028],[-2.848894,56.960989],[-2.848764,56.96095],[-2.84865,56.96091],[-2.848552,56.960869],[-2.848509,56.960804],[-2.84852,56.960715],[-2.848585,56.9606],[-2.848704,56.960461],[-2.848783,56.96034],[-2.848824,56.960239],[-2.848824,56.960156],[-2.848785,56.960091],[-2.848775,56.960019],[-2.848794,56.95994],[-2.848841,56.959854],[-2.848917,56.95976],[-2.849038,56.959666],[-2.849201,56.959572],[-2.849409,56.959479],[-2.849661,56.959386],[-2.849894,56.959281],[-2.850108,56.959164],[-2.850304,56.959035],[-2.850481,56.958895],[-2.850614,56.958766],[-2.850703,56.958648],[-2.850747,56.958541],[-2.850748,56.958445],[-2.850662,56.958389],[-2.850489,56.958372],[-2.85023,56.958394],[-2.849884,56.958456],[-2.849634,56.95853],[-2.849479,56.958615],[-2.849421,56.958713],[-2.849459,56.958823],[-2.84946,56.958916],[-2.849424,56.958993],[-2.84935,56.959052],[-2.84924,56.959095],[-2.849064,56.959154],[-2.848822,56.959228],[-2.848515,56.959317],[-2.848142,56.959422],[-2.847821,56.959538],[-2.847552,56.959665],[-2.847334,56.959803],[-2.847168,56.959951],[-2.847046,56.960088],[-2.846969,56.960214],[-2.846935,56.960329],[-2.846946,56.960433],[-2.847011,56.960502],[-2.847132,56.960538],[-2.847308,56.96054],[-2.847539,56.960508],[-2.847723,56.960497],[-2.84786,56.960506],[-2.847949,56.960536],[-2.847992,56.960586],[-2.847982,56.960644],[-2.847921,56.960709],[-2.847809,56.960782],[-2.847644,56.960862],[-2.847485,56.960934],[-2.847333,56.960999],[-2.847186,56.961057],[-2.847044,56.961108],[-2.846927,56.961168],[-2.846835,56.961239],[-2.846767,56.961319],[-2.846723,56.96141],[-2.846694,56.961496],[-2.84668,56.961577],[-2.846681,56.961653],[-2.846697,56.961724],[-2.846684,56.961789],[-2.846642,56.961848],[-2.84657,56.961901],[-2.846469,56.961947],[-2.846379,56.962048],[-2.846299,56.962204],[-2.846229,56.962414],[-2.84617,56.96268],[-2.846086,56.962888],[-2.845975,56.96304],[-2.845839,56.963136],[-2.845677,56.963174],[-2.845564,56.963241],[-2.845501,56.963336],[-2.845487,56.963459],[-2.845522,56.963611],[-2.845542,56.96376],[-2.845547,56.963907],[-2.845537,56.964053],[-2.845511,56.964196],[-2.845468,56.964343],[-2.845406,56.964492],[-2.845327,56.964644],[-2.84523,56.9648]]]}}