{"type":"Feature","properties":{"id":"265752","COMMUNE":"Angus","PROVINCE":"Angus and Dundee City","COUNTRY":"UK","FIREDATE":"2025-04-01 13:08:00","FINALDATE":"2025-04-01 13:57:00","CLASS":"FireSeason","areaHA_geo":0.993},"geometry":{"type":"Polygon","coordinates":[[[-2.84896,56.946969],[-2.849153,56.94717],[-2.849317,56.947283],[-2.849454,56.947309],[-2.849563,56.947247],[-2.84967,56.947192],[-2.849775,56.947144],[-2.849877,56.947102],[-2.849976,56.947067],[-2.850051,56.94704],[-2.850101,56.947023],[-2.850126,56.947014],[-2.850126,56.947014],[-2.850043,56.946942],[-2.849877,56.946798],[-2.849628,56.946583],[-2.849297,56.946296],[-2.84899,56.94606],[-2.848707,56.945875],[-2.848449,56.94574],[-2.848216,56.945657],[-2.848031,56.945621],[-2.847895,56.945632],[-2.847808,56.94569],[-2.847769,56.945795],[-2.847784,56.945893],[-2.847853,56.945982],[-2.847974,56.946064],[-2.848148,56.946138],[-2.848334,56.946266],[-2.848531,56.946447],[-2.84874,56.946681],[-2.84896,56.946969]]]}}