{"type":"Feature","properties":{"id":"265728","COMMUNE":"Angus","PROVINCE":"Angus and Dundee City","COUNTRY":"UK","FIREDATE":"2025-04-01 10:51:00","CLASS":"FireSeason","areaHA_geo":23.251},"geometry":{"type":"Polygon","coordinates":[[[-2.901958,56.916022],[-2.902086,56.916004],[-2.902142,56.915945],[-2.902128,56.915844],[-2.902041,56.915701],[-2.901958,56.915581],[-2.901878,56.915483],[-2.901801,56.915407],[-2.901727,56.915354],[-2.90166,56.915289],[-2.9016,56.915213],[-2.901547,56.915125],[-2.9015,56.915025],[-2.901432,56.914922],[-2.901343,56.914815],[-2.901232,56.914704],[-2.9011,56.914589],[-2.900977,56.9145],[-2.900862,56.914435],[-2.900756,56.914396],[-2.900659,56.914382],[-2.900597,56.914346],[-2.90057,56.914286],[-2.900579,56.914204],[-2.900622,56.914098],[-2.900637,56.913998],[-2.900622,56.913902],[-2.900578,56.91381],[-2.900505,56.913723],[-2.900411,56.913647],[-2.900296,56.913581],[-2.90016,56.913526],[-2.900003,56.913481],[-2.899835,56.913424],[-2.899658,56.913356],[-2.89947,56.913276],[-2.899272,56.913185],[-2.899053,56.913119],[-2.898814,56.913077],[-2.898554,56.91306],[-2.898273,56.913068],[-2.898042,56.913072],[-2.89786,56.913074],[-2.897729,56.913072],[-2.897647,56.913066],[-2.897575,56.913055],[-2.897514,56.913037],[-2.897462,56.913014],[-2.897421,56.912984],[-2.897402,56.912943],[-2.897405,56.912888],[-2.89743,56.912822],[-2.897477,56.912743],[-2.897489,56.912676],[-2.897466,56.912619],[-2.897409,56.912574],[-2.897317,56.912539],[-2.897237,56.912508],[-2.897169,56.912481],[-2.897114,56.912458],[-2.89707,56.912439],[-2.897079,56.912424],[-2.897139,56.912413],[-2.897253,56.912406],[-2.897418,56.912403],[-2.89757,56.912419],[-2.897708,56.912454],[-2.897833,56.912508],[-2.897945,56.912581],[-2.898041,56.912623],[-2.898122,56.912635],[-2.898188,56.912617],[-2.898239,56.912568],[-2.898236,56.91251],[-2.898179,56.912444],[-2.898069,56.912368],[-2.897904,56.912284],[-2.897727,56.912217],[-2.897538,56.912169],[-2.897336,56.912138],[-2.897122,56.912126],[-2.896957,56.91213],[-2.896841,56.91215],[-2.896773,56.912186],[-2.896754,56.912239],[-2.896708,56.912262],[-2.896635,56.912255],[-2.896535,56.91222],[-2.896408,56.912155],[-2.896276,56.912098],[-2.896138,56.912048],[-2.895996,56.912005],[-2.895848,56.911969],[-2.895731,56.911931],[-2.895647,56.911891],[-2.895593,56.911848],[-2.895572,56.911803],[-2.895541,56.911754],[-2.895501,56.911701],[-2.895452,56.911643],[-2.895394,56.911582],[-2.895304,56.911531],[-2.895182,56.911491],[-2.895029,56.911462],[-2.894844,56.911443],[-2.894769,56.911423],[-2.894804,56.911401],[-2.89495,56.911377],[-2.895206,56.911352],[-2.89539,56.911312],[-2.8955,56.911257],[-2.895538,56.911187],[-2.895503,56.911103],[-2.895446,56.911031],[-2.895366,56.91097],[-2.895264,56.91092],[-2.89514,56.910882],[-2.895022,56.910862],[-2.894911,56.91086],[-2.894805,56.910875],[-2.894706,56.910909],[-2.894617,56.910934],[-2.894539,56.91095],[-2.894473,56.910957],[-2.894417,56.910956],[-2.894385,56.910934],[-2.894376,56.910891],[-2.894391,56.910827],[-2.89443,56.910743],[-2.894441,56.910668],[-2.894424,56.910602],[-2.89438,56.910546],[-2.894309,56.910499],[-2.89421,56.910464],[-2.894085,56.910439],[-2.893932,56.910426],[-2.893752,56.910423],[-2.893556,56.910431],[-2.893344,56.910449],[-2.893114,56.910477],[-2.892869,56.910515],[-2.892563,56.910548],[-2.892196,56.910576],[-2.89177,56.910599],[-2.891283,56.910617],[-2.89086,56.910643],[-2.890502,56.910675],[-2.890207,56.910714],[-2.889977,56.910761],[-2.889773,56.910783],[-2.889596,56.91078],[-2.889447,56.910753],[-2.889324,56.910701],[-2.889199,56.910664],[-2.889071,56.910642],[-2.88894,56.910634],[-2.888807,56.91064],[-2.888682,56.910662],[-2.888565,56.910699],[-2.888457,56.910751],[-2.888357,56.910818],[-2.888344,56.910911],[-2.888419,56.91103],[-2.888581,56.911174],[-2.888831,56.911344],[-2.889017,56.911487],[-2.88914,56.911603],[-2.8892,56.911691],[-2.889196,56.911752],[-2.889216,56.91181],[-2.88926,56.911864],[-2.889327,56.911916],[-2.889417,56.911964],[-2.88952,56.912016],[-2.889635,56.912072],[-2.889761,56.912131],[-2.8899,56.912195],[-2.890006,56.912254],[-2.890077,56.912309],[-2.890115,56.91236],[-2.890118,56.912407],[-2.890143,56.912455],[-2.890187,56.912504],[-2.890253,56.912555],[-2.890338,56.912607],[-2.890429,56.912643],[-2.890526,56.912664],[-2.890628,56.912669],[-2.890735,56.912658],[-2.890836,56.912673],[-2.890929,56.912712],[-2.891016,56.912777],[-2.891096,56.912866],[-2.891181,56.912932],[-2.891269,56.912973],[-2.891361,56.912991],[-2.891458,56.912985],[-2.891568,56.913018],[-2.891692,56.913092],[-2.89183,56.913205],[-2.891981,56.913358],[-2.892111,56.913457],[-2.892219,56.913502],[-2.892305,56.913493],[-2.892369,56.913429],[-2.892458,56.91337],[-2.892572,56.913317],[-2.892711,56.913269],[-2.892875,56.913225],[-2.893029,56.913219],[-2.893172,56.913251],[-2.893305,56.913319],[-2.893428,56.913424],[-2.893542,56.913514],[-2.893647,56.913588],[-2.893744,56.913645],[-2.893833,56.913687],[-2.893914,56.91374],[-2.893989,56.913805],[-2.894057,56.913881],[-2.894118,56.91397],[-2.89419,56.914036],[-2.894273,56.914079],[-2.894367,56.914101],[-2.894471,56.914101],[-2.89454,56.914117],[-2.894573,56.914149],[-2.894569,56.914197],[-2.89453,56.914262],[-2.89452,56.914348],[-2.894539,56.914457],[-2.894587,56.914589],[-2.894665,56.914743],[-2.894737,56.914862],[-2.894803,56.914946],[-2.894863,56.914995],[-2.894917,56.91501],[-2.89498,56.915063],[-2.895052,56.915153],[-2.895131,56.915281],[-2.895219,56.915448],[-2.895317,56.9156],[-2.895423,56.915739],[-2.895539,56.915865],[-2.895664,56.915977],[-2.895776,56.916048],[-2.895876,56.916078],[-2.895963,56.916068],[-2.896038,56.916017],[-2.896109,56.915973],[-2.896177,56.915936],[-2.89624,56.915906],[-2.8963,56.915883],[-2.896382,56.915878],[-2.896485,56.915892],[-2.89661,56.915923],[-2.896756,56.915972],[-2.896864,56.915993],[-2.896932,56.915984],[-2.89696,56.915947],[-2.89695,56.915881],[-2.896969,56.915825],[-2.897018,56.91578],[-2.897097,56.915745],[-2.897206,56.915721],[-2.897338,56.915702],[-2.897494,56.91569],[-2.897674,56.915684],[-2.897877,56.915684],[-2.89803,56.915666],[-2.898132,56.915631],[-2.898183,56.915578],[-2.898183,56.915507],[-2.898207,56.915464],[-2.898254,56.91545],[-2.898325,56.915463],[-2.898419,56.915504],[-2.89854,56.915536],[-2.898687,56.91556],[-2.89886,56.915576],[-2.89906,56.915583],[-2.899226,56.915596],[-2.899359,56.915614],[-2.899459,56.915639],[-2.899525,56.915669],[-2.899596,56.915694],[-2.899674,56.915713],[-2.899757,56.915727],[-2.899846,56.915735],[-2.899932,56.915737],[-2.900014,56.915734],[-2.900093,56.915725],[-2.900168,56.915711],[-2.900257,56.915715],[-2.90036,56.915737],[-2.900477,56.915776],[-2.900608,56.915834],[-2.900733,56.915871],[-2.900853,56.915888],[-2.900967,56.915884],[-2.901076,56.91586],[-2.901171,56.91585],[-2.901253,56.915855],[-2.901322,56.915875],[-2.901377,56.91591],[-2.901468,56.915942],[-2.901595,56.915972],[-2.901759,56.915998],[-2.901958,56.916022]]]}}