{"type":"Feature","properties":{"id":"265891","COMMUNE":"Skye and Lochalsh","PROVINCE":"Lochaber, Skye & Lochalsh, Arran & Cumbrae and Argyll & Bute","COUNTRY":"UK","FIREDATE":"2025-03-07 15:15:43.869","CLASS":"FireSeason","areaHA_geo":55.928},"geometry":{"type":"Polygon","coordinates":[[[-6.130235,57.322478],[-6.130342,57.322611],[-6.130496,57.322576],[-6.130697,57.322373],[-6.130945,57.322001],[-6.13123,57.321698],[-6.131554,57.321463],[-6.131915,57.321297],[-6.132314,57.3212],[-6.132695,57.321139],[-6.13306,57.321114],[-6.133407,57.321124],[-6.133736,57.32117],[-6.133999,57.321231],[-6.134194,57.321306],[-6.134321,57.321395],[-6.134382,57.321498],[-6.134392,57.32163],[-6.134352,57.32179],[-6.134262,57.321977],[-6.134121,57.322193],[-6.133987,57.322406],[-6.133859,57.322616],[-6.133737,57.322823],[-6.133622,57.323028],[-6.13353,57.323204],[-6.133462,57.323351],[-6.133419,57.32347],[-6.1334,57.323559],[-6.133418,57.32365],[-6.133473,57.323742],[-6.133566,57.323836],[-6.133696,57.323931],[-6.133735,57.324053],[-6.133683,57.324202],[-6.13354,57.324378],[-6.133306,57.324582],[-6.133164,57.324752],[-6.133114,57.324889],[-6.133157,57.324993],[-6.133291,57.325064],[-6.133445,57.325072],[-6.133621,57.325019],[-6.133816,57.324903],[-6.134032,57.324726],[-6.134219,57.324548],[-6.134376,57.32437],[-6.134503,57.324191],[-6.134601,57.324013],[-6.134641,57.323845],[-6.134624,57.323689],[-6.134548,57.323543],[-6.134416,57.323409],[-6.134333,57.323297],[-6.1343,57.323206],[-6.134317,57.323136],[-6.134384,57.323088],[-6.134521,57.322974],[-6.134729,57.322793],[-6.135007,57.322547],[-6.135354,57.322234],[-6.135655,57.321965],[-6.135909,57.321739],[-6.136115,57.321556],[-6.136275,57.321418],[-6.136452,57.321269],[-6.136647,57.32111],[-6.136859,57.320941],[-6.137089,57.320761],[-6.137309,57.320583],[-6.137518,57.320407],[-6.137717,57.320231],[-6.137905,57.320057],[-6.138085,57.31989],[-6.138257,57.31973],[-6.138421,57.319577],[-6.138578,57.319431],[-6.138779,57.319328],[-6.139026,57.31927],[-6.139317,57.319255],[-6.139654,57.319285],[-6.139929,57.319274],[-6.140143,57.319224],[-6.140294,57.319134],[-6.140384,57.319004],[-6.140512,57.318869],[-6.140679,57.318729],[-6.140884,57.318585],[-6.141127,57.318436],[-6.141331,57.318263],[-6.141495,57.318069],[-6.14162,57.317851],[-6.141705,57.31761],[-6.14182,57.317445],[-6.141964,57.317356],[-6.142138,57.317342],[-6.142342,57.317404],[-6.142542,57.317415],[-6.142738,57.317375],[-6.14293,57.317284],[-6.143117,57.317141],[-6.143231,57.316998],[-6.14327,57.316855],[-6.143236,57.31671],[-6.143128,57.316565],[-6.143062,57.316425],[-6.143039,57.316289],[-6.143058,57.316157],[-6.14312,57.316031],[-6.143153,57.315914],[-6.143157,57.315806],[-6.143132,57.315708],[-6.143078,57.31562],[-6.142998,57.31553],[-6.142892,57.315441],[-6.14276,57.31535],[-6.142602,57.315259],[-6.142437,57.315152],[-6.142266,57.315031],[-6.142088,57.314894],[-6.141903,57.314743],[-6.141711,57.3146],[-6.141512,57.314466],[-6.141306,57.314341],[-6.141093,57.314225],[-6.140965,57.314086],[-6.140924,57.313925],[-6.140968,57.313741],[-6.141097,57.313535],[-6.141121,57.313379],[-6.141038,57.313274],[-6.140848,57.313221],[-6.140552,57.313218],[-6.140304,57.313179],[-6.140102,57.313105],[-6.139947,57.312996],[-6.139838,57.312851],[-6.139621,57.312808],[-6.139294,57.312869],[-6.138859,57.313032],[-6.138314,57.313298],[-6.137858,57.313509],[-6.137493,57.313665],[-6.137218,57.313767],[-6.137033,57.313814],[-6.136822,57.313888],[-6.136587,57.313988],[-6.136327,57.314116],[-6.136042,57.31427],[-6.135679,57.314482],[-6.135238,57.314751],[-6.134719,57.315077],[-6.134123,57.31546],[-6.133518,57.315799],[-6.132905,57.316093],[-6.132283,57.316343],[-6.131652,57.316548],[-6.130993,57.316716],[-6.130307,57.316844],[-6.129592,57.316935],[-6.12885,57.316988],[-6.128284,57.317074],[-6.127896,57.317194],[-6.127683,57.317347],[-6.127648,57.317534],[-6.127646,57.317762],[-6.127676,57.318032],[-6.12774,57.318343],[-6.127837,57.318696],[-6.127932,57.319011],[-6.128025,57.319289],[-6.128116,57.319529],[-6.128206,57.319732],[-6.128351,57.319918],[-6.128551,57.320088],[-6.128806,57.32024],[-6.129116,57.320376],[-6.12934,57.320533],[-6.129477,57.32071],[-6.129527,57.320908],[-6.129491,57.321127],[-6.129505,57.321307],[-6.129568,57.32145],[-6.129681,57.321555],[-6.129843,57.321622],[-6.129979,57.321748],[-6.13009,57.321933],[-6.130175,57.322176],[-6.130235,57.322478]]]}}