{"type":"Feature","properties":{"id":"265844","COMMUNE":"Angus","PROVINCE":"Angus and Dundee City","COUNTRY":"UK","FIREDATE":"2025-03-18 12:55:00","CLASS":"FireSeason","areaHA_geo":18.244},"geometry":{"type":"Polygon","coordinates":[[[-2.944295,56.932954],[-2.944446,56.932989],[-2.944684,56.932978],[-2.945009,56.932921],[-2.945421,56.932819],[-2.945732,56.932764],[-2.945944,56.932755],[-2.946055,56.932794],[-2.946066,56.932879],[-2.946079,56.932964],[-2.946094,56.933049],[-2.946112,56.933133],[-2.946132,56.933218],[-2.94616,56.933311],[-2.946195,56.933415],[-2.946239,56.933527],[-2.94629,56.933649],[-2.946355,56.933748],[-2.946433,56.933824],[-2.946523,56.933877],[-2.946627,56.933907],[-2.946771,56.933927],[-2.946956,56.933937],[-2.947181,56.933936],[-2.947448,56.933924],[-2.947641,56.933906],[-2.947763,56.933881],[-2.947813,56.93385],[-2.94779,56.933811],[-2.947717,56.933767],[-2.947592,56.933716],[-2.947416,56.933658],[-2.947189,56.933595],[-2.946993,56.933519],[-2.946827,56.933431],[-2.946693,56.933332],[-2.946589,56.93322],[-2.94653,56.93313],[-2.946515,56.93306],[-2.946545,56.933011],[-2.946619,56.932984],[-2.946679,56.932942],[-2.946725,56.932887],[-2.946757,56.932817],[-2.946775,56.932734],[-2.94682,56.932678],[-2.946894,56.932648],[-2.946995,56.932644],[-2.947124,56.932666],[-2.94723,56.932665],[-2.947314,56.932639],[-2.947376,56.932588],[-2.947415,56.932513],[-2.947471,56.932473],[-2.947544,56.932468],[-2.947633,56.932499],[-2.94774,56.932564],[-2.947846,56.932594],[-2.947951,56.932589],[-2.948056,56.932548],[-2.94816,56.932471],[-2.948183,56.932379],[-2.948127,56.93227],[-2.947991,56.932145],[-2.947774,56.932005],[-2.947673,56.931881],[-2.947688,56.931776],[-2.947818,56.931688],[-2.948064,56.931618],[-2.948139,56.931546],[-2.948045,56.931475],[-2.94778,56.931402],[-2.947345,56.931329],[-2.947004,56.931292],[-2.946757,56.931291],[-2.946604,56.931327],[-2.946545,56.931399],[-2.946448,56.931455],[-2.946313,56.931497],[-2.946141,56.931523],[-2.94593,56.931534],[-2.945748,56.931524],[-2.945593,56.931494],[-2.945466,56.931443],[-2.945367,56.931372],[-2.945347,56.931328],[-2.945407,56.931312],[-2.945546,56.931323],[-2.945764,56.931362],[-2.945926,56.931379],[-2.946031,56.931374],[-2.94608,56.931346],[-2.946072,56.931296],[-2.94608,56.931232],[-2.946104,56.931153],[-2.946144,56.93106],[-2.9462,56.930953],[-2.946255,56.930852],[-2.946311,56.930758],[-2.946367,56.93067],[-2.946422,56.930588],[-2.946457,56.930506],[-2.94647,56.930423],[-2.946462,56.93034],[-2.946433,56.930257],[-2.946341,56.9302],[-2.946187,56.93017],[-2.945969,56.930166],[-2.945688,56.930189],[-2.945477,56.930185],[-2.945336,56.930153],[-2.945264,56.930094],[-2.945262,56.930008],[-2.945238,56.929926],[-2.945192,56.929846],[-2.945124,56.929771],[-2.945034,56.929698],[-2.944933,56.929644],[-2.944823,56.929606],[-2.944702,56.929587],[-2.944571,56.929585],[-2.944427,56.929567],[-2.944272,56.929535],[-2.944104,56.929487],[-2.943924,56.929423],[-2.943791,56.929344],[-2.943707,56.929248],[-2.943671,56.929136],[-2.943682,56.929008],[-2.943655,56.928904],[-2.943591,56.928824],[-2.943487,56.928769],[-2.943346,56.928737],[-2.943201,56.928696],[-2.943053,56.928644],[-2.942902,56.928583],[-2.942747,56.928512],[-2.942579,56.928444],[-2.942398,56.928378],[-2.942204,56.928315],[-2.941997,56.928255],[-2.941829,56.928188],[-2.941701,56.928114],[-2.941613,56.928034],[-2.941564,56.927947],[-2.941512,56.927871],[-2.941457,56.927806],[-2.941399,56.927751],[-2.941337,56.927706],[-2.941228,56.927669],[-2.941073,56.927639],[-2.940872,56.927615],[-2.940625,56.9276],[-2.940419,56.927577],[-2.940255,56.927548],[-2.940133,56.927512],[-2.940053,56.927469],[-2.93997,56.927424],[-2.939884,56.927376],[-2.939795,56.927327],[-2.939702,56.927275],[-2.939587,56.927231],[-2.939448,56.927194],[-2.939287,56.927164],[-2.939102,56.927142],[-2.938916,56.927114],[-2.938727,56.927079],[-2.938536,56.927039],[-2.938343,56.926992],[-2.938107,56.926956],[-2.937828,56.926931],[-2.937506,56.926916],[-2.937142,56.926912],[-2.936794,56.926911],[-2.936465,56.926913],[-2.936153,56.926919],[-2.935858,56.926928],[-2.93553,56.926935],[-2.935169,56.926941],[-2.934774,56.926945],[-2.934347,56.926947],[-2.934119,56.927022],[-2.934091,56.927169],[-2.934262,56.92739],[-2.934634,56.927683],[-2.934946,56.927906],[-2.935199,56.928058],[-2.935393,56.92814],[-2.935527,56.928152],[-2.935659,56.928218],[-2.935789,56.928337],[-2.935916,56.92851],[-2.936041,56.928736],[-2.936178,56.928923],[-2.936327,56.92907],[-2.936488,56.929179],[-2.936661,56.929248],[-2.936817,56.929283],[-2.936957,56.929284],[-2.937081,56.929252],[-2.937188,56.929185],[-2.937295,56.929144],[-2.937401,56.929128],[-2.937507,56.929138],[-2.937612,56.929173],[-2.937777,56.929245],[-2.938001,56.929355],[-2.938285,56.929502],[-2.938628,56.929686],[-2.938931,56.929862],[-2.939193,56.930028],[-2.939416,56.930186],[-2.939598,56.930336],[-2.939773,56.930445],[-2.939941,56.930515],[-2.940103,56.930544],[-2.940258,56.930534],[-2.940359,56.930505],[-2.940408,56.930457],[-2.940403,56.93039],[-2.940346,56.930304],[-2.940277,56.930226],[-2.940196,56.930155],[-2.940105,56.930092],[-2.940002,56.930036],[-2.939888,56.92995],[-2.939764,56.929833],[-2.939629,56.929685],[-2.939483,56.929507],[-2.93945,56.929358],[-2.93953,56.929238],[-2.939722,56.929148],[-2.940027,56.929087],[-2.940269,56.929014],[-2.94045,56.92893],[-2.940568,56.928834],[-2.940624,56.928727],[-2.940715,56.928681],[-2.940841,56.928697],[-2.941003,56.928773],[-2.9412,56.928911],[-2.941389,56.92902],[-2.94157,56.929101],[-2.941745,56.929154],[-2.941911,56.929178],[-2.942027,56.929217],[-2.942093,56.929271],[-2.942107,56.929341],[-2.942072,56.929426],[-2.942033,56.92953],[-2.941992,56.929653],[-2.941948,56.929796],[-2.941902,56.929958],[-2.941881,56.930111],[-2.941884,56.930256],[-2.941912,56.930391],[-2.941966,56.930518],[-2.942006,56.930636],[-2.942035,56.930745],[-2.942051,56.930845],[-2.942054,56.930936],[-2.942073,56.931038],[-2.942108,56.931152],[-2.942158,56.931276],[-2.942224,56.931412],[-2.942289,56.931499],[-2.942354,56.931538],[-2.942418,56.931529],[-2.942482,56.931472],[-2.942549,56.931429],[-2.942617,56.931399],[-2.942689,56.931383],[-2.942762,56.931381],[-2.942842,56.931376],[-2.942929,56.93137],[-2.943021,56.931362],[-2.94312,56.931353],[-2.943182,56.931309],[-2.943207,56.931233],[-2.943195,56.931124],[-2.943146,56.930982],[-2.943124,56.930832],[-2.94313,56.930673],[-2.943163,56.930508],[-2.943224,56.930334],[-2.943302,56.930208],[-2.943396,56.93013],[-2.943506,56.9301],[-2.943633,56.930118],[-2.943767,56.930127],[-2.943907,56.930128],[-2.944054,56.930121],[-2.944207,56.930106],[-2.944304,56.930112],[-2.944346,56.930138],[-2.944332,56.930185],[-2.944262,56.930253],[-2.944205,56.930336],[-2.94416,56.930435],[-2.944127,56.930548],[-2.944107,56.930677],[-2.94414,56.93076],[-2.944227,56.930797],[-2.944368,56.930788],[-2.944564,56.930733],[-2.944707,56.930724],[-2.944799,56.930761],[-2.944839,56.930843],[-2.944828,56.930971],[-2.944822,56.931088],[-2.944821,56.931195],[-2.944827,56.931291],[-2.944838,56.931376],[-2.944835,56.931464],[-2.94482,56.931555],[-2.944792,56.931648],[-2.94475,56.931743],[-2.944685,56.931869],[-2.944594,56.932025],[-2.94448,56.932212],[-2.944341,56.932429],[-2.944253,56.932612],[-2.944216,56.93276],[-2.94423,56.932875],[-2.944295,56.932954]]]}}