{"type":"Feature","properties":{"id":"265895","COMMUNE":"Ross and Cromarty","PROVINCE":"Caithness & Sutherland and Ross & Cromarty","COUNTRY":"UK","FIREDATE":"2025-03-19 01:02:00","CLASS":"FireSeason","areaHA_geo":11.393},"geometry":{"type":"Polygon","coordinates":[[[-4.514846,57.760577],[-4.514817,57.760505],[-4.51476,57.760449],[-4.514676,57.760409],[-4.514564,57.760385],[-4.514424,57.760377],[-4.514333,57.760362],[-4.51429,57.760339],[-4.514295,57.760309],[-4.514348,57.760272],[-4.514428,57.760241],[-4.514535,57.760215],[-4.514668,57.760194],[-4.514827,57.760179],[-4.514943,57.760159],[-4.515016,57.760133],[-4.515044,57.760101],[-4.515029,57.760063],[-4.514998,57.760033],[-4.514949,57.76001],[-4.514884,57.759994],[-4.514803,57.759985],[-4.514743,57.759956],[-4.514704,57.759908],[-4.514687,57.759842],[-4.514691,57.759755],[-4.514672,57.759678],[-4.51463,57.759608],[-4.514564,57.759547],[-4.514474,57.759495],[-4.514375,57.759457],[-4.514266,57.759434],[-4.514147,57.759426],[-4.514018,57.759432],[-4.513884,57.759394],[-4.513746,57.75931],[-4.513603,57.759182],[-4.513455,57.759008],[-4.513316,57.758878],[-4.513186,57.758789],[-4.513064,57.758744],[-4.512951,57.758741],[-4.512846,57.758722],[-4.51275,57.758689],[-4.512662,57.75864],[-4.512583,57.758576],[-4.512513,57.758529],[-4.512452,57.7585],[-4.512401,57.758487],[-4.512359,57.758492],[-4.512334,57.758509],[-4.512327,57.75854],[-4.512337,57.758584],[-4.512365,57.75864],[-4.512308,57.758662],[-4.512166,57.758649],[-4.51194,57.758602],[-4.511629,57.758519],[-4.511355,57.758455],[-4.511117,57.75841],[-4.510917,57.758383],[-4.510753,57.758375],[-4.510555,57.758308],[-4.510323,57.75818],[-4.510058,57.757992],[-4.509759,57.757745],[-4.509515,57.757562],[-4.509327,57.757446],[-4.509194,57.757394],[-4.509116,57.757408],[-4.50906,57.757428],[-4.509024,57.757454],[-4.509009,57.757486],[-4.509015,57.757524],[-4.509002,57.757557],[-4.508971,57.757583],[-4.508923,57.757604],[-4.508856,57.75762],[-4.508811,57.757641],[-4.508788,57.75767],[-4.508788,57.757705],[-4.508809,57.757747],[-4.508849,57.75779],[-4.508906,57.757836],[-4.508981,57.757884],[-4.509074,57.757933],[-4.509142,57.757979],[-4.509186,57.758021],[-4.509205,57.758059],[-4.509199,57.758093],[-4.509166,57.758124],[-4.509106,57.75815],[-4.509019,57.758172],[-4.508904,57.75819],[-4.508799,57.758217],[-4.508702,57.758255],[-4.508614,57.758303],[-4.508535,57.758361],[-4.508473,57.758418],[-4.508429,57.758472],[-4.508403,57.758524],[-4.508394,57.758574],[-4.508338,57.758617],[-4.508235,57.758652],[-4.508085,57.758679],[-4.507888,57.758698],[-4.507698,57.758696],[-4.507516,57.758673],[-4.507341,57.758629],[-4.507174,57.758565],[-4.506982,57.758517],[-4.506765,57.758486],[-4.506523,57.758473],[-4.506257,57.758476],[-4.506027,57.758486],[-4.505833,57.758502],[-4.505677,57.758525],[-4.505557,57.758553],[-4.50545,57.758591],[-4.505356,57.758636],[-4.505275,57.75869],[-4.505207,57.758752],[-4.50516,57.758809],[-4.505132,57.758861],[-4.505124,57.758909],[-4.505137,57.758952],[-4.505167,57.759016],[-4.505216,57.759101],[-4.505284,57.759208],[-4.505369,57.759337],[-4.505407,57.759437],[-4.505397,57.759509],[-4.50534,57.759554],[-4.505234,57.759571],[-4.50514,57.759603],[-4.505056,57.75965],[-4.504984,57.759712],[-4.504922,57.759788],[-4.504838,57.759859],[-4.504733,57.759924],[-4.504605,57.759983],[-4.504456,57.760036],[-4.504318,57.760097],[-4.504192,57.760165],[-4.504078,57.760241],[-4.503975,57.760325],[-4.50391,57.760394],[-4.503882,57.760446],[-4.503892,57.760483],[-4.50394,57.760503],[-4.503998,57.760511],[-4.504066,57.760506],[-4.504146,57.760488],[-4.504236,57.760458],[-4.504395,57.760426],[-4.504623,57.760393],[-4.50492,57.760359],[-4.505285,57.760324],[-4.505602,57.760277],[-4.505868,57.760217],[-4.506084,57.760146],[-4.50625,57.760063],[-4.506371,57.759982],[-4.506447,57.759903],[-4.506477,57.759827],[-4.506462,57.759754],[-4.506468,57.759695],[-4.506495,57.759652],[-4.506542,57.759624],[-4.50661,57.759611],[-4.50666,57.759618],[-4.506693,57.759645],[-4.506707,57.75969],[-4.506704,57.759756],[-4.506727,57.759804],[-4.506776,57.759835],[-4.506851,57.759848],[-4.506952,57.759845],[-4.50702,57.759862],[-4.507055,57.7599],[-4.507056,57.759958],[-4.507025,57.760037],[-4.507057,57.7601],[-4.507154,57.760148],[-4.507316,57.76018],[-4.507542,57.760197],[-4.507723,57.7602],[-4.50786,57.760189],[-4.507952,57.760163],[-4.508,57.760124],[-4.508051,57.760105],[-4.508105,57.760106],[-4.508162,57.760126],[-4.508222,57.760166],[-4.508343,57.760198],[-4.508525,57.76022],[-4.508768,57.760235],[-4.509072,57.76024],[-4.509303,57.760235],[-4.50946,57.760221],[-4.509544,57.760196],[-4.509555,57.760161],[-4.509579,57.760136],[-4.509617,57.760122],[-4.509669,57.760117],[-4.509734,57.760123],[-4.509804,57.760139],[-4.509878,57.760166],[-4.509957,57.760204],[-4.510039,57.760252],[-4.51016,57.760287],[-4.510317,57.76031],[-4.510513,57.76032],[-4.510746,57.760318],[-4.510934,57.760329],[-4.511078,57.760353],[-4.511177,57.760391],[-4.511232,57.760442],[-4.511315,57.760474],[-4.511427,57.760486],[-4.511568,57.760479],[-4.511738,57.760453],[-4.511851,57.760413],[-4.511908,57.76036],[-4.511908,57.760294],[-4.511852,57.760214],[-4.511841,57.760153],[-4.511875,57.76011],[-4.511954,57.760086],[-4.512078,57.76008],[-4.512207,57.760104],[-4.512341,57.760158],[-4.512479,57.760242],[-4.512623,57.760356],[-4.512774,57.760451],[-4.512933,57.760525],[-4.5131,57.76058],[-4.513275,57.760615],[-4.513424,57.760635],[-4.513547,57.760638],[-4.513645,57.760625],[-4.513716,57.760597],[-4.51379,57.760585],[-4.513868,57.760591],[-4.513949,57.760614],[-4.514034,57.760654],[-4.514143,57.760682],[-4.514276,57.760699],[-4.514434,57.760703],[-4.514616,57.760696],[-4.514745,57.760673],[-4.514822,57.760633],[-4.514846,57.760577]]]}}