{"type":"Feature","properties":{"id":"265837","COMMUNE":"Angus","PROVINCE":"Angus and Dundee City","COUNTRY":"UK","FIREDATE":"2025-03-07 13:52:00","CLASS":"FireSeason","areaHA_geo":2.674},"geometry":{"type":"Polygon","coordinates":[[[-2.76934,56.949105],[-2.76966,56.949203],[-2.769996,56.949249],[-2.770348,56.949244],[-2.770716,56.949186],[-2.770937,56.94908],[-2.77101,56.948925],[-2.770935,56.94872],[-2.770713,56.948467],[-2.770573,56.948256],[-2.770515,56.948088],[-2.77054,56.947961],[-2.770647,56.947876],[-2.770682,56.94778],[-2.770645,56.947673],[-2.770537,56.947554],[-2.770356,56.947424],[-2.770148,56.947283],[-2.769912,56.947132],[-2.769648,56.94697],[-2.769357,56.946798],[-2.769117,56.946805],[-2.768929,56.946993],[-2.768793,56.947361],[-2.768708,56.947909],[-2.768721,56.948357],[-2.76883,56.948706],[-2.769037,56.948955],[-2.76934,56.949105]]]}}