{"type":"Feature","properties":{"id":"265843","COMMUNE":"Angus","PROVINCE":"Angus and Dundee City","COUNTRY":"UK","FIREDATE":"2025-03-18 12:55:00","FINALDATE":"2025-03-19 13:27:00","CLASS":"FireSeason","areaHA_geo":7.863},"geometry":{"type":"Polygon","coordinates":[[[-2.944705,56.937218],[-2.944757,56.937233],[-2.944749,56.937258],[-2.944682,56.937293],[-2.944555,56.937337],[-2.944369,56.937391],[-2.944213,56.937479],[-2.944088,56.937601],[-2.943993,56.937757],[-2.943928,56.937946],[-2.943941,56.938063],[-2.94403,56.938107],[-2.944198,56.938079],[-2.944442,56.937978],[-2.944648,56.937866],[-2.944815,56.937743],[-2.944943,56.937608],[-2.945032,56.937462],[-2.945139,56.937335],[-2.945264,56.937226],[-2.945407,56.937135],[-2.945569,56.937063],[-2.945738,56.936994],[-2.945915,56.936928],[-2.946101,56.936865],[-2.946294,56.936805],[-2.94646,56.936713],[-2.946598,56.936587],[-2.946709,56.936429],[-2.946791,56.936237],[-2.946805,56.936047],[-2.946748,56.935857],[-2.946622,56.935668],[-2.946426,56.935479],[-2.94628,56.935311],[-2.946182,56.935163],[-2.946133,56.935036],[-2.946133,56.934929],[-2.946181,56.934878],[-2.946275,56.934881],[-2.946416,56.934939],[-2.946604,56.935052],[-2.946754,56.935122],[-2.946866,56.935149],[-2.94694,56.935133],[-2.946975,56.935074],[-2.946981,56.934989],[-2.946957,56.93488],[-2.946903,56.934746],[-2.94682,56.934586],[-2.946711,56.934466],[-2.946576,56.934386],[-2.946415,56.934345],[-2.946228,56.934343],[-2.946064,56.934359],[-2.945921,56.934391],[-2.945801,56.934439],[-2.945702,56.934505],[-2.945616,56.934537],[-2.94554,56.934534],[-2.945476,56.934497],[-2.945424,56.934426],[-2.945349,56.934332],[-2.945253,56.934215],[-2.945134,56.934074],[-2.944994,56.933911],[-2.94486,56.933802],[-2.944735,56.933749],[-2.944617,56.93375],[-2.944506,56.933807],[-2.944436,56.933895],[-2.944408,56.934015],[-2.944421,56.934166],[-2.944475,56.934348],[-2.944503,56.934503],[-2.944505,56.93463],[-2.944481,56.934729],[-2.944431,56.9348],[-2.944405,56.934872],[-2.944402,56.934946],[-2.944424,56.935022],[-2.944469,56.935098],[-2.944476,56.935151],[-2.944444,56.93518],[-2.944373,56.935184],[-2.944264,56.935165],[-2.944167,56.935114],[-2.944083,56.935034],[-2.944012,56.934923],[-2.943954,56.934781],[-2.94392,56.93465],[-2.943911,56.934529],[-2.943926,56.934419],[-2.943966,56.934318],[-2.944006,56.934212],[-2.944047,56.934102],[-2.944088,56.933986],[-2.94413,56.933865],[-2.94413,56.93373],[-2.944088,56.933582],[-2.944004,56.93342],[-2.943878,56.933245],[-2.94378,56.933088],[-2.943709,56.932951],[-2.943665,56.932832],[-2.943649,56.932732],[-2.943619,56.932625],[-2.943575,56.93251],[-2.943516,56.932387],[-2.943443,56.932257],[-2.943356,56.932159],[-2.943254,56.932093],[-2.943137,56.932059],[-2.943006,56.932057],[-2.942885,56.932069],[-2.942773,56.932096],[-2.94267,56.932137],[-2.942578,56.932192],[-2.942533,56.932265],[-2.942537,56.932356],[-2.942588,56.932465],[-2.942688,56.932592],[-2.942777,56.932721],[-2.942856,56.932853],[-2.942923,56.932987],[-2.94298,56.933124],[-2.943032,56.933247],[-2.943079,56.933357],[-2.943121,56.933453],[-2.943159,56.933535],[-2.943203,56.933629],[-2.943253,56.933733],[-2.94331,56.933848],[-2.943372,56.933974],[-2.943407,56.934074],[-2.943414,56.93415],[-2.943394,56.9342],[-2.943347,56.934225],[-2.943273,56.934199],[-2.943172,56.934123],[-2.943044,56.933996],[-2.94289,56.933819],[-2.942747,56.933669],[-2.942617,56.933548],[-2.942498,56.933454],[-2.942391,56.933389],[-2.942293,56.933325],[-2.942201,56.933263],[-2.942118,56.933203],[-2.942041,56.933144],[-2.94197,56.93308],[-2.941904,56.933011],[-2.941843,56.932935],[-2.941788,56.932855],[-2.941723,56.932815],[-2.941649,56.932818],[-2.941566,56.932862],[-2.941475,56.932947],[-2.941416,56.93304],[-2.941391,56.933142],[-2.941399,56.933252],[-2.94144,56.933369],[-2.94151,56.933484],[-2.941609,56.933596],[-2.941738,56.933705],[-2.941895,56.933811],[-2.942056,56.933906],[-2.94222,56.933989],[-2.942386,56.93406],[-2.942556,56.934119],[-2.942706,56.934209],[-2.942836,56.934331],[-2.942948,56.934483],[-2.943039,56.934667],[-2.943111,56.934829],[-2.943164,56.934968],[-2.943198,56.935086],[-2.943212,56.935181],[-2.943255,56.935277],[-2.943326,56.935374],[-2.943425,56.935472],[-2.943552,56.935571],[-2.943647,56.935662],[-2.943708,56.935745],[-2.943736,56.935819],[-2.943731,56.935886],[-2.943729,56.935961],[-2.94373,56.936044],[-2.943734,56.936137],[-2.943741,56.936238],[-2.943738,56.936336],[-2.943725,56.936431],[-2.943701,56.936524],[-2.943667,56.936613],[-2.943631,56.936699],[-2.943595,56.936782],[-2.943557,56.936861],[-2.943517,56.936936],[-2.943508,56.937008],[-2.943527,56.937077],[-2.943575,56.937143],[-2.943653,56.937206],[-2.943758,56.937221],[-2.943891,56.937188],[-2.944051,56.937106],[-2.944239,56.936975],[-2.944382,56.936843],[-2.94448,56.936709],[-2.944533,56.936573],[-2.944541,56.936435],[-2.944532,56.936308],[-2.944506,56.936194],[-2.944464,56.936092],[-2.944405,56.936001],[-2.944359,56.935911],[-2.944328,56.93582],[-2.94431,56.935729],[-2.944307,56.935638],[-2.94433,56.935577],[-2.94438,56.935547],[-2.944457,56.935546],[-2.94456,56.935577],[-2.944655,56.935623],[-2.944742,56.935686],[-2.944821,56.935764],[-2.944891,56.935859],[-2.944934,56.93595],[-2.94495,56.936037],[-2.944939,56.93612],[-2.944902,56.9362],[-2.94486,56.936315],[-2.944814,56.936464],[-2.944764,56.936648],[-2.944709,56.936867],[-2.944681,56.937035],[-2.94468,56.937152],[-2.944705,56.937218]]]}}