{"type":"Feature","properties":{"id":"265828","COMMUNE":"Angus","PROVINCE":"Angus and Dundee City","COUNTRY":"UK","FIREDATE":"2025-03-07 13:52:00","FINALDATE":"2025-03-07 13:59:00","CLASS":"FireSeason","areaHA_geo":15.847},"geometry":{"type":"Polygon","coordinates":[[[-2.775685,56.957592],[-2.77615,56.957845],[-2.776565,56.957979],[-2.776929,56.957993],[-2.777242,56.957888],[-2.777519,56.957763],[-2.777761,56.957618],[-2.777966,56.957452],[-2.778135,56.957266],[-2.778472,56.956974],[-2.778976,56.956575],[-2.779647,56.95607],[-2.780485,56.955458],[-2.781162,56.954939],[-2.781676,56.954513],[-2.782027,56.95418],[-2.782216,56.953939],[-2.782228,56.953774],[-2.782061,56.953684],[-2.781717,56.953671],[-2.781195,56.953733],[-2.780809,56.95381],[-2.78056,56.953904],[-2.780447,56.954013],[-2.78047,56.954137],[-2.780336,56.954354],[-2.780044,56.954663],[-2.779594,56.955065],[-2.778987,56.955558],[-2.778492,56.955914],[-2.778111,56.956131],[-2.777842,56.956211],[-2.777686,56.956152],[-2.777654,56.956031],[-2.777747,56.955847],[-2.777963,56.955601],[-2.778304,56.955293],[-2.778572,56.955026],[-2.778766,56.9548],[-2.778888,56.954616],[-2.778936,56.954474],[-2.778874,56.954393],[-2.778703,56.954373],[-2.778421,56.954414],[-2.778029,56.954516],[-2.777744,56.954618],[-2.777565,56.95472],[-2.777493,56.954822],[-2.777528,56.954925],[-2.777496,56.955044],[-2.777398,56.955181],[-2.777232,56.955335],[-2.776999,56.955506],[-2.776816,56.955593],[-2.776681,56.955595],[-2.776595,56.955514],[-2.776558,56.955348],[-2.776436,56.955191],[-2.77623,56.955042],[-2.775939,56.954902],[-2.775564,56.954769],[-2.775305,56.954594],[-2.775163,56.954375],[-2.775136,56.954114],[-2.775226,56.953808],[-2.775212,56.953543],[-2.775096,56.953316],[-2.774877,56.953129],[-2.774555,56.952981],[-2.774257,56.952846],[-2.773982,56.952725],[-2.773732,56.952618],[-2.773506,56.952524],[-2.773193,56.952515],[-2.772792,56.952591],[-2.772304,56.952753],[-2.771729,56.953],[-2.771374,56.953239],[-2.771239,56.953469],[-2.771325,56.953691],[-2.77163,56.953904],[-2.771892,56.954087],[-2.772109,56.95424],[-2.772282,56.954363],[-2.772411,56.954456],[-2.772527,56.95454],[-2.77263,56.954614],[-2.77272,56.95468],[-2.772797,56.954735],[-2.772874,56.954847],[-2.772951,56.955014],[-2.773027,56.955236],[-2.773102,56.955515],[-2.773188,56.955779],[-2.773283,56.956028],[-2.773388,56.956264],[-2.773502,56.956485],[-2.773633,56.956642],[-2.773781,56.956733],[-2.773945,56.956759],[-2.774126,56.95672],[-2.77439,56.956784],[-2.774738,56.956951],[-2.77517,56.95722],[-2.775685,56.957592]]]}}