{"type":"Feature","properties":{"id":"265836","COMMUNE":"Angus","PROVINCE":"Angus and Dundee City","COUNTRY":"UK","FIREDATE":"2025-03-20 11:51:00","FINALDATE":"2025-03-20 13:33:00","CLASS":"FireSeason","areaHA_geo":15.395},"geometry":{"type":"Polygon","coordinates":[[[-2.755141,56.939218],[-2.755354,56.939274],[-2.755573,56.939289],[-2.755797,56.939264],[-2.756027,56.939199],[-2.756173,56.939103],[-2.756236,56.938975],[-2.756216,56.938816],[-2.756112,56.938625],[-2.75598,56.938466],[-2.75582,56.938339],[-2.755633,56.938244],[-2.755417,56.938181],[-2.755265,56.938103],[-2.755175,56.938011],[-2.755149,56.937905],[-2.755186,56.937786],[-2.755243,56.937669],[-2.75532,56.937555],[-2.755419,56.937445],[-2.755537,56.937338],[-2.755588,56.937204],[-2.755572,56.937041],[-2.755487,56.936851],[-2.755336,56.936634],[-2.755323,56.936497],[-2.75545,56.936443],[-2.755716,56.936469],[-2.756121,56.936577],[-2.756387,56.936562],[-2.756514,56.936422],[-2.756502,56.936159],[-2.756351,56.935772],[-2.756168,56.935407],[-2.755953,56.935063],[-2.755708,56.934741],[-2.755431,56.93444],[-2.755148,56.93418],[-2.75486,56.93396],[-2.754565,56.93378],[-2.754266,56.93364],[-2.753957,56.933572],[-2.753638,56.933577],[-2.753311,56.933655],[-2.752974,56.933804],[-2.75271,56.933968],[-2.752518,56.934145],[-2.7524,56.934337],[-2.752353,56.934542],[-2.752463,56.934764],[-2.752728,56.935002],[-2.75315,56.935257],[-2.753727,56.935528],[-2.754059,56.935733],[-2.754145,56.935873],[-2.753986,56.935947],[-2.753582,56.935955],[-2.753206,56.935976],[-2.752859,56.93601],[-2.75254,56.936057],[-2.752251,56.936118],[-2.751961,56.936136],[-2.751672,56.936111],[-2.751382,56.936045],[-2.751093,56.935936],[-2.750845,56.935918],[-2.750637,56.935991],[-2.75047,56.936156],[-2.750344,56.936411],[-2.750237,56.936652],[-2.750149,56.936877],[-2.75008,56.937088],[-2.75003,56.937283],[-2.750013,56.937488],[-2.750028,56.937704],[-2.750076,56.937929],[-2.750156,56.938164],[-2.750244,56.938309],[-2.75034,56.938363],[-2.750444,56.938326],[-2.750556,56.938199],[-2.750686,56.938096],[-2.750834,56.938018],[-2.751,56.937965],[-2.751184,56.937936],[-2.751309,56.937977],[-2.751376,56.938087],[-2.751384,56.938266],[-2.751332,56.938514],[-2.751353,56.938673],[-2.751445,56.938744],[-2.751608,56.938725],[-2.751843,56.938617],[-2.752019,56.938565],[-2.752137,56.93857],[-2.752196,56.93863],[-2.752197,56.938746],[-2.75215,56.938864],[-2.752056,56.938985],[-2.751913,56.939107],[-2.751723,56.939232],[-2.751592,56.939361],[-2.751522,56.939495],[-2.751511,56.939633],[-2.75156,56.939777],[-2.751613,56.939946],[-2.751669,56.940141],[-2.75173,56.940363],[-2.751795,56.94061],[-2.751964,56.940721],[-2.752236,56.940694],[-2.752612,56.94053],[-2.753091,56.940229],[-2.753432,56.939936],[-2.753636,56.939652],[-2.753701,56.939375],[-2.753629,56.939108],[-2.753521,56.938862],[-2.753377,56.938638],[-2.753197,56.938436],[-2.75298,56.938257],[-2.7528,56.938084],[-2.752656,56.937918],[-2.752549,56.93776],[-2.752478,56.937608],[-2.752513,56.937499],[-2.752655,56.937432],[-2.752904,56.937407],[-2.753259,56.937425],[-2.753577,56.937534],[-2.753859,56.937734],[-2.754103,56.938024],[-2.754311,56.938406],[-2.754519,56.938716],[-2.754726,56.938955],[-2.754934,56.939122],[-2.755141,56.939218]]]}}