{"type":"Feature","properties":{"id":"265878","COMMUNE":"Caithness and Sutherland","PROVINCE":"Caithness & Sutherland and Ross & Cromarty","COUNTRY":"UK","FIREDATE":"2025-03-20 12:44:33.152","CLASS":"FireSeason","areaHA_geo":0.767},"geometry":{"type":"Polygon","coordinates":[[[-4.741225,58.523342],[-4.741318,58.52335],[-4.741399,58.523349],[-4.741469,58.523339],[-4.741527,58.523318],[-4.741549,58.52329],[-4.741536,58.523254],[-4.741487,58.52321],[-4.741402,58.523159],[-4.741343,58.5231],[-4.741312,58.523033],[-4.741308,58.52296],[-4.741331,58.522879],[-4.741356,58.522805],[-4.741383,58.522738],[-4.741412,58.522679],[-4.741444,58.522627],[-4.741492,58.522597],[-4.741558,58.522591],[-4.741641,58.522607],[-4.741741,58.522647],[-4.741815,58.522644],[-4.741862,58.522597],[-4.741883,58.522508],[-4.741878,58.522376],[-4.741858,58.522252],[-4.741824,58.522136],[-4.741776,58.522027],[-4.741714,58.521926],[-4.741651,58.521855],[-4.741587,58.521815],[-4.741523,58.521805],[-4.741458,58.521826],[-4.741417,58.521874],[-4.7414,58.521948],[-4.741406,58.522049],[-4.741437,58.522177],[-4.741423,58.522256],[-4.741366,58.522286],[-4.741265,58.522269],[-4.74112,58.522203],[-4.740994,58.522171],[-4.740887,58.522174],[-4.740799,58.522212],[-4.740729,58.522284],[-4.740644,58.522344],[-4.740546,58.522391],[-4.740433,58.522427],[-4.740305,58.522449],[-4.740225,58.522484],[-4.740191,58.522532],[-4.740205,58.522591],[-4.740265,58.522663],[-4.740331,58.522718],[-4.740401,58.522755],[-4.740478,58.522776],[-4.740559,58.522779],[-4.740621,58.522793],[-4.740663,58.522818],[-4.740686,58.522854],[-4.740689,58.522901],[-4.740705,58.522941],[-4.740734,58.522974],[-4.740776,58.523001],[-4.740831,58.523021],[-4.740876,58.523051],[-4.740909,58.523092],[-4.740932,58.523143],[-4.740945,58.523205],[-4.74098,58.523255],[-4.741039,58.523295],[-4.74112,58.523324],[-4.741225,58.523342]]]}}