{"type":"Feature","properties":{"id":"265829","COMMUNE":"Angus","PROVINCE":"Angus and Dundee City","COUNTRY":"UK","FIREDATE":"2025-03-07 13:52:00","CLASS":"FireSeason","areaHA_geo":10.344},"geometry":{"type":"Polygon","coordinates":[[[-2.766001,56.953528],[-2.766258,56.953428],[-2.766505,56.953354],[-2.76674,56.953304],[-2.766964,56.953279],[-2.767178,56.95328],[-2.767538,56.953186],[-2.768047,56.952998],[-2.768702,56.952717],[-2.769505,56.952342],[-2.770038,56.952011],[-2.770299,56.951726],[-2.77029,56.951487],[-2.77001,56.951292],[-2.769738,56.951092],[-2.769473,56.950885],[-2.769216,56.950672],[-2.768967,56.950454],[-2.768718,56.950264],[-2.768469,56.950103],[-2.76822,56.949972],[-2.767972,56.949869],[-2.767708,56.949821],[-2.767429,56.949828],[-2.767134,56.949888],[-2.766825,56.950004],[-2.766583,56.95012],[-2.76641,56.950238],[-2.766305,56.950356],[-2.766268,56.950476],[-2.766172,56.950562],[-2.766015,56.950615],[-2.765798,56.950634],[-2.765521,56.950619],[-2.76533,56.950526],[-2.765224,56.950357],[-2.765202,56.950111],[-2.765266,56.949787],[-2.765239,56.949507],[-2.765119,56.94927],[-2.764907,56.949077],[-2.764604,56.948927],[-2.764349,56.94882],[-2.764143,56.948755],[-2.763985,56.948734],[-2.763876,56.948755],[-2.763714,56.94875],[-2.7635,56.948718],[-2.763233,56.94866],[-2.762913,56.948575],[-2.762668,56.948525],[-2.762498,56.94851],[-2.762403,56.94853],[-2.762383,56.948585],[-2.762446,56.948671],[-2.762593,56.948789],[-2.762823,56.948938],[-2.763137,56.949119],[-2.763391,56.949295],[-2.763586,56.949466],[-2.76372,56.949633],[-2.763795,56.949794],[-2.76384,56.949941],[-2.763855,56.950071],[-2.763841,56.950186],[-2.763798,56.950286],[-2.763793,56.9504],[-2.763827,56.950529],[-2.763901,56.950672],[-2.764013,56.950831],[-2.764149,56.950944],[-2.764308,56.951013],[-2.764491,56.951037],[-2.764697,56.951017],[-2.764896,56.951045],[-2.765087,56.951122],[-2.76527,56.951246],[-2.765446,56.951419],[-2.765662,56.951599],[-2.76592,56.951785],[-2.766219,56.951978],[-2.766558,56.952177],[-2.7668,56.952344],[-2.766942,56.952478],[-2.766987,56.952579],[-2.766933,56.952648],[-2.766821,56.952675],[-2.766651,56.95266],[-2.766423,56.952603],[-2.766137,56.952504],[-2.765886,56.952452],[-2.765671,56.952447],[-2.765491,56.952489],[-2.765347,56.952577],[-2.765269,56.952703],[-2.765257,56.952869],[-2.765312,56.953072],[-2.765434,56.953314],[-2.765589,56.953471],[-2.765778,56.953542],[-2.766001,56.953528]]]}}