{"type":"Feature","properties":{"id":"265876","COMMUNE":"Caithness and Sutherland","PROVINCE":"Caithness & Sutherland and Ross & Cromarty","COUNTRY":"UK","FIREDATE":"2025-03-20 12:44:11.556","FINALDATE":"2025-03-21 12:44:16.398","CLASS":"FireSeason","areaHA_geo":4.48},"geometry":{"type":"Polygon","coordinates":[[[-4.747083,58.524353],[-4.74712,58.524378],[-4.74719,58.524376],[-4.747292,58.524349],[-4.747427,58.524295],[-4.747566,58.524256],[-4.747711,58.524231],[-4.74786,58.524219],[-4.748015,58.524221],[-4.748138,58.524206],[-4.748229,58.524173],[-4.748289,58.524123],[-4.748318,58.524055],[-4.748359,58.523994],[-4.748412,58.523939],[-4.748479,58.523891],[-4.748558,58.523849],[-4.748627,58.523804],[-4.748685,58.523755],[-4.748732,58.523702],[-4.748768,58.523646],[-4.748799,58.523569],[-4.748823,58.523472],[-4.748842,58.523355],[-4.748854,58.523218],[-4.748857,58.52309],[-4.748851,58.522971],[-4.748835,58.522861],[-4.748809,58.522761],[-4.748778,58.522665],[-4.748741,58.522574],[-4.748698,58.522486],[-4.74865,58.522402],[-4.748594,58.522333],[-4.74853,58.522277],[-4.748459,58.522235],[-4.748381,58.522207],[-4.748297,58.52218],[-4.748208,58.522155],[-4.748114,58.522132],[-4.748014,58.52211],[-4.747896,58.522075],[-4.747757,58.522029],[-4.7476,58.52197],[-4.747423,58.521898],[-4.747257,58.521839],[-4.747102,58.521792],[-4.746957,58.521756],[-4.746824,58.521732],[-4.746661,58.521707],[-4.74647,58.52168],[-4.746249,58.521652],[-4.745999,58.521622],[-4.745783,58.5216],[-4.7456,58.521586],[-4.745451,58.52158],[-4.745335,58.521583],[-4.745229,58.521604],[-4.745132,58.521644],[-4.745045,58.521703],[-4.744968,58.521782],[-4.744896,58.521856],[-4.744831,58.521927],[-4.744771,58.521994],[-4.744718,58.522058],[-4.744699,58.522116],[-4.744714,58.522168],[-4.744764,58.522215],[-4.744848,58.522256],[-4.744925,58.522306],[-4.744995,58.522366],[-4.745058,58.522434],[-4.745114,58.522512],[-4.745163,58.522556],[-4.745206,58.522566],[-4.745242,58.522542],[-4.745272,58.522485],[-4.745327,58.522451],[-4.745408,58.522442],[-4.745515,58.522456],[-4.745647,58.522493],[-4.745781,58.522523],[-4.745915,58.522545],[-4.746051,58.522559],[-4.746187,58.522565],[-4.74631,58.522554],[-4.746421,58.522528],[-4.746519,58.522486],[-4.746605,58.522428],[-4.74668,58.522398],[-4.746743,58.522397],[-4.746794,58.522425],[-4.746835,58.522482],[-4.746837,58.522537],[-4.746799,58.522592],[-4.746723,58.522646],[-4.746609,58.522699],[-4.746522,58.522748],[-4.746463,58.522795],[-4.746432,58.522838],[-4.746429,58.522879],[-4.746428,58.522922],[-4.746428,58.522967],[-4.746431,58.523015],[-4.746435,58.523065],[-4.746439,58.523123],[-4.746444,58.523188],[-4.746448,58.523262],[-4.746452,58.523344],[-4.746462,58.523423],[-4.746478,58.523499],[-4.746499,58.523574],[-4.746526,58.523646],[-4.746513,58.523696],[-4.74646,58.523726],[-4.746367,58.523734],[-4.746235,58.523721],[-4.746137,58.523695],[-4.746074,58.523656],[-4.746046,58.523605],[-4.746053,58.523542],[-4.746048,58.52349],[-4.746033,58.523449],[-4.746006,58.523419],[-4.745968,58.5234],[-4.745933,58.523373],[-4.745899,58.523336],[-4.745867,58.523291],[-4.745838,58.523237],[-4.745798,58.523202],[-4.745749,58.523188],[-4.745689,58.523193],[-4.74562,58.523218],[-4.745572,58.523253],[-4.745547,58.523296],[-4.745544,58.523349],[-4.745564,58.523412],[-4.74557,58.523466],[-4.745563,58.523512],[-4.745542,58.52355],[-4.745508,58.52358],[-4.745471,58.523622],[-4.745432,58.523676],[-4.745391,58.523742],[-4.745347,58.52382],[-4.745357,58.523897],[-4.745422,58.523973],[-4.745542,58.524047],[-4.745716,58.52412],[-4.745855,58.52416],[-4.745958,58.524167],[-4.746026,58.524141],[-4.746058,58.524082],[-4.74611,58.524043],[-4.746183,58.524026],[-4.746276,58.524029],[-4.74639,58.524053],[-4.746498,58.524064],[-4.746602,58.524061],[-4.746702,58.524045],[-4.746796,58.524015],[-4.746882,58.523999],[-4.746959,58.523996],[-4.747028,58.524005],[-4.747087,58.524029],[-4.747126,58.524056],[-4.747142,58.524088],[-4.747138,58.524125],[-4.747112,58.524166],[-4.747093,58.52421],[-4.747082,58.524255],[-4.747079,58.524303],[-4.747083,58.524353]]]}}