{"type":"Feature","properties":{"id":"265880","COMMUNE":"Caithness and Sutherland","PROVINCE":"Caithness & Sutherland and Ross & Cromarty","COUNTRY":"UK","FIREDATE":"2025-03-20 15:00:51.206","FINALDATE":"2025-03-21 15:00:53.445","CLASS":"FireSeason","areaHA_geo":199.288},"geometry":{"type":"Polygon","coordinates":[[[-4.828967,58.567371],[-4.829207,58.567341],[-4.829472,58.567189],[-4.829761,58.566915],[-4.830076,58.566518],[-4.830302,58.566179],[-4.830442,58.565897],[-4.830493,58.565672],[-4.830458,58.565505],[-4.830471,58.56537],[-4.830534,58.565268],[-4.830646,58.565199],[-4.830807,58.565162],[-4.830978,58.565186],[-4.831161,58.56527],[-4.831354,58.565415],[-4.831558,58.565619],[-4.831819,58.565734],[-4.832135,58.56576],[-4.832508,58.565697],[-4.832938,58.565546],[-4.833148,58.565368],[-4.833138,58.565164],[-4.832908,58.564933],[-4.832458,58.564676],[-4.832007,58.564507],[-4.831555,58.564425],[-4.831102,58.564431],[-4.830648,58.564524],[-4.830293,58.564568],[-4.830038,58.564562],[-4.829883,58.564508],[-4.829827,58.564404],[-4.829728,58.564316],[-4.829587,58.564246],[-4.829403,58.564193],[-4.829176,58.564157],[-4.82898,58.564119],[-4.828817,58.564079],[-4.828684,58.564037],[-4.828583,58.563993],[-4.828519,58.563932],[-4.828493,58.563855],[-4.828503,58.563762],[-4.828551,58.563653],[-4.828581,58.56353],[-4.828594,58.563394],[-4.82859,58.563244],[-4.828568,58.563081],[-4.828603,58.562928],[-4.828696,58.562786],[-4.828846,58.562655],[-4.829053,58.562534],[-4.829112,58.562429],[-4.829022,58.562341],[-4.828783,58.562269],[-4.828395,58.562214],[-4.828032,58.562142],[-4.827695,58.562054],[-4.827383,58.561949],[-4.827097,58.561828],[-4.826946,58.561722],[-4.826932,58.561631],[-4.827053,58.561557],[-4.82731,58.561498],[-4.827518,58.561435],[-4.827678,58.561368],[-4.827789,58.561297],[-4.827852,58.561223],[-4.827901,58.56115],[-4.827935,58.561079],[-4.827956,58.561009],[-4.827962,58.560941],[-4.827879,58.560898],[-4.827707,58.56088],[-4.827446,58.560888],[-4.827095,58.560921],[-4.82683,58.560933],[-4.82665,58.560925],[-4.826556,58.560897],[-4.826548,58.560849],[-4.826589,58.560794],[-4.82668,58.560732],[-4.826821,58.560663],[-4.827013,58.560586],[-4.82719,58.560492],[-4.827354,58.560379],[-4.827504,58.560247],[-4.82764,58.560097],[-4.827826,58.559946],[-4.828062,58.559795],[-4.828347,58.559642],[-4.828681,58.559488],[-4.828869,58.559376],[-4.828909,58.559304],[-4.828802,58.559273],[-4.828547,58.559283],[-4.828313,58.559284],[-4.828098,58.559277],[-4.827904,58.559262],[-4.827729,58.559238],[-4.827568,58.559282],[-4.827422,58.559393],[-4.827289,58.559572],[-4.827169,58.559818],[-4.826963,58.55997],[-4.82667,58.560027],[-4.82629,58.559989],[-4.825822,58.559857],[-4.825415,58.559749],[-4.825068,58.559664],[-4.824781,58.559604],[-4.824554,58.559568],[-4.824397,58.559509],[-4.824309,58.559427],[-4.824291,58.559321],[-4.824343,58.559193],[-4.824341,58.559092],[-4.824286,58.559018],[-4.824179,58.558972],[-4.824018,58.558953],[-4.82397,58.558882],[-4.824035,58.558758],[-4.824213,58.558582],[-4.824505,58.558354],[-4.824776,58.558189],[-4.825027,58.558088],[-4.825258,58.55805],[-4.825468,58.558075],[-4.825666,58.55807],[-4.825851,58.558035],[-4.826022,58.557968],[-4.826181,58.557871],[-4.826368,58.557792],[-4.826583,58.557731],[-4.826827,58.557689],[-4.827099,58.557665],[-4.827265,58.557627],[-4.827325,58.557574],[-4.827279,58.557507],[-4.827127,58.557426],[-4.827052,58.557326],[-4.827054,58.557206],[-4.827134,58.557067],[-4.82729,58.556908],[-4.827461,58.556784],[-4.827645,58.556693],[-4.827844,58.556636],[-4.828058,58.556612],[-4.828253,58.556601],[-4.82843,58.556603],[-4.828589,58.556618],[-4.82873,58.556645],[-4.828849,58.556704],[-4.828946,58.556794],[-4.829021,58.556916],[-4.829074,58.55707],[-4.829078,58.557218],[-4.829033,58.557361],[-4.828938,58.557498],[-4.828794,58.557631],[-4.828723,58.557734],[-4.828725,58.557807],[-4.828799,58.557851],[-4.828947,58.557865],[-4.829032,58.557908],[-4.829056,58.557979],[-4.829019,58.558078],[-4.82892,58.558205],[-4.828894,58.558319],[-4.828942,58.558417],[-4.829063,58.558502],[-4.829258,58.558573],[-4.829437,58.55858],[-4.829602,58.558525],[-4.829752,58.558408],[-4.829887,58.558227],[-4.830015,58.558112],[-4.830135,58.558062],[-4.830247,58.558077],[-4.830351,58.558157],[-4.830429,58.558244],[-4.83048,58.558336],[-4.830504,58.558435],[-4.830501,58.558539],[-4.830536,58.558607],[-4.830608,58.558639],[-4.830718,58.558635],[-4.830865,58.558594],[-4.831048,58.558575],[-4.831267,58.558579],[-4.831522,58.558604],[-4.831812,58.558652],[-4.831955,58.558649],[-4.831951,58.558598],[-4.8318,58.558497],[-4.831501,58.558346],[-4.831252,58.558203],[-4.831054,58.558069],[-4.830907,58.557943],[-4.83081,58.557825],[-4.830789,58.557712],[-4.830843,58.557605],[-4.830974,58.557503],[-4.83118,58.557407],[-4.831305,58.557293],[-4.83135,58.557163],[-4.831313,58.557015],[-4.831197,58.55685],[-4.831171,58.556686],[-4.831237,58.556522],[-4.831394,58.556359],[-4.831643,58.556197],[-4.831758,58.556086],[-4.831739,58.556027],[-4.831586,58.556019],[-4.831299,58.556063],[-4.831096,58.556064],[-4.830979,58.556022],[-4.830945,58.555937],[-4.830997,58.555809],[-4.831118,58.555685],[-4.831308,58.555566],[-4.831568,58.555451],[-4.831898,58.555341],[-4.832153,58.555235],[-4.832333,58.555132],[-4.832438,58.555033],[-4.832468,58.554938],[-4.832526,58.554873],[-4.832611,58.554839],[-4.832724,58.554836],[-4.832865,58.554863],[-4.833046,58.554888],[-4.833267,58.554909],[-4.833527,58.554928],[-4.833828,58.554944],[-4.834106,58.554934],[-4.834361,58.5549],[-4.834595,58.55484],[-4.834806,58.554756],[-4.834846,58.554677],[-4.834716,58.554606],[-4.834415,58.554541],[-4.833944,58.554483],[-4.833543,58.554411],[-4.833213,58.554325],[-4.832954,58.554225],[-4.832764,58.554111],[-4.83265,58.554001],[-4.832611,58.553895],[-4.832647,58.553793],[-4.832759,58.553695],[-4.832883,58.553649],[-4.833021,58.553655],[-4.833172,58.553713],[-4.833336,58.553824],[-4.83347,58.55387],[-4.833575,58.553853],[-4.833649,58.553771],[-4.833693,58.553625],[-4.833747,58.553532],[-4.833812,58.553491],[-4.833888,58.553502],[-4.833973,58.553567],[-4.834113,58.553626],[-4.834307,58.553681],[-4.834555,58.553732],[-4.834856,58.553778],[-4.834985,58.553755],[-4.834939,58.553662],[-4.834721,58.553499],[-4.834328,58.553267],[-4.833968,58.553095],[-4.833639,58.552984],[-4.833342,58.552935],[-4.833076,58.552946],[-4.832866,58.552935],[-4.832711,58.552903],[-4.832612,58.55285],[-4.832569,58.552775],[-4.832547,58.552653],[-4.832546,58.552485],[-4.832567,58.552269],[-4.832609,58.552007],[-4.832658,58.551749],[-4.832715,58.551495],[-4.832779,58.551244],[-4.832851,58.550997],[-4.832818,58.55083],[-4.832682,58.550744],[-4.832442,58.550739],[-4.832097,58.550813],[-4.83185,58.550916],[-4.831699,58.551046],[-4.831646,58.551204],[-4.831689,58.551389],[-4.83169,58.551537],[-4.831649,58.551649],[-4.831566,58.551724],[-4.831441,58.551763],[-4.831282,58.551871],[-4.831087,58.552049],[-4.830856,58.552296],[-4.830591,58.552614],[-4.83034,58.55291],[-4.830104,58.553184],[-4.829882,58.553437],[-4.829674,58.553669],[-4.829566,58.553858],[-4.829559,58.554006],[-4.82965,58.554113],[-4.829842,58.554177],[-4.829859,58.554238],[-4.829701,58.554295],[-4.829369,58.554349],[-4.828861,58.554399],[-4.82842,58.55442],[-4.828047,58.554413],[-4.827741,58.554376],[-4.827501,58.554311],[-4.827324,58.554246],[-4.827209,58.554182],[-4.827156,58.554119],[-4.827165,58.554057],[-4.827326,58.553945],[-4.82764,58.553785],[-4.828107,58.553575],[-4.828726,58.553317],[-4.829251,58.553056],[-4.82968,58.552794],[-4.830015,58.55253],[-4.830255,58.552265],[-4.830354,58.552073],[-4.83031,58.551955],[-4.830124,58.551912],[-4.829796,58.551942],[-4.82959,58.551914],[-4.829507,58.551828],[-4.829546,58.551684],[-4.829707,58.551483],[-4.829825,58.551303],[-4.829899,58.551144],[-4.829929,58.551008],[-4.829916,58.550893],[-4.829968,58.550842],[-4.830086,58.550857],[-4.830269,58.550936],[-4.830518,58.55108],[-4.83074,58.551146],[-4.830934,58.551134],[-4.831102,58.551043],[-4.831242,58.550874],[-4.831399,58.550704],[-4.831573,58.550531],[-4.831763,58.550357],[-4.831971,58.550181],[-4.832112,58.550013],[-4.832186,58.549855],[-4.832193,58.549706],[-4.832133,58.549565],[-4.832051,58.549495],[-4.831945,58.549494],[-4.831815,58.549564],[-4.831663,58.549703],[-4.831491,58.549811],[-4.8313,58.549887],[-4.83109,58.549932],[-4.83086,58.549945],[-4.830672,58.54998],[-4.830526,58.550036],[-4.83042,58.550113],[-4.830357,58.550212],[-4.830224,58.550273],[-4.830022,58.550295],[-4.82975,58.550279],[-4.82941,58.550225],[-4.829063,58.550182],[-4.828709,58.550151],[-4.828348,58.550131],[-4.82798,58.550123],[-4.827711,58.550139],[-4.82754,58.550179],[-4.827468,58.550244],[-4.827493,58.550333],[-4.82747,58.550402],[-4.827396,58.55045],[-4.827272,58.550477],[-4.827099,58.550484],[-4.826979,58.550457],[-4.826913,58.550397],[-4.826899,58.550304],[-4.82694,58.550177],[-4.826902,58.55004],[-4.826787,58.549893],[-4.826595,58.549737],[-4.826325,58.549571],[-4.826215,58.549422],[-4.826265,58.549291],[-4.826476,58.549177],[-4.826846,58.549081],[-4.827042,58.548961],[-4.827064,58.548818],[-4.826911,58.548651],[-4.826584,58.54846],[-4.826456,58.548339],[-4.826529,58.548288],[-4.826801,58.548307],[-4.827273,58.548396],[-4.827606,58.548405],[-4.8278,58.548335],[-4.827854,58.548185],[-4.827768,58.547955],[-4.827705,58.547749],[-4.827663,58.547567],[-4.827643,58.547408],[-4.827644,58.547273],[-4.827578,58.547179],[-4.827444,58.547127],[-4.827243,58.547115],[-4.826973,58.547145],[-4.826705,58.547204],[-4.826436,58.547292],[-4.826168,58.547409],[-4.825901,58.547555],[-4.825668,58.547657],[-4.82547,58.547716],[-4.825306,58.547731],[-4.825176,58.547702],[-4.825092,58.547627],[-4.825052,58.547506],[-4.825058,58.547339],[-4.825108,58.547125],[-4.825061,58.546944],[-4.824917,58.546798],[-4.824676,58.546685],[-4.824337,58.546606],[-4.824098,58.546513],[-4.823958,58.546406],[-4.823919,58.546285],[-4.823979,58.546149],[-4.823951,58.545993],[-4.823835,58.545816],[-4.823631,58.545618],[-4.823339,58.545399],[-4.823215,58.545265],[-4.823259,58.545217],[-4.823472,58.545255],[-4.823853,58.545379],[-4.824102,58.545412],[-4.82422,58.545356],[-4.824205,58.545211],[-4.824059,58.544976],[-4.824023,58.544829],[-4.824099,58.544772],[-4.824286,58.544804],[-4.824583,58.544924],[-4.824812,58.544986],[-4.824972,58.54499],[-4.825064,58.544935],[-4.825086,58.544822],[-4.825032,58.544693],[-4.8249,58.544549],[-4.824691,58.544388],[-4.824405,58.544211],[-4.824239,58.544076],[-4.824194,58.543983],[-4.824269,58.543932],[-4.824465,58.543922],[-4.824616,58.54389],[-4.824722,58.543836],[-4.824784,58.543758],[-4.8248,58.543659],[-4.824844,58.543576],[-4.824916,58.543509],[-4.825016,58.54346],[-4.825143,58.543428],[-4.82523,58.543369],[-4.825276,58.543284],[-4.825282,58.543173],[-4.825248,58.543036],[-4.825217,58.542901],[-4.825191,58.542769],[-4.825168,58.54264],[-4.82515,58.542513],[-4.825094,58.542435],[-4.824999,58.542406],[-4.824866,58.542425],[-4.824695,58.542493],[-4.824573,58.54249],[-4.824501,58.542415],[-4.824477,58.542269],[-4.824503,58.542052],[-4.824561,58.541871],[-4.824653,58.541726],[-4.824777,58.541617],[-4.824934,58.541544],[-4.825089,58.541446],[-4.825242,58.541322],[-4.825393,58.541172],[-4.825542,58.540996],[-4.825662,58.540826],[-4.825751,58.540663],[-4.825811,58.540506],[-4.825841,58.540356],[-4.82579,58.540283],[-4.825658,58.540289],[-4.825443,58.540372],[-4.825147,58.540534],[-4.824869,58.54064],[-4.824608,58.54069],[-4.824365,58.540685],[-4.82414,58.540624],[-4.823933,58.540621],[-4.823744,58.540675],[-4.823575,58.540788],[-4.823423,58.540958],[-4.823251,58.541092],[-4.823057,58.54119],[-4.822843,58.541252],[-4.822607,58.541278],[-4.822479,58.54135],[-4.822459,58.541469],[-4.822546,58.541634],[-4.822741,58.541845],[-4.822821,58.541993],[-4.822786,58.542076],[-4.822636,58.542096],[-4.82237,58.542052],[-4.822164,58.542042],[-4.822016,58.542068],[-4.821927,58.542128],[-4.821897,58.542224],[-4.821855,58.54232],[-4.821803,58.542418],[-4.821739,58.542517],[-4.821664,58.542617],[-4.821581,58.542665],[-4.821491,58.542659],[-4.821393,58.542601],[-4.821287,58.54249],[-4.821139,58.542377],[-4.820949,58.54226],[-4.820716,58.54214],[-4.820441,58.542017],[-4.820167,58.541925],[-4.819894,58.541863],[-4.819622,58.541832],[-4.819352,58.541831],[-4.819127,58.541801],[-4.818949,58.541741],[-4.818818,58.541651],[-4.818732,58.541532],[-4.818637,58.541424],[-4.818532,58.541329],[-4.818417,58.541245],[-4.818292,58.541173],[-4.818162,58.541114],[-4.818025,58.541068],[-4.817881,58.541034],[-4.817732,58.541014],[-4.817567,58.540977],[-4.817385,58.540924],[-4.817188,58.540854],[-4.816975,58.540767],[-4.816888,58.540706],[-4.816926,58.540671],[-4.81709,58.540662],[-4.817379,58.540679],[-4.817557,58.540663],[-4.817624,58.540612],[-4.81758,58.540528],[-4.817424,58.540411],[-4.817243,58.540302],[-4.817036,58.540202],[-4.816804,58.540112],[-4.816547,58.54003],[-4.816273,58.539951],[-4.815982,58.539876],[-4.815676,58.539804],[-4.815353,58.539736],[-4.815118,58.539734],[-4.814969,58.5398],[-4.814908,58.539932],[-4.814933,58.540132],[-4.814912,58.54029],[-4.814844,58.540408],[-4.81473,58.540485],[-4.814569,58.540521],[-4.814396,58.540571],[-4.814212,58.540634],[-4.814015,58.540711],[-4.813807,58.540802],[-4.813659,58.54091],[-4.813571,58.541036],[-4.813544,58.54118],[-4.813577,58.541342],[-4.813693,58.541499],[-4.813893,58.541652],[-4.814175,58.5418],[-4.814541,58.541943],[-4.814777,58.54207],[-4.814883,58.542181],[-4.814858,58.542276],[-4.814703,58.542354],[-4.814618,58.542457],[-4.814601,58.542585],[-4.814654,58.542737],[-4.814775,58.542913],[-4.814843,58.543039],[-4.814857,58.543114],[-4.814817,58.543139],[-4.814724,58.543112],[-4.814612,58.543063],[-4.814482,58.542992],[-4.814334,58.542898],[-4.814167,58.542781],[-4.814021,58.542678],[-4.813895,58.542588],[-4.813789,58.542511],[-4.813703,58.542447],[-4.81365,58.54237],[-4.813629,58.54228],[-4.813642,58.542178],[-4.813687,58.542062],[-4.813652,58.541994],[-4.813538,58.541973],[-4.813343,58.541999],[-4.813069,58.542072],[-4.812811,58.542136],[-4.812569,58.54219],[-4.812345,58.542235],[-4.812136,58.542271],[-4.811911,58.542286],[-4.811669,58.542282],[-4.811409,58.542259],[-4.811132,58.542216],[-4.810978,58.54215],[-4.810947,58.542062],[-4.811038,58.541951],[-4.811252,58.541817],[-4.811299,58.541727],[-4.81118,58.541682],[-4.810895,58.541681],[-4.810443,58.541725],[-4.810137,58.541799],[-4.809975,58.541903],[-4.809958,58.542036],[-4.810086,58.5422],[-4.81022,58.542344],[-4.810361,58.54247],[-4.810509,58.542576],[-4.810663,58.542663],[-4.81083,58.542731],[-4.811009,58.542778],[-4.8112,58.542806],[-4.811403,58.542814],[-4.811582,58.542848],[-4.811736,58.542908],[-4.811866,58.542993],[-4.811971,58.543104],[-4.811991,58.543198],[-4.811924,58.543276],[-4.811771,58.543338],[-4.811531,58.543383],[-4.81142,58.543439],[-4.811437,58.543508],[-4.811583,58.543588],[-4.811857,58.543681],[-4.811959,58.543804],[-4.811889,58.543959],[-4.811648,58.544145],[-4.811234,58.544362],[-4.810958,58.544549],[-4.810818,58.544706],[-4.810816,58.544832],[-4.81095,58.544927],[-4.810935,58.545016],[-4.81077,58.545099],[-4.810455,58.545175],[-4.809991,58.545245],[-4.809652,58.545323],[-4.809436,58.545412],[-4.809345,58.545509],[-4.809379,58.545616],[-4.809355,58.545686],[-4.809275,58.545719],[-4.809139,58.545716],[-4.808946,58.545676],[-4.808776,58.545627],[-4.808628,58.54557],[-4.808503,58.545504],[-4.808401,58.54543],[-4.80825,58.545383],[-4.808048,58.545366],[-4.807797,58.545377],[-4.807497,58.545416],[-4.807288,58.545465],[-4.807172,58.545524],[-4.807148,58.545593],[-4.807217,58.545671],[-4.807307,58.545731],[-4.807419,58.545774],[-4.807553,58.545799],[-4.807709,58.545806],[-4.807829,58.545821],[-4.807915,58.545842],[-4.807965,58.54587],[-4.807979,58.545905],[-4.808036,58.545934],[-4.808134,58.545957],[-4.808273,58.545974],[-4.808454,58.545985],[-4.808561,58.546009],[-4.808595,58.546049],[-4.808556,58.546102],[-4.808444,58.54617],[-4.808401,58.546229],[-4.808429,58.546282],[-4.808527,58.546326],[-4.808695,58.546362],[-4.808853,58.546408],[-4.808999,58.546462],[-4.809134,58.546525],[-4.809259,58.546597],[-4.809492,58.54665],[-4.809835,58.546682],[-4.810287,58.546695],[-4.810848,58.546688],[-4.811161,58.546721],[-4.811227,58.546794],[-4.811046,58.546906],[-4.810616,58.547057],[-4.810262,58.547185],[-4.809983,58.54729],[-4.809779,58.54737],[-4.809651,58.547428],[-4.80955,58.547523],[-4.809477,58.547657],[-4.809432,58.547829],[-4.809415,58.548039],[-4.809378,58.548209],[-4.809321,58.548337],[-4.809244,58.548426],[-4.809146,58.548473],[-4.809021,58.548502],[-4.808867,58.548513],[-4.808684,58.548506],[-4.808474,58.54848],[-4.808304,58.54849],[-4.808176,58.548534],[-4.80809,58.548615],[-4.808045,58.54873],[-4.807986,58.548821],[-4.807914,58.548887],[-4.807829,58.548928],[-4.80773,58.548945],[-4.807614,58.548983],[-4.80748,58.549041],[-4.807328,58.549119],[-4.807158,58.549217],[-4.807038,58.54931],[-4.806969,58.549397],[-4.806951,58.549479],[-4.806983,58.549555],[-4.806982,58.549623],[-4.806948,58.549682],[-4.806882,58.549732],[-4.806782,58.549774],[-4.806699,58.549827],[-4.806632,58.549893],[-4.806583,58.54997],[-4.80655,58.55006],[-4.806565,58.55013],[-4.806628,58.550181],[-4.806738,58.550214],[-4.806897,58.550227],[-4.807028,58.55028],[-4.807131,58.550372],[-4.807208,58.550505],[-4.807257,58.550677],[-4.8073,58.550862],[-4.807337,58.551061],[-4.807367,58.551272],[-4.807392,58.551496],[-4.807482,58.551627],[-4.807639,58.551665],[-4.807863,58.551609],[-4.808152,58.551461],[-4.808403,58.551324],[-4.808615,58.5512],[-4.808788,58.551087],[-4.808921,58.550987],[-4.80906,58.550884],[-4.809204,58.550779],[-4.809353,58.550672],[-4.809506,58.550563],[-4.809636,58.550453],[-4.809741,58.55034],[-4.809822,58.550225],[-4.809878,58.550109],[-4.809877,58.550037],[-4.809819,58.550009],[-4.809703,58.550027],[-4.809529,58.550089],[-4.809345,58.550118],[-4.80915,58.550116],[-4.808944,58.55008],[-4.808727,58.550012],[-4.808581,58.549936],[-4.808504,58.549853],[-4.808498,58.549762],[-4.808562,58.549663],[-4.808732,58.549572],[-4.809009,58.549489],[-4.809391,58.549415],[-4.80988,58.549348],[-4.810249,58.549344],[-4.810497,58.549403],[-4.810624,58.549524],[-4.810631,58.549707],[-4.810616,58.549874],[-4.81058,58.550025],[-4.810523,58.55016],[-4.810444,58.550279],[-4.810449,58.550354],[-4.810538,58.550384],[-4.810711,58.550369],[-4.810968,58.55031],[-4.811209,58.550297],[-4.811435,58.55033],[-4.811645,58.55041],[-4.811839,58.550535],[-4.812061,58.550623],[-4.812311,58.550672],[-4.812588,58.550682],[-4.812894,58.550655],[-4.813133,58.550601],[-4.813304,58.550521],[-4.813409,58.550414],[-4.813447,58.550281],[-4.813513,58.550188],[-4.813608,58.550134],[-4.813732,58.550121],[-4.813884,58.550147],[-4.814035,58.550144],[-4.814186,58.550112],[-4.814337,58.550051],[-4.814487,58.549961],[-4.814675,58.549906],[-4.814902,58.549887],[-4.815168,58.549904],[-4.815472,58.549956],[-4.815673,58.55003],[-4.815773,58.550126],[-4.81577,58.550245],[-4.815665,58.550385],[-4.815499,58.550528],[-4.815272,58.550672],[-4.814984,58.550819],[-4.814636,58.550968],[-4.814286,58.551092],[-4.813935,58.551192],[-4.813582,58.551268],[-4.813228,58.55132],[-4.812887,58.551445],[-4.81256,58.551643],[-4.812246,58.551916],[-4.811945,58.552261],[-4.811821,58.552545],[-4.811874,58.552766],[-4.812102,58.552924],[-4.812507,58.553021],[-4.812793,58.553133],[-4.812959,58.553262],[-4.813005,58.553407],[-4.812932,58.553568],[-4.812937,58.553733],[-4.81302,58.553902],[-4.813181,58.554074],[-4.81342,58.55425],[-4.813648,58.554393],[-4.813865,58.554504],[-4.814072,58.554582],[-4.814268,58.554628],[-4.814448,58.554706],[-4.814612,58.554817],[-4.81476,58.55496],[-4.814893,58.555135],[-4.815026,58.555277],[-4.81516,58.555385],[-4.815294,58.555459],[-4.815429,58.555499],[-4.815587,58.555477],[-4.815769,58.555392],[-4.815974,58.555246],[-4.816203,58.555036],[-4.816447,58.554891],[-4.816707,58.55481],[-4.816982,58.554794],[-4.817272,58.554841],[-4.817514,58.554905],[-4.817706,58.554985],[-4.817849,58.555081],[-4.817944,58.555193],[-4.817983,58.555292],[-4.817965,58.555376],[-4.817893,58.555447],[-4.817764,58.555504],[-4.817693,58.555572],[-4.817679,58.55565],[-4.817722,58.555739],[-4.817823,58.555838],[-4.817976,58.555922],[-4.818181,58.555991],[-4.818439,58.556046],[-4.81875,58.556085],[-4.81894,58.556131],[-4.81901,58.556185],[-4.818959,58.556246],[-4.818788,58.556314],[-4.818608,58.556347],[-4.81842,58.556347],[-4.818223,58.556312],[-4.818017,58.556242],[-4.817834,58.556218],[-4.817672,58.556239],[-4.817533,58.556305],[-4.817415,58.556416],[-4.817418,58.556508],[-4.817543,58.55658],[-4.817788,58.556632],[-4.818155,58.556665],[-4.818485,58.556667],[-4.818778,58.556638],[-4.819035,58.556577],[-4.819254,58.556486],[-4.819423,58.556384],[-4.819541,58.556273],[-4.819607,58.556152],[-4.819622,58.556022],[-4.819656,58.555893],[-4.819707,58.555764],[-4.819777,58.555637],[-4.819865,58.555511],[-4.819961,58.555425],[-4.820065,58.55538],[-4.820177,58.555375],[-4.820298,58.555411],[-4.820387,58.555467],[-4.820443,58.555544],[-4.820466,58.555641],[-4.820457,58.555758],[-4.82048,58.555869],[-4.820536,58.555973],[-4.820624,58.556071],[-4.820745,58.556161],[-4.820888,58.556222],[-4.821054,58.556253],[-4.821242,58.556254],[-4.821453,58.556224],[-4.821643,58.556165],[-4.821811,58.556076],[-4.821957,58.555957],[-4.822082,58.555808],[-4.82228,58.555691],[-4.822549,58.555606],[-4.822891,58.555553],[-4.823305,58.555532],[-4.823666,58.555503],[-4.823974,58.555466],[-4.824228,58.555421],[-4.824429,58.555368],[-4.824649,58.555313],[-4.824889,58.555255],[-4.825149,58.555196],[-4.825429,58.555134],[-4.825687,58.555114],[-4.825925,58.555133],[-4.826141,58.555194],[-4.826337,58.555295],[-4.826475,58.555385],[-4.826556,58.555465],[-4.826579,58.555534],[-4.826546,58.555593],[-4.82648,58.555627],[-4.826384,58.555634],[-4.826255,58.555616],[-4.826096,58.555572],[-4.825895,58.555563],[-4.825652,58.555586],[-4.825368,58.555644],[-4.825042,58.555735],[-4.824741,58.555821],[-4.824463,58.5559],[-4.824209,58.555974],[-4.82398,58.556043],[-4.823736,58.556126],[-4.823478,58.556225],[-4.823206,58.55634],[-4.82292,58.556469],[-4.822679,58.556587],[-4.822482,58.556691],[-4.82233,58.556783],[-4.822222,58.556862],[-4.822078,58.556958],[-4.821896,58.55707],[-4.821677,58.557198],[-4.821421,58.557343],[-4.821271,58.557453],[-4.821226,58.557529],[-4.821287,58.557569],[-4.821455,58.557576],[-4.821568,58.557615],[-4.821629,58.557688],[-4.821635,58.557795],[-4.821589,58.557935],[-4.821519,58.558033],[-4.821425,58.558089],[-4.821308,58.558104],[-4.821167,58.558076],[-4.821033,58.558044],[-4.820905,58.558006],[-4.820784,58.557962],[-4.820669,58.557914],[-4.820543,58.55792],[-4.820404,58.557981],[-4.820253,58.558098],[-4.820091,58.558269],[-4.819974,58.558459],[-4.819904,58.558669],[-4.819881,58.558899],[-4.819904,58.559148],[-4.81998,58.559404],[-4.82011,58.559669],[-4.820293,58.559941],[-4.820529,58.560222],[-4.820738,58.560438],[-4.820919,58.560589],[-4.821074,58.560676],[-4.821201,58.560699],[-4.821344,58.560794],[-4.821502,58.56096],[-4.821676,58.561198],[-4.821866,58.561508],[-4.822062,58.561784],[-4.822264,58.562025],[-4.822472,58.562232],[-4.822686,58.562404],[-4.822879,58.562535],[-4.823052,58.562623],[-4.823204,58.562669],[-4.823334,58.562673],[-4.823396,58.562727],[-4.823387,58.562833],[-4.823309,58.562988],[-4.823161,58.563195],[-4.823084,58.563352],[-4.823077,58.56346],[-4.82314,58.563519],[-4.823273,58.563529],[-4.82341,58.563526],[-4.823551,58.56351],[-4.823694,58.563482],[-4.823842,58.563441],[-4.823945,58.563442],[-4.824004,58.563485],[-4.824019,58.563569],[-4.82399,58.563695],[-4.823922,58.563799],[-4.823816,58.563881],[-4.823671,58.563941],[-4.823488,58.56398],[-4.823336,58.564032],[-4.823217,58.564097],[-4.82313,58.564176],[-4.823075,58.564268],[-4.823067,58.564333],[-4.823107,58.564372],[-4.823194,58.564383],[-4.823329,58.564368],[-4.823445,58.564365],[-4.823542,58.564372],[-4.823621,58.564391],[-4.82368,58.564422],[-4.823819,58.564443],[-4.824036,58.564456],[-4.824331,58.56446],[-4.824706,58.564455],[-4.824949,58.564502],[-4.825061,58.5646],[-4.825042,58.564749],[-4.824891,58.56495],[-4.824861,58.565092],[-4.82495,58.565178],[-4.825158,58.565205],[-4.825486,58.565175],[-4.825815,58.565194],[-4.826143,58.565262],[-4.826472,58.565379],[-4.826801,58.565544],[-4.827081,58.565671],[-4.827312,58.565759],[-4.827494,58.565808],[-4.827628,58.565818],[-4.82774,58.565848],[-4.827833,58.565899],[-4.827904,58.565971],[-4.827955,58.566063],[-4.827972,58.566138],[-4.827955,58.566195],[-4.827904,58.566235],[-4.827819,58.566256],[-4.82773,58.566303],[-4.827637,58.566374],[-4.82754,58.566471],[-4.827438,58.566593],[-4.827358,58.566703],[-4.8273,58.566801],[-4.827263,58.566888],[-4.827248,58.566963],[-4.827279,58.567015],[-4.827356,58.567043],[-4.827478,58.567048],[-4.827647,58.567029],[-4.827806,58.567024],[-4.827956,58.567032],[-4.828098,58.567053],[-4.82823,58.567087],[-4.828383,58.567136],[-4.828556,58.5672],[-4.828751,58.567278],[-4.828967,58.567371]]]}}