{"type":"Feature","properties":{"id":"265835","COMMUNE":"Angus","PROVINCE":"Angus and Dundee City","COUNTRY":"UK","FIREDATE":"2025-03-20 11:51:00","FINALDATE":"2025-03-20 13:33:00","CLASS":"FireSeason","areaHA_geo":1.37},"geometry":{"type":"Polygon","coordinates":[[[-2.754072,56.941259],[-2.754238,56.941375],[-2.754454,56.941438],[-2.754719,56.941449],[-2.755035,56.941407],[-2.755303,56.941328],[-2.755525,56.941211],[-2.7557,56.941056],[-2.755829,56.940864],[-2.755874,56.940669],[-2.755835,56.940472],[-2.755714,56.940272],[-2.755509,56.94007],[-2.755267,56.939986],[-2.754987,56.940018],[-2.75467,56.940169],[-2.754315,56.940436],[-2.754078,56.940679],[-2.753959,56.940897],[-2.753957,56.94109],[-2.754072,56.941259]]]}}