{"type":"Feature","properties":{"id":"265870","COMMUNE":"Caithness and Sutherland","PROVINCE":"Caithness & Sutherland and Ross & Cromarty","COUNTRY":"UK","FIREDATE":"2025-03-21 11:34:00","FINALDATE":"2025-03-21 11:34:00","CLASS":"FireSeason","areaHA_geo":10.22},"geometry":{"type":"Polygon","coordinates":[[[-4.837275,58.534126],[-4.837572,58.534229],[-4.837763,58.53427],[-4.837848,58.534248],[-4.837826,58.534163],[-4.837833,58.534077],[-4.837869,58.533989],[-4.837934,58.5339],[-4.838028,58.53381],[-4.838081,58.533737],[-4.838092,58.533681],[-4.838062,58.533643],[-4.83799,58.533622],[-4.83791,58.533613],[-4.837822,58.533618],[-4.837725,58.533635],[-4.837619,58.533665],[-4.837524,58.533683],[-4.83744,58.533691],[-4.837367,58.533687],[-4.837305,58.533672],[-4.837294,58.533642],[-4.837334,58.533596],[-4.837424,58.533534],[-4.837566,58.533456],[-4.837677,58.53337],[-4.837758,58.533273],[-4.837809,58.533168],[-4.83783,58.533053],[-4.837878,58.532979],[-4.837955,58.532945],[-4.838058,58.532951],[-4.83819,58.532999],[-4.83831,58.533008],[-4.83842,58.532979],[-4.838519,58.532913],[-4.838607,58.532809],[-4.83865,58.5327],[-4.838647,58.532586],[-4.838598,58.532467],[-4.838504,58.532343],[-4.838386,58.532217],[-4.838245,58.532089],[-4.838081,58.531959],[-4.837893,58.531827],[-4.837771,58.531734],[-4.837716,58.531678],[-4.837728,58.53166],[-4.837806,58.531681],[-4.837916,58.531713],[-4.838056,58.531758],[-4.838228,58.531814],[-4.838431,58.531882],[-4.838616,58.53193],[-4.838784,58.531957],[-4.838934,58.531963],[-4.839067,58.531948],[-4.839125,58.531924],[-4.839108,58.531892],[-4.839016,58.53185],[-4.838848,58.5318],[-4.838671,58.531734],[-4.838483,58.531653],[-4.838286,58.531557],[-4.838079,58.531445],[-4.83795,58.531339],[-4.8379,58.531237],[-4.837929,58.531141],[-4.838036,58.531049],[-4.838145,58.53098],[-4.838255,58.530936],[-4.838366,58.530914],[-4.838478,58.530916],[-4.838589,58.530911],[-4.838699,58.530899],[-4.838807,58.53088],[-4.838914,58.530853],[-4.838939,58.530793],[-4.838882,58.5307],[-4.838743,58.530573],[-4.838522,58.530412],[-4.838303,58.530302],[-4.838087,58.530242],[-4.837872,58.530233],[-4.83766,58.530275],[-4.837454,58.530302],[-4.837254,58.530313],[-4.837059,58.530309],[-4.83687,58.53029],[-4.836661,58.530289],[-4.836431,58.530305],[-4.836181,58.530339],[-4.835911,58.530391],[-4.835609,58.530452],[-4.835278,58.530524],[-4.834915,58.530605],[-4.834522,58.530695],[-4.834249,58.53074],[-4.834095,58.530739],[-4.834061,58.530692],[-4.834147,58.530599],[-4.834272,58.530495],[-4.834436,58.530381],[-4.834639,58.530256],[-4.834881,58.53012],[-4.835104,58.529997],[-4.835308,58.529887],[-4.835493,58.529791],[-4.835659,58.529707],[-4.835848,58.529593],[-4.836059,58.52945],[-4.836292,58.529277],[-4.836547,58.529075],[-4.836714,58.52891],[-4.836793,58.528783],[-4.836783,58.528694],[-4.836685,58.528643],[-4.836591,58.528602],[-4.836501,58.52857],[-4.836415,58.528548],[-4.836333,58.528535],[-4.836243,58.528524],[-4.836145,58.528515],[-4.83604,58.528508],[-4.835926,58.528502],[-4.83584,58.528479],[-4.835781,58.528438],[-4.835749,58.52838],[-4.835745,58.528304],[-4.835692,58.52825],[-4.835592,58.528218],[-4.835443,58.528207],[-4.835246,58.528218],[-4.835126,58.52826],[-4.835083,58.528331],[-4.835118,58.528434],[-4.83523,58.528567],[-4.835286,58.528692],[-4.835287,58.52881],[-4.835233,58.52892],[-4.835123,58.529023],[-4.834985,58.529158],[-4.834819,58.529323],[-4.834624,58.52952],[-4.8344,58.529748],[-4.834202,58.529946],[-4.834029,58.530114],[-4.833883,58.530252],[-4.833761,58.53036],[-4.833651,58.530473],[-4.833551,58.530591],[-4.833462,58.530715],[-4.833384,58.530843],[-4.833285,58.530966],[-4.833164,58.531083],[-4.833021,58.531194],[-4.832857,58.531299],[-4.832749,58.531398],[-4.832698,58.531491],[-4.832703,58.531578],[-4.832765,58.531658],[-4.832858,58.531698],[-4.832983,58.531697],[-4.833139,58.531655],[-4.833327,58.531572],[-4.833506,58.531488],[-4.833675,58.531402],[-4.833834,58.531315],[-4.833984,58.531225],[-4.834128,58.531149],[-4.834264,58.531084],[-4.834394,58.531033],[-4.834516,58.530994],[-4.834599,58.530997],[-4.834642,58.531041],[-4.834645,58.531127],[-4.834609,58.531254],[-4.834574,58.531364],[-4.83454,58.531457],[-4.834507,58.531532],[-4.834476,58.53159],[-4.834446,58.531654],[-4.834415,58.531722],[-4.834386,58.531796],[-4.834357,58.531876],[-4.834293,58.531943],[-4.834194,58.531997],[-4.834061,58.53204],[-4.833892,58.532069],[-4.833715,58.532091],[-4.833529,58.532104],[-4.833335,58.532109],[-4.833132,58.532106],[-4.832958,58.532123],[-4.832813,58.532159],[-4.832697,58.532214],[-4.832611,58.532289],[-4.83257,58.53237],[-4.832575,58.532456],[-4.832627,58.532549],[-4.832724,58.532647],[-4.832828,58.532742],[-4.83294,58.532833],[-4.833059,58.532921],[-4.833185,58.533005],[-4.833299,58.533053],[-4.833402,58.533065],[-4.833493,58.533041],[-4.833572,58.532982],[-4.83366,58.532909],[-4.833756,58.532824],[-4.833861,58.532726],[-4.833974,58.532616],[-4.834137,58.532504],[-4.83435,58.532392],[-4.834614,58.532278],[-4.834927,58.532163],[-4.835199,58.532053],[-4.835429,58.531948],[-4.835618,58.531847],[-4.835765,58.531751],[-4.835852,58.531709],[-4.835879,58.531723],[-4.835845,58.531791],[-4.835751,58.531914],[-4.835663,58.532035],[-4.83558,58.532153],[-4.835504,58.532268],[-4.835434,58.532381],[-4.835421,58.532478],[-4.835465,58.532559],[-4.835567,58.532623],[-4.835726,58.53267],[-4.835843,58.532736],[-4.835917,58.532821],[-4.835948,58.532924],[-4.835937,58.533045],[-4.83595,58.533166],[-4.835987,58.533287],[-4.836049,58.533408],[-4.836135,58.53353],[-4.836301,58.533662],[-4.836546,58.533805],[-4.83687,58.53396],[-4.837275,58.534126]]]}}