{"type":"Feature","properties":{"id":"265890","COMMUNE":"Skye and Lochalsh","PROVINCE":"Lochaber, Skye & Lochalsh, Arran & Cumbrae and Argyll & Bute","COUNTRY":"UK","FIREDATE":"2025-03-21 03:21:00","FINALDATE":"2025-03-21 03:47:00","CLASS":"FireSeason","areaHA_geo":31.415},"geometry":{"type":"Polygon","coordinates":[[[-6.367953,57.218152],[-6.368191,57.218127],[-6.368372,57.218091],[-6.368495,57.218044],[-6.36856,57.217987],[-6.368568,57.217919],[-6.368614,57.217849],[-6.368697,57.217779],[-6.368819,57.217708],[-6.368979,57.217636],[-6.369069,57.217564],[-6.369089,57.217492],[-6.36904,57.217419],[-6.368921,57.217346],[-6.368872,57.217278],[-6.368892,57.217216],[-6.368982,57.21716],[-6.369141,57.217108],[-6.369257,57.217008],[-6.369329,57.216859],[-6.369358,57.216662],[-6.369344,57.216415],[-6.369397,57.216222],[-6.369517,57.216083],[-6.369704,57.215997],[-6.369958,57.215965],[-6.370215,57.215886],[-6.370475,57.21576],[-6.370738,57.215587],[-6.371004,57.215367],[-6.37121,57.215173],[-6.371357,57.215007],[-6.371443,57.214868],[-6.37147,57.214756],[-6.371532,57.214664],[-6.371629,57.214593],[-6.371762,57.214541],[-6.37193,57.214509],[-6.372113,57.214459],[-6.372313,57.21439],[-6.372527,57.214302],[-6.372758,57.214195],[-6.372999,57.214119],[-6.373253,57.214074],[-6.373517,57.21406],[-6.373793,57.214077],[-6.374047,57.214108],[-6.374278,57.214154],[-6.374487,57.214214],[-6.374674,57.214289],[-6.374938,57.214333],[-6.37528,57.214347],[-6.375699,57.21433],[-6.376195,57.214283],[-6.376597,57.214238],[-6.376905,57.214197],[-6.377118,57.214158],[-6.377236,57.214123],[-6.377327,57.21407],[-6.377392,57.213999],[-6.377429,57.213912],[-6.37744,57.213807],[-6.377366,57.213739],[-6.377208,57.213707],[-6.376966,57.213712],[-6.376639,57.213753],[-6.376376,57.213775],[-6.376175,57.213777],[-6.376038,57.213759],[-6.375964,57.213722],[-6.375873,57.213711],[-6.375765,57.213728],[-6.375641,57.213771],[-6.375499,57.21384],[-6.375327,57.21389],[-6.375125,57.213921],[-6.374893,57.213932],[-6.374631,57.213924],[-6.374372,57.213908],[-6.374116,57.213883],[-6.373864,57.21385],[-6.373616,57.213809],[-6.37344,57.213716],[-6.373337,57.213572],[-6.373307,57.213375],[-6.373349,57.213126],[-6.37332,57.212958],[-6.373218,57.21287],[-6.373044,57.212862],[-6.372799,57.212934],[-6.372608,57.212974],[-6.372472,57.212981],[-6.372391,57.212955],[-6.372365,57.212896],[-6.372347,57.212836],[-6.372339,57.212775],[-6.37234,57.212713],[-6.37235,57.212649],[-6.372274,57.212559],[-6.372112,57.212443],[-6.371863,57.212299],[-6.371529,57.21213],[-6.371222,57.212001],[-6.370944,57.211915],[-6.370694,57.21187],[-6.370472,57.211867],[-6.370299,57.211883],[-6.370175,57.211916],[-6.3701,57.211969],[-6.370074,57.212039],[-6.370021,57.21208],[-6.369939,57.21209],[-6.369829,57.21207],[-6.369692,57.21202],[-6.36956,57.211993],[-6.369433,57.211988],[-6.369312,57.212006],[-6.369196,57.212047],[-6.369059,57.212095],[-6.368902,57.212151],[-6.368725,57.212215],[-6.368527,57.212287],[-6.368298,57.212334],[-6.36804,57.212356],[-6.367751,57.212354],[-6.367432,57.212327],[-6.367153,57.212313],[-6.366913,57.212312],[-6.366713,57.212325],[-6.366551,57.21235],[-6.366406,57.212384],[-6.366276,57.212426],[-6.366162,57.212477],[-6.366064,57.212536],[-6.365936,57.212575],[-6.365777,57.212596],[-6.365588,57.212596],[-6.365368,57.212577],[-6.365187,57.212569],[-6.365045,57.212572],[-6.36494,57.212585],[-6.364874,57.212609],[-6.364814,57.212641],[-6.364761,57.212681],[-6.364713,57.21273],[-6.364671,57.212787],[-6.364618,57.212829],[-6.364553,57.212855],[-6.364476,57.212866],[-6.364388,57.212862],[-6.364227,57.212887],[-6.363993,57.212943],[-6.363686,57.213028],[-6.363306,57.213143],[-6.363042,57.213251],[-6.362895,57.213349],[-6.362863,57.21344],[-6.362948,57.213523],[-6.362993,57.213592],[-6.362999,57.213648],[-6.362966,57.213691],[-6.362893,57.213721],[-6.362825,57.213767],[-6.362762,57.21383],[-6.362703,57.213908],[-6.36265,57.214003],[-6.362536,57.214082],[-6.362363,57.214145],[-6.362131,57.214193],[-6.361838,57.214225],[-6.36152,57.214275],[-6.361177,57.214344],[-6.360809,57.214432],[-6.360416,57.214539],[-6.360131,57.214625],[-6.359954,57.214692],[-6.359886,57.214738],[-6.359927,57.214764],[-6.360005,57.214785],[-6.360123,57.214801],[-6.360279,57.214812],[-6.360474,57.214819],[-6.360648,57.214845],[-6.360802,57.21489],[-6.360937,57.214954],[-6.361051,57.215038],[-6.361207,57.215136],[-6.361406,57.215248],[-6.361647,57.215375],[-6.36193,57.215515],[-6.362179,57.215655],[-6.362396,57.215796],[-6.362579,57.215937],[-6.362728,57.216079],[-6.362881,57.216202],[-6.363038,57.216306],[-6.363199,57.216392],[-6.363363,57.216459],[-6.363515,57.216515],[-6.363654,57.21656],[-6.363782,57.216593],[-6.363897,57.216615],[-6.364006,57.216629],[-6.364111,57.216637],[-6.364209,57.216637],[-6.364302,57.216631],[-6.364419,57.216657],[-6.364561,57.216717],[-6.364727,57.21681],[-6.364918,57.216936],[-6.365004,57.217038],[-6.364985,57.217115],[-6.364863,57.217168],[-6.364636,57.217197],[-6.364523,57.217238],[-6.364523,57.217292],[-6.364637,57.21736],[-6.364864,57.21744],[-6.365094,57.217502],[-6.365325,57.217548],[-6.365558,57.217577],[-6.365794,57.217589],[-6.36604,57.217604],[-6.366298,57.217623],[-6.366567,57.217646],[-6.366848,57.217673],[-6.367078,57.217723],[-6.367259,57.217795],[-6.367391,57.217891],[-6.367473,57.21801],[-6.367594,57.218093],[-6.367754,57.218141],[-6.367953,57.218152]]]}}