{"type":"Feature","properties":{"id":"265853","COMMUNE":"Ross and Cromarty","PROVINCE":"Caithness & Sutherland and Ross & Cromarty","COUNTRY":"UK","FIREDATE":"2025-04-03 12:53:00","CLASS":"FireSeason","areaHA_geo":0.686},"geometry":{"type":"Polygon","coordinates":[[[-4.796191,57.6066],[-4.79663,57.606823],[-4.796998,57.60694],[-4.797294,57.60695],[-4.797518,57.606854],[-4.797643,57.606759],[-4.79767,57.606664],[-4.797598,57.606569],[-4.797428,57.606474],[-4.797159,57.606368],[-4.796792,57.606251],[-4.796325,57.606124],[-4.795759,57.605985],[-4.795463,57.605964],[-4.795437,57.606059],[-4.795679,57.606271],[-4.796191,57.6066]]]}}