{"type":"Feature","properties":{"id":"265832","COMMUNE":"Angus","PROVINCE":"Angus and Dundee City","COUNTRY":"UK","FIREDATE":"2025-03-20 11:51:00","CLASS":"FireSeason","areaHA_geo":16.157},"geometry":{"type":"Polygon","coordinates":[[[-2.758372,56.939592],[-2.75847,56.939908],[-2.758678,56.940178],[-2.758998,56.940403],[-2.759427,56.940583],[-2.759778,56.940715],[-2.760049,56.9408],[-2.760241,56.940836],[-2.760354,56.940825],[-2.76048,56.940797],[-2.760619,56.940751],[-2.760773,56.940689],[-2.760939,56.940609],[-2.761052,56.940458],[-2.761112,56.940235],[-2.761118,56.939941],[-2.761071,56.939575],[-2.761039,56.939253],[-2.761021,56.938974],[-2.761019,56.938739],[-2.761031,56.938548],[-2.761089,56.938447],[-2.761192,56.938437],[-2.76134,56.938517],[-2.761535,56.938689],[-2.761705,56.93886],[-2.76185,56.93903],[-2.761971,56.939201],[-2.762068,56.939371],[-2.762153,56.939561],[-2.762224,56.939771],[-2.762283,56.94],[-2.762329,56.94025],[-2.762403,56.940451],[-2.762504,56.940605],[-2.762633,56.940712],[-2.762788,56.94077],[-2.762929,56.940714],[-2.763055,56.940543],[-2.763166,56.940257],[-2.763262,56.939856],[-2.763303,56.939509],[-2.76329,56.939214],[-2.763222,56.938972],[-2.763099,56.938783],[-2.763035,56.938623],[-2.763028,56.938491],[-2.763081,56.938388],[-2.763191,56.938314],[-2.763322,56.938216],[-2.763475,56.938095],[-2.763649,56.937951],[-2.763844,56.937784],[-2.763965,56.937613],[-2.764012,56.937439],[-2.763986,56.937262],[-2.763885,56.937082],[-2.76387,56.936896],[-2.76394,56.936704],[-2.764096,56.936506],[-2.764337,56.936302],[-2.764475,56.936154],[-2.764511,56.93606],[-2.764445,56.936022],[-2.764276,56.936038],[-2.764182,56.935963],[-2.764164,56.935796],[-2.764221,56.935536],[-2.764353,56.935185],[-2.764364,56.934932],[-2.764253,56.934779],[-2.764021,56.934725],[-2.763668,56.934771],[-2.763358,56.934899],[-2.763091,56.935111],[-2.762867,56.935405],[-2.762686,56.935783],[-2.762583,56.936121],[-2.762559,56.936419],[-2.762613,56.936678],[-2.762746,56.936898],[-2.762786,56.937029],[-2.762733,56.937071],[-2.762586,56.937025],[-2.762346,56.93689],[-2.762135,56.936784],[-2.761954,56.936706],[-2.761801,56.936658],[-2.761678,56.936638],[-2.761551,56.936606],[-2.761419,56.936561],[-2.761283,56.936503],[-2.761142,56.936432],[-2.760971,56.936369],[-2.760768,56.936315],[-2.760534,56.93627],[-2.76027,56.936232],[-2.760015,56.936141],[-2.759772,56.935996],[-2.759539,56.935797],[-2.759317,56.935543],[-2.759069,56.935372],[-2.758797,56.935283],[-2.758498,56.935275],[-2.758174,56.935349],[-2.757947,56.935448],[-2.757814,56.935572],[-2.757778,56.935721],[-2.757837,56.935895],[-2.757865,56.936075],[-2.75786,56.936261],[-2.757824,56.936452],[-2.757755,56.936649],[-2.757738,56.936812],[-2.757772,56.936941],[-2.757858,56.937036],[-2.757995,56.937096],[-2.758096,56.937192],[-2.75816,56.937323],[-2.758187,56.93749],[-2.758179,56.937692],[-2.758187,56.937887],[-2.758212,56.938074],[-2.758255,56.938255],[-2.758314,56.938429],[-2.758356,56.93865],[-2.758379,56.938917],[-2.758384,56.939232],[-2.758372,56.939592]]]}}