{"type":"Feature","properties":{"id":"265838","COMMUNE":"Angus","PROVINCE":"Angus and Dundee City","COUNTRY":"UK","FIREDATE":"2025-03-07 12:12:00","CLASS":"FireSeason","areaHA_geo":4.959},"geometry":{"type":"Polygon","coordinates":[[[-2.761884,56.951358],[-2.762058,56.951399],[-2.762243,56.951285],[-2.762437,56.951018],[-2.762642,56.950595],[-2.762754,56.950283],[-2.762772,56.95008],[-2.762697,56.949987],[-2.762528,56.950004],[-2.762375,56.949969],[-2.762239,56.949882],[-2.762118,56.949743],[-2.762014,56.949552],[-2.761879,56.949454],[-2.761713,56.949449],[-2.761515,56.949538],[-2.761286,56.949719],[-2.760981,56.949807],[-2.760601,56.949802],[-2.760146,56.949704],[-2.759615,56.949513],[-2.759214,56.94946],[-2.758942,56.949545],[-2.7588,56.949768],[-2.758788,56.950129],[-2.758712,56.950419],[-2.758574,56.950639],[-2.758373,56.950789],[-2.758109,56.950868],[-2.757961,56.950975],[-2.757929,56.95111],[-2.758014,56.951273],[-2.758216,56.951465],[-2.758409,56.951621],[-2.758596,56.95174],[-2.758774,56.951823],[-2.758945,56.951869],[-2.7591,56.951883],[-2.759239,56.951864],[-2.759362,56.951812],[-2.759469,56.951728],[-2.759632,56.951651],[-2.759851,56.951582],[-2.760126,56.95152],[-2.760457,56.951467],[-2.760695,56.951398],[-2.760842,56.951315],[-2.760895,56.951217],[-2.760857,56.951105],[-2.76087,56.951016],[-2.760936,56.950951],[-2.761053,56.950911],[-2.761222,56.950894],[-2.761389,56.95093],[-2.761556,56.95102],[-2.761721,56.951162],[-2.761884,56.951358]]]}}