{"type":"Feature","properties":{"id":"265879","COMMUNE":"Caithness and Sutherland","PROVINCE":"Caithness & Sutherland and Ross & Cromarty","COUNTRY":"UK","FIREDATE":"2025-03-21 12:53:13.417","CLASS":"FireSeason","areaHA_geo":498.453},"geometry":{"type":"Polygon","coordinates":[[[-4.674627,58.545254],[-4.674786,58.545344],[-4.675038,58.545364],[-4.675383,58.545313],[-4.67582,58.545192],[-4.676202,58.545064],[-4.67653,58.544928],[-4.676803,58.544786],[-4.677021,58.544637],[-4.677261,58.544539],[-4.677522,58.544493],[-4.677805,58.544498],[-4.67811,58.544556],[-4.678386,58.544576],[-4.678633,58.544559],[-4.678851,58.544506],[-4.67904,58.544415],[-4.679213,58.544325],[-4.679369,58.544235],[-4.679508,58.544144],[-4.679631,58.544054],[-4.679781,58.543973],[-4.679958,58.543902],[-4.680162,58.543839],[-4.680394,58.543786],[-4.680587,58.543665],[-4.680742,58.543477],[-4.680859,58.543222],[-4.680938,58.5429],[-4.681021,58.54269],[-4.681108,58.542594],[-4.681198,58.54261],[-4.681292,58.542739],[-4.681377,58.542862],[-4.681453,58.54298],[-4.681519,58.543091],[-4.681577,58.543196],[-4.681614,58.543302],[-4.681632,58.543408],[-4.68163,58.543514],[-4.681608,58.543621],[-4.681643,58.543705],[-4.681735,58.543765],[-4.681883,58.543801],[-4.682089,58.543813],[-4.682251,58.54384],[-4.682369,58.543883],[-4.682443,58.543941],[-4.682474,58.544015],[-4.682562,58.544066],[-4.682708,58.544095],[-4.682912,58.544103],[-4.683173,58.544088],[-4.683427,58.544025],[-4.683675,58.543914],[-4.683916,58.543756],[-4.68415,58.543549],[-4.684384,58.54339],[-4.684619,58.543281],[-4.684854,58.54322],[-4.68509,58.543208],[-4.685347,58.543161],[-4.685627,58.543078],[-4.685928,58.54296],[-4.686251,58.542806],[-4.686612,58.542663],[-4.687012,58.542532],[-4.68745,58.542413],[-4.687926,58.542305],[-4.68834,58.5422],[-4.688691,58.542099],[-4.688981,58.542001],[-4.689209,58.541906],[-4.689461,58.541823],[-4.689738,58.541751],[-4.69004,58.54169],[-4.690367,58.54164],[-4.690753,58.541495],[-4.691201,58.541254],[-4.691708,58.540917],[-4.692275,58.540486],[-4.692713,58.540127],[-4.693022,58.539842],[-4.6932,58.539631],[-4.693249,58.539493],[-4.693352,58.539332],[-4.693509,58.539147],[-4.693719,58.53894],[-4.693983,58.538708],[-4.694164,58.538518],[-4.694261,58.538368],[-4.694275,58.538258],[-4.694206,58.538189],[-4.694077,58.538175],[-4.693887,58.538217],[-4.693637,58.538314],[-4.693327,58.538467],[-4.693048,58.538623],[-4.692801,58.538782],[-4.692586,58.538945],[-4.692402,58.539112],[-4.692197,58.539253],[-4.691971,58.539368],[-4.691725,58.539458],[-4.691458,58.539522],[-4.691298,58.53954],[-4.691246,58.539511],[-4.691301,58.539435],[-4.691463,58.539312],[-4.691497,58.539154],[-4.691402,58.538958],[-4.691178,58.538727],[-4.690825,58.538459],[-4.690508,58.538235],[-4.690226,58.538057],[-4.68998,58.537924],[-4.689769,58.537835],[-4.68956,58.537799],[-4.689353,58.537815],[-4.689147,58.537882],[-4.688944,58.538002],[-4.688775,58.538063],[-4.688642,58.538063],[-4.688544,58.538004],[-4.688481,58.537886],[-4.688441,58.537744],[-4.688425,58.537578],[-4.688433,58.537389],[-4.688464,58.537176],[-4.688476,58.537006],[-4.68847,58.536878],[-4.688444,58.536792],[-4.688398,58.536748],[-4.688325,58.536724],[-4.688224,58.536721],[-4.688094,58.536739],[-4.687937,58.536777],[-4.687783,58.536801],[-4.687633,58.536811],[-4.687487,58.536806],[-4.687346,58.536786],[-4.687254,58.536758],[-4.687211,58.536721],[-4.687219,58.536675],[-4.687276,58.53662],[-4.687308,58.536552],[-4.687314,58.536471],[-4.687295,58.536377],[-4.68725,58.53627],[-4.687226,58.536174],[-4.687223,58.536087],[-4.687241,58.53601],[-4.68728,58.535943],[-4.687263,58.535878],[-4.68719,58.535817],[-4.687062,58.535758],[-4.686878,58.535701],[-4.686766,58.535626],[-4.686727,58.535533],[-4.686761,58.535421],[-4.686867,58.535291],[-4.686965,58.535198],[-4.687055,58.535143],[-4.687138,58.535125],[-4.687213,58.535145],[-4.687303,58.535152],[-4.687408,58.535148],[-4.687528,58.535131],[-4.687663,58.535102],[-4.687857,58.535071],[-4.688109,58.535036],[-4.688421,58.534998],[-4.688791,58.534958],[-4.689151,58.534924],[-4.6895,58.534896],[-4.689839,58.534874],[-4.690167,58.534859],[-4.690435,58.534863],[-4.690645,58.534885],[-4.690796,58.534926],[-4.690888,58.534986],[-4.690902,58.535068],[-4.690839,58.535173],[-4.690698,58.5353],[-4.69048,58.535449],[-4.690366,58.535566],[-4.690354,58.535651],[-4.690447,58.535704],[-4.690642,58.535724],[-4.690846,58.535709],[-4.691059,58.535657],[-4.691279,58.535571],[-4.691509,58.535448],[-4.69168,58.535394],[-4.691793,58.53541],[-4.691849,58.535494],[-4.691846,58.535648],[-4.691885,58.535773],[-4.691965,58.535868],[-4.692087,58.535935],[-4.69225,58.535973],[-4.692387,58.536023],[-4.6925,58.536083],[-4.692587,58.536156],[-4.692649,58.53624],[-4.692679,58.536304],[-4.692678,58.53635],[-4.692645,58.536376],[-4.692582,58.536383],[-4.692494,58.536389],[-4.692383,58.536394],[-4.692247,58.536399],[-4.692089,58.536402],[-4.691971,58.536426],[-4.691896,58.536469],[-4.691862,58.536532],[-4.69187,58.536614],[-4.691935,58.536681],[-4.692056,58.53673],[-4.692233,58.536763],[-4.692467,58.536779],[-4.692696,58.536775],[-4.692919,58.53675],[-4.693138,58.536706],[-4.693351,58.53664],[-4.693531,58.536624],[-4.693678,58.536657],[-4.693793,58.536738],[-4.693874,58.536869],[-4.694018,58.536982],[-4.694225,58.537078],[-4.694496,58.537156],[-4.694828,58.537217],[-4.695015,58.537216],[-4.695055,58.537153],[-4.694949,58.537026],[-4.694696,58.536838],[-4.694491,58.536674],[-4.694332,58.536535],[-4.69422,58.536419],[-4.694156,58.536329],[-4.694155,58.536256],[-4.694219,58.5362],[-4.694346,58.536162],[-4.694538,58.536141],[-4.69471,58.536137],[-4.694863,58.536152],[-4.694997,58.536184],[-4.695112,58.536235],[-4.695232,58.536291],[-4.695359,58.536354],[-4.695491,58.536423],[-4.69563,58.536498],[-4.695712,58.536481],[-4.695739,58.53637],[-4.695711,58.536165],[-4.695626,58.535868],[-4.695577,58.535631],[-4.695563,58.535455],[-4.695585,58.535339],[-4.695642,58.535284],[-4.695793,58.535238],[-4.696038,58.5352],[-4.696377,58.535172],[-4.696809,58.535152],[-4.697046,58.535119],[-4.697087,58.535073],[-4.696932,58.535013],[-4.69658,58.53494],[-4.696326,58.534867],[-4.696168,58.534794],[-4.696107,58.53472],[-4.696143,58.534646],[-4.696215,58.534593],[-4.696321,58.534561],[-4.696463,58.534549],[-4.69664,58.534557],[-4.696821,58.534542],[-4.697006,58.534505],[-4.697194,58.534444],[-4.697386,58.53436],[-4.697561,58.534315],[-4.697718,58.534308],[-4.697859,58.53434],[-4.697982,58.53441],[-4.698092,58.534441],[-4.698189,58.534434],[-4.698273,58.534388],[-4.698345,58.534304],[-4.698396,58.534202],[-4.698426,58.534084],[-4.698436,58.533949],[-4.698426,58.533796],[-4.698391,58.533689],[-4.698331,58.533625],[-4.698246,58.533607],[-4.698137,58.533633],[-4.697989,58.533677],[-4.697801,58.533739],[-4.697574,58.53382],[-4.697308,58.533919],[-4.697078,58.533951],[-4.696883,58.533917],[-4.696724,58.533816],[-4.6966,58.533648],[-4.696553,58.533526],[-4.696581,58.53345],[-4.696685,58.533419],[-4.696865,58.533434],[-4.696983,58.533421],[-4.697039,58.53338],[-4.697034,58.533311],[-4.696966,58.533214],[-4.696974,58.533152],[-4.697056,58.533125],[-4.697214,58.533134],[-4.697446,58.533179],[-4.697638,58.533198],[-4.697789,58.533192],[-4.697899,58.53316],[-4.697969,58.533104],[-4.697976,58.533042],[-4.697922,58.532975],[-4.697804,58.532902],[-4.697625,58.532824],[-4.697458,58.532754],[-4.697305,58.53269],[-4.697164,58.532634],[-4.697037,58.532585],[-4.696905,58.532516],[-4.696767,58.532427],[-4.696624,58.532317],[-4.696476,58.532187],[-4.696323,58.532054],[-4.696166,58.531917],[-4.696004,58.531778],[-4.695838,58.531636],[-4.695809,58.531552],[-4.695919,58.531526],[-4.696166,58.531558],[-4.696551,58.531648],[-4.696889,58.531721],[-4.697179,58.531777],[-4.697422,58.531814],[-4.697618,58.531835],[-4.697783,58.531886],[-4.697918,58.531969],[-4.698022,58.532083],[-4.698097,58.532229],[-4.698174,58.532333],[-4.698254,58.532398],[-4.698338,58.532422],[-4.698425,58.532405],[-4.698502,58.532336],[-4.698571,58.532213],[-4.698631,58.532037],[-4.698682,58.531809],[-4.698759,58.531624],[-4.69886,58.531484],[-4.698987,58.531388],[-4.699139,58.531337],[-4.699257,58.531324],[-4.699342,58.531349],[-4.699392,58.531413],[-4.699408,58.531516],[-4.699413,58.531615],[-4.699406,58.53171],[-4.699387,58.531801],[-4.699357,58.531888],[-4.699323,58.531974],[-4.699285,58.532058],[-4.699242,58.532141],[-4.699197,58.532223],[-4.699166,58.532317],[-4.69915,58.532423],[-4.69915,58.532542],[-4.699165,58.532673],[-4.699227,58.532758],[-4.699337,58.532798],[-4.699496,58.532793],[-4.699702,58.532743],[-4.699841,58.532684],[-4.699913,58.532617],[-4.699918,58.532541],[-4.699856,58.532457],[-4.69981,58.532356],[-4.69978,58.532237],[-4.699767,58.532101],[-4.699769,58.531947],[-4.699861,58.531824],[-4.700043,58.531731],[-4.700313,58.531668],[-4.700674,58.531635],[-4.700993,58.531647],[-4.701271,58.531704],[-4.701507,58.531805],[-4.701701,58.531951],[-4.701902,58.532079],[-4.702108,58.532189],[-4.702321,58.532281],[-4.702538,58.532355],[-4.702754,58.532406],[-4.702966,58.532435],[-4.703176,58.532442],[-4.703383,58.532426],[-4.703515,58.53239],[-4.703572,58.532335],[-4.703555,58.532261],[-4.703462,58.532166],[-4.70334,58.532092],[-4.703191,58.532039],[-4.703014,58.532006],[-4.702808,58.531994],[-4.70265,58.531943],[-4.702539,58.531854],[-4.702476,58.531727],[-4.70246,58.531561],[-4.702483,58.531433],[-4.702545,58.531343],[-4.702647,58.53129],[-4.702787,58.531274],[-4.702972,58.531245],[-4.703201,58.531203],[-4.703475,58.531147],[-4.703793,58.531077],[-4.70407,58.531012],[-4.704305,58.530951],[-4.704499,58.530895],[-4.704651,58.530843],[-4.70475,58.530778],[-4.704798,58.5307],[-4.704793,58.530608],[-4.704735,58.530503],[-4.704741,58.530422],[-4.704811,58.530365],[-4.704945,58.530333],[-4.705142,58.530326],[-4.705279,58.530293],[-4.705355,58.530236],[-4.705371,58.530154],[-4.705326,58.530047],[-4.705314,58.529963],[-4.705335,58.529902],[-4.705389,58.529863],[-4.705475,58.529846],[-4.705548,58.529805],[-4.705608,58.529739],[-4.705653,58.529649],[-4.705685,58.529534],[-4.705728,58.52943],[-4.705783,58.529336],[-4.705849,58.529254],[-4.705926,58.529183],[-4.705974,58.529076],[-4.705995,58.528935],[-4.705988,58.528758],[-4.705952,58.528545],[-4.705972,58.528425],[-4.706047,58.528396],[-4.706176,58.528458],[-4.706361,58.528612],[-4.706543,58.528704],[-4.706722,58.528733],[-4.706899,58.5287],[-4.707072,58.528604],[-4.70716,58.528503],[-4.707163,58.528399],[-4.707081,58.528289],[-4.706913,58.528175],[-4.706752,58.528062],[-4.706598,58.52795],[-4.706451,58.527839],[-4.706311,58.527728],[-4.70616,58.527621],[-4.705996,58.527517],[-4.70582,58.527416],[-4.705632,58.527318],[-4.705424,58.527228],[-4.705195,58.527145],[-4.704946,58.527069],[-4.704677,58.527001],[-4.704469,58.526927],[-4.704321,58.526845],[-4.704234,58.526757],[-4.704208,58.526662],[-4.704244,58.526582],[-4.704343,58.526515],[-4.704505,58.526462],[-4.704729,58.526424],[-4.704947,58.526442],[-4.705159,58.526516],[-4.705364,58.526647],[-4.705563,58.526834],[-4.705776,58.526992],[-4.706003,58.527121],[-4.706245,58.52722],[-4.706501,58.527289],[-4.706767,58.527358],[-4.707042,58.527425],[-4.707327,58.527491],[-4.707622,58.527557],[-4.707865,58.527587],[-4.708058,58.527584],[-4.708198,58.527546],[-4.708288,58.527473],[-4.708295,58.527402],[-4.70822,58.527334],[-4.708062,58.527268],[-4.707821,58.527203],[-4.707635,58.52714],[-4.707502,58.527078],[-4.707423,58.527017],[-4.707397,58.526957],[-4.707435,58.526903],[-4.707534,58.526853],[-4.707696,58.526809],[-4.707921,58.526771],[-4.708092,58.526726],[-4.708211,58.526674],[-4.708277,58.526617],[-4.70829,58.526552],[-4.708326,58.526487],[-4.708385,58.526422],[-4.708468,58.526355],[-4.708573,58.526288],[-4.708653,58.5262],[-4.708709,58.526093],[-4.708739,58.525966],[-4.708744,58.525819],[-4.7087,58.525683],[-4.708607,58.525557],[-4.708466,58.525442],[-4.708275,58.525337],[-4.708093,58.525263],[-4.707921,58.525219],[-4.707759,58.525205],[-4.707606,58.525222],[-4.707413,58.525233],[-4.707181,58.525237],[-4.70691,58.525236],[-4.7066,58.525228],[-4.706326,58.525206],[-4.70609,58.525169],[-4.705892,58.525118],[-4.705731,58.525052],[-4.705649,58.524991],[-4.705645,58.524935],[-4.705721,58.524885],[-4.705876,58.52484],[-4.706005,58.524783],[-4.706109,58.524712],[-4.706188,58.524628],[-4.706241,58.524532],[-4.706324,58.524476],[-4.706438,58.52446],[-4.706582,58.524484],[-4.706756,58.524549],[-4.706945,58.524603],[-4.707151,58.524646],[-4.707372,58.52468],[-4.707608,58.524702],[-4.707802,58.524686],[-4.707952,58.524632],[-4.70806,58.524538],[-4.708125,58.524405],[-4.708118,58.524286],[-4.70804,58.524179],[-4.707891,58.524086],[-4.70767,58.524005],[-4.707425,58.523954],[-4.707155,58.523931],[-4.70686,58.523937],[-4.706541,58.523972],[-4.706251,58.52399],[-4.705991,58.523991],[-4.70576,58.523974],[-4.705559,58.523941],[-4.705446,58.523878],[-4.705421,58.523787],[-4.705484,58.523666],[-4.705636,58.523517],[-4.705791,58.523378],[-4.705951,58.523249],[-4.706115,58.52313],[-4.706283,58.523021],[-4.706404,58.522912],[-4.706478,58.522802],[-4.706506,58.522693],[-4.706487,58.522584],[-4.70654,58.522504],[-4.706667,58.522456],[-4.706866,58.522437],[-4.707138,58.522449],[-4.70737,58.522485],[-4.707562,58.522544],[-4.707714,58.522627],[-4.707825,58.522733],[-4.707922,58.52283],[-4.708006,58.522919],[-4.708076,58.522998],[-4.708133,58.523069],[-4.708188,58.523098],[-4.708243,58.523085],[-4.708297,58.52303],[-4.70835,58.522933],[-4.708416,58.522844],[-4.708495,58.522762],[-4.708587,58.522688],[-4.708693,58.52262],[-4.708737,58.522558],[-4.708719,58.522501],[-4.708641,58.522448],[-4.7085,58.522401],[-4.708391,58.522354],[-4.708311,58.522307],[-4.708261,58.52226],[-4.708241,58.522213],[-4.708264,58.522155],[-4.708328,58.522085],[-4.708434,58.522004],[-4.708582,58.521911],[-4.708697,58.521825],[-4.708777,58.521746],[-4.708824,58.521675],[-4.708837,58.521611],[-4.708697,58.521579],[-4.708404,58.52158],[-4.707957,58.521613],[-4.707357,58.521679],[-4.706954,58.521675],[-4.706749,58.521599],[-4.706741,58.521454],[-4.706931,58.521238],[-4.707079,58.521056],[-4.707184,58.520908],[-4.707247,58.520795],[-4.707267,58.520716],[-4.707267,58.520629],[-4.707247,58.520534],[-4.707207,58.52043],[-4.707147,58.520318],[-4.707135,58.520209],[-4.707171,58.520104],[-4.707255,58.520003],[-4.707388,58.519904],[-4.707428,58.519841],[-4.707376,58.519812],[-4.707231,58.519817],[-4.706994,58.519857],[-4.706808,58.519867],[-4.706672,58.519847],[-4.706588,58.519797],[-4.706555,58.519717],[-4.706569,58.519632],[-4.706631,58.519541],[-4.706741,58.519445],[-4.706899,58.519344],[-4.707042,58.519247],[-4.70717,58.519153],[-4.707282,58.519062],[-4.707379,58.518974],[-4.707449,58.518888],[-4.707494,58.518803],[-4.707512,58.518719],[-4.707504,58.518636],[-4.707439,58.51856],[-4.707316,58.51849],[-4.707136,58.518426],[-4.706898,58.518368],[-4.706781,58.518313],[-4.706786,58.51826],[-4.706912,58.51821],[-4.707159,58.518162],[-4.707238,58.518082],[-4.707151,58.517969],[-4.706897,58.517824],[-4.706476,58.517648],[-4.706127,58.517454],[-4.705852,58.517244],[-4.70565,58.517016],[-4.705522,58.516773],[-4.705372,58.516568],[-4.705203,58.516401],[-4.705012,58.516274],[-4.704802,58.516186],[-4.704568,58.516058],[-4.704311,58.515891],[-4.704031,58.515684],[-4.703728,58.515439],[-4.70345,58.515222],[-4.703197,58.515033],[-4.70297,58.514873],[-4.702768,58.514742],[-4.702601,58.514614],[-4.702469,58.514489],[-4.702371,58.514367],[-4.702308,58.514249],[-4.702176,58.514101],[-4.701975,58.513925],[-4.701705,58.513719],[-4.701367,58.513484],[-4.701071,58.513288],[-4.700818,58.513131],[-4.700609,58.513013],[-4.700442,58.512934],[-4.700255,58.512813],[-4.700047,58.512651],[-4.699818,58.512448],[-4.699569,58.512203],[-4.699341,58.511963],[-4.699136,58.511728],[-4.698953,58.511497],[-4.698791,58.51127],[-4.698714,58.51111],[-4.698721,58.511015],[-4.698812,58.510986],[-4.698988,58.511022],[-4.69918,58.511074],[-4.699388,58.511142],[-4.699613,58.511225],[-4.699855,58.511324],[-4.700015,58.511436],[-4.700094,58.51156],[-4.700091,58.511696],[-4.700006,58.511845],[-4.700029,58.511996],[-4.70016,58.512149],[-4.700399,58.512304],[-4.700745,58.512461],[-4.701017,58.512569],[-4.701215,58.512627],[-4.701339,58.512636],[-4.701389,58.512596],[-4.701483,58.512566],[-4.701622,58.512548],[-4.701806,58.51254],[-4.702034,58.512543],[-4.702253,58.512555],[-4.702463,58.512577],[-4.702663,58.512609],[-4.702854,58.512651],[-4.703084,58.512689],[-4.703351,58.512722],[-4.703657,58.512751],[-4.704002,58.512776],[-4.704284,58.512789],[-4.704504,58.512789],[-4.704663,58.512777],[-4.704759,58.512752],[-4.704899,58.512735],[-4.705082,58.512726],[-4.705308,58.512723],[-4.705577,58.512729],[-4.705834,58.512744],[-4.706079,58.51277],[-4.70631,58.512805],[-4.70653,58.512851],[-4.706742,58.512878],[-4.706946,58.512887],[-4.707142,58.512878],[-4.707331,58.51285],[-4.707546,58.512838],[-4.707789,58.512843],[-4.708058,58.512864],[-4.708354,58.512901],[-4.708619,58.512912],[-4.708853,58.512897],[-4.709056,58.512856],[-4.709228,58.512788],[-4.709399,58.512719],[-4.709569,58.512648],[-4.709739,58.512575],[-4.709908,58.5125],[-4.710041,58.51242],[-4.710138,58.512332],[-4.710199,58.512238],[-4.710224,58.512138],[-4.710269,58.51203],[-4.710334,58.511915],[-4.71042,58.511792],[-4.710525,58.511662],[-4.71065,58.511553],[-4.710793,58.511464],[-4.710954,58.511395],[-4.711135,58.511348],[-4.711241,58.511362],[-4.711273,58.511439],[-4.711231,58.511578],[-4.711115,58.511779],[-4.711067,58.511927],[-4.711087,58.512022],[-4.711175,58.512065],[-4.711331,58.512055],[-4.71147,58.512069],[-4.711593,58.512108],[-4.7117,58.512171],[-4.71179,58.512259],[-4.7118,58.512354],[-4.711729,58.512456],[-4.711578,58.512565],[-4.711346,58.512681],[-4.711204,58.512787],[-4.711151,58.512884],[-4.711187,58.51297],[-4.711313,58.513047],[-4.711468,58.513124],[-4.711654,58.513201],[-4.71187,58.513279],[-4.712116,58.513356],[-4.712357,58.513389],[-4.712593,58.513377],[-4.712823,58.51332],[-4.713047,58.513219],[-4.713271,58.513123],[-4.713493,58.513032],[-4.713714,58.512947],[-4.713935,58.512867],[-4.714058,58.512796],[-4.714086,58.512734],[-4.714017,58.51268],[-4.713851,58.512636],[-4.713744,58.512571],[-4.713695,58.512485],[-4.713704,58.51238],[-4.713771,58.512254],[-4.713831,58.512127],[-4.713885,58.511999],[-4.713931,58.51187],[-4.71397,58.51174],[-4.71404,58.511644],[-4.71414,58.51158],[-4.714271,58.51155],[-4.714432,58.511554],[-4.714567,58.511556],[-4.714675,58.511558],[-4.714756,58.51156],[-4.714809,58.511561],[-4.71486,58.511585],[-4.714906,58.511632],[-4.714949,58.511702],[-4.714988,58.511796],[-4.715037,58.511881],[-4.715096,58.511958],[-4.715165,58.512027],[-4.715244,58.512088],[-4.715327,58.512174],[-4.715412,58.512283],[-4.715502,58.512416],[-4.715594,58.512573],[-4.715732,58.512696],[-4.715916,58.512783],[-4.716145,58.512837],[-4.71642,58.512855],[-4.716519,58.512892],[-4.716441,58.512945],[-4.716187,58.513017],[-4.715757,58.513106],[-4.715432,58.513189],[-4.71521,58.513266],[-4.715093,58.513336],[-4.715079,58.5134],[-4.715044,58.513458],[-4.714985,58.51351],[-4.714904,58.513555],[-4.7148,58.513595],[-4.714669,58.513639],[-4.714509,58.513688],[-4.714321,58.513742],[-4.714105,58.5138],[-4.713918,58.513863],[-4.713759,58.513929],[-4.713628,58.513999],[-4.713525,58.514073],[-4.713425,58.514145],[-4.713328,58.514215],[-4.713233,58.514283],[-4.71314,58.514349],[-4.713054,58.514414],[-4.712974,58.514479],[-4.712901,58.514543],[-4.712834,58.514606],[-4.712806,58.514675],[-4.712818,58.514751],[-4.712868,58.514832],[-4.712959,58.51492],[-4.712996,58.515008],[-4.712979,58.515097],[-4.71291,58.515187],[-4.712788,58.515277],[-4.712759,58.515336],[-4.712824,58.515364],[-4.712983,58.51536],[-4.713235,58.515325],[-4.71341,58.515327],[-4.713506,58.515365],[-4.713524,58.51544],[-4.713464,58.515551],[-4.713477,58.515599],[-4.713563,58.515582],[-4.713723,58.515502],[-4.713957,58.515358],[-4.71415,58.515253],[-4.714303,58.515187],[-4.714415,58.515161],[-4.714487,58.515174],[-4.714587,58.515165],[-4.714714,58.515133],[-4.714868,58.51508],[-4.71505,58.515004],[-4.715213,58.514962],[-4.715356,58.514953],[-4.71548,58.514978],[-4.715585,58.515036],[-4.715686,58.515101],[-4.715783,58.515174],[-4.715877,58.515255],[-4.715967,58.515342],[-4.716064,58.515407],[-4.716168,58.515448],[-4.716279,58.515465],[-4.716396,58.515459],[-4.716532,58.515463],[-4.716685,58.515478],[-4.716855,58.515503],[-4.717044,58.515538],[-4.717174,58.515539],[-4.717248,58.515507],[-4.717263,58.515441],[-4.717221,58.515341],[-4.717173,58.515248],[-4.717117,58.515164],[-4.717055,58.515087],[-4.716986,58.515018],[-4.716921,58.514926],[-4.716859,58.51481],[-4.716801,58.514672],[-4.716747,58.514511],[-4.71669,58.51436],[-4.716631,58.51422],[-4.716571,58.514091],[-4.716508,58.513972],[-4.716536,58.513897],[-4.716657,58.513867],[-4.71687,58.51388],[-4.717174,58.513937],[-4.717411,58.514002],[-4.717582,58.514074],[-4.717685,58.514153],[-4.717721,58.514239],[-4.717777,58.514333],[-4.717852,58.514433],[-4.717947,58.514539],[-4.718061,58.514652],[-4.718115,58.514756],[-4.718108,58.514851],[-4.71804,58.514937],[-4.717912,58.515014],[-4.717844,58.515106],[-4.717837,58.515215],[-4.717889,58.51534],[-4.718002,58.515481],[-4.718135,58.515592],[-4.718289,58.515673],[-4.718464,58.515724],[-4.718659,58.515744],[-4.718819,58.515791],[-4.718943,58.515864],[-4.719032,58.515964],[-4.719085,58.516091],[-4.719057,58.51619],[-4.718946,58.516261],[-4.718754,58.516305],[-4.718481,58.516321],[-4.718242,58.516349],[-4.718038,58.516389],[-4.71787,58.516441],[-4.717736,58.516504],[-4.717585,58.516558],[-4.717416,58.516601],[-4.717229,58.516633],[-4.717025,58.516656],[-4.716874,58.516686],[-4.716777,58.516725],[-4.716733,58.516772],[-4.716742,58.516826],[-4.716743,58.516891],[-4.716734,58.516965],[-4.716716,58.517049],[-4.716688,58.517143],[-4.716671,58.517253],[-4.716664,58.517379],[-4.716667,58.517522],[-4.71668,58.51768],[-4.716692,58.517829],[-4.716703,58.517967],[-4.716713,58.518095],[-4.716723,58.518213],[-4.71679,58.518326],[-4.716915,58.518434],[-4.717099,58.518537],[-4.717341,58.518636],[-4.717471,58.518715],[-4.717488,58.518772],[-4.717393,58.518809],[-4.717186,58.518824],[-4.717033,58.51885],[-4.716934,58.518885],[-4.71689,58.51893],[-4.716899,58.518985],[-4.716884,58.519051],[-4.716843,58.519129],[-4.716777,58.519218],[-4.716685,58.519319],[-4.716676,58.519416],[-4.716748,58.519509],[-4.716903,58.519598],[-4.717139,58.519684],[-4.717347,58.519766],[-4.717526,58.519843],[-4.717678,58.519917],[-4.717801,58.519988],[-4.717866,58.520048],[-4.717874,58.5201],[-4.717825,58.520142],[-4.717719,58.520174],[-4.717648,58.520214],[-4.717614,58.520259],[-4.717616,58.520311],[-4.717654,58.52037],[-4.717681,58.520451],[-4.717697,58.520553],[-4.717703,58.520678],[-4.717698,58.520825],[-4.717698,58.520977],[-4.717703,58.521133],[-4.717714,58.521294],[-4.71773,58.52146],[-4.717724,58.521612],[-4.717695,58.521751],[-4.717644,58.521877],[-4.717571,58.52199],[-4.717512,58.52211],[-4.717465,58.522237],[-4.717431,58.522371],[-4.71741,58.522513],[-4.717454,58.522617],[-4.717561,58.522681],[-4.717732,58.522708],[-4.717968,58.522696],[-4.718216,58.522691],[-4.718478,58.522694],[-4.718752,58.522704],[-4.71904,58.522721],[-4.719218,58.522707],[-4.719285,58.522661],[-4.719243,58.522584],[-4.719091,58.522475],[-4.718932,58.522384],[-4.718768,58.522312],[-4.718598,58.522257],[-4.718423,58.522221],[-4.718297,58.522135],[-4.71822,58.522001],[-4.718194,58.521817],[-4.718216,58.521584],[-4.718254,58.521413],[-4.718308,58.521302],[-4.718378,58.521253],[-4.718463,58.521264],[-4.718545,58.521261],[-4.718623,58.521241],[-4.718699,58.521207],[-4.718772,58.521157],[-4.718875,58.521125],[-4.719009,58.52111],[-4.719174,58.521113],[-4.719369,58.521133],[-4.719484,58.521105],[-4.719519,58.521028],[-4.719473,58.520902],[-4.719346,58.520728],[-4.719222,58.52059],[-4.719099,58.520488],[-4.718978,58.520423],[-4.718859,58.520394],[-4.718763,58.52034],[-4.71869,58.520261],[-4.71864,58.520157],[-4.718612,58.520027],[-4.718607,58.519904],[-4.718625,58.519787],[-4.718665,58.519676],[-4.718728,58.519572],[-4.718852,58.519509],[-4.719037,58.519489],[-4.719284,58.519511],[-4.719591,58.519575],[-4.719832,58.519585],[-4.720007,58.519541],[-4.720117,58.519444],[-4.72016,58.519292],[-4.720208,58.519144],[-4.720261,58.518999],[-4.720318,58.518857],[-4.72038,58.518717],[-4.720447,58.518598],[-4.720519,58.5185],[-4.720597,58.518422],[-4.720679,58.518364],[-4.720731,58.518297],[-4.720753,58.518221],[-4.720744,58.518137],[-4.720705,58.518043],[-4.720674,58.517946],[-4.720651,58.517844],[-4.720637,58.517737],[-4.72063,58.517626],[-4.720686,58.517536],[-4.720804,58.517468],[-4.720985,58.51742],[-4.721227,58.517393],[-4.721455,58.517412],[-4.721669,58.517475],[-4.721868,58.517584],[-4.722053,58.517738],[-4.722228,58.517853],[-4.722394,58.517929],[-4.722549,58.517966],[-4.722695,58.517964],[-4.722768,58.517923],[-4.722768,58.517843],[-4.722695,58.517724],[-4.722548,58.517565],[-4.722455,58.517431],[-4.722415,58.51732],[-4.722429,58.517233],[-4.722496,58.51717],[-4.722542,58.517104],[-4.722566,58.517035],[-4.722569,58.516963],[-4.722551,58.516889],[-4.72248,58.516828],[-4.722354,58.516783],[-4.722174,58.516752],[-4.72194,58.516736],[-4.721788,58.516741],[-4.721719,58.516766],[-4.721731,58.516811],[-4.721826,58.516878],[-4.721866,58.516934],[-4.721852,58.516981],[-4.721784,58.517018],[-4.721662,58.517046],[-4.721523,58.517047],[-4.721366,58.517022],[-4.721191,58.516972],[-4.720998,58.516895],[-4.720831,58.516863],[-4.720689,58.516875],[-4.720573,58.516932],[-4.720482,58.517032],[-4.720368,58.517111],[-4.720231,58.517168],[-4.720072,58.517203],[-4.719891,58.517216],[-4.719791,58.517194],[-4.719774,58.517136],[-4.719839,58.517044],[-4.719985,58.516916],[-4.720055,58.51682],[-4.720048,58.516754],[-4.719963,58.51672],[-4.719802,58.516717],[-4.719685,58.51667],[-4.719614,58.51658],[-4.719588,58.516447],[-4.719608,58.516271],[-4.719644,58.516094],[-4.719697,58.515917],[-4.719766,58.515741],[-4.719852,58.515564],[-4.719931,58.515397],[-4.720002,58.515239],[-4.720065,58.515091],[-4.72012,58.514952],[-4.720188,58.514851],[-4.720268,58.514786],[-4.72036,58.514758],[-4.720464,58.514768],[-4.720556,58.514802],[-4.720638,58.514861],[-4.720708,58.514945],[-4.720767,58.515054],[-4.720817,58.515166],[-4.720859,58.515281],[-4.720893,58.515401],[-4.720917,58.515523],[-4.720963,58.515604],[-4.721029,58.515642],[-4.721115,58.515638],[-4.721223,58.515591],[-4.721302,58.515538],[-4.721354,58.515478],[-4.721378,58.515412],[-4.721374,58.515339],[-4.721351,58.515267],[-4.721308,58.515197],[-4.721246,58.515128],[-4.721164,58.515061],[-4.721087,58.514988],[-4.721014,58.51491],[-4.720946,58.514828],[-4.720883,58.514741],[-4.720844,58.51466],[-4.720829,58.514585],[-4.720839,58.514516],[-4.720872,58.514453],[-4.720895,58.514388],[-4.720908,58.514322],[-4.72091,58.514255],[-4.720901,58.514186],[-4.720891,58.514119],[-4.72088,58.514052],[-4.720867,58.513986],[-4.720853,58.513921],[-4.720876,58.51386],[-4.720936,58.513803],[-4.721032,58.51375],[-4.721165,58.513701],[-4.721274,58.513678],[-4.721359,58.513683],[-4.721421,58.513714],[-4.721459,58.513773],[-4.721562,58.513824],[-4.721731,58.513868],[-4.721965,58.513905],[-4.722265,58.513935],[-4.722497,58.513947],[-4.722661,58.513941],[-4.722758,58.513918],[-4.722787,58.513876],[-4.722861,58.513834],[-4.72298,58.513791],[-4.723144,58.513748],[-4.723353,58.513704],[-4.723522,58.513686],[-4.723653,58.513695],[-4.723744,58.513729],[-4.723796,58.513789],[-4.723833,58.51385],[-4.723855,58.51391],[-4.723862,58.513971],[-4.723854,58.514031],[-4.723863,58.514078],[-4.723891,58.514111],[-4.723936,58.514131],[-4.723999,58.514139],[-4.724044,58.514166],[-4.724071,58.514213],[-4.724079,58.514281],[-4.724069,58.51437],[-4.724072,58.514448],[-4.724087,58.514516],[-4.724115,58.514574],[-4.724155,58.514622],[-4.724199,58.514666],[-4.724245,58.514706],[-4.724296,58.514742],[-4.724349,58.514775],[-4.72442,58.514819],[-4.724507,58.514876],[-4.724611,58.514945],[-4.724732,58.515026],[-4.724825,58.515129],[-4.724891,58.515254],[-4.724929,58.515401],[-4.72494,58.515571],[-4.724961,58.515677],[-4.724992,58.515719],[-4.725033,58.515697],[-4.725084,58.515611],[-4.725133,58.515528],[-4.725179,58.515448],[-4.725224,58.515371],[-4.725266,58.515296],[-4.725337,58.515227],[-4.725437,58.515162],[-4.725565,58.515101],[-4.725722,58.515046],[-4.725844,58.51499],[-4.72593,58.514933],[-4.725981,58.514876],[-4.725997,58.514818],[-4.726036,58.514776],[-4.726098,58.514748],[-4.726183,58.514735],[-4.72629,58.514737],[-4.726388,58.514763],[-4.726476,58.514813],[-4.726553,58.514886],[-4.726621,58.514983],[-4.726714,58.515052],[-4.726834,58.515091],[-4.72698,58.515101],[-4.727153,58.515082],[-4.727267,58.515051],[-4.727322,58.515008],[-4.727319,58.514954],[-4.727258,58.514887],[-4.727194,58.514831],[-4.727129,58.514786],[-4.727061,58.514752],[-4.726991,58.514728],[-4.726938,58.514686],[-4.726903,58.514626],[-4.726885,58.514546],[-4.726884,58.514449],[-4.726872,58.514366],[-4.72685,58.514297],[-4.726817,58.514242],[-4.726773,58.514201],[-4.726728,58.51418],[-4.72668,58.514178],[-4.726631,58.514196],[-4.72658,58.514233],[-4.726526,58.514256],[-4.726469,58.514264],[-4.726409,58.514257],[-4.726347,58.514236],[-4.726274,58.514224],[-4.726189,58.514221],[-4.726093,58.514227],[-4.725986,58.514243],[-4.725893,58.514244],[-4.725814,58.514232],[-4.72575,58.514206],[-4.7257,58.514166],[-4.725691,58.514125],[-4.725724,58.514083],[-4.725798,58.51404],[-4.725913,58.513996],[-4.726001,58.513948],[-4.726063,58.513896],[-4.726097,58.51384],[-4.726106,58.51378],[-4.72614,58.513731],[-4.726202,58.513695],[-4.72629,58.51367],[-4.726405,58.513658],[-4.726458,58.513629],[-4.72645,58.513585],[-4.726379,58.513525],[-4.726247,58.513448],[-4.726118,58.513378],[-4.72599,58.513314],[-4.725866,58.513255],[-4.725743,58.513202],[-4.725583,58.513161],[-4.725384,58.513133],[-4.725146,58.513116],[-4.724871,58.513112],[-4.724645,58.513099],[-4.724469,58.513078],[-4.724344,58.513049],[-4.724268,58.513012],[-4.724252,58.512977],[-4.724295,58.512945],[-4.724397,58.512914],[-4.724559,58.512886],[-4.724625,58.512841],[-4.724596,58.51278],[-4.724472,58.512702],[-4.724252,58.512608],[-4.723999,58.512547],[-4.723714,58.512519],[-4.723396,58.512524],[-4.723045,58.512563],[-4.722707,58.51259],[-4.722384,58.512607],[-4.722074,58.512612],[-4.721778,58.512606],[-4.721557,58.512585],[-4.721411,58.512549],[-4.721341,58.512497],[-4.721347,58.51243],[-4.721357,58.512364],[-4.721373,58.512298],[-4.721394,58.512232],[-4.721419,58.512166],[-4.721413,58.512118],[-4.721373,58.512088],[-4.721301,58.512075],[-4.721196,58.512079],[-4.721103,58.512068],[-4.721022,58.512042],[-4.720953,58.512001],[-4.720896,58.511945],[-4.720881,58.511885],[-4.720907,58.511821],[-4.720976,58.511753],[-4.721086,58.511682],[-4.72115,58.511604],[-4.721169,58.51152],[-4.721141,58.51143],[-4.721067,58.511333],[-4.72092,58.511241],[-4.7207,58.511154],[-4.720406,58.511071],[-4.72004,58.510993],[-4.719551,58.510871],[-4.71894,58.510704],[-4.718208,58.510493],[-4.717353,58.510239],[-4.716672,58.51004],[-4.716165,58.509897],[-4.715832,58.50981],[-4.715672,58.509778],[-4.715501,58.509722],[-4.71532,58.509641],[-4.715129,58.509535],[-4.714927,58.509404],[-4.714724,58.509285],[-4.714519,58.509178],[-4.714312,58.509084],[-4.714105,58.509002],[-4.713873,58.508911],[-4.713617,58.50881],[-4.713337,58.5087],[-4.713033,58.50858],[-4.712776,58.508468],[-4.712566,58.508366],[-4.712403,58.508272],[-4.712288,58.508187],[-4.712124,58.50809],[-4.711911,58.507981],[-4.71165,58.50786],[-4.71134,58.507727],[-4.711032,58.507628],[-4.710725,58.507564],[-4.710419,58.507535],[-4.710114,58.507541],[-4.70986,58.507548],[-4.709657,58.507556],[-4.709504,58.507566],[-4.709402,58.507577],[-4.709231,58.507568],[-4.708992,58.507538],[-4.708684,58.507489],[-4.708307,58.507418],[-4.707948,58.507381],[-4.707606,58.507377],[-4.707281,58.507406],[-4.706973,58.507467],[-4.70672,58.507509],[-4.706522,58.507531],[-4.706379,58.507533],[-4.706291,58.507514],[-4.706267,58.50748],[-4.706306,58.507431],[-4.706409,58.507365],[-4.706576,58.507284],[-4.706659,58.50719],[-4.706661,58.507081],[-4.70658,58.50696],[-4.706416,58.506824],[-4.706226,58.50676],[-4.706008,58.506766],[-4.705763,58.506844],[-4.705492,58.506992],[-4.705234,58.507141],[-4.704989,58.507289],[-4.704758,58.507439],[-4.70454,58.507588],[-4.704217,58.507765],[-4.703788,58.507969],[-4.703254,58.5082],[-4.702614,58.508459],[-4.702122,58.508694],[-4.701777,58.508906],[-4.701579,58.509095],[-4.701529,58.509261],[-4.701509,58.509445],[-4.701519,58.509646],[-4.701561,58.509864],[-4.701633,58.510101],[-4.701539,58.510179],[-4.701279,58.510099],[-4.700852,58.509862],[-4.700259,58.509467],[-4.69976,58.509166],[-4.699353,58.50896],[-4.699039,58.508848],[-4.698818,58.50883],[-4.698601,58.508805],[-4.698387,58.508773],[-4.698177,58.508733],[-4.69797,58.508686],[-4.697788,58.508626],[-4.69763,58.508553],[-4.697497,58.508466],[-4.697389,58.508366],[-4.697154,58.508284],[-4.696793,58.508219],[-4.696306,58.508172],[-4.695692,58.508141],[-4.695276,58.508159],[-4.695057,58.508225],[-4.695034,58.508339],[-4.695209,58.508501],[-4.6954,58.508616],[-4.695609,58.508684],[-4.695835,58.508704],[-4.696077,58.508678],[-4.696287,58.508669],[-4.696464,58.508677],[-4.696608,58.508703],[-4.69672,58.508747],[-4.696833,58.508785],[-4.696947,58.508818],[-4.697062,58.508845],[-4.697178,58.508867],[-4.697319,58.508925],[-4.697485,58.509018],[-4.697676,58.509147],[-4.697891,58.509312],[-4.69805,58.509485],[-4.698153,58.509665],[-4.698198,58.509854],[-4.698187,58.51005],[-4.698139,58.510214],[-4.698053,58.510345],[-4.697931,58.510444],[-4.697772,58.510511],[-4.697651,58.510508],[-4.697568,58.510437],[-4.697523,58.510297],[-4.697516,58.510089],[-4.697472,58.50989],[-4.697393,58.5097],[-4.697277,58.509519],[-4.697125,58.509347],[-4.696939,58.509237],[-4.696718,58.509188],[-4.696463,58.5092],[-4.696173,58.509274],[-4.695917,58.5093],[-4.695695,58.509279],[-4.695506,58.509211],[-4.695351,58.509096],[-4.695197,58.509031],[-4.695044,58.509016],[-4.694892,58.509052],[-4.694741,58.509138],[-4.694569,58.509253],[-4.694375,58.509396],[-4.69416,58.509568],[-4.693923,58.509768],[-4.693722,58.509958],[-4.693557,58.510136],[-4.693426,58.510304],[-4.693332,58.510461],[-4.693177,58.510593],[-4.692961,58.5107],[-4.692685,58.510783],[-4.692349,58.510841],[-4.69204,58.510892],[-4.691758,58.510937],[-4.691504,58.510975],[-4.691277,58.511007],[-4.691059,58.511059],[-4.690848,58.511131],[-4.690646,58.511223],[-4.690453,58.511335],[-4.690259,58.511431],[-4.690066,58.511511],[-4.689873,58.511576],[-4.68968,58.511625],[-4.689528,58.511677],[-4.689417,58.511731],[-4.689347,58.511787],[-4.689318,58.511846],[-4.689259,58.511959],[-4.689168,58.512126],[-4.689047,58.512347],[-4.688895,58.512621],[-4.688736,58.512872],[-4.688571,58.5131],[-4.688399,58.513303],[-4.68822,58.513483],[-4.688065,58.51363],[-4.687931,58.513742],[-4.68782,58.51382],[-4.687732,58.513865],[-4.687621,58.513933],[-4.687485,58.514024],[-4.687326,58.514139],[-4.687144,58.514278],[-4.686938,58.514416],[-4.686708,58.514552],[-4.686454,58.514688],[-4.686177,58.514823],[-4.686018,58.514938],[-4.685978,58.515033],[-4.686056,58.515109],[-4.686253,58.515164],[-4.686428,58.515223],[-4.686581,58.515286],[-4.686713,58.515354],[-4.686823,58.515425],[-4.686898,58.515517],[-4.686937,58.515627],[-4.686942,58.515758],[-4.686911,58.515907],[-4.686891,58.516044],[-4.686882,58.516167],[-4.686885,58.516276],[-4.686898,58.516372],[-4.686892,58.516469],[-4.686866,58.516566],[-4.68682,58.516663],[-4.686754,58.516761],[-4.686654,58.516851],[-4.686521,58.516932],[-4.686355,58.517004],[-4.686154,58.517068],[-4.685958,58.517141],[-4.685766,58.517225],[-4.685578,58.517319],[-4.685395,58.517423],[-4.685206,58.517522],[-4.685012,58.517617],[-4.684812,58.517706],[-4.684607,58.517792],[-4.684398,58.517857],[-4.684182,58.517901],[-4.683962,58.517925],[-4.683737,58.517929],[-4.683592,58.517901],[-4.683527,58.517842],[-4.683542,58.517752],[-4.683638,58.517629],[-4.683767,58.517499],[-4.683929,58.517359],[-4.684124,58.51721],[-4.684352,58.517053],[-4.684615,58.5169],[-4.684914,58.516752],[-4.685248,58.516609],[-4.685618,58.516471],[-4.685848,58.516359],[-4.685938,58.516272],[-4.685889,58.516211],[-4.685701,58.516176],[-4.685452,58.516132],[-4.685143,58.516079],[-4.684773,58.516016],[-4.684343,58.515945],[-4.683983,58.515908],[-4.683695,58.515904],[-4.683477,58.515935],[-4.683331,58.516],[-4.683159,58.516092],[-4.682962,58.516211],[-4.682739,58.516358],[-4.682491,58.516531],[-4.68224,58.516704],[-4.681984,58.516875],[-4.681724,58.517044],[-4.681461,58.517213],[-4.681218,58.517375],[-4.680997,58.517532],[-4.680796,58.517683],[-4.680617,58.517828],[-4.680414,58.517999],[-4.680189,58.518194],[-4.67994,58.518415],[-4.679669,58.518661],[-4.679511,58.518866],[-4.679467,58.519032],[-4.679536,58.519157],[-4.679718,58.519241],[-4.679844,58.519327],[-4.679914,58.519413],[-4.679927,58.519501],[-4.679884,58.519589],[-4.679802,58.519657],[-4.679682,58.519705],[-4.679523,58.519733],[-4.679326,58.519741],[-4.679138,58.51977],[-4.678959,58.519821],[-4.678789,58.519894],[-4.678628,58.519988],[-4.678541,58.520092],[-4.678529,58.520205],[-4.67859,58.520327],[-4.678725,58.520459],[-4.678736,58.52059],[-4.678624,58.520721],[-4.678388,58.520851],[-4.678029,58.520981],[-4.67771,58.521121],[-4.677431,58.52127],[-4.677194,58.521429],[-4.676997,58.521597],[-4.67685,58.521771],[-4.676752,58.521953],[-4.676704,58.522141],[-4.676705,58.522336],[-4.676663,58.522507],[-4.676577,58.522652],[-4.676447,58.522773],[-4.676273,58.522868],[-4.676053,58.52298],[-4.675785,58.523107],[-4.675471,58.523249],[-4.67511,58.523407],[-4.674776,58.523559],[-4.674469,58.523704],[-4.67419,58.523843],[-4.673938,58.523975],[-4.673682,58.524114],[-4.673423,58.524261],[-4.67316,58.524416],[-4.672894,58.524577],[-4.67261,58.524744],[-4.672308,58.524917],[-4.671988,58.525095],[-4.671651,58.525278],[-4.671326,58.525459],[-4.671012,58.525636],[-4.670711,58.52581],[-4.670422,58.525981],[-4.670184,58.526147],[-4.669997,58.526307],[-4.669861,58.526461],[-4.669777,58.52661],[-4.669811,58.526723],[-4.669963,58.5268],[-4.670234,58.526842],[-4.670624,58.526848],[-4.67091,58.526878],[-4.671093,58.526931],[-4.671172,58.527008],[-4.671147,58.527108],[-4.671198,58.527207],[-4.671326,58.527305],[-4.67153,58.527401],[-4.67181,58.527496],[-4.67203,58.527543],[-4.67219,58.527543],[-4.672291,58.527495],[-4.672331,58.5274],[-4.672428,58.527306],[-4.672583,58.527212],[-4.672795,58.527119],[-4.673063,58.527027],[-4.673252,58.526984],[-4.673361,58.526989],[-4.673391,58.527044],[-4.67334,58.527147],[-4.673412,58.527207],[-4.673606,58.527224],[-4.673923,58.527198],[-4.674361,58.527129],[-4.674702,58.527057],[-4.674944,58.526982],[-4.675088,58.526903],[-4.675134,58.526821],[-4.675204,58.526756],[-4.675297,58.526708],[-4.675414,58.526676],[-4.675555,58.52666],[-4.675717,58.526609],[-4.675901,58.526523],[-4.676107,58.526401],[-4.676335,58.526243],[-4.676583,58.52615],[-4.676852,58.526121],[-4.67714,58.526155],[-4.677448,58.526254],[-4.677734,58.526282],[-4.677997,58.526239],[-4.678236,58.526126],[-4.678453,58.525942],[-4.678728,58.525791],[-4.679059,58.525675],[-4.679449,58.525592],[-4.679896,58.525543],[-4.680282,58.52546],[-4.680608,58.525345],[-4.680873,58.525195],[-4.681077,58.525012],[-4.681297,58.524821],[-4.681534,58.524621],[-4.681787,58.524412],[-4.682056,58.524194],[-4.68229,58.524041],[-4.682487,58.523953],[-4.682647,58.52393],[-4.682772,58.523972],[-4.682809,58.524052],[-4.682757,58.524169],[-4.682618,58.524324],[-4.682392,58.524516],[-4.682231,58.524666],[-4.682136,58.524774],[-4.682107,58.52484],[-4.682143,58.524864],[-4.682257,58.52488],[-4.682446,58.524887],[-4.682713,58.524885],[-4.683056,58.524876],[-4.683332,58.524856],[-4.68354,58.524826],[-4.68368,58.524786],[-4.683753,58.524737],[-4.683829,58.524719],[-4.683909,58.524735],[-4.683993,58.524783],[-4.68408,58.524865],[-4.6842,58.524904],[-4.684352,58.524901],[-4.684537,58.524856],[-4.684755,58.52477],[-4.68494,58.524676],[-4.685091,58.524576],[-4.68521,58.524469],[-4.685296,58.524355],[-4.685391,58.52428],[-4.685497,58.524244],[-4.685612,58.524247],[-4.685736,58.524289],[-4.685897,58.52429],[-4.686094,58.524251],[-4.686328,58.524172],[-4.686598,58.524051],[-4.687336,58.524075],[-4.688542,58.524243],[-4.690215,58.524554],[-4.692356,58.52501],[-4.693992,58.525378],[-4.695125,58.525658],[-4.695753,58.52585],[-4.695877,58.525955],[-4.696002,58.526038],[-4.696127,58.526097],[-4.696252,58.526134],[-4.696378,58.526148],[-4.696324,58.526304],[-4.696088,58.526602],[-4.695671,58.527042],[-4.695073,58.527623],[-4.694551,58.528036],[-4.694105,58.52828],[-4.693736,58.528356],[-4.693443,58.528262],[-4.693155,58.528165],[-4.692872,58.528063],[-4.692594,58.527958],[-4.692321,58.527848],[-4.692047,58.527758],[-4.69177,58.527687],[-4.691491,58.527636],[-4.691211,58.527604],[-4.691028,58.527631],[-4.690944,58.527717],[-4.690958,58.527862],[-4.69107,58.528066],[-4.691055,58.528205],[-4.690913,58.52828],[-4.690643,58.52829],[-4.690246,58.528236],[-4.689932,58.528267],[-4.6897,58.528383],[-4.689551,58.528585],[-4.689483,58.528871],[-4.689482,58.529059],[-4.689547,58.52915],[-4.689677,58.529142],[-4.689874,58.529037],[-4.69006,58.529003],[-4.690235,58.529039],[-4.6904,58.529147],[-4.690555,58.529325],[-4.690722,58.52946],[-4.690901,58.529552],[-4.691091,58.529601],[-4.691294,58.529607],[-4.691414,58.52963],[-4.691452,58.529671],[-4.691406,58.52973],[-4.691278,58.529807],[-4.691135,58.529889],[-4.690978,58.529976],[-4.690806,58.530068],[-4.69062,58.530165],[-4.690434,58.530208],[-4.690249,58.530197],[-4.690065,58.530132],[-4.689881,58.530013],[-4.689709,58.52992],[-4.689548,58.529854],[-4.689397,58.529815],[-4.689259,58.529802],[-4.689108,58.529761],[-4.688945,58.529692],[-4.688771,58.529594],[-4.688584,58.529468],[-4.68847,58.529362],[-4.688427,58.529276],[-4.688456,58.52921],[-4.688557,58.529164],[-4.688637,58.529098],[-4.688694,58.529011],[-4.688729,58.528905],[-4.688743,58.528778],[-4.68873,58.528659],[-4.68869,58.528548],[-4.688624,58.528446],[-4.688531,58.528351],[-4.688438,58.528264],[-4.688344,58.528183],[-4.68825,58.52811],[-4.688155,58.528044],[-4.68804,58.527967],[-4.687904,58.527881],[-4.687747,58.527785],[-4.687569,58.527679],[-4.687491,58.52759],[-4.687514,58.527518],[-4.687638,58.527462],[-4.687863,58.527424],[-4.68797,58.527354],[-4.687962,58.527254],[-4.687837,58.527123],[-4.687596,58.526961],[-4.687489,58.526842],[-4.687517,58.526766],[-4.68768,58.526733],[-4.687978,58.526742],[-4.688142,58.52672],[-4.688174,58.526668],[-4.688072,58.526585],[-4.687838,58.526471],[-4.687587,58.526384],[-4.687321,58.526322],[-4.687039,58.526287],[-4.686742,58.526278],[-4.68643,58.526226],[-4.686104,58.526133],[-4.685763,58.525998],[-4.685408,58.525821],[-4.685105,58.525669],[-4.684852,58.525543],[-4.68465,58.525444],[-4.684498,58.52537],[-4.684334,58.525353],[-4.684158,58.525393],[-4.683968,58.52549],[-4.683766,58.525645],[-4.683547,58.525817],[-4.683312,58.526007],[-4.683062,58.526214],[-4.682795,58.526438],[-4.682592,58.52664],[-4.682453,58.526819],[-4.682379,58.526976],[-4.682368,58.527109],[-4.682317,58.527228],[-4.682227,58.527332],[-4.682098,58.527421],[-4.681928,58.527496],[-4.681746,58.527596],[-4.681552,58.527722],[-4.681345,58.527873],[-4.681125,58.528051],[-4.680963,58.528205],[-4.680857,58.528335],[-4.680808,58.528441],[-4.680816,58.528524],[-4.68079,58.528616],[-4.680732,58.528716],[-4.680641,58.528826],[-4.680517,58.528944],[-4.680352,58.5291],[-4.680145,58.529293],[-4.679898,58.529524],[-4.67961,58.529793],[-4.679379,58.530055],[-4.679205,58.530311],[-4.679089,58.530561],[-4.679031,58.530805],[-4.679001,58.531012],[-4.678999,58.531183],[-4.679025,58.531318],[-4.67908,58.531417],[-4.679118,58.531517],[-4.679141,58.531619],[-4.679148,58.531723],[-4.679139,58.531828],[-4.679094,58.531922],[-4.679015,58.532004],[-4.678901,58.532074],[-4.678751,58.532132],[-4.678665,58.532189],[-4.678641,58.532244],[-4.67868,58.532297],[-4.678782,58.532349],[-4.678878,58.532403],[-4.678968,58.532459],[-4.679053,58.532518],[-4.679132,58.532579],[-4.679198,58.532666],[-4.679252,58.532778],[-4.679293,58.532917],[-4.679322,58.533081],[-4.679315,58.533225],[-4.679273,58.533348],[-4.679196,58.53345],[-4.679083,58.533532],[-4.679015,58.533617],[-4.678991,58.533703],[-4.679011,58.533791],[-4.679076,58.533882],[-4.679155,58.533952],[-4.679249,58.534001],[-4.679358,58.534029],[-4.679481,58.534036],[-4.679574,58.53401],[-4.679636,58.533951],[-4.679667,58.533859],[-4.679668,58.533733],[-4.679681,58.53362],[-4.679706,58.53352],[-4.679743,58.533432],[-4.679791,58.533357],[-4.679884,58.533283],[-4.68002,58.533208],[-4.680199,58.533135],[-4.680423,58.533061],[-4.680583,58.532983],[-4.680682,58.532899],[-4.680718,58.532809],[-4.680692,58.532715],[-4.680722,58.532643],[-4.680809,58.532596],[-4.680952,58.532571],[-4.681152,58.53257],[-4.68135,58.5325],[-4.681545,58.53236],[-4.681738,58.53215],[-4.681929,58.531871],[-4.682085,58.531622],[-4.682207,58.531403],[-4.682295,58.531214],[-4.682348,58.531055],[-4.682425,58.530902],[-4.682524,58.530755],[-4.682645,58.530614],[-4.682789,58.53048],[-4.682891,58.530356],[-4.68295,58.530241],[-4.682966,58.530136],[-4.68294,58.530042],[-4.682989,58.529911],[-4.683112,58.529744],[-4.683311,58.529541],[-4.683585,58.529301],[-4.683848,58.529027],[-4.684099,58.528717],[-4.684338,58.528372],[-4.684567,58.527991],[-4.684768,58.52773],[-4.684943,58.527589],[-4.685091,58.527567],[-4.685212,58.527666],[-4.685367,58.527685],[-4.685556,58.527626],[-4.685779,58.527488],[-4.686036,58.527272],[-4.686239,58.527136],[-4.68639,58.527081],[-4.686488,58.527107],[-4.686532,58.527214],[-4.686593,58.527335],[-4.686669,58.527469],[-4.686761,58.527618],[-4.68687,58.52778],[-4.686966,58.527916],[-4.687052,58.528025],[-4.687127,58.528108],[-4.68719,58.528164],[-4.687229,58.528225],[-4.687245,58.528294],[-4.687236,58.528368],[-4.687202,58.528448],[-4.687139,58.528535],[-4.687044,58.528629],[-4.68692,58.52873],[-4.686764,58.528838],[-4.686645,58.528952],[-4.686562,58.529073],[-4.686515,58.5292],[-4.686504,58.529334],[-4.686477,58.529483],[-4.686432,58.529648],[-4.686371,58.529829],[-4.686293,58.530026],[-4.686209,58.530217],[-4.686119,58.530401],[-4.686023,58.530579],[-4.685922,58.53075],[-4.685824,58.530932],[-4.68573,58.531123],[-4.685641,58.531325],[-4.685556,58.531536],[-4.68546,58.531739],[-4.685354,58.531932],[-4.685237,58.532115],[-4.68511,58.53229],[-4.68496,58.532459],[-4.684789,58.532625],[-4.684596,58.532785],[-4.68438,58.532941],[-4.684137,58.533094],[-4.683865,58.533242],[-4.683565,58.533387],[-4.683236,58.533527],[-4.682863,58.533666],[-4.682446,58.533802],[-4.681984,58.533936],[-4.681478,58.534068],[-4.680984,58.534196],[-4.680501,58.534319],[-4.680029,58.534436],[-4.679569,58.53455],[-4.679163,58.534648],[-4.67881,58.534732],[-4.678512,58.534801],[-4.678267,58.534856],[-4.678052,58.534932],[-4.677866,58.535029],[-4.677708,58.535148],[-4.677579,58.535287],[-4.677463,58.535455],[-4.677358,58.535651],[-4.677265,58.535876],[-4.677183,58.536129],[-4.677076,58.536343],[-4.676942,58.536518],[-4.676782,58.536654],[-4.676595,58.536751],[-4.676425,58.536871],[-4.676271,58.537013],[-4.676133,58.537178],[-4.676011,58.537366],[-4.675915,58.537544],[-4.675845,58.537712],[-4.675801,58.53787],[-4.675783,58.538019],[-4.675783,58.53817],[-4.675801,58.538325],[-4.675837,58.538483],[-4.675891,58.538645],[-4.675943,58.538801],[-4.675993,58.538953],[-4.676041,58.539099],[-4.676087,58.539241],[-4.676101,58.53937],[-4.676083,58.539487],[-4.676033,58.539592],[-4.675951,58.539684],[-4.675869,58.539766],[-4.675785,58.539838],[-4.675701,58.5399],[-4.675615,58.539951],[-4.675584,58.540012],[-4.675607,58.540083],[-4.675684,58.540163],[-4.675815,58.540253],[-4.675873,58.540334],[-4.675856,58.540406],[-4.675765,58.540468],[-4.6756,58.540521],[-4.67554,58.540601],[-4.675584,58.540708],[-4.675734,58.540841],[-4.675988,58.541002],[-4.676218,58.541144],[-4.676423,58.541268],[-4.676605,58.541373],[-4.676761,58.541461],[-4.676902,58.541548],[-4.677025,58.541636],[-4.677132,58.541724],[-4.677222,58.541811],[-4.677341,58.541896],[-4.677489,58.541977],[-4.677665,58.542056],[-4.67787,58.542131],[-4.678,58.542226],[-4.678056,58.542342],[-4.678036,58.542479],[-4.677941,58.542636],[-4.677825,58.542772],[-4.677686,58.542888],[-4.677526,58.542984],[-4.677344,58.54306],[-4.677126,58.543147],[-4.676873,58.543244],[-4.676584,58.543353],[-4.67626,58.543472],[-4.675962,58.54359],[-4.67569,58.543707],[-4.675444,58.543823],[-4.675225,58.543937],[-4.675015,58.544049],[-4.674813,58.544158],[-4.67462,58.544265],[-4.674437,58.544369],[-4.674318,58.544467],[-4.674263,58.54456],[-4.674273,58.544648],[-4.674348,58.544731],[-4.67442,58.544832],[-4.674491,58.544954],[-4.67456,58.545094],[-4.674627,58.545254]]]}}