{"type":"Feature","properties":{"id":"265875","COMMUNE":"Perth and Kinross","PROVINCE":"Perth & Kinross and Stirling","COUNTRY":"UK","FIREDATE":"2025-03-18 11:13:00","CLASS":"FireSeason","areaHA_geo":12.157},"geometry":{"type":"Polygon","coordinates":[[[-3.456464,56.827365],[-3.456501,56.827417],[-3.456563,56.827438],[-3.45665,56.827426],[-3.456763,56.827381],[-3.456851,56.82735],[-3.456917,56.827333],[-3.456959,56.82733],[-3.456978,56.82734],[-3.457011,56.827345],[-3.457058,56.827345],[-3.45712,56.827341],[-3.457195,56.827331],[-3.457254,56.827316],[-3.457296,56.827296],[-3.457321,56.827271],[-3.457329,56.827241],[-3.457353,56.827219],[-3.457393,56.827203],[-3.457448,56.827195],[-3.45752,56.827194],[-3.45758,56.827212],[-3.457629,56.82725],[-3.457668,56.827308],[-3.457696,56.827386],[-3.457732,56.827445],[-3.457775,56.827487],[-3.457826,56.827511],[-3.457885,56.827518],[-3.457932,56.827497],[-3.457968,56.827449],[-3.457991,56.827373],[-3.458004,56.827271],[-3.458033,56.827193],[-3.45808,56.827138],[-3.458143,56.827108],[-3.458224,56.827102],[-3.458301,56.827106],[-3.458374,56.827121],[-3.458444,56.827147],[-3.45851,56.827183],[-3.458581,56.827217],[-3.458658,56.827247],[-3.45874,56.827274],[-3.458828,56.827298],[-3.458926,56.82729],[-3.459035,56.827251],[-3.459154,56.82718],[-3.459283,56.827078],[-3.459382,56.826988],[-3.45945,56.826911],[-3.459488,56.826846],[-3.459496,56.826794],[-3.459485,56.826759],[-3.459454,56.826743],[-3.459405,56.826744],[-3.459336,56.826764],[-3.459265,56.826771],[-3.459192,56.826767],[-3.459116,56.82675],[-3.459038,56.826721],[-3.459031,56.82669],[-3.459097,56.826657],[-3.459235,56.826623],[-3.459444,56.826587],[-3.459625,56.826574],[-3.459776,56.826585],[-3.459897,56.82662],[-3.45999,56.826678],[-3.460088,56.826718],[-3.460192,56.826739],[-3.460301,56.826742],[-3.460416,56.826726],[-3.460515,56.826695],[-3.460597,56.82665],[-3.460663,56.826592],[-3.460712,56.826518],[-3.460751,56.826451],[-3.46078,56.826391],[-3.460799,56.826336],[-3.460808,56.826288],[-3.460836,56.826242],[-3.460883,56.8262],[-3.460949,56.826162],[-3.461035,56.826126],[-3.461111,56.826084],[-3.461179,56.826037],[-3.461238,56.825984],[-3.461289,56.825925],[-3.461347,56.825883],[-3.461414,56.825857],[-3.461488,56.825849],[-3.46157,56.825857],[-3.46165,56.825864],[-3.461727,56.82587],[-3.461803,56.825876],[-3.461876,56.82588],[-3.461918,56.82587],[-3.461927,56.825844],[-3.461905,56.825803],[-3.461851,56.825747],[-3.461831,56.8257],[-3.461844,56.825664],[-3.461891,56.825637],[-3.461972,56.825621],[-3.462045,56.825616],[-3.462112,56.825624],[-3.462172,56.825643],[-3.462225,56.825675],[-3.462281,56.8257],[-3.462341,56.825718],[-3.462403,56.82573],[-3.46247,56.825736],[-3.462534,56.825754],[-3.462595,56.825785],[-3.462655,56.825828],[-3.462713,56.825884],[-3.46276,56.825933],[-3.462797,56.825977],[-3.462822,56.826015],[-3.462837,56.826046],[-3.462875,56.826075],[-3.462935,56.8261],[-3.463018,56.826123],[-3.463123,56.826143],[-3.463237,56.826172],[-3.46336,56.82621],[-3.463492,56.826256],[-3.463633,56.826312],[-3.463767,56.826342],[-3.463895,56.826347],[-3.464017,56.826327],[-3.464133,56.826282],[-3.464195,56.82623],[-3.464202,56.826172],[-3.464155,56.826107],[-3.464054,56.826035],[-3.463964,56.825969],[-3.463886,56.825909],[-3.463819,56.825855],[-3.463764,56.825807],[-3.463709,56.825765],[-3.463653,56.82573],[-3.463596,56.825701],[-3.463539,56.825678],[-3.463472,56.825653],[-3.463397,56.825626],[-3.463312,56.825596],[-3.463217,56.825565],[-3.463136,56.825532],[-3.463066,56.825497],[-3.46301,56.82546],[-3.462966,56.825421],[-3.462896,56.825388],[-3.462802,56.825361],[-3.462682,56.825339],[-3.462536,56.825324],[-3.462424,56.825303],[-3.462346,56.825279],[-3.4623,56.825249],[-3.462288,56.825215],[-3.462305,56.825183],[-3.462351,56.825153],[-3.462425,56.825124],[-3.462528,56.825097],[-3.462604,56.825056],[-3.462653,56.825003],[-3.462674,56.824936],[-3.462668,56.824856],[-3.46265,56.824785],[-3.462618,56.824724],[-3.462574,56.824671],[-3.462516,56.824628],[-3.462459,56.824588],[-3.4624,56.824551],[-3.462342,56.824519],[-3.462282,56.82449],[-3.462234,56.824457],[-3.462198,56.824419],[-3.462174,56.824378],[-3.462161,56.824331],[-3.462142,56.824291],[-3.462116,56.824257],[-3.462084,56.824228],[-3.462046,56.824205],[-3.461994,56.824199],[-3.461928,56.82421],[-3.461849,56.824238],[-3.461755,56.824283],[-3.461678,56.8243],[-3.461618,56.82429],[-3.461574,56.824252],[-3.461547,56.824187],[-3.461499,56.82413],[-3.461431,56.82408],[-3.461341,56.824039],[-3.461231,56.824005],[-3.461114,56.823971],[-3.460991,56.823939],[-3.460862,56.823907],[-3.460726,56.823876],[-3.460609,56.823856],[-3.460509,56.823846],[-3.460428,56.823848],[-3.460364,56.823861],[-3.460323,56.823878],[-3.460302,56.8239],[-3.460303,56.823926],[-3.460325,56.823957],[-3.460373,56.823981],[-3.460445,56.824],[-3.460543,56.824011],[-3.460666,56.824017],[-3.460757,56.824026],[-3.460818,56.824037],[-3.460848,56.824051],[-3.460846,56.824068],[-3.460846,56.824093],[-3.460847,56.824127],[-3.460849,56.824169],[-3.460852,56.824221],[-3.460865,56.824265],[-3.460888,56.824303],[-3.460921,56.824334],[-3.460964,56.824358],[-3.460961,56.824389],[-3.460914,56.824424],[-3.460821,56.824466],[-3.460684,56.824513],[-3.460544,56.824552],[-3.460402,56.824581],[-3.460257,56.824601],[-3.46011,56.824612],[-3.460011,56.824614],[-3.459958,56.824605],[-3.459953,56.824586],[-3.459996,56.824556],[-3.460028,56.824515],[-3.46005,56.824461],[-3.460062,56.824395],[-3.460064,56.824316],[-3.460024,56.824246],[-3.459941,56.824183],[-3.459816,56.824129],[-3.459648,56.824082],[-3.459505,56.824052],[-3.459387,56.824039],[-3.459294,56.824042],[-3.459226,56.824061],[-3.45916,56.824069],[-3.459098,56.824064],[-3.459039,56.824047],[-3.458984,56.824017],[-3.45891,56.824007],[-3.458818,56.824014],[-3.458709,56.82404],[-3.458581,56.824084],[-3.458494,56.824128],[-3.458447,56.824171],[-3.458441,56.824213],[-3.458475,56.824255],[-3.458466,56.824282],[-3.458414,56.824295],[-3.458319,56.824293],[-3.458181,56.824276],[-3.458054,56.824268],[-3.457939,56.824268],[-3.457835,56.824275],[-3.457743,56.824291],[-3.457644,56.824291],[-3.45754,56.824274],[-3.45743,56.82424],[-3.457314,56.82419],[-3.457204,56.824156],[-3.457098,56.824136],[-3.456999,56.824131],[-3.456904,56.82414],[-3.456819,56.824133],[-3.456745,56.824109],[-3.45668,56.824068],[-3.456625,56.82401],[-3.456527,56.823976],[-3.456386,56.823966],[-3.456201,56.82398],[-3.455974,56.824018],[-3.455793,56.824054],[-3.45566,56.824087],[-3.455574,56.824118],[-3.455535,56.824147],[-3.455469,56.824171],[-3.455376,56.82419],[-3.455256,56.824204],[-3.455108,56.824213],[-3.454988,56.824237],[-3.454894,56.824276],[-3.454827,56.824329],[-3.454788,56.824397],[-3.454782,56.824446],[-3.454812,56.824475],[-3.454875,56.824484],[-3.454974,56.824474],[-3.455032,56.824487],[-3.455051,56.824524],[-3.455031,56.824585],[-3.454971,56.82467],[-3.454874,56.824736],[-3.454742,56.824783],[-3.454574,56.82481],[-3.45437,56.824819],[-3.454215,56.824847],[-3.454109,56.824894],[-3.454053,56.824961],[-3.454046,56.825046],[-3.454053,56.825113],[-3.454074,56.825163],[-3.45411,56.825194],[-3.45416,56.825207],[-3.454198,56.825234],[-3.454223,56.825273],[-3.454237,56.825326],[-3.454238,56.825392],[-3.454243,56.825435],[-3.454252,56.825456],[-3.454266,56.825454],[-3.454283,56.82543],[-3.454316,56.825412],[-3.454365,56.8254],[-3.454429,56.825396],[-3.454509,56.825398],[-3.454554,56.825431],[-3.454565,56.825496],[-3.45454,56.825593],[-3.45448,56.82572],[-3.454445,56.825825],[-3.454434,56.825905],[-3.454448,56.825962],[-3.454486,56.825995],[-3.454537,56.825991],[-3.454599,56.825949],[-3.454673,56.82587],[-3.45476,56.825754],[-3.454834,56.825666],[-3.454895,56.825606],[-3.454944,56.825574],[-3.454981,56.82557],[-3.45502,56.825576],[-3.455064,56.825591],[-3.45511,56.825616],[-3.45516,56.82565],[-3.455215,56.825685],[-3.455276,56.825722],[-3.455341,56.825761],[-3.455412,56.825801],[-3.455501,56.825833],[-3.455608,56.825858],[-3.455733,56.825875],[-3.455876,56.825885],[-3.455985,56.825877],[-3.456058,56.825851],[-3.456097,56.825807],[-3.456101,56.825744],[-3.456077,56.825702],[-3.456023,56.82568],[-3.455941,56.825677],[-3.455831,56.825695],[-3.455723,56.82569],[-3.455617,56.825663],[-3.455513,56.825614],[-3.455412,56.825542],[-3.455338,56.825477],[-3.45529,56.825419],[-3.45527,56.825368],[-3.455277,56.825324],[-3.455301,56.825306],[-3.455342,56.825316],[-3.4554,56.825351],[-3.455475,56.825414],[-3.455548,56.825463],[-3.455618,56.8255],[-3.455685,56.825525],[-3.455749,56.825537],[-3.4558,56.825537],[-3.455835,56.825526],[-3.455856,56.825504],[-3.455863,56.82547],[-3.455889,56.825452],[-3.455934,56.825451],[-3.455997,56.825465],[-3.45608,56.825496],[-3.456164,56.825516],[-3.456248,56.825526],[-3.456334,56.825525],[-3.45642,56.825514],[-3.456498,56.825474],[-3.456568,56.825406],[-3.45663,56.82531],[-3.456683,56.825184],[-3.456734,56.825091],[-3.456784,56.825031],[-3.456832,56.825002],[-3.456879,56.825005],[-3.456918,56.825028],[-3.45695,56.82507],[-3.456975,56.825131],[-3.456993,56.825212],[-3.457006,56.825287],[-3.457016,56.825356],[-3.457022,56.825419],[-3.457024,56.825477],[-3.45705,56.825508],[-3.457101,56.825513],[-3.457176,56.825492],[-3.457276,56.825444],[-3.457361,56.825412],[-3.45743,56.825394],[-3.457484,56.825392],[-3.457522,56.825404],[-3.457594,56.825403],[-3.4577,56.825389],[-3.457841,56.825362],[-3.458014,56.825321],[-3.458157,56.825299],[-3.458269,56.825295],[-3.45835,56.825311],[-3.4584,56.825345],[-3.458408,56.825378],[-3.458373,56.825412],[-3.458295,56.825445],[-3.458175,56.825478],[-3.458067,56.82551],[-3.457973,56.825541],[-3.457891,56.82557],[-3.457822,56.825598],[-3.457758,56.825632],[-3.457702,56.825673],[-3.457651,56.825721],[-3.457606,56.825775],[-3.457603,56.825811],[-3.457641,56.825829],[-3.457721,56.825828],[-3.457843,56.825809],[-3.457967,56.825783],[-3.458095,56.82575],[-3.458226,56.82571],[-3.45836,56.825663],[-3.458466,56.825645],[-3.458545,56.825654],[-3.458596,56.825691],[-3.45862,56.825757],[-3.458631,56.825818],[-3.458628,56.825875],[-3.458613,56.825928],[-3.458585,56.825976],[-3.458546,56.826014],[-3.458495,56.826041],[-3.458433,56.826057],[-3.45836,56.826062],[-3.458264,56.826079],[-3.458145,56.826105],[-3.458004,56.826143],[-3.45784,56.826191],[-3.457719,56.826238],[-3.457639,56.826285],[-3.457602,56.82633],[-3.457607,56.826375],[-3.45759,56.826402],[-3.457552,56.826411],[-3.457492,56.826403],[-3.457411,56.826376],[-3.457337,56.826348],[-3.45727,56.826319],[-3.45721,56.826289],[-3.457157,56.826257],[-3.457107,56.826225],[-3.457059,56.826193],[-3.457015,56.82616],[-3.456973,56.826128],[-3.456961,56.826089],[-3.456981,56.826043],[-3.457031,56.825992],[-3.457112,56.825934],[-3.457139,56.825905],[-3.457111,56.825906],[-3.457028,56.825936],[-3.456891,56.825996],[-3.456786,56.826058],[-3.456713,56.826122],[-3.456672,56.826189],[-3.456663,56.826258],[-3.456647,56.82632],[-3.456626,56.826375],[-3.456598,56.826423],[-3.456563,56.826463],[-3.456552,56.8265],[-3.456563,56.826531],[-3.456597,56.826559],[-3.456655,56.826582],[-3.456716,56.8266],[-3.456781,56.826614],[-3.456851,56.826623],[-3.456924,56.826628],[-3.456955,56.826637],[-3.456943,56.826651],[-3.456888,56.826669],[-3.45679,56.826691],[-3.456686,56.826701],[-3.456575,56.826697],[-3.456458,56.82668],[-3.456334,56.826649],[-3.456191,56.826628],[-3.456028,56.826618],[-3.455847,56.826616],[-3.455646,56.826625],[-3.455469,56.82662],[-3.455315,56.826602],[-3.455185,56.826571],[-3.455079,56.826526],[-3.454988,56.826505],[-3.454914,56.826508],[-3.454855,56.826534],[-3.454813,56.826584],[-3.454813,56.82664],[-3.454856,56.826701],[-3.454941,56.826769],[-3.455069,56.826842],[-3.455179,56.826886],[-3.455269,56.8269],[-3.455339,56.826885],[-3.455391,56.82684],[-3.455452,56.826808],[-3.455523,56.826788],[-3.455602,56.826781],[-3.455691,56.826786],[-3.45579,56.826793],[-3.455901,56.826801],[-3.456022,56.826811],[-3.456154,56.826822],[-3.456259,56.826836],[-3.456337,56.826853],[-3.456388,56.826874],[-3.456412,56.826899],[-3.456416,56.826925],[-3.456399,56.826952],[-3.456362,56.826981],[-3.456306,56.827012],[-3.456254,56.827053],[-3.456206,56.827106],[-3.456164,56.827169],[-3.456126,56.827243],[-3.456121,56.827286],[-3.456148,56.827298],[-3.456207,56.827278],[-3.456298,56.827227],[-3.456369,56.827211],[-3.456421,56.827228],[-3.456452,56.827279],[-3.456464,56.827365]]]}}