{"type":"Feature","properties":{"id":"265864","COMMUNE":"Caithness and Sutherland","PROVINCE":"Caithness & Sutherland and Ross & Cromarty","COUNTRY":"UK","FIREDATE":"2025-03-18 12:06:00","CLASS":"FireSeason","areaHA_geo":4.742},"geometry":{"type":"Polygon","coordinates":[[[-3.699469,58.115953],[-3.699682,58.11601],[-3.699896,58.116024],[-3.700112,58.115997],[-3.700329,58.115929],[-3.700517,58.115884],[-3.700674,58.115864],[-3.700801,58.115867],[-3.700899,58.115893],[-3.70105,58.115914],[-3.701256,58.11593],[-3.701517,58.11594],[-3.701832,58.115944],[-3.702121,58.11596],[-3.702384,58.115988],[-3.702621,58.116028],[-3.702832,58.11608],[-3.702956,58.116086],[-3.702993,58.116045],[-3.702942,58.115958],[-3.702804,58.115825],[-3.702745,58.115705],[-3.702764,58.115597],[-3.702863,58.115502],[-3.70304,58.11542],[-3.703075,58.115319],[-3.702969,58.115202],[-3.702722,58.115066],[-3.702333,58.114913],[-3.702118,58.114795],[-3.702077,58.114712],[-3.702211,58.114664],[-3.702519,58.114651],[-3.702817,58.114645],[-3.703105,58.114648],[-3.703383,58.114658],[-3.703651,58.114676],[-3.703885,58.114707],[-3.704084,58.114751],[-3.704249,58.114808],[-3.70438,58.114877],[-3.704589,58.114934],[-3.704876,58.114978],[-3.70524,58.115009],[-3.705682,58.115028],[-3.705953,58.114995],[-3.706051,58.114911],[-3.705977,58.114777],[-3.705732,58.11459],[-3.705411,58.114433],[-3.705013,58.114304],[-3.70454,58.114203],[-3.70399,58.114131],[-3.703497,58.114093],[-3.70306,58.114087],[-3.702679,58.114115],[-3.702354,58.114176],[-3.702014,58.11422],[-3.70166,58.114248],[-3.70129,58.114258],[-3.700904,58.114252],[-3.700571,58.114268],[-3.70029,58.114306],[-3.700061,58.114366],[-3.699884,58.114449],[-3.699845,58.114529],[-3.699944,58.114606],[-3.700181,58.11468],[-3.700557,58.114752],[-3.700694,58.114827],[-3.700594,58.114907],[-3.700256,58.11499],[-3.699681,58.115077],[-3.699257,58.115173],[-3.698984,58.115279],[-3.698863,58.115395],[-3.698894,58.115521],[-3.69897,58.115639],[-3.699091,58.115751],[-3.699257,58.115856],[-3.699469,58.115953]]]}}