{"type":"Feature","properties":{"id":"265851","COMMUNE":"Caithness and Sutherland","PROVINCE":"Caithness & Sutherland and Ross & Cromarty","COUNTRY":"UK","FIREDATE":"2025-03-20 11:41:10.038","FINALDATE":"2025-03-21 11:41:12.14","CLASS":"FireSeason","areaHA_geo":1.165},"geometry":{"type":"Polygon","coordinates":[[[-4.586925,57.826397],[-4.587035,57.826469],[-4.5872,57.826438],[-4.58742,57.826305],[-4.587696,57.826069],[-4.587837,57.825875],[-4.587845,57.825722],[-4.587718,57.825611],[-4.587458,57.825541],[-4.587128,57.825487],[-4.586727,57.825449],[-4.586255,57.825428],[-4.585712,57.825422],[-4.58529,57.825448],[-4.584989,57.825506],[-4.584809,57.825596],[-4.584751,57.825718],[-4.584839,57.825812],[-4.585075,57.825881],[-4.585459,57.825923],[-4.58599,57.825938],[-4.586402,57.825993],[-4.586695,57.826088],[-4.58687,57.826222],[-4.586925,57.826397]]]}}