{"type":"Feature","properties":{"id":"265854","COMMUNE":"Angus","PROVINCE":"Angus and Dundee City","COUNTRY":"UK","FIREDATE":"2025-03-15 13:27:00","FINALDATE":"2025-03-15 13:27:00","CLASS":"FireSeason","areaHA_geo":1.442},"geometry":{"type":"Polygon","coordinates":[[[-2.804482,56.889911],[-2.804588,56.889955],[-2.804745,56.88998],[-2.804953,56.889987],[-2.805212,56.889976],[-2.80543,56.889951],[-2.805607,56.889913],[-2.805744,56.889861],[-2.805839,56.889796],[-2.80594,56.889746],[-2.806047,56.889711],[-2.806158,56.889691],[-2.806275,56.889687],[-2.806362,56.889664],[-2.806421,56.889621],[-2.806451,56.889558],[-2.806452,56.889477],[-2.806426,56.889398],[-2.806372,56.889323],[-2.806291,56.88925],[-2.806183,56.88918],[-2.806122,56.889125],[-2.80611,56.889083],[-2.806146,56.889055],[-2.80623,56.88904],[-2.806314,56.889033],[-2.806396,56.889033],[-2.806477,56.889039],[-2.806558,56.889053],[-2.806644,56.889073],[-2.806735,56.8891],[-2.806832,56.889132],[-2.806934,56.889171],[-2.806999,56.889175],[-2.807027,56.889146],[-2.807018,56.889084],[-2.806972,56.888987],[-2.806918,56.8889],[-2.806857,56.888821],[-2.806788,56.888752],[-2.806711,56.888691],[-2.806644,56.888656],[-2.806586,56.888647],[-2.806538,56.888663],[-2.806499,56.888705],[-2.806463,56.888724],[-2.806432,56.88872],[-2.806405,56.888694],[-2.806381,56.888645],[-2.806341,56.888603],[-2.806283,56.888567],[-2.806208,56.888538],[-2.806116,56.888516],[-2.806046,56.88852],[-2.805999,56.888552],[-2.805975,56.888612],[-2.805973,56.888698],[-2.805955,56.888769],[-2.805922,56.888823],[-2.805872,56.888861],[-2.805806,56.888884],[-2.80573,56.888916],[-2.805644,56.888957],[-2.805548,56.889008],[-2.805441,56.889068],[-2.805346,56.889129],[-2.805263,56.889191],[-2.805191,56.889254],[-2.80513,56.889317],[-2.805068,56.889362],[-2.805005,56.889389],[-2.80494,56.889398],[-2.804875,56.889388],[-2.804805,56.889371],[-2.804732,56.889345],[-2.804655,56.889312],[-2.804574,56.88927],[-2.804544,56.889229],[-2.804566,56.88919],[-2.80464,56.889152],[-2.804766,56.889115],[-2.804839,56.889075],[-2.804861,56.889031],[-2.804831,56.888983],[-2.804749,56.888931],[-2.804649,56.888923],[-2.804534,56.888959],[-2.804401,56.889039],[-2.804251,56.889162],[-2.804145,56.88928],[-2.804081,56.889393],[-2.80406,56.889502],[-2.804082,56.889605],[-2.804113,56.889683],[-2.804153,56.889734],[-2.804202,56.88976],[-2.80426,56.889759],[-2.804316,56.889774],[-2.804373,56.889804],[-2.804428,56.88985],[-2.804482,56.889911]]]}}