{"type":"Feature","properties":{"id":"265827","COMMUNE":"Angus","PROVINCE":"Angus and Dundee City","COUNTRY":"UK","FIREDATE":"2025-03-07 13:52:00","FINALDATE":"2025-03-07 13:59:00","CLASS":"FireSeason","areaHA_geo":17.386},"geometry":{"type":"Polygon","coordinates":[[[-2.76802,56.959178],[-2.768255,56.959327],[-2.768703,56.959447],[-2.769365,56.959538],[-2.77024,56.9596],[-2.770948,56.959556],[-2.771489,56.959408],[-2.771863,56.959154],[-2.77207,56.958795],[-2.772109,56.958511],[-2.771979,56.958302],[-2.771681,56.958167],[-2.771214,56.958107],[-2.770843,56.957972],[-2.770567,56.957761],[-2.770387,56.957475],[-2.770302,56.957113],[-2.77028,56.956837],[-2.770322,56.956648],[-2.770428,56.956545],[-2.770597,56.956529],[-2.770754,56.956563],[-2.7709,56.956649],[-2.771034,56.956787],[-2.771157,56.956976],[-2.771279,56.957091],[-2.7714,56.957132],[-2.771519,56.957099],[-2.771638,56.956992],[-2.77177,56.956881],[-2.771915,56.956766],[-2.772073,56.956647],[-2.772245,56.956525],[-2.772374,56.956406],[-2.772461,56.956292],[-2.772506,56.956182],[-2.772508,56.956076],[-2.772461,56.955967],[-2.772365,56.955854],[-2.772219,56.955739],[-2.772023,56.955621],[-2.771805,56.955521],[-2.771563,56.955439],[-2.771299,56.955375],[-2.771012,56.955329],[-2.770763,56.955298],[-2.770554,56.955282],[-2.770384,56.95528],[-2.770252,56.955293],[-2.770116,56.955264],[-2.769976,56.955193],[-2.76983,56.955081],[-2.769681,56.954926],[-2.769609,56.954788],[-2.769616,56.954666],[-2.769701,56.954559],[-2.769864,56.954469],[-2.769986,56.954359],[-2.770068,56.95423],[-2.770109,56.95408],[-2.77011,56.953911],[-2.770082,56.953787],[-2.770026,56.953708],[-2.769941,56.953674],[-2.769829,56.953685],[-2.769702,56.95374],[-2.769561,56.953838],[-2.769406,56.95398],[-2.769236,56.954166],[-2.769021,56.954301],[-2.768758,56.954385],[-2.76845,56.954418],[-2.768094,56.9544],[-2.767693,56.954448],[-2.767247,56.954561],[-2.766755,56.954739],[-2.766217,56.954982],[-2.765843,56.955193],[-2.765633,56.955373],[-2.765586,56.95552],[-2.765703,56.955636],[-2.76587,56.955712],[-2.766086,56.955749],[-2.766352,56.955746],[-2.766668,56.955705],[-2.766884,56.955699],[-2.767001,56.95573],[-2.767019,56.955797],[-2.766938,56.9559],[-2.766945,56.956005],[-2.76704,56.956112],[-2.767222,56.956221],[-2.767493,56.956332],[-2.767628,56.956443],[-2.767627,56.956554],[-2.767491,56.956665],[-2.767218,56.956777],[-2.766953,56.95688],[-2.766694,56.956974],[-2.766442,56.95706],[-2.766196,56.957137],[-2.765932,56.957173],[-2.76565,56.957169],[-2.765348,56.957125],[-2.765028,56.95704],[-2.764777,56.957028],[-2.764594,56.957088],[-2.764479,56.957221],[-2.764433,56.957427],[-2.764442,56.957595],[-2.764506,56.957726],[-2.764626,56.95782],[-2.7648,56.957877],[-2.764957,56.957981],[-2.765096,56.958131],[-2.765216,56.958328],[-2.765319,56.958572],[-2.765459,56.958725],[-2.765635,56.958787],[-2.765848,56.958758],[-2.766098,56.958638],[-2.766333,56.958586],[-2.766551,56.958601],[-2.766754,56.958684],[-2.766942,56.958835],[-2.767129,56.958928],[-2.767315,56.958962],[-2.767501,56.958939],[-2.767687,56.958857],[-2.767831,56.95884],[-2.767935,56.958888],[-2.767998,56.959001],[-2.76802,56.959178]]]}}