{"type":"Feature","properties":{"id":"265849","COMMUNE":"Angus","PROVINCE":"Angus and Dundee City","COUNTRY":"UK","FIREDATE":"2025-03-18 10:49:00","CLASS":"FireSeason","areaHA_geo":46.758},"geometry":{"type":"MultiPolygon","coordinates":[[[[-2.97057,56.948969],[-2.970563,56.949098],[-2.970531,56.949165],[-2.970518,56.949166],[-2.970614,56.949221],[-2.970703,56.949301],[-2.970743,56.94938],[-2.970734,56.94946],[-2.970676,56.949539],[-2.970652,56.949621],[-2.970664,56.949707],[-2.97071,56.949795],[-2.970791,56.949887],[-2.970842,56.949965],[-2.970865,56.95003],[-2.970858,56.95008],[-2.970822,56.950117],[-2.970773,56.950171],[-2.970711,56.95024],[-2.970637,56.950326],[-2.97055,56.950428],[-2.970492,56.950559],[-2.970462,56.950719],[-2.97046,56.950907],[-2.970487,56.951124],[-2.970532,56.951353],[-2.970597,56.951593],[-2.970682,56.951845],[-2.970785,56.952108],[-2.970873,56.952324],[-2.970944,56.952494],[-2.970999,56.952617],[-2.971037,56.952693],[-2.971098,56.952778],[-2.97118,56.952873],[-2.971283,56.952978],[-2.971408,56.953092],[-2.971527,56.953142],[-2.971638,56.953128],[-2.971742,56.953049],[-2.971839,56.952906],[-2.971936,56.952808],[-2.972034,56.952754],[-2.972132,56.952746],[-2.972231,56.952783],[-2.972366,56.952793],[-2.972537,56.952776],[-2.972745,56.952732],[-2.972989,56.952661],[-2.973141,56.952639],[-2.973199,56.952666],[-2.973165,56.952743],[-2.973037,56.952869],[-2.972981,56.952998],[-2.972996,56.95313],[-2.973083,56.953265],[-2.973241,56.953402],[-2.97335,56.953558],[-2.97341,56.953732],[-2.973422,56.953924],[-2.973385,56.954134],[-2.973408,56.954227],[-2.973491,56.954202],[-2.973634,56.954059],[-2.973837,56.953799],[-2.974102,56.953489],[-2.97443,56.95313],[-2.97482,56.95272],[-2.975272,56.952262],[-2.975583,56.951784],[-2.975753,56.951287],[-2.975781,56.950771],[-2.975669,56.950235],[-2.975575,56.9498],[-2.975502,56.949464],[-2.975447,56.949227],[-2.975412,56.949091],[-2.975328,56.948981],[-2.975195,56.948898],[-2.975013,56.948841],[-2.974782,56.948811],[-2.974639,56.948777],[-2.974583,56.948739],[-2.974615,56.948697],[-2.974734,56.948652],[-2.97481,56.948556],[-2.974845,56.948409],[-2.974837,56.948212],[-2.974788,56.947963],[-2.974744,56.947723],[-2.974706,56.94749],[-2.974674,56.947265],[-2.974647,56.947047],[-2.974639,56.946848],[-2.974649,56.946667],[-2.974678,56.946504],[-2.974726,56.946359],[-2.974651,56.946232],[-2.974454,56.946122],[-2.974134,56.946029],[-2.973692,56.945953],[-2.973369,56.94586],[-2.973166,56.945751],[-2.973083,56.945624],[-2.973118,56.94548],[-2.973098,56.945344],[-2.973023,56.945215],[-2.972892,56.945093],[-2.972706,56.944978],[-2.972603,56.944875],[-2.972583,56.944784],[-2.972647,56.944704],[-2.972795,56.944636],[-2.972851,56.944562],[-2.972818,56.944482],[-2.972693,56.944396],[-2.972478,56.944305],[-2.972317,56.944212],[-2.972212,56.94412],[-2.972161,56.944026],[-2.972165,56.943932],[-2.972202,56.943809],[-2.972271,56.943655],[-2.972372,56.943472],[-2.972506,56.943258],[-2.972603,56.943054],[-2.972663,56.942858],[-2.972687,56.94267],[-2.972673,56.942491],[-2.972649,56.942299],[-2.972614,56.942092],[-2.972568,56.941872],[-2.972511,56.941638],[-2.972525,56.94144],[-2.97261,56.941278],[-2.972765,56.941152],[-2.97299,56.941063],[-2.973165,56.940949],[-2.973288,56.94081],[-2.973359,56.940646],[-2.973379,56.940457],[-2.973442,56.940338],[-2.973546,56.940287],[-2.973693,56.940306],[-2.973883,56.940394],[-2.974047,56.940452],[-2.974185,56.940482],[-2.974299,56.940482],[-2.974386,56.940453],[-2.974416,56.940467],[-2.974386,56.940523],[-2.974298,56.940622],[-2.974152,56.940763],[-2.974037,56.940943],[-2.973954,56.941161],[-2.973902,56.941418],[-2.973883,56.941714],[-2.973851,56.941982],[-2.973806,56.942223],[-2.973749,56.942437],[-2.973679,56.942624],[-2.973648,56.942797],[-2.973654,56.942957],[-2.973699,56.943102],[-2.973781,56.943234],[-2.973893,56.943293],[-2.974035,56.943278],[-2.974206,56.943191],[-2.974407,56.943031],[-2.974557,56.942864],[-2.974656,56.942691],[-2.974704,56.942511],[-2.9747,56.942325],[-2.974724,56.942243],[-2.974774,56.942264],[-2.974851,56.94239],[-2.974955,56.94262],[-2.97507,56.942775],[-2.975196,56.942855],[-2.975333,56.942862],[-2.97548,56.942794],[-2.975621,56.942714],[-2.975755,56.942624],[-2.975882,56.942523],[-2.976002,56.942411],[-2.97609,56.942357],[-2.976147,56.942362],[-2.976171,56.942424],[-2.976164,56.942545],[-2.976159,56.942654],[-2.976156,56.942751],[-2.976155,56.942836],[-2.976156,56.942909],[-2.976179,56.942975],[-2.976224,56.943034],[-2.976291,56.943086],[-2.97638,56.94313],[-2.97646,56.943194],[-2.976532,56.943277],[-2.976595,56.943379],[-2.976649,56.9435],[-2.976703,56.943629],[-2.976757,56.943767],[-2.976811,56.943914],[-2.976865,56.944068],[-2.976867,56.94419],[-2.976818,56.944278],[-2.976718,56.944333],[-2.976567,56.944355],[-2.976437,56.944334],[-2.97633,56.944272],[-2.976245,56.944167],[-2.976182,56.94402],[-2.976075,56.943891],[-2.975927,56.943779],[-2.975735,56.943685],[-2.975501,56.943608],[-2.97529,56.943593],[-2.975104,56.943638],[-2.974942,56.943744],[-2.974805,56.943911],[-2.974716,56.944079],[-2.974677,56.944246],[-2.974686,56.944413],[-2.974744,56.944581],[-2.974823,56.944728],[-2.974922,56.944855],[-2.975041,56.944961],[-2.975181,56.945047],[-2.975305,56.945123],[-2.975414,56.945189],[-2.975506,56.945244],[-2.975583,56.94529],[-2.975732,56.94533],[-2.975952,56.945365],[-2.976243,56.945394],[-2.976606,56.945418],[-2.976862,56.945397],[-2.97701,56.945332],[-2.977052,56.945223],[-2.976986,56.94507],[-2.976962,56.94493],[-2.97698,56.944805],[-2.977039,56.944694],[-2.97714,56.944597],[-2.977225,56.944552],[-2.977295,56.944559],[-2.977349,56.944617],[-2.977387,56.944726],[-2.977505,56.944794],[-2.977704,56.944821],[-2.977983,56.944806],[-2.978343,56.94475],[-2.978627,56.94469],[-2.978837,56.944626],[-2.978973,56.944557],[-2.979033,56.944484],[-2.979118,56.944412],[-2.979228,56.944341],[-2.979362,56.944271],[-2.979522,56.944202],[-2.97961,56.944043],[-2.979628,56.943795],[-2.979575,56.943457],[-2.97945,56.943029],[-2.979377,56.942695],[-2.979354,56.942454],[-2.979383,56.942306],[-2.979461,56.942251],[-2.97956,56.942218],[-2.979678,56.942206],[-2.979816,56.942216],[-2.979973,56.942247],[-2.980077,56.942306],[-2.980126,56.942395],[-2.980121,56.942512],[-2.980061,56.942658],[-2.98003,56.942804],[-2.980026,56.942951],[-2.980049,56.943099],[-2.980101,56.943247],[-2.980178,56.943355],[-2.98028,56.943421],[-2.980409,56.943446],[-2.980562,56.943431],[-2.980701,56.9434],[-2.980826,56.943355],[-2.980936,56.943293],[-2.981032,56.943217],[-2.981146,56.943149],[-2.981278,56.943089],[-2.981428,56.943037],[-2.981596,56.942994],[-2.98173,56.942894],[-2.981828,56.942737],[-2.981892,56.942524],[-2.98192,56.942255],[-2.981939,56.942],[-2.981947,56.941759],[-2.981944,56.941532],[-2.981932,56.94132],[-2.98181,56.941156],[-2.98158,56.941039],[-2.981241,56.940969],[-2.980794,56.940948],[-2.980272,56.940933],[-2.979677,56.940926],[-2.979007,56.940927],[-2.978264,56.940934],[-2.97767,56.940976],[-2.977226,56.94105],[-2.97693,56.941158],[-2.976783,56.9413],[-2.976654,56.941378],[-2.976543,56.941392],[-2.97645,56.941343],[-2.976374,56.941231],[-2.976293,56.941154],[-2.976205,56.941113],[-2.976111,56.941107],[-2.976012,56.941137],[-2.975889,56.941136],[-2.975743,56.941104],[-2.975575,56.941041],[-2.975383,56.940947],[-2.975281,56.940863],[-2.975268,56.940791],[-2.975345,56.94073],[-2.975511,56.94068],[-2.975584,56.94062],[-2.975566,56.940548],[-2.975455,56.940466],[-2.975251,56.940373],[-2.975023,56.940279],[-2.97477,56.940185],[-2.974492,56.940089],[-2.97419,56.939993],[-2.973843,56.939884],[-2.973453,56.939763],[-2.973019,56.93963],[-2.97254,56.939485],[-2.972091,56.939388],[-2.971671,56.93934],[-2.97128,56.939341],[-2.970918,56.93939],[-2.970665,56.939479],[-2.97052,56.939607],[-2.970483,56.939774],[-2.970554,56.93998],[-2.970647,56.940151],[-2.970762,56.940286],[-2.970897,56.940386],[-2.971054,56.94045],[-2.971118,56.940537],[-2.971088,56.940647],[-2.970966,56.940779],[-2.970751,56.940934],[-2.970541,56.941077],[-2.970335,56.941207],[-2.970135,56.941326],[-2.96994,56.941432],[-2.969611,56.941507],[-2.969149,56.941549],[-2.968554,56.941561],[-2.967825,56.94154],[-2.967314,56.941563],[-2.967019,56.941629],[-2.966941,56.941739],[-2.967079,56.941892],[-2.967139,56.942027],[-2.967119,56.942146],[-2.96702,56.942248],[-2.966841,56.942332],[-2.966703,56.942411],[-2.966606,56.942484],[-2.96655,56.942551],[-2.966535,56.942613],[-2.966568,56.942683],[-2.966651,56.942761],[-2.966782,56.942848],[-2.966962,56.942944],[-2.967082,56.943045],[-2.967144,56.943152],[-2.967146,56.943265],[-2.96709,56.943384],[-2.967078,56.943509],[-2.967111,56.943639],[-2.967189,56.943774],[-2.967311,56.943915],[-2.967469,56.944036],[-2.967663,56.944137],[-2.967893,56.944217],[-2.968158,56.944277],[-2.968372,56.944294],[-2.968534,56.944268],[-2.968644,56.944198],[-2.968703,56.944086],[-2.968779,56.943972],[-2.968874,56.943856],[-2.968986,56.943738],[-2.969115,56.943618],[-2.969255,56.943482],[-2.969404,56.943331],[-2.969563,56.943163],[-2.969731,56.94298],[-2.96993,56.94284],[-2.97016,56.942743],[-2.970419,56.942691],[-2.97071,56.942682],[-2.970882,56.942701],[-2.970935,56.942749],[-2.97087,56.942826],[-2.970686,56.942931],[-2.970613,56.943045],[-2.970649,56.943168],[-2.970796,56.9433],[-2.971053,56.943441],[-2.971147,56.943561],[-2.971077,56.943661],[-2.970845,56.943741],[-2.97045,56.943801],[-2.970148,56.94389],[-2.969938,56.944007],[-2.969821,56.944154],[-2.969796,56.94433],[-2.969837,56.944517],[-2.969943,56.944717],[-2.970114,56.944928],[-2.970351,56.945151],[-2.970567,56.945344],[-2.970765,56.945508],[-2.970943,56.945642],[-2.971101,56.945746],[-2.971229,56.94586],[-2.971327,56.945983],[-2.971395,56.946116],[-2.971432,56.946259],[-2.971516,56.946341],[-2.971645,56.946361],[-2.97182,56.94632],[-2.972042,56.946218],[-2.972224,56.94618],[-2.972368,56.946206],[-2.972472,56.946295],[-2.972537,56.946449],[-2.972573,56.946594],[-2.972577,56.94673],[-2.972551,56.946857],[-2.972495,56.946976],[-2.972475,56.947105],[-2.972492,56.947243],[-2.972547,56.947391],[-2.972638,56.947549],[-2.972706,56.947674],[-2.97275,56.947766],[-2.972771,56.947825],[-2.972768,56.947852],[-2.97272,56.947907],[-2.972626,56.94799],[-2.972488,56.9481],[-2.972303,56.948239],[-2.972211,56.948352],[-2.97221,56.948438],[-2.972302,56.948499],[-2.972485,56.948534],[-2.972615,56.948581],[-2.97269,56.94864],[-2.972712,56.948711],[-2.97268,56.948795],[-2.972642,56.948888],[-2.972599,56.948993],[-2.97255,56.949108],[-2.972496,56.949233],[-2.97252,56.949311],[-2.972622,56.94934],[-2.972802,56.949322],[-2.97306,56.949256],[-2.973302,56.949196],[-2.973527,56.94914],[-2.973736,56.949089],[-2.973928,56.949043],[-2.974054,56.949037],[-2.974115,56.949071],[-2.97411,56.949145],[-2.974039,56.949258],[-2.97402,56.94938],[-2.974053,56.94951],[-2.974138,56.949649],[-2.974274,56.949795],[-2.974373,56.949945],[-2.974432,56.950099],[-2.974453,56.950257],[-2.974436,56.950419],[-2.974395,56.950563],[-2.974328,56.95069],[-2.974238,56.950799],[-2.974123,56.95089],[-2.974018,56.950912],[-2.973922,56.950865],[-2.973835,56.950749],[-2.973759,56.950563],[-2.973661,56.950458],[-2.973542,56.950433],[-2.973403,56.950489],[-2.973242,56.950625],[-2.973094,56.950737],[-2.972959,56.950823],[-2.972837,56.950886],[-2.972728,56.950923],[-2.972577,56.951],[-2.972385,56.951116],[-2.972152,56.951271],[-2.971877,56.951465],[-2.971681,56.951571],[-2.971565,56.95159],[-2.971529,56.95152],[-2.971572,56.951362],[-2.971604,56.951181],[-2.971624,56.950975],[-2.971633,56.950746],[-2.971631,56.950493],[-2.971643,56.950265],[-2.971671,56.950062],[-2.971713,56.949885],[-2.97177,56.949732],[-2.971782,56.949571],[-2.971747,56.949401],[-2.971667,56.949223],[-2.97154,56.949035],[-2.971394,56.948878],[-2.971228,56.948752],[-2.971042,56.948655],[-2.970835,56.948589],[-2.970685,56.948588],[-2.97059,56.94865],[-2.970552,56.948778],[-2.97057,56.948969]]],[[[-2.970518,56.949166],[-2.970477,56.949142],[-2.970394,56.949097],[-2.970366,56.949086],[-2.970392,56.94911],[-2.970474,56.949169],[-2.970518,56.949166]]]]}}