{"type":"Feature","properties":{"id":"265840","COMMUNE":"Caithness and Sutherland","PROVINCE":"Caithness & Sutherland and Ross & Cromarty","COUNTRY":"UK","FIREDATE":"2025-04-05 13:08:00","CLASS":"FireSeason","areaHA_geo":3.752},"geometry":{"type":"Polygon","coordinates":[[[-4.610927,57.862319],[-4.611022,57.862333],[-4.611134,57.862328],[-4.611264,57.862304],[-4.611411,57.862261],[-4.611562,57.862227],[-4.611716,57.8622],[-4.611873,57.862182],[-4.612034,57.862172],[-4.612193,57.862167],[-4.612351,57.862169],[-4.612508,57.862176],[-4.612664,57.862189],[-4.612839,57.86218],[-4.613034,57.862149],[-4.613248,57.862096],[-4.613483,57.86202],[-4.613675,57.861947],[-4.613825,57.861875],[-4.613932,57.861805],[-4.613998,57.861737],[-4.614051,57.861678],[-4.614091,57.861628],[-4.614119,57.861587],[-4.614135,57.861554],[-4.614166,57.86152],[-4.614212,57.861485],[-4.614274,57.861448],[-4.614351,57.861409],[-4.614396,57.861361],[-4.614409,57.861304],[-4.614389,57.861239],[-4.614338,57.861165],[-4.614299,57.86109],[-4.614272,57.861015],[-4.614257,57.86094],[-4.614255,57.860864],[-4.614286,57.860803],[-4.61435,57.860758],[-4.614447,57.860728],[-4.614577,57.860714],[-4.61469,57.860687],[-4.614785,57.860648],[-4.614862,57.860597],[-4.614922,57.860533],[-4.614937,57.86048],[-4.614905,57.860438],[-4.614828,57.860406],[-4.614705,57.860386],[-4.614596,57.860364],[-4.614501,57.860343],[-4.614421,57.86032],[-4.614354,57.860297],[-4.614337,57.860272],[-4.614369,57.860246],[-4.614451,57.860218],[-4.614582,57.860188],[-4.614681,57.860142],[-4.614749,57.860079],[-4.614785,57.86],[-4.614789,57.859905],[-4.614763,57.859845],[-4.614706,57.85982],[-4.61462,57.859832],[-4.614503,57.859879],[-4.614394,57.859902],[-4.614293,57.8599],[-4.6142,57.859873],[-4.614114,57.859821],[-4.614033,57.859806],[-4.613955,57.859826],[-4.613881,57.859881],[-4.613811,57.859973],[-4.613707,57.860064],[-4.613568,57.860156],[-4.613396,57.860247],[-4.61319,57.860339],[-4.613088,57.860417],[-4.61309,57.860484],[-4.613196,57.860538],[-4.613406,57.860579],[-4.613544,57.860632],[-4.613609,57.860697],[-4.613603,57.860774],[-4.613524,57.860863],[-4.613431,57.860915],[-4.613323,57.860931],[-4.6132,57.86091],[-4.613062,57.860853],[-4.612835,57.860823],[-4.612519,57.86082],[-4.612114,57.860844],[-4.611619,57.860895],[-4.611287,57.860963],[-4.611118,57.861049],[-4.611111,57.861151],[-4.611267,57.861271],[-4.611291,57.861369],[-4.611182,57.861446],[-4.610942,57.861501],[-4.610569,57.861535],[-4.610296,57.861594],[-4.610122,57.861677],[-4.610048,57.861786],[-4.610074,57.861921],[-4.610132,57.862028],[-4.610222,57.86211],[-4.610345,57.862165],[-4.6105,57.862193],[-4.610635,57.862223],[-4.610752,57.862254],[-4.610849,57.862286],[-4.610927,57.862319]]]}}