{"type":"Feature","properties":{"id":"265896","COMMUNE":"Inverness and Nairn","PROVINCE":"Inverness & Nairn and Moray, Badenoch & Strathspey","COUNTRY":"UK","FIREDATE":"2025-03-21 01:17:00","CLASS":"FireSeason","areaHA_geo":117.233},"geometry":{"type":"Polygon","coordinates":[[[-5.009626,57.401986],[-5.009558,57.40211],[-5.009513,57.402224],[-5.009491,57.402327],[-5.009492,57.402418],[-5.009555,57.402488],[-5.009678,57.402537],[-5.009863,57.402563],[-5.010109,57.402567],[-5.010276,57.402588],[-5.010364,57.402624],[-5.010373,57.402675],[-5.010303,57.402742],[-5.010293,57.402799],[-5.010343,57.402846],[-5.010452,57.402883],[-5.010622,57.402909],[-5.010808,57.402924],[-5.011011,57.402927],[-5.01123,57.402918],[-5.011466,57.402897],[-5.011731,57.402859],[-5.012025,57.402802],[-5.012349,57.402727],[-5.012701,57.402634],[-5.01304,57.402573],[-5.013364,57.402546],[-5.013675,57.402551],[-5.013971,57.402589],[-5.014223,57.402614],[-5.01443,57.402627],[-5.014591,57.402626],[-5.014708,57.402613],[-5.014801,57.402572],[-5.014871,57.402505],[-5.014918,57.402411],[-5.014942,57.40229],[-5.014891,57.402173],[-5.014764,57.402059],[-5.014564,57.401949],[-5.014288,57.401843],[-5.014112,57.401749],[-5.014035,57.401665],[-5.014057,57.401594],[-5.014179,57.401534],[-5.014233,57.401434],[-5.014218,57.401294],[-5.014135,57.401115],[-5.013984,57.400896],[-5.013953,57.400722],[-5.01404,57.400594],[-5.014248,57.400511],[-5.014574,57.400473],[-5.014849,57.400414],[-5.015072,57.400332],[-5.015243,57.400229],[-5.015362,57.400103],[-5.015513,57.400015],[-5.015693,57.399965],[-5.015905,57.399952],[-5.016147,57.399977],[-5.01637,57.399984],[-5.016573,57.399974],[-5.016757,57.399946],[-5.016922,57.399901],[-5.017113,57.399854],[-5.017332,57.399806],[-5.017577,57.399756],[-5.017849,57.399705],[-5.018134,57.399662],[-5.018431,57.399628],[-5.018741,57.399602],[-5.019064,57.399585],[-5.019291,57.399603],[-5.019423,57.399657],[-5.01946,57.399746],[-5.019401,57.399871],[-5.019313,57.4],[-5.019197,57.400131],[-5.019051,57.400266],[-5.018875,57.400405],[-5.018794,57.400542],[-5.018808,57.400679],[-5.018915,57.400814],[-5.019117,57.400949],[-5.019297,57.401023],[-5.019456,57.401038],[-5.019593,57.400992],[-5.019709,57.400887],[-5.01983,57.400819],[-5.019958,57.400788],[-5.020092,57.400794],[-5.020231,57.400837],[-5.020403,57.400838],[-5.020606,57.400798],[-5.020842,57.400717],[-5.021109,57.400594],[-5.021396,57.400513],[-5.021704,57.400475],[-5.022032,57.400478],[-5.02238,57.400523],[-5.022681,57.400526],[-5.022934,57.400487],[-5.023138,57.400406],[-5.023295,57.400283],[-5.023479,57.400224],[-5.023689,57.40023],[-5.023925,57.400299],[-5.024188,57.400433],[-5.024438,57.400514],[-5.024675,57.400543],[-5.0249,57.400519],[-5.025113,57.400442],[-5.02532,57.40047],[-5.025522,57.400605],[-5.025718,57.400845],[-5.02591,57.401191],[-5.026108,57.401457],[-5.026313,57.401644],[-5.026524,57.401751],[-5.026743,57.401778],[-5.02695,57.401836],[-5.027146,57.401925],[-5.02733,57.402045],[-5.027502,57.402196],[-5.027582,57.402332],[-5.02757,57.402451],[-5.027466,57.402555],[-5.02727,57.402644],[-5.027148,57.402732],[-5.027098,57.402819],[-5.027122,57.402907],[-5.027219,57.402994],[-5.027341,57.403097],[-5.027487,57.403215],[-5.027657,57.403348],[-5.027853,57.403496],[-5.028043,57.403639],[-5.028227,57.403775],[-5.028406,57.403906],[-5.028579,57.40403],[-5.028731,57.404147],[-5.028862,57.404257],[-5.028971,57.404359],[-5.029059,57.404454],[-5.0292,57.404538],[-5.029395,57.404611],[-5.029644,57.404673],[-5.029945,57.404723],[-5.030121,57.404726],[-5.030169,57.404681],[-5.030091,57.404588],[-5.029887,57.404448],[-5.029739,57.404312],[-5.029649,57.404181],[-5.029616,57.404055],[-5.029639,57.403934],[-5.02959,57.403838],[-5.029469,57.403767],[-5.029276,57.40372],[-5.029011,57.403698],[-5.02888,57.40367],[-5.028885,57.403637],[-5.029024,57.403598],[-5.029299,57.403553],[-5.029541,57.403517],[-5.029749,57.403489],[-5.029925,57.403471],[-5.030067,57.403461],[-5.030177,57.40343],[-5.030254,57.403379],[-5.030297,57.403306],[-5.030308,57.403213],[-5.030368,57.403144],[-5.030477,57.403098],[-5.030636,57.403077],[-5.030845,57.403079],[-5.031162,57.403077],[-5.031586,57.403071],[-5.03212,57.40306],[-5.032761,57.403045],[-5.033345,57.403034],[-5.033873,57.403025],[-5.034345,57.40302],[-5.034759,57.403019],[-5.035114,57.402997],[-5.035409,57.402957],[-5.035643,57.402897],[-5.035818,57.402818],[-5.035997,57.402776],[-5.036178,57.402771],[-5.036363,57.402804],[-5.03655,57.402874],[-5.036715,57.402926],[-5.036857,57.402959],[-5.036976,57.402973],[-5.037072,57.402969],[-5.037054,57.402874],[-5.036923,57.402689],[-5.036678,57.402413],[-5.03632,57.402047],[-5.036085,57.40178],[-5.035973,57.401612],[-5.035984,57.401543],[-5.036119,57.401574],[-5.036313,57.401673],[-5.036565,57.401841],[-5.036876,57.402078],[-5.037246,57.402383],[-5.037544,57.40261],[-5.03777,57.402758],[-5.037923,57.402828],[-5.038005,57.402818],[-5.03808,57.402792],[-5.038147,57.402748],[-5.038207,57.402687],[-5.038261,57.402608],[-5.038375,57.402574],[-5.03855,57.402583],[-5.038785,57.402636],[-5.039082,57.402733],[-5.039291,57.402782],[-5.039413,57.402781],[-5.039447,57.402731],[-5.039394,57.402632],[-5.039354,57.402526],[-5.039326,57.402415],[-5.039311,57.402296],[-5.039309,57.402172],[-5.039341,57.402079],[-5.039408,57.402019],[-5.039509,57.401991],[-5.039645,57.401995],[-5.039785,57.402],[-5.039928,57.402007],[-5.040075,57.402014],[-5.040225,57.402023],[-5.040396,57.402032],[-5.040588,57.402039],[-5.040802,57.402046],[-5.041036,57.402051],[-5.041251,57.402053],[-5.041445,57.40205],[-5.041619,57.402043],[-5.041773,57.402032],[-5.041996,57.402038],[-5.042286,57.40206],[-5.042644,57.402099],[-5.04307,57.402155],[-5.04342,57.402203],[-5.043693,57.402244],[-5.04389,57.402277],[-5.04401,57.402303],[-5.044169,57.402317],[-5.044366,57.402321],[-5.044601,57.402313],[-5.044874,57.402295],[-5.045119,57.402288],[-5.045334,57.402293],[-5.045521,57.402309],[-5.045679,57.402337],[-5.045863,57.402339],[-5.046073,57.402314],[-5.046309,57.402264],[-5.046571,57.402188],[-5.046776,57.402138],[-5.046925,57.402114],[-5.047018,57.402117],[-5.047054,57.402145],[-5.047033,57.40219],[-5.046954,57.402252],[-5.046819,57.40233],[-5.046626,57.402425],[-5.046441,57.402512],[-5.046266,57.402591],[-5.046101,57.402663],[-5.045944,57.402727],[-5.045842,57.402799],[-5.045796,57.40288],[-5.045805,57.402969],[-5.04587,57.403067],[-5.04596,57.403122],[-5.046075,57.403135],[-5.046216,57.403106],[-5.046382,57.403034],[-5.046562,57.402968],[-5.046756,57.402906],[-5.046965,57.402849],[-5.047188,57.402797],[-5.047382,57.402735],[-5.047548,57.402663],[-5.047686,57.402582],[-5.047795,57.40249],[-5.047909,57.40239],[-5.048029,57.402281],[-5.048154,57.402163],[-5.048285,57.402036],[-5.04838,57.401992],[-5.048439,57.402031],[-5.048462,57.402154],[-5.048449,57.402359],[-5.048476,57.402522],[-5.048544,57.402642],[-5.048652,57.40272],[-5.048801,57.402755],[-5.048967,57.40278],[-5.049151,57.402795],[-5.049351,57.4028],[-5.049569,57.402795],[-5.049786,57.402802],[-5.050002,57.402823],[-5.050218,57.402858],[-5.050433,57.402905],[-5.050625,57.402911],[-5.050793,57.402875],[-5.050938,57.402797],[-5.05106,57.402678],[-5.05109,57.402566],[-5.051029,57.402462],[-5.050876,57.402364],[-5.050631,57.402274],[-5.050436,57.402187],[-5.050291,57.402102],[-5.050196,57.402019],[-5.050151,57.401939],[-5.050131,57.401853],[-5.050135,57.40176],[-5.050165,57.401661],[-5.050219,57.401556],[-5.050349,57.401479],[-5.050555,57.401429],[-5.050836,57.401406],[-5.051192,57.401411],[-5.051461,57.40139],[-5.051643,57.401343],[-5.051738,57.401269],[-5.051746,57.40117],[-5.051727,57.40108],[-5.051682,57.401],[-5.05161,57.400929],[-5.051512,57.400868],[-5.051464,57.400767],[-5.051467,57.400626],[-5.05152,57.400444],[-5.051624,57.400221],[-5.051737,57.400044],[-5.05186,57.399912],[-5.051992,57.399824],[-5.052133,57.399782],[-5.052228,57.399723],[-5.052277,57.399648],[-5.052279,57.399558],[-5.052235,57.399451],[-5.052093,57.399395],[-5.051853,57.39939],[-5.051514,57.399436],[-5.051078,57.399532],[-5.050627,57.399579],[-5.050162,57.399577],[-5.049683,57.399526],[-5.049189,57.399425],[-5.048779,57.399334],[-5.048453,57.399254],[-5.04821,57.399183],[-5.048051,57.399123],[-5.047886,57.399056],[-5.047716,57.398984],[-5.04754,57.398906],[-5.047359,57.398821],[-5.047179,57.398717],[-5.047,57.398594],[-5.046821,57.39845],[-5.046644,57.398286],[-5.046477,57.398155],[-5.04632,57.398054],[-5.046172,57.397986],[-5.046035,57.397949],[-5.045873,57.397912],[-5.045687,57.397875],[-5.045476,57.397836],[-5.04524,57.397798],[-5.044992,57.397753],[-5.044733,57.3977],[-5.044461,57.397641],[-5.044178,57.397576],[-5.043922,57.397495],[-5.043693,57.3974],[-5.043492,57.39729],[-5.043319,57.397166],[-5.043175,57.397082],[-5.043059,57.397039],[-5.042973,57.397038],[-5.042916,57.397077],[-5.042829,57.397132],[-5.042711,57.397201],[-5.042562,57.397286],[-5.042383,57.397385],[-5.04221,57.397482],[-5.042041,57.397577],[-5.041878,57.39767],[-5.04172,57.397761],[-5.041636,57.397839],[-5.041627,57.397906],[-5.041692,57.397961],[-5.041832,57.398004],[-5.041939,57.398064],[-5.042013,57.398141],[-5.042055,57.398235],[-5.042064,57.398345],[-5.042061,57.398472],[-5.042047,57.398615],[-5.042021,57.398774],[-5.041983,57.398949],[-5.041977,57.399091],[-5.042003,57.3992],[-5.042062,57.399275],[-5.042152,57.399317],[-5.042252,57.399352],[-5.042361,57.399379],[-5.042479,57.399398],[-5.042606,57.39941],[-5.042704,57.399405],[-5.042775,57.399383],[-5.042818,57.399346],[-5.042832,57.399291],[-5.042874,57.399237],[-5.042943,57.399183],[-5.04304,57.399129],[-5.043164,57.399076],[-5.043244,57.399002],[-5.043279,57.39891],[-5.04327,57.398797],[-5.043216,57.398666],[-5.043244,57.398587],[-5.043356,57.398561],[-5.04355,57.398588],[-5.043827,57.398667],[-5.044045,57.398759],[-5.044203,57.398862],[-5.044303,57.398977],[-5.044343,57.399104],[-5.044298,57.399218],[-5.044168,57.399318],[-5.043954,57.399405],[-5.043654,57.399479],[-5.043418,57.399559],[-5.043246,57.399645],[-5.043137,57.399736],[-5.043091,57.399833],[-5.042999,57.399913],[-5.04286,57.399975],[-5.042673,57.400019],[-5.04244,57.400046],[-5.042221,57.400055],[-5.042016,57.400046],[-5.041824,57.400019],[-5.041647,57.399974],[-5.041495,57.399947],[-5.04137,57.399938],[-5.04127,57.399948],[-5.041196,57.399976],[-5.041108,57.399985],[-5.041006,57.399974],[-5.040889,57.399943],[-5.040759,57.399892],[-5.040697,57.399838],[-5.040704,57.399782],[-5.04078,57.399722],[-5.040925,57.399659],[-5.040959,57.399555],[-5.040881,57.39941],[-5.040691,57.399223],[-5.040389,57.398995],[-5.040072,57.398848],[-5.03974,57.398781],[-5.039391,57.398795],[-5.039027,57.39889],[-5.038773,57.398985],[-5.038629,57.39908],[-5.038595,57.399176],[-5.038671,57.399272],[-5.038669,57.399355],[-5.038587,57.399423],[-5.038426,57.399478],[-5.038187,57.399519],[-5.037966,57.399577],[-5.037765,57.399653],[-5.037584,57.399746],[-5.037422,57.399857],[-5.03723,57.399961],[-5.037007,57.400059],[-5.036755,57.40015],[-5.036472,57.400236],[-5.03621,57.400318],[-5.035968,57.400399],[-5.035747,57.400477],[-5.035546,57.400553],[-5.035322,57.400593],[-5.035074,57.400599],[-5.034802,57.400569],[-5.034507,57.400505],[-5.034352,57.400441],[-5.034338,57.400377],[-5.034464,57.400313],[-5.034731,57.400249],[-5.03491,57.400186],[-5.035,57.400123],[-5.035002,57.40006],[-5.034915,57.399998],[-5.034821,57.399933],[-5.03472,57.399866],[-5.034612,57.399796],[-5.034497,57.399724],[-5.034434,57.399653],[-5.034423,57.399582],[-5.034464,57.399511],[-5.034558,57.399441],[-5.034677,57.399398],[-5.034823,57.399381],[-5.034995,57.399391],[-5.035193,57.399427],[-5.035361,57.399427],[-5.035499,57.399392],[-5.035607,57.39932],[-5.035685,57.399213],[-5.035819,57.399136],[-5.036008,57.399092],[-5.036253,57.399078],[-5.036553,57.399096],[-5.03677,57.399073],[-5.036902,57.399008],[-5.03695,57.398902],[-5.036914,57.398756],[-5.036861,57.398604],[-5.03679,57.398448],[-5.036703,57.398287],[-5.036598,57.398122],[-5.036449,57.398004],[-5.036256,57.397935],[-5.036018,57.397913],[-5.035735,57.397939],[-5.035472,57.397945],[-5.035228,57.39793],[-5.035003,57.397895],[-5.034797,57.39784],[-5.034582,57.397784],[-5.034357,57.397728],[-5.034123,57.397671],[-5.03388,57.397614],[-5.033651,57.397586],[-5.033438,57.397588],[-5.03324,57.397619],[-5.033058,57.397679],[-5.032863,57.397712],[-5.032657,57.397716],[-5.03244,57.397691],[-5.032211,57.397639],[-5.031971,57.397598],[-5.03172,57.397567],[-5.031459,57.397548],[-5.031187,57.39754],[-5.030914,57.397552],[-5.03064,57.397584],[-5.030365,57.397635],[-5.030089,57.397706],[-5.029811,57.397735],[-5.02953,57.397721],[-5.029248,57.397665],[-5.028963,57.397567],[-5.028675,57.397496],[-5.028383,57.397455],[-5.028087,57.397441],[-5.027788,57.397456],[-5.02751,57.39744],[-5.027253,57.397394],[-5.027017,57.397318],[-5.026802,57.397211],[-5.026538,57.397148],[-5.026224,57.397129],[-5.025862,57.397152],[-5.02545,57.397219],[-5.025043,57.397261],[-5.02464,57.397278],[-5.024243,57.39727],[-5.023851,57.397236],[-5.023517,57.397219],[-5.023242,57.397218],[-5.023025,57.397233],[-5.022867,57.397264],[-5.022678,57.397273],[-5.022459,57.397259],[-5.022208,57.397222],[-5.021927,57.397162],[-5.02161,57.397095],[-5.021256,57.397021],[-5.020865,57.39694],[-5.020438,57.396851],[-5.019879,57.396805],[-5.019188,57.396803],[-5.018365,57.396844],[-5.01741,57.396927],[-5.016675,57.39701],[-5.016159,57.397093],[-5.015863,57.397174],[-5.015786,57.397256],[-5.015676,57.397327],[-5.01553,57.39739],[-5.015351,57.397444],[-5.015137,57.397488],[-5.014962,57.3975],[-5.014825,57.39748],[-5.014727,57.397427],[-5.014668,57.397342],[-5.014545,57.397274],[-5.01436,57.397223],[-5.014111,57.397189],[-5.013798,57.397172],[-5.013542,57.397179],[-5.01334,57.397209],[-5.013194,57.397262],[-5.013103,57.397338],[-5.013009,57.397369],[-5.012911,57.397354],[-5.01281,57.397293],[-5.012705,57.397187],[-5.012589,57.397105],[-5.012462,57.397047],[-5.012323,57.397014],[-5.012173,57.397005],[-5.011903,57.397018],[-5.011515,57.397053],[-5.011007,57.39711],[-5.01038,57.397188],[-5.009834,57.397258],[-5.00937,57.397318],[-5.008988,57.397368],[-5.008688,57.39741],[-5.008477,57.397462],[-5.008356,57.397525],[-5.008326,57.397599],[-5.008385,57.397684],[-5.008404,57.397761],[-5.008383,57.397829],[-5.008322,57.397888],[-5.008221,57.39794],[-5.008193,57.397997],[-5.008238,57.398061],[-5.008355,57.398131],[-5.008545,57.398208],[-5.00867,57.398282],[-5.00873,57.398354],[-5.008725,57.398424],[-5.008655,57.398491],[-5.00856,57.398579],[-5.00844,57.398688],[-5.008295,57.398818],[-5.008125,57.398969],[-5.00792,57.39908],[-5.00768,57.39915],[-5.007406,57.39918],[-5.007096,57.39917],[-5.006921,57.399205],[-5.006881,57.399285],[-5.006975,57.39941],[-5.007204,57.399581],[-5.007437,57.399725],[-5.007674,57.399842],[-5.007916,57.399933],[-5.008162,57.399996],[-5.008382,57.400027],[-5.008576,57.400024],[-5.008745,57.399988],[-5.008888,57.399919],[-5.009018,57.399903],[-5.009136,57.399938],[-5.009243,57.400026],[-5.009337,57.400166],[-5.009445,57.400295],[-5.009566,57.400413],[-5.009702,57.400519],[-5.00985,57.400613],[-5.009962,57.400707],[-5.010037,57.4008],[-5.010075,57.400893],[-5.010076,57.400985],[-5.010043,57.401069],[-5.009977,57.401146],[-5.009877,57.401215],[-5.009744,57.401276],[-5.009663,57.401339],[-5.009635,57.401405],[-5.00966,57.401473],[-5.009737,57.401543],[-5.009773,57.401629],[-5.009766,57.401732],[-5.009717,57.401851],[-5.009626,57.401986]]]}}