{"type":"Feature","properties":{"id":"265893","COMMUNE":"Aberdeenshire","PROVINCE":"Aberdeen City and Aberdeenshire","COUNTRY":"UK","FIREDATE":"2025-04-03 13:46:00","CLASS":"FireSeason","areaHA_geo":3.181},"geometry":{"type":"Polygon","coordinates":[[[-3.481657,56.917731],[-3.481671,56.917827],[-3.481722,56.917892],[-3.48181,56.917925],[-3.481935,56.917927],[-3.482062,56.917938],[-3.482191,56.917959],[-3.482321,56.917989],[-3.482453,56.918028],[-3.482586,56.918042],[-3.482721,56.918032],[-3.482857,56.917997],[-3.482995,56.917937],[-3.483107,56.917874],[-3.483193,56.917806],[-3.483254,56.917735],[-3.483289,56.917659],[-3.483442,56.917566],[-3.483714,56.917455],[-3.484103,56.917325],[-3.484611,56.917178],[-3.485001,56.917046],[-3.485274,56.916928],[-3.485429,56.916826],[-3.485467,56.916739],[-3.485526,56.91667],[-3.485608,56.916618],[-3.485712,56.916583],[-3.485837,56.916567],[-3.485967,56.916534],[-3.486102,56.916486],[-3.486242,56.916422],[-3.486386,56.916343],[-3.486503,56.916239],[-3.486591,56.916109],[-3.48665,56.915953],[-3.486682,56.915772],[-3.486667,56.915629],[-3.486604,56.915522],[-3.486494,56.915452],[-3.486337,56.915419],[-3.486187,56.915403],[-3.486045,56.915403],[-3.485911,56.915419],[-3.485784,56.915451],[-3.48567,56.915496],[-3.485571,56.915556],[-3.485485,56.915629],[-3.485412,56.915716],[-3.485372,56.915791],[-3.485363,56.915854],[-3.485387,56.915906],[-3.485443,56.915945],[-3.485472,56.915983],[-3.485476,56.916021],[-3.485452,56.916057],[-3.485403,56.916093],[-3.485332,56.916117],[-3.48524,56.91613],[-3.485127,56.916133],[-3.484992,56.916124],[-3.484784,56.916172],[-3.484504,56.916277],[-3.48415,56.916439],[-3.483723,56.916657],[-3.483375,56.916809],[-3.483105,56.916896],[-3.482914,56.916917],[-3.482801,56.916872],[-3.482696,56.916825],[-3.482599,56.916777],[-3.48251,56.916727],[-3.482428,56.916675],[-3.482329,56.916644],[-3.482211,56.916633],[-3.482075,56.916644],[-3.48192,56.916675],[-3.48181,56.916717],[-3.481746,56.916769],[-3.481727,56.916831],[-3.481753,56.916904],[-3.481817,56.916957],[-3.48192,56.916992],[-3.482061,56.917008],[-3.482239,56.917004],[-3.482358,56.917025],[-3.482415,56.91707],[-3.482413,56.917139],[-3.482349,56.917232],[-3.482268,56.917305],[-3.482169,56.917357],[-3.482052,56.917388],[-3.481918,56.917398],[-3.481811,56.917438],[-3.481732,56.917506],[-3.481681,56.917604],[-3.481657,56.917731]]]}}