{"type":"Feature","properties":{"id":"265887","COMMUNE":"Perth and Kinross","PROVINCE":"Perth & Kinross and Stirling","COUNTRY":"UK","FIREDATE":"2025-04-03 10:34:00","FINALDATE":"2025-04-03 12:29:00","CLASS":"FireSeason","areaHA_geo":7.964},"geometry":{"type":"Polygon","coordinates":[[[-3.486696,56.845746],[-3.486765,56.845732],[-3.48683,56.84573],[-3.486889,56.845741],[-3.486944,56.845764],[-3.486994,56.845799],[-3.487057,56.84582],[-3.487134,56.845825],[-3.487223,56.845816],[-3.487326,56.845792],[-3.487396,56.845758],[-3.487433,56.845715],[-3.487438,56.845663],[-3.487409,56.845602],[-3.487363,56.845547],[-3.4873,56.8455],[-3.487219,56.845459],[-3.48712,56.845425],[-3.487019,56.8454],[-3.486916,56.845382],[-3.486812,56.845371],[-3.486706,56.845369],[-3.486606,56.845364],[-3.486514,56.845357],[-3.486428,56.845347],[-3.486349,56.845335],[-3.486301,56.845304],[-3.486284,56.845255],[-3.486297,56.845188],[-3.48634,56.845102],[-3.486357,56.845033],[-3.486347,56.84498],[-3.486311,56.844943],[-3.486247,56.844922],[-3.485981,56.844888],[-3.485511,56.844841],[-3.484839,56.84478],[-3.483963,56.844705],[-3.483274,56.844669],[-3.482773,56.84467],[-3.482459,56.84471],[-3.482332,56.844788],[-3.482215,56.844842],[-3.482108,56.844874],[-3.482012,56.844882],[-3.481926,56.844867],[-3.481859,56.844843],[-3.481809,56.844809],[-3.481778,56.844766],[-3.481766,56.844713],[-3.481763,56.84466],[-3.481772,56.844607],[-3.481792,56.844553],[-3.481822,56.844499],[-3.481736,56.844438],[-3.481536,56.844371],[-3.481219,56.844298],[-3.480788,56.844217],[-3.480405,56.844146],[-3.480073,56.844082],[-3.47979,56.844027],[-3.479556,56.84398],[-3.479392,56.843934],[-3.479298,56.843888],[-3.479274,56.843842],[-3.479319,56.843797],[-3.479396,56.843772],[-3.479502,56.843767],[-3.47964,56.843784],[-3.479808,56.84382],[-3.479917,56.843831],[-3.479967,56.843815],[-3.479959,56.843774],[-3.479891,56.843707],[-3.479798,56.843646],[-3.47968,56.843592],[-3.479536,56.843546],[-3.479366,56.843506],[-3.479225,56.843471],[-3.479113,56.843442],[-3.479028,56.843419],[-3.478972,56.843401],[-3.478923,56.843379],[-3.478879,56.843353],[-3.478842,56.843323],[-3.478811,56.843289],[-3.478714,56.843268],[-3.47855,56.84326],[-3.478319,56.843264],[-3.478022,56.843282],[-3.477796,56.843315],[-3.477643,56.843363],[-3.477562,56.843426],[-3.477554,56.843505],[-3.477624,56.84358],[-3.477773,56.843651],[-3.478002,56.843718],[-3.478309,56.84378],[-3.478528,56.843842],[-3.478659,56.843903],[-3.478701,56.843963],[-3.478654,56.844022],[-3.478549,56.844074],[-3.478385,56.84412],[-3.478164,56.844159],[-3.477884,56.844192],[-3.477716,56.844224],[-3.477659,56.844255],[-3.477714,56.844286],[-3.477879,56.844316],[-3.478037,56.844345],[-3.478187,56.844374],[-3.478328,56.844401],[-3.478462,56.844428],[-3.478585,56.844454],[-3.478696,56.84448],[-3.478796,56.844505],[-3.478886,56.844529],[-3.478928,56.844552],[-3.478923,56.844573],[-3.478871,56.844592],[-3.478772,56.844609],[-3.478654,56.844617],[-3.478517,56.844616],[-3.478362,56.844606],[-3.478188,56.844587],[-3.477974,56.844563],[-3.477722,56.844533],[-3.477431,56.844499],[-3.4771,56.844459],[-3.476826,56.844436],[-3.476607,56.844432],[-3.476445,56.844446],[-3.476338,56.844477],[-3.476278,56.844511],[-3.476263,56.844548],[-3.476295,56.844588],[-3.476372,56.844631],[-3.476499,56.84467],[-3.476676,56.844706],[-3.476903,56.844738],[-3.47718,56.844767],[-3.477442,56.844793],[-3.477689,56.844816],[-3.477921,56.844837],[-3.478138,56.844855],[-3.478342,56.844871],[-3.478533,56.844885],[-3.478711,56.844897],[-3.478876,56.844906],[-3.479013,56.8449],[-3.479122,56.844876],[-3.479204,56.844837],[-3.479258,56.84478],[-3.47933,56.844757],[-3.47942,56.844766],[-3.479528,56.844808],[-3.479654,56.844883],[-3.479771,56.844941],[-3.479879,56.844982],[-3.479978,56.845006],[-3.480067,56.845014],[-3.480141,56.845002],[-3.480197,56.844971],[-3.480238,56.84492],[-3.480262,56.84485],[-3.480323,56.844803],[-3.48042,56.844779],[-3.480553,56.844779],[-3.480722,56.844802],[-3.480839,56.844839],[-3.480904,56.844889],[-3.480917,56.844954],[-3.480877,56.845033],[-3.480795,56.845095],[-3.480673,56.845142],[-3.480509,56.845173],[-3.480303,56.845187],[-3.480156,56.845203],[-3.480065,56.845219],[-3.480033,56.845236],[-3.480058,56.845254],[-3.480161,56.845309],[-3.480343,56.845402],[-3.480604,56.845532],[-3.480943,56.8457],[-3.481226,56.845826],[-3.481452,56.845911],[-3.481621,56.845954],[-3.481733,56.845956],[-3.481847,56.845929],[-3.481963,56.845873],[-3.482081,56.845788],[-3.482201,56.845673],[-3.482341,56.845596],[-3.4825,56.845556],[-3.482678,56.845552],[-3.482876,56.845586],[-3.483027,56.845623],[-3.483132,56.845663],[-3.483189,56.845706],[-3.483199,56.845752],[-3.483153,56.845782],[-3.48305,56.845796],[-3.482889,56.845795],[-3.482672,56.845777],[-3.482527,56.845777],[-3.482452,56.845795],[-3.48245,56.84583],[-3.482519,56.845884],[-3.482615,56.845932],[-3.482738,56.845973],[-3.482889,56.846008],[-3.483067,56.846037],[-3.483246,56.846075],[-3.483427,56.846122],[-3.48361,56.846178],[-3.483795,56.846244],[-3.483937,56.846303],[-3.484037,56.846357],[-3.484095,56.846405],[-3.48411,56.846448],[-3.484054,56.846468],[-3.483926,56.846466],[-3.483727,56.846442],[-3.483456,56.846396],[-3.483241,56.846348],[-3.48308,56.846299],[-3.482975,56.846248],[-3.482925,56.846196],[-3.482841,56.84616],[-3.482723,56.846142],[-3.482571,56.846141],[-3.482385,56.846157],[-3.482345,56.846201],[-3.482451,56.846273],[-3.482704,56.846373],[-3.483103,56.8465],[-3.48347,56.846611],[-3.483804,56.846705],[-3.484106,56.846782],[-3.484376,56.846842],[-3.484587,56.846878],[-3.484741,56.846891],[-3.484836,56.84688],[-3.484873,56.846846],[-3.484882,56.846806],[-3.484863,56.84676],[-3.484815,56.846709],[-3.484739,56.846653],[-3.484688,56.846586],[-3.484664,56.846509],[-3.484665,56.846422],[-3.484692,56.846324],[-3.48473,56.846237],[-3.484779,56.846159],[-3.48484,56.84609],[-3.484912,56.846032],[-3.485001,56.845974],[-3.485107,56.845915],[-3.48523,56.845857],[-3.48537,56.845798],[-3.48552,56.845752],[-3.485682,56.845718],[-3.485854,56.845697],[-3.486037,56.845688],[-3.486191,56.845687],[-3.486318,56.845694],[-3.486416,56.845709],[-3.486486,56.845732],[-3.486556,56.845746],[-3.486626,56.845751],[-3.486696,56.845746]]]}}