{"type":"Feature","properties":{"id":"265855","COMMUNE":"Caithness and Sutherland","PROVINCE":"Caithness & Sutherland and Ross & Cromarty","COUNTRY":"UK","FIREDATE":"2025-03-17 12:23:00","CLASS":"FireSeason","areaHA_geo":11.542},"geometry":{"type":"Polygon","coordinates":[[[-4.063745,58.305778],[-4.063888,58.305968],[-4.064022,58.306092],[-4.064148,58.306149],[-4.064265,58.30614],[-4.064348,58.306115],[-4.064399,58.306075],[-4.064416,58.306019],[-4.0644,58.305948],[-4.064434,58.30589],[-4.064517,58.305844],[-4.06465,58.305812],[-4.064832,58.305793],[-4.064981,58.305807],[-4.065098,58.305854],[-4.065182,58.305935],[-4.065234,58.306049],[-4.065301,58.306134],[-4.065382,58.306188],[-4.065479,58.306213],[-4.065591,58.306208],[-4.065674,58.306243],[-4.06573,58.306319],[-4.065757,58.306435],[-4.065756,58.306591],[-4.065775,58.306721],[-4.065817,58.306824],[-4.065879,58.306902],[-4.065962,58.306953],[-4.066019,58.307004],[-4.066049,58.307056],[-4.066052,58.307108],[-4.066029,58.30716],[-4.066042,58.30722],[-4.066091,58.307288],[-4.066176,58.307364],[-4.066298,58.307447],[-4.066417,58.30751],[-4.066535,58.30755],[-4.06665,58.30757],[-4.066763,58.307568],[-4.066839,58.30754],[-4.066877,58.307486],[-4.066879,58.307406],[-4.066843,58.3073],[-4.066791,58.307204],[-4.066722,58.307119],[-4.066637,58.307043],[-4.066535,58.306977],[-4.06645,58.306915],[-4.066382,58.306855],[-4.066331,58.306799],[-4.066298,58.306746],[-4.066368,58.306693],[-4.066543,58.30664],[-4.066822,58.306586],[-4.067206,58.306533],[-4.06751,58.306507],[-4.067736,58.30651],[-4.067882,58.306541],[-4.06795,58.3066],[-4.068024,58.306647],[-4.068104,58.306682],[-4.068191,58.306704],[-4.068283,58.306715],[-4.068346,58.306692],[-4.068378,58.306637],[-4.068379,58.30655],[-4.068351,58.30643],[-4.068281,58.306307],[-4.068171,58.306181],[-4.06802,58.306051],[-4.067828,58.305919],[-4.067673,58.305801],[-4.067553,58.305699],[-4.06747,58.305613],[-4.067422,58.305541],[-4.06737,58.30548],[-4.067312,58.30543],[-4.067249,58.30539],[-4.06718,58.305361],[-4.067117,58.305304],[-4.067058,58.305221],[-4.067005,58.30511],[-4.066956,58.304972],[-4.066953,58.304893],[-4.066996,58.304872],[-4.067083,58.304909],[-4.067216,58.305005],[-4.067319,58.305055],[-4.067394,58.305058],[-4.067439,58.305016],[-4.067454,58.304928],[-4.067493,58.304846],[-4.067554,58.30477],[-4.067639,58.3047],[-4.067746,58.304635],[-4.067814,58.304527],[-4.067842,58.304376],[-4.067832,58.304182],[-4.067782,58.303945],[-4.067713,58.303731],[-4.067625,58.303541],[-4.067518,58.303375],[-4.067391,58.303232],[-4.067238,58.303074],[-4.067059,58.3029],[-4.066853,58.302711],[-4.06662,58.302506],[-4.066435,58.302332],[-4.066299,58.302189],[-4.066212,58.302076],[-4.066173,58.301993],[-4.066164,58.301932],[-4.066186,58.301892],[-4.066238,58.301872],[-4.066321,58.301873],[-4.066372,58.301835],[-4.066392,58.301756],[-4.066379,58.301638],[-4.066336,58.30148],[-4.06629,58.301357],[-4.066242,58.301269],[-4.066193,58.301216],[-4.066142,58.301198],[-4.066099,58.301171],[-4.066066,58.301134],[-4.066041,58.301089],[-4.066026,58.301034],[-4.065916,58.300976],[-4.065711,58.300914],[-4.065412,58.300849],[-4.065018,58.300781],[-4.064711,58.300719],[-4.064489,58.300663],[-4.064354,58.300612],[-4.064305,58.300567],[-4.064246,58.300531],[-4.064177,58.300501],[-4.064099,58.30048],[-4.064011,58.300466],[-4.06397,58.300493],[-4.063975,58.300562],[-4.064027,58.300673],[-4.064126,58.300826],[-4.064216,58.300935],[-4.064299,58.301001],[-4.064375,58.301024],[-4.064443,58.301003],[-4.064511,58.300993],[-4.06458,58.300992],[-4.064651,58.301001],[-4.064721,58.30102],[-4.064778,58.301058],[-4.064819,58.301115],[-4.064846,58.301191],[-4.064859,58.301287],[-4.064873,58.301371],[-4.06489,58.301446],[-4.064909,58.30151],[-4.064931,58.301565],[-4.064937,58.301611],[-4.064927,58.301651],[-4.064902,58.301682],[-4.064861,58.301707],[-4.064817,58.301744],[-4.064771,58.301796],[-4.064723,58.301861],[-4.064672,58.301939],[-4.06464,58.302015],[-4.064628,58.302087],[-4.064635,58.302157],[-4.064662,58.302224],[-4.064673,58.302277],[-4.064669,58.302316],[-4.064651,58.30234],[-4.064617,58.30235],[-4.064585,58.30237],[-4.064556,58.3024],[-4.064529,58.302439],[-4.064504,58.302488],[-4.064564,58.302603],[-4.064707,58.302782],[-4.064935,58.303026],[-4.065248,58.303335],[-4.065454,58.303591],[-4.065553,58.303793],[-4.065545,58.303942],[-4.065431,58.304037],[-4.065347,58.304119],[-4.065292,58.304188],[-4.065267,58.304244],[-4.065271,58.304286],[-4.06523,58.304317],[-4.065142,58.304336],[-4.065009,58.304344],[-4.064831,58.304339],[-4.064679,58.304325],[-4.064555,58.3043],[-4.064459,58.304264],[-4.06439,58.304218],[-4.064301,58.304173],[-4.064192,58.304128],[-4.064062,58.304083],[-4.063912,58.304039],[-4.063696,58.303985],[-4.063414,58.30392],[-4.063066,58.303844],[-4.062653,58.303758],[-4.062314,58.303714],[-4.062051,58.303712],[-4.061863,58.303752],[-4.06175,58.303834],[-4.06166,58.30391],[-4.061594,58.303982],[-4.061551,58.304049],[-4.061531,58.304111],[-4.061546,58.304163],[-4.061594,58.304206],[-4.061677,58.30424],[-4.061794,58.304264],[-4.061891,58.304298],[-4.061969,58.304341],[-4.062026,58.304394],[-4.062063,58.304457],[-4.062102,58.304507],[-4.062142,58.304544],[-4.062184,58.304569],[-4.062226,58.304581],[-4.062271,58.304613],[-4.062317,58.304667],[-4.062366,58.304741],[-4.062416,58.304835],[-4.062508,58.304916],[-4.062642,58.304983],[-4.062818,58.305037],[-4.063037,58.305077],[-4.063238,58.305171],[-4.063424,58.305319],[-4.063592,58.305522],[-4.063745,58.305778]]]}}