{"type":"Feature","properties":{"id":"265846","COMMUNE":"Caithness and Sutherland","PROVINCE":"Caithness & Sutherland and Ross & Cromarty","COUNTRY":"UK","FIREDATE":"2025-04-03 12:06:00","FINALDATE":"2025-04-03 13:38:00","CLASS":"FireSeason","areaHA_geo":33.592},"geometry":{"type":"Polygon","coordinates":[[[-4.596391,57.848323],[-4.596433,57.848388],[-4.596549,57.848437],[-4.59674,57.848471],[-4.597005,57.848489],[-4.597174,57.848525],[-4.597249,57.848581],[-4.597229,57.848656],[-4.597115,57.84875],[-4.597137,57.848805],[-4.597296,57.848822],[-4.597593,57.8488],[-4.598027,57.848739],[-4.598401,57.84866],[-4.598716,57.848563],[-4.598971,57.848448],[-4.599166,57.848316],[-4.599314,57.848205],[-4.599415,57.848117],[-4.599469,57.848051],[-4.599475,57.848008],[-4.599458,57.847966],[-4.599418,57.847925],[-4.599354,57.847886],[-4.599266,57.847849],[-4.599233,57.847817],[-4.599255,57.847791],[-4.599331,57.847771],[-4.599462,57.847757],[-4.599585,57.847728],[-4.599701,57.847685],[-4.599808,57.847629],[-4.599908,57.847558],[-4.600022,57.847496],[-4.600149,57.847443],[-4.600291,57.8474],[-4.600446,57.847366],[-4.600567,57.847327],[-4.600654,57.847286],[-4.600708,57.84724],[-4.600729,57.847191],[-4.600756,57.84715],[-4.600792,57.847119],[-4.600835,57.847096],[-4.600885,57.847082],[-4.600995,57.847053],[-4.601162,57.847011],[-4.601389,57.846955],[-4.601674,57.846885],[-4.601933,57.846815],[-4.602166,57.846744],[-4.602372,57.846673],[-4.602552,57.846602],[-4.602747,57.846536],[-4.602956,57.846477],[-4.60318,57.846423],[-4.603418,57.846376],[-4.603625,57.846322],[-4.603802,57.846261],[-4.603948,57.846195],[-4.604063,57.846122],[-4.604169,57.846068],[-4.604267,57.846031],[-4.604356,57.846013],[-4.604437,57.846012],[-4.604476,57.845966],[-4.604475,57.845875],[-4.604433,57.845737],[-4.604351,57.845554],[-4.604312,57.845413],[-4.604316,57.845314],[-4.604363,57.845257],[-4.604454,57.845243],[-4.604537,57.84522],[-4.604613,57.845188],[-4.604681,57.845147],[-4.604741,57.845098],[-4.604815,57.845052],[-4.604903,57.84501],[-4.605004,57.844972],[-4.605119,57.844938],[-4.605239,57.844888],[-4.605364,57.84482],[-4.605495,57.844736],[-4.605631,57.844636],[-4.605824,57.844562],[-4.606075,57.844515],[-4.606382,57.844495],[-4.606747,57.844501],[-4.607037,57.844494],[-4.607253,57.844472],[-4.607396,57.844436],[-4.607464,57.844385],[-4.607556,57.844336],[-4.607673,57.844286],[-4.607814,57.844238],[-4.607979,57.844189],[-4.608119,57.844142],[-4.608232,57.844095],[-4.60832,57.844049],[-4.608382,57.844004],[-4.608432,57.843943],[-4.60847,57.843869],[-4.608496,57.843779],[-4.60851,57.843675],[-4.608521,57.843568],[-4.608529,57.843458],[-4.608533,57.843345],[-4.608535,57.84323],[-4.608571,57.843121],[-4.608642,57.843019],[-4.608748,57.842924],[-4.608889,57.842835],[-4.609009,57.842778],[-4.609107,57.842752],[-4.609184,57.842758],[-4.609239,57.842795],[-4.609302,57.842826],[-4.609373,57.842852],[-4.609452,57.842874],[-4.609539,57.84289],[-4.60962,57.842912],[-4.609696,57.84294],[-4.609766,57.842973],[-4.60983,57.843013],[-4.609891,57.843015],[-4.609949,57.842979],[-4.610003,57.842904],[-4.610054,57.842792],[-4.61013,57.842706],[-4.610231,57.842648],[-4.610357,57.842617],[-4.610508,57.842613],[-4.610636,57.84262],[-4.61074,57.842639],[-4.61082,57.842668],[-4.610877,57.842709],[-4.610898,57.842762],[-4.610885,57.842828],[-4.610836,57.842906],[-4.610752,57.842997],[-4.610715,57.843063],[-4.610724,57.843105],[-4.610779,57.843122],[-4.610881,57.843115],[-4.61095,57.843127],[-4.610986,57.843157],[-4.61099,57.843206],[-4.610961,57.843273],[-4.610922,57.843355],[-4.610873,57.843453],[-4.610814,57.843565],[-4.610745,57.843692],[-4.610738,57.84377],[-4.610794,57.843798],[-4.610912,57.843777],[-4.611092,57.843705],[-4.611253,57.843618],[-4.611396,57.843514],[-4.611521,57.843395],[-4.611626,57.843259],[-4.611739,57.843169],[-4.611857,57.843123],[-4.611982,57.843123],[-4.612113,57.843169],[-4.612205,57.843223],[-4.612258,57.843285],[-4.612273,57.843356],[-4.612249,57.843436],[-4.612173,57.84352],[-4.612044,57.843609],[-4.611863,57.843703],[-4.61163,57.843802],[-4.611443,57.843891],[-4.611302,57.843971],[-4.611208,57.844041],[-4.61116,57.844102],[-4.611167,57.844149],[-4.611229,57.844183],[-4.611346,57.844203],[-4.611518,57.84421],[-4.611704,57.844203],[-4.611905,57.844183],[-4.612121,57.844149],[-4.612351,57.844102],[-4.612549,57.84404],[-4.612714,57.843962],[-4.612847,57.843868],[-4.612947,57.843758],[-4.61304,57.84367],[-4.613125,57.843603],[-4.613203,57.843557],[-4.613273,57.843532],[-4.613366,57.843499],[-4.613483,57.843458],[-4.613622,57.84341],[-4.613784,57.843353],[-4.613936,57.843273],[-4.614079,57.84317],[-4.614213,57.843043],[-4.614336,57.842892],[-4.61445,57.842761],[-4.614553,57.842649],[-4.614646,57.842556],[-4.614729,57.842483],[-4.61483,57.842444],[-4.614949,57.842439],[-4.615085,57.842469],[-4.61524,57.842533],[-4.615369,57.842589],[-4.615472,57.842635],[-4.61555,57.842672],[-4.615602,57.842701],[-4.615658,57.842726],[-4.61572,57.84275],[-4.615787,57.84277],[-4.615858,57.842788],[-4.615887,57.842814],[-4.615873,57.84285],[-4.615817,57.842895],[-4.615718,57.842949],[-4.61564,57.843004],[-4.615583,57.843062],[-4.615547,57.843122],[-4.615532,57.843183],[-4.615549,57.843234],[-4.615597,57.843273],[-4.615677,57.843302],[-4.615788,57.843319],[-4.615856,57.843347],[-4.615879,57.843385],[-4.615859,57.843433],[-4.615794,57.843492],[-4.615716,57.843528],[-4.615626,57.843543],[-4.615522,57.843535],[-4.615405,57.843505],[-4.615286,57.843483],[-4.615163,57.843469],[-4.615038,57.843462],[-4.61491,57.843464],[-4.614819,57.843486],[-4.614763,57.843528],[-4.614745,57.843591],[-4.614763,57.843675],[-4.614765,57.843749],[-4.614751,57.843815],[-4.614722,57.843872],[-4.614677,57.843919],[-4.614662,57.843962],[-4.614677,57.843999],[-4.614722,57.84403],[-4.614797,57.844056],[-4.614916,57.844068],[-4.615081,57.844067],[-4.61529,57.844052],[-4.615544,57.844024],[-4.615695,57.84402],[-4.615743,57.844041],[-4.615689,57.844085],[-4.615532,57.844154],[-4.615364,57.84422],[-4.615184,57.844282],[-4.614993,57.844342],[-4.614791,57.844399],[-4.614599,57.844462],[-4.614418,57.844531],[-4.614248,57.844606],[-4.614088,57.844688],[-4.61396,57.844769],[-4.613864,57.844848],[-4.613799,57.844926],[-4.613765,57.845002],[-4.613782,57.845057],[-4.613847,57.84509],[-4.613963,57.845102],[-4.614128,57.845092],[-4.614256,57.845103],[-4.614349,57.845133],[-4.614406,57.845183],[-4.614426,57.845254],[-4.614506,57.845316],[-4.614644,57.845369],[-4.614841,57.845413],[-4.615097,57.845449],[-4.61532,57.845449],[-4.61551,57.845413],[-4.615668,57.845341],[-4.615793,57.845233],[-4.615831,57.845128],[-4.615782,57.845026],[-4.615645,57.844928],[-4.615422,57.844833],[-4.615336,57.844736],[-4.615388,57.844636],[-4.615578,57.844534],[-4.615905,57.844429],[-4.616118,57.84438],[-4.616217,57.844386],[-4.616202,57.844447],[-4.616073,57.844564],[-4.616079,57.844654],[-4.61622,57.844715],[-4.616497,57.844748],[-4.61691,57.844754],[-4.617226,57.844722],[-4.617447,57.844653],[-4.617573,57.844546],[-4.617603,57.844401],[-4.617669,57.844291],[-4.617771,57.844216],[-4.617909,57.844175],[-4.618083,57.844168],[-4.618245,57.844186],[-4.618394,57.844227],[-4.618531,57.844292],[-4.618656,57.844381],[-4.618807,57.84443],[-4.618984,57.84444],[-4.619187,57.844411],[-4.619417,57.844343],[-4.619515,57.844274],[-4.619482,57.844202],[-4.619318,57.84413],[-4.619022,57.844056],[-4.618737,57.843991],[-4.618461,57.843936],[-4.618196,57.843891],[-4.61794,57.843855],[-4.617776,57.843812],[-4.617703,57.843762],[-4.617722,57.843706],[-4.617833,57.843642],[-4.617854,57.843583],[-4.617783,57.843529],[-4.617623,57.843479],[-4.617371,57.843435],[-4.617185,57.843387],[-4.617064,57.843336],[-4.617008,57.843282],[-4.617017,57.843226],[-4.617045,57.843177],[-4.617093,57.843135],[-4.617159,57.843101],[-4.617245,57.843074],[-4.617386,57.843066],[-4.617584,57.843076],[-4.617836,57.843105],[-4.618145,57.843152],[-4.618415,57.843198],[-4.618646,57.843243],[-4.618839,57.843287],[-4.618993,57.84333],[-4.619133,57.843378],[-4.61926,57.843433],[-4.619373,57.843493],[-4.619472,57.843559],[-4.619592,57.843621],[-4.619733,57.843681],[-4.619894,57.843736],[-4.620076,57.843789],[-4.620237,57.843817],[-4.620375,57.843821],[-4.620491,57.843801],[-4.620586,57.843756],[-4.620686,57.843705],[-4.620791,57.843649],[-4.620903,57.843586],[-4.62102,57.843517],[-4.621083,57.843452],[-4.621094,57.843388],[-4.621051,57.843328],[-4.620955,57.84327],[-4.620817,57.843228],[-4.620638,57.843201],[-4.620416,57.843189],[-4.620152,57.843192],[-4.620005,57.843178],[-4.619976,57.843145],[-4.620063,57.843093],[-4.620268,57.843023],[-4.6205,57.842951],[-4.620759,57.842875],[-4.621044,57.842796],[-4.621357,57.842715],[-4.621604,57.84264],[-4.621786,57.842573],[-4.621902,57.842513],[-4.621953,57.84246],[-4.621825,57.842422],[-4.621518,57.842398],[-4.621032,57.842389],[-4.620367,57.842395],[-4.61981,57.842396],[-4.619363,57.842395],[-4.619026,57.842389],[-4.618797,57.842381],[-4.61868,57.842365],[-4.618674,57.842342],[-4.618781,57.842312],[-4.618999,57.842275],[-4.61909,57.84224],[-4.619052,57.842208],[-4.618887,57.842178],[-4.618595,57.842151],[-4.618363,57.842128],[-4.618191,57.842111],[-4.618079,57.842099],[-4.618028,57.842092],[-4.617949,57.84207],[-4.617842,57.842035],[-4.617708,57.841986],[-4.617545,57.841923],[-4.617357,57.841884],[-4.617142,57.841869],[-4.6169,57.841879],[-4.616633,57.841913],[-4.616404,57.841939],[-4.616215,57.841958],[-4.616065,57.841969],[-4.615954,57.841973],[-4.615819,57.841969],[-4.615661,57.841956],[-4.61548,57.841936],[-4.615275,57.841907],[-4.615078,57.8419],[-4.614887,57.841915],[-4.614702,57.841951],[-4.614525,57.84201],[-4.614348,57.842073],[-4.614171,57.842142],[-4.613994,57.842216],[-4.613817,57.842296],[-4.613663,57.842344],[-4.613533,57.84236],[-4.613427,57.842345],[-4.613344,57.842299],[-4.613322,57.842251],[-4.613363,57.842202],[-4.613464,57.842151],[-4.613628,57.842098],[-4.613764,57.842032],[-4.613872,57.841952],[-4.613952,57.841857],[-4.614005,57.841749],[-4.614029,57.841655],[-4.614025,57.841576],[-4.613994,57.841513],[-4.613933,57.841464],[-4.613899,57.841409],[-4.61389,57.841348],[-4.613907,57.84128],[-4.61395,57.841207],[-4.613886,57.841159],[-4.613716,57.841135],[-4.613439,57.841136],[-4.613055,57.841161],[-4.612726,57.841199],[-4.612453,57.841248],[-4.612235,57.84131],[-4.612072,57.841383],[-4.611961,57.841467],[-4.611903,57.841562],[-4.611897,57.841666],[-4.611943,57.84178],[-4.611959,57.841885],[-4.611945,57.841978],[-4.6119,57.842061],[-4.611825,57.842134],[-4.61171,57.842191],[-4.611554,57.842234],[-4.611359,57.842262],[-4.611123,57.842276],[-4.61089,57.842286],[-4.61066,57.842295],[-4.610433,57.842301],[-4.61021,57.842304],[-4.609993,57.842314],[-4.609782,57.842331],[-4.609579,57.842355],[-4.609382,57.842385],[-4.609253,57.842389],[-4.609191,57.842366],[-4.609197,57.842316],[-4.609271,57.842239],[-4.609363,57.842155],[-4.609475,57.842064],[-4.609606,57.841965],[-4.609755,57.841858],[-4.609888,57.84177],[-4.610004,57.841699],[-4.610104,57.841647],[-4.610186,57.841612],[-4.61027,57.841566],[-4.610356,57.84151],[-4.610443,57.841442],[-4.610532,57.841364],[-4.610589,57.841272],[-4.610615,57.841167],[-4.610608,57.841047],[-4.610571,57.840915],[-4.610569,57.840782],[-4.610604,57.84065],[-4.610675,57.840518],[-4.610783,57.840387],[-4.610902,57.840285],[-4.611034,57.840212],[-4.611177,57.84017],[-4.611333,57.840157],[-4.611488,57.840163],[-4.611643,57.840189],[-4.611798,57.840233],[-4.611953,57.840298],[-4.612125,57.840337],[-4.612317,57.840352],[-4.612526,57.840343],[-4.612753,57.840309],[-4.612891,57.840263],[-4.61294,57.840204],[-4.612899,57.840133],[-4.612768,57.840049],[-4.612629,57.839987],[-4.61248,57.839948],[-4.612323,57.839932],[-4.612156,57.839937],[-4.612033,57.839922],[-4.611954,57.839886],[-4.611919,57.839829],[-4.611928,57.839751],[-4.611898,57.839673],[-4.61183,57.839595],[-4.611724,57.839517],[-4.61158,57.839439],[-4.611449,57.839392],[-4.61133,57.839378],[-4.611224,57.839395],[-4.611132,57.839443],[-4.611023,57.839473],[-4.610898,57.839482],[-4.610757,57.839472],[-4.610601,57.839442],[-4.610474,57.839403],[-4.610378,57.839354],[-4.610312,57.839295],[-4.610276,57.839226],[-4.610229,57.839162],[-4.610173,57.839102],[-4.610106,57.839046],[-4.610029,57.838995],[-4.609895,57.838976],[-4.609704,57.838991],[-4.609456,57.839039],[-4.609151,57.83912],[-4.608874,57.839216],[-4.608626,57.839327],[-4.608406,57.839453],[-4.608214,57.839594],[-4.608041,57.839703],[-4.607887,57.83978],[-4.607752,57.839824],[-4.607637,57.839837],[-4.607517,57.839873],[-4.607392,57.839932],[-4.607262,57.840014],[-4.607128,57.840118],[-4.606976,57.840206],[-4.606808,57.840276],[-4.606622,57.840328],[-4.606419,57.840364],[-4.606258,57.840392],[-4.606138,57.840414],[-4.60606,57.840429],[-4.606023,57.840437],[-4.605988,57.840541],[-4.605956,57.840739],[-4.605926,57.841032],[-4.605899,57.84142],[-4.605824,57.841731],[-4.605702,57.841964],[-4.605532,57.842121],[-4.605315,57.842201],[-4.605166,57.842285],[-4.605085,57.842373],[-4.605072,57.842465],[-4.605128,57.842562],[-4.605266,57.84262],[-4.605487,57.84264],[-4.605792,57.842623],[-4.606179,57.842567],[-4.606494,57.84255],[-4.606736,57.842573],[-4.606906,57.842634],[-4.607003,57.842734],[-4.60704,57.842805],[-4.607016,57.842846],[-4.606932,57.842858],[-4.606788,57.842839],[-4.606629,57.842833],[-4.606453,57.842837],[-4.606263,57.842853],[-4.606057,57.84288],[-4.605882,57.842926],[-4.60574,57.842991],[-4.605629,57.843075],[-4.60555,57.843178],[-4.60555,57.843241],[-4.605628,57.843264],[-4.605784,57.843248],[-4.606019,57.843192],[-4.606219,57.843167],[-4.606386,57.843172],[-4.606519,57.843207],[-4.606618,57.843273],[-4.60662,57.843351],[-4.606524,57.843441],[-4.60633,57.843542],[-4.606038,57.843656],[-4.605769,57.843766],[-4.605523,57.843872],[-4.605299,57.843975],[-4.605098,57.844075],[-4.604991,57.844162],[-4.604978,57.844239],[-4.605058,57.844303],[-4.605233,57.844357],[-4.605286,57.844404],[-4.605218,57.844446],[-4.60503,57.844482],[-4.60472,57.844512],[-4.604456,57.844554],[-4.604237,57.844608],[-4.604063,57.844675],[-4.603934,57.844753],[-4.603805,57.844823],[-4.603677,57.844884],[-4.60355,57.844937],[-4.603423,57.844981],[-4.603239,57.845042],[-4.602997,57.84512],[-4.602698,57.845215],[-4.602341,57.845327],[-4.602029,57.845426],[-4.601762,57.845511],[-4.60154,57.845583],[-4.601363,57.845641],[-4.601226,57.845701],[-4.601131,57.845763],[-4.601076,57.845827],[-4.601062,57.845892],[-4.601017,57.845954],[-4.60094,57.846012],[-4.600831,57.846065],[-4.60069,57.846115],[-4.600537,57.846159],[-4.600372,57.846197],[-4.600193,57.846228],[-4.600003,57.846253],[-4.599863,57.846286],[-4.599775,57.846326],[-4.599737,57.846373],[-4.599751,57.846427],[-4.599731,57.846471],[-4.599676,57.846505],[-4.599587,57.846528],[-4.599464,57.846542],[-4.599296,57.846579],[-4.599083,57.846639],[-4.598825,57.846722],[-4.598523,57.846828],[-4.598282,57.846935],[-4.598105,57.847042],[-4.59799,57.84715],[-4.597937,57.847258],[-4.597828,57.84736],[-4.597661,57.847456],[-4.597438,57.847545],[-4.597158,57.847627],[-4.596931,57.847712],[-4.596757,57.8478],[-4.596637,57.84789],[-4.59657,57.847983],[-4.596512,57.848073],[-4.596463,57.848159],[-4.596422,57.848243],[-4.596391,57.848323]]]}}