{"type":"Feature","properties":{"id":"265968","COMMUNE":"Inverness and Nairn","PROVINCE":"Inverness & Nairn and Moray, Badenoch & Strathspey","COUNTRY":"UK","FIREDATE":"2025-03-19 13:27:00","CLASS":"FireSeason","areaHA_geo":2.291},"geometry":{"type":"Polygon","coordinates":[[[-4.577589,57.148139],[-4.577673,57.148192],[-4.577807,57.148231],[-4.577992,57.148254],[-4.578227,57.148262],[-4.578447,57.148248],[-4.578651,57.148214],[-4.57884,57.148158],[-4.579014,57.148082],[-4.579189,57.148031],[-4.579365,57.148005],[-4.579543,57.148005],[-4.579721,57.148031],[-4.579877,57.148034],[-4.58001,57.148015],[-4.580121,57.147974],[-4.580208,57.147911],[-4.580236,57.147838],[-4.580202,57.147754],[-4.580109,57.14766],[-4.579955,57.147555],[-4.579884,57.147474],[-4.579897,57.147415],[-4.579992,57.14738],[-4.580169,57.147367],[-4.580233,57.147323],[-4.580182,57.147247],[-4.580016,57.147139],[-4.579736,57.146999],[-4.579489,57.146895],[-4.579276,57.146828],[-4.579097,57.146797],[-4.578951,57.146802],[-4.578753,57.146806],[-4.578501,57.146809],[-4.578197,57.146812],[-4.577839,57.146814],[-4.577555,57.146847],[-4.577344,57.146911],[-4.577208,57.147005],[-4.577145,57.14713],[-4.577129,57.147224],[-4.57716,57.147285],[-4.577238,57.147314],[-4.577364,57.147311],[-4.577455,57.147321],[-4.577513,57.147343],[-4.577537,57.147378],[-4.577528,57.147424],[-4.57752,57.147489],[-4.577514,57.147572],[-4.57751,57.147672],[-4.577507,57.14779],[-4.577514,57.147896],[-4.577529,57.14799],[-4.577554,57.148071],[-4.577589,57.148139]]]}}