{"type":"Feature","properties":{"id":"265902","COMMUNE":"Lochaber","PROVINCE":"Lochaber, Skye & Lochalsh, Arran & Cumbrae and Argyll & Bute","COUNTRY":"UK","FIREDATE":"2025-04-03 12:06:00","FINALDATE":"2025-04-03 12:29:00","CLASS":"FireSeason","areaHA_geo":1.425},"geometry":{"type":"Polygon","coordinates":[[[-5.747501,56.976772],[-5.747289,56.976848],[-5.747124,56.976861],[-5.747004,56.976811],[-5.746929,56.976697],[-5.7469,56.976521],[-5.746841,56.976385],[-5.74675,56.976291],[-5.746629,56.976239],[-5.746478,56.976228],[-5.746347,56.976213],[-5.746236,56.976196],[-5.746147,56.976175],[-5.746078,56.976152],[-5.745993,56.976138],[-5.745893,56.976135],[-5.745777,56.976141],[-5.745646,56.976157],[-5.745531,56.976156],[-5.745433,56.976138],[-5.745352,56.976104],[-5.745288,56.976052],[-5.745206,56.976019],[-5.745106,56.976005],[-5.744987,56.97601],[-5.74485,56.976034],[-5.744755,56.976035],[-5.744702,56.976014],[-5.744691,56.975971],[-5.744722,56.975906],[-5.744725,56.975848],[-5.7447,56.975799],[-5.744646,56.975757],[-5.744565,56.975724],[-5.744482,56.975704],[-5.744398,56.975699],[-5.744312,56.975707],[-5.744225,56.975729],[-5.744175,56.975782],[-5.744162,56.975865],[-5.744187,56.97598],[-5.744249,56.976125],[-5.744316,56.976261],[-5.744388,56.976387],[-5.744466,56.976503],[-5.744549,56.976609],[-5.744622,56.976692],[-5.744685,56.976752],[-5.744738,56.976788],[-5.744782,56.976801],[-5.744852,56.976788],[-5.744948,56.976749],[-5.745072,56.976683],[-5.745222,56.976592],[-5.745344,56.976543],[-5.745437,56.976536],[-5.745503,56.976571],[-5.74554,56.976649],[-5.745579,56.97671],[-5.745621,56.976754],[-5.745665,56.976781],[-5.745712,56.976791],[-5.745782,56.976795],[-5.745877,56.976791],[-5.745997,56.97678],[-5.74614,56.976763],[-5.746255,56.976763],[-5.74634,56.97678],[-5.746395,56.976814],[-5.746421,56.976866],[-5.746422,56.97692],[-5.746399,56.976978],[-5.74635,56.977039],[-5.746276,56.977102],[-5.746239,56.977154],[-5.746239,56.977192],[-5.746275,56.977219],[-5.746348,56.977233],[-5.746446,56.977234],[-5.746567,56.977223],[-5.746712,56.977199],[-5.746881,56.977162],[-5.747059,56.977114],[-5.747246,56.977055],[-5.747441,56.976984],[-5.747646,56.976902],[-5.747791,56.976833],[-5.747876,56.976777],[-5.747902,56.976734],[-5.747868,56.976704],[-5.74779,56.9767],[-5.747667,56.976723],[-5.747501,56.976772]]]}}