{"type":"Feature","properties":{"id":"265941","COMMUNE":"Inverness and Nairn","PROVINCE":"Inverness & Nairn and Moray, Badenoch & Strathspey","COUNTRY":"UK","FIREDATE":"2025-04-01 13:08:00","CLASS":"FireSeason","areaHA_geo":1.907},"geometry":{"type":"Polygon","coordinates":[[[-4.56983,57.159302],[-4.569842,57.159365],[-4.569982,57.159367],[-4.57025,57.15931],[-4.570646,57.159192],[-4.57102,57.15907],[-4.571373,57.158942],[-4.571705,57.158808],[-4.572015,57.158669],[-4.572181,57.158463],[-4.572203,57.15819],[-4.572081,57.15785],[-4.571814,57.157443],[-4.571537,57.157167],[-4.57125,57.157023],[-4.570952,57.157009],[-4.570643,57.157127],[-4.570431,57.157241],[-4.570315,57.15735],[-4.570297,57.157455],[-4.570375,57.157555],[-4.570421,57.157673],[-4.570435,57.157806],[-4.570418,57.157956],[-4.570368,57.158123],[-4.570383,57.158241],[-4.570464,57.15831],[-4.570608,57.15833],[-4.570818,57.158302],[-4.570984,57.158303],[-4.571106,57.158333],[-4.571185,57.158393],[-4.571221,57.158483],[-4.571175,57.158574],[-4.571048,57.158666],[-4.57084,57.15876],[-4.570551,57.158854],[-4.570305,57.158956],[-4.570103,57.159065],[-4.569945,57.15918],[-4.56983,57.159302]]]}}