{"type":"Feature","properties":{"id":"265937","COMMUNE":"Inverness and Nairn","PROVINCE":"Inverness & Nairn and Moray, Badenoch & Strathspey","COUNTRY":"UK","FIREDATE":"2025-03-18 16:43:07.18","CLASS":"FireSeason","areaHA_geo":0.859},"geometry":{"type":"Polygon","coordinates":[[[-4.585511,57.155483],[-4.585583,57.155423],[-4.585669,57.155384],[-4.585768,57.155368],[-4.585881,57.155374],[-4.586007,57.155401],[-4.586126,57.155398],[-4.586238,57.155365],[-4.586342,57.155301],[-4.586439,57.155207],[-4.586542,57.155121],[-4.586651,57.155044],[-4.586766,57.154975],[-4.586886,57.154915],[-4.586949,57.154836],[-4.586954,57.154739],[-4.586901,57.154624],[-4.586791,57.154491],[-4.586684,57.154403],[-4.58658,57.15436],[-4.58648,57.154362],[-4.586384,57.154409],[-4.586292,57.154457],[-4.586206,57.154506],[-4.586125,57.154555],[-4.586048,57.154606],[-4.585949,57.154635],[-4.585828,57.154643],[-4.585684,57.154631],[-4.585517,57.154598],[-4.585362,57.154594],[-4.585219,57.154621],[-4.585087,57.154677],[-4.584968,57.154763],[-4.584915,57.154832],[-4.58493,57.154882],[-4.585013,57.154914],[-4.585163,57.154929],[-4.585276,57.154979],[-4.585353,57.155064],[-4.585393,57.155184],[-4.585397,57.155339],[-4.585418,57.155441],[-4.585456,57.155489],[-4.585511,57.155483]]]}}