{"type":"Feature","properties":{"id":"265939","COMMUNE":"Inverness and Nairn","PROVINCE":"Inverness & Nairn and Moray, Badenoch & Strathspey","COUNTRY":"UK","FIREDATE":"2025-03-18 16:43:26.873","FINALDATE":"2025-03-19 16:43:29.248","CLASS":"FireSeason","areaHA_geo":0.77},"geometry":{"type":"Polygon","coordinates":[[[-4.580713,57.157281],[-4.580698,57.157396],[-4.580766,57.157459],[-4.580916,57.157469],[-4.58115,57.157427],[-4.581354,57.157368],[-4.58153,57.157291],[-4.581678,57.157196],[-4.581797,57.157084],[-4.581923,57.156989],[-4.582056,57.156912],[-4.582195,57.156852],[-4.582342,57.156809],[-4.582432,57.156751],[-4.582465,57.156677],[-4.582441,57.156587],[-4.582361,57.156482],[-4.58225,57.1564],[-4.582106,57.15634],[-4.581931,57.156304],[-4.581724,57.156291],[-4.581547,57.156316],[-4.581399,57.156379],[-4.58128,57.156481],[-4.581192,57.156621],[-4.581119,57.156728],[-4.581061,57.156802],[-4.58102,57.156843],[-4.580994,57.156851],[-4.580951,57.156899],[-4.580889,57.156987],[-4.58081,57.157114],[-4.580713,57.157281]]]}}