{"type":"Feature","properties":{"id":"265918","COMMUNE":"Argyll and Bute Mainland","PROVINCE":"Lochaber, Skye & Lochalsh, Arran & Cumbrae and Argyll & Bute","COUNTRY":"UK","FIREDATE":"2025-03-16 11:49:00","FINALDATE":"2025-03-16 11:49:00","CLASS":"FireSeason","areaHA_geo":2.222},"geometry":{"type":"Polygon","coordinates":[[[-5.592804,55.344261],[-5.592792,55.344424],[-5.592886,55.344546],[-5.593086,55.344626],[-5.59339,55.344666],[-5.5936,55.344657],[-5.593714,55.344599],[-5.593733,55.344494],[-5.593656,55.344339],[-5.593681,55.344248],[-5.593806,55.344219],[-5.594033,55.344253],[-5.59436,55.34435],[-5.594623,55.344438],[-5.594822,55.344517],[-5.594956,55.344586],[-5.595026,55.344646],[-5.595191,55.344679],[-5.595452,55.344685],[-5.595809,55.344664],[-5.596261,55.344616],[-5.596592,55.34456],[-5.596802,55.344495],[-5.596891,55.344421],[-5.596858,55.344339],[-5.596777,55.344278],[-5.596647,55.344238],[-5.596469,55.34422],[-5.596242,55.344222],[-5.596054,55.344201],[-5.595907,55.344154],[-5.595799,55.344084],[-5.595731,55.343989],[-5.595654,55.343921],[-5.595569,55.34388],[-5.595476,55.343866],[-5.595375,55.343878],[-5.595265,55.343879],[-5.595146,55.343868],[-5.595019,55.343845],[-5.594884,55.343811],[-5.594812,55.343772],[-5.594803,55.34373],[-5.594857,55.343685],[-5.594974,55.343635],[-5.595076,55.343586],[-5.595163,55.343536],[-5.595234,55.343487],[-5.595291,55.343436],[-5.595246,55.34339],[-5.5951,55.343348],[-5.594853,55.34331],[-5.594504,55.343276],[-5.59422,55.343277],[-5.593998,55.343314],[-5.59384,55.343385],[-5.593746,55.343492],[-5.593643,55.343578],[-5.593532,55.343644],[-5.593413,55.343689],[-5.593286,55.343713],[-5.593161,55.343783],[-5.59304,55.343897],[-5.59292,55.344057],[-5.592804,55.344261]]]}}