{"type":"Feature","properties":{"id":"265999","COMMUNE":"Perth and Kinross","PROVINCE":"Perth & Kinross and Stirling","COUNTRY":"UK","FIREDATE":"2025-03-31 13:25:00","FINALDATE":"2025-04-01 13:25:00","CLASS":"FireSeason","areaHA_geo":1.096},"geometry":{"type":"Polygon","coordinates":[[[-3.454495,56.868475],[-3.454411,56.868495],[-3.454356,56.868524],[-3.454331,56.86856],[-3.454335,56.868605],[-3.454401,56.86864],[-3.454528,56.868665],[-3.454717,56.868681],[-3.454967,56.868687],[-3.455184,56.868718],[-3.455369,56.868773],[-3.455522,56.868852],[-3.455641,56.868955],[-3.455735,56.869004],[-3.455804,56.868996],[-3.455846,56.868934],[-3.455863,56.868816],[-3.455858,56.868696],[-3.455831,56.868573],[-3.455783,56.868447],[-3.455714,56.868319],[-3.4557,56.868224],[-3.455743,56.868162],[-3.455841,56.868132],[-3.455996,56.868135],[-3.45611,56.868107],[-3.456183,56.868048],[-3.456215,56.867958],[-3.456207,56.867836],[-3.45611,56.867756],[-3.455925,56.867717],[-3.455652,56.86772],[-3.45529,56.867764],[-3.454975,56.86779],[-3.454706,56.867799],[-3.454485,56.86779],[-3.45431,56.867763],[-3.454164,56.867767],[-3.454046,56.867802],[-3.453958,56.867867],[-3.453898,56.867964],[-3.453915,56.868043],[-3.454007,56.868104],[-3.454177,56.868147],[-3.454422,56.868173],[-3.454605,56.868207],[-3.454727,56.86825],[-3.454786,56.8683],[-3.454783,56.868358],[-3.454753,56.868405],[-3.454695,56.86844],[-3.454609,56.868463],[-3.454495,56.868475]]]}}