{"type":"Feature","properties":{"id":"265963","COMMUNE":"Inverness and Nairn","PROVINCE":"Inverness & Nairn and Moray, Badenoch & Strathspey","COUNTRY":"UK","FIREDATE":"2025-04-04 16:55:00.668","FINALDATE":"2025-04-05 16:55:03.523","CLASS":"FireSeason","areaHA_geo":2.96},"geometry":{"type":"Polygon","coordinates":[[[-4.517724,57.149931],[-4.517775,57.150009],[-4.517853,57.15006],[-4.517959,57.150086],[-4.518092,57.150085],[-4.518227,57.150105],[-4.518363,57.150145],[-4.518501,57.150206],[-4.518639,57.150287],[-4.518786,57.150337],[-4.51894,57.150356],[-4.519103,57.150344],[-4.519273,57.150301],[-4.519368,57.150242],[-4.519387,57.150167],[-4.519332,57.150077],[-4.519201,57.149971],[-4.519129,57.149888],[-4.519114,57.14983],[-4.519159,57.149795],[-4.519261,57.149783],[-4.519348,57.14975],[-4.519421,57.149697],[-4.519478,57.149621],[-4.51952,57.149525],[-4.519555,57.149432],[-4.519582,57.149342],[-4.519601,57.149255],[-4.519613,57.149172],[-4.519639,57.149103],[-4.51968,57.149047],[-4.519735,57.149006],[-4.519805,57.148979],[-4.519859,57.148924],[-4.519897,57.14884],[-4.519919,57.148727],[-4.519926,57.148587],[-4.519879,57.148493],[-4.519776,57.148447],[-4.519618,57.148447],[-4.519405,57.148495],[-4.519251,57.148516],[-4.519155,57.14851],[-4.519117,57.148477],[-4.519138,57.148417],[-4.519145,57.148342],[-4.519136,57.148254],[-4.519114,57.148151],[-4.519077,57.148035],[-4.519003,57.147955],[-4.518893,57.147912],[-4.518746,57.147906],[-4.518562,57.147936],[-4.518389,57.14795],[-4.518228,57.147949],[-4.518079,57.147932],[-4.517941,57.147899],[-4.517807,57.147857],[-4.517676,57.147807],[-4.517548,57.147748],[-4.517423,57.14768],[-4.51731,57.147631],[-4.517209,57.147601],[-4.517121,57.14759],[-4.517044,57.147599],[-4.517023,57.147647],[-4.517057,57.147735],[-4.517147,57.147862],[-4.517293,57.148029],[-4.517414,57.148179],[-4.517511,57.14831],[-4.517582,57.148424],[-4.517629,57.14852],[-4.517678,57.148599],[-4.517729,57.148661],[-4.517782,57.148706],[-4.517837,57.148734],[-4.517888,57.14876],[-4.517934,57.148787],[-4.517975,57.148812],[-4.518012,57.148837],[-4.517994,57.148872],[-4.517922,57.148916],[-4.517796,57.14897],[-4.517617,57.149033],[-4.517502,57.149115],[-4.517452,57.149215],[-4.517467,57.149332],[-4.517547,57.149468],[-4.517613,57.149596],[-4.517664,57.149716],[-4.517701,57.149827],[-4.517724,57.149931]]]}}