{"type":"Feature","properties":{"id":"265915","COMMUNE":"Lochaber","PROVINCE":"Lochaber, Skye & Lochalsh, Arran & Cumbrae and Argyll & Bute","COUNTRY":"UK","FIREDATE":"2025-03-19 12:34:00","CLASS":"FireSeason","areaHA_geo":4.39},"geometry":{"type":"Polygon","coordinates":[[[-5.806392,56.961017],[-5.806296,56.961367],[-5.806333,56.961592],[-5.806502,56.96169],[-5.806804,56.961661],[-5.807068,56.961666],[-5.807293,56.961705],[-5.807479,56.961777],[-5.807627,56.961883],[-5.80777,56.961966],[-5.80791,56.962026],[-5.808045,56.962063],[-5.808177,56.962076],[-5.808328,56.962075],[-5.808498,56.962059],[-5.808687,56.962027],[-5.808895,56.96198],[-5.809093,56.96195],[-5.80928,56.961938],[-5.809457,56.961943],[-5.809624,56.961965],[-5.809812,56.961963],[-5.81002,56.961935],[-5.810249,56.961882],[-5.810499,56.961804],[-5.810617,56.96174],[-5.810603,56.961688],[-5.810457,56.961649],[-5.810178,56.961624],[-5.809959,56.961581],[-5.8098,56.961521],[-5.809701,56.961445],[-5.809661,56.961351],[-5.809605,56.961276],[-5.809533,56.961218],[-5.809446,56.961179],[-5.809342,56.961157],[-5.809249,56.961124],[-5.809167,56.961078],[-5.809095,56.961021],[-5.809034,56.960951],[-5.809046,56.960896],[-5.809131,56.960856],[-5.809289,56.96083],[-5.80952,56.960819],[-5.809714,56.96085],[-5.809871,56.960922],[-5.809991,56.961037],[-5.810073,56.961194],[-5.810164,56.961306],[-5.810264,56.961372],[-5.810371,56.961395],[-5.810488,56.961372],[-5.81055,56.96132],[-5.810559,56.96124],[-5.810515,56.961131],[-5.810417,56.960993],[-5.810335,56.960872],[-5.810271,56.960766],[-5.810223,56.960677],[-5.810191,56.960604],[-5.810083,56.960521],[-5.809898,56.960428],[-5.809636,56.960326],[-5.809297,56.960213],[-5.809013,56.960141],[-5.808783,56.96011],[-5.808608,56.960118],[-5.808487,56.960167],[-5.80838,56.960173],[-5.808285,56.960135],[-5.808203,56.960055],[-5.808135,56.95993],[-5.808057,56.959836],[-5.807971,56.959772],[-5.807875,56.959738],[-5.807771,56.959733],[-5.807653,56.959736],[-5.807519,56.959746],[-5.807371,56.959763],[-5.807209,56.959787],[-5.807029,56.959925],[-5.806833,56.960176],[-5.806621,56.960539],[-5.806392,56.961017]]]}}