{"type":"Feature","properties":{"id":"265964","COMMUNE":"Inverness and Nairn","PROVINCE":"Inverness & Nairn and Moray, Badenoch & Strathspey","COUNTRY":"UK","FIREDATE":"2025-04-04 11:13:00","FINALDATE":"2025-04-04 14:16:00","CLASS":"FireSeason","areaHA_geo":1.474},"geometry":{"type":"Polygon","coordinates":[[[-4.513675,57.145669],[-4.513871,57.145599],[-4.514006,57.145468],[-4.514082,57.145276],[-4.514099,57.145023],[-4.51406,57.144799],[-4.513966,57.144605],[-4.513816,57.144439],[-4.513611,57.144303],[-4.513391,57.14423],[-4.513155,57.14422],[-4.512905,57.144273],[-4.512639,57.14439],[-4.51246,57.144496],[-4.512368,57.144591],[-4.512363,57.144674],[-4.512445,57.144747],[-4.512468,57.144806],[-4.512432,57.144851],[-4.512338,57.144882],[-4.512184,57.144899],[-4.51207,57.144927],[-4.511996,57.144964],[-4.511961,57.145011],[-4.511965,57.145069],[-4.512036,57.145145],[-4.512171,57.145241],[-4.512372,57.145356],[-4.512639,57.14549],[-4.512902,57.145589],[-4.513163,57.145651],[-4.513421,57.145678],[-4.513675,57.145669]]]}}