{"type":"Feature","properties":{"id":"265942","COMMUNE":"Inverness and Nairn","PROVINCE":"Inverness & Nairn and Moray, Badenoch & Strathspey","COUNTRY":"UK","FIREDATE":"2025-04-01 13:08:00","CLASS":"FireSeason","areaHA_geo":0.516},"geometry":{"type":"Polygon","coordinates":[[[-4.567656,57.159125],[-4.567846,57.159046],[-4.567993,57.158956],[-4.568096,57.158853],[-4.568157,57.158738],[-4.568174,57.158612],[-4.568175,57.158488],[-4.568161,57.158367],[-4.568132,57.15825],[-4.568087,57.158135],[-4.568021,57.15806],[-4.567935,57.158026],[-4.56783,57.158031],[-4.567703,57.158077],[-4.567599,57.15814],[-4.567516,57.158222],[-4.567455,57.158323],[-4.567415,57.158442],[-4.567374,57.158545],[-4.567332,57.158633],[-4.567289,57.158706],[-4.567244,57.158763],[-4.567223,57.15883],[-4.567225,57.158908],[-4.56725,57.158996],[-4.567298,57.159095],[-4.567382,57.159149],[-4.567501,57.159159],[-4.567656,57.159125]]]}}