{"type":"Feature","properties":{"id":"265954","COMMUNE":"City of Edinburgh","PROVINCE":"Edinburgh, City of","COUNTRY":"UK","FIREDATE":"2025-04-03 12:04:00","CLASS":"FireSeason","areaHA_geo":4.522},"geometry":{"type":"Polygon","coordinates":[[[-3.343971,55.842167],[-3.344027,55.842191],[-3.344117,55.842202],[-3.344242,55.842202],[-3.344402,55.842189],[-3.344521,55.84217],[-3.344602,55.842144],[-3.344642,55.842112],[-3.344643,55.842074],[-3.344623,55.842042],[-3.344581,55.842017],[-3.344519,55.841999],[-3.344435,55.841986],[-3.344372,55.841965],[-3.34433,55.841935],[-3.344309,55.841895],[-3.344309,55.841847],[-3.344349,55.841802],[-3.344429,55.84176],[-3.34455,55.841721],[-3.344711,55.841686],[-3.344853,55.841645],[-3.344975,55.841599],[-3.345078,55.841548],[-3.345162,55.841492],[-3.345238,55.841455],[-3.345308,55.841435],[-3.34537,55.841435],[-3.345425,55.841453],[-3.345479,55.84146],[-3.345531,55.841457],[-3.345581,55.841444],[-3.345629,55.841421],[-3.345665,55.841393],[-3.345689,55.84136],[-3.3457,55.841322],[-3.3457,55.84128],[-3.345677,55.841247],[-3.34563,55.841222],[-3.345561,55.841205],[-3.34547,55.841196],[-3.345386,55.841174],[-3.345312,55.841137],[-3.345246,55.841088],[-3.345189,55.841024],[-3.345178,55.840989],[-3.345212,55.840982],[-3.345291,55.841003],[-3.345416,55.841053],[-3.345548,55.841068],[-3.345687,55.841047],[-3.345833,55.840991],[-3.345987,55.8409],[-3.34611,55.840815],[-3.346203,55.840735],[-3.346266,55.84066],[-3.346299,55.840591],[-3.346342,55.84055],[-3.346395,55.840535],[-3.346459,55.840549],[-3.346534,55.840589],[-3.34662,55.840613],[-3.346718,55.840621],[-3.346826,55.840612],[-3.346946,55.840586],[-3.347047,55.84054],[-3.347128,55.840473],[-3.34719,55.840387],[-3.347233,55.84028],[-3.347279,55.840211],[-3.347329,55.840181],[-3.347381,55.840189],[-3.347437,55.840236],[-3.347503,55.84027],[-3.34758,55.840292],[-3.347667,55.840302],[-3.347764,55.8403],[-3.347888,55.840281],[-3.348039,55.840246],[-3.348216,55.840195],[-3.34842,55.840127],[-3.3486,55.840086],[-3.348756,55.840071],[-3.348889,55.840082],[-3.348998,55.840119],[-3.349096,55.840131],[-3.349183,55.840119],[-3.349259,55.840081],[-3.349324,55.840019],[-3.349363,55.839959],[-3.349377,55.8399],[-3.349365,55.839842],[-3.349327,55.839786],[-3.349275,55.839734],[-3.349209,55.839686],[-3.34913,55.839643],[-3.349037,55.839604],[-3.348966,55.839561],[-3.348915,55.839513],[-3.348886,55.839461],[-3.348878,55.839404],[-3.348853,55.83935],[-3.348811,55.839299],[-3.348752,55.839252],[-3.348676,55.839207],[-3.348578,55.839185],[-3.348458,55.839186],[-3.348315,55.83921],[-3.348151,55.839256],[-3.348031,55.839299],[-3.347954,55.83934],[-3.347922,55.839377],[-3.347934,55.839411],[-3.347931,55.839433],[-3.347915,55.839443],[-3.347884,55.83944],[-3.347839,55.839425],[-3.347761,55.83943],[-3.347651,55.839455],[-3.347507,55.839499],[-3.34733,55.839564],[-3.347148,55.839629],[-3.34696,55.839695],[-3.346766,55.839762],[-3.346567,55.839829],[-3.346361,55.839893],[-3.346151,55.839954],[-3.345934,55.840012],[-3.345712,55.840066],[-3.345524,55.840134],[-3.34537,55.840215],[-3.345251,55.840308],[-3.345166,55.840414],[-3.345098,55.840471],[-3.345048,55.840477],[-3.345015,55.840434],[-3.344999,55.840341],[-3.344975,55.840281],[-3.344942,55.840254],[-3.344901,55.840259],[-3.34485,55.840297],[-3.344796,55.840328],[-3.344736,55.840352],[-3.344672,55.840369],[-3.344602,55.840379],[-3.344518,55.840398],[-3.344419,55.840426],[-3.344304,55.840462],[-3.344175,55.840507],[-3.34403,55.840548],[-3.343869,55.840584],[-3.343692,55.840615],[-3.3435,55.840642],[-3.34335,55.840672],[-3.343241,55.840706],[-3.343173,55.840744],[-3.343148,55.840784],[-3.343109,55.840816],[-3.343059,55.840838],[-3.342995,55.840852],[-3.342919,55.840856],[-3.342834,55.840879],[-3.34274,55.84092],[-3.342636,55.84098],[-3.342522,55.841059],[-3.342458,55.841132],[-3.342443,55.841197],[-3.342478,55.841257],[-3.342562,55.84131],[-3.34265,55.841357],[-3.342744,55.841398],[-3.342843,55.841433],[-3.342947,55.841463],[-3.343019,55.841502],[-3.343061,55.841551],[-3.343071,55.841609],[-3.34305,55.841677],[-3.34308,55.841722],[-3.343161,55.841744],[-3.343293,55.841742],[-3.343477,55.841718],[-3.343623,55.84171],[-3.343733,55.841718],[-3.343805,55.841744],[-3.343841,55.841786],[-3.343877,55.841821],[-3.343915,55.841847],[-3.343953,55.841867],[-3.343992,55.841878],[-3.344013,55.841898],[-3.344016,55.841927],[-3.344,55.841964],[-3.343967,55.84201],[-3.343947,55.842053],[-3.343941,55.842093],[-3.343949,55.842132],[-3.343971,55.842167]]]}}