{"type":"Feature","properties":{"id":"265916","COMMUNE":"Lochaber","PROVINCE":"Lochaber, Skye & Lochalsh, Arran & Cumbrae and Argyll & Bute","COUNTRY":"UK","FIREDATE":"2025-03-19 12:34:00","FINALDATE":"2025-03-19 12:34:00","CLASS":"FireSeason","areaHA_geo":7.01},"geometry":{"type":"Polygon","coordinates":[[[-5.807729,56.958233],[-5.807635,56.958288],[-5.807596,56.958364],[-5.807613,56.958459],[-5.807686,56.958574],[-5.807799,56.958668],[-5.807952,56.958741],[-5.808145,56.958794],[-5.808379,56.958825],[-5.808561,56.958857],[-5.808693,56.95889],[-5.808775,56.958924],[-5.808805,56.958958],[-5.808885,56.958988],[-5.809013,56.959013],[-5.809191,56.959033],[-5.809418,56.959048],[-5.809624,56.959047],[-5.809809,56.959031],[-5.809975,56.958999],[-5.810119,56.958951],[-5.81024,56.958925],[-5.810336,56.958919],[-5.810408,56.958935],[-5.810455,56.958972],[-5.810529,56.959041],[-5.810631,56.959142],[-5.810761,56.959275],[-5.810917,56.959439],[-5.811088,56.959566],[-5.811271,56.959655],[-5.811467,56.959705],[-5.811677,56.959718],[-5.811873,56.95973],[-5.812055,56.959742],[-5.812223,56.959754],[-5.812378,56.959765],[-5.812446,56.959783],[-5.81243,56.959809],[-5.812328,56.959841],[-5.81214,56.959882],[-5.812044,56.959933],[-5.81204,56.959995],[-5.812126,56.960069],[-5.812304,56.960154],[-5.81248,56.960198],[-5.812654,56.9602],[-5.812826,56.960161],[-5.812996,56.96008],[-5.813142,56.960023],[-5.813265,56.959988],[-5.813365,56.959977],[-5.813441,56.959989],[-5.813563,56.959999],[-5.813731,56.960006],[-5.813945,56.960011],[-5.814206,56.960013],[-5.814426,56.959982],[-5.814607,56.959917],[-5.814748,56.959818],[-5.814849,56.959686],[-5.81486,56.959596],[-5.81478,56.959548],[-5.81461,56.959542],[-5.814351,56.959578],[-5.814159,56.959581],[-5.814036,56.959552],[-5.813982,56.959489],[-5.813996,56.959393],[-5.813956,56.959322],[-5.813862,56.959276],[-5.813713,56.959254],[-5.81351,56.959258],[-5.813295,56.959232],[-5.813066,56.959177],[-5.812826,56.959092],[-5.812572,56.958977],[-5.812366,56.958875],[-5.812206,56.958786],[-5.812092,56.958709],[-5.812025,56.958645],[-5.81192,56.958601],[-5.811777,56.958578],[-5.811595,56.958576],[-5.811375,56.958594],[-5.811212,56.958599],[-5.811106,56.958591],[-5.811057,56.958569],[-5.811066,56.958534],[-5.811126,56.958494],[-5.811237,56.958451],[-5.811399,56.958403],[-5.811613,56.958351],[-5.811739,56.958299],[-5.811776,56.958248],[-5.811724,56.958196],[-5.811584,56.958145],[-5.811514,56.958095],[-5.811512,56.958046],[-5.81158,56.957998],[-5.811718,56.957951],[-5.811763,56.957901],[-5.811716,56.957846],[-5.811578,56.957789],[-5.811347,56.957727],[-5.811133,56.957695],[-5.810935,56.957691],[-5.810753,56.957717],[-5.810587,56.957771],[-5.810418,56.957817],[-5.810246,56.957856],[-5.81007,56.957886],[-5.809891,56.957908],[-5.80978,56.957908],[-5.809739,56.957885],[-5.809767,56.95784],[-5.809864,56.957772],[-5.810005,56.957706],[-5.810189,56.95764],[-5.810418,56.957576],[-5.810689,56.957513],[-5.810876,56.957444],[-5.810978,56.957369],[-5.810995,56.957289],[-5.810927,56.957203],[-5.810826,56.957105],[-5.810692,56.956993],[-5.810524,56.956868],[-5.810324,56.95673],[-5.810153,56.956646],[-5.81001,56.956617],[-5.809897,56.956641],[-5.809813,56.95672],[-5.809776,56.956792],[-5.809788,56.956857],[-5.809848,56.956914],[-5.809956,56.956965],[-5.810022,56.957014],[-5.810046,56.95706],[-5.810028,56.957104],[-5.809967,56.957146],[-5.809853,56.957155],[-5.809686,56.957133],[-5.809466,56.957079],[-5.809194,56.956993],[-5.808951,56.956935],[-5.808738,56.956905],[-5.808554,56.956904],[-5.808401,56.956932],[-5.808256,56.956966],[-5.808121,56.957009],[-5.807995,56.957058],[-5.807878,56.957116],[-5.807756,56.957148],[-5.807629,56.957155],[-5.807497,56.957137],[-5.807361,56.957093],[-5.807253,56.957084],[-5.807173,56.957109],[-5.807121,56.957168],[-5.807098,56.95726],[-5.807127,56.957334],[-5.807209,56.957388],[-5.807344,56.957423],[-5.807532,56.957438],[-5.807648,56.957458],[-5.807694,56.957482],[-5.807669,56.957511],[-5.807573,56.957544],[-5.807494,56.957586],[-5.807433,56.957636],[-5.80739,56.957695],[-5.807363,56.957762],[-5.807379,56.957812],[-5.807435,56.957843],[-5.807533,56.957857],[-5.807673,56.957853],[-5.807792,56.957868],[-5.807889,56.957903],[-5.807966,56.957958],[-5.808021,56.958032],[-5.808025,56.958097],[-5.807978,56.958152],[-5.807879,56.958197],[-5.807729,56.958233]]]}}