{"type":"Feature","properties":{"id":"265920","COMMUNE":"Arran and Cumbrae","PROVINCE":"Lochaber, Skye & Lochalsh, Arran & Cumbrae and Argyll & Bute","COUNTRY":"UK","FIREDATE":"2025-04-03 12:04:00","CLASS":"FireSeason","areaHA_geo":1.459},"geometry":{"type":"Polygon","coordinates":[[[-5.250292,55.569724],[-5.250259,55.569772],[-5.250294,55.569816],[-5.250397,55.569854],[-5.250567,55.569888],[-5.250721,55.569898],[-5.250861,55.569884],[-5.250985,55.569847],[-5.251094,55.569786],[-5.251208,55.569755],[-5.251329,55.569754],[-5.251455,55.569783],[-5.251586,55.569842],[-5.251754,55.569893],[-5.251958,55.569936],[-5.252198,55.569971],[-5.252474,55.569999],[-5.252735,55.57002],[-5.252982,55.570034],[-5.253214,55.570041],[-5.253432,55.570042],[-5.253549,55.570017],[-5.253566,55.569968],[-5.253482,55.569893],[-5.253298,55.569793],[-5.253238,55.569715],[-5.253301,55.56966],[-5.253487,55.569627],[-5.253796,55.569617],[-5.254011,55.56958],[-5.254132,55.569518],[-5.254158,55.56943],[-5.254089,55.569316],[-5.253976,55.569228],[-5.253819,55.569165],[-5.253617,55.569128],[-5.253372,55.569118],[-5.253034,55.56914],[-5.252603,55.569196],[-5.25208,55.569285],[-5.251465,55.569408],[-5.250978,55.569513],[-5.25062,55.569601],[-5.250391,55.569671],[-5.250292,55.569724]]]}}