{"type":"Feature","properties":{"id":"265940","COMMUNE":"Inverness and Nairn","PROVINCE":"Inverness & Nairn and Moray, Badenoch & Strathspey","COUNTRY":"UK","FIREDATE":"2025-04-01 13:08:00","FINALDATE":"2025-04-01 13:08:00","CLASS":"FireSeason","areaHA_geo":2.674},"geometry":{"type":"Polygon","coordinates":[[[-4.576655,57.157734],[-4.576897,57.157677],[-4.577038,57.157596],[-4.577078,57.157492],[-4.577018,57.157363],[-4.576958,57.157266],[-4.576898,57.1572],[-4.576839,57.157165],[-4.57678,57.157161],[-4.576704,57.157135],[-4.576613,57.157085],[-4.576505,57.157013],[-4.576381,57.156917],[-4.576291,57.156836],[-4.576236,57.15677],[-4.576215,57.156717],[-4.576229,57.156679],[-4.576221,57.156633],[-4.57619,57.15658],[-4.576137,57.156518],[-4.576061,57.156449],[-4.575971,57.156391],[-4.575867,57.156345],[-4.575748,57.156312],[-4.575615,57.156291],[-4.575471,57.156329],[-4.575318,57.156427],[-4.575154,57.156584],[-4.574981,57.156801],[-4.574835,57.157017],[-4.574718,57.15723],[-4.574628,57.157442],[-4.574567,57.157652],[-4.574538,57.157853],[-4.574542,57.158045],[-4.574578,57.158228],[-4.574647,57.158402],[-4.574723,57.158552],[-4.574807,57.158678],[-4.574897,57.15878],[-4.574995,57.158857],[-4.575146,57.158892],[-4.575349,57.158885],[-4.575606,57.158836],[-4.575915,57.158744],[-4.576111,57.158625],[-4.576194,57.158481],[-4.576162,57.15831],[-4.576017,57.158113],[-4.575994,57.157957],[-4.576093,57.157842],[-4.576313,57.157768],[-4.576655,57.157734]]]}}