{"type":"Feature","properties":{"id":"265909","COMMUNE":"Lochaber","PROVINCE":"Lochaber, Skye & Lochalsh, Arran & Cumbrae and Argyll & Bute","COUNTRY":"UK","FIREDATE":"2025-04-03 12:06:00","FINALDATE":"2025-04-03 14:12:00","CLASS":"FireSeason","areaHA_geo":1.212},"geometry":{"type":"Polygon","coordinates":[[[-5.744093,56.989585],[-5.743872,56.989647],[-5.743789,56.989705],[-5.743844,56.989761],[-5.744037,56.989813],[-5.744214,56.989845],[-5.744375,56.989856],[-5.744518,56.989847],[-5.744646,56.989818],[-5.744749,56.989812],[-5.74483,56.98983],[-5.744887,56.989871],[-5.744921,56.989936],[-5.744985,56.989957],[-5.74508,56.989933],[-5.745205,56.989865],[-5.74536,56.989753],[-5.745499,56.989658],[-5.745621,56.989579],[-5.745726,56.989517],[-5.745815,56.989472],[-5.74589,56.989427],[-5.745951,56.989384],[-5.745997,56.989341],[-5.74603,56.989299],[-5.746073,56.989261],[-5.746125,56.989227],[-5.746187,56.989197],[-5.746258,56.989171],[-5.746322,56.989131],[-5.746379,56.989078],[-5.746428,56.989011],[-5.74647,56.98893],[-5.746493,56.988831],[-5.746498,56.988715],[-5.746484,56.988581],[-5.746451,56.98843],[-5.74637,56.988341],[-5.746241,56.988313],[-5.746064,56.988348],[-5.745838,56.988445],[-5.745614,56.988547],[-5.74539,56.988655],[-5.745168,56.98877],[-5.744946,56.98889],[-5.744833,56.98899],[-5.744829,56.98907],[-5.744933,56.989129],[-5.745147,56.989169],[-5.745277,56.989211],[-5.745325,56.989255],[-5.745289,56.989301],[-5.74517,56.98935],[-5.744991,56.989403],[-5.744752,56.98946],[-5.744453,56.989521],[-5.744093,56.989585]]]}}