{"type":"Feature","properties":{"id":"265903","COMMUNE":"Lochaber","PROVINCE":"Lochaber, Skye & Lochalsh, Arran & Cumbrae and Argyll & Bute","COUNTRY":"UK","FIREDATE":"2025-04-03 11:13:00","CLASS":"FireSeason","areaHA_geo":8.622},"geometry":{"type":"Polygon","coordinates":[[[-5.7433,56.976777],[-5.743227,56.976685],[-5.743155,56.976617],[-5.743084,56.976573],[-5.743014,56.976554],[-5.742944,56.976557],[-5.742897,56.976573],[-5.742873,56.976601],[-5.742873,56.976642],[-5.742895,56.976694],[-5.742881,56.976742],[-5.74283,56.976785],[-5.742743,56.976825],[-5.742619,56.976861],[-5.74251,56.976873],[-5.742415,56.976862],[-5.742334,56.976827],[-5.742268,56.976769],[-5.742237,56.976707],[-5.742242,56.97664],[-5.742283,56.976569],[-5.74236,56.976493],[-5.742452,56.97643],[-5.742559,56.976381],[-5.742681,56.976344],[-5.742818,56.976321],[-5.742911,56.976286],[-5.742959,56.976242],[-5.742963,56.976187],[-5.742922,56.976121],[-5.74292,56.976065],[-5.742955,56.97602],[-5.743028,56.975985],[-5.743139,56.97596],[-5.743204,56.975909],[-5.743222,56.975833],[-5.743193,56.97573],[-5.743118,56.975603],[-5.743091,56.975502],[-5.743112,56.975429],[-5.743182,56.975383],[-5.743299,56.975364],[-5.743393,56.975362],[-5.743463,56.975377],[-5.743508,56.97541],[-5.743529,56.97546],[-5.743598,56.975483],[-5.743714,56.975479],[-5.743877,56.975448],[-5.744088,56.975391],[-5.744277,56.975358],[-5.744444,56.975352],[-5.744589,56.975371],[-5.744713,56.975415],[-5.744831,56.975445],[-5.744943,56.975463],[-5.74505,56.975466],[-5.74515,56.975456],[-5.745225,56.975438],[-5.745273,56.975413],[-5.745294,56.97538],[-5.74529,56.97534],[-5.745326,56.975297],[-5.745404,56.975252],[-5.745522,56.975205],[-5.745682,56.975156],[-5.745782,56.975108],[-5.745823,56.975061],[-5.745804,56.975014],[-5.745726,56.974969],[-5.745635,56.974945],[-5.745531,56.974942],[-5.745414,56.974959],[-5.745283,56.974998],[-5.745178,56.975006],[-5.745097,56.974984],[-5.745041,56.974932],[-5.74501,56.974849],[-5.744939,56.974801],[-5.744829,56.974788],[-5.744679,56.974811],[-5.744489,56.974868],[-5.744335,56.974903],[-5.744216,56.974915],[-5.744133,56.974905],[-5.744085,56.974872],[-5.744066,56.974839],[-5.744076,56.974807],[-5.744114,56.974776],[-5.744181,56.974745],[-5.744242,56.974701],[-5.744297,56.974644],[-5.744347,56.974574],[-5.744392,56.974491],[-5.744456,56.97444],[-5.744541,56.974422],[-5.744645,56.974436],[-5.74477,56.974482],[-5.744907,56.9745],[-5.745055,56.974488],[-5.745215,56.974448],[-5.745388,56.974379],[-5.745511,56.974318],[-5.745584,56.974265],[-5.745609,56.974219],[-5.745584,56.974181],[-5.745582,56.97414],[-5.745601,56.974097],[-5.745642,56.97405],[-5.745706,56.974002],[-5.745707,56.973956],[-5.745648,56.973915],[-5.745526,56.973876],[-5.745344,56.973841],[-5.745214,56.973808],[-5.745137,56.973775],[-5.745113,56.973743],[-5.745142,56.973712],[-5.74514,56.973685],[-5.745107,56.973662],[-5.745043,56.973642],[-5.744948,56.973626],[-5.744862,56.9736],[-5.744786,56.973564],[-5.744719,56.973517],[-5.744661,56.97346],[-5.744591,56.97341],[-5.744507,56.973367],[-5.744411,56.97333],[-5.744301,56.9733],[-5.74422,56.973295],[-5.744167,56.973314],[-5.744143,56.973357],[-5.744147,56.973425],[-5.744135,56.973481],[-5.744107,56.973526],[-5.744065,56.973558],[-5.744006,56.973579],[-5.743928,56.973598],[-5.74383,56.973614],[-5.743713,56.973629],[-5.743575,56.973641],[-5.743475,56.97366],[-5.743413,56.973686],[-5.743388,56.973719],[-5.7434,56.973758],[-5.74344,56.973789],[-5.743508,56.97381],[-5.743604,56.973822],[-5.743727,56.973826],[-5.743807,56.97384],[-5.743843,56.973867],[-5.743836,56.973905],[-5.743786,56.973954],[-5.743727,56.973993],[-5.743659,56.974022],[-5.743583,56.974041],[-5.743498,56.974049],[-5.743436,56.974073],[-5.743397,56.974113],[-5.74338,56.974169],[-5.743385,56.974242],[-5.743366,56.974293],[-5.743322,56.974323],[-5.743254,56.974333],[-5.743161,56.974321],[-5.743104,56.97429],[-5.743084,56.974237],[-5.743101,56.974165],[-5.743153,56.974071],[-5.743159,56.974],[-5.743117,56.97395],[-5.743027,56.973922],[-5.74289,56.973916],[-5.742776,56.973934],[-5.742684,56.973975],[-5.742615,56.974039],[-5.742568,56.974127],[-5.742543,56.974207],[-5.742541,56.974279],[-5.74256,56.974344],[-5.7426,56.9744],[-5.742622,56.974451],[-5.742624,56.974495],[-5.742606,56.974533],[-5.74257,56.974565],[-5.742515,56.974576],[-5.742444,56.974565],[-5.742354,56.974533],[-5.742248,56.97448],[-5.742131,56.974436],[-5.742003,56.974403],[-5.741865,56.974379],[-5.741717,56.974366],[-5.741577,56.974339],[-5.741447,56.9743],[-5.741327,56.974249],[-5.741216,56.974185],[-5.741115,56.974152],[-5.741024,56.974151],[-5.740943,56.97418],[-5.740872,56.974241],[-5.740815,56.974307],[-5.740772,56.974378],[-5.740742,56.974453],[-5.740725,56.974532],[-5.740684,56.974602],[-5.740619,56.974661],[-5.74053,56.97471],[-5.740416,56.974749],[-5.740364,56.974785],[-5.740371,56.974818],[-5.74044,56.974849],[-5.740569,56.974877],[-5.740691,56.974918],[-5.740805,56.974974],[-5.740911,56.975044],[-5.74101,56.975127],[-5.741095,56.975198],[-5.741168,56.975255],[-5.741228,56.975299],[-5.741274,56.97533],[-5.741288,56.97536],[-5.741269,56.97539],[-5.741218,56.975419],[-5.741133,56.975448],[-5.741047,56.975465],[-5.740959,56.97547],[-5.740869,56.975463],[-5.740777,56.975445],[-5.740693,56.975433],[-5.740617,56.975427],[-5.740549,56.975428],[-5.74049,56.975435],[-5.740454,56.975422],[-5.740442,56.97539],[-5.740454,56.975337],[-5.74049,56.975264],[-5.740501,56.975195],[-5.740486,56.975131],[-5.740446,56.975071],[-5.74038,56.975015],[-5.740307,56.974982],[-5.740225,56.974973],[-5.740135,56.974987],[-5.740038,56.975024],[-5.739968,56.975099],[-5.739926,56.975212],[-5.739912,56.975364],[-5.739925,56.975554],[-5.739915,56.975694],[-5.739882,56.975784],[-5.739825,56.975823],[-5.739745,56.975813],[-5.739673,56.975792],[-5.73961,56.975761],[-5.739554,56.975719],[-5.739507,56.975668],[-5.739441,56.975652],[-5.739354,56.97567],[-5.739248,56.975724],[-5.739122,56.975812],[-5.739019,56.975891],[-5.738939,56.97596],[-5.738882,56.976019],[-5.738849,56.976069],[-5.73881,56.97612],[-5.738767,56.97617],[-5.738718,56.976222],[-5.738665,56.976274],[-5.738583,56.976329],[-5.738473,56.976386],[-5.738334,56.976445],[-5.738167,56.976506],[-5.738062,56.976562],[-5.738019,56.976613],[-5.738037,56.976659],[-5.738117,56.976699],[-5.738207,56.976732],[-5.738305,56.976756],[-5.738413,56.976773],[-5.73853,56.976781],[-5.738649,56.976791],[-5.738769,56.976803],[-5.738891,56.976816],[-5.739015,56.976831],[-5.739128,56.976853],[-5.739232,56.976884],[-5.739325,56.976923],[-5.739408,56.97697],[-5.739495,56.977013],[-5.739587,56.977052],[-5.739684,56.977087],[-5.739785,56.977118],[-5.739901,56.977145],[-5.74003,56.977168],[-5.740174,56.977187],[-5.740331,56.977202],[-5.740492,56.9772],[-5.740657,56.977183],[-5.740825,56.977148],[-5.740997,56.977098],[-5.741124,56.977039],[-5.741207,56.976973],[-5.741246,56.976899],[-5.741241,56.976818],[-5.741209,56.976742],[-5.741149,56.976672],[-5.741063,56.976607],[-5.74095,56.976548],[-5.740908,56.976501],[-5.740938,56.976468],[-5.741039,56.976448],[-5.741213,56.97644],[-5.741364,56.976454],[-5.741495,56.97649],[-5.741604,56.976546],[-5.741692,56.976625],[-5.741753,56.976698],[-5.741786,56.976767],[-5.741793,56.976832],[-5.741772,56.976891],[-5.741788,56.976943],[-5.74184,56.976988],[-5.74193,56.977026],[-5.742056,56.977056],[-5.74219,56.977076],[-5.742333,56.977086],[-5.742484,56.977086],[-5.742644,56.977076],[-5.742796,56.977059],[-5.742941,56.977035],[-5.74308,56.977005],[-5.743211,56.976969],[-5.743292,56.976918],[-5.743321,56.976854],[-5.7433,56.976777]]]}}