{"type":"Feature","properties":{"id":"265962","COMMUNE":"Inverness and Nairn","PROVINCE":"Inverness & Nairn and Moray, Badenoch & Strathspey","COUNTRY":"UK","FIREDATE":"2025-04-04 11:13:00","FINALDATE":"2025-04-04 14:16:00","CLASS":"FireSeason","areaHA_geo":1.021},"geometry":{"type":"Polygon","coordinates":[[[-4.512122,57.141736],[-4.51236,57.141783],[-4.512568,57.1418],[-4.512744,57.141789],[-4.512888,57.141749],[-4.513039,57.14172],[-4.513197,57.141702],[-4.513362,57.141696],[-4.513533,57.141701],[-4.513651,57.141679],[-4.513717,57.141631],[-4.51373,57.141556],[-4.51369,57.141454],[-4.513653,57.141342],[-4.513618,57.141221],[-4.513587,57.141089],[-4.513558,57.140948],[-4.513468,57.140821],[-4.513318,57.14071],[-4.513106,57.140614],[-4.512834,57.140534],[-4.512665,57.140506],[-4.512599,57.14053],[-4.512636,57.140607],[-4.512775,57.140736],[-4.512883,57.140846],[-4.512959,57.140936],[-4.513002,57.141007],[-4.513014,57.141059],[-4.513008,57.141101],[-4.512985,57.141132],[-4.512944,57.141154],[-4.512886,57.141165],[-4.512836,57.141185],[-4.512794,57.141214],[-4.51276,57.141252],[-4.512733,57.141298],[-4.512677,57.141319],[-4.512591,57.141314],[-4.512474,57.141284],[-4.512327,57.141228],[-4.512163,57.141188],[-4.51198,57.141165],[-4.511779,57.141159],[-4.51156,57.141169],[-4.51141,57.141199],[-4.511327,57.141249],[-4.511312,57.141319],[-4.511366,57.14141],[-4.511473,57.141497],[-4.511635,57.14158],[-4.511851,57.14166],[-4.512122,57.141736]]]}}