{"type":"Feature","properties":{"id":"265912","COMMUNE":"Argyll and Bute Mainland","PROVINCE":"Lochaber, Skye & Lochalsh, Arran & Cumbrae and Argyll & Bute","COUNTRY":"UK","FIREDATE":"2025-03-18 12:29:00","FINALDATE":"2025-03-18 12:29:00","CLASS":"FireSeason","areaHA_geo":2.067},"geometry":{"type":"Polygon","coordinates":[[[-5.109088,55.798623],[-5.109228,55.798851],[-5.109388,55.798959],[-5.109566,55.798948],[-5.109762,55.798816],[-5.109919,55.798625],[-5.110035,55.798376],[-5.110111,55.798068],[-5.110146,55.7977],[-5.110193,55.797405],[-5.11025,55.797182],[-5.110319,55.797031],[-5.110398,55.796952],[-5.11055,55.796899],[-5.110773,55.796872],[-5.111069,55.796871],[-5.111437,55.796897],[-5.111761,55.796896],[-5.11204,55.796871],[-5.112275,55.796819],[-5.112465,55.796742],[-5.112455,55.796664],[-5.112245,55.796585],[-5.111835,55.796505],[-5.111225,55.796424],[-5.110701,55.796396],[-5.110264,55.796422],[-5.109912,55.796501],[-5.109647,55.796633],[-5.109481,55.796773],[-5.109414,55.79692],[-5.109447,55.797074],[-5.109579,55.797236],[-5.109616,55.797374],[-5.109558,55.797489],[-5.109404,55.797581],[-5.109155,55.79765],[-5.108999,55.797788],[-5.108936,55.797996],[-5.108965,55.798275],[-5.109088,55.798623]]]}}