{"type":"Feature","properties":{"id":"265901","COMMUNE":"Lochaber","PROVINCE":"Lochaber, Skye & Lochalsh, Arran & Cumbrae and Argyll & Bute","COUNTRY":"UK","FIREDATE":"2025-03-19 12:12:00","CLASS":"FireSeason","areaHA_geo":56.729},"geometry":{"type":"Polygon","coordinates":[[[-5.193737,56.830298],[-5.193797,56.830356],[-5.194005,56.830414],[-5.194361,56.83047],[-5.194865,56.830524],[-5.195275,56.830555],[-5.195592,56.830561],[-5.195815,56.830544],[-5.195944,56.830502],[-5.196202,56.83048],[-5.196589,56.830478],[-5.197104,56.830496],[-5.197748,56.830534],[-5.198264,56.830576],[-5.198652,56.830622],[-5.198913,56.830671],[-5.199046,56.830724],[-5.199206,56.830762],[-5.199394,56.830786],[-5.199608,56.830795],[-5.19985,56.830789],[-5.199995,56.830771],[-5.200042,56.83074],[-5.199991,56.830698],[-5.199843,56.830643],[-5.199747,56.830595],[-5.199703,56.830555],[-5.19971,56.830522],[-5.199769,56.830496],[-5.199868,56.830476],[-5.200006,56.830464],[-5.200183,56.830458],[-5.2004,56.830459],[-5.20064,56.830457],[-5.200903,56.830453],[-5.20119,56.830446],[-5.2015,56.830436],[-5.201761,56.830406],[-5.201975,56.830356],[-5.20214,56.830286],[-5.202257,56.830196],[-5.202425,56.830121],[-5.202645,56.830061],[-5.202916,56.830015],[-5.203238,56.829985],[-5.203523,56.829957],[-5.203771,56.829931],[-5.203982,56.829908],[-5.204155,56.829888],[-5.204325,56.829853],[-5.204494,56.829805],[-5.20466,56.829742],[-5.204825,56.829666],[-5.205084,56.829563],[-5.20544,56.829433],[-5.205891,56.829277],[-5.206437,56.829094],[-5.206869,56.828929],[-5.207185,56.828781],[-5.207387,56.82865],[-5.207473,56.828537],[-5.207509,56.828453],[-5.207493,56.828398],[-5.207426,56.828371],[-5.207309,56.828374],[-5.207236,56.828331],[-5.207207,56.828243],[-5.207222,56.82811],[-5.207282,56.827931],[-5.207285,56.82764],[-5.207233,56.827237],[-5.207124,56.826722],[-5.206958,56.826093],[-5.206824,56.825589],[-5.206722,56.825209],[-5.20665,56.824953],[-5.20661,56.82482],[-5.206526,56.824712],[-5.206398,56.824628],[-5.206225,56.824569],[-5.206008,56.824533],[-5.20581,56.824484],[-5.205631,56.824422],[-5.205471,56.824345],[-5.20533,56.824255],[-5.205253,56.824174],[-5.205241,56.824101],[-5.205293,56.824037],[-5.20541,56.823981],[-5.205449,56.823919],[-5.20541,56.823849],[-5.205293,56.823772],[-5.205099,56.823689],[-5.204888,56.82369],[-5.204662,56.823775],[-5.204419,56.823946],[-5.20416,56.824201],[-5.203926,56.824414],[-5.203716,56.824583],[-5.20353,56.82471],[-5.203369,56.824794],[-5.203153,56.824811],[-5.202881,56.824761],[-5.202555,56.824644],[-5.202173,56.824461],[-5.201858,56.82433],[-5.201609,56.824251],[-5.201427,56.824223],[-5.201312,56.824249],[-5.201168,56.824254],[-5.200995,56.82424],[-5.200793,56.824207],[-5.200562,56.824154],[-5.200334,56.824099],[-5.200108,56.824042],[-5.199885,56.823983],[-5.199665,56.823921],[-5.199515,56.823912],[-5.199435,56.823956],[-5.199425,56.824052],[-5.199486,56.824201],[-5.199448,56.824332],[-5.199312,56.824443],[-5.199078,56.824535],[-5.198745,56.824609],[-5.198444,56.824674],[-5.198174,56.824731],[-5.197935,56.824779],[-5.197728,56.824819],[-5.197505,56.824836],[-5.197265,56.82483],[-5.197009,56.824801],[-5.196737,56.824749],[-5.19651,56.824748],[-5.196328,56.824798],[-5.196191,56.824899],[-5.1961,56.825051],[-5.195963,56.82517],[-5.195782,56.825256],[-5.195556,56.82531],[-5.195285,56.82533],[-5.195057,56.825309],[-5.19487,56.825245],[-5.194726,56.825139],[-5.194624,56.824991],[-5.194451,56.824896],[-5.194207,56.824855],[-5.193893,56.824866],[-5.193508,56.824931],[-5.193203,56.824967],[-5.192979,56.824974],[-5.192836,56.824953],[-5.192774,56.824903],[-5.192665,56.82487],[-5.192509,56.824854],[-5.192305,56.824856],[-5.192054,56.824874],[-5.191844,56.824911],[-5.191675,56.824967],[-5.191547,56.825042],[-5.19146,56.825136],[-5.191308,56.825212],[-5.191091,56.82527],[-5.190809,56.82531],[-5.190462,56.825332],[-5.190251,56.825385],[-5.190177,56.825468],[-5.190239,56.825581],[-5.190437,56.825726],[-5.190608,56.825832],[-5.190751,56.825901],[-5.190867,56.825932],[-5.190955,56.825926],[-5.191001,56.825945],[-5.191005,56.82599],[-5.190968,56.826061],[-5.190889,56.826158],[-5.190869,56.826272],[-5.190908,56.826402],[-5.191007,56.82655],[-5.191164,56.826714],[-5.191321,56.826884],[-5.191476,56.82706],[-5.19163,56.827242],[-5.191784,56.827429],[-5.191931,56.827579],[-5.192074,56.827689],[-5.192212,56.827762],[-5.192344,56.827796],[-5.192469,56.827846],[-5.192587,56.827912],[-5.192697,56.827994],[-5.1928,56.828092],[-5.192874,56.828179],[-5.192918,56.828254],[-5.192933,56.828317],[-5.192919,56.828368],[-5.19293,56.828437],[-5.192965,56.828524],[-5.193026,56.828629],[-5.193111,56.828753],[-5.19313,56.828844],[-5.193085,56.828902],[-5.192973,56.828929],[-5.192797,56.828923],[-5.192665,56.828939],[-5.192579,56.828975],[-5.192538,56.829034],[-5.192542,56.829113],[-5.192611,56.829175],[-5.192745,56.829221],[-5.192943,56.829249],[-5.193206,56.82926],[-5.193417,56.829285],[-5.193576,56.829325],[-5.193684,56.82938],[-5.19374,56.82945],[-5.193813,56.829505],[-5.193903,56.829546],[-5.19401,56.829572],[-5.194133,56.829584],[-5.194244,56.829625],[-5.194343,56.829696],[-5.194429,56.829795],[-5.194502,56.829924],[-5.194516,56.830022],[-5.19447,56.83009],[-5.194365,56.830128],[-5.194201,56.830136],[-5.194056,56.830157],[-5.19393,56.830191],[-5.193824,56.830238],[-5.193737,56.830298]]]}}