{"type":"Feature","properties":{"id":"265936","COMMUNE":"Inverness and Nairn","PROVINCE":"Inverness & Nairn and Moray, Badenoch & Strathspey","COUNTRY":"UK","FIREDATE":"2025-03-18 16:42:56.013","CLASS":"FireSeason","areaHA_geo":0.877},"geometry":{"type":"Polygon","coordinates":[[[-4.588026,57.155988],[-4.588294,57.15589],[-4.588503,57.155836],[-4.588653,57.155824],[-4.588742,57.155856],[-4.588771,57.15593],[-4.588808,57.155981],[-4.588852,57.156007],[-4.588903,57.156009],[-4.588962,57.155987],[-4.589017,57.155968],[-4.589068,57.155952],[-4.589116,57.155938],[-4.58916,57.155928],[-4.589207,57.155879],[-4.589259,57.15579],[-4.589313,57.155661],[-4.589372,57.155493],[-4.589397,57.155355],[-4.589388,57.155247],[-4.589345,57.155169],[-4.589268,57.15512],[-4.589123,57.155105],[-4.588909,57.155124],[-4.588627,57.155177],[-4.588277,57.155263],[-4.587983,57.155345],[-4.587745,57.155424],[-4.587564,57.155499],[-4.587438,57.15557],[-4.587367,57.155653],[-4.587351,57.155745],[-4.58739,57.155849],[-4.587483,57.155963],[-4.58762,57.156025],[-4.587801,57.156033],[-4.588026,57.155988]]]}}