{"type":"Feature","properties":{"id":"265944","COMMUNE":"South Lanarkshire","PROVINCE":"South Lanarkshire","COUNTRY":"UK","FIREDATE":"2025-04-06 11:55:00","CLASS":"FireSeason","areaHA_geo":1.025},"geometry":{"type":"Polygon","coordinates":[[[-3.671539,55.612509],[-3.671634,55.612595],[-3.671778,55.612635],[-3.67197,55.61263],[-3.67221,55.612578],[-3.672385,55.612522],[-3.672493,55.612463],[-3.672536,55.612401],[-3.672513,55.612334],[-3.67246,55.61228],[-3.672377,55.612238],[-3.672263,55.612207],[-3.67212,55.612189],[-3.672029,55.612158],[-3.671991,55.612115],[-3.672006,55.612059],[-3.672074,55.611992],[-3.672129,55.6119],[-3.672172,55.611784],[-3.672203,55.611643],[-3.672221,55.611478],[-3.672183,55.611313],[-3.672087,55.611148],[-3.671934,55.610982],[-3.671724,55.610816],[-3.671553,55.610775],[-3.671422,55.610857],[-3.671331,55.611065],[-3.67128,55.611396],[-3.671255,55.611663],[-3.671257,55.611864],[-3.671286,55.612001],[-3.671341,55.612072],[-3.671394,55.612158],[-3.671445,55.61226],[-3.671493,55.612377],[-3.671539,55.612509]]]}}