{"type":"Feature","properties":{"id":"265953","COMMUNE":"South Lanarkshire","PROVINCE":"South Lanarkshire","COUNTRY":"UK","FIREDATE":"2025-03-18 16:51:07.12","CLASS":"FireSeason","areaHA_geo":3.441},"geometry":{"type":"Polygon","coordinates":[[[-3.651089,55.60144],[-3.651754,55.601428],[-3.652305,55.601385],[-3.652744,55.601312],[-3.653069,55.601208],[-3.65328,55.601073],[-3.653439,55.600885],[-3.653544,55.600642],[-3.653596,55.600344],[-3.653595,55.599993],[-3.653533,55.599738],[-3.653409,55.59958],[-3.653224,55.599518],[-3.652978,55.599554],[-3.652787,55.599594],[-3.65265,55.599639],[-3.652569,55.599688],[-3.652542,55.599743],[-3.652436,55.599778],[-3.652252,55.599793],[-3.651988,55.59979],[-3.651646,55.599767],[-3.651352,55.599797],[-3.651107,55.599879],[-3.65091,55.600014],[-3.650763,55.600202],[-3.650626,55.600378],[-3.650501,55.600541],[-3.650387,55.600693],[-3.650283,55.600833],[-3.650204,55.600964],[-3.650147,55.601086],[-3.650114,55.601199],[-3.650105,55.601303],[-3.650264,55.601378],[-3.650592,55.601424],[-3.651089,55.60144]]]}}