{"type":"Feature","properties":{"id":"265998","COMMUNE":"Perth and Kinross","PROVINCE":"Perth & Kinross and Stirling","COUNTRY":"UK","FIREDATE":"2025-03-31 13:25:00","CLASS":"FireSeason","areaHA_geo":9.779},"geometry":{"type":"Polygon","coordinates":[[[-3.451924,56.869236],[-3.452098,56.869308],[-3.452261,56.869336],[-3.452415,56.86932],[-3.452558,56.86926],[-3.452627,56.869165],[-3.452621,56.869033],[-3.45254,56.868866],[-3.452385,56.868663],[-3.452301,56.868536],[-3.452289,56.868486],[-3.452348,56.868512],[-3.452479,56.868614],[-3.452606,56.868696],[-3.452729,56.868758],[-3.452847,56.868798],[-3.45296,56.868819],[-3.453078,56.868876],[-3.4532,56.868969],[-3.453327,56.8691],[-3.453458,56.869267],[-3.453588,56.869384],[-3.453719,56.869451],[-3.453849,56.869468],[-3.453978,56.869435],[-3.454014,56.869344],[-3.453954,56.869195],[-3.4538,56.868989],[-3.453552,56.868725],[-3.453328,56.868481],[-3.45313,56.868256],[-3.452956,56.868052],[-3.452807,56.867868],[-3.452688,56.867708],[-3.452598,56.867572],[-3.452537,56.867461],[-3.452506,56.867374],[-3.452458,56.867282],[-3.452394,56.867186],[-3.452313,56.867084],[-3.452216,56.866979],[-3.452167,56.866876],[-3.452167,56.866776],[-3.452215,56.866679],[-3.452311,56.866585],[-3.452328,56.866469],[-3.452266,56.86633],[-3.452126,56.866169],[-3.451906,56.865986],[-3.451787,56.865842],[-3.451767,56.865738],[-3.451847,56.865673],[-3.452027,56.865648],[-3.452187,56.865642],[-3.452328,56.865657],[-3.452449,56.865691],[-3.452551,56.865745],[-3.452681,56.865794],[-3.452839,56.865839],[-3.453025,56.865879],[-3.453238,56.865915],[-3.453421,56.865965],[-3.453574,56.86603],[-3.453697,56.866109],[-3.45379,56.866202],[-3.453919,56.866292],[-3.454086,56.866378],[-3.45429,56.86646],[-3.45453,56.866538],[-3.45471,56.866579],[-3.454829,56.866582],[-3.454888,56.866549],[-3.454886,56.866478],[-3.454908,56.866423],[-3.454952,56.866383],[-3.45502,56.866358],[-3.455111,56.866348],[-3.45514,56.866323],[-3.455108,56.866281],[-3.455013,56.866223],[-3.454857,56.866149],[-3.454722,56.866054],[-3.454609,56.865936],[-3.454518,56.865798],[-3.454448,56.865637],[-3.454455,56.865533],[-3.454539,56.865486],[-3.454698,56.865495],[-3.454934,56.865561],[-3.45514,56.865641],[-3.455316,56.865735],[-3.455461,56.865844],[-3.455576,56.865968],[-3.455659,56.866025],[-3.455709,56.866017],[-3.455726,56.865942],[-3.455711,56.865802],[-3.455632,56.86567],[-3.455487,56.865547],[-3.455277,56.865432],[-3.455003,56.865325],[-3.454774,56.865231],[-3.454592,56.86515],[-3.454455,56.865082],[-3.454365,56.865027],[-3.454267,56.864976],[-3.454161,56.864929],[-3.454048,56.864886],[-3.453928,56.864847],[-3.453813,56.864806],[-3.453703,56.864762],[-3.453598,56.864717],[-3.453498,56.864669],[-3.453375,56.864621],[-3.453227,56.864572],[-3.453056,56.864522],[-3.452861,56.864472],[-3.45264,56.864441],[-3.452395,56.864431],[-3.452124,56.864442],[-3.451829,56.864473],[-3.451601,56.86453],[-3.451443,56.864614],[-3.451353,56.864725],[-3.451332,56.864863],[-3.451257,56.864901],[-3.451129,56.86484],[-3.450947,56.86468],[-3.450713,56.864421],[-3.450475,56.864219],[-3.450233,56.864073],[-3.449989,56.863984],[-3.449741,56.863952],[-3.449552,56.863941],[-3.44942,56.863952],[-3.449346,56.863984],[-3.449329,56.864037],[-3.449357,56.864097],[-3.449428,56.864163],[-3.449543,56.864237],[-3.449701,56.864317],[-3.4498,56.864403],[-3.44984,56.864496],[-3.449819,56.864595],[-3.449739,56.8647],[-3.449649,56.864821],[-3.449551,56.864956],[-3.449443,56.865108],[-3.449326,56.865275],[-3.449269,56.865437],[-3.449272,56.865595],[-3.449336,56.865747],[-3.44946,56.865896],[-3.449606,56.866021],[-3.449772,56.866123],[-3.44996,56.866201],[-3.450169,56.866257],[-3.450342,56.866363],[-3.450481,56.866519],[-3.450585,56.866726],[-3.450654,56.866983],[-3.450694,56.867218],[-3.450705,56.867429],[-3.450687,56.867618],[-3.450641,56.867784],[-3.450662,56.867966],[-3.45075,56.868163],[-3.450906,56.868375],[-3.45113,56.868603],[-3.451344,56.868803],[-3.451547,56.868976],[-3.451741,56.86912],[-3.451924,56.869236]]]}}