{"type":"Feature","properties":{"id":"266026","COMMUNE":"Dumfries and Galloway","PROVINCE":"Dumfries & Galloway","COUNTRY":"UK","FIREDATE":"2025-03-15 11:47:00","CLASS":"FireSeason","areaHA_geo":69.228},"geometry":{"type":"Polygon","coordinates":[[[-4.259249,54.869764],[-4.259444,54.869519],[-4.259629,54.869359],[-4.259804,54.869283],[-4.25997,54.869292],[-4.260126,54.869385],[-4.260325,54.869374],[-4.260566,54.869261],[-4.26085,54.869044],[-4.261176,54.868723],[-4.261464,54.868457],[-4.261715,54.868247],[-4.261927,54.868091],[-4.262103,54.86799],[-4.262229,54.867851],[-4.262308,54.867676],[-4.262337,54.867463],[-4.262319,54.867212],[-4.262472,54.867],[-4.262797,54.866826],[-4.263295,54.86669],[-4.263964,54.866593],[-4.26456,54.866587],[-4.265084,54.866673],[-4.265534,54.866851],[-4.265912,54.867121],[-4.266359,54.867263],[-4.266875,54.86728],[-4.26746,54.867169],[-4.268115,54.866932],[-4.268574,54.866714],[-4.268839,54.866517],[-4.268907,54.86634],[-4.268781,54.866183],[-4.268746,54.866048],[-4.268803,54.865935],[-4.268951,54.865845],[-4.269191,54.865777],[-4.269434,54.865668],[-4.26968,54.865519],[-4.269929,54.865328],[-4.270181,54.865097],[-4.270319,54.864917],[-4.270343,54.864788],[-4.270254,54.86471],[-4.270051,54.864683],[-4.269904,54.864629],[-4.269814,54.864548],[-4.26978,54.864441],[-4.269803,54.864307],[-4.269774,54.864189],[-4.269694,54.864088],[-4.269562,54.864002],[-4.269379,54.863932],[-4.269209,54.863851],[-4.269053,54.863758],[-4.26891,54.863653],[-4.26878,54.863536],[-4.268607,54.863458],[-4.26839,54.863417],[-4.26813,54.863415],[-4.267825,54.86345],[-4.267577,54.863506],[-4.267385,54.863584],[-4.267249,54.863683],[-4.267168,54.863804],[-4.267078,54.863885],[-4.266979,54.863926],[-4.26687,54.863929],[-4.266751,54.863892],[-4.266619,54.863794],[-4.266474,54.863634],[-4.266316,54.863412],[-4.266145,54.863129],[-4.26595,54.862916],[-4.265733,54.862775],[-4.265492,54.862704],[-4.265228,54.862704],[-4.264983,54.862659],[-4.264758,54.862569],[-4.264551,54.862434],[-4.264364,54.862254],[-4.264161,54.862042],[-4.263943,54.8618],[-4.263709,54.861526],[-4.26346,54.861222],[-4.263189,54.86098],[-4.262897,54.860802],[-4.262583,54.860686],[-4.262248,54.860634],[-4.261952,54.860668],[-4.261696,54.860789],[-4.261479,54.860996],[-4.261302,54.861289],[-4.261172,54.861541],[-4.261088,54.861753],[-4.261052,54.861924],[-4.261064,54.862054],[-4.260989,54.862191],[-4.26083,54.862336],[-4.260585,54.862488],[-4.260254,54.862647],[-4.259973,54.862773],[-4.259742,54.862866],[-4.259561,54.862924],[-4.259429,54.86295],[-4.259279,54.863023],[-4.259111,54.863143],[-4.258924,54.863311],[-4.258719,54.863527],[-4.258533,54.863697],[-4.258367,54.863822],[-4.258219,54.863903],[-4.258091,54.863938],[-4.258022,54.863915],[-4.258011,54.863836],[-4.258059,54.863699],[-4.258166,54.863505],[-4.258211,54.863335],[-4.258195,54.863191],[-4.258117,54.863071],[-4.257978,54.862976],[-4.257849,54.862887],[-4.257732,54.862805],[-4.257626,54.862729],[-4.25753,54.862659],[-4.257436,54.862629],[-4.257343,54.86264],[-4.257252,54.862691],[-4.257161,54.862782],[-4.257067,54.862851],[-4.256969,54.862898],[-4.256867,54.862922],[-4.256763,54.862924],[-4.256686,54.862956],[-4.256637,54.863017],[-4.256617,54.863108],[-4.256624,54.863228],[-4.256564,54.863331],[-4.256436,54.863417],[-4.25624,54.863485],[-4.255977,54.863535],[-4.255771,54.863549],[-4.255622,54.863526],[-4.25553,54.863466],[-4.255495,54.863369],[-4.255435,54.863287],[-4.25535,54.863221],[-4.25524,54.863171],[-4.255104,54.863136],[-4.255032,54.863094],[-4.255023,54.863044],[-4.255078,54.862987],[-4.255196,54.862923],[-4.255275,54.86275],[-4.255316,54.862468],[-4.255317,54.862076],[-4.25528,54.861575],[-4.255198,54.861198],[-4.255073,54.860945],[-4.254904,54.860816],[-4.254691,54.86081],[-4.254519,54.860835],[-4.254389,54.86089],[-4.254301,54.860976],[-4.254254,54.861093],[-4.254185,54.861181],[-4.254092,54.861243],[-4.253977,54.861276],[-4.253838,54.861282],[-4.253718,54.861243],[-4.253618,54.861158],[-4.253537,54.861029],[-4.253475,54.860854],[-4.253452,54.86068],[-4.25347,54.860506],[-4.253527,54.860333],[-4.253624,54.86016],[-4.253648,54.860006],[-4.2536,54.85987],[-4.253479,54.859753],[-4.253285,54.859654],[-4.253104,54.859627],[-4.252935,54.859672],[-4.252779,54.859788],[-4.252635,54.859976],[-4.252473,54.860066],[-4.252293,54.860056],[-4.252096,54.859948],[-4.251882,54.85974],[-4.25169,54.859633],[-4.251521,54.859628],[-4.251374,54.859723],[-4.25125,54.859919],[-4.25117,54.860113],[-4.251132,54.860304],[-4.251138,54.860493],[-4.251186,54.860679],[-4.251231,54.860866],[-4.251271,54.861053],[-4.251307,54.861241],[-4.251339,54.861429],[-4.251342,54.861611],[-4.251316,54.861785],[-4.251261,54.861953],[-4.251178,54.862114],[-4.251124,54.862247],[-4.251099,54.862351],[-4.251104,54.862426],[-4.251138,54.862472],[-4.251258,54.862539],[-4.251465,54.862627],[-4.251759,54.862734],[-4.252139,54.862862],[-4.252376,54.862986],[-4.252472,54.863106],[-4.252425,54.863223],[-4.252237,54.863336],[-4.252129,54.863454],[-4.252103,54.863578],[-4.252158,54.863708],[-4.252294,54.863844],[-4.25232,54.863942],[-4.252236,54.864002],[-4.252042,54.864025],[-4.251737,54.864009],[-4.251528,54.864041],[-4.251416,54.86412],[-4.251399,54.864245],[-4.251478,54.864418],[-4.251599,54.864561],[-4.251762,54.864673],[-4.251967,54.864756],[-4.252215,54.864808],[-4.252394,54.864865],[-4.252504,54.864928],[-4.252546,54.864997],[-4.252519,54.865071],[-4.252417,54.865141],[-4.252238,54.865207],[-4.251983,54.865269],[-4.251652,54.865327],[-4.251319,54.865368],[-4.250984,54.865392],[-4.250647,54.865398],[-4.250309,54.865386],[-4.250063,54.8654],[-4.249909,54.865438],[-4.249848,54.8655],[-4.249879,54.865587],[-4.249992,54.86567],[-4.250187,54.865749],[-4.250464,54.865823],[-4.250823,54.865893],[-4.251149,54.865943],[-4.251442,54.865975],[-4.251702,54.865988],[-4.251929,54.865982],[-4.252104,54.86598],[-4.252227,54.865981],[-4.252299,54.865985],[-4.252319,54.865993],[-4.252353,54.866049],[-4.252399,54.866155],[-4.252459,54.86631],[-4.252531,54.866514],[-4.252651,54.866651],[-4.252817,54.866723],[-4.25303,54.866729],[-4.25329,54.866669],[-4.253552,54.866674],[-4.253814,54.866744],[-4.254078,54.866881],[-4.254344,54.867082],[-4.254632,54.867236],[-4.254942,54.867342],[-4.255275,54.867399],[-4.25563,54.867409],[-4.255943,54.86741],[-4.256214,54.867404],[-4.256442,54.867391],[-4.256628,54.867369],[-4.256808,54.867404],[-4.256981,54.867495],[-4.257148,54.867643],[-4.257308,54.867846],[-4.257487,54.86799],[-4.257684,54.868073],[-4.257899,54.868096],[-4.258132,54.868059],[-4.258251,54.868058],[-4.258254,54.868093],[-4.258143,54.868164],[-4.257917,54.868271],[-4.257685,54.868361],[-4.257447,54.868434],[-4.257203,54.86849],[-4.256953,54.868529],[-4.256778,54.868594],[-4.256679,54.868687],[-4.256655,54.868806],[-4.256707,54.868951],[-4.256777,54.8691],[-4.256867,54.869251],[-4.256974,54.869405],[-4.257101,54.869562],[-4.257249,54.869684],[-4.257421,54.86977],[-4.257615,54.869821],[-4.257832,54.869836],[-4.258044,54.869865],[-4.258253,54.869907],[-4.258457,54.869961],[-4.258657,54.870029],[-4.258856,54.870019],[-4.259053,54.86993],[-4.259249,54.869764]]]}}