{"type":"Feature","properties":{"id":"266034","COMMUNE":"Argyll and Bute Mainland","PROVINCE":"Lochaber, Skye & Lochalsh, Arran & Cumbrae and Argyll & Bute","COUNTRY":"UK","FIREDATE":"2025-03-19 12:12:00","FINALDATE":"2025-03-19 12:34:00","CLASS":"FireSeason","areaHA_geo":1.186},"geometry":{"type":"Polygon","coordinates":[[[-5.234879,56.337431],[-5.234972,56.337505],[-5.23506,56.337528],[-5.235141,56.337501],[-5.235217,56.337424],[-5.235265,56.337347],[-5.235284,56.337269],[-5.235275,56.337191],[-5.235237,56.337114],[-5.235239,56.337059],[-5.235282,56.337029],[-5.235366,56.337023],[-5.23549,56.33704],[-5.235596,56.33704],[-5.235687,56.337022],[-5.23576,56.336986],[-5.235816,56.336933],[-5.235881,56.336866],[-5.235954,56.336786],[-5.236035,56.336692],[-5.236125,56.336584],[-5.236222,56.336501],[-5.236327,56.336442],[-5.236438,56.336407],[-5.236557,56.336396],[-5.236646,56.336367],[-5.236705,56.33632],[-5.236734,56.336254],[-5.236732,56.33617],[-5.236742,56.336086],[-5.236764,56.336003],[-5.236797,56.33592],[-5.236842,56.335838],[-5.23686,56.335774],[-5.236852,56.335729],[-5.236817,56.335703],[-5.236756,56.335696],[-5.236669,56.335684],[-5.236554,56.335666],[-5.236414,56.335643],[-5.236247,56.335615],[-5.236122,56.335607],[-5.23604,56.335619],[-5.235999,56.335652],[-5.236001,56.335706],[-5.235981,56.335753],[-5.235937,56.335794],[-5.235871,56.335829],[-5.235782,56.335858],[-5.235699,56.335892],[-5.235622,56.33593],[-5.235551,56.335974],[-5.235487,56.336023],[-5.235423,56.336069],[-5.235361,56.336113],[-5.2353,56.336153],[-5.235241,56.336191],[-5.235201,56.336232],[-5.235182,56.336276],[-5.235183,56.336324],[-5.235203,56.336375],[-5.235212,56.336423],[-5.235209,56.336467],[-5.235193,56.336508],[-5.235166,56.336546],[-5.235149,56.336586],[-5.235142,56.336629],[-5.235145,56.336675],[-5.235158,56.336723],[-5.235134,56.33678],[-5.235072,56.336845],[-5.234973,56.336917],[-5.234837,56.336998],[-5.23476,56.33709],[-5.234741,56.337193],[-5.234781,56.337306],[-5.234879,56.337431]]]}}