{"type":"Feature","properties":{"id":"266077","COMMUNE":"Caerphilly","PROVINCE":"Gwent Valleys","COUNTRY":"UK","FIREDATE":"2025-04-01 11:07:18.449","CLASS":"FireSeason","areaHA_geo":22.496},"geometry":{"type":"Polygon","coordinates":[[[-3.159323,51.617313],[-3.160039,51.617419],[-3.161293,51.617661],[-3.163086,51.61804],[-3.165417,51.618556],[-3.167252,51.618978],[-3.168591,51.619306],[-3.169434,51.61954],[-3.169782,51.61968],[-3.170152,51.619738],[-3.170545,51.619714],[-3.170961,51.619609],[-3.1714,51.619422],[-3.171783,51.619305],[-3.172109,51.619257],[-3.17238,51.619279],[-3.172594,51.619371],[-3.172779,51.619466],[-3.172936,51.619564],[-3.173064,51.619666],[-3.173162,51.61977],[-3.173281,51.619841],[-3.17342,51.619878],[-3.173578,51.619881],[-3.173756,51.619851],[-3.173944,51.619822],[-3.17414,51.619794],[-3.174345,51.619768],[-3.174559,51.619744],[-3.17475,51.619712],[-3.174917,51.619672],[-3.17506,51.619624],[-3.17518,51.619568],[-3.175241,51.619485],[-3.175242,51.619374],[-3.175184,51.619235],[-3.175067,51.619069],[-3.174897,51.618923],[-3.174672,51.618795],[-3.174393,51.618687],[-3.174061,51.618598],[-3.173783,51.618493],[-3.173559,51.618371],[-3.173391,51.618232],[-3.173277,51.618076],[-3.173001,51.61792],[-3.172564,51.617764],[-3.171965,51.617608],[-3.171204,51.617452],[-3.170373,51.617277],[-3.169474,51.617084],[-3.168505,51.616872],[-3.167467,51.616642],[-3.166552,51.616482],[-3.16576,51.616393],[-3.16509,51.616374],[-3.164544,51.616425],[-3.164052,51.616447],[-3.163615,51.616438],[-3.163234,51.6164],[-3.162907,51.616332],[-3.162614,51.616259],[-3.162353,51.616184],[-3.162125,51.616104],[-3.161931,51.616021],[-3.161664,51.61594],[-3.161327,51.615862],[-3.160917,51.615788],[-3.160437,51.615716],[-3.160121,51.615685],[-3.159972,51.615697],[-3.159987,51.615751],[-3.160168,51.615846],[-3.160348,51.61595],[-3.160525,51.616061],[-3.160701,51.616181],[-3.160875,51.616309],[-3.160865,51.616437],[-3.160673,51.616564],[-3.160297,51.616691],[-3.159739,51.616817],[-3.159318,51.616936],[-3.159036,51.617047],[-3.158892,51.617151],[-3.158886,51.617246],[-3.158926,51.61731],[-3.159012,51.617343],[-3.159144,51.617343],[-3.159323,51.617313]]]}}