{"type":"Feature","properties":{"id":"266036","COMMUNE":"Argyll and Bute Mainland","PROVINCE":"Lochaber, Skye & Lochalsh, Arran & Cumbrae and Argyll & Bute","COUNTRY":"UK","FIREDATE":"2025-03-19 12:12:00","CLASS":"FireSeason","areaHA_geo":0.507},"geometry":{"type":"Polygon","coordinates":[[[-5.23402,56.335541],[-5.234083,56.33554],[-5.234145,56.335517],[-5.234206,56.33547],[-5.234266,56.3354],[-5.234331,56.335348],[-5.234404,56.335315],[-5.234483,56.335299],[-5.234568,56.335301],[-5.23466,56.335303],[-5.234759,56.335303],[-5.234865,56.335303],[-5.234978,56.335302],[-5.235044,56.335287],[-5.235061,56.335258],[-5.235031,56.335215],[-5.234953,56.335158],[-5.234865,56.335099],[-5.234767,56.335036],[-5.234659,56.33497],[-5.234541,56.334902],[-5.234429,56.334842],[-5.234323,56.334789],[-5.234224,56.334744],[-5.234131,56.334706],[-5.234035,56.334692],[-5.233934,56.3347],[-5.23383,56.334732],[-5.233722,56.334786],[-5.23363,56.334846],[-5.233555,56.334911],[-5.233495,56.334983],[-5.233451,56.335059],[-5.233454,56.335106],[-5.233505,56.335123],[-5.233602,56.335109],[-5.233747,56.335064],[-5.233844,56.335042],[-5.233896,56.335041],[-5.233901,56.335062],[-5.23386,56.335105],[-5.233814,56.335155],[-5.233762,56.335213],[-5.233706,56.335279],[-5.233645,56.335353],[-5.233618,56.335409],[-5.233626,56.335449],[-5.233668,56.335471],[-5.233745,56.335476],[-5.233818,56.335486],[-5.233889,56.3355],[-5.233956,56.335518],[-5.23402,56.335541]]]}}