{"type":"Feature","properties":{"id":"266025","COMMUNE":"Dumfries and Galloway","PROVINCE":"Dumfries & Galloway","COUNTRY":"UK","FIREDATE":"2025-03-15 12:10:00","FINALDATE":"2025-03-16 01:11:00","CLASS":"FireSeason","areaHA_geo":15.97},"geometry":{"type":"Polygon","coordinates":[[[-4.273961,54.865211],[-4.273989,54.865437],[-4.27408,54.865593],[-4.274234,54.865679],[-4.27445,54.865695],[-4.274617,54.865718],[-4.274734,54.86575],[-4.274801,54.86579],[-4.274819,54.865839],[-4.27494,54.865858],[-4.275165,54.865847],[-4.275493,54.865806],[-4.275926,54.865736],[-4.276242,54.865624],[-4.276443,54.865469],[-4.276527,54.865273],[-4.276494,54.865034],[-4.276546,54.864808],[-4.276681,54.864596],[-4.276901,54.864396],[-4.277204,54.86421],[-4.277361,54.864045],[-4.277371,54.863902],[-4.277236,54.863782],[-4.276954,54.863683],[-4.27669,54.863645],[-4.276443,54.863669],[-4.276214,54.863753],[-4.276002,54.863899],[-4.275873,54.863871],[-4.275828,54.863669],[-4.275865,54.863293],[-4.275986,54.862744],[-4.276044,54.8623],[-4.276038,54.861963],[-4.275969,54.861731],[-4.275836,54.861605],[-4.275664,54.861334],[-4.275455,54.860919],[-4.275207,54.860359],[-4.274921,54.859655],[-4.274626,54.859136],[-4.274323,54.858802],[-4.27401,54.858654],[-4.273689,54.858691],[-4.273366,54.858759],[-4.27304,54.858857],[-4.272712,54.858986],[-4.272382,54.859145],[-4.272166,54.859319],[-4.272066,54.859508],[-4.272081,54.85971],[-4.272211,54.859928],[-4.272228,54.860123],[-4.272131,54.860296],[-4.271921,54.860446],[-4.271597,54.860574],[-4.271426,54.860675],[-4.271408,54.860748],[-4.271543,54.860793],[-4.271831,54.86081],[-4.272031,54.860842],[-4.272145,54.86089],[-4.272172,54.860952],[-4.272111,54.86103],[-4.272081,54.861142],[-4.27208,54.861289],[-4.27211,54.86147],[-4.272169,54.861685],[-4.2722,54.861858],[-4.272202,54.861989],[-4.272177,54.862078],[-4.272123,54.862125],[-4.272061,54.86221],[-4.271991,54.862335],[-4.271912,54.862498],[-4.271826,54.8627],[-4.27178,54.862879],[-4.271774,54.863036],[-4.271809,54.863171],[-4.271884,54.863284],[-4.271983,54.863325],[-4.272105,54.863296],[-4.272249,54.863196],[-4.272417,54.863025],[-4.272566,54.862963],[-4.272697,54.863008],[-4.272809,54.863162],[-4.272902,54.863424],[-4.273035,54.863661],[-4.273208,54.863873],[-4.27342,54.864061],[-4.273671,54.864224],[-4.273851,54.86442],[-4.27396,54.86465],[-4.273996,54.864914],[-4.273961,54.865211]]]}}