{"type":"Feature","properties":{"id":"266006","COMMUNE":"Perth and Kinross","PROVINCE":"Perth & Kinross and Stirling","COUNTRY":"UK","FIREDATE":"2025-04-05 11:51:00","CLASS":"FireSeason","areaHA_geo":2.075},"geometry":{"type":"Polygon","coordinates":[[[-3.474821,56.871198],[-3.474675,56.871358],[-3.474635,56.871459],[-3.4747,56.8715],[-3.474871,56.871482],[-3.47501,56.87145],[-3.475117,56.871404],[-3.475192,56.871343],[-3.475236,56.871267],[-3.475326,56.871198],[-3.475463,56.871135],[-3.475646,56.871079],[-3.475876,56.871029],[-3.476059,56.870972],[-3.476195,56.870906],[-3.476283,56.870832],[-3.476325,56.870751],[-3.476414,56.870678],[-3.476551,56.870616],[-3.476735,56.870563],[-3.476967,56.870519],[-3.477147,56.87051],[-3.477274,56.870535],[-3.477349,56.870595],[-3.477371,56.87069],[-3.477461,56.870751],[-3.477619,56.87078],[-3.477845,56.870776],[-3.478138,56.870739],[-3.478371,56.870679],[-3.478542,56.870597],[-3.478651,56.870492],[-3.4787,56.870364],[-3.478757,56.870252],[-3.478822,56.870155],[-3.478896,56.870073],[-3.478978,56.870006],[-3.479034,56.869933],[-3.479064,56.869852],[-3.479068,56.869765],[-3.479046,56.86967],[-3.478992,56.86961],[-3.478906,56.869584],[-3.478787,56.869591],[-3.478637,56.869633],[-3.478515,56.869647],[-3.478422,56.869634],[-3.478358,56.869594],[-3.478322,56.869527],[-3.478188,56.869517],[-3.477957,56.869563],[-3.477628,56.869667],[-3.477202,56.869827],[-3.476813,56.869984],[-3.476461,56.870137],[-3.476146,56.870286],[-3.475867,56.870431],[-3.475596,56.870595],[-3.475331,56.870777],[-3.475073,56.870978],[-3.474821,56.871198]]]}}