{"type":"Feature","properties":{"id":"266043","COMMUNE":"Badenoch and Strathspey","PROVINCE":"Inverness & Nairn and Moray, Badenoch & Strathspey","COUNTRY":"UK","FIREDATE":"2025-03-20 12:17:00","FINALDATE":"2025-03-20 13:08:00","CLASS":"FireSeason","areaHA_geo":5.28},"geometry":{"type":"Polygon","coordinates":[[[-4.11524,56.960355],[-4.115254,56.960467],[-4.115291,56.960548],[-4.11535,56.960595],[-4.115432,56.96061],[-4.115501,56.960648],[-4.115558,56.960707],[-4.115603,56.960788],[-4.115636,56.960891],[-4.115688,56.960983],[-4.11576,56.961065],[-4.115852,56.961136],[-4.115963,56.961196],[-4.116079,56.961234],[-4.116198,56.96125],[-4.116323,56.961244],[-4.116451,56.961216],[-4.116544,56.961161],[-4.1166,56.961077],[-4.116621,56.960966],[-4.116606,56.960826],[-4.116627,56.96071],[-4.116683,56.960616],[-4.116774,56.960545],[-4.116901,56.960496],[-4.116993,56.960437],[-4.117048,56.960368],[-4.117068,56.960287],[-4.117053,56.960196],[-4.117048,56.960118],[-4.117056,56.960054],[-4.117074,56.960003],[-4.117104,56.959965],[-4.11714,56.959913],[-4.117181,56.959847],[-4.117227,56.959766],[-4.11728,56.959671],[-4.117323,56.959578],[-4.117358,56.959486],[-4.117384,56.959396],[-4.117401,56.959309],[-4.117412,56.959195],[-4.117416,56.959055],[-4.117413,56.958889],[-4.117403,56.958698],[-4.117387,56.958534],[-4.117364,56.958397],[-4.117333,56.958288],[-4.117296,56.958206],[-4.117266,56.958058],[-4.117245,56.957843],[-4.117232,56.957563],[-4.117227,56.957216],[-4.117233,56.956916],[-4.117251,56.956663],[-4.11728,56.956457],[-4.117321,56.956298],[-4.117332,56.956173],[-4.117314,56.956084],[-4.117267,56.95603],[-4.11719,56.956011],[-4.11715,56.955982],[-4.117148,56.955942],[-4.117183,56.955893],[-4.117255,56.955834],[-4.117298,56.955693],[-4.117312,56.955471],[-4.117297,56.955169],[-4.117252,56.954785],[-4.117182,56.954492],[-4.117086,56.954289],[-4.116965,56.954176],[-4.116818,56.954155],[-4.116716,56.954228],[-4.11666,56.954396],[-4.116649,56.954658],[-4.116683,56.955016],[-4.116707,56.955317],[-4.116722,56.955563],[-4.116726,56.955754],[-4.11672,56.955888],[-4.116693,56.956067],[-4.116645,56.956289],[-4.116575,56.956554],[-4.116484,56.956864],[-4.116397,56.957125],[-4.116313,56.957339],[-4.116234,56.957505],[-4.116159,56.957623],[-4.1161,56.957737],[-4.116056,56.957847],[-4.116028,56.957952],[-4.116016,56.958053],[-4.11598,56.95817],[-4.115919,56.958302],[-4.115835,56.95845],[-4.115726,56.958613],[-4.115626,56.958806],[-4.115533,56.959029],[-4.115449,56.959283],[-4.115374,56.959566],[-4.115315,56.959815],[-4.115273,56.960029],[-4.115248,56.960209],[-4.11524,56.960355]]]}}