{"type":"Feature","properties":{"id":"266092","COMMUNE":"Derry City and Strabane","PROVINCE":"Derry City and Strabane","COUNTRY":"UK","FIREDATE":"2025-04-06 13:14:00","CLASS":"FireSeason","areaHA_geo":14.013},"geometry":{"type":"Polygon","coordinates":[[[-6.995802,54.801436],[-6.995788,54.801546],[-6.995945,54.80163],[-6.99627,54.80169],[-6.996765,54.801724],[-6.997132,54.801717],[-6.997371,54.801666],[-6.997481,54.801574],[-6.997463,54.801438],[-6.997443,54.801321],[-6.997421,54.801221],[-6.997395,54.801138],[-6.997368,54.801073],[-6.997365,54.80102],[-6.997388,54.80098],[-6.997436,54.800952],[-6.997509,54.800936],[-6.997572,54.800907],[-6.997624,54.800865],[-6.997666,54.800811],[-6.997697,54.800743],[-6.997713,54.800668],[-6.997712,54.800585],[-6.997696,54.800494],[-6.997664,54.800395],[-6.997653,54.800311],[-6.997663,54.80024],[-6.997694,54.800184],[-6.997746,54.800143],[-6.997803,54.800066],[-6.997866,54.799954],[-6.997933,54.799807],[-6.998005,54.799625],[-6.998042,54.799471],[-6.998043,54.799344],[-6.998009,54.799246],[-6.997939,54.799175],[-6.997915,54.799114],[-6.997938,54.799062],[-6.998007,54.799019],[-6.998123,54.798986],[-6.998227,54.798978],[-6.998319,54.798993],[-6.998399,54.799034],[-6.998466,54.799099],[-6.99857,54.799106],[-6.998708,54.799056],[-6.998882,54.798947],[-6.999091,54.79878],[-6.999228,54.798598],[-6.999293,54.798399],[-6.999287,54.798185],[-6.999209,54.797955],[-6.999122,54.797782],[-6.999028,54.797666],[-6.998925,54.797607],[-6.998815,54.797605],[-6.998743,54.797566],[-6.998711,54.797491],[-6.998717,54.797378],[-6.998764,54.797228],[-6.998791,54.797088],[-6.998801,54.796957],[-6.998792,54.796837],[-6.998765,54.796726],[-6.998761,54.796636],[-6.998782,54.796567],[-6.998826,54.796519],[-6.998895,54.796493],[-6.998959,54.796436],[-6.999017,54.796351],[-6.999071,54.796236],[-6.999119,54.796092],[-6.999099,54.795957],[-6.999011,54.795831],[-6.998854,54.795715],[-6.998628,54.795609],[-6.99839,54.795537],[-6.998139,54.7955],[-6.997876,54.795498],[-6.9976,54.79553],[-6.997389,54.795547],[-6.997244,54.795547],[-6.997164,54.795531],[-6.997151,54.795498],[-6.997187,54.79546],[-6.997273,54.795416],[-6.99741,54.795367],[-6.997597,54.795313],[-6.997676,54.795252],[-6.997647,54.795184],[-6.99751,54.79511],[-6.997266,54.795029],[-6.997074,54.794955],[-6.996935,54.794888],[-6.99685,54.794828],[-6.996817,54.794775],[-6.996745,54.79474],[-6.996632,54.794721],[-6.996478,54.794719],[-6.996285,54.794734],[-6.996156,54.79479],[-6.996091,54.794885],[-6.996091,54.795019],[-6.996156,54.795194],[-6.996166,54.795325],[-6.996123,54.795411],[-6.996026,54.795453],[-6.995875,54.795451],[-6.995744,54.795554],[-6.995632,54.795761],[-6.995541,54.796074],[-6.995469,54.796491],[-6.995453,54.796818],[-6.995493,54.797053],[-6.99559,54.797197],[-6.995742,54.797251],[-6.995801,54.797319],[-6.995766,54.797401],[-6.995638,54.797498],[-6.995415,54.797609],[-6.995283,54.797715],[-6.99524,54.797815],[-6.995288,54.79791],[-6.995427,54.798],[-6.995506,54.798074],[-6.995525,54.798131],[-6.995485,54.798173],[-6.995386,54.798198],[-6.995285,54.798259],[-6.995181,54.798357],[-6.995076,54.79849],[-6.994968,54.79866],[-6.994926,54.798789],[-6.994948,54.798878],[-6.995036,54.798926],[-6.99519,54.798934],[-6.995287,54.798968],[-6.995327,54.799028],[-6.995312,54.799115],[-6.99524,54.799228],[-6.995197,54.799337],[-6.995182,54.799442],[-6.995195,54.799544],[-6.995236,54.799641],[-6.995239,54.7997],[-6.995202,54.799719],[-6.995126,54.7997],[-6.995011,54.799641],[-6.994908,54.799617],[-6.994817,54.799626],[-6.994739,54.79967],[-6.994672,54.799748],[-6.994667,54.799836],[-6.994724,54.799935],[-6.994843,54.800043],[-6.995023,54.800161],[-6.99519,54.800253],[-6.995342,54.800318],[-6.995481,54.800356],[-6.995606,54.800368],[-6.995672,54.800417],[-6.99568,54.800505],[-6.995629,54.800631],[-6.995519,54.800796],[-6.995493,54.800923],[-6.995551,54.801012],[-6.995693,54.801064],[-6.995919,54.801079],[-6.996043,54.801123],[-6.996065,54.801197],[-6.995985,54.801302],[-6.995802,54.801436]]]}}