{"type":"Feature","properties":{"id":"266038","COMMUNE":"Angus","PROVINCE":"Angus and Dundee City","COUNTRY":"UK","FIREDATE":"2025-03-20 12:17:00","FINALDATE":"2025-03-20 12:17:00","CLASS":"FireSeason","areaHA_geo":15.656},"geometry":{"type":"Polygon","coordinates":[[[-2.711244,56.842196],[-2.711423,56.842346],[-2.711613,56.84247],[-2.711813,56.842566],[-2.712025,56.842636],[-2.712204,56.842703],[-2.712351,56.842765],[-2.712467,56.842824],[-2.712551,56.842879],[-2.71264,56.842912],[-2.712734,56.842925],[-2.712834,56.842916],[-2.712939,56.842886],[-2.71308,56.842864],[-2.713256,56.842851],[-2.713467,56.842846],[-2.713713,56.842849],[-2.71395,56.842877],[-2.714177,56.84293],[-2.714395,56.843007],[-2.714602,56.843109],[-2.714775,56.843198],[-2.714913,56.843276],[-2.715016,56.84334],[-2.715085,56.843393],[-2.715146,56.843446],[-2.7152,56.8435],[-2.715248,56.843555],[-2.715288,56.84361],[-2.715437,56.843639],[-2.715694,56.843641],[-2.716059,56.843617],[-2.716533,56.843566],[-2.716912,56.84351],[-2.717198,56.843448],[-2.71739,56.843381],[-2.717488,56.843308],[-2.717551,56.843239],[-2.717579,56.843173],[-2.717573,56.843111],[-2.717531,56.843052],[-2.717483,56.843001],[-2.717429,56.842959],[-2.717369,56.842926],[-2.717303,56.8429],[-2.717266,56.842872],[-2.717259,56.842839],[-2.71728,56.842802],[-2.717332,56.842762],[-2.717393,56.842735],[-2.717464,56.842722],[-2.717546,56.842723],[-2.717637,56.842737],[-2.717712,56.842771],[-2.71777,56.842825],[-2.717811,56.842898],[-2.717835,56.84299],[-2.717853,56.843059],[-2.717865,56.843106],[-2.717871,56.843129],[-2.717871,56.843129],[-2.717903,56.843113],[-2.717968,56.843081],[-2.718066,56.843033],[-2.718196,56.842969],[-2.718278,56.842903],[-2.718313,56.842837],[-2.718301,56.842769],[-2.718242,56.8427],[-2.718166,56.842603],[-2.718073,56.84248],[-2.717965,56.84233],[-2.71784,56.842153],[-2.717715,56.841998],[-2.71759,56.841864],[-2.717466,56.841752],[-2.717341,56.841662],[-2.717205,56.841573],[-2.717057,56.841487],[-2.716897,56.841403],[-2.716724,56.841322],[-2.716574,56.841262],[-2.716446,56.841223],[-2.716339,56.841206],[-2.716254,56.84121],[-2.716201,56.841192],[-2.716179,56.84115],[-2.71619,56.841086],[-2.716233,56.840999],[-2.716236,56.840924],[-2.7162,56.84086],[-2.716125,56.840809],[-2.71601,56.840769],[-2.715925,56.840719],[-2.715868,56.840659],[-2.715841,56.84059],[-2.715843,56.840511],[-2.71581,56.840448],[-2.71574,56.840402],[-2.715634,56.840371],[-2.715492,56.840358],[-2.715356,56.840335],[-2.715226,56.840302],[-2.715102,56.84026],[-2.714983,56.840209],[-2.714805,56.84014],[-2.714567,56.840055],[-2.714269,56.839953],[-2.713911,56.839835],[-2.713637,56.839734],[-2.713447,56.839652],[-2.713341,56.839589],[-2.713318,56.839544],[-2.713249,56.839505],[-2.713134,56.839473],[-2.712972,56.839448],[-2.712763,56.839429],[-2.712603,56.839402],[-2.71249,56.839368],[-2.712425,56.839326],[-2.712409,56.839276],[-2.71234,56.839234],[-2.712221,56.839201],[-2.71205,56.839175],[-2.711827,56.839158],[-2.711611,56.839122],[-2.711402,56.839067],[-2.711198,56.838995],[-2.711002,56.838903],[-2.710813,56.83882],[-2.710632,56.838745],[-2.71046,56.838679],[-2.710296,56.83862],[-2.710161,56.838551],[-2.710055,56.838473],[-2.709978,56.838385],[-2.70993,56.838287],[-2.709941,56.838205],[-2.710008,56.838139],[-2.710134,56.838089],[-2.710317,56.838055],[-2.710448,56.838021],[-2.710526,56.837985],[-2.710552,56.837949],[-2.710525,56.837913],[-2.710519,56.837836],[-2.710534,56.83772],[-2.71057,56.837565],[-2.710626,56.83737],[-2.710672,56.837207],[-2.710708,56.837078],[-2.710733,56.836981],[-2.710747,56.836916],[-2.710714,56.836871],[-2.710633,56.836845],[-2.710504,56.836839],[-2.710329,56.836853],[-2.7102,56.836889],[-2.710119,56.836948],[-2.710086,56.83703],[-2.7101,56.837136],[-2.710106,56.837233],[-2.710103,56.837322],[-2.710093,56.837403],[-2.710074,56.837475],[-2.710026,56.837509],[-2.709948,56.837503],[-2.709841,56.837457],[-2.709703,56.837372],[-2.709594,56.837336],[-2.709512,56.83735],[-2.709458,56.837414],[-2.709431,56.837527],[-2.709429,56.837665],[-2.709452,56.837829],[-2.7095,56.838017],[-2.709572,56.838231],[-2.709637,56.838442],[-2.709692,56.838649],[-2.70974,56.838854],[-2.709779,56.839055],[-2.709859,56.839236],[-2.709978,56.839396],[-2.710137,56.839535],[-2.710336,56.839654],[-2.710493,56.839765],[-2.710608,56.839871],[-2.710681,56.839969],[-2.710712,56.840061],[-2.710705,56.840173],[-2.710659,56.840305],[-2.710576,56.840459],[-2.710454,56.840632],[-2.710418,56.840803],[-2.710468,56.840969],[-2.710602,56.841133],[-2.710822,56.841293],[-2.710967,56.841426],[-2.711036,56.841534],[-2.711029,56.841616],[-2.710947,56.841671],[-2.710927,56.841757],[-2.71097,56.841873],[-2.711076,56.842019],[-2.711244,56.842196]]]}}