{"type":"Feature","properties":{"id":"266076","COMMUNE":"Caerphilly","PROVINCE":"Gwent Valleys","COUNTRY":"UK","FIREDATE":"2025-04-01 13:55:00","CLASS":"FireSeason","areaHA_geo":84.439},"geometry":{"type":"Polygon","coordinates":[[[-3.152278,51.629065],[-3.152668,51.628884],[-3.153025,51.628649],[-3.153348,51.628359],[-3.153639,51.628015],[-3.153896,51.627617],[-3.154122,51.627141],[-3.154317,51.626586],[-3.15448,51.625953],[-3.154612,51.625243],[-3.154719,51.624664],[-3.1548,51.624217],[-3.154857,51.623902],[-3.154888,51.623719],[-3.154916,51.62354],[-3.154941,51.623363],[-3.154962,51.623189],[-3.15498,51.623018],[-3.155002,51.62286],[-3.155028,51.622715],[-3.155057,51.622583],[-3.15509,51.622463],[-3.155104,51.622351],[-3.155098,51.622246],[-3.155074,51.622149],[-3.15503,51.622059],[-3.15506,51.622],[-3.155163,51.621972],[-3.155338,51.621976],[-3.155587,51.622011],[-3.155781,51.622018],[-3.155919,51.621997],[-3.156003,51.621948],[-3.156031,51.621871],[-3.156024,51.62179],[-3.155982,51.621706],[-3.155905,51.621617],[-3.155793,51.621524],[-3.155757,51.621446],[-3.155798,51.621384],[-3.155916,51.621336],[-3.156111,51.621304],[-3.156253,51.621264],[-3.156341,51.621217],[-3.156376,51.621163],[-3.156358,51.621102],[-3.156256,51.621058],[-3.15607,51.621032],[-3.155799,51.621023],[-3.155444,51.621031],[-3.155146,51.620989],[-3.154906,51.620895],[-3.154723,51.620749],[-3.154597,51.620553],[-3.154487,51.620439],[-3.154392,51.620407],[-3.154314,51.620458],[-3.154251,51.620592],[-3.154124,51.620698],[-3.153935,51.620778],[-3.153682,51.62083],[-3.153366,51.620856],[-3.153148,51.620838],[-3.153028,51.620778],[-3.153007,51.620675],[-3.153083,51.620529],[-3.15314,51.620391],[-3.153179,51.62026],[-3.153198,51.620137],[-3.153198,51.620021],[-3.153159,51.619917],[-3.153081,51.619826],[-3.152964,51.619747],[-3.152808,51.61968],[-3.15269,51.619654],[-3.152609,51.619668],[-3.152566,51.619723],[-3.15256,51.619819],[-3.152517,51.619921],[-3.152439,51.62003],[-3.152324,51.620146],[-3.152172,51.620269],[-3.152009,51.620308],[-3.151835,51.620265],[-3.151649,51.620138],[-3.151451,51.619929],[-3.151235,51.619713],[-3.151,51.619492],[-3.150746,51.619265],[-3.150473,51.619032],[-3.150174,51.61884],[-3.149848,51.618687],[-3.149496,51.618574],[-3.149117,51.618501],[-3.14876,51.618431],[-3.148425,51.618363],[-3.148112,51.618298],[-3.147822,51.618236],[-3.147447,51.618179],[-3.146989,51.618125],[-3.146447,51.618076],[-3.145821,51.618031],[-3.145298,51.618003],[-3.144878,51.617993],[-3.14456,51.617999],[-3.144346,51.618024],[-3.144093,51.618002],[-3.143801,51.617935],[-3.14347,51.617822],[-3.1431,51.617664],[-3.142724,51.61757],[-3.14234,51.617539],[-3.14195,51.617573],[-3.141553,51.61767],[-3.141116,51.617762],[-3.140639,51.617848],[-3.140122,51.617927],[-3.139565,51.618001],[-3.13915,51.618069],[-3.138879,51.618131],[-3.138751,51.618188],[-3.138766,51.618239],[-3.138792,51.618312],[-3.138829,51.618408],[-3.138876,51.618527],[-3.138935,51.618668],[-3.13895,51.618777],[-3.138921,51.618854],[-3.138849,51.618899],[-3.138734,51.618912],[-3.138623,51.618911],[-3.138517,51.618897],[-3.138415,51.618869],[-3.138318,51.618827],[-3.138179,51.618777],[-3.138,51.618718],[-3.137781,51.618651],[-3.13752,51.618575],[-3.137255,51.618526],[-3.136984,51.618504],[-3.136709,51.618509],[-3.136429,51.61854],[-3.136123,51.61857],[-3.13579,51.618597],[-3.135431,51.618622],[-3.135046,51.618644],[-3.134658,51.618641],[-3.134266,51.618611],[-3.133871,51.618556],[-3.133473,51.618474],[-3.133085,51.618442],[-3.132707,51.618458],[-3.132338,51.618524],[-3.13198,51.618638],[-3.131649,51.618757],[-3.131345,51.618881],[-3.131068,51.61901],[-3.130818,51.619144],[-3.130633,51.619254],[-3.130514,51.619341],[-3.130461,51.619405],[-3.130472,51.619446],[-3.130523,51.619472],[-3.130611,51.619483],[-3.130738,51.619479],[-3.130902,51.619461],[-3.131028,51.619484],[-3.131115,51.619547],[-3.131163,51.619653],[-3.131172,51.619799],[-3.131222,51.619941],[-3.131313,51.620079],[-3.131446,51.620211],[-3.131619,51.620339],[-3.13184,51.620425],[-3.132108,51.620468],[-3.132424,51.62047],[-3.132786,51.620429],[-3.133054,51.620382],[-3.133226,51.620331],[-3.133303,51.620275],[-3.133285,51.620214],[-3.13334,51.620184],[-3.133468,51.620185],[-3.133669,51.620218],[-3.133943,51.620282],[-3.134144,51.620386],[-3.134271,51.620529],[-3.134325,51.620713],[-3.134306,51.620937],[-3.134303,51.621129],[-3.134316,51.621291],[-3.134346,51.621422],[-3.134392,51.621523],[-3.134454,51.621589],[-3.134532,51.621623],[-3.134626,51.621623],[-3.134735,51.621589],[-3.134839,51.621593],[-3.134936,51.621635],[-3.135027,51.621714],[-3.135113,51.621831],[-3.135244,51.621961],[-3.135423,51.622104],[-3.135647,51.622261],[-3.135918,51.62243],[-3.136131,51.622575],[-3.136285,51.622695],[-3.136381,51.622789],[-3.136419,51.622859],[-3.136482,51.622886],[-3.136571,51.622871],[-3.136686,51.622813],[-3.136827,51.622712],[-3.137014,51.622625],[-3.137248,51.622552],[-3.137528,51.622491],[-3.137854,51.622443],[-3.138145,51.622389],[-3.1384,51.622329],[-3.138618,51.622262],[-3.138801,51.622189],[-3.138984,51.622144],[-3.139167,51.622129],[-3.139349,51.622142],[-3.139532,51.622185],[-3.13969,51.622215],[-3.139822,51.622231],[-3.13993,51.622235],[-3.140012,51.622225],[-3.140116,51.62223],[-3.14024,51.622247],[-3.140385,51.622278],[-3.140552,51.622323],[-3.140756,51.622365],[-3.140998,51.622407],[-3.141277,51.622446],[-3.141595,51.622484],[-3.141875,51.622497],[-3.142119,51.622485],[-3.142325,51.622449],[-3.142494,51.622387],[-3.142588,51.622329],[-3.142606,51.622275],[-3.142548,51.622223],[-3.142415,51.622175],[-3.142312,51.622113],[-3.142238,51.622037],[-3.142195,51.621947],[-3.142181,51.621843],[-3.142196,51.621762],[-3.142239,51.621705],[-3.142309,51.62167],[-3.142408,51.621659],[-3.142544,51.621644],[-3.142717,51.621624],[-3.142927,51.6216],[-3.143174,51.621572],[-3.14337,51.621555],[-3.143513,51.62155],[-3.143604,51.621555],[-3.143643,51.621572],[-3.143677,51.621602],[-3.143707,51.621646],[-3.143732,51.621704],[-3.143753,51.621776],[-3.143796,51.621834],[-3.14386,51.621879],[-3.143947,51.621912],[-3.144054,51.621931],[-3.144141,51.621937],[-3.144207,51.62193],[-3.144252,51.621909],[-3.144276,51.621875],[-3.144325,51.621853],[-3.144399,51.621845],[-3.144499,51.621849],[-3.144623,51.621867],[-3.144859,51.621874],[-3.145207,51.621872],[-3.145668,51.621859],[-3.14624,51.621837],[-3.146659,51.621813],[-3.146924,51.621788],[-3.147035,51.621762],[-3.146993,51.621736],[-3.146912,51.621689],[-3.14679,51.621624],[-3.146629,51.62154],[-3.146429,51.621436],[-3.146315,51.621354],[-3.146289,51.621293],[-3.14635,51.621255],[-3.146498,51.621238],[-3.146658,51.621244],[-3.146828,51.621272],[-3.147008,51.621323],[-3.1472,51.621396],[-3.14739,51.621448],[-3.147578,51.62148],[-3.147764,51.62149],[-3.147948,51.62148],[-3.148104,51.62146],[-3.148231,51.621429],[-3.14833,51.621389],[-3.148401,51.621339],[-3.148451,51.621265],[-3.148482,51.621166],[-3.148493,51.621044],[-3.148484,51.620897],[-3.148509,51.620778],[-3.148567,51.620688],[-3.148659,51.620624],[-3.148785,51.620589],[-3.148889,51.620596],[-3.148971,51.620644],[-3.149032,51.620735],[-3.149071,51.620868],[-3.149206,51.621024],[-3.149438,51.621203],[-3.149765,51.621406],[-3.150189,51.621632],[-3.150399,51.621866],[-3.150393,51.62211],[-3.150173,51.622361],[-3.149739,51.622621],[-3.149453,51.622864],[-3.149315,51.623091],[-3.149326,51.623301],[-3.149484,51.623494],[-3.149525,51.623689],[-3.149447,51.623888],[-3.149251,51.624089],[-3.148936,51.624294],[-3.148661,51.624472],[-3.148425,51.624626],[-3.148228,51.624753],[-3.148071,51.624856],[-3.147987,51.624976],[-3.147977,51.625114],[-3.14804,51.62527],[-3.148176,51.625445],[-3.148359,51.625648],[-3.148589,51.62588],[-3.148866,51.626141],[-3.149189,51.626432],[-3.149475,51.626737],[-3.149722,51.627057],[-3.149931,51.627391],[-3.150102,51.627741],[-3.150244,51.628023],[-3.150358,51.628237],[-3.150443,51.628382],[-3.1505,51.62846],[-3.150612,51.628566],[-3.150779,51.6287],[-3.151001,51.628862],[-3.151278,51.629052],[-3.151584,51.629149],[-3.151917,51.629154],[-3.152278,51.629065]]]}}