{"type":"Feature","properties":{"id":"266084","COMMUNE":"Monmouthshire","PROVINCE":"Monmouthshire and Newport","COUNTRY":"UK","FIREDATE":"2025-04-01 02:00:00","CLASS":"FireSeason","areaHA_geo":0.332},"geometry":{"type":"Polygon","coordinates":[[[-3.026283,51.849802],[-3.026395,51.849836],[-3.026558,51.84983],[-3.026772,51.849784],[-3.027036,51.849698],[-3.027176,51.849605],[-3.027193,51.849506],[-3.027087,51.8494],[-3.026856,51.849288],[-3.02666,51.849235],[-3.026497,51.849241],[-3.026368,51.849306],[-3.026273,51.84943],[-3.026217,51.849542],[-3.0262,51.849641],[-3.026222,51.849728],[-3.026283,51.849802]]]}}