{"type":"Feature","properties":{"id":"266030","COMMUNE":"Dumfries and Galloway","PROVINCE":"Dumfries & Galloway","COUNTRY":"UK","FIREDATE":"2025-03-19 13:25:00","CLASS":"FireSeason","areaHA_geo":25.179},"geometry":{"type":"Polygon","coordinates":[[[-4.602265,55.068847],[-4.602423,55.068917],[-4.602656,55.06889],[-4.602965,55.068765],[-4.60335,55.068542],[-4.603587,55.068375],[-4.603675,55.068264],[-4.603616,55.068209],[-4.603409,55.068209],[-4.603301,55.068182],[-4.603291,55.068127],[-4.60338,55.068044],[-4.603567,55.067933],[-4.603746,55.067835],[-4.603917,55.06775],[-4.604079,55.067678],[-4.604234,55.067618],[-4.604371,55.06754],[-4.604491,55.067443],[-4.604593,55.067327],[-4.604679,55.067193],[-4.60481,55.067078],[-4.604988,55.066983],[-4.605212,55.066908],[-4.605481,55.066852],[-4.605747,55.066793],[-4.606009,55.06673],[-4.606267,55.066662],[-4.60652,55.066591],[-4.606723,55.066564],[-4.606875,55.066582],[-4.606975,55.066644],[-4.607025,55.066751],[-4.607086,55.066817],[-4.607158,55.066844],[-4.607241,55.066832],[-4.607336,55.066779],[-4.607412,55.066705],[-4.60747,55.066609],[-4.60751,55.066492],[-4.607532,55.066353],[-4.607574,55.066236],[-4.607637,55.06614],[-4.607721,55.066065],[-4.607826,55.066011],[-4.607896,55.065935],[-4.607932,55.065836],[-4.607934,55.065714],[-4.607902,55.06557],[-4.607897,55.065458],[-4.60792,55.065378],[-4.60797,55.065331],[-4.608047,55.065316],[-4.608118,55.065284],[-4.608183,55.065235],[-4.608242,55.065169],[-4.608294,55.065086],[-4.608361,55.065028],[-4.608442,55.064994],[-4.608538,55.064986],[-4.608647,55.065003],[-4.608761,55.065001],[-4.608878,55.064981],[-4.608999,55.064944],[-4.609123,55.064887],[-4.609288,55.064834],[-4.609492,55.064783],[-4.609736,55.064735],[-4.61002,55.06469],[-4.610267,55.064658],[-4.610478,55.064639],[-4.610652,55.064633],[-4.610789,55.064641],[-4.610933,55.064643],[-4.611082,55.06464],[-4.611237,55.064632],[-4.611398,55.064619],[-4.611517,55.064577],[-4.611595,55.064506],[-4.611631,55.064405],[-4.611624,55.064276],[-4.611657,55.064182],[-4.611729,55.064123],[-4.61184,55.0641],[-4.611989,55.064112],[-4.612162,55.064097],[-4.61236,55.064056],[-4.612581,55.063989],[-4.612827,55.063894],[-4.612922,55.063802],[-4.612868,55.063711],[-4.612664,55.063621],[-4.61231,55.063532],[-4.611999,55.063489],[-4.61173,55.063491],[-4.611504,55.063538],[-4.61132,55.063631],[-4.611146,55.063693],[-4.610981,55.063724],[-4.610826,55.063725],[-4.61068,55.063695],[-4.610585,55.06366],[-4.610539,55.063621],[-4.610544,55.063578],[-4.610599,55.06353],[-4.61065,55.063472],[-4.610698,55.063404],[-4.610742,55.063326],[-4.610782,55.063239],[-4.61083,55.063186],[-4.610885,55.063167],[-4.610948,55.063184],[-4.611019,55.063235],[-4.611106,55.063266],[-4.611208,55.063277],[-4.611327,55.063269],[-4.611462,55.063242],[-4.611551,55.063195],[-4.611595,55.063131],[-4.611593,55.063049],[-4.611546,55.062948],[-4.61156,55.062839],[-4.611637,55.062724],[-4.611776,55.062601],[-4.611977,55.062471],[-4.612075,55.062364],[-4.612071,55.062282],[-4.611964,55.062224],[-4.611754,55.062189],[-4.611587,55.062144],[-4.611463,55.062087],[-4.611381,55.06202],[-4.611342,55.061942],[-4.611234,55.061873],[-4.611057,55.061814],[-4.61081,55.061765],[-4.610495,55.061725],[-4.610217,55.061707],[-4.609975,55.061712],[-4.60977,55.061739],[-4.609602,55.061789],[-4.60947,55.061798],[-4.609376,55.061768],[-4.609319,55.061698],[-4.6093,55.061588],[-4.609248,55.061481],[-4.609163,55.061379],[-4.609047,55.06128],[-4.608898,55.061185],[-4.608734,55.061113],[-4.608555,55.061063],[-4.608361,55.061035],[-4.608152,55.06103],[-4.607909,55.061062],[-4.607634,55.06113],[-4.607325,55.061234],[-4.606983,55.061375],[-4.606692,55.061592],[-4.606452,55.061883],[-4.606263,55.06225],[-4.606125,55.062693],[-4.606023,55.06303],[-4.605958,55.063263],[-4.60593,55.06339],[-4.605939,55.063413],[-4.605893,55.063458],[-4.605794,55.063526],[-4.60564,55.063617],[-4.605433,55.06373],[-4.605208,55.063816],[-4.604965,55.063874],[-4.604704,55.063905],[-4.604426,55.063908],[-4.604179,55.063943],[-4.603966,55.06401],[-4.603784,55.064108],[-4.603635,55.064238],[-4.603488,55.064374],[-4.603343,55.064515],[-4.6032,55.064662],[-4.603059,55.064815],[-4.60296,55.06497],[-4.602904,55.065128],[-4.602891,55.065287],[-4.602919,55.06545],[-4.602939,55.065603],[-4.60295,55.065747],[-4.602953,55.065881],[-4.602947,55.066006],[-4.602937,55.066112],[-4.602922,55.0662],[-4.602904,55.066268],[-4.602881,55.066319],[-4.602774,55.066395],[-4.602583,55.066497],[-4.602309,55.066626],[-4.601951,55.06678],[-4.601696,55.066937],[-4.601542,55.067098],[-4.60149,55.067261],[-4.601541,55.067426],[-4.601565,55.067577],[-4.601563,55.067714],[-4.601536,55.067835],[-4.601482,55.067942],[-4.601482,55.068043],[-4.601538,55.068137],[-4.601647,55.068225],[-4.601812,55.068306],[-4.601956,55.068409],[-4.60208,55.068533],[-4.602183,55.068679],[-4.602265,55.068847]]]}}