{"type":"Feature","properties":{"id":"266045","COMMUNE":"Lochaber","PROVINCE":"Lochaber, Skye & Lochalsh, Arran & Cumbrae and Argyll & Bute","COUNTRY":"UK","FIREDATE":"2025-04-04 01:02:00","FINALDATE":"2025-04-04 03:36:00","CLASS":"FireSeason","areaHA_geo":19.665},"geometry":{"type":"Polygon","coordinates":[[[-4.869828,56.644229],[-4.870126,56.64445],[-4.870855,56.644722],[-4.872015,56.645044],[-4.873607,56.645416],[-4.874822,56.645684],[-4.875659,56.645848],[-4.87612,56.645907],[-4.876202,56.645863],[-4.876297,56.64584],[-4.876402,56.645841],[-4.876518,56.645864],[-4.876646,56.645909],[-4.876788,56.645934],[-4.876946,56.645938],[-4.877118,56.645922],[-4.877304,56.645885],[-4.877466,56.645833],[-4.877604,56.645764],[-4.877716,56.645679],[-4.877805,56.645579],[-4.877846,56.645481],[-4.87784,56.645387],[-4.877788,56.645295],[-4.877689,56.645206],[-4.877556,56.645124],[-4.877389,56.645048],[-4.877187,56.644978],[-4.876952,56.644915],[-4.876776,56.644857],[-4.876658,56.644803],[-4.8766,56.644753],[-4.8766,56.644708],[-4.876628,56.644668],[-4.876683,56.644634],[-4.876766,56.644606],[-4.876875,56.644583],[-4.877025,56.644581],[-4.877215,56.644599],[-4.877445,56.644637],[-4.877716,56.644696],[-4.877961,56.644709],[-4.878181,56.644676],[-4.878376,56.644597],[-4.878546,56.644472],[-4.878656,56.644352],[-4.878707,56.644239],[-4.878699,56.64413],[-4.878631,56.644028],[-4.878539,56.643928],[-4.878423,56.643831],[-4.878282,56.643737],[-4.878118,56.643646],[-4.87797,56.643559],[-4.877836,56.643477],[-4.877719,56.643399],[-4.877616,56.643325],[-4.877578,56.643263],[-4.877604,56.643213],[-4.877693,56.643173],[-4.877847,56.643146],[-4.877989,56.643145],[-4.878118,56.643173],[-4.878236,56.643228],[-4.878342,56.643311],[-4.878444,56.643349],[-4.878541,56.64334],[-4.878634,56.643285],[-4.878722,56.643185],[-4.878839,56.643093],[-4.878985,56.643011],[-4.879159,56.642938],[-4.879363,56.642874],[-4.87957,56.642786],[-4.879781,56.642674],[-4.879997,56.642537],[-4.880217,56.642376],[-4.880416,56.642257],[-4.880595,56.642178],[-4.880754,56.642141],[-4.880893,56.642145],[-4.881056,56.64213],[-4.881244,56.642095],[-4.881456,56.642042],[-4.881692,56.641969],[-4.881814,56.641896],[-4.881822,56.641823],[-4.881714,56.641748],[-4.881493,56.641674],[-4.881279,56.641578],[-4.881073,56.641462],[-4.880874,56.641324],[-4.880684,56.641166],[-4.880514,56.641025],[-4.880364,56.640902],[-4.880236,56.640796],[-4.880128,56.640708],[-4.879972,56.64062],[-4.879767,56.640531],[-4.879515,56.640441],[-4.879214,56.64035],[-4.878957,56.640269],[-4.878745,56.640195],[-4.878578,56.640131],[-4.878455,56.640075],[-4.878326,56.640037],[-4.87819,56.640018],[-4.878048,56.640017],[-4.8779,56.640034],[-4.877601,56.640179],[-4.877151,56.640452],[-4.876551,56.640853],[-4.8758,56.641381],[-4.875263,56.641844],[-4.87494,56.64224],[-4.874831,56.64257],[-4.874935,56.642834],[-4.874941,56.643068],[-4.874848,56.643272],[-4.874656,56.643446],[-4.874366,56.64359],[-4.874056,56.643697],[-4.873728,56.643768],[-4.87338,56.643802],[-4.873013,56.643799],[-4.87268,56.643794],[-4.872379,56.643786],[-4.872112,56.643776],[-4.871879,56.643763],[-4.871672,56.643743],[-4.871492,56.643716],[-4.871339,56.643683],[-4.871214,56.643642],[-4.871065,56.643625],[-4.870895,56.643633],[-4.870701,56.643664],[-4.870485,56.643719],[-4.87029,56.643803],[-4.870115,56.643916],[-4.869961,56.644058],[-4.869828,56.644229]]]}}