{"type":"Feature","properties":{"id":"266083","COMMUNE":"Monmouthshire","PROVINCE":"Monmouthshire and Newport","COUNTRY":"UK","FIREDATE":"2025-04-01 02:00:00","CLASS":"FireSeason","areaHA_geo":2.153},"geometry":{"type":"Polygon","coordinates":[[[-3.023989,51.853403],[-3.024315,51.85366],[-3.024628,51.853832],[-3.02493,51.853918],[-3.025219,51.853918],[-3.025425,51.853901],[-3.025547,51.853867],[-3.025584,51.853816],[-3.025538,51.853749],[-3.025491,51.853689],[-3.025443,51.853638],[-3.025394,51.853594],[-3.025345,51.853559],[-3.025309,51.853517],[-3.025288,51.853466],[-3.025281,51.853408],[-3.025288,51.853343],[-3.025241,51.853275],[-3.025142,51.853205],[-3.024989,51.853133],[-3.024783,51.853059],[-3.024662,51.852961],[-3.024627,51.852839],[-3.024676,51.852694],[-3.024811,51.852524],[-3.024912,51.852363],[-3.024979,51.85221],[-3.025012,51.852064],[-3.025011,51.851926],[-3.024959,51.851805],[-3.024855,51.851699],[-3.024701,51.851608],[-3.024495,51.851534],[-3.024308,51.851527],[-3.024141,51.851586],[-3.023994,51.851712],[-3.023866,51.851904],[-3.023737,51.852071],[-3.023607,51.852211],[-3.023476,51.852325],[-3.023344,51.852413],[-3.023329,51.852564],[-3.023432,51.85278],[-3.023652,51.853059],[-3.023989,51.853403]]]}}