{"type":"Feature","properties":{"id":"266091","COMMUNE":"Powys","PROVINCE":"Powys","COUNTRY":"UK","FIREDATE":"2025-04-03 01:00:00","CLASS":"FireSeason","areaHA_geo":539.587},"geometry":{"type":"Polygon","coordinates":[[[-3.490554,51.828073],[-3.490518,51.828052],[-3.490513,51.828113],[-3.490502,51.828225],[-3.49049,51.828325],[-3.490476,51.828413],[-3.490403,51.8285],[-3.490269,51.828586],[-3.490075,51.828672],[-3.48982,51.828757],[-3.489648,51.8288],[-3.489559,51.828801],[-3.489551,51.82876],[-3.489626,51.828678],[-3.489665,51.828601],[-3.489669,51.82853],[-3.489636,51.828464],[-3.489568,51.828404],[-3.489539,51.82834],[-3.489548,51.828271],[-3.489596,51.828197],[-3.489682,51.82812],[-3.489723,51.828064],[-3.489718,51.828031],[-3.489667,51.82802],[-3.48957,51.828031],[-3.489479,51.828051],[-3.489392,51.828079],[-3.489311,51.828116],[-3.489235,51.828162],[-3.48912,51.828197],[-3.488967,51.828221],[-3.488776,51.828234],[-3.488547,51.828236],[-3.488328,51.82823],[-3.488119,51.828217],[-3.48792,51.828197],[-3.487731,51.82817],[-3.487564,51.82812],[-3.487417,51.828047],[-3.48729,51.827953],[-3.487185,51.827835],[-3.487081,51.827724],[-3.486979,51.827619],[-3.486879,51.827519],[-3.48678,51.827426],[-3.486673,51.827352],[-3.486557,51.827298],[-3.486431,51.827263],[-3.486296,51.827248],[-3.486158,51.827211],[-3.486015,51.827154],[-3.485869,51.827075],[-3.485718,51.826976],[-3.485612,51.826889],[-3.48555,51.826816],[-3.485532,51.826757],[-3.485558,51.826711],[-3.485536,51.826662],[-3.485466,51.826612],[-3.485347,51.826559],[-3.48518,51.826505],[-3.485053,51.826456],[-3.484965,51.826414],[-3.484917,51.826378],[-3.484908,51.826348],[-3.4849,51.826338],[-3.48486,51.826359],[-3.484712,51.826409],[-3.484542,51.826441],[-3.48435,51.826456],[-3.484187,51.826443],[-3.484052,51.826401],[-3.483947,51.826331],[-3.483871,51.826233],[-3.483821,51.826135],[-3.483797,51.826038],[-3.4838,51.825941],[-3.483829,51.825845],[-3.483839,51.825735],[-3.48383,51.825611],[-3.483803,51.825473],[-3.483757,51.825321],[-3.483725,51.82518],[-3.483709,51.82505],[-3.483708,51.82493],[-3.483721,51.824822],[-3.48374,51.824721],[-3.483764,51.824629],[-3.483794,51.824545],[-3.483829,51.82447],[-3.483877,51.824391],[-3.483939,51.824309],[-3.484015,51.824223],[-3.484104,51.824135],[-3.484121,51.824058],[-3.484066,51.823993],[-3.48394,51.823939],[-3.483742,51.823898],[-3.483574,51.823851],[-3.483437,51.823799],[-3.48333,51.823742],[-3.483253,51.82368],[-3.483173,51.823616],[-3.483089,51.82355],[-3.483002,51.823484],[-3.482912,51.823415],[-3.482899,51.823353],[-3.482963,51.823295],[-3.483103,51.823243],[-3.483321,51.823197],[-3.483515,51.823176],[-3.483684,51.823181],[-3.48383,51.823213],[-3.483952,51.82327],[-3.484102,51.823288],[-3.484281,51.823268],[-3.484489,51.823208],[-3.484725,51.823109],[-3.484901,51.82301],[-3.485016,51.822911],[-3.48507,51.822812],[-3.485063,51.822713],[-3.485104,51.82261],[-3.485193,51.822503],[-3.485331,51.822393],[-3.485516,51.822278],[-3.485691,51.822147],[-3.485855,51.822],[-3.486008,51.821836],[-3.48615,51.821655],[-3.486254,51.8215],[-3.486319,51.821371],[-3.486345,51.821268],[-3.486334,51.821191],[-3.48636,51.821106],[-3.486424,51.821013],[-3.486527,51.820911],[-3.486668,51.820802],[-3.486756,51.820703],[-3.486793,51.820613],[-3.486777,51.820533],[-3.486709,51.820462],[-3.486613,51.820403],[-3.486489,51.820357],[-3.486337,51.820323],[-3.486156,51.820301],[-3.486021,51.820245],[-3.48593,51.820156],[-3.485884,51.820032],[-3.485883,51.819875],[-3.485873,51.819728],[-3.485854,51.819591],[-3.485827,51.819464],[-3.485792,51.819347],[-3.4858,51.819251],[-3.485853,51.819177],[-3.48595,51.819125],[-3.486092,51.819094],[-3.486214,51.819048],[-3.486317,51.818986],[-3.4864,51.818908],[-3.486465,51.818815],[-3.486464,51.818717],[-3.486398,51.818614],[-3.486267,51.818506],[-3.48607,51.818393],[-3.485911,51.818278],[-3.485788,51.81816],[-3.485702,51.818039],[-3.485653,51.817916],[-3.485674,51.817814],[-3.485765,51.817732],[-3.485926,51.817671],[-3.486157,51.81763],[-3.486315,51.817576],[-3.486399,51.817509],[-3.486409,51.817429],[-3.486346,51.817336],[-3.486317,51.817231],[-3.486322,51.817112],[-3.48636,51.816981],[-3.486433,51.816837],[-3.486488,51.816706],[-3.486528,51.816587],[-3.48655,51.816481],[-3.486557,51.816387],[-3.486585,51.816309],[-3.486636,51.816246],[-3.486708,51.816198],[-3.486802,51.816166],[-3.486906,51.816107],[-3.48702,51.816023],[-3.487143,51.815912],[-3.487275,51.815775],[-3.48741,51.815629],[-3.487548,51.815474],[-3.48769,51.815309],[-3.487834,51.815136],[-3.487954,51.814995],[-3.488048,51.814888],[-3.488119,51.814813],[-3.488164,51.814772],[-3.488227,51.814742],[-3.488308,51.814722],[-3.488406,51.814712],[-3.488523,51.814713],[-3.488657,51.814678],[-3.488809,51.814607],[-3.488979,51.814499],[-3.489167,51.814356],[-3.489266,51.814252],[-3.489275,51.814187],[-3.489195,51.81416],[-3.489025,51.814173],[-3.48889,51.814149],[-3.488791,51.814089],[-3.488727,51.813993],[-3.488699,51.813861],[-3.488753,51.813744],[-3.48889,51.813642],[-3.48911,51.813556],[-3.489413,51.813485],[-3.489682,51.813397],[-3.489916,51.813291],[-3.490116,51.813168],[-3.490282,51.813027],[-3.490432,51.812931],[-3.490568,51.81288],[-3.490687,51.812873],[-3.490791,51.812911],[-3.490913,51.81292],[-3.491052,51.8129],[-3.491208,51.812852],[-3.491381,51.812775],[-3.491553,51.812671],[-3.491722,51.812541],[-3.491888,51.812384],[-3.492053,51.812201],[-3.492306,51.811966],[-3.492648,51.81168],[-3.493079,51.811342],[-3.493598,51.810954],[-3.493895,51.810653],[-3.493969,51.810441],[-3.493822,51.810317],[-3.493452,51.810281],[-3.493205,51.81024],[-3.493081,51.810194],[-3.493079,51.810142],[-3.493201,51.810086],[-3.49337,51.810002],[-3.493585,51.809891],[-3.493848,51.809753],[-3.494157,51.809589],[-3.494444,51.809429],[-3.49471,51.809273],[-3.494953,51.809122],[-3.495175,51.808975],[-3.495325,51.808838],[-3.495402,51.808711],[-3.495407,51.808594],[-3.49534,51.808488],[-3.495324,51.808404],[-3.495357,51.808343],[-3.495441,51.808305],[-3.495575,51.808289],[-3.495711,51.808229],[-3.495847,51.808124],[-3.495984,51.807974],[-3.496122,51.807779],[-3.496209,51.807619],[-3.496246,51.807493],[-3.496233,51.807402],[-3.496169,51.807345],[-3.49602,51.807291],[-3.495784,51.80724],[-3.495463,51.807191],[-3.495055,51.807146],[-3.494693,51.807116],[-3.494376,51.807103],[-3.494104,51.807106],[-3.493879,51.807125],[-3.493675,51.807142],[-3.493494,51.807155],[-3.493335,51.807167],[-3.493199,51.807175],[-3.493065,51.807211],[-3.492933,51.807272],[-3.492803,51.80736],[-3.492676,51.807475],[-3.492525,51.80755],[-3.49235,51.807584],[-3.492151,51.807579],[-3.491929,51.807533],[-3.491706,51.807505],[-3.491483,51.807496],[-3.49126,51.807504],[-3.491036,51.80753],[-3.49079,51.807551],[-3.490523,51.807568],[-3.490234,51.80758],[-3.489924,51.807587],[-3.489717,51.807573],[-3.489614,51.807539],[-3.489614,51.807484],[-3.489719,51.807407],[-3.489725,51.807351],[-3.489633,51.807315],[-3.489443,51.8073],[-3.489155,51.807305],[-3.488889,51.807289],[-3.488647,51.807253],[-3.488427,51.807196],[-3.48823,51.807119],[-3.488028,51.807048],[-3.487823,51.806982],[-3.487614,51.806923],[-3.487401,51.806869],[-3.487226,51.806807],[-3.487089,51.806737],[-3.48699,51.806659],[-3.486929,51.806573],[-3.486839,51.806514],[-3.486719,51.806482],[-3.486569,51.806476],[-3.48639,51.806496],[-3.486216,51.806533],[-3.486046,51.806585],[-3.485881,51.806652],[-3.485721,51.806735],[-3.485562,51.806801],[-3.485403,51.806852],[-3.485246,51.806886],[-3.485089,51.806904],[-3.484937,51.806918],[-3.484789,51.806928],[-3.484646,51.806934],[-3.484508,51.806936],[-3.484334,51.806944],[-3.484123,51.806957],[-3.483877,51.806977],[-3.483595,51.807002],[-3.483421,51.807056],[-3.483353,51.807139],[-3.483393,51.807251],[-3.48354,51.807391],[-3.483673,51.807508],[-3.483794,51.807601],[-3.483902,51.80767],[-3.483997,51.807716],[-3.484118,51.80776],[-3.484263,51.8078],[-3.484434,51.807837],[-3.484629,51.807872],[-3.484793,51.807915],[-3.484925,51.807968],[-3.485025,51.808029],[-3.485092,51.8081],[-3.485209,51.808149],[-3.485373,51.808177],[-3.485587,51.808182],[-3.485848,51.808166],[-3.485994,51.80818],[-3.486024,51.808223],[-3.485939,51.808295],[-3.485738,51.808397],[-3.485563,51.808476],[-3.485412,51.808533],[-3.485286,51.808567],[-3.485185,51.808579],[-3.485079,51.808573],[-3.484968,51.80855],[-3.484852,51.80851],[-3.48473,51.808453],[-3.484615,51.808434],[-3.484505,51.808454],[-3.484401,51.808512],[-3.484303,51.808609],[-3.484226,51.808661],[-3.48417,51.808668],[-3.484135,51.808629],[-3.484121,51.808545],[-3.484081,51.808462],[-3.484016,51.80838],[-3.483925,51.8083],[-3.483808,51.80822],[-3.483713,51.80821],[-3.483638,51.808269],[-3.483584,51.808396],[-3.483551,51.808593],[-3.48342,51.808708],[-3.483193,51.808742],[-3.482869,51.808693],[-3.482447,51.808564],[-3.482039,51.80844],[-3.481644,51.808321],[-3.481262,51.808208],[-3.480894,51.808101],[-3.480578,51.808043],[-3.480314,51.808034],[-3.480104,51.808074],[-3.479945,51.808164],[-3.479769,51.808242],[-3.479575,51.808307],[-3.479362,51.80836],[-3.479131,51.808401],[-3.478869,51.808464],[-3.478576,51.808548],[-3.478252,51.808653],[-3.477896,51.80878],[-3.477624,51.808894],[-3.477434,51.808994],[-3.477327,51.809081],[-3.477304,51.809156],[-3.477249,51.809224],[-3.477164,51.809288],[-3.477048,51.809346],[-3.476902,51.809398],[-3.476793,51.809467],[-3.476719,51.80955],[-3.476683,51.809649],[-3.476683,51.809763],[-3.476625,51.809859],[-3.476509,51.809937],[-3.476336,51.809996],[-3.476105,51.810037],[-3.475912,51.810108],[-3.475757,51.810208],[-3.47564,51.810337],[-3.475561,51.810496],[-3.47554,51.810627],[-3.475577,51.81073],[-3.475672,51.810805],[-3.475825,51.810852],[-3.475942,51.810904],[-3.476024,51.810962],[-3.476069,51.811027],[-3.476079,51.811097],[-3.476119,51.811164],[-3.476191,51.811227],[-3.476293,51.811287],[-3.476426,51.811343],[-3.476626,51.811373],[-3.476894,51.811378],[-3.477229,51.811357],[-3.477632,51.81131],[-3.477969,51.811266],[-3.47824,51.811224],[-3.478445,51.811184],[-3.478585,51.811146],[-3.478727,51.811119],[-3.478872,51.811102],[-3.479021,51.811096],[-3.479173,51.8111],[-3.479328,51.811114],[-3.479486,51.811138],[-3.479647,51.811173],[-3.479811,51.811219],[-3.479908,51.811259],[-3.479936,51.811295],[-3.479896,51.811327],[-3.479788,51.811353],[-3.479657,51.811379],[-3.479503,51.811404],[-3.479325,51.811429],[-3.479123,51.811452],[-3.478848,51.811482],[-3.4785,51.811519],[-3.478079,51.811562],[-3.477585,51.811612],[-3.477208,51.811659],[-3.476949,51.811704],[-3.476808,51.811745],[-3.476785,51.811783],[-3.476772,51.811828],[-3.47677,51.811878],[-3.476778,51.811934],[-3.476797,51.811996],[-3.47683,51.812057],[-3.476877,51.812115],[-3.476938,51.812173],[-3.477012,51.812228],[-3.477037,51.812291],[-3.477013,51.812362],[-3.476938,51.81244],[-3.476813,51.812526],[-3.476704,51.812625],[-3.47661,51.812735],[-3.476532,51.812859],[-3.476469,51.812995],[-3.47639,51.813116],[-3.476295,51.813224],[-3.476184,51.813317],[-3.476057,51.813396],[-3.475927,51.813454],[-3.475793,51.813491],[-3.475656,51.813507],[-3.475516,51.813501],[-3.475388,51.813473],[-3.475274,51.813422],[-3.475174,51.813348],[-3.475087,51.813251],[-3.474973,51.813153],[-3.474833,51.813055],[-3.474667,51.812957],[-3.474475,51.812858],[-3.474312,51.812796],[-3.474177,51.812772],[-3.474071,51.812786],[-3.473994,51.812838],[-3.473946,51.812929],[-3.473928,51.81306],[-3.473939,51.81323],[-3.473979,51.81344],[-3.473986,51.813614],[-3.473958,51.813753],[-3.473897,51.813856],[-3.473802,51.813925],[-3.47374,51.814026],[-3.473712,51.814162],[-3.473716,51.814331],[-3.473755,51.814534],[-3.473805,51.81471],[-3.473868,51.81486],[-3.473943,51.814983],[-3.47403,51.81508],[-3.474068,51.815156],[-3.474056,51.815211],[-3.473993,51.815245],[-3.473882,51.815258],[-3.473805,51.815294],[-3.473765,51.815352],[-3.473761,51.815433],[-3.473792,51.815536],[-3.473806,51.815651],[-3.473804,51.815776],[-3.473784,51.815912],[-3.473748,51.816059],[-3.47372,51.816196],[-3.4737,51.816324],[-3.47369,51.816441],[-3.473687,51.816548],[-3.473691,51.816655],[-3.4737,51.816761],[-3.473714,51.816867],[-3.473734,51.816971],[-3.473723,51.817057],[-3.473679,51.817122],[-3.473603,51.817169],[-3.473495,51.817195],[-3.47342,51.817234],[-3.473378,51.817286],[-3.473368,51.817349],[-3.473391,51.817425],[-3.473451,51.81747],[-3.473548,51.817484],[-3.473682,51.817467],[-3.473852,51.817418],[-3.473978,51.817404],[-3.47406,51.817423],[-3.474096,51.817476],[-3.474087,51.817563],[-3.474052,51.817645],[-3.473989,51.817724],[-3.473898,51.817799],[-3.473781,51.817869],[-3.473658,51.817973],[-3.473532,51.818109],[-3.4734,51.818278],[-3.473264,51.818479],[-3.473187,51.818645],[-3.473169,51.818776],[-3.473209,51.818871],[-3.473309,51.818931],[-3.473368,51.818985],[-3.473389,51.819033],[-3.473369,51.819074],[-3.473311,51.819109],[-3.473231,51.819142],[-3.473129,51.819171],[-3.473007,51.819198],[-3.472864,51.819222],[-3.472768,51.819249],[-3.472719,51.81928],[-3.472718,51.819314],[-3.472764,51.819351],[-3.472843,51.819372],[-3.472954,51.819377],[-3.473099,51.819366],[-3.473276,51.819338],[-3.473446,51.819308],[-3.47361,51.819275],[-3.473767,51.819239],[-3.473917,51.8192],[-3.474072,51.819177],[-3.474232,51.819169],[-3.474397,51.819177],[-3.474566,51.8192],[-3.474691,51.81923],[-3.474772,51.819267],[-3.474808,51.819311],[-3.474801,51.819362],[-3.474742,51.819399],[-3.474634,51.819422],[-3.474474,51.819432],[-3.474264,51.819428],[-3.474109,51.819449],[-3.474007,51.819497],[-3.47396,51.81957],[-3.473967,51.819669],[-3.473972,51.819761],[-3.473974,51.819847],[-3.473975,51.819925],[-3.473973,51.819997],[-3.473962,51.820064],[-3.473941,51.820127],[-3.473909,51.820186],[-3.473868,51.820241],[-3.473809,51.820286],[-3.473732,51.820319],[-3.473638,51.820343],[-3.473526,51.820356],[-3.473409,51.820343],[-3.473287,51.820303],[-3.47316,51.820237],[-3.473028,51.820146],[-3.472916,51.820092],[-3.472825,51.820078],[-3.472754,51.820102],[-3.472704,51.820165],[-3.472634,51.820222],[-3.472544,51.820271],[-3.472436,51.820314],[-3.472308,51.82035],[-3.472208,51.820394],[-3.472137,51.820445],[-3.472093,51.820504],[-3.472079,51.82057],[-3.472113,51.820616],[-3.472196,51.820642],[-3.472328,51.820648],[-3.47251,51.820634],[-3.472609,51.820639],[-3.472628,51.820661],[-3.472565,51.820703],[-3.472421,51.820762],[-3.472314,51.820839],[-3.472244,51.820933],[-3.472211,51.821044],[-3.472215,51.821172],[-3.472192,51.821258],[-3.472142,51.821303],[-3.472065,51.821307],[-3.47196,51.821269],[-3.471836,51.821212],[-3.471691,51.821136],[-3.471526,51.821041],[-3.471341,51.820926],[-3.47118,51.820874],[-3.471044,51.820882],[-3.470932,51.820952],[-3.470844,51.821084],[-3.470746,51.821209],[-3.470637,51.821329],[-3.470518,51.821443],[-3.470389,51.821551],[-3.470301,51.821645],[-3.470256,51.821725],[-3.470253,51.821791],[-3.470292,51.821844],[-3.470403,51.821854],[-3.470584,51.821823],[-3.470837,51.821749],[-3.471161,51.821633],[-3.471417,51.82155],[-3.471604,51.821499],[-3.471724,51.821482],[-3.471775,51.821498],[-3.471818,51.821534],[-3.471852,51.82159],[-3.471878,51.821668],[-3.471896,51.821766],[-3.471795,51.82186],[-3.471573,51.821949],[-3.471231,51.822035],[-3.470769,51.822117],[-3.470406,51.822163],[-3.470143,51.822172],[-3.469978,51.822145],[-3.469912,51.822081],[-3.469819,51.822079],[-3.469698,51.822139],[-3.46955,51.822262],[-3.469374,51.822447],[-3.469208,51.822635],[-3.469052,51.822828],[-3.468906,51.823026],[-3.46877,51.823227],[-3.468679,51.823529],[-3.468633,51.82393],[-3.468631,51.824432],[-3.468675,51.825034],[-3.468714,51.825508],[-3.468749,51.825854],[-3.468781,51.826072],[-3.468808,51.826162],[-3.46891,51.826364],[-3.469086,51.826679],[-3.469338,51.827107],[-3.469664,51.827648],[-3.469913,51.828155],[-3.470085,51.828628],[-3.47018,51.829067],[-3.470199,51.829472],[-3.470228,51.829883],[-3.470267,51.830299],[-3.470317,51.830722],[-3.470377,51.831151],[-3.470441,51.831515],[-3.470509,51.831814],[-3.47058,51.832049],[-3.470655,51.832219],[-3.470716,51.832449],[-3.470763,51.83274],[-3.470797,51.833091],[-3.470818,51.833503],[-3.470831,51.833853],[-3.470838,51.834142],[-3.470837,51.834369],[-3.470829,51.834534],[-3.470843,51.834725],[-3.47088,51.834942],[-3.47094,51.835185],[-3.471021,51.835454],[-3.47112,51.835838],[-3.471236,51.836335],[-3.471369,51.836946],[-3.471519,51.837672],[-3.471656,51.838227],[-3.471779,51.838613],[-3.471887,51.838829],[-3.471983,51.838875],[-3.47208,51.838978],[-3.472181,51.839138],[-3.472284,51.839354],[-3.47239,51.839628],[-3.472465,51.839882],[-3.472507,51.840116],[-3.472517,51.840331],[-3.472495,51.840526],[-3.472512,51.84068],[-3.472569,51.840791],[-3.472666,51.84086],[-3.472801,51.840887],[-3.472879,51.840925],[-3.4729,51.840972],[-3.472862,51.84103],[-3.472767,51.841098],[-3.472715,51.841185],[-3.472706,51.841289],[-3.47274,51.841412],[-3.472818,51.841553],[-3.472912,51.841655],[-3.473024,51.841717],[-3.473152,51.841739],[-3.473298,51.841722],[-3.47343,51.841727],[-3.473548,51.841753],[-3.473652,51.841799],[-3.473742,51.841868],[-3.473828,51.841913],[-3.47391,51.841936],[-3.473989,51.841935],[-3.474063,51.841913],[-3.474158,51.841903],[-3.474276,51.841908],[-3.474414,51.841925],[-3.474575,51.841957],[-3.474634,51.841991],[-3.474593,51.842028],[-3.474452,51.842068],[-3.47421,51.84211],[-3.473949,51.84214],[-3.473671,51.842158],[-3.473374,51.842164],[-3.473059,51.842157],[-3.472837,51.842219],[-3.472708,51.842348],[-3.472672,51.842545],[-3.472729,51.84281],[-3.472793,51.843031],[-3.472865,51.843208],[-3.472943,51.843342],[-3.473028,51.843432],[-3.473186,51.843475],[-3.473416,51.843469],[-3.473719,51.843416],[-3.474094,51.843316],[-3.474391,51.843216],[-3.47461,51.843115],[-3.474751,51.843015],[-3.474813,51.842915],[-3.474924,51.84285],[-3.475083,51.842821],[-3.475291,51.842828],[-3.475547,51.842869],[-3.475744,51.842918],[-3.475883,51.842973],[-3.475963,51.843036],[-3.475983,51.843105],[-3.475941,51.843174],[-3.475834,51.843243],[-3.475664,51.843313],[-3.47543,51.843383],[-3.475329,51.843516],[-3.475359,51.843712],[-3.475522,51.843972],[-3.475817,51.844295],[-3.476098,51.84458],[-3.476364,51.844828],[-3.476616,51.845038],[-3.476854,51.845211],[-3.477035,51.845359],[-3.47716,51.845484],[-3.477229,51.845585],[-3.47724,51.845662],[-3.477268,51.845745],[-3.477312,51.845833],[-3.477372,51.845926],[-3.477449,51.846024],[-3.477568,51.846101],[-3.47773,51.846158],[-3.477935,51.846193],[-3.478182,51.846207],[-3.478368,51.846198],[-3.478492,51.846166],[-3.478553,51.846111],[-3.478552,51.846032],[-3.478599,51.845984],[-3.478692,51.845966],[-3.478832,51.845978],[-3.479019,51.846021],[-3.479146,51.846079],[-3.479215,51.846154],[-3.479225,51.846243],[-3.479176,51.846349],[-3.479144,51.846483],[-3.47913,51.846646],[-3.479133,51.846836],[-3.479153,51.847055],[-3.479145,51.847249],[-3.479109,51.847418],[-3.479045,51.847561],[-3.478953,51.847678],[-3.478893,51.847805],[-3.478865,51.84794],[-3.478868,51.848085],[-3.478903,51.848238],[-3.478948,51.848386],[-3.479003,51.84853],[-3.479068,51.848669],[-3.479144,51.848803],[-3.479224,51.848906],[-3.47931,51.848978],[-3.479401,51.849019],[-3.479497,51.84903],[-3.479565,51.849056],[-3.479607,51.849097],[-3.479622,51.849154],[-3.479609,51.849227],[-3.479627,51.849288],[-3.479677,51.849336],[-3.479757,51.849371],[-3.479868,51.849394],[-3.479978,51.849431],[-3.480086,51.849483],[-3.480193,51.849549],[-3.480299,51.84963],[-3.480418,51.849705],[-3.480549,51.849776],[-3.480694,51.849841],[-3.480851,51.849901],[-3.480968,51.849972],[-3.481045,51.850052],[-3.481081,51.850143],[-3.481077,51.850243],[-3.481103,51.850331],[-3.481161,51.850407],[-3.48125,51.85047],[-3.481369,51.85052],[-3.481508,51.850577],[-3.481667,51.850641],[-3.481845,51.850711],[-3.482042,51.850789],[-3.482288,51.850864],[-3.482583,51.850937],[-3.482926,51.851008],[-3.483318,51.851077],[-3.483648,51.851153],[-3.483917,51.851236],[-3.484124,51.851326],[-3.48427,51.851424],[-3.484408,51.851497],[-3.484539,51.851546],[-3.484662,51.851571],[-3.484779,51.851572],[-3.484882,51.851588],[-3.484973,51.851621],[-3.485052,51.851669],[-3.485117,51.851733],[-3.485204,51.851778],[-3.48531,51.851805],[-3.485438,51.851813],[-3.485585,51.851803],[-3.485749,51.851809],[-3.48593,51.851831],[-3.486127,51.851869],[-3.48634,51.851923],[-3.486493,51.851939],[-3.486585,51.851918],[-3.486617,51.851859],[-3.486587,51.851762],[-3.486531,51.851681],[-3.486447,51.851616],[-3.486337,51.851566],[-3.486199,51.851532],[-3.486089,51.851486],[-3.486007,51.851428],[-3.485954,51.851357],[-3.485929,51.851274],[-3.485944,51.851217],[-3.485998,51.851186],[-3.486092,51.851181],[-3.486226,51.851201],[-3.486378,51.851237],[-3.486551,51.851288],[-3.486742,51.851355],[-3.486953,51.851438],[-3.487132,51.851485],[-3.487281,51.851496],[-3.487398,51.851472],[-3.487484,51.851412],[-3.487468,51.851332],[-3.487351,51.851231],[-3.487131,51.85111],[-3.48681,51.850969],[-3.486609,51.850851],[-3.486528,51.850757],[-3.486568,51.850686],[-3.486728,51.850639],[-3.486866,51.850619],[-3.486985,51.850627],[-3.487082,51.850662],[-3.487159,51.850725],[-3.487256,51.850774],[-3.487371,51.850811],[-3.487506,51.850835],[-3.48766,51.850845],[-3.487801,51.850872],[-3.48793,51.850914],[-3.488046,51.850972],[-3.48815,51.851046],[-3.488252,51.851068],[-3.488353,51.851038],[-3.488453,51.850957],[-3.488552,51.850824],[-3.488604,51.850709],[-3.488609,51.850612],[-3.488568,51.850533],[-3.48848,51.850472],[-3.488405,51.850398],[-3.488344,51.850313],[-3.488297,51.850215],[-3.488264,51.850104],[-3.48826,51.850005],[-3.488285,51.849916],[-3.48834,51.849838],[-3.488424,51.849771],[-3.488481,51.849683],[-3.488511,51.849572],[-3.488514,51.84944],[-3.48849,51.849285],[-3.488414,51.849185],[-3.488284,51.849139],[-3.488101,51.849148],[-3.487865,51.849211],[-3.487666,51.849241],[-3.487502,51.849239],[-3.487376,51.849203],[-3.487286,51.849135],[-3.487254,51.849069],[-3.487281,51.849006],[-3.487366,51.848944],[-3.487511,51.848884],[-3.487641,51.848846],[-3.487758,51.848829],[-3.48786,51.848833],[-3.487949,51.848859],[-3.488084,51.848864],[-3.488266,51.848851],[-3.488493,51.848817],[-3.488767,51.848764],[-3.488948,51.8487],[-3.489035,51.848626],[-3.48903,51.848541],[-3.488931,51.848445],[-3.48878,51.848396],[-3.488577,51.848395],[-3.488321,51.848441],[-3.488013,51.848533],[-3.487759,51.848606],[-3.487561,51.848657],[-3.487416,51.848688],[-3.487327,51.848698],[-3.487263,51.848681],[-3.487226,51.848635],[-3.487216,51.848561],[-3.487231,51.84846],[-3.4872,51.848367],[-3.487122,51.848283],[-3.486998,51.848208],[-3.486827,51.848142],[-3.486759,51.848089],[-3.486794,51.84805],[-3.48693,51.848023],[-3.48717,51.84801],[-3.487285,51.847968],[-3.487275,51.847897],[-3.487141,51.847799],[-3.486882,51.847672],[-3.486747,51.847582],[-3.486737,51.847529],[-3.486851,51.847514],[-3.48709,51.847537],[-3.487284,51.847516],[-3.487433,51.847452],[-3.487536,51.847346],[-3.487595,51.847196],[-3.487588,51.847068],[-3.487516,51.846962],[-3.487377,51.846879],[-3.487173,51.846816],[-3.486969,51.846774],[-3.486765,51.846751],[-3.486561,51.846748],[-3.486357,51.846764],[-3.486211,51.846753],[-3.486124,51.846713],[-3.486095,51.846645],[-3.486123,51.846549],[-3.486244,51.846478],[-3.486456,51.846432],[-3.48676,51.846411],[-3.487155,51.846415],[-3.487463,51.846399],[-3.487684,51.846363],[-3.487818,51.846306],[-3.487864,51.846229],[-3.487921,51.846141],[-3.487989,51.84604],[-3.488068,51.845927],[-3.488158,51.845803],[-3.488187,51.845688],[-3.488155,51.845585],[-3.488063,51.845492],[-3.487911,51.84541],[-3.487765,51.84535],[-3.487626,51.845312],[-3.487494,51.845297],[-3.487369,51.845305],[-3.487251,51.84527],[-3.487141,51.845194],[-3.487038,51.845075],[-3.486943,51.844915],[-3.486897,51.844782],[-3.486901,51.844679],[-3.486953,51.844603],[-3.487054,51.844555],[-3.487123,51.844474],[-3.487157,51.84436],[-3.487159,51.844211],[-3.487127,51.844029],[-3.487104,51.843839],[-3.48709,51.843641],[-3.487085,51.843434],[-3.487089,51.843219],[-3.487133,51.843018],[-3.487215,51.84283],[-3.487336,51.842655],[-3.487495,51.842494],[-3.487616,51.842357],[-3.487698,51.842244],[-3.48774,51.842155],[-3.487744,51.84209],[-3.487815,51.84203],[-3.487955,51.841975],[-3.488163,51.841924],[-3.488438,51.841878],[-3.48867,51.841849],[-3.488858,51.841838],[-3.489002,51.841844],[-3.489102,51.841869],[-3.489171,51.841905],[-3.489209,51.841954],[-3.489217,51.842016],[-3.489193,51.84209],[-3.489118,51.84214],[-3.488992,51.842165],[-3.488816,51.842166],[-3.488588,51.842142],[-3.488422,51.842147],[-3.488316,51.842181],[-3.488271,51.842243],[-3.488287,51.842334],[-3.488319,51.842409],[-3.488366,51.842468],[-3.488428,51.842511],[-3.488505,51.842538],[-3.488614,51.842627],[-3.488753,51.842779],[-3.488922,51.842993],[-3.489122,51.84327],[-3.489278,51.84343],[-3.48939,51.843474],[-3.489458,51.843402],[-3.489482,51.843214],[-3.489551,51.84305],[-3.489665,51.842912],[-3.489825,51.842799],[-3.49003,51.842711],[-3.490209,51.842651],[-3.490362,51.842619],[-3.490488,51.842615],[-3.490588,51.842639],[-3.490656,51.842708],[-3.49069,51.842822],[-3.490692,51.842981],[-3.490661,51.843184],[-3.490642,51.843351],[-3.490635,51.84348],[-3.49064,51.843572],[-3.490657,51.843628],[-3.490639,51.843676],[-3.490588,51.843718],[-3.490503,51.843753],[-3.490384,51.843781],[-3.490298,51.843812],[-3.490245,51.843847],[-3.490225,51.843885],[-3.490237,51.843926],[-3.490205,51.843975],[-3.490129,51.84403],[-3.490009,51.844092],[-3.489845,51.844161],[-3.489711,51.844228],[-3.48961,51.844294],[-3.489539,51.844357],[-3.4895,51.844419],[-3.489503,51.844486],[-3.489548,51.84456],[-3.489636,51.844639],[-3.489766,51.844724],[-3.489885,51.844781],[-3.489993,51.844812],[-3.49009,51.844815],[-3.490175,51.84479],[-3.490236,51.844742],[-3.490272,51.84467],[-3.490283,51.844574],[-3.49027,51.844455],[-3.490334,51.844378],[-3.490474,51.844343],[-3.490691,51.844352],[-3.490985,51.844404],[-3.491237,51.844393],[-3.491446,51.844318],[-3.491613,51.844181],[-3.491738,51.843981],[-3.491865,51.843816],[-3.491993,51.843687],[-3.492124,51.843593],[-3.492257,51.843535],[-3.492388,51.843449],[-3.492515,51.843334],[-3.49264,51.843191],[-3.492762,51.84302],[-3.492828,51.842867],[-3.49284,51.842734],[-3.492797,51.842619],[-3.492698,51.842523],[-3.492648,51.842397],[-3.492647,51.84224],[-3.492694,51.842053],[-3.49279,51.841834],[-3.49281,51.84168],[-3.492754,51.84159],[-3.492621,51.841565],[-3.492413,51.841603],[-3.492249,51.84159],[-3.492131,51.841525],[-3.492058,51.841408],[-3.49203,51.84124],[-3.491932,51.841119],[-3.491765,51.841046],[-3.491528,51.84102],[-3.491222,51.841041],[-3.490898,51.841062],[-3.490557,51.841084],[-3.490198,51.841106],[-3.489822,51.841128],[-3.48949,51.841161],[-3.489202,51.841205],[-3.488958,51.84126],[-3.488758,51.841326],[-3.488575,51.841374],[-3.488411,51.841404],[-3.488263,51.841416],[-3.488134,51.841409],[-3.48805,51.841371],[-3.488011,51.8413],[-3.488018,51.841198],[-3.48807,51.841063],[-3.488165,51.840938],[-3.488303,51.840822],[-3.488485,51.840715],[-3.488711,51.840618],[-3.488878,51.840529],[-3.488987,51.840448],[-3.489038,51.840376],[-3.48903,51.840313],[-3.488987,51.840257],[-3.488909,51.840209],[-3.488795,51.840169],[-3.488646,51.840136],[-3.488556,51.840078],[-3.488525,51.839996],[-3.488554,51.839889],[-3.488641,51.839758],[-3.488759,51.839689],[-3.488908,51.839682],[-3.489087,51.839738],[-3.489297,51.839857],[-3.489514,51.839932],[-3.489738,51.839963],[-3.489969,51.83995],[-3.490207,51.839894],[-3.490397,51.839822],[-3.490538,51.839735],[-3.490631,51.839631],[-3.490676,51.839511],[-3.490682,51.839425],[-3.490648,51.839372],[-3.490576,51.839352],[-3.490464,51.839365],[-3.490375,51.839387],[-3.490309,51.83942],[-3.490267,51.839462],[-3.490248,51.839515],[-3.490203,51.839557],[-3.490132,51.839591],[-3.490035,51.839614],[-3.489912,51.839629],[-3.489831,51.83962],[-3.489793,51.839589],[-3.489796,51.839535],[-3.489843,51.839458],[-3.489894,51.839379],[-3.48995,51.839297],[-3.490012,51.839213],[-3.490078,51.839127],[-3.490088,51.839033],[-3.490039,51.838932],[-3.489934,51.838822],[-3.489771,51.838706],[-3.489663,51.8386],[-3.489612,51.838506],[-3.489616,51.838424],[-3.489675,51.838352],[-3.489766,51.83829],[-3.489889,51.838237],[-3.490044,51.838192],[-3.49023,51.838156],[-3.490372,51.838116],[-3.490469,51.838073],[-3.490521,51.838026],[-3.490529,51.837975],[-3.490501,51.837934],[-3.49044,51.837901],[-3.490343,51.837879],[-3.490211,51.837865],[-3.490131,51.837821],[-3.490103,51.837746],[-3.490125,51.83764],[-3.4902,51.837503],[-3.490291,51.837392],[-3.490399,51.837308],[-3.490523,51.837251],[-3.490665,51.83722],[-3.490745,51.83717],[-3.490764,51.8371],[-3.490722,51.83701],[-3.49062,51.8369],[-3.490598,51.836828],[-3.490656,51.836793],[-3.490796,51.836794],[-3.491016,51.836833],[-3.491183,51.836915],[-3.491297,51.837042],[-3.491357,51.837211],[-3.491364,51.837425],[-3.491427,51.837575],[-3.491546,51.837661],[-3.491721,51.837683],[-3.491952,51.837642],[-3.492116,51.837591],[-3.492213,51.83753],[-3.492244,51.837459],[-3.492208,51.837377],[-3.492221,51.837299],[-3.492285,51.837223],[-3.4924,51.837151],[-3.492564,51.837082],[-3.492775,51.836995],[-3.493033,51.83689],[-3.493338,51.836768],[-3.49369,51.836627],[-3.493958,51.836451],[-3.494143,51.83624],[-3.494245,51.835995],[-3.494264,51.835714],[-3.494295,51.835471],[-3.494337,51.835266],[-3.494391,51.835099],[-3.494456,51.83497],[-3.494454,51.83488],[-3.494386,51.834827],[-3.494251,51.834812],[-3.49405,51.834835],[-3.4939,51.83484],[-3.493804,51.834826],[-3.493759,51.834794],[-3.493767,51.834743],[-3.493828,51.834698],[-3.493944,51.83466],[-3.494114,51.834628],[-3.494338,51.834602],[-3.494484,51.834549],[-3.494553,51.83447],[-3.494544,51.834364],[-3.494457,51.834231],[-3.49442,51.834128],[-3.494433,51.834055],[-3.494495,51.834012],[-3.494607,51.833999],[-3.494766,51.833931],[-3.494972,51.833807],[-3.495225,51.833628],[-3.495524,51.833393],[-3.495683,51.833218],[-3.495699,51.833101],[-3.495575,51.833044],[-3.495309,51.833047],[-3.495111,51.832996],[-3.494981,51.832894],[-3.49492,51.832738],[-3.494926,51.83253],[-3.494934,51.832308],[-3.494943,51.832071],[-3.494954,51.83182],[-3.494966,51.831554],[-3.494919,51.831296],[-3.494814,51.831044],[-3.494649,51.830798],[-3.494426,51.83056],[-3.494225,51.830364],[-3.494045,51.830209],[-3.493886,51.830097],[-3.493749,51.830028],[-3.493639,51.829933],[-3.493557,51.829814],[-3.493502,51.829671],[-3.493474,51.829502],[-3.493389,51.829328],[-3.493247,51.829148],[-3.493049,51.828962],[-3.492794,51.828771],[-3.49257,51.828655],[-3.492379,51.828617],[-3.49222,51.828655],[-3.492092,51.82877],[-3.491956,51.828827],[-3.491811,51.828826],[-3.491657,51.828767],[-3.491494,51.82865],[-3.491256,51.828495],[-3.490942,51.828303],[-3.490554,51.828073]]]}}