{"type":"Feature","properties":{"id":"266086","COMMUNE":"Rhondda Cynon Taf","PROVINCE":"Central Valleys","COUNTRY":"UK","FIREDATE":"2025-03-30 20:44:00","CLASS":"FireSeason","areaHA_geo":26.772},"geometry":{"type":"Polygon","coordinates":[[[-3.38886,51.678731],[-3.388895,51.678636],[-3.388887,51.678555],[-3.388835,51.678487],[-3.388738,51.678433],[-3.388597,51.678392],[-3.388503,51.678345],[-3.388454,51.678291],[-3.388452,51.67823],[-3.388496,51.678162],[-3.388502,51.678104],[-3.388468,51.678053],[-3.388396,51.678012],[-3.388285,51.677979],[-3.388213,51.677937],[-3.388178,51.677884],[-3.388183,51.677821],[-3.388225,51.677748],[-3.388226,51.677668],[-3.388187,51.677582],[-3.388106,51.677489],[-3.387984,51.677389],[-3.387911,51.677307],[-3.387887,51.677241],[-3.387912,51.677193],[-3.387985,51.677162],[-3.388066,51.677117],[-3.388154,51.677059],[-3.38825,51.676987],[-3.388352,51.676901],[-3.388424,51.676826],[-3.388465,51.676762],[-3.388474,51.676708],[-3.388452,51.676665],[-3.388444,51.676616],[-3.388451,51.676562],[-3.388471,51.676501],[-3.388507,51.676435],[-3.388501,51.676348],[-3.388456,51.676243],[-3.38837,51.676118],[-3.388244,51.675973],[-3.38813,51.67586],[-3.388028,51.675778],[-3.387937,51.675728],[-3.387857,51.675708],[-3.387783,51.675659],[-3.387713,51.675579],[-3.387648,51.675468],[-3.387587,51.675328],[-3.387562,51.675214],[-3.387573,51.675128],[-3.38762,51.675068],[-3.387702,51.675036],[-3.387757,51.674983],[-3.387785,51.674909],[-3.387787,51.674813],[-3.387761,51.674697],[-3.387722,51.674604],[-3.387668,51.674533],[-3.387601,51.674486],[-3.38752,51.674461],[-3.387482,51.674433],[-3.387486,51.674401],[-3.387533,51.674366],[-3.387623,51.674327],[-3.387683,51.674284],[-3.387715,51.674238],[-3.387719,51.674188],[-3.387693,51.674134],[-3.387614,51.674101],[-3.387482,51.674087],[-3.387296,51.674095],[-3.387056,51.674122],[-3.386849,51.674106],[-3.386675,51.674047],[-3.386534,51.673944],[-3.386426,51.673797],[-3.386317,51.673679],[-3.386208,51.67359],[-3.386098,51.673529],[-3.385987,51.673496],[-3.385872,51.673464],[-3.385752,51.673432],[-3.385628,51.673401],[-3.385499,51.67337],[-3.385417,51.673378],[-3.38538,51.673425],[-3.38539,51.673511],[-3.385445,51.673635],[-3.385464,51.673721],[-3.385446,51.673768],[-3.385392,51.673777],[-3.3853,51.673748],[-3.38522,51.673711],[-3.385151,51.673665],[-3.385093,51.67361],[-3.385047,51.673547],[-3.385014,51.673474],[-3.384994,51.673392],[-3.384986,51.673299],[-3.384992,51.673196],[-3.384954,51.673121],[-3.384871,51.673074],[-3.384743,51.673054],[-3.384571,51.673063],[-3.384375,51.673037],[-3.384155,51.672977],[-3.383911,51.672883],[-3.383643,51.672755],[-3.383413,51.672675],[-3.38322,51.672643],[-3.383064,51.67266],[-3.382945,51.672725],[-3.382846,51.67279],[-3.382764,51.672856],[-3.382702,51.672923],[-3.382658,51.672991],[-3.382584,51.673044],[-3.382482,51.673085],[-3.382349,51.673111],[-3.382188,51.673124],[-3.382028,51.673117],[-3.381868,51.67309],[-3.381709,51.673043],[-3.381551,51.672976],[-3.38143,51.672946],[-3.381345,51.672953],[-3.381296,51.672997],[-3.381283,51.673078],[-3.381247,51.673132],[-3.381186,51.673159],[-3.381101,51.673159],[-3.380992,51.673131],[-3.380879,51.673116],[-3.380763,51.673112],[-3.380644,51.67312],[-3.380521,51.67314],[-3.380428,51.673134],[-3.380363,51.673102],[-3.380327,51.673043],[-3.38032,51.672959],[-3.380282,51.672894],[-3.380213,51.672848],[-3.380113,51.672821],[-3.379983,51.672813],[-3.379836,51.672806],[-3.379673,51.672799],[-3.379494,51.672793],[-3.3793,51.672787],[-3.379176,51.672758],[-3.379124,51.672707],[-3.379144,51.672634],[-3.379235,51.672539],[-3.379268,51.672458],[-3.379244,51.672393],[-3.379162,51.672342],[-3.379023,51.672307],[-3.378886,51.672271],[-3.37875,51.672232],[-3.378617,51.672192],[-3.378485,51.672151],[-3.378341,51.672071],[-3.378187,51.671952],[-3.37802,51.671795],[-3.377842,51.6716],[-3.377619,51.671421],[-3.37735,51.671259],[-3.377036,51.671113],[-3.376676,51.670985],[-3.376377,51.670884],[-3.376139,51.670812],[-3.375963,51.670768],[-3.375849,51.670753],[-3.375746,51.670701],[-3.375655,51.670612],[-3.375576,51.670486],[-3.375509,51.670324],[-3.375438,51.670211],[-3.375365,51.670149],[-3.375287,51.670136],[-3.375207,51.670174],[-3.375097,51.670198],[-3.374958,51.670208],[-3.374789,51.670205],[-3.374591,51.670188],[-3.374416,51.670185],[-3.374263,51.670197],[-3.374134,51.670224],[-3.374026,51.670264],[-3.373917,51.670288],[-3.373804,51.670296],[-3.373689,51.670286],[-3.373571,51.67026],[-3.373441,51.670225],[-3.373299,51.670182],[-3.373146,51.67013],[-3.372981,51.670069],[-3.372843,51.670031],[-3.372733,51.670016],[-3.37265,51.670022],[-3.372594,51.670052],[-3.372558,51.670084],[-3.372541,51.67012],[-3.372544,51.67016],[-3.372566,51.670202],[-3.372563,51.670245],[-3.372534,51.670288],[-3.372481,51.670332],[-3.372402,51.670375],[-3.372408,51.670418],[-3.372499,51.670462],[-3.372675,51.670505],[-3.372936,51.670549],[-3.373178,51.670589],[-3.3734,51.670626],[-3.373603,51.67066],[-3.373786,51.67069],[-3.373973,51.670723],[-3.374164,51.670761],[-3.374357,51.670803],[-3.374555,51.670848],[-3.374682,51.670914],[-3.374741,51.671001],[-3.374729,51.671109],[-3.374648,51.671238],[-3.374624,51.671334],[-3.374657,51.671399],[-3.374747,51.671431],[-3.374894,51.671431],[-3.375015,51.671451],[-3.37511,51.671491],[-3.375178,51.671552],[-3.375221,51.671632],[-3.375282,51.67172],[-3.375361,51.671816],[-3.375459,51.67192],[-3.375575,51.672031],[-3.37575,51.672125],[-3.375983,51.6722],[-3.376276,51.672257],[-3.376627,51.672296],[-3.37693,51.672357],[-3.377184,51.672438],[-3.377389,51.672541],[-3.377546,51.672665],[-3.377695,51.672781],[-3.377838,51.67289],[-3.377974,51.67299],[-3.378103,51.673084],[-3.378214,51.673172],[-3.378308,51.673254],[-3.378384,51.673332],[-3.378442,51.673405],[-3.378491,51.673475],[-3.378529,51.673541],[-3.378557,51.673605],[-3.378575,51.673665],[-3.378682,51.673737],[-3.378876,51.673819],[-3.379159,51.673913],[-3.379531,51.674018],[-3.379788,51.674058],[-3.379932,51.674033],[-3.379963,51.673943],[-3.379879,51.673788],[-3.3799,51.673672],[-3.380024,51.673595],[-3.380251,51.673557],[-3.380582,51.673559],[-3.380841,51.673587],[-3.381028,51.673643],[-3.381142,51.673725],[-3.381184,51.673833],[-3.381235,51.673928],[-3.381296,51.674009],[-3.381367,51.674076],[-3.381447,51.67413],[-3.381515,51.67419],[-3.381572,51.674257],[-3.381617,51.674332],[-3.381651,51.674413],[-3.381721,51.674479],[-3.381828,51.674529],[-3.381972,51.674563],[-3.382152,51.674582],[-3.382267,51.674632],[-3.382319,51.674711],[-3.382306,51.67482],[-3.382228,51.67496],[-3.382202,51.675074],[-3.382229,51.675161],[-3.382307,51.675223],[-3.382437,51.67526],[-3.382507,51.675294],[-3.382517,51.675327],[-3.382467,51.675358],[-3.382356,51.675388],[-3.382306,51.675427],[-3.382315,51.675474],[-3.382385,51.67553],[-3.382514,51.675594],[-3.382656,51.67566],[-3.382809,51.675728],[-3.382975,51.675797],[-3.383152,51.675867],[-3.383335,51.675919],[-3.383524,51.675951],[-3.383718,51.675964],[-3.383918,51.675958],[-3.384102,51.675974],[-3.38427,51.676011],[-3.384421,51.67607],[-3.384555,51.676151],[-3.384634,51.67623],[-3.384657,51.676307],[-3.384624,51.676382],[-3.384536,51.676455],[-3.384512,51.67652],[-3.384552,51.676578],[-3.384657,51.676628],[-3.384826,51.676671],[-3.384984,51.676757],[-3.385133,51.676884],[-3.385271,51.677054],[-3.385399,51.677267],[-3.385472,51.677442],[-3.38549,51.677579],[-3.385453,51.677678],[-3.385361,51.67774],[-3.385308,51.677799],[-3.385292,51.677854],[-3.385315,51.677907],[-3.385376,51.677957],[-3.385372,51.678013],[-3.385303,51.678075],[-3.38517,51.678142],[-3.384972,51.678216],[-3.38482,51.678299],[-3.384714,51.678391],[-3.384654,51.678492],[-3.384641,51.678601],[-3.384645,51.678698],[-3.384666,51.678784],[-3.384704,51.678858],[-3.38476,51.67892],[-3.384824,51.67898],[-3.384897,51.67904],[-3.384979,51.679099],[-3.385069,51.679157],[-3.385166,51.679181],[-3.385269,51.679172],[-3.385378,51.679129],[-3.385493,51.679054],[-3.385567,51.678977],[-3.385599,51.6789],[-3.385589,51.678821],[-3.385538,51.678742],[-3.385516,51.678671],[-3.385525,51.678607],[-3.385563,51.678552],[-3.385632,51.678504],[-3.385708,51.678491],[-3.385793,51.678512],[-3.385885,51.678568],[-3.385986,51.678659],[-3.38607,51.678757],[-3.386139,51.678863],[-3.386191,51.678976],[-3.386227,51.679097],[-3.38627,51.679194],[-3.38632,51.679268],[-3.386376,51.679318],[-3.386439,51.679345],[-3.386539,51.679365],[-3.386676,51.679377],[-3.38685,51.679383],[-3.387061,51.679381],[-3.387243,51.679376],[-3.387397,51.679367],[-3.387521,51.679354],[-3.387617,51.679337],[-3.387712,51.679308],[-3.387805,51.679266],[-3.387897,51.679211],[-3.387987,51.679144],[-3.388009,51.679082],[-3.387965,51.679025],[-3.387852,51.678972],[-3.387673,51.678925],[-3.38756,51.678878],[-3.387514,51.678832],[-3.387535,51.678787],[-3.387623,51.678743],[-3.387755,51.678722],[-3.38793,51.678725],[-3.388149,51.678751],[-3.388412,51.6788],[-3.388618,51.678813],[-3.388767,51.67879],[-3.38886,51.678731]]]}}