{"type":"Feature","properties":{"id":"266018","COMMUNE":"Dumfries and Galloway","PROVINCE":"Dumfries & Galloway","COUNTRY":"UK","FIREDATE":"2025-03-18 17:49:52.678","FINALDATE":"2025-03-19 17:49:54.843","CLASS":"FireSeason","areaHA_geo":6.655},"geometry":{"type":"Polygon","coordinates":[[[-4.924174,54.959766],[-4.924242,54.959932],[-4.924339,54.960061],[-4.924463,54.960154],[-4.924617,54.960211],[-4.924755,54.960218],[-4.924877,54.960176],[-4.924984,54.960084],[-4.925075,54.959943],[-4.925163,54.959858],[-4.925249,54.959831],[-4.925332,54.95986],[-4.925412,54.959947],[-4.925511,54.96001],[-4.925628,54.960051],[-4.925764,54.960069],[-4.925918,54.960064],[-4.926054,54.960025],[-4.926171,54.959953],[-4.926269,54.959847],[-4.926348,54.959706],[-4.926452,54.959591],[-4.92658,54.9595],[-4.926732,54.959433],[-4.926909,54.959391],[-4.927034,54.959294],[-4.927109,54.959141],[-4.927133,54.958932],[-4.927106,54.958667],[-4.927123,54.958442],[-4.927186,54.958255],[-4.927293,54.958109],[-4.927444,54.958001],[-4.927561,54.957889],[-4.927644,54.957772],[-4.927692,54.957652],[-4.927705,54.957526],[-4.927625,54.957402],[-4.927453,54.957279],[-4.927188,54.957156],[-4.92683,54.957034],[-4.926511,54.956935],[-4.926231,54.956859],[-4.925989,54.956806],[-4.925785,54.956776],[-4.925581,54.956768],[-4.925377,54.956782],[-4.925172,54.956819],[-4.924966,54.956878],[-4.924818,54.956949],[-4.924729,54.957032],[-4.924699,54.957127],[-4.924727,54.957233],[-4.924714,54.957343],[-4.92466,54.957456],[-4.924565,54.957572],[-4.92443,54.957692],[-4.924327,54.957817],[-4.924256,54.95795],[-4.924218,54.958088],[-4.924213,54.958233],[-4.924187,54.95835],[-4.924142,54.958437],[-4.924077,54.958497],[-4.923993,54.958528],[-4.923917,54.958575],[-4.923851,54.958638],[-4.923793,54.958717],[-4.923745,54.958812],[-4.923681,54.958897],[-4.923601,54.958972],[-4.923505,54.959037],[-4.923393,54.959091],[-4.923318,54.959155],[-4.92328,54.959229],[-4.923278,54.959311],[-4.923312,54.959403],[-4.923383,54.959455],[-4.923489,54.959466],[-4.923631,54.959437],[-4.923809,54.959367],[-4.923952,54.959365],[-4.924061,54.959431],[-4.924135,54.959565],[-4.924174,54.959766]]]}}