{"type":"Feature","properties":{"id":"266005","COMMUNE":"Perth and Kinross","PROVINCE":"Perth & Kinross and Stirling","COUNTRY":"UK","FIREDATE":"2025-04-04 11:47:00","CLASS":"FireSeason","areaHA_geo":1.516},"geometry":{"type":"Polygon","coordinates":[[[-3.474257,56.869239],[-3.474277,56.869319],[-3.474245,56.869409],[-3.47416,56.86951],[-3.474023,56.869621],[-3.474049,56.869668],[-3.474238,56.869652],[-3.47459,56.869571],[-3.475105,56.869427],[-3.475525,56.869285],[-3.475853,56.869145],[-3.476086,56.869006],[-3.476225,56.868869],[-3.476228,56.868738],[-3.476095,56.868613],[-3.475825,56.868495],[-3.475419,56.868383],[-3.475018,56.868326],[-3.474622,56.868325],[-3.474232,56.868381],[-3.473847,56.868492],[-3.473609,56.8686],[-3.473517,56.868707],[-3.473572,56.86881],[-3.473774,56.868912],[-3.473943,56.869005],[-3.47408,56.869091],[-3.474185,56.869169],[-3.474257,56.869239]]]}}