{"type":"Feature","properties":{"id":"266041","COMMUNE":"Newry, Mourne and Down","PROVINCE":"Newry, Mourne and Down","COUNTRY":"UK","FIREDATE":"2025-04-07 01:24:00","CLASS":"FireSeason","areaHA_geo":129.69},"geometry":{"type":"Polygon","coordinates":[[[-5.897446,54.179647],[-5.897626,54.179763],[-5.897812,54.179831],[-5.898005,54.179853],[-5.898203,54.179827],[-5.89838,54.179765],[-5.898536,54.179668],[-5.898672,54.179535],[-5.898786,54.179366],[-5.898944,54.179228],[-5.899145,54.179121],[-5.899389,54.179045],[-5.899677,54.178999],[-5.899913,54.178938],[-5.900098,54.178861],[-5.900232,54.178769],[-5.900315,54.178661],[-5.900408,54.17856],[-5.90051,54.178466],[-5.900621,54.178378],[-5.900743,54.178298],[-5.900881,54.178227],[-5.901038,54.178166],[-5.901212,54.178115],[-5.901404,54.178074],[-5.901592,54.178031],[-5.901776,54.177986],[-5.901956,54.177941],[-5.902132,54.177893],[-5.902325,54.177838],[-5.902536,54.177774],[-5.902765,54.177701],[-5.903011,54.177621],[-5.903291,54.177566],[-5.903606,54.177537],[-5.903955,54.177533],[-5.904338,54.177556],[-5.90467,54.177545],[-5.904951,54.1775],[-5.90518,54.177421],[-5.905359,54.177309],[-5.905604,54.177244],[-5.905917,54.177228],[-5.906296,54.177259],[-5.906743,54.177338],[-5.907098,54.177384],[-5.90736,54.177398],[-5.90753,54.17738],[-5.907607,54.17733],[-5.907767,54.177295],[-5.908009,54.177275],[-5.908333,54.177271],[-5.90874,54.177282],[-5.909103,54.177332],[-5.909421,54.177419],[-5.909696,54.177545],[-5.909926,54.177709],[-5.910147,54.177868],[-5.91036,54.178022],[-5.910564,54.178171],[-5.910759,54.178315],[-5.910957,54.178423],[-5.911157,54.178493],[-5.911361,54.178527],[-5.911568,54.178524],[-5.91177,54.178534],[-5.911966,54.178557],[-5.912157,54.178593],[-5.912342,54.178641],[-5.912499,54.178695],[-5.912626,54.178755],[-5.912725,54.178821],[-5.912794,54.178893],[-5.912883,54.178926],[-5.912992,54.17892],[-5.91312,54.178875],[-5.913268,54.178791],[-5.91332,54.178703],[-5.913278,54.178611],[-5.91314,54.178516],[-5.912907,54.178417],[-5.912725,54.178296],[-5.912592,54.178152],[-5.91251,54.177985],[-5.912477,54.177795],[-5.912504,54.177686],[-5.912591,54.177659],[-5.912737,54.177712],[-5.912942,54.177847],[-5.913104,54.177971],[-5.913225,54.178085],[-5.913303,54.178188],[-5.913339,54.17828],[-5.913466,54.17832],[-5.913683,54.178308],[-5.913991,54.178243],[-5.914389,54.178126],[-5.914664,54.177995],[-5.914816,54.17785],[-5.914844,54.177691],[-5.914748,54.177517],[-5.914684,54.17737],[-5.914651,54.177249],[-5.914649,54.177154],[-5.914677,54.177086],[-5.914745,54.177019],[-5.914851,54.176952],[-5.914995,54.176887],[-5.915178,54.176822],[-5.915387,54.176779],[-5.915621,54.176756],[-5.91588,54.176755],[-5.916165,54.176774],[-5.916405,54.176785],[-5.9166,54.176787],[-5.916751,54.176782],[-5.916856,54.176768],[-5.916922,54.176794],[-5.916947,54.176859],[-5.916933,54.176964],[-5.916878,54.177109],[-5.916857,54.177223],[-5.916868,54.177306],[-5.916913,54.177359],[-5.916991,54.177381],[-5.917125,54.177377],[-5.917315,54.177348],[-5.917561,54.177294],[-5.917863,54.177214],[-5.918102,54.177134],[-5.918279,54.177054],[-5.918394,54.176975],[-5.918446,54.176895],[-5.918638,54.176791],[-5.918969,54.176663],[-5.91944,54.17651],[-5.920051,54.176333],[-5.920526,54.176182],[-5.920866,54.176056],[-5.92107,54.175957],[-5.921138,54.175883],[-5.92123,54.175835],[-5.921346,54.175811],[-5.921486,54.175813],[-5.921649,54.17584],[-5.921836,54.17585],[-5.922048,54.175843],[-5.922285,54.175818],[-5.922546,54.175775],[-5.922747,54.175713],[-5.922888,54.175629],[-5.922969,54.175526],[-5.92299,54.175402],[-5.923071,54.175298],[-5.923212,54.175215],[-5.923413,54.175152],[-5.923674,54.17511],[-5.923878,54.175099],[-5.924025,54.17512],[-5.924115,54.175173],[-5.924148,54.175258],[-5.924196,54.175347],[-5.92426,54.175439],[-5.924339,54.175536],[-5.924434,54.175637],[-5.924552,54.1757],[-5.924694,54.175726],[-5.92486,54.175714],[-5.925049,54.175665],[-5.925202,54.175605],[-5.925319,54.175533],[-5.925401,54.175449],[-5.925448,54.175354],[-5.925475,54.175266],[-5.925485,54.175184],[-5.925476,54.175108],[-5.925449,54.175039],[-5.925466,54.174984],[-5.925527,54.174944],[-5.925631,54.174918],[-5.925779,54.174906],[-5.925938,54.174823],[-5.926106,54.174668],[-5.926284,54.17444],[-5.926473,54.17414],[-5.926593,54.173906],[-5.926645,54.173738],[-5.926629,54.173635],[-5.926545,54.173597],[-5.926494,54.173546],[-5.926475,54.173479],[-5.926489,54.173399],[-5.926535,54.173304],[-5.926609,54.173237],[-5.926713,54.1732],[-5.926844,54.17319],[-5.927004,54.17321],[-5.927146,54.173163],[-5.927268,54.17305],[-5.927372,54.172871],[-5.927456,54.172625],[-5.927388,54.172424],[-5.927167,54.172267],[-5.926794,54.172154],[-5.926268,54.172086],[-5.925569,54.172028],[-5.924698,54.17198],[-5.923653,54.171944],[-5.922436,54.171917],[-5.921469,54.171893],[-5.920753,54.171869],[-5.920287,54.171848],[-5.920071,54.171828],[-5.919745,54.17181],[-5.919309,54.171794],[-5.918762,54.171781],[-5.918106,54.17177],[-5.917587,54.171781],[-5.917205,54.171815],[-5.91696,54.171872],[-5.916852,54.171951],[-5.916726,54.171991],[-5.916581,54.171994],[-5.916418,54.171959],[-5.916237,54.171886],[-5.916016,54.171818],[-5.915756,54.171755],[-5.915456,54.171697],[-5.915117,54.171645],[-5.914787,54.171627],[-5.914468,54.171645],[-5.914159,54.171697],[-5.913861,54.171785],[-5.913542,54.171928],[-5.913203,54.172126],[-5.912844,54.172379],[-5.912464,54.172687],[-5.91213,54.172941],[-5.91184,54.173141],[-5.911595,54.173286],[-5.911395,54.173377],[-5.911235,54.173485],[-5.911117,54.17361],[-5.911041,54.173751],[-5.911005,54.173909],[-5.910915,54.174034],[-5.910771,54.174126],[-5.910571,54.174185],[-5.910318,54.17421],[-5.910102,54.174252],[-5.909924,54.174312],[-5.909784,54.174389],[-5.909682,54.174483],[-5.909529,54.174545],[-5.909326,54.174576],[-5.909073,54.174575],[-5.908769,54.174542],[-5.908465,54.174509],[-5.90816,54.174476],[-5.907856,54.174443],[-5.907552,54.17441],[-5.907304,54.17437],[-5.907112,54.174323],[-5.906976,54.174268],[-5.906897,54.174205],[-5.906719,54.17414],[-5.906442,54.174071],[-5.906067,54.173999],[-5.905594,54.173923],[-5.905177,54.173869],[-5.904817,54.173835],[-5.904514,54.173822],[-5.904268,54.17383],[-5.904041,54.173818],[-5.903834,54.173784],[-5.903646,54.17373],[-5.903478,54.173655],[-5.90344,54.173565],[-5.903531,54.17346],[-5.903751,54.17334],[-5.904101,54.173206],[-5.904427,54.173074],[-5.904731,54.172945],[-5.905011,54.172819],[-5.905269,54.172697],[-5.905393,54.172551],[-5.905382,54.172383],[-5.905239,54.172192],[-5.904961,54.171977],[-5.904436,54.17184],[-5.903663,54.17178],[-5.902643,54.171796],[-5.901376,54.171889],[-5.90011,54.171986],[-5.898845,54.172087],[-5.897582,54.172192],[-5.896321,54.172301],[-5.895212,54.17241],[-5.894256,54.172519],[-5.893452,54.172628],[-5.892801,54.172737],[-5.892266,54.172832],[-5.891846,54.172911],[-5.891541,54.172975],[-5.891352,54.173024],[-5.891091,54.173074],[-5.890757,54.173126],[-5.890351,54.173179],[-5.889873,54.173234],[-5.889422,54.173269],[-5.888998,54.173284],[-5.888601,54.173279],[-5.888231,54.173255],[-5.887891,54.173263],[-5.887581,54.173304],[-5.8873,54.173377],[-5.88705,54.173482],[-5.886888,54.173582],[-5.886814,54.173677],[-5.886828,54.173766],[-5.88693,54.173849],[-5.887113,54.173929],[-5.887378,54.174003],[-5.887724,54.174073],[-5.888151,54.174138],[-5.888495,54.174229],[-5.888755,54.174344],[-5.888931,54.174485],[-5.889023,54.17465],[-5.889169,54.174793],[-5.889368,54.174913],[-5.889621,54.175009],[-5.889926,54.175082],[-5.890174,54.175167],[-5.890365,54.175263],[-5.890497,54.175371],[-5.890571,54.175491],[-5.890659,54.175584],[-5.890762,54.175652],[-5.890879,54.175693],[-5.891009,54.175708],[-5.891089,54.175752],[-5.891117,54.175825],[-5.891095,54.175927],[-5.891021,54.176058],[-5.890963,54.176185],[-5.89092,54.176308],[-5.890893,54.176427],[-5.890883,54.176541],[-5.890889,54.176647],[-5.890913,54.176745],[-5.890955,54.176835],[-5.891014,54.176916],[-5.891081,54.176988],[-5.891154,54.177051],[-5.891234,54.177105],[-5.891321,54.177151],[-5.891413,54.177209],[-5.89151,54.177281],[-5.891613,54.177367],[-5.891721,54.177466],[-5.891843,54.177547],[-5.891978,54.17761],[-5.892128,54.177655],[-5.892291,54.177683],[-5.892433,54.177692],[-5.892555,54.177684],[-5.892656,54.177659],[-5.892736,54.177616],[-5.892768,54.177545],[-5.89275,54.177447],[-5.892684,54.17732],[-5.892568,54.177165],[-5.892464,54.176995],[-5.892371,54.176809],[-5.892289,54.176608],[-5.892218,54.176391],[-5.892137,54.176201],[-5.892047,54.176039],[-5.891946,54.175905],[-5.891835,54.175798],[-5.891774,54.175703],[-5.891762,54.17562],[-5.8918,54.175548],[-5.891888,54.175488],[-5.892001,54.175477],[-5.892141,54.175516],[-5.892307,54.175603],[-5.892499,54.17574],[-5.892672,54.175882],[-5.892828,54.176032],[-5.892965,54.176188],[-5.893083,54.17635],[-5.893223,54.176485],[-5.893383,54.176594],[-5.893563,54.176675],[-5.893765,54.17673],[-5.893943,54.176805],[-5.894099,54.176902],[-5.894232,54.17702],[-5.894341,54.177159],[-5.894471,54.177314],[-5.89462,54.177485],[-5.89479,54.177671],[-5.894979,54.177872],[-5.895152,54.178039],[-5.895308,54.178173],[-5.895447,54.178272],[-5.895569,54.178336],[-5.895689,54.178404],[-5.895806,54.178473],[-5.895921,54.178545],[-5.896033,54.178619],[-5.896168,54.178707],[-5.896325,54.178807],[-5.896504,54.178921],[-5.896707,54.179048],[-5.896902,54.179185],[-5.89709,54.17933],[-5.897271,54.179484],[-5.897446,54.179647]]]}}