{"type":"Feature","properties":{"id":"266003","COMMUNE":"Perth and Kinross","PROVINCE":"Perth & Kinross and Stirling","COUNTRY":"UK","FIREDATE":"2025-03-31 13:25:00","FINALDATE":"2025-04-01 13:25:00","CLASS":"FireSeason","areaHA_geo":1.533},"geometry":{"type":"Polygon","coordinates":[[[-3.467455,56.866328],[-3.467513,56.86643],[-3.46766,56.866496],[-3.467898,56.866524],[-3.468225,56.866516],[-3.468474,56.866486],[-3.468645,56.866436],[-3.468738,56.866365],[-3.468752,56.866274],[-3.468818,56.866194],[-3.468935,56.866127],[-3.469104,56.866073],[-3.469325,56.86603],[-3.469534,56.86602],[-3.46973,56.866041],[-3.469915,56.866094],[-3.470087,56.86618],[-3.470247,56.866213],[-3.470393,56.866194],[-3.470527,56.866124],[-3.470649,56.866002],[-3.470792,56.865908],[-3.470957,56.865842],[-3.471144,56.865805],[-3.471354,56.865796],[-3.471542,56.865762],[-3.471709,56.865703],[-3.471856,56.865618],[-3.471982,56.865508],[-3.471937,56.865442],[-3.471722,56.865419],[-3.471337,56.86544],[-3.470782,56.865504],[-3.47029,56.86554],[-3.469862,56.865546],[-3.469496,56.865522],[-3.469194,56.86547],[-3.468993,56.865451],[-3.468891,56.865465],[-3.468891,56.865511],[-3.46899,56.865591],[-3.469036,56.865662],[-3.469029,56.865724],[-3.468969,56.865777],[-3.468855,56.865821],[-3.468737,56.865847],[-3.468615,56.865853],[-3.46849,56.86584],[-3.46836,56.865809],[-3.468224,56.865799],[-3.46808,56.86581],[-3.46793,56.865844],[-3.467773,56.865899],[-3.467647,56.865975],[-3.467552,56.866072],[-3.467488,56.86619],[-3.467455,56.866328]]]}}