{"type":"Feature","properties":{"id":"266027","COMMUNE":"Dumfries and Galloway","PROVINCE":"Dumfries & Galloway","COUNTRY":"UK","FIREDATE":"2025-03-15 11:47:00","FINALDATE":"2025-03-15 14:16:00","CLASS":"FireSeason","areaHA_geo":3.352},"geometry":{"type":"Polygon","coordinates":[[[-4.263018,54.86003],[-4.263155,54.86008],[-4.26343,54.860089],[-4.263846,54.860056],[-4.2644,54.859982],[-4.264771,54.859888],[-4.26496,54.859776],[-4.264966,54.859644],[-4.264789,54.859492],[-4.264657,54.859343],[-4.264569,54.859197],[-4.264527,54.859053],[-4.264529,54.858911],[-4.264478,54.858803],[-4.264372,54.85873],[-4.264213,54.85869],[-4.264,54.858684],[-4.263763,54.858649],[-4.263502,54.858583],[-4.263217,54.858487],[-4.262908,54.858361],[-4.262567,54.858292],[-4.262193,54.858279],[-4.261786,54.858324],[-4.261347,54.858425],[-4.261021,54.858533],[-4.260807,54.858649],[-4.260705,54.858772],[-4.260716,54.858902],[-4.260786,54.859],[-4.260915,54.859066],[-4.261103,54.8591],[-4.26135,54.859102],[-4.261541,54.859117],[-4.261675,54.859147],[-4.261752,54.859191],[-4.261773,54.85925],[-4.261815,54.859318],[-4.261878,54.859397],[-4.261962,54.859485],[-4.262068,54.859584],[-4.262197,54.859663],[-4.262349,54.859721],[-4.262526,54.859759],[-4.262725,54.859776],[-4.262874,54.859812],[-4.262973,54.859866],[-4.263021,54.859939],[-4.263018,54.86003]]]}}