{"type":"Feature","properties":{"id":"266031","COMMUNE":"Dumfries and Galloway","PROVINCE":"Dumfries & Galloway","COUNTRY":"UK","FIREDATE":"2025-03-19 13:25:00","CLASS":"FireSeason","areaHA_geo":15.123},"geometry":{"type":"Polygon","coordinates":[[[-4.603779,55.07404],[-4.604068,55.074095],[-4.6043,55.074106],[-4.604475,55.074073],[-4.604592,55.073997],[-4.604652,55.073878],[-4.60479,55.073774],[-4.605007,55.073687],[-4.605302,55.073615],[-4.605675,55.073559],[-4.605963,55.073475],[-4.606165,55.073362],[-4.606282,55.073221],[-4.606313,55.073052],[-4.606328,55.072901],[-4.606325,55.072768],[-4.606307,55.072653],[-4.606271,55.072557],[-4.606246,55.072447],[-4.606233,55.072325],[-4.606229,55.072189],[-4.606237,55.07204],[-4.606274,55.071895],[-4.606342,55.071754],[-4.606439,55.071617],[-4.606566,55.071483],[-4.606673,55.071364],[-4.606759,55.071259],[-4.606824,55.071169],[-4.606868,55.071093],[-4.606906,55.070996],[-4.606935,55.07088],[-4.606958,55.070745],[-4.606973,55.070589],[-4.607041,55.070463],[-4.607161,55.070366],[-4.607333,55.070298],[-4.607557,55.07026],[-4.607739,55.070259],[-4.607877,55.070296],[-4.607971,55.070371],[-4.608023,55.070483],[-4.608079,55.070536],[-4.608138,55.070529],[-4.608202,55.070462],[-4.608269,55.070336],[-4.608321,55.070223],[-4.608358,55.070124],[-4.608378,55.070039],[-4.608383,55.069967],[-4.608371,55.069893],[-4.608343,55.069816],[-4.608298,55.069737],[-4.608237,55.069656],[-4.608205,55.069581],[-4.608201,55.069514],[-4.608225,55.069453],[-4.608278,55.069399],[-4.608349,55.069338],[-4.608437,55.069268],[-4.608543,55.069191],[-4.608667,55.069105],[-4.608781,55.069062],[-4.608885,55.069062],[-4.608978,55.069104],[-4.609061,55.069189],[-4.609116,55.069275],[-4.609143,55.069364],[-4.609143,55.069454],[-4.609115,55.069546],[-4.609115,55.069632],[-4.609144,55.069712],[-4.609202,55.069785],[-4.609289,55.069851],[-4.609324,55.069927],[-4.609309,55.070012],[-4.609242,55.070105],[-4.609125,55.070208],[-4.609141,55.070267],[-4.609291,55.070282],[-4.609576,55.070253],[-4.609995,55.07018],[-4.610316,55.070108],[-4.610539,55.070037],[-4.610664,55.069968],[-4.61069,55.069899],[-4.610749,55.069841],[-4.61084,55.069791],[-4.610963,55.069752],[-4.611117,55.069722],[-4.611269,55.069682],[-4.611416,55.069632],[-4.61156,55.069572],[-4.6117,55.069502],[-4.611814,55.069425],[-4.611903,55.069341],[-4.611965,55.069249],[-4.612001,55.06915],[-4.611971,55.069096],[-4.611874,55.069087],[-4.611711,55.069122],[-4.611481,55.069202],[-4.611295,55.069266],[-4.611151,55.069312],[-4.61105,55.069342],[-4.610993,55.069355],[-4.610952,55.069343],[-4.610929,55.069307],[-4.610922,55.069248],[-4.610933,55.069163],[-4.61095,55.069082],[-4.610972,55.069002],[-4.611001,55.068925],[-4.611035,55.068849],[-4.611088,55.068787],[-4.611157,55.068737],[-4.611245,55.068701],[-4.61135,55.068676],[-4.611387,55.06865],[-4.611356,55.068621],[-4.611256,55.06859],[-4.611088,55.068556],[-4.610936,55.068509],[-4.6108,55.068448],[-4.610679,55.068374],[-4.610574,55.068285],[-4.610455,55.068216],[-4.610323,55.068167],[-4.610177,55.068137],[-4.610018,55.068126],[-4.609876,55.068121],[-4.609752,55.06812],[-4.609645,55.068126],[-4.609555,55.068136],[-4.609468,55.068154],[-4.609384,55.068179],[-4.609303,55.06821],[-4.609224,55.068249],[-4.609128,55.06828],[-4.609017,55.068302],[-4.60889,55.068315],[-4.608747,55.06832],[-4.608634,55.068344],[-4.608551,55.068386],[-4.608498,55.068447],[-4.608476,55.068527],[-4.608434,55.068598],[-4.608375,55.068661],[-4.608296,55.068717],[-4.6082,55.068763],[-4.608128,55.068781],[-4.608082,55.068768],[-4.608062,55.068726],[-4.608067,55.068655],[-4.608071,55.068582],[-4.608075,55.068507],[-4.608078,55.068432],[-4.60808,55.068354],[-4.60814,55.068278],[-4.608258,55.068202],[-4.608432,55.068126],[-4.608664,55.068052],[-4.608841,55.067969],[-4.608963,55.067878],[-4.60903,55.067778],[-4.609042,55.06767],[-4.609092,55.06756],[-4.609181,55.067449],[-4.609308,55.067337],[-4.609473,55.067222],[-4.609547,55.067128],[-4.60953,55.067053],[-4.609422,55.066998],[-4.609222,55.066962],[-4.609061,55.066897],[-4.608938,55.066802],[-4.608853,55.066677],[-4.608807,55.066523],[-4.608767,55.066394],[-4.608735,55.066292],[-4.608709,55.066215],[-4.60869,55.066164],[-4.608663,55.066167],[-4.608627,55.066224],[-4.608583,55.066336],[-4.60853,55.066502],[-4.608492,55.066647],[-4.60847,55.066771],[-4.608464,55.066874],[-4.608473,55.066956],[-4.608459,55.067057],[-4.60842,55.067176],[-4.608357,55.067316],[-4.60827,55.067474],[-4.608172,55.067616],[-4.608062,55.067741],[-4.607942,55.06785],[-4.60781,55.067942],[-4.607673,55.068015],[-4.607532,55.068067],[-4.607385,55.068099],[-4.607234,55.068111],[-4.607047,55.068136],[-4.606822,55.068174],[-4.606561,55.068226],[-4.606264,55.06829],[-4.606037,55.068358],[-4.605882,55.06843],[-4.605798,55.068505],[-4.605786,55.068583],[-4.605811,55.068651],[-4.605873,55.068709],[-4.605974,55.068757],[-4.606112,55.068794],[-4.606152,55.068832],[-4.606093,55.068871],[-4.605937,55.068912],[-4.605683,55.068954],[-4.605442,55.069059],[-4.605214,55.069228],[-4.604999,55.06946],[-4.604796,55.069756],[-4.604621,55.07002],[-4.604473,55.07025],[-4.604351,55.070448],[-4.604256,55.070613],[-4.604223,55.070749],[-4.604252,55.070855],[-4.604342,55.070932],[-4.604494,55.070979],[-4.604574,55.071028],[-4.604583,55.071081],[-4.60452,55.071135],[-4.604386,55.071193],[-4.604272,55.071242],[-4.604178,55.071282],[-4.604104,55.071315],[-4.604051,55.071339],[-4.60404,55.071386],[-4.604071,55.071456],[-4.604144,55.07155],[-4.604259,55.071666],[-4.604297,55.071761],[-4.604256,55.071834],[-4.604138,55.071885],[-4.603941,55.071914],[-4.603794,55.071958],[-4.603696,55.072017],[-4.603648,55.07209],[-4.60365,55.072179],[-4.603705,55.072245],[-4.603814,55.072288],[-4.603977,55.072309],[-4.604194,55.072307],[-4.60435,55.072329],[-4.604444,55.072374],[-4.604477,55.072443],[-4.604449,55.072535],[-4.604377,55.072614],[-4.604262,55.072681],[-4.604103,55.072735],[-4.6039,55.072777],[-4.603733,55.072795],[-4.603602,55.07279],[-4.603506,55.072761],[-4.603445,55.072709],[-4.603359,55.072679],[-4.603247,55.072672],[-4.60311,55.072686],[-4.602948,55.072723],[-4.602843,55.072771],[-4.602798,55.07283],[-4.60281,55.072899],[-4.602881,55.07298],[-4.60297,55.073039],[-4.603077,55.073077],[-4.603203,55.073093],[-4.603346,55.073088],[-4.603455,55.07311],[-4.603531,55.073161],[-4.603572,55.073239],[-4.60358,55.073344],[-4.603558,55.073433],[-4.603507,55.073504],[-4.603425,55.073558],[-4.603314,55.073595],[-4.603243,55.073641],[-4.603213,55.073698],[-4.603222,55.073765],[-4.603271,55.073842],[-4.60338,55.073914],[-4.603549,55.07398],[-4.603779,55.07404]]]}}