{"type":"Feature","properties":{"id":"266004","COMMUNE":"Perth and Kinross","PROVINCE":"Perth & Kinross and Stirling","COUNTRY":"UK","FIREDATE":"2025-03-31 13:25:00","FINALDATE":"2025-04-01 13:25:00","CLASS":"FireSeason","areaHA_geo":1.065},"geometry":{"type":"Polygon","coordinates":[[[-3.461124,56.87017],[-3.461272,56.870253],[-3.461392,56.870256],[-3.461482,56.870181],[-3.461545,56.870026],[-3.461594,56.869892],[-3.46163,56.869779],[-3.461653,56.869686],[-3.461662,56.869614],[-3.461694,56.86953],[-3.461748,56.869434],[-3.461824,56.869326],[-3.461923,56.869206],[-3.462008,56.869075],[-3.462081,56.868932],[-3.46214,56.868778],[-3.462187,56.868612],[-3.462148,56.868521],[-3.462024,56.868505],[-3.461815,56.868563],[-3.461521,56.868697],[-3.461248,56.868824],[-3.460996,56.868944],[-3.460765,56.869056],[-3.460555,56.869162],[-3.460379,56.869272],[-3.460238,56.869387],[-3.46013,56.869506],[-3.460057,56.86963],[-3.460063,56.869697],[-3.460149,56.869707],[-3.460316,56.869661],[-3.460562,56.869558],[-3.460774,56.869484],[-3.460953,56.86944],[-3.461098,56.869425],[-3.46121,56.869439],[-3.46125,56.869468],[-3.461219,56.869514],[-3.461117,56.869574],[-3.460943,56.86965],[-3.460857,56.869748],[-3.460859,56.869867],[-3.460948,56.870008],[-3.461124,56.87017]]]}}