{"type":"Feature","properties":{"id":"266082","COMMUNE":"Monmouthshire","PROVINCE":"Monmouthshire and Newport","COUNTRY":"UK","FIREDATE":"2025-04-01 02:00:00","CLASS":"FireSeason","areaHA_geo":7.974},"geometry":{"type":"Polygon","coordinates":[[[-3.019533,51.849575],[-3.019569,51.849686],[-3.019667,51.849777],[-3.019829,51.849846],[-3.020054,51.849894],[-3.020194,51.849959],[-3.020252,51.850042],[-3.020225,51.850142],[-3.020115,51.85026],[-3.020044,51.850367],[-3.020013,51.850464],[-3.020022,51.85055],[-3.020071,51.850625],[-3.020253,51.850674],[-3.020568,51.850696],[-3.021017,51.85069],[-3.0216,51.850657],[-3.022048,51.850648],[-3.022361,51.850662],[-3.022539,51.850698],[-3.022583,51.850758],[-3.022687,51.850799],[-3.022852,51.850822],[-3.023076,51.850825],[-3.023361,51.850809],[-3.023557,51.850769],[-3.023663,51.850705],[-3.02368,51.850616],[-3.023607,51.850502],[-3.023594,51.850368],[-3.02364,51.850213],[-3.023747,51.850037],[-3.023913,51.84984],[-3.024026,51.849675],[-3.024086,51.849543],[-3.024093,51.849443],[-3.024046,51.849375],[-3.024047,51.849298],[-3.024094,51.849211],[-3.024188,51.849116],[-3.024328,51.849011],[-3.024415,51.848904],[-3.024449,51.848795],[-3.024429,51.848683],[-3.024357,51.84857],[-3.024274,51.84848],[-3.024182,51.848413],[-3.024081,51.848369],[-3.02397,51.848349],[-3.023863,51.848378],[-3.02376,51.848454],[-3.023662,51.848578],[-3.023568,51.848751],[-3.023489,51.848829],[-3.023424,51.848812],[-3.023375,51.8487],[-3.023341,51.848493],[-3.023231,51.84832],[-3.023046,51.848183],[-3.022786,51.84808],[-3.02245,51.848012],[-3.022188,51.847993],[-3.021999,51.848022],[-3.021884,51.8481],[-3.021842,51.848226],[-3.02177,51.848307],[-3.021669,51.848343],[-3.021538,51.848333],[-3.021377,51.848278],[-3.021204,51.848249],[-3.021018,51.848245],[-3.020821,51.848267],[-3.020611,51.848315],[-3.020416,51.848345],[-3.020235,51.848357],[-3.020069,51.848351],[-3.019918,51.848328],[-3.019778,51.848355],[-3.01965,51.848435],[-3.019533,51.848565],[-3.019429,51.848747],[-3.019371,51.848898],[-3.019359,51.849016],[-3.019395,51.849104],[-3.019477,51.849159],[-3.019532,51.849234],[-3.019559,51.849329],[-3.01956,51.849442],[-3.019533,51.849575]]]}}