{"type":"Feature","properties":{"id":"266016","COMMUNE":"Perth and Kinross","PROVINCE":"Perth & Kinross and Stirling","COUNTRY":"UK","FIREDATE":"2025-03-20 13:08:00","CLASS":"FireSeason","areaHA_geo":2.632},"geometry":{"type":"Polygon","coordinates":[[[-3.429085,56.883086],[-3.429035,56.883226],[-3.429042,56.883335],[-3.429106,56.883414],[-3.429226,56.883464],[-3.429326,56.883485],[-3.429407,56.883478],[-3.429468,56.883443],[-3.42951,56.88338],[-3.429543,56.883313],[-3.429566,56.883243],[-3.42958,56.88317],[-3.429585,56.883093],[-3.429596,56.883023],[-3.429614,56.882961],[-3.429639,56.882907],[-3.42967,56.882859],[-3.429723,56.882805],[-3.429798,56.882742],[-3.429894,56.882673],[-3.430012,56.882596],[-3.430112,56.882516],[-3.430195,56.882432],[-3.430261,56.882346],[-3.430309,56.882255],[-3.430362,56.882185],[-3.430418,56.882133],[-3.43048,56.882101],[-3.430545,56.882088],[-3.430607,56.882068],[-3.430667,56.88204],[-3.430724,56.882004],[-3.430778,56.88196],[-3.430841,56.881936],[-3.430912,56.881931],[-3.430992,56.881947],[-3.431079,56.881981],[-3.431154,56.881987],[-3.431215,56.881963],[-3.431263,56.881909],[-3.431298,56.881827],[-3.431359,56.88174],[-3.431445,56.88165],[-3.431557,56.881557],[-3.431694,56.881461],[-3.431797,56.881372],[-3.431865,56.881292],[-3.431898,56.881219],[-3.431896,56.881155],[-3.431903,56.881087],[-3.431918,56.881017],[-3.431941,56.880943],[-3.431973,56.880866],[-3.431993,56.880806],[-3.432002,56.880763],[-3.431999,56.880736],[-3.431984,56.880726],[-3.431928,56.880738],[-3.43183,56.880773],[-3.431691,56.880831],[-3.43151,56.880912],[-3.43137,56.880993],[-3.43127,56.881075],[-3.431212,56.881159],[-3.431193,56.881243],[-3.431165,56.881321],[-3.431127,56.881394],[-3.431078,56.881462],[-3.43102,56.881524],[-3.430967,56.881555],[-3.430918,56.881555],[-3.430875,56.881525],[-3.430837,56.881465],[-3.430812,56.881401],[-3.430798,56.881333],[-3.430797,56.881262],[-3.430808,56.881187],[-3.430824,56.881103],[-3.430847,56.881008],[-3.430875,56.880903],[-3.430909,56.880788],[-3.43093,56.880682],[-3.430939,56.880586],[-3.430934,56.880499],[-3.430917,56.880421],[-3.430862,56.880341],[-3.430767,56.880258],[-3.430634,56.880173],[-3.430463,56.880085],[-3.430314,56.880022],[-3.430187,56.879984],[-3.430083,56.87997],[-3.430001,56.879982],[-3.429937,56.880013],[-3.42989,56.880063],[-3.429862,56.880133],[-3.429851,56.880222],[-3.429822,56.880307],[-3.429776,56.880388],[-3.429712,56.880466],[-3.429631,56.880539],[-3.429529,56.880612],[-3.429408,56.880687],[-3.429267,56.880762],[-3.429106,56.880837],[-3.428979,56.880903],[-3.428886,56.88096],[-3.428828,56.881007],[-3.428804,56.881045],[-3.428814,56.881066],[-3.428859,56.881072],[-3.428939,56.881061],[-3.429053,56.881035],[-3.429153,56.881015],[-3.42924,56.881001],[-3.429313,56.880995],[-3.429372,56.880994],[-3.429404,56.881009],[-3.429409,56.881038],[-3.429387,56.881081],[-3.429338,56.881139],[-3.429288,56.881195],[-3.429238,56.881251],[-3.429187,56.881304],[-3.429136,56.881357],[-3.429061,56.881425],[-3.428962,56.881508],[-3.428839,56.881608],[-3.428692,56.881723],[-3.428576,56.881834],[-3.428491,56.881941],[-3.428437,56.882045],[-3.428413,56.882144],[-3.428444,56.882181],[-3.428528,56.882154],[-3.428667,56.882065],[-3.42886,56.881913],[-3.429039,56.881759],[-3.429203,56.881604],[-3.429354,56.881447],[-3.429491,56.881289],[-3.429608,56.881138],[-3.429704,56.880994],[-3.42978,56.880858],[-3.429836,56.880729],[-3.429903,56.880637],[-3.42998,56.880582],[-3.430067,56.880564],[-3.430166,56.880583],[-3.430221,56.880615],[-3.430235,56.880659],[-3.430205,56.880715],[-3.430133,56.880785],[-3.430061,56.880869],[-3.42999,56.880969],[-3.429918,56.881084],[-3.429847,56.881215],[-3.429811,56.881317],[-3.42981,56.881391],[-3.429845,56.881436],[-3.429916,56.881452],[-3.429958,56.881485],[-3.429974,56.881535],[-3.429961,56.881601],[-3.429921,56.881685],[-3.429892,56.881762],[-3.429875,56.881833],[-3.429868,56.881897],[-3.429873,56.881956],[-3.429865,56.882022],[-3.429843,56.882096],[-3.429808,56.882178],[-3.42976,56.882268],[-3.429702,56.882352],[-3.429636,56.88243],[-3.42956,56.882501],[-3.429476,56.882565],[-3.429386,56.882656],[-3.429291,56.882773],[-3.429191,56.882916],[-3.429085,56.883086]]]}}