{"type":"Feature","properties":{"id":"266085","COMMUNE":"Caerphilly","PROVINCE":"Gwent Valleys","COUNTRY":"UK","FIREDATE":"2025-03-30 14:14:00","FINALDATE":"2025-03-30 14:14:00","CLASS":"FireSeason","areaHA_geo":3.759},"geometry":{"type":"Polygon","coordinates":[[[-3.26173,51.715448],[-3.261779,51.715359],[-3.261801,51.71519],[-3.261796,51.714941],[-3.261764,51.714612],[-3.261759,51.714274],[-3.26178,51.713927],[-3.261829,51.713571],[-3.261904,51.713205],[-3.261944,51.712821],[-3.261949,51.712419],[-3.26192,51.711999],[-3.261855,51.71156],[-3.261735,51.711233],[-3.261559,51.711018],[-3.261328,51.710914],[-3.261042,51.710923],[-3.260833,51.710948],[-3.260702,51.710992],[-3.260648,51.711053],[-3.260671,51.711131],[-3.26073,51.711198],[-3.260825,51.711252],[-3.260955,51.711294],[-3.261122,51.711323],[-3.26124,51.711367],[-3.261309,51.711424],[-3.26133,51.711494],[-3.261303,51.711578],[-3.261248,51.711672],[-3.261167,51.711774],[-3.261059,51.711886],[-3.260924,51.712007],[-3.260834,51.712135],[-3.260789,51.71227],[-3.260789,51.712412],[-3.260833,51.712561],[-3.260826,51.712726],[-3.260768,51.712907],[-3.26066,51.713104],[-3.2605,51.713317],[-3.260372,51.713538],[-3.260276,51.713768],[-3.260212,51.714007],[-3.260181,51.714254],[-3.260205,51.714447],[-3.260287,51.714588],[-3.260424,51.714676],[-3.260618,51.714711],[-3.260803,51.714781],[-3.260979,51.714886],[-3.261146,51.715028],[-3.261303,51.715204],[-3.26144,51.715335],[-3.261557,51.715419],[-3.261654,51.715456],[-3.26173,51.715448]]]}}