{"type":"Feature","properties":{"id":"266071","COMMUNE":"Rhondda Cynon Taf","PROVINCE":"Central Valleys","COUNTRY":"UK","FIREDATE":"2025-04-02 01:17:00","CLASS":"FireSeason","areaHA_geo":361.483},"geometry":{"type":"Polygon","coordinates":[[[-3.452338,51.789715],[-3.45268,51.789813],[-3.452937,51.789853],[-3.453109,51.789833],[-3.453197,51.789753],[-3.453386,51.789671],[-3.453675,51.789586],[-3.454065,51.789498],[-3.454556,51.789406],[-3.455014,51.789291],[-3.455441,51.789151],[-3.455836,51.788986],[-3.456199,51.788798],[-3.45655,51.788651],[-3.45689,51.788547],[-3.457218,51.788485],[-3.457534,51.788466],[-3.457778,51.788473],[-3.457948,51.788505],[-3.458046,51.788562],[-3.458072,51.788646],[-3.458119,51.788712],[-3.45819,51.78876],[-3.458283,51.78879],[-3.458399,51.788802],[-3.458511,51.788789],[-3.458618,51.788751],[-3.458721,51.788687],[-3.45882,51.788598],[-3.458966,51.788523],[-3.459157,51.788462],[-3.459395,51.788415],[-3.459679,51.788382],[-3.459914,51.78837],[-3.460098,51.788379],[-3.460233,51.788409],[-3.460319,51.788459],[-3.460405,51.78848],[-3.460493,51.788469],[-3.460582,51.788429],[-3.460673,51.788358],[-3.460832,51.788292],[-3.461058,51.788231],[-3.461353,51.788176],[-3.461716,51.788125],[-3.462071,51.788108],[-3.462419,51.788124],[-3.462759,51.788173],[-3.463092,51.788255],[-3.463247,51.788315],[-3.463223,51.788352],[-3.463021,51.788367],[-3.462641,51.788359],[-3.462428,51.788373],[-3.462383,51.788409],[-3.462505,51.788466],[-3.462795,51.788544],[-3.463093,51.788639],[-3.4634,51.788751],[-3.463715,51.788879],[-3.464039,51.789022],[-3.464304,51.789126],[-3.464512,51.789188],[-3.464662,51.789209],[-3.464755,51.78919],[-3.464831,51.789199],[-3.464891,51.789235],[-3.464935,51.789299],[-3.464962,51.789391],[-3.464989,51.789491],[-3.465015,51.789601],[-3.46504,51.789719],[-3.465065,51.789845],[-3.465099,51.789969],[-3.465142,51.790089],[-3.465195,51.790206],[-3.465257,51.79032],[-3.465291,51.790432],[-3.465297,51.790544],[-3.465275,51.790655],[-3.465224,51.790764],[-3.465263,51.79087],[-3.465391,51.790971],[-3.46561,51.791069],[-3.465919,51.791163],[-3.466233,51.791207],[-3.466553,51.7912],[-3.466879,51.791143],[-3.46721,51.791035],[-3.467561,51.790874],[-3.467929,51.790658],[-3.468317,51.790389],[-3.468723,51.790065],[-3.469204,51.78979],[-3.469758,51.789561],[-3.470386,51.789381],[-3.471088,51.789248],[-3.471648,51.78912],[-3.472066,51.788998],[-3.472342,51.788882],[-3.472477,51.788772],[-3.472624,51.788692],[-3.472785,51.788643],[-3.472958,51.788625],[-3.473144,51.788638],[-3.473401,51.788632],[-3.473729,51.788607],[-3.474129,51.788563],[-3.4746,51.7885],[-3.475173,51.788416],[-3.475849,51.788312],[-3.476627,51.788187],[-3.477507,51.788042],[-3.478397,51.787881],[-3.479295,51.787704],[-3.480203,51.78751],[-3.48112,51.7873],[-3.481843,51.787121],[-3.482372,51.786974],[-3.482708,51.786857],[-3.48285,51.786771],[-3.483008,51.786706],[-3.483183,51.786659],[-3.483375,51.786633],[-3.483583,51.786626],[-3.483821,51.786603],[-3.484089,51.786563],[-3.484387,51.786507],[-3.484715,51.786434],[-3.48515,51.786311],[-3.485692,51.786135],[-3.486341,51.785909],[-3.487098,51.785631],[-3.487721,51.785414],[-3.488213,51.785258],[-3.488573,51.785162],[-3.4888,51.785127],[-3.488987,51.78505],[-3.489132,51.784929],[-3.489237,51.784766],[-3.4893,51.78456],[-3.489364,51.784343],[-3.489428,51.784115],[-3.489492,51.783877],[-3.489557,51.783627],[-3.489644,51.783453],[-3.489754,51.783354],[-3.489887,51.78333],[-3.490042,51.783381],[-3.490308,51.783391],[-3.490684,51.783361],[-3.49117,51.783289],[-3.491766,51.783177],[-3.492288,51.783041],[-3.492737,51.782881],[-3.493112,51.782697],[-3.493413,51.782489],[-3.493624,51.782296],[-3.493745,51.782118],[-3.493776,51.781955],[-3.493717,51.781806],[-3.493736,51.781683],[-3.493832,51.781586],[-3.494006,51.781514],[-3.494258,51.781467],[-3.494467,51.781395],[-3.494634,51.781298],[-3.494758,51.781176],[-3.494839,51.781028],[-3.494978,51.780921],[-3.495175,51.780855],[-3.49543,51.78083],[-3.495743,51.780846],[-3.496025,51.780806],[-3.496277,51.780712],[-3.496498,51.780564],[-3.496688,51.78036],[-3.496682,51.780145],[-3.49648,51.779918],[-3.496082,51.779679],[-3.495488,51.779428],[-3.495027,51.779223],[-3.494698,51.779062],[-3.494502,51.778947],[-3.494439,51.778876],[-3.494392,51.778791],[-3.494362,51.778691],[-3.494348,51.778576],[-3.494351,51.778446],[-3.49435,51.778271],[-3.494346,51.778051],[-3.49434,51.777786],[-3.49433,51.777477],[-3.494293,51.77731],[-3.49423,51.777287],[-3.494141,51.777408],[-3.494025,51.777672],[-3.493906,51.77788],[-3.493784,51.778032],[-3.493659,51.778129],[-3.493532,51.778169],[-3.493328,51.77826],[-3.493049,51.7784],[-3.492693,51.778591],[-3.492262,51.778831],[-3.491942,51.778976],[-3.491733,51.779026],[-3.491635,51.778981],[-3.491649,51.778841],[-3.491638,51.778737],[-3.491603,51.778667],[-3.491544,51.778633],[-3.49146,51.778634],[-3.491349,51.778682],[-3.491209,51.778776],[-3.491042,51.778916],[-3.490846,51.779103],[-3.490673,51.779235],[-3.490521,51.779313],[-3.490392,51.779337],[-3.490285,51.779306],[-3.490231,51.779256],[-3.490231,51.779187],[-3.490285,51.779099],[-3.490392,51.778991],[-3.490446,51.778903],[-3.490446,51.778834],[-3.490393,51.778784],[-3.490285,51.778753],[-3.490147,51.778737],[-3.489979,51.778735],[-3.489779,51.778747],[-3.489549,51.778774],[-3.489358,51.778779],[-3.489206,51.778762],[-3.489093,51.778723],[-3.489019,51.778662],[-3.489044,51.778595],[-3.489168,51.77852],[-3.489392,51.778438],[-3.489715,51.778349],[-3.48997,51.778243],[-3.490157,51.778122],[-3.490277,51.777985],[-3.490328,51.777832],[-3.490343,51.777721],[-3.490322,51.77765],[-3.490264,51.77762],[-3.490169,51.777631],[-3.490099,51.777619],[-3.490054,51.777586],[-3.490034,51.77753],[-3.490038,51.777452],[-3.49004,51.777365],[-3.490039,51.77727],[-3.490036,51.777167],[-3.49003,51.777055],[-3.489918,51.776975],[-3.489701,51.776927],[-3.489377,51.776911],[-3.488948,51.776926],[-3.488639,51.776981],[-3.488451,51.777076],[-3.488383,51.777211],[-3.488436,51.777387],[-3.488472,51.777529],[-3.488492,51.777639],[-3.488494,51.777717],[-3.48848,51.777762],[-3.488424,51.777764],[-3.488328,51.777723],[-3.488191,51.77764],[-3.488013,51.777514],[-3.487888,51.777392],[-3.487818,51.777275],[-3.487801,51.777162],[-3.487839,51.777054],[-3.487729,51.776959],[-3.487473,51.776876],[-3.48707,51.776806],[-3.486521,51.776749],[-3.485872,51.776675],[-3.485124,51.776585],[-3.484276,51.776478],[-3.483329,51.776355],[-3.482467,51.776239],[-3.481692,51.77613],[-3.481004,51.776028],[-3.480401,51.775934],[-3.479884,51.775866],[-3.479451,51.775826],[-3.479104,51.775812],[-3.478842,51.775825],[-3.478597,51.775871],[-3.478369,51.775949],[-3.478157,51.77606],[-3.477963,51.776203],[-3.477802,51.776295],[-3.477674,51.776336],[-3.47758,51.776325],[-3.477519,51.776263],[-3.47744,51.776246],[-3.477344,51.776275],[-3.47723,51.776349],[-3.477098,51.776468],[-3.476977,51.776613],[-3.476869,51.776786],[-3.476771,51.776985],[-3.476686,51.777211],[-3.476615,51.777428],[-3.476559,51.777638],[-3.476519,51.777839],[-3.476493,51.778032],[-3.476429,51.778188],[-3.476325,51.778308],[-3.476182,51.778392],[-3.476,51.778439],[-3.475805,51.778474],[-3.475595,51.778499],[-3.475371,51.778512],[-3.475134,51.778513],[-3.47495,51.778496],[-3.47482,51.778459],[-3.474744,51.778403],[-3.474721,51.778328],[-3.474653,51.778256],[-3.474542,51.778187],[-3.474385,51.778121],[-3.474184,51.778057],[-3.474159,51.778009],[-3.474309,51.777974],[-3.474635,51.777953],[-3.475138,51.777947],[-3.475536,51.777886],[-3.475829,51.77777],[-3.476019,51.777599],[-3.476105,51.777373],[-3.476159,51.777157],[-3.47618,51.776952],[-3.47617,51.776756],[-3.476128,51.776571],[-3.475996,51.776425],[-3.475775,51.776316],[-3.475463,51.776247],[-3.475061,51.776215],[-3.474616,51.776211],[-3.474125,51.776233],[-3.473591,51.776282],[-3.473012,51.776358],[-3.472586,51.776431],[-3.472313,51.776501],[-3.472194,51.776569],[-3.472227,51.776634],[-3.472221,51.776695],[-3.472176,51.776753],[-3.47209,51.776806],[-3.471965,51.776855],[-3.471805,51.776869],[-3.47161,51.776848],[-3.471379,51.776793],[-3.471114,51.776703],[-3.470815,51.776627],[-3.470481,51.776566],[-3.470114,51.77652],[-3.469712,51.776489],[-3.469353,51.77647],[-3.469036,51.776464],[-3.468762,51.77647],[-3.468529,51.776488],[-3.468348,51.776481],[-3.46822,51.776448],[-3.468143,51.77639],[-3.468117,51.776307],[-3.468079,51.776216],[-3.468029,51.776118],[-3.467966,51.776013],[-3.46789,51.775901],[-3.467752,51.775839],[-3.467553,51.775828],[-3.467291,51.775867],[-3.466968,51.775956],[-3.466646,51.776024],[-3.466324,51.776069],[-3.466002,51.776094],[-3.465681,51.776096],[-3.46531,51.776107],[-3.464888,51.776125],[-3.464417,51.776152],[-3.463895,51.776186],[-3.46348,51.776226],[-3.463172,51.77627],[-3.462969,51.776319],[-3.462874,51.776374],[-3.462742,51.776423],[-3.462574,51.776469],[-3.462369,51.77651],[-3.462128,51.776546],[-3.46196,51.776615],[-3.461865,51.776717],[-3.461842,51.776851],[-3.461893,51.777018],[-3.461851,51.777168],[-3.461716,51.7773],[-3.461488,51.777415],[-3.461167,51.777513],[-3.460947,51.777607],[-3.460828,51.777699],[-3.460809,51.777787],[-3.460891,51.777873],[-3.460874,51.777931],[-3.460757,51.777962],[-3.460541,51.777965],[-3.460226,51.777941],[-3.459986,51.777936],[-3.459823,51.777951],[-3.459735,51.777985],[-3.459723,51.778038],[-3.459752,51.778097],[-3.45982,51.778163],[-3.45993,51.778234],[-3.460079,51.778312],[-3.460194,51.778392],[-3.460275,51.778473],[-3.460321,51.778556],[-3.460333,51.778641],[-3.460399,51.778767],[-3.460519,51.778935],[-3.460694,51.779144],[-3.460924,51.779393],[-3.461145,51.779605],[-3.461359,51.779779],[-3.461565,51.779915],[-3.461762,51.780013],[-3.461863,51.780082],[-3.461868,51.78012],[-3.461776,51.780128],[-3.461588,51.780107],[-3.461406,51.780098],[-3.461232,51.780101],[-3.461065,51.780116],[-3.460905,51.780143],[-3.460776,51.780201],[-3.460677,51.78029],[-3.460608,51.78041],[-3.46057,51.780562],[-3.460512,51.78067],[-3.460433,51.780735],[-3.460335,51.780757],[-3.460217,51.780736],[-3.46014,51.78068],[-3.460106,51.780589],[-3.460113,51.780463],[-3.460163,51.780302],[-3.460181,51.780142],[-3.460168,51.779984],[-3.460124,51.779827],[-3.460049,51.779672],[-3.459917,51.779501],[-3.459728,51.779316],[-3.459482,51.779115],[-3.459179,51.7789],[-3.458836,51.778784],[-3.458453,51.778768],[-3.45803,51.778851],[-3.457567,51.779034],[-3.457179,51.779198],[-3.456866,51.779342],[-3.456627,51.779467],[-3.456463,51.779572],[-3.456344,51.779688],[-3.45627,51.779813],[-3.456241,51.779948],[-3.456256,51.780093],[-3.456227,51.780217],[-3.456154,51.780321],[-3.456035,51.780404],[-3.455872,51.780466],[-3.455732,51.780478],[-3.455615,51.780439],[-3.455522,51.780351],[-3.455452,51.780212],[-3.455308,51.780129],[-3.45509,51.780103],[-3.454798,51.780132],[-3.454432,51.780218],[-3.45415,51.780257],[-3.453952,51.780249],[-3.453837,51.780196],[-3.453807,51.780095],[-3.453659,51.780059],[-3.453394,51.780085],[-3.453012,51.780174],[-3.452512,51.780327],[-3.452128,51.780471],[-3.451861,51.780605],[-3.45171,51.780731],[-3.451675,51.780847],[-3.451582,51.780968],[-3.451431,51.781094],[-3.451222,51.781224],[-3.450955,51.781358],[-3.450664,51.781543],[-3.45035,51.781778],[-3.450012,51.782063],[-3.449652,51.782398],[-3.449356,51.782659],[-3.449125,51.782846],[-3.44896,51.782958],[-3.448859,51.782995],[-3.44875,51.783053],[-3.448634,51.783131],[-3.44851,51.78323],[-3.448378,51.783349],[-3.448241,51.783451],[-3.448098,51.783537],[-3.447951,51.783605],[-3.447799,51.783657],[-3.447602,51.78376],[-3.447362,51.783913],[-3.447077,51.784117],[-3.446747,51.784371],[-3.446436,51.784638],[-3.446142,51.784918],[-3.445867,51.785211],[-3.445609,51.785517],[-3.445452,51.785807],[-3.445395,51.786082],[-3.445438,51.78634],[-3.445581,51.786583],[-3.44574,51.786782],[-3.445913,51.786939],[-3.446102,51.787054],[-3.446305,51.787125],[-3.446573,51.787178],[-3.446906,51.787213],[-3.447303,51.78723],[-3.447765,51.787229],[-3.44825,51.787283],[-3.448759,51.787392],[-3.449292,51.787557],[-3.449849,51.787778],[-3.450303,51.788019],[-3.450655,51.788281],[-3.450905,51.788563],[-3.451053,51.788866],[-3.45127,51.789132],[-3.451556,51.789362],[-3.451913,51.789556],[-3.452338,51.789715]]]}}