{"type":"Feature","properties":{"id":"266001","COMMUNE":"Perth and Kinross","PROVINCE":"Perth & Kinross and Stirling","COUNTRY":"UK","FIREDATE":"2025-04-03 13:46:00","FINALDATE":"2025-04-03 13:46:00","CLASS":"FireSeason","areaHA_geo":1.248},"geometry":{"type":"Polygon","coordinates":[[[-3.473818,56.863969],[-3.473988,56.86413],[-3.474161,56.864219],[-3.474338,56.864234],[-3.474518,56.864177],[-3.474651,56.864113],[-3.474738,56.864042],[-3.474778,56.863966],[-3.474772,56.863883],[-3.474785,56.863838],[-3.474818,56.863831],[-3.474871,56.863863],[-3.474943,56.863932],[-3.47504,56.863972],[-3.475162,56.863982],[-3.475308,56.863962],[-3.475479,56.863912],[-3.475604,56.863849],[-3.475683,56.863773],[-3.475716,56.863684],[-3.475702,56.863582],[-3.4756,56.863469],[-3.475407,56.863344],[-3.475125,56.863208],[-3.474753,56.863059],[-3.474433,56.862957],[-3.474165,56.862902],[-3.473949,56.862892],[-3.473785,56.862928],[-3.473697,56.862986],[-3.473684,56.863065],[-3.473746,56.863164],[-3.473884,56.863285],[-3.473944,56.863371],[-3.473927,56.863421],[-3.473832,56.863436],[-3.473659,56.863415],[-3.473572,56.863458],[-3.473569,56.863565],[-3.473651,56.863735],[-3.473818,56.863969]]]}}