{"type":"Feature","properties":{"id":"266093","COMMUNE":"Neath Port Talbot","PROVINCE":"Bridgend and Neath Port Talbot","COUNTRY":"UK","FIREDATE":"2025-04-03 10:34:00","FINALDATE":"2025-04-03 12:53:00","CLASS":"FireSeason","areaHA_geo":11.326},"geometry":{"type":"Polygon","coordinates":[[[-3.780674,51.754931],[-3.780809,51.754923],[-3.781065,51.754816],[-3.781445,51.75461],[-3.781947,51.754306],[-3.782571,51.753902],[-3.783052,51.75358],[-3.783389,51.753341],[-3.783581,51.753185],[-3.78363,51.753111],[-3.783706,51.75305],[-3.783809,51.753004],[-3.783939,51.752971],[-3.784096,51.752953],[-3.784228,51.752931],[-3.784334,51.752906],[-3.784415,51.752879],[-3.784471,51.752848],[-3.784494,51.752811],[-3.784484,51.752768],[-3.784441,51.752719],[-3.784365,51.752663],[-3.784291,51.752615],[-3.78422,51.752573],[-3.78415,51.752538],[-3.784083,51.75251],[-3.784078,51.752453],[-3.784137,51.752368],[-3.784258,51.752254],[-3.784442,51.752111],[-3.784544,51.751985],[-3.784566,51.751876],[-3.784507,51.751784],[-3.784366,51.751708],[-3.78421,51.751651],[-3.784038,51.751613],[-3.783851,51.751594],[-3.783649,51.751594],[-3.783496,51.751604],[-3.783392,51.751624],[-3.783336,51.751655],[-3.783329,51.751696],[-3.783294,51.751741],[-3.783231,51.751788],[-3.783139,51.751839],[-3.783019,51.751894],[-3.782905,51.751888],[-3.782796,51.751823],[-3.782694,51.751697],[-3.782597,51.751511],[-3.782597,51.751364],[-3.782694,51.751254],[-3.782886,51.751182],[-3.783176,51.751147],[-3.783363,51.751095],[-3.783449,51.751024],[-3.783433,51.750936],[-3.783315,51.750829],[-3.783208,51.750763],[-3.783113,51.750738],[-3.783028,51.750754],[-3.782954,51.750811],[-3.782887,51.750859],[-3.782827,51.750896],[-3.782774,51.750923],[-3.782727,51.750941],[-3.782681,51.750944],[-3.782635,51.750934],[-3.78259,51.750909],[-3.782546,51.75087],[-3.782508,51.750826],[-3.782476,51.750778],[-3.782452,51.750724],[-3.782434,51.750666],[-3.782406,51.750594],[-3.78237,51.750508],[-3.782324,51.750408],[-3.782269,51.750293],[-3.782199,51.750238],[-3.782112,51.750243],[-3.782009,51.750306],[-3.781891,51.750429],[-3.781787,51.750499],[-3.781699,51.750518],[-3.781625,51.750484],[-3.781566,51.750399],[-3.781474,51.750338],[-3.781349,51.750303],[-3.781191,51.750293],[-3.781,51.750307],[-3.780845,51.750319],[-3.780728,51.750329],[-3.780647,51.750337],[-3.780603,51.750342],[-3.780568,51.750333],[-3.780541,51.75031],[-3.780523,51.750273],[-3.780514,51.750222],[-3.780443,51.750182],[-3.78031,51.750154],[-3.780116,51.750136],[-3.77986,51.750131],[-3.779706,51.750164],[-3.779653,51.750236],[-3.779702,51.750348],[-3.779853,51.750499],[-3.779949,51.750618],[-3.779988,51.750704],[-3.779972,51.750757],[-3.7799,51.750777],[-3.779832,51.75082],[-3.779767,51.750884],[-3.779706,51.750969],[-3.779648,51.751077],[-3.779615,51.751183],[-3.779609,51.751289],[-3.779628,51.751393],[-3.779673,51.751496],[-3.779692,51.751594],[-3.779685,51.751688],[-3.779652,51.751776],[-3.779593,51.75186],[-3.779571,51.751958],[-3.779587,51.75207],[-3.779639,51.752198],[-3.779729,51.75234],[-3.779779,51.752469],[-3.779788,51.752585],[-3.779758,51.752687],[-3.779688,51.752775],[-3.779655,51.75285],[-3.779661,51.752909],[-3.779704,51.752954],[-3.779785,51.752985],[-3.779844,51.753075],[-3.77988,51.753223],[-3.779894,51.753431],[-3.779885,51.753697],[-3.779916,51.753902],[-3.779986,51.754044],[-3.780095,51.754125],[-3.780245,51.754143],[-3.780344,51.754174],[-3.780393,51.754216],[-3.780392,51.754271],[-3.78034,51.754337],[-3.78032,51.754399],[-3.780332,51.754456],[-3.780374,51.754508],[-3.780447,51.754556],[-3.780497,51.754611],[-3.780523,51.754674],[-3.780525,51.754746],[-3.780504,51.754824],[-3.780522,51.754882],[-3.780579,51.754917],[-3.780674,51.754931]]]}}