{"type":"Feature","properties":{"id":"266013","COMMUNE":"Perth and Kinross","PROVINCE":"Perth & Kinross and Stirling","COUNTRY":"UK","FIREDATE":"2025-03-20 13:08:00","CLASS":"FireSeason","areaHA_geo":9.802},"geometry":{"type":"Polygon","coordinates":[[[-3.437723,56.885012],[-3.437815,56.884991],[-3.437887,56.884922],[-3.437939,56.884805],[-3.437971,56.88464],[-3.438046,56.884521],[-3.438162,56.884449],[-3.438321,56.884423],[-3.438522,56.884443],[-3.438668,56.884442],[-3.43876,56.884421],[-3.438797,56.884379],[-3.43878,56.884316],[-3.438771,56.884245],[-3.438769,56.884166],[-3.438776,56.884079],[-3.43879,56.883983],[-3.438826,56.883912],[-3.438884,56.883865],[-3.438965,56.883842],[-3.439067,56.883843],[-3.439147,56.883824],[-3.439203,56.883786],[-3.439236,56.883728],[-3.439246,56.883651],[-3.439268,56.883593],[-3.439303,56.883556],[-3.439351,56.883539],[-3.439411,56.883541],[-3.439468,56.883529],[-3.439523,56.883501],[-3.439575,56.883458],[-3.439624,56.8834],[-3.439684,56.883376],[-3.439754,56.883384],[-3.439835,56.883427],[-3.439927,56.883502],[-3.439992,56.883521],[-3.440029,56.883484],[-3.44004,56.883389],[-3.440023,56.883238],[-3.440029,56.883128],[-3.440058,56.883059],[-3.44011,56.883031],[-3.440184,56.883044],[-3.440273,56.883035],[-3.440375,56.883005],[-3.440491,56.882954],[-3.440621,56.882882],[-3.440747,56.882806],[-3.440869,56.882726],[-3.440987,56.882642],[-3.4411,56.882553],[-3.441218,56.882483],[-3.441339,56.882431],[-3.441464,56.882397],[-3.441592,56.88238],[-3.441717,56.882352],[-3.441837,56.882312],[-3.441952,56.882259],[-3.442064,56.882195],[-3.442131,56.882127],[-3.442153,56.882055],[-3.442132,56.88198],[-3.442066,56.881902],[-3.441956,56.881836],[-3.441802,56.881781],[-3.441604,56.881739],[-3.441362,56.881708],[-3.44111,56.881634],[-3.440851,56.881518],[-3.440582,56.881358],[-3.440304,56.881154],[-3.44006,56.88098],[-3.439849,56.880835],[-3.439671,56.880718],[-3.439527,56.88063],[-3.439405,56.880545],[-3.439306,56.880463],[-3.439229,56.880384],[-3.439174,56.880307],[-3.439089,56.88025],[-3.438973,56.880212],[-3.438827,56.880193],[-3.438649,56.880194],[-3.438508,56.880216],[-3.438403,56.88026],[-3.438333,56.880324],[-3.438299,56.88041],[-3.438299,56.880499],[-3.438332,56.880591],[-3.438398,56.880686],[-3.438498,56.880784],[-3.438549,56.880872],[-3.43855,56.88095],[-3.438501,56.881017],[-3.438404,56.881074],[-3.438326,56.881143],[-3.438268,56.881222],[-3.438231,56.881313],[-3.438214,56.881414],[-3.438186,56.881491],[-3.438149,56.881544],[-3.438101,56.881572],[-3.438043,56.881575],[-3.437968,56.881542],[-3.437876,56.881474],[-3.437767,56.88137],[-3.437642,56.88123],[-3.437528,56.881127],[-3.437426,56.881059],[-3.437335,56.881028],[-3.437256,56.881034],[-3.437192,56.881086],[-3.437141,56.881185],[-3.437105,56.881331],[-3.437083,56.881525],[-3.437065,56.881684],[-3.437051,56.881811],[-3.437042,56.881903],[-3.437036,56.881963],[-3.437113,56.881994],[-3.437274,56.881998],[-3.437516,56.881974],[-3.437842,56.881923],[-3.438118,56.881891],[-3.438345,56.881877],[-3.438522,56.881883],[-3.438649,56.881908],[-3.43879,56.881939],[-3.438943,56.881976],[-3.439109,56.882019],[-3.439288,56.882068],[-3.439406,56.882125],[-3.439464,56.882189],[-3.439462,56.882261],[-3.439399,56.882341],[-3.439335,56.882421],[-3.43927,56.882501],[-3.439203,56.882582],[-3.439136,56.882662],[-3.43907,56.882743],[-3.439007,56.882822],[-3.438947,56.882902],[-3.43889,56.882982],[-3.438868,56.883048],[-3.438882,56.883103],[-3.438932,56.883145],[-3.439018,56.883174],[-3.439084,56.883209],[-3.439131,56.883249],[-3.439159,56.883296],[-3.439167,56.883348],[-3.439137,56.883385],[-3.439069,56.883406],[-3.438964,56.883413],[-3.438821,56.883404],[-3.438684,56.883391],[-3.438554,56.883372],[-3.43843,56.883348],[-3.438312,56.883319],[-3.438169,56.883275],[-3.438002,56.883214],[-3.437811,56.883138],[-3.437595,56.883046],[-3.437463,56.882971],[-3.437416,56.882915],[-3.437453,56.882875],[-3.437574,56.882854],[-3.437653,56.882822],[-3.437688,56.882778],[-3.437681,56.882724],[-3.437631,56.882659],[-3.437573,56.882593],[-3.43751,56.882528],[-3.437439,56.882463],[-3.437362,56.882397],[-3.437259,56.88234],[-3.437132,56.882292],[-3.436979,56.882252],[-3.436801,56.882221],[-3.436651,56.882175],[-3.43653,56.882116],[-3.436438,56.882043],[-3.436374,56.881955],[-3.436303,56.881864],[-3.436223,56.88177],[-3.436135,56.881672],[-3.43604,56.88157],[-3.43594,56.881496],[-3.435838,56.881449],[-3.435731,56.88143],[-3.435621,56.881439],[-3.43555,56.881462],[-3.435518,56.881499],[-3.435524,56.88155],[-3.435569,56.881616],[-3.435595,56.881676],[-3.435601,56.881732],[-3.435588,56.881781],[-3.435556,56.881826],[-3.435548,56.881891],[-3.435565,56.881975],[-3.435607,56.882081],[-3.435674,56.882206],[-3.435763,56.882299],[-3.435877,56.882359],[-3.436013,56.882386],[-3.436173,56.882382],[-3.436295,56.882389],[-3.43638,56.882408],[-3.436427,56.882439],[-3.436437,56.882482],[-3.436458,56.882532],[-3.43649,56.882591],[-3.436532,56.882657],[-3.436586,56.882731],[-3.436581,56.882781],[-3.436518,56.882808],[-3.436397,56.882812],[-3.436218,56.882792],[-3.436046,56.882759],[-3.435881,56.882711],[-3.435723,56.88265],[-3.435572,56.882575],[-3.435464,56.882542],[-3.435397,56.882552],[-3.435373,56.882604],[-3.435391,56.882699],[-3.435416,56.882788],[-3.435448,56.88287],[-3.435487,56.882945],[-3.435533,56.883013],[-3.435558,56.883084],[-3.43556,56.883158],[-3.43554,56.883233],[-3.435498,56.883311],[-3.43545,56.883388],[-3.435397,56.883464],[-3.435338,56.883539],[-3.435273,56.883613],[-3.435231,56.8837],[-3.435213,56.883799],[-3.435218,56.88391],[-3.435246,56.884033],[-3.435283,56.884147],[-3.435329,56.884253],[-3.435384,56.884349],[-3.435447,56.884437],[-3.435524,56.884515],[-3.435614,56.884585],[-3.435717,56.884647],[-3.435832,56.884699],[-3.436009,56.884749],[-3.436247,56.884796],[-3.436545,56.884841],[-3.436904,56.884883],[-3.437202,56.884921],[-3.437438,56.884955],[-3.437611,56.884986],[-3.437723,56.885012]]]}}