{"type":"Feature","properties":{"id":"266096","COMMUNE":"Neath Port Talbot","PROVINCE":"Bridgend and Neath Port Talbot","COUNTRY":"UK","FIREDATE":"2025-04-03 12:53:00","CLASS":"FireSeason","areaHA_geo":4.216},"geometry":{"type":"Polygon","coordinates":[[[-3.786857,51.747525],[-3.78693,51.747655],[-3.787018,51.747729],[-3.787121,51.747747],[-3.78724,51.747709],[-3.787338,51.7477],[-3.787416,51.747721],[-3.787474,51.747772],[-3.787512,51.747852],[-3.787561,51.747909],[-3.787621,51.747944],[-3.787691,51.747957],[-3.787773,51.747947],[-3.787879,51.747917],[-3.78801,51.747865],[-3.788165,51.747792],[-3.788345,51.747699],[-3.788518,51.747623],[-3.788686,51.747565],[-3.788848,51.747524],[-3.789004,51.747502],[-3.789162,51.747451],[-3.789323,51.747371],[-3.789487,51.747263],[-3.789653,51.747127],[-3.789801,51.746993],[-3.789929,51.746861],[-3.790039,51.746731],[-3.79013,51.746604],[-3.790247,51.746491],[-3.790389,51.746394],[-3.790558,51.746312],[-3.790752,51.746245],[-3.790793,51.746165],[-3.79068,51.746074],[-3.790413,51.745971],[-3.789993,51.745856],[-3.789643,51.74579],[-3.789364,51.745773],[-3.789156,51.745804],[-3.789018,51.745885],[-3.788903,51.745907],[-3.78881,51.74587],[-3.788739,51.745773],[-3.788691,51.745618],[-3.788607,51.745542],[-3.788487,51.745544],[-3.788331,51.745625],[-3.78814,51.745784],[-3.78797,51.745924],[-3.787821,51.746044],[-3.787694,51.746145],[-3.787589,51.746226],[-3.787498,51.74627],[-3.787423,51.746279],[-3.787363,51.746252],[-3.787317,51.746189],[-3.787261,51.746156],[-3.787194,51.746152],[-3.787118,51.746177],[-3.78703,51.746231],[-3.786982,51.746291],[-3.786972,51.746354],[-3.787001,51.746422],[-3.787069,51.746494],[-3.787092,51.746577],[-3.787068,51.74667],[-3.786999,51.746774],[-3.786885,51.746888],[-3.786813,51.74702],[-3.786785,51.747171],[-3.7868,51.747339],[-3.786857,51.747525]]]}}