{"type":"Feature","properties":{"id":"266072","COMMUNE":"Merthyr Tydfil","PROVINCE":"Central Valleys","COUNTRY":"UK","FIREDATE":"2025-04-03 01:00:00","CLASS":"FireSeason","areaHA_geo":33.558},"geometry":{"type":"Polygon","coordinates":[[[-3.336365,51.723899],[-3.336477,51.723894],[-3.336577,51.723845],[-3.336664,51.723753],[-3.336737,51.723617],[-3.336798,51.723438],[-3.336869,51.723316],[-3.336952,51.723251],[-3.337045,51.723245],[-3.337149,51.723295],[-3.337232,51.723351],[-3.337294,51.72341],[-3.337336,51.723474],[-3.337356,51.723542],[-3.337378,51.723616],[-3.337402,51.723696],[-3.337427,51.723781],[-3.337455,51.723872],[-3.337451,51.723967],[-3.337417,51.724065],[-3.337352,51.724166],[-3.337257,51.724271],[-3.337229,51.724361],[-3.33727,51.724434],[-3.33738,51.724493],[-3.337558,51.724535],[-3.337722,51.724524],[-3.337875,51.724459],[-3.338014,51.724341],[-3.33814,51.72417],[-3.338255,51.723927],[-3.338358,51.723614],[-3.338449,51.723229],[-3.338529,51.722773],[-3.338615,51.722435],[-3.338709,51.722217],[-3.338809,51.722117],[-3.338916,51.722136],[-3.339014,51.721997],[-3.339103,51.721701],[-3.339183,51.721246],[-3.339254,51.720634],[-3.339299,51.720147],[-3.339318,51.719784],[-3.33931,51.719546],[-3.339276,51.719432],[-3.339267,51.719351],[-3.339284,51.719302],[-3.339327,51.719285],[-3.339395,51.719301],[-3.339472,51.719227],[-3.339556,51.719065],[-3.339649,51.718813],[-3.33975,51.718472],[-3.339909,51.718248],[-3.340124,51.718141],[-3.340397,51.71815],[-3.340727,51.718277],[-3.340985,51.718336],[-3.341173,51.718326],[-3.341289,51.718248],[-3.341334,51.718102],[-3.3414,51.717971],[-3.341486,51.717855],[-3.341592,51.717754],[-3.341719,51.717669],[-3.341837,51.717585],[-3.341945,51.717502],[-3.342045,51.71742],[-3.342135,51.717339],[-3.342231,51.717281],[-3.342335,51.717246],[-3.342446,51.717233],[-3.342563,51.717243],[-3.342686,51.717199],[-3.342816,51.717102],[-3.342952,51.716951],[-3.343094,51.716747],[-3.343182,51.716535],[-3.343218,51.716315],[-3.343201,51.716087],[-3.343131,51.715852],[-3.343092,51.715647],[-3.343084,51.715472],[-3.343107,51.715326],[-3.343161,51.71521],[-3.343194,51.715086],[-3.343205,51.714956],[-3.343196,51.714817],[-3.343165,51.714672],[-3.343158,51.714541],[-3.343174,51.714426],[-3.343214,51.714325],[-3.343277,51.71424],[-3.343193,51.714171],[-3.342962,51.714119],[-3.342583,51.714084],[-3.342057,51.714066],[-3.341601,51.714036],[-3.341214,51.713994],[-3.340896,51.71394],[-3.340648,51.713875],[-3.340434,51.713827],[-3.340254,51.713796],[-3.340107,51.713784],[-3.339994,51.713789],[-3.339875,51.713783],[-3.33975,51.713766],[-3.339618,51.713738],[-3.339479,51.713699],[-3.339369,51.713714],[-3.339288,51.713782],[-3.339235,51.713903],[-3.339212,51.714079],[-3.339149,51.714209],[-3.339048,51.714295],[-3.338908,51.714337],[-3.338729,51.714334],[-3.338596,51.71429],[-3.338507,51.714207],[-3.338464,51.714082],[-3.338465,51.713917],[-3.338439,51.713775],[-3.338384,51.713656],[-3.338301,51.71356],[-3.33819,51.713486],[-3.338072,51.713343],[-3.337944,51.71313],[-3.337809,51.712847],[-3.337666,51.712495],[-3.337528,51.712235],[-3.337395,51.712066],[-3.337267,51.711988],[-3.337144,51.712002],[-3.33705,51.712048],[-3.336985,51.712126],[-3.336948,51.712236],[-3.336939,51.712379],[-3.336951,51.712522],[-3.336981,51.712668],[-3.337032,51.712815],[-3.337102,51.712964],[-3.337155,51.713099],[-3.337191,51.71322],[-3.33721,51.713328],[-3.337213,51.713422],[-3.337107,51.713522],[-3.336891,51.713629],[-3.336566,51.713743],[-3.336133,51.713863],[-3.335847,51.714074],[-3.335709,51.714377],[-3.335718,51.71477],[-3.335875,51.715254],[-3.335979,51.715642],[-3.336028,51.715934],[-3.336023,51.716131],[-3.335965,51.716232],[-3.335949,51.716327],[-3.335976,51.716418],[-3.336046,51.716505],[-3.336159,51.716586],[-3.336219,51.716659],[-3.336226,51.716725],[-3.33618,51.716783],[-3.336081,51.716834],[-3.336035,51.716945],[-3.336042,51.717117],[-3.336102,51.717349],[-3.336215,51.717642],[-3.336326,51.717876],[-3.336436,51.718052],[-3.336544,51.718169],[-3.33665,51.718227],[-3.336742,51.718301],[-3.336819,51.71839],[-3.336882,51.718495],[-3.336931,51.718615],[-3.336964,51.718748],[-3.336983,51.718895],[-3.336986,51.719055],[-3.336975,51.719229],[-3.336985,51.719381],[-3.337017,51.719511],[-3.337072,51.719618],[-3.337148,51.719704],[-3.337139,51.720022],[-3.337043,51.720574],[-3.336862,51.72136],[-3.336596,51.722379],[-3.336424,51.723141],[-3.336347,51.723648],[-3.336365,51.723899]]]}}