{"type":"Feature","properties":{"id":"266097","COMMUNE":"Neath Port Talbot","PROVINCE":"Bridgend and Neath Port Talbot","COUNTRY":"UK","FIREDATE":"2025-03-21 11:39:04.198","FINALDATE":"2025-03-22 11:39:10.883","CLASS":"FireSeason","areaHA_geo":10.43},"geometry":{"type":"Polygon","coordinates":[[[-3.80945,51.755181],[-3.809641,51.755206],[-3.809802,51.755172],[-3.809933,51.755078],[-3.810032,51.754925],[-3.810178,51.754785],[-3.81037,51.754658],[-3.810609,51.754544],[-3.810893,51.754443],[-3.811078,51.754349],[-3.811162,51.754261],[-3.811147,51.754181],[-3.811031,51.754107],[-3.810932,51.754037],[-3.810849,51.753972],[-3.810782,51.75391],[-3.810732,51.753852],[-3.81072,51.753805],[-3.810747,51.75377],[-3.810813,51.753746],[-3.810918,51.753734],[-3.811014,51.753734],[-3.811099,51.753745],[-3.811174,51.753769],[-3.81124,51.753805],[-3.811306,51.753812],[-3.811373,51.753791],[-3.811441,51.753741],[-3.811509,51.753662],[-3.811609,51.753619],[-3.81174,51.753612],[-3.811903,51.753641],[-3.812097,51.753705],[-3.812299,51.753706],[-3.812509,51.753644],[-3.812726,51.753519],[-3.812951,51.753331],[-3.813244,51.7532],[-3.813605,51.753125],[-3.814033,51.753107],[-3.81453,51.753145],[-3.814951,51.753177],[-3.815297,51.753201],[-3.815566,51.753219],[-3.81576,51.753229],[-3.815915,51.753231],[-3.81603,51.753224],[-3.816105,51.753208],[-3.816141,51.753184],[-3.816161,51.753159],[-3.816164,51.753133],[-3.81615,51.753107],[-3.81612,51.753081],[-3.816066,51.753064],[-3.815987,51.753056],[-3.815884,51.753058],[-3.815757,51.75307],[-3.815661,51.753073],[-3.815597,51.753067],[-3.815564,51.753053],[-3.815562,51.753029],[-3.815607,51.752986],[-3.815699,51.752923],[-3.815838,51.75284],[-3.816024,51.752737],[-3.816198,51.752653],[-3.81636,51.752586],[-3.81651,51.752538],[-3.816648,51.752508],[-3.816716,51.752473],[-3.816714,51.752431],[-3.816642,51.752383],[-3.8165,51.752329],[-3.816391,51.752281],[-3.816315,51.752238],[-3.816272,51.7522],[-3.816262,51.752168],[-3.816226,51.752154],[-3.816165,51.75216],[-3.816079,51.752184],[-3.815967,51.752228],[-3.815847,51.752279],[-3.815718,51.752338],[-3.815581,51.752405],[-3.815435,51.75248],[-3.815339,51.7525],[-3.815294,51.752467],[-3.815298,51.75238],[-3.815352,51.752239],[-3.815421,51.752137],[-3.815506,51.752075],[-3.815605,51.752053],[-3.815719,51.752069],[-3.815827,51.752066],[-3.815928,51.752042],[-3.816024,51.751998],[-3.816113,51.751933],[-3.816138,51.751878],[-3.816099,51.751832],[-3.815996,51.751796],[-3.81583,51.751769],[-3.815706,51.751733],[-3.815624,51.751689],[-3.815585,51.751636],[-3.815588,51.751575],[-3.815572,51.751534],[-3.815538,51.751513],[-3.815486,51.751512],[-3.815416,51.75153],[-3.815359,51.751527],[-3.815316,51.751502],[-3.815286,51.751455],[-3.81527,51.751386],[-3.815277,51.751329],[-3.815306,51.751284],[-3.815358,51.75125],[-3.815433,51.751227],[-3.815475,51.751198],[-3.815482,51.751162],[-3.815457,51.751119],[-3.815398,51.751069],[-3.815364,51.751018],[-3.815356,51.750967],[-3.815374,51.750915],[-3.815418,51.750863],[-3.815442,51.750817],[-3.815446,51.750778],[-3.815431,51.750745],[-3.815395,51.750719],[-3.815344,51.750703],[-3.815276,51.750695],[-3.815193,51.750698],[-3.815093,51.75071],[-3.814987,51.750737],[-3.814875,51.750778],[-3.814756,51.750835],[-3.814631,51.750907],[-3.814525,51.750952],[-3.814438,51.750969],[-3.814369,51.750959],[-3.81432,51.750921],[-3.814232,51.750925],[-3.814108,51.750972],[-3.813946,51.751061],[-3.813747,51.751192],[-3.813593,51.751306],[-3.813484,51.751401],[-3.813419,51.751478],[-3.8134,51.751538],[-3.813353,51.751581],[-3.81328,51.751608],[-3.81318,51.75162],[-3.813053,51.751614],[-3.812911,51.751643],[-3.812753,51.751706],[-3.81258,51.751802],[-3.812391,51.751932],[-3.812248,51.752045],[-3.81215,51.752143],[-3.812098,51.752224],[-3.812091,51.752289],[-3.812049,51.752328],[-3.811971,51.752342],[-3.811859,51.752331],[-3.811711,51.752295],[-3.811602,51.752294],[-3.811531,51.752327],[-3.811498,51.752396],[-3.811503,51.7525],[-3.811475,51.752557],[-3.811416,51.752567],[-3.811324,51.752531],[-3.811201,51.752448],[-3.811049,51.752415],[-3.810868,51.752431],[-3.81066,51.752497],[-3.810424,51.752613],[-3.810244,51.752713],[-3.81012,51.752798],[-3.810053,51.752868],[-3.810043,51.752923],[-3.810017,51.752979],[-3.809974,51.753034],[-3.809915,51.75309],[-3.80984,51.753146],[-3.809738,51.753213],[-3.809609,51.75329],[-3.809454,51.753378],[-3.809273,51.753477],[-3.809148,51.753521],[-3.809082,51.753508],[-3.809073,51.75344],[-3.809122,51.753317],[-3.809106,51.753244],[-3.809026,51.753222],[-3.808881,51.75325],[-3.808671,51.753329],[-3.808514,51.753459],[-3.80841,51.753641],[-3.808358,51.753875],[-3.80836,51.754161],[-3.808388,51.754383],[-3.808443,51.754543],[-3.808525,51.75464],[-3.808633,51.754674],[-3.808721,51.754715],[-3.808787,51.754763],[-3.808833,51.754817],[-3.808857,51.754878],[-3.808931,51.754945],[-3.809054,51.755018],[-3.809227,51.755096],[-3.80945,51.755181]]]}}