{"type":"Feature","properties":{"id":"266020","COMMUNE":"Dumfries and Galloway","PROVINCE":"Dumfries & Galloway","COUNTRY":"UK","FIREDATE":"2025-03-17 17:49:33.155","FINALDATE":"2025-03-18 17:49:35.944","CLASS":"FireSeason","areaHA_geo":15.368},"geometry":{"type":"Polygon","coordinates":[[[-4.895937,54.971453],[-4.896286,54.971777],[-4.896631,54.971993],[-4.896971,54.972102],[-4.897308,54.972102],[-4.897607,54.972125],[-4.89787,54.972168],[-4.898095,54.972234],[-4.898284,54.972321],[-4.898468,54.97238],[-4.898647,54.97241],[-4.898822,54.972411],[-4.898992,54.972384],[-4.899182,54.972331],[-4.899393,54.972254],[-4.899626,54.972153],[-4.899878,54.972026],[-4.900008,54.971923],[-4.900014,54.971843],[-4.899897,54.971787],[-4.899657,54.971754],[-4.899457,54.971709],[-4.899298,54.971653],[-4.899179,54.971585],[-4.899101,54.971505],[-4.899122,54.971456],[-4.899241,54.971438],[-4.899459,54.971451],[-4.899776,54.971496],[-4.900062,54.971497],[-4.900317,54.971456],[-4.90054,54.971373],[-4.900733,54.971246],[-4.900852,54.971114],[-4.900896,54.970974],[-4.900865,54.970829],[-4.90076,54.970676],[-4.90075,54.970592],[-4.900833,54.970575],[-4.901011,54.970626],[-4.901284,54.970744],[-4.90154,54.970852],[-4.901781,54.97095],[-4.902006,54.971038],[-4.902215,54.971116],[-4.902421,54.97116],[-4.902623,54.97117],[-4.902821,54.971146],[-4.903015,54.971088],[-4.903173,54.971004],[-4.903293,54.970893],[-4.903377,54.970756],[-4.903424,54.970592],[-4.903508,54.970481],[-4.90363,54.970421],[-4.90379,54.970414],[-4.903987,54.970459],[-4.904198,54.970471],[-4.904425,54.970451],[-4.904666,54.970398],[-4.904922,54.970312],[-4.905088,54.970194],[-4.905164,54.970044],[-4.90515,54.969862],[-4.905046,54.969648],[-4.904907,54.969469],[-4.904733,54.969325],[-4.904524,54.969216],[-4.904281,54.969143],[-4.904035,54.969136],[-4.903788,54.969197],[-4.903538,54.969325],[-4.903287,54.96952],[-4.903105,54.969683],[-4.902992,54.969813],[-4.902947,54.969911],[-4.902972,54.969977],[-4.902945,54.970018],[-4.902867,54.970034],[-4.902738,54.970026],[-4.902558,54.969993],[-4.902396,54.969985],[-4.902252,54.970002],[-4.902127,54.970045],[-4.90202,54.970112],[-4.901909,54.97016],[-4.901793,54.970188],[-4.901673,54.970195],[-4.901548,54.970183],[-4.90144,54.97015],[-4.901348,54.970096],[-4.901271,54.970021],[-4.901212,54.969925],[-4.901102,54.969825],[-4.900943,54.96972],[-4.900734,54.969611],[-4.900476,54.969498],[-4.900249,54.969405],[-4.900054,54.969333],[-4.89989,54.96928],[-4.899758,54.969248],[-4.899656,54.969207],[-4.899583,54.969158],[-4.89954,54.969099],[-4.899527,54.969032],[-4.899532,54.968956],[-4.899554,54.968871],[-4.899594,54.968777],[-4.899652,54.968674],[-4.899722,54.968574],[-4.899807,54.968478],[-4.899904,54.968386],[-4.900015,54.968297],[-4.900072,54.968194],[-4.900076,54.968076],[-4.900027,54.967945],[-4.899925,54.967799],[-4.899772,54.967727],[-4.899568,54.967727],[-4.899313,54.967801],[-4.899008,54.967947],[-4.898658,54.968088],[-4.898264,54.968221],[-4.897825,54.968348],[-4.897342,54.968468],[-4.896951,54.968604],[-4.896654,54.968757],[-4.89645,54.968925],[-4.896339,54.969111],[-4.896216,54.969285],[-4.896079,54.969449],[-4.895929,54.969603],[-4.895767,54.969746],[-4.895665,54.969868],[-4.895625,54.969969],[-4.895646,54.970049],[-4.895728,54.970108],[-4.89574,54.970163],[-4.895681,54.970215],[-4.895552,54.970263],[-4.895352,54.970308],[-4.895291,54.970449],[-4.895368,54.970687],[-4.895583,54.971022],[-4.895937,54.971453]]]}}