{"type":"Feature","properties":{"id":"266104","COMMUNE":"Powys","PROVINCE":"Powys","COUNTRY":"UK","FIREDATE":"2025-04-02 11:46:21.01","FINALDATE":"2025-04-03 11:46:24.51","CLASS":"FireSeason","areaHA_geo":1.553},"geometry":{"type":"Polygon","coordinates":[[[-3.736227,51.77082],[-3.736268,51.770893],[-3.736336,51.77093],[-3.736431,51.770932],[-3.736553,51.770897],[-3.736644,51.770895],[-3.736704,51.770927],[-3.736733,51.770992],[-3.73673,51.771091],[-3.736749,51.771163],[-3.736789,51.771207],[-3.736851,51.771224],[-3.736934,51.771215],[-3.736991,51.771233],[-3.737023,51.771281],[-3.737028,51.771357],[-3.737007,51.771462],[-3.737024,51.771522],[-3.737078,51.771536],[-3.73717,51.771505],[-3.737299,51.771428],[-3.737423,51.771378],[-3.737543,51.771356],[-3.737657,51.771361],[-3.737767,51.771393],[-3.737863,51.771402],[-3.737945,51.771388],[-3.738013,51.771352],[-3.738068,51.771292],[-3.738131,51.771248],[-3.738202,51.771222],[-3.738282,51.771211],[-3.73837,51.771217],[-3.738432,51.771175],[-3.738467,51.771085],[-3.738476,51.770946],[-3.738459,51.77076],[-3.738393,51.770594],[-3.738278,51.77045],[-3.738116,51.770327],[-3.737905,51.770224],[-3.737659,51.770178],[-3.737379,51.770186],[-3.737065,51.77025],[-3.736716,51.770369],[-3.736458,51.770486],[-3.736291,51.7706],[-3.736214,51.770711],[-3.736227,51.77082]]]}}