{"type":"Feature","properties":{"id":"266144","COMMUNE":"Carmarthenshire","PROVINCE":"South West Wales","COUNTRY":"UK","FIREDATE":"2025-04-01 12:59:37.986","FINALDATE":"2025-04-02 12:59:43.343","CLASS":"FireSeason","areaHA_geo":89.837},"geometry":{"type":"Polygon","coordinates":[[[-4.183739,52.027498],[-4.183952,52.02757],[-4.184173,52.027594],[-4.184403,52.02757],[-4.184641,52.027498],[-4.184883,52.027458],[-4.185129,52.02745],[-4.185378,52.027473],[-4.185631,52.027528],[-4.185826,52.02756],[-4.185965,52.02757],[-4.186046,52.027558],[-4.186069,52.027523],[-4.186057,52.027484],[-4.186008,52.027442],[-4.185924,52.027396],[-4.185803,52.027347],[-4.18571,52.027299],[-4.185643,52.027254],[-4.185603,52.027211],[-4.18559,52.027169],[-4.185602,52.027135],[-4.185641,52.027106],[-4.185706,52.027083],[-4.185796,52.027067],[-4.185824,52.02703],[-4.185788,52.026973],[-4.185689,52.026896],[-4.185527,52.026798],[-4.185375,52.026705],[-4.185234,52.026618],[-4.185103,52.026537],[-4.184982,52.02646],[-4.184892,52.026423],[-4.184832,52.026425],[-4.184801,52.026466],[-4.184801,52.026547],[-4.184763,52.026598],[-4.184688,52.026621],[-4.184574,52.026614],[-4.184424,52.026579],[-4.184285,52.026562],[-4.18416,52.026564],[-4.184047,52.026585],[-4.183946,52.026624],[-4.18385,52.026625],[-4.18376,52.026588],[-4.183675,52.026512],[-4.183595,52.026399],[-4.183603,52.02629],[-4.1837,52.026185],[-4.183885,52.026083],[-4.184159,52.025986],[-4.184396,52.025896],[-4.184595,52.025813],[-4.184758,52.025737],[-4.184884,52.025668],[-4.184989,52.025634],[-4.185072,52.025635],[-4.185133,52.02567],[-4.185173,52.02574],[-4.185234,52.025807],[-4.185316,52.025872],[-4.185419,52.025935],[-4.185543,52.025994],[-4.185659,52.02603],[-4.185767,52.026041],[-4.185867,52.026027],[-4.185959,52.025989],[-4.186052,52.025966],[-4.186145,52.025957],[-4.186238,52.025963],[-4.186332,52.025984],[-4.1864,52.025978],[-4.186442,52.025947],[-4.186458,52.025888],[-4.186449,52.025804],[-4.186475,52.02575],[-4.186537,52.025727],[-4.186635,52.025733],[-4.186769,52.025771],[-4.186915,52.0258],[-4.187075,52.02582],[-4.187246,52.025833],[-4.187431,52.025837],[-4.187563,52.025822],[-4.187644,52.025788],[-4.187673,52.025736],[-4.187649,52.025664],[-4.187596,52.025601],[-4.187514,52.025546],[-4.187401,52.025501],[-4.187259,52.025465],[-4.187148,52.0254],[-4.18707,52.025305],[-4.187024,52.025181],[-4.187009,52.025028],[-4.187023,52.024894],[-4.187064,52.02478],[-4.187134,52.024684],[-4.187231,52.024608],[-4.187276,52.024517],[-4.187268,52.024411],[-4.187208,52.024291],[-4.187094,52.024155],[-4.187015,52.024032],[-4.186972,52.023923],[-4.186962,52.023826],[-4.186988,52.023743],[-4.18699,52.023669],[-4.18697,52.023605],[-4.186926,52.02355],[-4.186859,52.023505],[-4.186794,52.023451],[-4.18673,52.023389],[-4.186669,52.023319],[-4.186609,52.023241],[-4.186576,52.023173],[-4.18657,52.023115],[-4.186592,52.023067],[-4.18664,52.023029],[-4.186654,52.022983],[-4.186633,52.02293],[-4.186576,52.022869],[-4.186484,52.0228],[-4.18632,52.022731],[-4.186085,52.022664],[-4.185778,52.022597],[-4.1854,52.022531],[-4.185113,52.022464],[-4.184917,52.022397],[-4.184812,52.022329],[-4.184799,52.022262],[-4.184814,52.022201],[-4.184858,52.022148],[-4.184931,52.022101],[-4.185031,52.022062],[-4.18515,52.022045],[-4.185287,52.02205],[-4.185441,52.022077],[-4.185613,52.022125],[-4.185762,52.022153],[-4.185886,52.022159],[-4.185985,52.022144],[-4.186061,52.022108],[-4.186075,52.022057],[-4.186028,52.021991],[-4.185919,52.021909],[-4.185748,52.021812],[-4.185629,52.021733],[-4.185561,52.021672],[-4.185545,52.021629],[-4.18558,52.021603],[-4.185584,52.021566],[-4.185556,52.021519],[-4.185496,52.021461],[-4.185404,52.021392],[-4.185295,52.021318],[-4.18517,52.02124],[-4.185028,52.021157],[-4.184869,52.02107],[-4.184795,52.021009],[-4.184806,52.020976],[-4.184902,52.020969],[-4.185083,52.02099],[-4.185254,52.021016],[-4.185417,52.021047],[-4.18557,52.021083],[-4.185714,52.021125],[-4.18586,52.021144],[-4.186007,52.021142],[-4.186157,52.021119],[-4.186308,52.021074],[-4.186473,52.02104],[-4.186654,52.021018],[-4.186848,52.021008],[-4.187058,52.021009],[-4.187212,52.021001],[-4.187311,52.020984],[-4.187355,52.020957],[-4.187343,52.020921],[-4.187305,52.020883],[-4.18724,52.020843],[-4.187148,52.020801],[-4.187029,52.020756],[-4.186946,52.020709],[-4.186899,52.020659],[-4.186889,52.020605],[-4.186914,52.020549],[-4.186976,52.020512],[-4.187075,52.020494],[-4.187211,52.020496],[-4.187384,52.020518],[-4.187568,52.020537],[-4.187765,52.020553],[-4.187974,52.020567],[-4.188195,52.020577],[-4.18834,52.020553],[-4.188408,52.020494],[-4.1884,52.0204],[-4.188315,52.020272],[-4.188264,52.020167],[-4.188246,52.020086],[-4.188263,52.020029],[-4.188313,52.019997],[-4.188337,52.019963],[-4.188335,52.019928],[-4.188306,52.019893],[-4.188251,52.019857],[-4.188134,52.019817],[-4.187954,52.019772],[-4.187711,52.019722],[-4.187406,52.019669],[-4.187165,52.019602],[-4.186987,52.019522],[-4.186872,52.019429],[-4.18682,52.019323],[-4.186803,52.019221],[-4.186819,52.019123],[-4.186869,52.019029],[-4.186954,52.018938],[-4.187072,52.018853],[-4.187225,52.018773],[-4.187412,52.018698],[-4.187634,52.018628],[-4.187847,52.01858],[-4.188051,52.018552],[-4.188247,52.018546],[-4.188435,52.01856],[-4.188595,52.018596],[-4.188726,52.018652],[-4.188829,52.018729],[-4.188904,52.018827],[-4.188932,52.018919],[-4.188912,52.019007],[-4.188845,52.01909],[-4.188731,52.019168],[-4.188634,52.019246],[-4.188554,52.019322],[-4.188491,52.019398],[-4.188445,52.019473],[-4.18847,52.019522],[-4.188565,52.019545],[-4.188729,52.019543],[-4.188964,52.019514],[-4.189161,52.019517],[-4.18932,52.019551],[-4.189441,52.019616],[-4.189525,52.019713],[-4.189597,52.019776],[-4.189659,52.019806],[-4.18971,52.019803],[-4.189751,52.019766],[-4.189813,52.019729],[-4.189897,52.019692],[-4.190003,52.019655],[-4.19013,52.019618],[-4.190218,52.019554],[-4.190267,52.019462],[-4.190277,52.019344],[-4.190248,52.019198],[-4.190263,52.019089],[-4.190322,52.019018],[-4.190427,52.018984],[-4.190576,52.018987],[-4.190695,52.018984],[-4.190784,52.018976],[-4.190843,52.018962],[-4.190871,52.018943],[-4.190887,52.018897],[-4.19089,52.018824],[-4.19088,52.018726],[-4.190857,52.0186],[-4.190846,52.018492],[-4.190847,52.018401],[-4.19086,52.018327],[-4.190886,52.018271],[-4.190903,52.018203],[-4.190913,52.018124],[-4.190914,52.018035],[-4.190908,52.017934],[-4.19097,52.017864],[-4.191101,52.017824],[-4.191301,52.017814],[-4.191569,52.017835],[-4.191803,52.017838],[-4.192003,52.017825],[-4.19217,52.017794],[-4.192302,52.017746],[-4.192409,52.017685],[-4.19249,52.017611],[-4.192545,52.017524],[-4.192574,52.017424],[-4.192608,52.017341],[-4.192648,52.017275],[-4.192693,52.017225],[-4.192743,52.017193],[-4.192764,52.01715],[-4.192756,52.017097],[-4.192718,52.017035],[-4.192652,52.016963],[-4.192672,52.01689],[-4.192778,52.016816],[-4.192972,52.01674],[-4.193252,52.016663],[-4.19348,52.016581],[-4.193657,52.016492],[-4.193781,52.016398],[-4.193854,52.016299],[-4.19391,52.016177],[-4.193951,52.016033],[-4.193976,52.015867],[-4.193985,52.015679],[-4.193943,52.015513],[-4.193849,52.01537],[-4.193703,52.015248],[-4.193505,52.01515],[-4.193281,52.015027],[-4.193029,52.014881],[-4.192751,52.014712],[-4.192445,52.01452],[-4.192187,52.014396],[-4.191978,52.014341],[-4.191817,52.014356],[-4.191704,52.014439],[-4.191603,52.014462],[-4.191513,52.014425],[-4.191433,52.014327],[-4.191365,52.01417],[-4.191296,52.014014],[-4.191224,52.01386],[-4.191151,52.013707],[-4.191076,52.013556],[-4.191034,52.01343],[-4.191023,52.01333],[-4.191045,52.013255],[-4.191099,52.013206],[-4.191108,52.013167],[-4.191073,52.01314],[-4.190993,52.013123],[-4.190869,52.013116],[-4.190755,52.013085],[-4.190649,52.013028],[-4.190553,52.012946],[-4.190467,52.012839],[-4.190459,52.012773],[-4.190529,52.012749],[-4.190678,52.012765],[-4.190906,52.012823],[-4.191074,52.012819],[-4.191183,52.012752],[-4.191233,52.012623],[-4.191224,52.012432],[-4.191233,52.012276],[-4.191259,52.012155],[-4.191304,52.01207],[-4.191366,52.012019],[-4.191376,52.011949],[-4.191333,52.011858],[-4.191239,52.011746],[-4.191092,52.011614],[-4.191053,52.011507],[-4.191122,52.011424],[-4.191299,52.011365],[-4.191584,52.01133],[-4.191812,52.011287],[-4.191982,52.011234],[-4.192095,52.011172],[-4.192151,52.011101],[-4.192091,52.011012],[-4.191918,52.010905],[-4.191629,52.01078],[-4.191226,52.010636],[-4.190875,52.010521],[-4.190577,52.010435],[-4.190332,52.010376],[-4.190139,52.010346],[-4.189953,52.010349],[-4.189773,52.010384],[-4.189599,52.010452],[-4.189431,52.010553],[-4.189268,52.010622],[-4.18911,52.01066],[-4.188958,52.010666],[-4.18881,52.010641],[-4.188665,52.010618],[-4.188523,52.010595],[-4.188383,52.010573],[-4.188246,52.010552],[-4.188082,52.010544],[-4.187892,52.010549],[-4.187675,52.010566],[-4.187432,52.010595],[-4.187211,52.010603],[-4.18701,52.01059],[-4.186832,52.010556],[-4.186674,52.0105],[-4.186517,52.010471],[-4.186359,52.010469],[-4.186202,52.010494],[-4.186044,52.010545],[-4.18586,52.01059],[-4.185651,52.010629],[-4.185415,52.010661],[-4.185154,52.010688],[-4.184944,52.010745],[-4.184785,52.010834],[-4.184677,52.010954],[-4.184622,52.011105],[-4.184567,52.011227],[-4.184514,52.011319],[-4.184462,52.011381],[-4.184412,52.011414],[-4.184362,52.011421],[-4.184312,52.011403],[-4.184264,52.01136],[-4.184215,52.011291],[-4.184134,52.011255],[-4.18402,52.011253],[-4.183873,52.011284],[-4.183694,52.011349],[-4.183577,52.011411],[-4.183522,52.011471],[-4.18353,52.011529],[-4.1836,52.011585],[-4.183644,52.011633],[-4.183661,52.011673],[-4.183652,52.011706],[-4.183617,52.011732],[-4.183654,52.01178],[-4.183763,52.011849],[-4.183945,52.011941],[-4.184199,52.012054],[-4.184411,52.01213],[-4.18458,52.012168],[-4.184707,52.012169],[-4.184791,52.012132],[-4.184852,52.012134],[-4.184891,52.012174],[-4.184908,52.012254],[-4.184903,52.012372],[-4.184887,52.012493],[-4.184861,52.012616],[-4.184826,52.012742],[-4.18478,52.012871],[-4.184789,52.013014],[-4.184853,52.013172],[-4.184971,52.013344],[-4.185145,52.013531],[-4.185253,52.01372],[-4.185297,52.01391],[-4.185276,52.014101],[-4.185189,52.014293],[-4.185123,52.01446],[-4.185077,52.014602],[-4.185052,52.014718],[-4.185046,52.01481],[-4.18504,52.014912],[-4.185033,52.015025],[-4.185025,52.015149],[-4.185016,52.015284],[-4.184994,52.015412],[-4.184959,52.015534],[-4.184911,52.015649],[-4.18485,52.015758],[-4.184813,52.015899],[-4.184799,52.016071],[-4.184808,52.016276],[-4.18484,52.016513],[-4.184889,52.016724],[-4.184954,52.016912],[-4.185034,52.017074],[-4.185131,52.017212],[-4.185184,52.017338],[-4.185195,52.017451],[-4.185162,52.017553],[-4.185086,52.017642],[-4.18503,52.017697],[-4.184993,52.017718],[-4.184975,52.017704],[-4.184977,52.017655],[-4.184933,52.017625],[-4.184841,52.017612],[-4.184703,52.017617],[-4.184519,52.017639],[-4.184353,52.017672],[-4.184206,52.017717],[-4.184078,52.017773],[-4.183969,52.017839],[-4.183817,52.017895],[-4.183623,52.01794],[-4.183385,52.017974],[-4.183105,52.017998],[-4.182817,52.018027],[-4.182519,52.018064],[-4.182212,52.018106],[-4.181897,52.018155],[-4.181607,52.018241],[-4.181341,52.018364],[-4.181101,52.018524],[-4.180886,52.018721],[-4.180699,52.01888],[-4.180542,52.019001],[-4.180414,52.019083],[-4.180315,52.019127],[-4.180214,52.01916],[-4.180112,52.01918],[-4.180008,52.019189],[-4.179902,52.019186],[-4.179803,52.01921],[-4.179711,52.019261],[-4.179625,52.019339],[-4.179546,52.019445],[-4.179553,52.019595],[-4.179646,52.01979],[-4.179825,52.020028],[-4.18009,52.020312],[-4.180251,52.020542],[-4.180308,52.020719],[-4.180261,52.020844],[-4.18011,52.020916],[-4.179951,52.02099],[-4.179784,52.021066],[-4.179609,52.021145],[-4.179426,52.021226],[-4.179251,52.021331],[-4.179083,52.021461],[-4.178924,52.021615],[-4.178772,52.021794],[-4.178715,52.02194],[-4.178751,52.022053],[-4.178881,52.022133],[-4.179106,52.022181],[-4.179316,52.02226],[-4.179513,52.022369],[-4.179695,52.02251],[-4.179864,52.022682],[-4.179933,52.022803],[-4.179903,52.022874],[-4.179775,52.022893],[-4.179547,52.022862],[-4.179366,52.022869],[-4.179233,52.022915],[-4.179147,52.022999],[-4.179107,52.023121],[-4.179142,52.023241],[-4.179249,52.023359],[-4.17943,52.023475],[-4.179685,52.023588],[-4.179894,52.023719],[-4.18006,52.023867],[-4.18018,52.024033],[-4.180257,52.024216],[-4.180302,52.024377],[-4.180317,52.024517],[-4.1803,52.024635],[-4.180253,52.024732],[-4.180206,52.024823],[-4.180159,52.024909],[-4.180113,52.024989],[-4.180068,52.025064],[-4.180024,52.025144],[-4.179982,52.02523],[-4.179941,52.02532],[-4.179902,52.025416],[-4.179885,52.025526],[-4.17989,52.025651],[-4.179918,52.025791],[-4.179968,52.025945],[-4.180039,52.026078],[-4.180131,52.026189],[-4.180245,52.02628],[-4.180381,52.026349],[-4.180518,52.026371],[-4.180659,52.026346],[-4.180801,52.026274],[-4.180946,52.026155],[-4.181079,52.026096],[-4.181201,52.026097],[-4.181313,52.026158],[-4.181413,52.02628],[-4.181535,52.02639],[-4.181681,52.02649],[-4.181849,52.026579],[-4.18204,52.026658],[-4.182208,52.026699],[-4.182353,52.026702],[-4.182475,52.026669],[-4.182574,52.026598],[-4.18266,52.026555],[-4.182734,52.026541],[-4.182795,52.026555],[-4.182844,52.026597],[-4.182912,52.026647],[-4.183,52.026703],[-4.183107,52.026766],[-4.183234,52.026836],[-4.183317,52.026905],[-4.183356,52.026972],[-4.183351,52.027038],[-4.183303,52.027103],[-4.183317,52.027181],[-4.183394,52.027273],[-4.183535,52.027379],[-4.183739,52.027498]]]}}