{"type":"Feature","properties":{"id":"266124","COMMUNE":"Mid and East Antrim","PROVINCE":"Mid and East Antrim","COUNTRY":"UK","FIREDATE":"2025-03-12 13:06:00","CLASS":"FireSeason","areaHA_geo":2.868},"geometry":{"type":"Polygon","coordinates":[[[-5.984543,54.842632],[-5.984632,54.842687],[-5.984707,54.842663],[-5.984769,54.842561],[-5.984818,54.842379],[-5.984879,54.842225],[-5.984952,54.842098],[-5.985038,54.842],[-5.985135,54.841928],[-5.985167,54.841838],[-5.985133,54.841728],[-5.985033,54.841599],[-5.984866,54.841451],[-5.984765,54.841287],[-5.984729,54.841106],[-5.984759,54.84091],[-5.984853,54.840697],[-5.984935,54.840522],[-5.985004,54.840385],[-5.98506,54.840286],[-5.985103,54.840224],[-5.985142,54.840165],[-5.985175,54.840108],[-5.985202,54.840053],[-5.985225,54.84],[-5.985255,54.839958],[-5.985293,54.839926],[-5.98534,54.839906],[-5.985394,54.839896],[-5.985435,54.839853],[-5.985463,54.839777],[-5.985478,54.839668],[-5.985479,54.839526],[-5.985484,54.839401],[-5.985492,54.839294],[-5.985503,54.839205],[-5.985519,54.839133],[-5.985532,54.839063],[-5.985542,54.838993],[-5.985551,54.838924],[-5.985558,54.838857],[-5.985593,54.83879],[-5.985656,54.838723],[-5.985748,54.838657],[-5.985867,54.838591],[-5.985959,54.838533],[-5.986024,54.838483],[-5.986062,54.838441],[-5.986072,54.838406],[-5.985983,54.838362],[-5.985795,54.83831],[-5.985507,54.83825],[-5.98512,54.83818],[-5.984841,54.83815],[-5.98467,54.83816],[-5.984607,54.838209],[-5.984652,54.838298],[-5.984645,54.838379],[-5.984584,54.838452],[-5.984471,54.838518],[-5.984305,54.838576],[-5.984217,54.838717],[-5.984208,54.838942],[-5.984277,54.839252],[-5.984424,54.839644],[-5.984491,54.839973],[-5.984475,54.840238],[-5.984379,54.84044],[-5.984201,54.840577],[-5.984073,54.84069],[-5.983997,54.840777],[-5.983971,54.840841],[-5.983996,54.840879],[-5.984004,54.840923],[-5.983995,54.840973],[-5.983969,54.841029],[-5.983926,54.84109],[-5.983904,54.84117],[-5.983904,54.841267],[-5.983926,54.841382],[-5.98397,54.841516],[-5.984028,54.841619],[-5.984101,54.841692],[-5.984188,54.841734],[-5.98429,54.841746],[-5.984375,54.841765],[-5.984444,54.841791],[-5.984496,54.841823],[-5.984531,54.841863],[-5.984539,54.841917],[-5.98452,54.841983],[-5.984473,54.842063],[-5.984399,54.842156],[-5.984369,54.84226],[-5.984383,54.842374],[-5.984441,54.842498],[-5.984543,54.842632]]]}}