{"type":"Feature","properties":{"id":"266171","COMMUNE":"Conwy","PROVINCE":"Conwy and Denbighshire","COUNTRY":"UK","FIREDATE":"2025-04-01 15:27:56.209","FINALDATE":"2025-04-02 15:27:59.024","CLASS":"FireSeason","areaHA_geo":2.386},"geometry":{"type":"Polygon","coordinates":[[[-3.930013,53.253221],[-3.93004,53.253294],[-3.930097,53.253342],[-3.930184,53.253365],[-3.930302,53.253363],[-3.930402,53.253353],[-3.930484,53.253336],[-3.930549,53.25331],[-3.930596,53.253277],[-3.930649,53.253255],[-3.930707,53.253243],[-3.93077,53.253242],[-3.930838,53.253251],[-3.930898,53.253247],[-3.93095,53.253228],[-3.930993,53.253194],[-3.931029,53.253147],[-3.931071,53.253119],[-3.931121,53.253109],[-3.931179,53.253119],[-3.931244,53.253147],[-3.931331,53.253165],[-3.931439,53.253173],[-3.93157,53.25317],[-3.931723,53.253156],[-3.931894,53.25314],[-3.932084,53.253121],[-3.932292,53.253099],[-3.932518,53.253074],[-3.932694,53.253046],[-3.93282,53.253014],[-3.932897,53.25298],[-3.932923,53.252942],[-3.932935,53.252907],[-3.932931,53.252875],[-3.932913,53.252846],[-3.93288,53.25282],[-3.932863,53.252793],[-3.932862,53.252768],[-3.932877,53.252742],[-3.932907,53.252717],[-3.932961,53.252694],[-3.933039,53.252672],[-3.93314,53.252653],[-3.933265,53.252636],[-3.93337,53.25263],[-3.933456,53.252635],[-3.933523,53.252651],[-3.933571,53.252679],[-3.933617,53.252703],[-3.933662,53.252726],[-3.933706,53.252745],[-3.933747,53.252762],[-3.933799,53.252779],[-3.93386,53.252795],[-3.933931,53.252812],[-3.934011,53.252829],[-3.934088,53.252849],[-3.934163,53.252872],[-3.934234,53.2529],[-3.934302,53.252931],[-3.93435,53.252962],[-3.934377,53.252992],[-3.934383,53.253023],[-3.934369,53.253054],[-3.934332,53.253071],[-3.934271,53.253074],[-3.934188,53.253064],[-3.934081,53.25304],[-3.933997,53.253031],[-3.933937,53.253036],[-3.9339,53.253055],[-3.933887,53.253088],[-3.933861,53.253111],[-3.933823,53.253122],[-3.933772,53.253123],[-3.933708,53.253113],[-3.933649,53.253104],[-3.933595,53.253094],[-3.933546,53.253085],[-3.933502,53.253075],[-3.933442,53.253078],[-3.933366,53.253092],[-3.933273,53.253117],[-3.933164,53.253154],[-3.933102,53.253185],[-3.933085,53.253208],[-3.933115,53.253225],[-3.933191,53.253235],[-3.933284,53.253243],[-3.933394,53.253251],[-3.933521,53.253257],[-3.933665,53.253262],[-3.933804,53.253266],[-3.933939,53.25327],[-3.934068,53.253273],[-3.934192,53.253276],[-3.934321,53.253282],[-3.934455,53.253292],[-3.934593,53.253305],[-3.934736,53.253322],[-3.934821,53.253318],[-3.934846,53.253295],[-3.934812,53.253252],[-3.934718,53.25319],[-3.934666,53.253139],[-3.934655,53.253101],[-3.934684,53.253075],[-3.934755,53.253061],[-3.934844,53.253056],[-3.934953,53.253059],[-3.935081,53.253072],[-3.935229,53.253094],[-3.935378,53.253105],[-3.935529,53.253106],[-3.935682,53.253095],[-3.935837,53.253074],[-3.935986,53.253066],[-3.936128,53.253071],[-3.936263,53.25309],[-3.936392,53.253121],[-3.93652,53.253151],[-3.936648,53.25318],[-3.936776,53.253208],[-3.936903,53.253235],[-3.937046,53.253264],[-3.937204,53.253295],[-3.937377,53.253329],[-3.937565,53.253365],[-3.937696,53.253378],[-3.937771,53.25337],[-3.937788,53.253339],[-3.937749,53.253286],[-3.9377,53.25324],[-3.93764,53.253202],[-3.93757,53.253172],[-3.93749,53.25315],[-3.937436,53.253125],[-3.937406,53.253098],[-3.937402,53.253069],[-3.937423,53.253038],[-3.937427,53.25299],[-3.937413,53.252925],[-3.937381,53.252844],[-3.937332,53.252746],[-3.937275,53.252665],[-3.937211,53.252601],[-3.937139,53.252554],[-3.937059,53.252525],[-3.93699,53.252512],[-3.936932,53.252516],[-3.936885,53.252536],[-3.936849,53.252574],[-3.936842,53.252622],[-3.936866,53.252682],[-3.936919,53.252754],[-3.937002,53.252836],[-3.937035,53.252888],[-3.937019,53.252909],[-3.936953,53.252898],[-3.936838,53.252857],[-3.936735,53.252809],[-3.936644,53.252754],[-3.936566,53.252692],[-3.9365,53.252623],[-3.936404,53.252575],[-3.936279,53.252548],[-3.936125,53.252541],[-3.935941,53.252555],[-3.935783,53.252574],[-3.935652,53.252598],[-3.935548,53.252627],[-3.935469,53.252661],[-3.935393,53.252682],[-3.93532,53.252691],[-3.93525,53.252689],[-3.935182,53.252673],[-3.9351,53.252658],[-3.935005,53.252644],[-3.934895,53.252629],[-3.934772,53.252614],[-3.93464,53.252604],[-3.934499,53.252597],[-3.934349,53.252594],[-3.934189,53.252596],[-3.934028,53.252589],[-3.933865,53.252575],[-3.9337,53.252553],[-3.933534,53.252524],[-3.933385,53.252501],[-3.933256,53.252486],[-3.933145,53.252478],[-3.933053,53.252477],[-3.932966,53.252489],[-3.932883,53.252514],[-3.932805,53.252551],[-3.932732,53.252602],[-3.932655,53.252642],[-3.932571,53.252673],[-3.932483,53.252694],[-3.93239,53.252704],[-3.932299,53.252717],[-3.932209,53.252731],[-3.932121,53.252747],[-3.932035,53.252764],[-3.931957,53.252785],[-3.931887,53.252811],[-3.931825,53.25284],[-3.93177,53.252874],[-3.931706,53.252892],[-3.931632,53.252894],[-3.931548,53.25288],[-3.931453,53.252851],[-3.931302,53.252839],[-3.931094,53.252846],[-3.930829,53.25287],[-3.930506,53.252912],[-3.930264,53.252968],[-3.9301,53.253038],[-3.930017,53.253122],[-3.930013,53.253221]]]}}