{"type":"Feature","properties":{"id":"266194","COMMUNE":"Gwynedd","PROVINCE":"Gwynedd","COUNTRY":"UK","FIREDATE":"2025-04-01 15:48:21.826","FINALDATE":"2025-04-02 15:48:26.423","CLASS":"FireSeason","areaHA_geo":1.219},"geometry":{"type":"Polygon","coordinates":[[[-4.172733,52.989489],[-4.172774,52.989518],[-4.172843,52.989534],[-4.17294,52.989537],[-4.173066,52.989527],[-4.17316,52.989502],[-4.173223,52.989464],[-4.173253,52.989412],[-4.173251,52.989345],[-4.173277,52.989296],[-4.17333,52.989264],[-4.17341,52.989249],[-4.173519,52.989252],[-4.173576,52.989244],[-4.173581,52.989224],[-4.173535,52.989192],[-4.173438,52.989149],[-4.17338,52.989112],[-4.17336,52.989081],[-4.17338,52.989056],[-4.173438,52.989037],[-4.173497,52.989025],[-4.173557,52.98902],[-4.173618,52.989022],[-4.17368,52.989032],[-4.173754,52.989031],[-4.17384,52.989019],[-4.173938,52.988996],[-4.174049,52.988962],[-4.174147,52.988935],[-4.174233,52.988913],[-4.174307,52.988899],[-4.174369,52.98889],[-4.174424,52.988879],[-4.174473,52.988864],[-4.174515,52.988847],[-4.174551,52.988827],[-4.174605,52.988811],[-4.174675,52.988799],[-4.174764,52.988791],[-4.17487,52.988787],[-4.174951,52.988772],[-4.175009,52.988748],[-4.175043,52.988713],[-4.175052,52.988668],[-4.175032,52.988635],[-4.174983,52.988615],[-4.174904,52.988606],[-4.174796,52.988609],[-4.174724,52.988607],[-4.174689,52.988599],[-4.174691,52.988585],[-4.174729,52.988566],[-4.174764,52.988542],[-4.174798,52.988514],[-4.174828,52.988481],[-4.174856,52.988444],[-4.174893,52.988422],[-4.174939,52.988416],[-4.174993,52.988426],[-4.175056,52.988451],[-4.175103,52.988465],[-4.175135,52.988469],[-4.17515,52.988462],[-4.17515,52.988443],[-4.175157,52.988424],[-4.175169,52.988402],[-4.175187,52.988379],[-4.175211,52.988354],[-4.175245,52.988328],[-4.175288,52.988301],[-4.175342,52.988273],[-4.175405,52.988244],[-4.175454,52.988212],[-4.175488,52.988177],[-4.175507,52.98814],[-4.175512,52.988101],[-4.175501,52.988075],[-4.175472,52.988062],[-4.175427,52.988062],[-4.175364,52.988076],[-4.175304,52.98809],[-4.175247,52.988106],[-4.175192,52.988123],[-4.175139,52.988142],[-4.17508,52.988155],[-4.175014,52.988164],[-4.174941,52.988167],[-4.174862,52.988166],[-4.174796,52.988169],[-4.174743,52.988177],[-4.174703,52.98819],[-4.174677,52.988208],[-4.174647,52.988239],[-4.174615,52.988283],[-4.174581,52.98834],[-4.174543,52.98841],[-4.174506,52.988457],[-4.174469,52.988483],[-4.174432,52.988487],[-4.174396,52.988468],[-4.174347,52.98846],[-4.174286,52.988463],[-4.174213,52.988477],[-4.174129,52.988501],[-4.17407,52.988509],[-4.174037,52.988499],[-4.174031,52.988471],[-4.17405,52.988426],[-4.174022,52.988398],[-4.173948,52.988386],[-4.173826,52.988391],[-4.173657,52.988413],[-4.173515,52.988438],[-4.1734,52.988467],[-4.173313,52.988501],[-4.173252,52.988539],[-4.173193,52.988578],[-4.173135,52.988619],[-4.173078,52.988661],[-4.173022,52.988706],[-4.172984,52.988744],[-4.172964,52.988776],[-4.172962,52.988802],[-4.172979,52.988822],[-4.173007,52.988844],[-4.173047,52.988868],[-4.173098,52.988895],[-4.17316,52.988924],[-4.173192,52.988948],[-4.173194,52.988966],[-4.173166,52.98898],[-4.173108,52.988988],[-4.173052,52.988992],[-4.172997,52.988992],[-4.172944,52.988987],[-4.172893,52.988979],[-4.17285,52.988967],[-4.172815,52.988952],[-4.172789,52.988933],[-4.172772,52.988911],[-4.172758,52.988883],[-4.172748,52.98885],[-4.172742,52.988811],[-4.172739,52.988766],[-4.172731,52.988722],[-4.172717,52.98868],[-4.172697,52.988638],[-4.172671,52.988597],[-4.172645,52.988577],[-4.172619,52.988577],[-4.172592,52.988598],[-4.172565,52.988639],[-4.17253,52.988681],[-4.172486,52.988725],[-4.172433,52.988771],[-4.172372,52.988818],[-4.172321,52.988864],[-4.172282,52.988909],[-4.172253,52.988953],[-4.172234,52.988995],[-4.172234,52.989027],[-4.172251,52.989049],[-4.172287,52.989062],[-4.17234,52.989064],[-4.172384,52.989071],[-4.17242,52.989083],[-4.172446,52.9891],[-4.172464,52.989122],[-4.172493,52.989142],[-4.172533,52.98916],[-4.172585,52.989175],[-4.172648,52.989189],[-4.172692,52.989209],[-4.172719,52.989238],[-4.172727,52.989274],[-4.172718,52.989317],[-4.172713,52.989361],[-4.172714,52.989404],[-4.172721,52.989446],[-4.172733,52.989489]]]}}