{"type":"Feature","properties":{"id":"266182","COMMUNE":"Gwynedd","PROVINCE":"Gwynedd","COUNTRY":"UK","FIREDATE":"2025-03-31 13:48:00","CLASS":"FireSeason","areaHA_geo":534.956},"geometry":{"type":"Polygon","coordinates":[[[-4.244618,53.001365],[-4.244895,53.00142],[-4.245093,53.001454],[-4.245104,53.001429],[-4.245158,53.001236],[-4.245231,53.001064],[-4.245323,53.000915],[-4.245433,53.000788],[-4.245561,53.000683],[-4.245673,53.000605],[-4.245767,53.000554],[-4.245844,53.000529],[-4.245904,53.000531],[-4.24598,53.000499],[-4.24607,53.000435],[-4.246175,53.000338],[-4.246295,53.000207],[-4.246406,53.000118],[-4.246509,53.00007],[-4.246604,53.000063],[-4.246689,53.000098],[-4.246748,53.00014],[-4.24678,53.00019],[-4.246784,53.000247],[-4.246761,53.000312],[-4.24677,53.00036],[-4.24681,53.000391],[-4.246881,53.000405],[-4.246984,53.000401],[-4.247086,53.000407],[-4.247188,53.000422],[-4.247289,53.000445],[-4.247389,53.000478],[-4.24747,53.000475],[-4.247531,53.000436],[-4.247573,53.000362],[-4.247596,53.000252],[-4.24763,53.000141],[-4.247674,53.000029],[-4.247729,52.999915],[-4.247795,52.9998],[-4.24782,52.999697],[-4.247804,52.999605],[-4.247747,52.999525],[-4.24765,52.999456],[-4.247587,52.999377],[-4.247556,52.999287],[-4.24756,52.999186],[-4.247597,52.999075],[-4.24765,52.998977],[-4.247719,52.998893],[-4.247803,52.998823],[-4.247903,52.998766],[-4.24799,52.998702],[-4.248062,52.998631],[-4.248122,52.998552],[-4.248167,52.998467],[-4.248162,52.998407],[-4.248107,52.998374],[-4.248,52.998366],[-4.247843,52.998385],[-4.247702,52.998375],[-4.247578,52.998337],[-4.24747,52.998269],[-4.247378,52.998173],[-4.247381,52.99807],[-4.247478,52.997961],[-4.24767,52.997844],[-4.247956,52.997721],[-4.24821,52.997581],[-4.248433,52.997425],[-4.248625,52.997252],[-4.248785,52.997064],[-4.248946,52.996924],[-4.249109,52.996833],[-4.249274,52.996791],[-4.24944,52.996798],[-4.249635,52.996783],[-4.249861,52.996747],[-4.250117,52.99669],[-4.250403,52.996611],[-4.25062,52.996592],[-4.250767,52.996632],[-4.250845,52.996732],[-4.250849,52.996801],[-4.250932,52.996789],[-4.25118,52.996759],[-4.251374,52.996726],[-4.251516,52.996691],[-4.251604,52.996653],[-4.25164,52.996612],[-4.251762,52.996536],[-4.251971,52.996427],[-4.252266,52.996283],[-4.252648,52.996105],[-4.252664,52.996074],[-4.252305,52.995882],[-4.251881,52.995616],[-4.251419,52.99529],[-4.250919,52.994904],[-4.250491,52.994558],[-4.250136,52.994253],[-4.249914,52.994043],[-4.249798,52.994043],[-4.249506,52.993997],[-4.249191,52.993906],[-4.248851,52.99377],[-4.248571,52.993658],[-4.248352,52.99357],[-4.248192,52.993507],[-4.248093,52.993467],[-4.248024,52.993424],[-4.247984,52.993377],[-4.247973,52.993327],[-4.247992,52.993273],[-4.247948,52.993216],[-4.247842,52.993155],[-4.247673,52.99309],[-4.247442,52.993022],[-4.247231,52.992959],[-4.24704,52.992901],[-4.246869,52.992848],[-4.246717,52.9928],[-4.246579,52.992763],[-4.246454,52.992738],[-4.246342,52.992723],[-4.246243,52.992721],[-4.246152,52.992706],[-4.24607,52.992679],[-4.245995,52.99264],[-4.245929,52.992589],[-4.245848,52.992566],[-4.245751,52.99257],[-4.245639,52.992602],[-4.245512,52.992661],[-4.245403,52.992739],[-4.245312,52.992834],[-4.245239,52.992948],[-4.245185,52.993079],[-4.245165,52.993194],[-4.245179,52.993292],[-4.245228,52.993372],[-4.24531,52.993436],[-4.245355,52.993497],[-4.245362,52.993555],[-4.245331,52.99361],[-4.245263,52.993662],[-4.245216,52.993716],[-4.245192,52.99377],[-4.245189,52.993826],[-4.245208,52.993882],[-4.24519,52.993949],[-4.245136,52.994025],[-4.245045,52.994112],[-4.244918,52.994208],[-4.24481,52.994309],[-4.244723,52.994415],[-4.244656,52.994526],[-4.244609,52.994642],[-4.244607,52.994738],[-4.24465,52.994814],[-4.24474,52.99487],[-4.244874,52.994905],[-4.244952,52.994936],[-4.244973,52.994963],[-4.244938,52.994986],[-4.244846,52.995004],[-4.244751,52.995015],[-4.244655,52.99502],[-4.244556,52.995017],[-4.244454,52.995007],[-4.244364,52.995023],[-4.244287,52.995066],[-4.244221,52.995134],[-4.244166,52.995229],[-4.244103,52.995343],[-4.244031,52.995477],[-4.24395,52.99563],[-4.243861,52.995803],[-4.243771,52.995902],[-4.243682,52.995927],[-4.243592,52.995879],[-4.243502,52.995757],[-4.243465,52.995655],[-4.24348,52.995572],[-4.243548,52.995509],[-4.243668,52.995465],[-4.243757,52.99542],[-4.243815,52.995372],[-4.243842,52.995323],[-4.243837,52.995272],[-4.243815,52.995223],[-4.243775,52.995177],[-4.243717,52.995132],[-4.243641,52.995089],[-4.243556,52.995028],[-4.243462,52.994947],[-4.243358,52.994847],[-4.243245,52.994728],[-4.243104,52.99462],[-4.242937,52.994522],[-4.242742,52.994435],[-4.24252,52.994359],[-4.242313,52.99429],[-4.242121,52.994228],[-4.241943,52.994174],[-4.24178,52.994127],[-4.24161,52.994094],[-4.241432,52.994075],[-4.241246,52.99407],[-4.241053,52.994078],[-4.240896,52.994069],[-4.240777,52.994043],[-4.240695,52.994],[-4.24065,52.993939],[-4.240665,52.993882],[-4.240739,52.993829],[-4.240873,52.99378],[-4.241067,52.993734],[-4.241293,52.993676],[-4.241551,52.993605],[-4.241842,52.99352],[-4.242165,52.993422],[-4.242417,52.993306],[-4.242599,52.99317],[-4.24271,52.993015],[-4.24275,52.992841],[-4.242761,52.992672],[-4.242743,52.992509],[-4.242697,52.99235],[-4.242621,52.992198],[-4.242618,52.992104],[-4.242686,52.99207],[-4.242827,52.992096],[-4.243039,52.992181],[-4.243209,52.992276],[-4.243336,52.992382],[-4.243421,52.992499],[-4.243464,52.992627],[-4.243563,52.992705],[-4.24372,52.992734],[-4.243934,52.992714],[-4.244206,52.992644],[-4.244405,52.992578],[-4.244531,52.992515],[-4.244584,52.992456],[-4.244566,52.992399],[-4.244514,52.992354],[-4.244429,52.99232],[-4.244311,52.992297],[-4.24416,52.992286],[-4.244041,52.992252],[-4.243955,52.992196],[-4.243901,52.992118],[-4.24388,52.992017],[-4.243816,52.991926],[-4.243708,52.991843],[-4.243558,52.991769],[-4.243364,52.991704],[-4.24317,52.991609],[-4.242976,52.991485],[-4.24278,52.991332],[-4.242585,52.991149],[-4.242409,52.990999],[-4.242253,52.990882],[-4.242117,52.990797],[-4.242002,52.990745],[-4.241825,52.990712],[-4.241588,52.9907],[-4.24129,52.990708],[-4.240932,52.990736],[-4.240669,52.99074],[-4.240503,52.99072],[-4.240433,52.990675],[-4.240459,52.990605],[-4.240559,52.990547],[-4.240733,52.990501],[-4.240982,52.990465],[-4.241306,52.990441],[-4.241492,52.990403],[-4.241542,52.990349],[-4.241454,52.99028],[-4.24123,52.990197],[-4.241043,52.990132],[-4.240893,52.990088],[-4.240781,52.990063],[-4.240705,52.990057],[-4.240611,52.990041],[-4.240497,52.990014],[-4.240365,52.989976],[-4.240214,52.989928],[-4.24006,52.989899],[-4.239904,52.989888],[-4.239744,52.989896],[-4.239581,52.989923],[-4.239418,52.989931],[-4.239255,52.989922],[-4.239092,52.989893],[-4.23893,52.989846],[-4.238783,52.989829],[-4.238652,52.989841],[-4.238537,52.989882],[-4.238438,52.989953],[-4.238283,52.989968],[-4.238073,52.989927],[-4.237808,52.98983],[-4.237487,52.989677],[-4.237178,52.989579],[-4.236882,52.989538],[-4.236599,52.989551],[-4.236327,52.989621],[-4.23605,52.98967],[-4.235765,52.989701],[-4.235474,52.989712],[-4.235177,52.989703],[-4.23493,52.989716],[-4.234733,52.989751],[-4.234586,52.989807],[-4.234489,52.989885],[-4.234378,52.989946],[-4.234252,52.989991],[-4.234111,52.990018],[-4.233955,52.99003],[-4.233783,52.990048],[-4.233596,52.990075],[-4.233392,52.990108],[-4.233173,52.990149],[-4.232966,52.990209],[-4.232771,52.990287],[-4.232589,52.990385],[-4.232419,52.990501],[-4.232229,52.990584],[-4.232019,52.990635],[-4.231789,52.990653],[-4.231539,52.990639],[-4.231302,52.990673],[-4.231078,52.990755],[-4.230867,52.990885],[-4.230668,52.991063],[-4.230592,52.991203],[-4.230638,52.991304],[-4.230806,52.991367],[-4.231097,52.991391],[-4.231317,52.991416],[-4.231466,52.991443],[-4.231546,52.99147],[-4.231555,52.991498],[-4.231495,52.991518],[-4.231364,52.99153],[-4.231163,52.991534],[-4.230891,52.99153],[-4.230678,52.991563],[-4.230524,52.991633],[-4.230428,52.99174],[-4.23039,52.991884],[-4.230333,52.991953],[-4.230258,52.991948],[-4.230163,52.991867],[-4.23005,52.991711],[-4.229849,52.991586],[-4.22956,52.991492],[-4.229183,52.991429],[-4.228718,52.991396],[-4.22836,52.991362],[-4.228109,52.991325],[-4.227964,52.991287],[-4.227927,52.991248],[-4.227993,52.991188],[-4.228163,52.991109],[-4.228436,52.99101],[-4.228814,52.990891],[-4.229032,52.990781],[-4.229089,52.990678],[-4.228987,52.990584],[-4.228726,52.990497],[-4.228471,52.990461],[-4.228225,52.990476],[-4.227986,52.990542],[-4.227755,52.990658],[-4.227518,52.990748],[-4.227276,52.990814],[-4.227029,52.990855],[-4.226777,52.99087],[-4.226561,52.990885],[-4.226381,52.990899],[-4.226239,52.990912],[-4.226132,52.990925],[-4.226035,52.990928],[-4.225947,52.99092],[-4.225867,52.990902],[-4.225796,52.990873],[-4.225707,52.990855],[-4.2256,52.990845],[-4.225474,52.990846],[-4.22533,52.990855],[-4.225206,52.990878],[-4.225101,52.990912],[-4.225015,52.990959],[-4.224949,52.991019],[-4.224818,52.991057],[-4.224621,52.991073],[-4.224358,52.991067],[-4.22403,52.99104],[-4.223797,52.990995],[-4.223659,52.99093],[-4.223616,52.990847],[-4.223668,52.990745],[-4.223685,52.990657],[-4.223666,52.990582],[-4.223612,52.99052],[-4.223522,52.990472],[-4.223476,52.990417],[-4.223474,52.990354],[-4.223515,52.990285],[-4.2236,52.990209],[-4.223774,52.990096],[-4.224037,52.989947],[-4.224389,52.989761],[-4.22483,52.989539],[-4.225134,52.989335],[-4.225299,52.98915],[-4.225326,52.988983],[-4.225215,52.988834],[-4.225125,52.988674],[-4.225055,52.988502],[-4.225006,52.988318],[-4.224978,52.988123],[-4.224978,52.987965],[-4.225005,52.987844],[-4.22506,52.98776],[-4.225142,52.987713],[-4.225253,52.987667],[-4.225391,52.987621],[-4.225556,52.987575],[-4.22575,52.98753],[-4.225892,52.98746],[-4.225983,52.987364],[-4.226022,52.987244],[-4.226011,52.987098],[-4.225972,52.986983],[-4.225907,52.986899],[-4.225816,52.986845],[-4.225698,52.986822],[-4.225653,52.98678],[-4.225682,52.986718],[-4.225783,52.986636],[-4.225958,52.986534],[-4.226102,52.986441],[-4.226215,52.986358],[-4.226297,52.986283],[-4.226349,52.986218],[-4.226364,52.986171],[-4.226342,52.98614],[-4.226282,52.986127],[-4.226185,52.986131],[-4.226089,52.986146],[-4.225994,52.986173],[-4.225899,52.98621],[-4.225804,52.986258],[-4.225701,52.986288],[-4.225589,52.986302],[-4.225468,52.986298],[-4.225338,52.986277],[-4.225149,52.986268],[-4.224898,52.986272],[-4.224588,52.986289],[-4.224218,52.986319],[-4.223923,52.986317],[-4.223704,52.986285],[-4.22356,52.986221],[-4.223491,52.986126],[-4.223357,52.986044],[-4.223156,52.985976],[-4.22289,52.985922],[-4.222557,52.985881],[-4.222322,52.985865],[-4.222184,52.985874],[-4.222143,52.985908],[-4.2222,52.985968],[-4.222292,52.986023],[-4.222419,52.986074],[-4.222582,52.986121],[-4.22278,52.986163],[-4.222933,52.986209],[-4.223042,52.986259],[-4.223105,52.986312],[-4.223124,52.986369],[-4.223057,52.986443],[-4.222904,52.986535],[-4.222664,52.986644],[-4.222339,52.986772],[-4.222079,52.986876],[-4.221886,52.986958],[-4.221758,52.987018],[-4.221697,52.987054],[-4.221657,52.987111],[-4.22164,52.987186],[-4.221644,52.987282],[-4.22167,52.987396],[-4.221656,52.987484],[-4.221603,52.987546],[-4.22151,52.987581],[-4.221378,52.987589],[-4.221265,52.98759],[-4.221171,52.987583],[-4.221095,52.987568],[-4.221038,52.987545],[-4.220919,52.987517],[-4.220736,52.987484],[-4.22049,52.987445],[-4.220181,52.987401],[-4.219923,52.987373],[-4.219717,52.987361],[-4.219562,52.987365],[-4.219458,52.987385],[-4.219363,52.987385],[-4.219277,52.987366],[-4.2192,52.987327],[-4.219131,52.987269],[-4.218994,52.987217],[-4.218789,52.987172],[-4.218516,52.987133],[-4.218173,52.9871],[-4.21785,52.987069],[-4.217546,52.987039],[-4.21726,52.987011],[-4.216994,52.986984],[-4.216751,52.986963],[-4.216532,52.986949],[-4.216336,52.986941],[-4.216164,52.98694],[-4.216017,52.986922],[-4.215895,52.986889],[-4.215799,52.98684],[-4.215728,52.986774],[-4.215641,52.986733],[-4.215537,52.986716],[-4.215417,52.986723],[-4.21528,52.986754],[-4.215169,52.986751],[-4.215083,52.986714],[-4.215022,52.986642],[-4.214986,52.986536],[-4.214979,52.98643],[-4.214999,52.986324],[-4.215047,52.986219],[-4.215122,52.986115],[-4.215142,52.986035],[-4.215105,52.98598],[-4.215013,52.985951],[-4.214864,52.985947],[-4.214741,52.985919],[-4.214645,52.985868],[-4.214574,52.985794],[-4.214529,52.985696],[-4.214405,52.985591],[-4.214203,52.985479],[-4.213921,52.98536],[-4.21356,52.985234],[-4.213261,52.985148],[-4.213026,52.985103],[-4.212852,52.985098],[-4.212741,52.985133],[-4.212663,52.985183],[-4.212617,52.985248],[-4.212603,52.985326],[-4.212622,52.98542],[-4.212595,52.985506],[-4.212523,52.985584],[-4.212406,52.985655],[-4.212243,52.985719],[-4.212149,52.985815],[-4.212125,52.985943],[-4.212169,52.986103],[-4.212282,52.986296],[-4.212423,52.986435],[-4.212593,52.986522],[-4.212791,52.986555],[-4.213018,52.986535],[-4.213183,52.986562],[-4.213287,52.986634],[-4.213329,52.986752],[-4.21331,52.986916],[-4.213319,52.987055],[-4.213357,52.987168],[-4.213423,52.987256],[-4.213518,52.987318],[-4.213552,52.987377],[-4.213527,52.987431],[-4.213443,52.987482],[-4.213299,52.987528],[-4.213158,52.987547],[-4.21302,52.987538],[-4.212885,52.987501],[-4.212753,52.987435],[-4.212615,52.987389],[-4.212471,52.987362],[-4.212321,52.987355],[-4.212166,52.987366],[-4.212058,52.987392],[-4.211998,52.987432],[-4.211985,52.987487],[-4.212021,52.987556],[-4.212029,52.987629],[-4.212012,52.987704],[-4.211967,52.987783],[-4.211896,52.987865],[-4.211876,52.987934],[-4.211907,52.987989],[-4.211988,52.988031],[-4.212121,52.988059],[-4.21223,52.988112],[-4.212317,52.98819],[-4.212382,52.988293],[-4.212425,52.98842],[-4.212411,52.988518],[-4.212341,52.988585],[-4.212216,52.988622],[-4.212034,52.988629],[-4.211861,52.988652],[-4.211696,52.98869],[-4.211539,52.988743],[-4.21139,52.988813],[-4.21125,52.988842],[-4.211117,52.988832],[-4.210994,52.988783],[-4.210878,52.988694],[-4.210749,52.988628],[-4.210606,52.988586],[-4.21045,52.988568],[-4.21028,52.988574],[-4.21007,52.988624],[-4.20982,52.988721],[-4.20953,52.988862],[-4.209199,52.989049],[-4.208973,52.989227],[-4.208852,52.989396],[-4.208834,52.989556],[-4.208922,52.989707],[-4.208932,52.989848],[-4.208864,52.989977],[-4.20872,52.990096],[-4.208498,52.990203],[-4.208293,52.990279],[-4.208105,52.990324],[-4.207935,52.990337],[-4.207782,52.990318],[-4.20766,52.990322],[-4.207571,52.990347],[-4.207513,52.990395],[-4.207487,52.990464],[-4.207431,52.990526],[-4.207344,52.99058],[-4.207228,52.990627],[-4.207082,52.990667],[-4.20697,52.990728],[-4.206894,52.990811],[-4.206852,52.990915],[-4.206845,52.991041],[-4.206801,52.99114],[-4.206721,52.991212],[-4.206604,52.991257],[-4.20645,52.991276],[-4.206331,52.991259],[-4.206246,52.991206],[-4.206196,52.991119],[-4.206179,52.990995],[-4.206103,52.990903],[-4.205966,52.990842],[-4.205769,52.990813],[-4.205512,52.990814],[-4.20531,52.990779],[-4.205164,52.990708],[-4.205073,52.990601],[-4.205038,52.990458],[-4.204998,52.990329],[-4.204953,52.990213],[-4.204903,52.99011],[-4.204849,52.990021],[-4.204758,52.98996],[-4.204631,52.989927],[-4.204467,52.989923],[-4.204267,52.989947],[-4.204103,52.989926],[-4.203977,52.98986],[-4.203888,52.989749],[-4.203836,52.989594],[-4.203767,52.98944],[-4.20368,52.989288],[-4.203575,52.989139],[-4.203452,52.988992],[-4.203377,52.988876],[-4.203348,52.988791],[-4.203367,52.988737],[-4.203433,52.988714],[-4.203514,52.988708],[-4.20361,52.988719],[-4.20372,52.988746],[-4.203845,52.98879],[-4.203948,52.988787],[-4.20403,52.988737],[-4.204089,52.98864],[-4.204127,52.988495],[-4.204115,52.988348],[-4.204053,52.988197],[-4.20394,52.988043],[-4.203777,52.987886],[-4.203622,52.987759],[-4.203473,52.987663],[-4.203332,52.987597],[-4.203197,52.987561],[-4.203089,52.98756],[-4.203008,52.987591],[-4.202953,52.987657],[-4.202925,52.987756],[-4.2029,52.987856],[-4.202878,52.987958],[-4.202861,52.988062],[-4.202846,52.988166],[-4.20282,52.988234],[-4.202781,52.988264],[-4.20273,52.988257],[-4.202666,52.988214],[-4.202593,52.988171],[-4.202512,52.988129],[-4.202422,52.988088],[-4.202323,52.988048],[-4.202241,52.988007],[-4.202178,52.987963],[-4.202132,52.987917],[-4.202103,52.987869],[-4.202119,52.987823],[-4.202178,52.987779],[-4.202281,52.987737],[-4.202427,52.987698],[-4.202522,52.987651],[-4.202565,52.987598],[-4.202558,52.987538],[-4.202499,52.987472],[-4.202437,52.987433],[-4.202372,52.987423],[-4.202304,52.98744],[-4.202234,52.987485],[-4.202146,52.987516],[-4.202041,52.987532],[-4.201919,52.987534],[-4.201779,52.987521],[-4.20165,52.987501],[-4.201531,52.987475],[-4.201422,52.987442],[-4.201323,52.987402],[-4.201316,52.987335],[-4.201401,52.98724],[-4.201578,52.987118],[-4.201847,52.986968],[-4.202045,52.986836],[-4.202173,52.986721],[-4.202229,52.986625],[-4.202215,52.986545],[-4.202201,52.986475],[-4.202187,52.986414],[-4.202173,52.986363],[-4.202159,52.98632],[-4.202158,52.986261],[-4.20217,52.986186],[-4.202194,52.986095],[-4.202232,52.985988],[-4.202195,52.98593],[-4.202081,52.985921],[-4.201893,52.985962],[-4.201628,52.986052],[-4.201418,52.986147],[-4.201261,52.986247],[-4.201157,52.986351],[-4.201108,52.98646],[-4.201039,52.986594],[-4.20095,52.986752],[-4.200842,52.986934],[-4.200714,52.98714],[-4.200563,52.987322],[-4.200389,52.987479],[-4.20019,52.987611],[-4.199969,52.987719],[-4.199806,52.987819],[-4.199702,52.987912],[-4.199657,52.987999],[-4.199671,52.988078],[-4.199709,52.988147],[-4.199772,52.988206],[-4.199858,52.988254],[-4.199969,52.988293],[-4.200017,52.988335],[-4.200002,52.988381],[-4.199923,52.988431],[-4.199782,52.988484],[-4.199678,52.988532],[-4.199612,52.988573],[-4.199583,52.988607],[-4.199593,52.988636],[-4.199648,52.988664],[-4.19975,52.988692],[-4.199897,52.988721],[-4.20009,52.988749],[-4.20024,52.988783],[-4.200345,52.988822],[-4.200405,52.988866],[-4.200422,52.988916],[-4.200367,52.988954],[-4.200241,52.98898],[-4.200043,52.988994],[-4.199774,52.988997],[-4.199539,52.989019],[-4.199339,52.989062],[-4.199172,52.989124],[-4.19904,52.989206],[-4.198962,52.989292],[-4.198937,52.989384],[-4.198966,52.98948],[-4.199048,52.98958],[-4.199103,52.989699],[-4.19913,52.989835],[-4.199129,52.98999],[-4.199101,52.990163],[-4.19905,52.990296],[-4.198977,52.990389],[-4.198881,52.990443],[-4.198763,52.990457],[-4.198666,52.990478],[-4.198589,52.990505],[-4.198533,52.99054],[-4.198498,52.990581],[-4.198457,52.990626],[-4.198413,52.990675],[-4.198363,52.990729],[-4.198309,52.990787],[-4.198289,52.990848],[-4.198304,52.990913],[-4.198354,52.99098],[-4.198439,52.991051],[-4.198541,52.9911],[-4.19866,52.991126],[-4.198797,52.99113],[-4.19895,52.991112],[-4.199051,52.99112],[-4.199099,52.991154],[-4.199095,52.991216],[-4.199038,52.991303],[-4.199005,52.991387],[-4.198994,52.991465],[-4.199006,52.991539],[-4.199042,52.991608],[-4.199115,52.99169],[-4.199226,52.991783],[-4.199374,52.991889],[-4.19956,52.992006],[-4.19973,52.992093],[-4.199884,52.992148],[-4.20002,52.992172],[-4.200141,52.992165],[-4.200243,52.992197],[-4.200328,52.992268],[-4.200395,52.992378],[-4.200445,52.992526],[-4.200528,52.992621],[-4.200646,52.992662],[-4.200799,52.99265],[-4.200985,52.992583],[-4.201138,52.992547],[-4.201259,52.99254],[-4.201346,52.992562],[-4.2014,52.992615],[-4.201403,52.992688],[-4.201355,52.992782],[-4.201255,52.992897],[-4.201104,52.993033],[-4.200972,52.993152],[-4.200858,52.993254],[-4.200764,52.993338],[-4.200688,52.993406],[-4.200591,52.993455],[-4.200472,52.993484],[-4.200331,52.993493],[-4.200168,52.993483],[-4.20001,52.993496],[-4.199856,52.993533],[-4.199708,52.993593],[-4.199564,52.993677],[-4.19949,52.993759],[-4.199486,52.99384],[-4.199553,52.993921],[-4.19969,52.994],[-4.199733,52.994083],[-4.199682,52.99417],[-4.199537,52.994261],[-4.199299,52.994356],[-4.199124,52.994447],[-4.199012,52.994534],[-4.198963,52.994617],[-4.198977,52.994696],[-4.199014,52.994754],[-4.199076,52.994791],[-4.199161,52.994807],[-4.199269,52.994801],[-4.199328,52.99484],[-4.199337,52.994924],[-4.199297,52.995052],[-4.199207,52.995224],[-4.199109,52.995389],[-4.199001,52.995545],[-4.198885,52.995693],[-4.19876,52.995833],[-4.198653,52.995964],[-4.198564,52.996085],[-4.198494,52.996196],[-4.198442,52.996298],[-4.198438,52.996387],[-4.198481,52.996463],[-4.198573,52.996525],[-4.198712,52.996575],[-4.198854,52.996597],[-4.198999,52.99659],[-4.199147,52.996556],[-4.199298,52.996494],[-4.199415,52.996438],[-4.199496,52.996388],[-4.199543,52.996343],[-4.199555,52.996305],[-4.199615,52.996303],[-4.199725,52.996338],[-4.199884,52.996409],[-4.200091,52.996517],[-4.200225,52.996634],[-4.200285,52.996759],[-4.200272,52.996893],[-4.200184,52.997036],[-4.200149,52.99716],[-4.200165,52.997264],[-4.200233,52.99735],[-4.200354,52.997417],[-4.200417,52.997488],[-4.200424,52.997565],[-4.200375,52.997646],[-4.200268,52.997732],[-4.200235,52.99779],[-4.200276,52.997818],[-4.200389,52.997817],[-4.200575,52.997788],[-4.200705,52.9978],[-4.200778,52.997854],[-4.200795,52.997949],[-4.200754,52.998086],[-4.20074,52.998219],[-4.200752,52.998346],[-4.200789,52.998469],[-4.200853,52.998586],[-4.20095,52.998639],[-4.201081,52.998627],[-4.201246,52.99855],[-4.201444,52.998409],[-4.20162,52.9983],[-4.201772,52.998222],[-4.201901,52.998178],[-4.202007,52.998165],[-4.202113,52.998198],[-4.20222,52.998278],[-4.202326,52.998403],[-4.202432,52.998574],[-4.202495,52.998727],[-4.202515,52.998861],[-4.202492,52.998976],[-4.202425,52.999072],[-4.202373,52.99919],[-4.202334,52.999331],[-4.202308,52.999494],[-4.202296,52.99968],[-4.202242,52.99983],[-4.202145,52.999944],[-4.202006,53.000023],[-4.201824,53.000067],[-4.201693,53.000059],[-4.201611,52.999999],[-4.20158,52.999887],[-4.201599,52.999722],[-4.201569,52.999586],[-4.20149,52.999478],[-4.201362,52.999397],[-4.201185,52.999345],[-4.201048,52.999291],[-4.20095,52.999237],[-4.200892,52.999181],[-4.200873,52.999125],[-4.200795,52.999058],[-4.20066,52.998983],[-4.200466,52.998897],[-4.200213,52.998802],[-4.200041,52.9987],[-4.199949,52.998589],[-4.199938,52.998471],[-4.200006,52.998345],[-4.199993,52.998185],[-4.199897,52.99799],[-4.19972,52.997761],[-4.19946,52.997498],[-4.199243,52.997305],[-4.199067,52.997182],[-4.198933,52.99713],[-4.198841,52.997148],[-4.198782,52.997211],[-4.198756,52.997317],[-4.198763,52.997467],[-4.198803,52.997661],[-4.198812,52.997809],[-4.198791,52.99791],[-4.198739,52.997966],[-4.198657,52.997976],[-4.198605,52.998043],[-4.198585,52.998167],[-4.198596,52.998348],[-4.198638,52.998585],[-4.198706,52.99875],[-4.198797,52.998842],[-4.198914,52.998862],[-4.199056,52.998808],[-4.199174,52.99884],[-4.199268,52.998957],[-4.199339,52.999161],[-4.199386,52.999449],[-4.199457,52.9997],[-4.199552,52.999913],[-4.199672,53.000089],[-4.199816,53.000226],[-4.199963,53.000345],[-4.200112,53.000444],[-4.200265,53.000526],[-4.200421,53.000588],[-4.200562,53.000654],[-4.20069,53.000723],[-4.200803,53.000796],[-4.200902,53.000873],[-4.200967,53.001042],[-4.200999,53.001303],[-4.200997,53.001656],[-4.200961,53.002102],[-4.200868,53.002431],[-4.200718,53.002644],[-4.200511,53.002741],[-4.200247,53.002721],[-4.199999,53.002693],[-4.199766,53.002659],[-4.19955,53.002616],[-4.199349,53.002567],[-4.199183,53.002491],[-4.199051,53.002389],[-4.198953,53.002261],[-4.198889,53.002106],[-4.198802,53.001983],[-4.198691,53.001889],[-4.198557,53.001826],[-4.198399,53.001793],[-4.198281,53.001789],[-4.198203,53.001813],[-4.198165,53.001865],[-4.198167,53.001946],[-4.198143,53.002012],[-4.198092,53.002062],[-4.198015,53.002097],[-4.197911,53.002117],[-4.19779,53.00212],[-4.19765,53.002107],[-4.197493,53.002078],[-4.197319,53.002033],[-4.19719,53.002033],[-4.197108,53.00208],[-4.197071,53.002173],[-4.19708,53.002311],[-4.197074,53.002448],[-4.197051,53.002583],[-4.197013,53.002717],[-4.196958,53.002848],[-4.196912,53.002975],[-4.196872,53.003098],[-4.196841,53.003216],[-4.196817,53.003329],[-4.196798,53.003447],[-4.196784,53.00357],[-4.196775,53.003698],[-4.19677,53.003831],[-4.196743,53.003945],[-4.196695,53.004039],[-4.196624,53.004114],[-4.196532,53.004169],[-4.19641,53.004205],[-4.196256,53.004224],[-4.196072,53.004224],[-4.195857,53.004205],[-4.195653,53.004189],[-4.195458,53.004175],[-4.195273,53.004164],[-4.195099,53.004156],[-4.194924,53.004195],[-4.194751,53.004282],[-4.194578,53.004417],[-4.194406,53.004599],[-4.194272,53.00477],[-4.194177,53.004928],[-4.194122,53.005075],[-4.194105,53.005209],[-4.194133,53.005375],[-4.194205,53.005572],[-4.194321,53.005801],[-4.194481,53.006062],[-4.194626,53.006286],[-4.194756,53.006473],[-4.19487,53.006623],[-4.194969,53.006736],[-4.195058,53.006839],[-4.195139,53.006933],[-4.195209,53.007016],[-4.195271,53.00709],[-4.195366,53.007154],[-4.195494,53.007209],[-4.195656,53.007254],[-4.195852,53.007289],[-4.195967,53.007366],[-4.196,53.007483],[-4.195951,53.007642],[-4.195821,53.007841],[-4.195915,53.00804],[-4.196232,53.008237],[-4.196773,53.008434],[-4.197538,53.00863],[-4.198135,53.008776],[-4.198566,53.008872],[-4.19883,53.008917],[-4.198926,53.008913],[-4.199021,53.00892],[-4.199113,53.008939],[-4.199203,53.008969],[-4.19929,53.00901],[-4.199373,53.00902],[-4.199452,53.009],[-4.199527,53.008948],[-4.199598,53.008866],[-4.199724,53.008831],[-4.199906,53.008842],[-4.200143,53.0089],[-4.200436,53.009005],[-4.200658,53.009045],[-4.200809,53.00902],[-4.200889,53.008929],[-4.200899,53.008774],[-4.200961,53.008657],[-4.201077,53.008581],[-4.201246,53.008544],[-4.201468,53.008547],[-4.201637,53.008586],[-4.201754,53.00866],[-4.201818,53.008771],[-4.20183,53.008916],[-4.201893,53.009014],[-4.202007,53.009063],[-4.202173,53.009063],[-4.20239,53.009015],[-4.202541,53.008944],[-4.202626,53.008849],[-4.202645,53.008731],[-4.202598,53.008589],[-4.202563,53.008483],[-4.202539,53.008412],[-4.202528,53.008377],[-4.202558,53.008404],[-4.20262,53.00846],[-4.202712,53.008542],[-4.202834,53.008653],[-4.202948,53.008755],[-4.203053,53.008849],[-4.203149,53.008935],[-4.203236,53.009013],[-4.203324,53.009093],[-4.203413,53.009174],[-4.203502,53.009258],[-4.203591,53.009343],[-4.203658,53.009441],[-4.203702,53.009554],[-4.203722,53.00968],[-4.20372,53.00982],[-4.203741,53.009939],[-4.203786,53.010037],[-4.203854,53.010113],[-4.203946,53.010169],[-4.204071,53.010286],[-4.204229,53.010466],[-4.20442,53.010708],[-4.204644,53.011013],[-4.20474,53.011253],[-4.204707,53.01143],[-4.204545,53.011543],[-4.204254,53.011593],[-4.204087,53.011672],[-4.204044,53.01178],[-4.204123,53.011918],[-4.204326,53.012085],[-4.204445,53.01221],[-4.204479,53.012295],[-4.204429,53.012337],[-4.204294,53.012339],[-4.204144,53.012366],[-4.203977,53.012419],[-4.203795,53.012498],[-4.203596,53.012602],[-4.203471,53.012696],[-4.203419,53.01278],[-4.20344,53.012853],[-4.203535,53.012915],[-4.203649,53.012964],[-4.203784,53.012999],[-4.203938,53.013021],[-4.204113,53.01303],[-4.204291,53.013038],[-4.204471,53.013046],[-4.204655,53.013054],[-4.204841,53.013061],[-4.204992,53.013089],[-4.205106,53.013138],[-4.205185,53.013208],[-4.205227,53.013298],[-4.205275,53.013377],[-4.205328,53.013444],[-4.205386,53.0135],[-4.20545,53.013544],[-4.205564,53.013628],[-4.205728,53.013752],[-4.205942,53.013916],[-4.206206,53.01412],[-4.206425,53.014261],[-4.206599,53.01434],[-4.206727,53.014356],[-4.206809,53.014309],[-4.206852,53.014254],[-4.206856,53.014191],[-4.20682,53.01412],[-4.206744,53.014041],[-4.206672,53.013952],[-4.206602,53.013853],[-4.206536,53.013745],[-4.206472,53.013628],[-4.206503,53.013556],[-4.20663,53.01353],[-4.206851,53.01355],[-4.207167,53.013615],[-4.207457,53.013656],[-4.20772,53.013672],[-4.207957,53.013664],[-4.208167,53.013632],[-4.208437,53.013594],[-4.208766,53.013551],[-4.209155,53.013503],[-4.209603,53.013449],[-4.209991,53.013478],[-4.210316,53.01359],[-4.210581,53.013785],[-4.210783,53.014062],[-4.21112,53.014282],[-4.211591,53.014443],[-4.212196,53.014545],[-4.212935,53.014589],[-4.213552,53.014644],[-4.214046,53.014711],[-4.214419,53.014787],[-4.214669,53.014875],[-4.214959,53.014936],[-4.21529,53.01497],[-4.21566,53.014978],[-4.216071,53.014958],[-4.216403,53.014905],[-4.216657,53.01482],[-4.216832,53.014701],[-4.216929,53.01455],[-4.217081,53.014471],[-4.217287,53.014465],[-4.217549,53.014531],[-4.217865,53.01467],[-4.218071,53.014726],[-4.218167,53.0147],[-4.218152,53.014592],[-4.218027,53.014401],[-4.218015,53.014198],[-4.218115,53.013983],[-4.218328,53.013757],[-4.218654,53.01352],[-4.218843,53.013341],[-4.218895,53.01322],[-4.21881,53.013159],[-4.218588,53.013156],[-4.218377,53.013194],[-4.218176,53.013273],[-4.217986,53.013393],[-4.217807,53.013555],[-4.217582,53.013674],[-4.217313,53.01375],[-4.216999,53.013784],[-4.21664,53.013775],[-4.216292,53.013688],[-4.215955,53.013522],[-4.215628,53.013278],[-4.215312,53.012955],[-4.215024,53.012689],[-4.214764,53.012481],[-4.214533,53.01233],[-4.21433,53.012237],[-4.214171,53.012147],[-4.214057,53.012062],[-4.213987,53.01198],[-4.213961,53.011902],[-4.213842,53.011776],[-4.213631,53.011603],[-4.213327,53.011382],[-4.212931,53.011112],[-4.212574,53.010899],[-4.212258,53.010742],[-4.211982,53.010641],[-4.211746,53.010595],[-4.211487,53.010508],[-4.211205,53.01038],[-4.2109,53.010211],[-4.210572,53.009999],[-4.210277,53.009843],[-4.210017,53.009742],[-4.20979,53.009695],[-4.209596,53.009704],[-4.209414,53.009691],[-4.209243,53.009656],[-4.209083,53.0096],[-4.208934,53.009522],[-4.208749,53.009465],[-4.208529,53.009428],[-4.208272,53.009413],[-4.207979,53.009419],[-4.207693,53.009379],[-4.207413,53.009295],[-4.20714,53.009165],[-4.206874,53.008991],[-4.206588,53.008841],[-4.206282,53.008716],[-4.205957,53.008615],[-4.205612,53.008538],[-4.205285,53.008487],[-4.204976,53.008462],[-4.204685,53.008461],[-4.204411,53.008487],[-4.204194,53.00847],[-4.204033,53.008412],[-4.20393,53.008312],[-4.203882,53.008171],[-4.203874,53.008052],[-4.203903,53.007957],[-4.203971,53.007884],[-4.204077,53.007835],[-4.204194,53.007825],[-4.20432,53.007854],[-4.204456,53.007922],[-4.204602,53.00803],[-4.204769,53.008096],[-4.204955,53.008122],[-4.205162,53.008106],[-4.205388,53.00805],[-4.20557,53.007977],[-4.205705,53.007887],[-4.205796,53.00778],[-4.205841,53.007657],[-4.205894,53.00755],[-4.205955,53.007458],[-4.206025,53.007381],[-4.206103,53.007321],[-4.20617,53.007245],[-4.206225,53.007153],[-4.206269,53.007047],[-4.206303,53.006925],[-4.206327,53.006797],[-4.206344,53.006663],[-4.206352,53.006522],[-4.206352,53.006375],[-4.206318,53.006272],[-4.20625,53.006214],[-4.206147,53.0062],[-4.20601,53.006231],[-4.205879,53.006253],[-4.205754,53.006264],[-4.205635,53.006265],[-4.205522,53.006257],[-4.205456,53.006235],[-4.205439,53.0062],[-4.205469,53.006153],[-4.205547,53.006092],[-4.205608,53.006027],[-4.205653,53.005959],[-4.205681,53.005888],[-4.205693,53.005813],[-4.20572,53.005745],[-4.205761,53.005685],[-4.205817,53.005633],[-4.205888,53.005587],[-4.205956,53.005535],[-4.206023,53.005476],[-4.206086,53.005409],[-4.206148,53.005336],[-4.206157,53.005261],[-4.206113,53.005185],[-4.206017,53.005108],[-4.205868,53.00503],[-4.205792,53.004957],[-4.205787,53.004887],[-4.205854,53.004822],[-4.205993,53.004762],[-4.206095,53.00467],[-4.206159,53.004549],[-4.206185,53.004396],[-4.206173,53.004214],[-4.206232,53.004115],[-4.206362,53.004099],[-4.206563,53.004167],[-4.206834,53.004319],[-4.207099,53.004414],[-4.207357,53.004453],[-4.207609,53.004436],[-4.207855,53.004363],[-4.208076,53.004318],[-4.208273,53.004302],[-4.208446,53.004314],[-4.208595,53.004355],[-4.208745,53.004383],[-4.208897,53.004398],[-4.209051,53.0044],[-4.209207,53.004389],[-4.20929,53.004407],[-4.209299,53.004453],[-4.209235,53.004529],[-4.209098,53.004634],[-4.209029,53.004749],[-4.209028,53.004874],[-4.209095,53.005009],[-4.209229,53.005155],[-4.209378,53.005309],[-4.209542,53.005469],[-4.209721,53.005637],[-4.209914,53.005813],[-4.210145,53.005971],[-4.210413,53.006112],[-4.210718,53.006236],[-4.21106,53.006342],[-4.211337,53.006429],[-4.21155,53.006495],[-4.211697,53.006542],[-4.21178,53.006569],[-4.211893,53.006589],[-4.212039,53.006601],[-4.212215,53.006605],[-4.212423,53.006603],[-4.212663,53.006642],[-4.212935,53.006724],[-4.21324,53.006847],[-4.213578,53.007013],[-4.213889,53.007147],[-4.214175,53.007249],[-4.214435,53.007319],[-4.214668,53.007357],[-4.214946,53.007407],[-4.215266,53.007468],[-4.215631,53.00754],[-4.216039,53.007624],[-4.216377,53.00767],[-4.216644,53.007679],[-4.21684,53.00765],[-4.216965,53.007584],[-4.216994,53.007516],[-4.216928,53.007446],[-4.216766,53.007375],[-4.216509,53.007303],[-4.216237,53.007222],[-4.215949,53.007131],[-4.215645,53.007031],[-4.215327,53.006922],[-4.21508,53.006852],[-4.214904,53.006821],[-4.214799,53.00683],[-4.214766,53.006878],[-4.214692,53.006904],[-4.214576,53.006907],[-4.214419,53.006887],[-4.214221,53.006844],[-4.214042,53.006786],[-4.213883,53.006713],[-4.213743,53.006625],[-4.213623,53.006522],[-4.213503,53.006429],[-4.213384,53.006348],[-4.213266,53.006278],[-4.213148,53.006218],[-4.212978,53.006159],[-4.212756,53.006101],[-4.212482,53.006044],[-4.212156,53.005987],[-4.211889,53.005912],[-4.21168,53.005819],[-4.21153,53.005708],[-4.211438,53.00558],[-4.21139,53.005473],[-4.211387,53.005389],[-4.211427,53.005327],[-4.211512,53.005287],[-4.211612,53.005255],[-4.211727,53.00523],[-4.211856,53.005213],[-4.212,53.005203],[-4.212183,53.005018],[-4.212407,53.004656],[-4.212669,53.004119],[-4.212972,53.003406],[-4.213294,53.00288],[-4.213635,53.002541],[-4.213995,53.002389],[-4.214375,53.002425],[-4.214653,53.002419],[-4.214827,53.002372],[-4.214899,53.002285],[-4.214869,53.002156],[-4.214931,53.002058],[-4.215087,53.001992],[-4.215336,53.001957],[-4.215678,53.001952],[-4.215905,53.001924],[-4.216016,53.00187],[-4.216011,53.001791],[-4.215891,53.001688],[-4.215835,53.001604],[-4.215845,53.001541],[-4.215919,53.001497],[-4.216058,53.001473],[-4.216218,53.001327],[-4.216399,53.001059],[-4.2166,53.000668],[-4.216822,53.000156],[-4.21778,52.999874],[-4.219475,52.999823],[-4.221905,53.000001],[-4.225072,53.00041],[-4.227447,53.000733],[-4.229029,53.000971],[-4.229819,53.001123],[-4.229817,53.001189],[-4.229812,53.001275],[-4.229803,53.001379],[-4.229792,53.001502],[-4.229778,53.001643],[-4.229779,53.001766],[-4.229796,53.001871],[-4.229827,53.001957],[-4.229875,53.002025],[-4.22993,53.002054],[-4.229994,53.002042],[-4.230066,53.001991],[-4.230146,53.001901],[-4.230228,53.001816],[-4.230312,53.001736],[-4.230397,53.001661],[-4.230485,53.001592],[-4.230615,53.001569],[-4.230789,53.001592],[-4.231005,53.001662],[-4.231265,53.001778],[-4.231478,53.001839],[-4.231646,53.001845],[-4.231767,53.001795],[-4.231843,53.00169],[-4.231937,53.001595],[-4.232049,53.001508],[-4.232179,53.001429],[-4.232328,53.00136],[-4.232419,53.001255],[-4.232452,53.001115],[-4.232427,53.00094],[-4.232344,53.000729],[-4.232313,53.000571],[-4.232333,53.000465],[-4.232405,53.000413],[-4.232527,53.000413],[-4.232638,53.000467],[-4.232736,53.000577],[-4.232821,53.000742],[-4.232894,53.000961],[-4.233012,53.001129],[-4.233173,53.001246],[-4.233379,53.001312],[-4.233629,53.001326],[-4.233895,53.001312],[-4.234176,53.001272],[-4.234472,53.001203],[-4.234783,53.001107],[-4.235047,53.00107],[-4.235263,53.001092],[-4.235431,53.001173],[-4.235552,53.001313],[-4.235765,53.0014],[-4.23607,53.001433],[-4.236468,53.001413],[-4.236959,53.00134],[-4.237348,53.001291],[-4.237635,53.001268],[-4.237819,53.00127],[-4.237902,53.001297],[-4.237971,53.001347],[-4.238027,53.001422],[-4.238068,53.00152],[-4.238097,53.001641],[-4.238142,53.00173],[-4.238203,53.001785],[-4.238281,53.001807],[-4.238375,53.001796],[-4.238464,53.001776],[-4.238546,53.001748],[-4.238623,53.001711],[-4.238694,53.001666],[-4.238807,53.001628],[-4.238963,53.001598],[-4.239161,53.001577],[-4.239402,53.001562],[-4.239621,53.001529],[-4.239818,53.001476],[-4.239993,53.001403],[-4.240146,53.001311],[-4.240277,53.001261],[-4.240384,53.001252],[-4.240468,53.001284],[-4.24053,53.001357],[-4.240582,53.001451],[-4.240626,53.001563],[-4.240661,53.001695],[-4.240687,53.001847],[-4.240741,53.001943],[-4.240822,53.001985],[-4.240931,53.001972],[-4.241068,53.001904],[-4.241177,53.001815],[-4.241257,53.001707],[-4.241309,53.001577],[-4.241332,53.001427],[-4.241408,53.001306],[-4.241537,53.001213],[-4.241718,53.001149],[-4.241952,53.001114],[-4.242125,53.001052],[-4.242237,53.000965],[-4.242288,53.000853],[-4.242278,53.000714],[-4.242321,53.000576],[-4.242417,53.00044],[-4.242565,53.000304],[-4.242766,53.00017],[-4.24294,53.000057],[-4.243087,52.999966],[-4.243208,52.999896],[-4.243302,52.999848],[-4.243399,52.999844],[-4.243498,52.999883],[-4.2436,52.999967],[-4.243704,53.000094],[-4.243815,53.000208],[-4.243934,53.000308],[-4.244061,53.000394],[-4.244196,53.000466],[-4.244266,53.000557],[-4.244272,53.000667],[-4.244214,53.000795],[-4.244091,53.000942],[-4.244047,53.001067],[-4.244081,53.00117],[-4.244194,53.00125],[-4.244385,53.001308],[-4.244618,53.001365]]]}}