{"type":"Feature","properties":{"id":"266138","COMMUNE":"Carmarthenshire","PROVINCE":"South West Wales","COUNTRY":"UK","FIREDATE":"2025-04-01 13:29:00","FINALDATE":"2025-04-01 13:29:00","CLASS":"FireSeason","areaHA_geo":27.981},"geometry":{"type":"Polygon","coordinates":[[[-4.162522,52.016553],[-4.16279,52.016302],[-4.16296,52.015747],[-4.163033,52.014888],[-4.163008,52.013726],[-4.163008,52.012829],[-4.163031,52.012196],[-4.163078,52.011827],[-4.163149,52.011722],[-4.163129,52.011607],[-4.163019,52.011481],[-4.162819,52.011345],[-4.162528,52.011199],[-4.162259,52.011095],[-4.162013,52.011034],[-4.16179,52.011016],[-4.161589,52.01104],[-4.161392,52.011053],[-4.161201,52.011055],[-4.161015,52.011046],[-4.160835,52.011025],[-4.160776,52.010992],[-4.16084,52.010947],[-4.161026,52.010889],[-4.161335,52.01082],[-4.161414,52.010687],[-4.161264,52.010492],[-4.160885,52.010233],[-4.160277,52.009912],[-4.159804,52.009673],[-4.159466,52.009516],[-4.159264,52.009441],[-4.159197,52.00945],[-4.15906,52.009458],[-4.158854,52.009467],[-4.158578,52.009477],[-4.158233,52.009486],[-4.157946,52.0095],[-4.157716,52.009517],[-4.157544,52.009538],[-4.15743,52.009562],[-4.157239,52.009591],[-4.156971,52.009623],[-4.156625,52.00966],[-4.156203,52.0097],[-4.155871,52.009778],[-4.155629,52.009893],[-4.155477,52.010045],[-4.155416,52.010234],[-4.15543,52.010441],[-4.155519,52.010665],[-4.155684,52.010907],[-4.155924,52.011166],[-4.156025,52.011426],[-4.155987,52.011688],[-4.15581,52.011949],[-4.155493,52.012212],[-4.155314,52.012456],[-4.155273,52.01268],[-4.155369,52.012884],[-4.155603,52.01307],[-4.155824,52.013203],[-4.156033,52.013285],[-4.15623,52.013314],[-4.156415,52.013292],[-4.156614,52.013329],[-4.156828,52.013426],[-4.157057,52.013583],[-4.1573,52.013799],[-4.157484,52.014006],[-4.157609,52.014205],[-4.157674,52.014395],[-4.15768,52.014576],[-4.157731,52.014719],[-4.157826,52.014825],[-4.157965,52.014894],[-4.158149,52.014925],[-4.158309,52.014919],[-4.158443,52.014876],[-4.158552,52.014796],[-4.158637,52.014679],[-4.158878,52.014711],[-4.159276,52.014892],[-4.159831,52.015223],[-4.160542,52.015703],[-4.161167,52.016076],[-4.161705,52.016342],[-4.162157,52.016501],[-4.162522,52.016553]]]}}