{"type":"Feature","properties":{"id":"266196","COMMUNE":"Conwy","PROVINCE":"Conwy and Denbighshire","COUNTRY":"UK","FIREDATE":"2025-03-19 10:30:00","CLASS":"FireSeason","areaHA_geo":21.979},"geometry":{"type":"Polygon","coordinates":[[[-3.629006,53.20088],[-3.629323,53.200773],[-3.629659,53.2007],[-3.630015,53.20066],[-3.630389,53.200652],[-3.630782,53.200677],[-3.631123,53.200671],[-3.631412,53.200633],[-3.631649,53.200563],[-3.631834,53.200462],[-3.631952,53.200349],[-3.632004,53.200223],[-3.631989,53.200085],[-3.631907,53.199934],[-3.631864,53.199786],[-3.631859,53.199642],[-3.631893,53.199501],[-3.631966,53.199362],[-3.632051,53.19917],[-3.632148,53.198924],[-3.632256,53.198625],[-3.632377,53.198271],[-3.632486,53.197946],[-3.632584,53.19765],[-3.632669,53.197383],[-3.632743,53.197145],[-3.632768,53.196869],[-3.632743,53.196557],[-3.632669,53.196208],[-3.632545,53.195823],[-3.632472,53.195531],[-3.632451,53.195334],[-3.63248,53.19523],[-3.632561,53.195221],[-3.632695,53.195233],[-3.632881,53.195267],[-3.633121,53.195322],[-3.633413,53.195399],[-3.633665,53.195493],[-3.633876,53.195603],[-3.634047,53.195731],[-3.634177,53.195877],[-3.634313,53.195973],[-3.634454,53.196022],[-3.634601,53.196023],[-3.634753,53.195976],[-3.634914,53.195982],[-3.635084,53.196043],[-3.635263,53.196158],[-3.635451,53.196326],[-3.635628,53.196423],[-3.635796,53.196449],[-3.635953,53.196404],[-3.636099,53.196287],[-3.63618,53.19616],[-3.636194,53.196024],[-3.636143,53.195877],[-3.636026,53.195721],[-3.635894,53.195608],[-3.635746,53.19554],[-3.635584,53.195516],[-3.635406,53.195536],[-3.63522,53.195503],[-3.635024,53.195415],[-3.63482,53.195273],[-3.634607,53.195078],[-3.634376,53.194919],[-3.634128,53.194798],[-3.633862,53.194713],[-3.633579,53.194665],[-3.633322,53.194607],[-3.633091,53.194538],[-3.632886,53.194459],[-3.632706,53.19437],[-3.632571,53.194275],[-3.632481,53.194176],[-3.632435,53.194071],[-3.632433,53.193961],[-3.632436,53.193853],[-3.632444,53.193748],[-3.632456,53.193644],[-3.632474,53.193542],[-3.632425,53.193455],[-3.63231,53.193383],[-3.632129,53.193326],[-3.631881,53.193284],[-3.631619,53.193277],[-3.631343,53.193303],[-3.631053,53.193364],[-3.630749,53.193459],[-3.630395,53.193581],[-3.629992,53.193732],[-3.629539,53.193911],[-3.629037,53.194119],[-3.628626,53.194298],[-3.628306,53.194449],[-3.628078,53.194573],[-3.627941,53.194668],[-3.627847,53.194777],[-3.627793,53.194898],[-3.627782,53.195031],[-3.627812,53.195178],[-3.627899,53.195278],[-3.628041,53.195332],[-3.62824,53.195339],[-3.628495,53.1953],[-3.628705,53.195249],[-3.628869,53.195185],[-3.628986,53.195109],[-3.629058,53.195021],[-3.629164,53.195051],[-3.629304,53.1952],[-3.629478,53.195468],[-3.629686,53.195854],[-3.629807,53.196142],[-3.629844,53.196333],[-3.629794,53.196426],[-3.629659,53.196422],[-3.62953,53.196359],[-3.629407,53.196238],[-3.629291,53.196059],[-3.629182,53.195821],[-3.629003,53.195694],[-3.628755,53.195678],[-3.628438,53.195771],[-3.628051,53.195975],[-3.627827,53.196203],[-3.627766,53.196455],[-3.627867,53.196731],[-3.628131,53.197031],[-3.628382,53.197332],[-3.628621,53.197635],[-3.628849,53.197939],[-3.629064,53.198244],[-3.629202,53.198546],[-3.629264,53.198843],[-3.62925,53.199137],[-3.629159,53.199428],[-3.629045,53.199673],[-3.628909,53.199873],[-3.62875,53.200029],[-3.628568,53.20014],[-3.628446,53.200269],[-3.628384,53.200416],[-3.628383,53.200581],[-3.628442,53.200764],[-3.628565,53.200875],[-3.628753,53.200913],[-3.629006,53.20088]]]}}