{"type":"Feature","properties":{"id":"266149","COMMUNE":"Carmarthenshire","PROVINCE":"South West Wales","COUNTRY":"UK","FIREDATE":"2025-04-01 14:56:09.577","CLASS":"FireSeason","areaHA_geo":18.021},"geometry":{"type":"Polygon","coordinates":[[[-4.168624,52.027696],[-4.168751,52.027734],[-4.168851,52.027732],[-4.168923,52.027691],[-4.168967,52.027611],[-4.169085,52.027557],[-4.169276,52.027528],[-4.169541,52.027526],[-4.169879,52.027549],[-4.170185,52.027584],[-4.170457,52.027631],[-4.170696,52.02769],[-4.170902,52.027761],[-4.171117,52.027822],[-4.171342,52.027872],[-4.171577,52.027912],[-4.171822,52.027941],[-4.17201,52.027943],[-4.172142,52.027919],[-4.172217,52.027869],[-4.172236,52.027792],[-4.172282,52.027745],[-4.172355,52.027728],[-4.172455,52.027741],[-4.172582,52.027784],[-4.172699,52.027804],[-4.172807,52.027799],[-4.172904,52.027769],[-4.172991,52.027716],[-4.173064,52.02769],[-4.173121,52.027691],[-4.173162,52.027719],[-4.173189,52.027775],[-4.173187,52.027837],[-4.173156,52.027904],[-4.173097,52.027978],[-4.17301,52.028058],[-4.172982,52.028167],[-4.173013,52.028305],[-4.173104,52.028472],[-4.173254,52.028667],[-4.173406,52.028802],[-4.173561,52.028877],[-4.173718,52.028892],[-4.173877,52.028845],[-4.17402,52.028821],[-4.174146,52.02882],[-4.174254,52.02884],[-4.174346,52.028882],[-4.174467,52.028913],[-4.174617,52.028932],[-4.174796,52.02894],[-4.175004,52.028936],[-4.175149,52.028838],[-4.175231,52.028646],[-4.175251,52.028361],[-4.175207,52.027981],[-4.175178,52.027648],[-4.175165,52.027361],[-4.175166,52.027121],[-4.175182,52.026927],[-4.17519,52.026757],[-4.175192,52.026613],[-4.175186,52.026493],[-4.175173,52.026399],[-4.175143,52.026304],[-4.175094,52.026208],[-4.175029,52.026112],[-4.174945,52.026015],[-4.174851,52.025906],[-4.174747,52.025785],[-4.174633,52.025652],[-4.174507,52.025507],[-4.174419,52.025347],[-4.174367,52.025171],[-4.174351,52.024981],[-4.174372,52.024775],[-4.174328,52.024618],[-4.174219,52.024508],[-4.174045,52.024446],[-4.173805,52.024433],[-4.173608,52.024431],[-4.173455,52.024442],[-4.173345,52.024465],[-4.173277,52.0245],[-4.173171,52.0245],[-4.173025,52.024467],[-4.17284,52.0244],[-4.172616,52.024299],[-4.172413,52.024276],[-4.17223,52.02433],[-4.172067,52.024462],[-4.171926,52.024672],[-4.171761,52.02483],[-4.171574,52.024939],[-4.171363,52.024996],[-4.17113,52.025003],[-4.170945,52.024967],[-4.170806,52.024888],[-4.170714,52.024765],[-4.17067,52.0246],[-4.170614,52.024459],[-4.170546,52.024345],[-4.170468,52.024255],[-4.170377,52.024192],[-4.170261,52.024167],[-4.170117,52.024182],[-4.169947,52.024236],[-4.169751,52.024329],[-4.169601,52.024454],[-4.169499,52.024611],[-4.169444,52.024799],[-4.169437,52.025019],[-4.169407,52.025171],[-4.169355,52.025255],[-4.169282,52.02527],[-4.169187,52.025218],[-4.169103,52.025133],[-4.16903,52.025016],[-4.16897,52.024867],[-4.16892,52.024686],[-4.168856,52.024527],[-4.168777,52.02439],[-4.168683,52.024274],[-4.168575,52.024181],[-4.168458,52.024108],[-4.168332,52.024056],[-4.168198,52.024026],[-4.168056,52.024016],[-4.167974,52.024046],[-4.167953,52.024116],[-4.167992,52.024225],[-4.168092,52.024373],[-4.16816,52.024498],[-4.168198,52.0246],[-4.168204,52.02468],[-4.168178,52.024736],[-4.168169,52.024878],[-4.168176,52.025104],[-4.1682,52.025415],[-4.16824,52.025811],[-4.168254,52.026144],[-4.168241,52.026416],[-4.168201,52.026625],[-4.168135,52.026772],[-4.168098,52.026914],[-4.16809,52.027051],[-4.168111,52.027184],[-4.16816,52.027311],[-4.168237,52.027426],[-4.168339,52.027529],[-4.168468,52.027618],[-4.168624,52.027696]]]}}