{"type":"Feature","properties":{"id":"266105","COMMUNE":"Powys","PROVINCE":"Powys","COUNTRY":"UK","FIREDATE":"2025-04-02 11:46:08.137","FINALDATE":"2025-04-03 11:46:13.732","CLASS":"FireSeason","areaHA_geo":37.123},"geometry":{"type":"Polygon","coordinates":[[[-3.738382,51.769694],[-3.738581,51.769594],[-3.738906,51.769377],[-3.739358,51.769044],[-3.739937,51.768594],[-3.740379,51.768234],[-3.740684,51.767962],[-3.740852,51.767779],[-3.740882,51.767685],[-3.740952,51.767604],[-3.741061,51.767536],[-3.741208,51.767481],[-3.741394,51.767438],[-3.741653,51.767301],[-3.741983,51.767069],[-3.742386,51.766743],[-3.742861,51.766322],[-3.743188,51.766],[-3.743369,51.765778],[-3.743403,51.765655],[-3.743289,51.765631],[-3.743189,51.765631],[-3.743103,51.765653],[-3.743031,51.765699],[-3.742972,51.765767],[-3.742879,51.765817],[-3.742753,51.765848],[-3.742592,51.765861],[-3.742398,51.765856],[-3.74223,51.765835],[-3.74209,51.765801],[-3.741977,51.765752],[-3.741891,51.765688],[-3.741763,51.765646],[-3.741594,51.765625],[-3.741383,51.765625],[-3.74113,51.765647],[-3.740925,51.765665],[-3.740767,51.765679],[-3.740656,51.76569],[-3.740591,51.765698],[-3.740537,51.76569],[-3.740494,51.765666],[-3.74046,51.765627],[-3.740436,51.765573],[-3.740392,51.765535],[-3.740325,51.765514],[-3.740238,51.76551],[-3.740129,51.765523],[-3.740036,51.765523],[-3.739958,51.765509],[-3.739897,51.765483],[-3.739851,51.765443],[-3.7398,51.765426],[-3.739741,51.76543],[-3.739676,51.765457],[-3.739605,51.765507],[-3.739528,51.765553],[-3.739445,51.765596],[-3.739356,51.765635],[-3.73926,51.765671],[-3.739183,51.765688],[-3.739123,51.765687],[-3.73908,51.765667],[-3.739055,51.765629],[-3.739012,51.765592],[-3.738951,51.765557],[-3.738872,51.765522],[-3.738775,51.765488],[-3.73868,51.765465],[-3.738587,51.765454],[-3.738496,51.765453],[-3.738406,51.765464],[-3.738334,51.765483],[-3.738279,51.76551],[-3.738241,51.765545],[-3.738222,51.765588],[-3.738182,51.765637],[-3.738122,51.765691],[-3.738043,51.765751],[-3.737943,51.765816],[-3.737846,51.765836],[-3.737752,51.76581],[-3.73766,51.765739],[-3.737571,51.765622],[-3.737481,51.765543],[-3.737392,51.7655],[-3.737302,51.765494],[-3.737212,51.765525],[-3.737101,51.765541],[-3.736968,51.765543],[-3.736814,51.765529],[-3.736639,51.765501],[-3.736549,51.765472],[-3.736544,51.765444],[-3.736623,51.765416],[-3.736788,51.765389],[-3.736903,51.765336],[-3.736969,51.765259],[-3.736985,51.765156],[-3.736952,51.765029],[-3.736886,51.764932],[-3.736786,51.764866],[-3.736652,51.764831],[-3.736484,51.764826],[-3.736353,51.764831],[-3.736258,51.764846],[-3.7362,51.764872],[-3.736177,51.764907],[-3.736141,51.764952],[-3.736091,51.765005],[-3.736027,51.765066],[-3.735949,51.765137],[-3.735894,51.765205],[-3.735861,51.765271],[-3.73585,51.765333],[-3.735862,51.765393],[-3.735835,51.76545],[-3.735768,51.765503],[-3.735662,51.765552],[-3.735517,51.765598],[-3.735385,51.765647],[-3.735268,51.765697],[-3.735165,51.765751],[-3.735076,51.765806],[-3.734986,51.76584],[-3.734897,51.765853],[-3.734808,51.765844],[-3.734719,51.765813],[-3.734664,51.76578],[-3.734643,51.765744],[-3.734655,51.765704],[-3.734702,51.765662],[-3.734733,51.765623],[-3.734749,51.765588],[-3.73475,51.765558],[-3.734735,51.765531],[-3.734667,51.765506],[-3.734547,51.765483],[-3.734375,51.765463],[-3.73415,51.765444],[-3.733978,51.7654],[-3.73386,51.76533],[-3.733796,51.765234],[-3.733785,51.765112],[-3.733708,51.765036],[-3.733566,51.765006],[-3.733358,51.765021],[-3.733084,51.765082],[-3.732864,51.765144],[-3.732698,51.765206],[-3.732584,51.76527],[-3.732524,51.765335],[-3.732487,51.765395],[-3.732471,51.765453],[-3.732478,51.765506],[-3.732506,51.765556],[-3.732488,51.765599],[-3.732423,51.765636],[-3.732311,51.765665],[-3.732152,51.765688],[-3.731994,51.765786],[-3.731838,51.765958],[-3.731683,51.766205],[-3.73153,51.766526],[-3.731397,51.766757],[-3.731284,51.766898],[-3.731191,51.766948],[-3.731119,51.766907],[-3.731102,51.766811],[-3.731142,51.766658],[-3.731237,51.76645],[-3.731388,51.766186],[-3.731473,51.765972],[-3.731493,51.765808],[-3.731446,51.765694],[-3.731333,51.765629],[-3.731203,51.76559],[-3.731056,51.765577],[-3.730892,51.765589],[-3.730711,51.765627],[-3.730519,51.765702],[-3.730318,51.765813],[-3.730106,51.765962],[-3.729885,51.766149],[-3.729728,51.766304],[-3.729638,51.76643],[-3.729612,51.766525],[-3.729652,51.76659],[-3.729662,51.766639],[-3.729643,51.766672],[-3.729593,51.766689],[-3.729514,51.766691],[-3.729433,51.766667],[-3.729352,51.766619],[-3.72927,51.766547],[-3.729187,51.76645],[-3.729103,51.766395],[-3.729019,51.76638],[-3.728934,51.766406],[-3.728849,51.766474],[-3.728746,51.766495],[-3.728625,51.766471],[-3.728487,51.7664],[-3.728331,51.766283],[-3.728242,51.766192],[-3.728218,51.766127],[-3.728261,51.766088],[-3.72837,51.766075],[-3.728478,51.766057],[-3.728584,51.766035],[-3.728688,51.766007],[-3.728791,51.765974],[-3.728902,51.765958],[-3.729022,51.765958],[-3.72915,51.765975],[-3.729286,51.766008],[-3.729431,51.766006],[-3.729582,51.76597],[-3.729741,51.765899],[-3.729908,51.765793],[-3.730073,51.765689],[-3.730238,51.765585],[-3.7304,51.765483],[-3.730562,51.765382],[-3.730662,51.765301],[-3.7307,51.765241],[-3.730676,51.765202],[-3.730591,51.765184],[-3.730492,51.765193],[-3.730381,51.765231],[-3.730257,51.765297],[-3.73012,51.765391],[-3.730001,51.765449],[-3.729902,51.765471],[-3.729821,51.765457],[-3.729759,51.765407],[-3.729751,51.765347],[-3.729796,51.765278],[-3.729895,51.7652],[-3.730047,51.765112],[-3.730132,51.765043],[-3.730149,51.764992],[-3.730099,51.764959],[-3.729982,51.764944],[-3.72985,51.764958],[-3.729704,51.765002],[-3.729544,51.765076],[-3.729369,51.765178],[-3.729227,51.765245],[-3.729117,51.765277],[-3.72904,51.765272],[-3.728994,51.765233],[-3.728939,51.765199],[-3.728874,51.765172],[-3.7288,51.765151],[-3.728715,51.765136],[-3.728621,51.765153],[-3.728516,51.7652],[-3.7284,51.765278],[-3.728274,51.765387],[-3.728187,51.765483],[-3.728139,51.765564],[-3.72813,51.765632],[-3.72816,51.765686],[-3.728161,51.765738],[-3.728134,51.765788],[-3.728077,51.765837],[-3.727992,51.765884],[-3.727897,51.765919],[-3.727791,51.765942],[-3.727674,51.765952],[-3.727548,51.765951],[-3.727456,51.76597],[-3.727398,51.76601],[-3.727375,51.76607],[-3.727387,51.76615],[-3.727372,51.766227],[-3.727331,51.766299],[-3.727264,51.766368],[-3.727171,51.766432],[-3.727112,51.766514],[-3.727086,51.766613],[-3.727094,51.76673],[-3.727135,51.766865],[-3.727181,51.766975],[-3.727231,51.767062],[-3.727285,51.767124],[-3.727343,51.767162],[-3.727378,51.767217],[-3.727391,51.76729],[-3.72738,51.767379],[-3.727346,51.767486],[-3.727267,51.767542],[-3.727143,51.767549],[-3.726974,51.767505],[-3.726759,51.767411],[-3.726583,51.767321],[-3.726447,51.767235],[-3.72635,51.767152],[-3.726292,51.767073],[-3.726217,51.766984],[-3.726123,51.766887],[-3.726012,51.76678],[-3.725884,51.766664],[-3.725743,51.766596],[-3.725591,51.766577],[-3.725427,51.766607],[-3.725252,51.766685],[-3.725129,51.76677],[-3.725058,51.766863],[-3.725039,51.766963],[-3.725071,51.767069],[-3.725093,51.767159],[-3.725102,51.767232],[-3.725099,51.767288],[-3.725084,51.767326],[-3.725063,51.76737],[-3.725034,51.767418],[-3.724999,51.767471],[-3.724958,51.76753],[-3.724916,51.7676],[-3.724875,51.767683],[-3.724835,51.767778],[-3.724795,51.767885],[-3.724756,51.767996],[-3.724718,51.768112],[-3.724682,51.768231],[-3.724647,51.768354],[-3.724621,51.768475],[-3.724604,51.768593],[-3.724597,51.76871],[-3.724599,51.768825],[-3.724629,51.768911],[-3.724687,51.76897],[-3.724773,51.769001],[-3.724887,51.769004],[-3.72497,51.768982],[-3.725022,51.768935],[-3.725043,51.768863],[-3.725033,51.768765],[-3.725042,51.768686],[-3.72507,51.768626],[-3.725116,51.768583],[-3.725182,51.768559],[-3.725251,51.768509],[-3.725324,51.768433],[-3.7254,51.76833],[-3.725481,51.768202],[-3.725609,51.768096],[-3.725786,51.768011],[-3.726011,51.767949],[-3.726284,51.767908],[-3.726489,51.767868],[-3.726626,51.767827],[-3.726695,51.767786],[-3.726695,51.767745],[-3.726712,51.767735],[-3.726745,51.767755],[-3.726794,51.767807],[-3.72686,51.76789],[-3.726968,51.767965],[-3.727118,51.768033],[-3.727312,51.768095],[-3.727548,51.768149],[-3.72772,51.768163],[-3.727828,51.768138],[-3.727873,51.768073],[-3.727854,51.767969],[-3.727852,51.767882],[-3.727868,51.767813],[-3.7279,51.767761],[-3.727949,51.767726],[-3.728007,51.767715],[-3.728074,51.767728],[-3.72815,51.767764],[-3.728235,51.767824],[-3.728331,51.767899],[-3.728439,51.767991],[-3.728559,51.768099],[-3.72869,51.768223],[-3.728799,51.768321],[-3.728884,51.768393],[-3.728946,51.768439],[-3.728986,51.768459],[-3.729021,51.7685],[-3.729054,51.768561],[-3.729083,51.768644],[-3.729108,51.768748],[-3.729148,51.768841],[-3.729204,51.768925],[-3.729275,51.768999],[-3.729361,51.769062],[-3.729449,51.769105],[-3.729539,51.769127],[-3.729631,51.769129],[-3.729725,51.769109],[-3.729803,51.76909],[-3.729867,51.76907],[-3.729916,51.76905],[-3.729949,51.76903],[-3.72995,51.769011],[-3.729918,51.768994],[-3.729854,51.768979],[-3.729757,51.768966],[-3.72968,51.76895],[-3.729624,51.76893],[-3.729589,51.768906],[-3.729574,51.768879],[-3.729595,51.768846],[-3.729653,51.768806],[-3.729747,51.76876],[-3.729877,51.768708],[-3.729973,51.768656],[-3.730037,51.768603],[-3.730067,51.76855],[-3.730064,51.768497],[-3.73009,51.768455],[-3.730143,51.768425],[-3.730225,51.768405],[-3.730335,51.768396],[-3.73043,51.768379],[-3.730509,51.768356],[-3.730573,51.768325],[-3.73062,51.768286],[-3.730684,51.768266],[-3.730764,51.768265],[-3.730859,51.768283],[-3.730969,51.768319],[-3.731057,51.768322],[-3.731121,51.768292],[-3.731161,51.768228],[-3.731178,51.768132],[-3.731193,51.768041],[-3.731206,51.767956],[-3.731218,51.767875],[-3.731228,51.7678],[-3.731265,51.767742],[-3.731328,51.767699],[-3.731418,51.767673],[-3.731535,51.767664],[-3.731636,51.767667],[-3.731721,51.767684],[-3.73179,51.767713],[-3.731843,51.767756],[-3.731851,51.767809],[-3.731813,51.767871],[-3.73173,51.767942],[-3.731603,51.768023],[-3.731526,51.768104],[-3.731502,51.768187],[-3.73153,51.768271],[-3.731609,51.768356],[-3.731674,51.768405],[-3.731724,51.768417],[-3.73176,51.768394],[-3.731782,51.768334],[-3.731815,51.76828],[-3.73186,51.768234],[-3.731918,51.768194],[-3.731988,51.768162],[-3.732055,51.768144],[-3.732121,51.768143],[-3.732186,51.768157],[-3.732248,51.768186],[-3.732317,51.768205],[-3.732392,51.768212],[-3.732474,51.768209],[-3.732563,51.768194],[-3.732657,51.768188],[-3.732758,51.768191],[-3.732864,51.768202],[-3.732976,51.768221],[-3.733061,51.768236],[-3.733117,51.768246],[-3.733145,51.76825],[-3.733145,51.76825],[-3.733142,51.768231],[-3.733137,51.768193],[-3.733129,51.768135],[-3.733119,51.768059],[-3.73315,51.767998],[-3.733222,51.767952],[-3.733336,51.767922],[-3.733491,51.767908],[-3.733625,51.767922],[-3.733738,51.767964],[-3.733829,51.768034],[-3.733899,51.768133],[-3.733971,51.768241],[-3.734044,51.76836],[-3.734119,51.768488],[-3.734195,51.768627],[-3.734282,51.768722],[-3.734381,51.768774],[-3.734492,51.768782],[-3.734614,51.768747],[-3.734729,51.768738],[-3.734837,51.768754],[-3.734938,51.768795],[-3.735032,51.768862],[-3.735121,51.76891],[-3.735207,51.768939],[-3.735288,51.768949],[-3.735365,51.76894],[-3.735426,51.76894],[-3.735472,51.768948],[-3.735502,51.768966],[-3.735517,51.768993],[-3.735545,51.769046],[-3.735587,51.769126],[-3.735641,51.769231],[-3.735708,51.769362],[-3.735814,51.769464],[-3.735959,51.769535],[-3.736142,51.769576],[-3.736365,51.769586],[-3.736559,51.769595],[-3.736724,51.769602],[-3.73686,51.769608],[-3.736968,51.769611],[-3.737081,51.769625],[-3.737201,51.769647],[-3.737328,51.76968],[-3.73746,51.769721],[-3.737594,51.769745],[-3.737728,51.769749],[-3.737863,51.769735],[-3.737999,51.769703],[-3.738119,51.769682],[-3.738223,51.769674],[-3.738311,51.769678],[-3.738382,51.769694]]]}}