{"type":"Feature","properties":{"id":"266129","COMMUNE":"Pembrokeshire","PROVINCE":"South West Wales","COUNTRY":"UK","FIREDATE":"2025-03-22 12:37:28.866","CLASS":"FireSeason","areaHA_geo":2.187},"geometry":{"type":"Polygon","coordinates":[[[-4.784843,51.966534],[-4.784967,51.966448],[-4.785041,51.966375],[-4.785065,51.966315],[-4.785039,51.966267],[-4.784975,51.96624],[-4.784874,51.966234],[-4.784736,51.966248],[-4.784561,51.966283],[-4.784479,51.966247],[-4.78449,51.966141],[-4.784594,51.965964],[-4.784791,51.965716],[-4.784981,51.965507],[-4.785163,51.965337],[-4.785337,51.965207],[-4.785504,51.965116],[-4.785664,51.965067],[-4.785817,51.96506],[-4.785964,51.965095],[-4.786104,51.965173],[-4.786247,51.965181],[-4.786392,51.965118],[-4.786539,51.964984],[-4.786689,51.96478],[-4.786765,51.964621],[-4.786768,51.964506],[-4.786698,51.964435],[-4.786554,51.964409],[-4.786422,51.964356],[-4.786302,51.964275],[-4.786193,51.964168],[-4.786096,51.964034],[-4.78601,51.963964],[-4.785935,51.963957],[-4.785872,51.964015],[-4.785819,51.964136],[-4.785736,51.964261],[-4.785624,51.96439],[-4.785481,51.964523],[-4.785309,51.964659],[-4.785137,51.964794],[-4.784963,51.964928],[-4.78479,51.96506],[-4.784615,51.96519],[-4.784433,51.965328],[-4.784243,51.965473],[-4.784045,51.965626],[-4.783839,51.965785],[-4.783684,51.96592],[-4.783581,51.966028],[-4.783528,51.966112],[-4.783527,51.966169],[-4.783503,51.966231],[-4.783458,51.966297],[-4.783391,51.966368],[-4.783302,51.966443],[-4.783313,51.966513],[-4.783423,51.966579],[-4.783633,51.96664],[-4.783942,51.966696],[-4.784218,51.966714],[-4.78446,51.966692],[-4.784668,51.966633],[-4.784843,51.966534]]]}}