{"type":"Feature","properties":{"id":"266177","COMMUNE":"Conwy","PROVINCE":"Conwy and Denbighshire","COUNTRY":"UK","FIREDATE":"2025-04-01 15:31:29.579","CLASS":"FireSeason","areaHA_geo":0.217},"geometry":{"type":"Polygon","coordinates":[[[-3.965863,53.235882],[-3.965874,53.236057],[-3.965913,53.23616],[-3.965981,53.236191],[-3.966079,53.23615],[-3.96616,53.236077],[-3.966225,53.235972],[-3.966274,53.235834],[-3.966307,53.235665],[-3.966303,53.235529],[-3.966264,53.235426],[-3.966188,53.235357],[-3.966077,53.23532],[-3.965988,53.235355],[-3.965923,53.23546],[-3.965881,53.235636],[-3.965863,53.235882]]]}}