{"type":"Feature","properties":{"id":"266176","COMMUNE":"Conwy","PROVINCE":"Conwy and Denbighshire","COUNTRY":"UK","FIREDATE":"2025-04-01 15:31:40.752","FINALDATE":"2025-04-02 15:31:43.445","CLASS":"FireSeason","areaHA_geo":1.347},"geometry":{"type":"Polygon","coordinates":[[[-3.965126,53.235402],[-3.965099,53.235454],[-3.965108,53.2355],[-3.965155,53.235542],[-3.965239,53.235578],[-3.965318,53.235586],[-3.965391,53.235564],[-3.965459,53.235513],[-3.965521,53.235433],[-3.965576,53.235347],[-3.965623,53.235253],[-3.965662,53.235154],[-3.965693,53.235048],[-3.965754,53.234977],[-3.965845,53.234942],[-3.965966,53.234942],[-3.966116,53.234977],[-3.966222,53.234989],[-3.966285,53.234979],[-3.966305,53.234945],[-3.966281,53.234888],[-3.966232,53.234838],[-3.966159,53.234793],[-3.966062,53.234755],[-3.965941,53.234723],[-3.965864,53.234684],[-3.965832,53.234638],[-3.965846,53.234585],[-3.965903,53.234526],[-3.965976,53.234502],[-3.966063,53.234513],[-3.966164,53.23456],[-3.96628,53.234642],[-3.966389,53.23467],[-3.966491,53.234643],[-3.966586,53.234562],[-3.966674,53.234426],[-3.966693,53.23431],[-3.966642,53.234215],[-3.966522,53.234141],[-3.966332,53.234087],[-3.966153,53.234053],[-3.965985,53.234038],[-3.965827,53.234042],[-3.96568,53.234066],[-3.965573,53.234106],[-3.965505,53.234161],[-3.965478,53.234233],[-3.96549,53.234321],[-3.965456,53.234366],[-3.965377,53.234369],[-3.965252,53.234329],[-3.96508,53.234247],[-3.964918,53.234195],[-3.964764,53.234173],[-3.964619,53.234182],[-3.964482,53.234221],[-3.964372,53.234262],[-3.96429,53.234307],[-3.964235,53.234354],[-3.964207,53.234403],[-3.964193,53.234458],[-3.964193,53.234517],[-3.964207,53.234582],[-3.964236,53.234651],[-3.964273,53.2347],[-3.964318,53.234727],[-3.964371,53.234734],[-3.964433,53.234721],[-3.96449,53.234717],[-3.964543,53.234724],[-3.96459,53.234742],[-3.964632,53.23477],[-3.964701,53.234807],[-3.964796,53.234852],[-3.964918,53.234905],[-3.965066,53.234967],[-3.965177,53.235026],[-3.96525,53.235082],[-3.965287,53.235135],[-3.965287,53.235184],[-3.965271,53.235236],[-3.965238,53.235289],[-3.96519,53.235345],[-3.965126,53.235402]]]}}