{"type":"Feature","properties":{"id":"266184","COMMUNE":"Gwynedd","PROVINCE":"Gwynedd","COUNTRY":"UK","FIREDATE":"2025-03-31 15:46:43.35","CLASS":"FireSeason","areaHA_geo":9.269},"geometry":{"type":"Polygon","coordinates":[[[-4.157052,52.996204],[-4.157292,52.996223],[-4.157505,52.996216],[-4.15769,52.996182],[-4.157847,52.996123],[-4.157977,52.996037],[-4.15806,52.995996],[-4.158097,52.995997],[-4.158086,52.996043],[-4.158028,52.996133],[-4.158005,52.996207],[-4.158016,52.996267],[-4.158062,52.996312],[-4.158143,52.996343],[-4.158231,52.996346],[-4.158325,52.996322],[-4.158426,52.996272],[-4.158534,52.996194],[-4.15863,52.996156],[-4.158714,52.996159],[-4.158787,52.996201],[-4.158847,52.996284],[-4.15892,52.99634],[-4.159005,52.996369],[-4.159101,52.99637],[-4.159209,52.996345],[-4.159269,52.996313],[-4.159279,52.996274],[-4.15924,52.996229],[-4.159152,52.996177],[-4.159114,52.996133],[-4.159127,52.996097],[-4.159191,52.99607],[-4.159306,52.996052],[-4.159381,52.996025],[-4.159415,52.995991],[-4.15941,52.995949],[-4.159364,52.9959],[-4.15935,52.995861],[-4.159368,52.995832],[-4.159417,52.995815],[-4.159498,52.995807],[-4.159607,52.995838],[-4.159745,52.995905],[-4.15991,52.99601],[-4.160103,52.996152],[-4.160298,52.996256],[-4.160495,52.996321],[-4.160693,52.996348],[-4.160894,52.996337],[-4.161085,52.996312],[-4.161266,52.996273],[-4.161437,52.99622],[-4.161598,52.996153],[-4.161723,52.996093],[-4.161812,52.99604],[-4.161864,52.995994],[-4.16188,52.995954],[-4.161884,52.99592],[-4.161874,52.995889],[-4.161851,52.995864],[-4.161814,52.995843],[-4.161795,52.995818],[-4.161791,52.995789],[-4.161804,52.995754],[-4.161833,52.995716],[-4.161874,52.995691],[-4.161929,52.99568],[-4.161996,52.995682],[-4.162077,52.995697],[-4.162157,52.995704],[-4.162238,52.995702],[-4.162319,52.995691],[-4.1624,52.995671],[-4.162451,52.995651],[-4.162473,52.995629],[-4.162466,52.995607],[-4.162429,52.995584],[-4.162391,52.995561],[-4.162353,52.99554],[-4.162314,52.995519],[-4.162274,52.995498],[-4.162277,52.995464],[-4.162323,52.995416],[-4.162413,52.995354],[-4.162547,52.995278],[-4.162631,52.995211],[-4.162666,52.995153],[-4.162652,52.995104],[-4.162588,52.995064],[-4.162542,52.995023],[-4.162513,52.99498],[-4.162502,52.994936],[-4.162508,52.99489],[-4.162494,52.994848],[-4.16246,52.994809],[-4.162407,52.994774],[-4.162334,52.994743],[-4.162277,52.994708],[-4.162237,52.994669],[-4.162214,52.994626],[-4.162206,52.994579],[-4.16218,52.994525],[-4.162134,52.994463],[-4.16207,52.994393],[-4.161985,52.994315],[-4.161943,52.994257],[-4.161942,52.994217],[-4.161983,52.994196],[-4.162066,52.994193],[-4.162135,52.994186],[-4.162189,52.994175],[-4.16223,52.994159],[-4.162256,52.994138],[-4.162324,52.994105],[-4.162434,52.994059],[-4.162586,52.994001],[-4.16278,52.993931],[-4.162897,52.993863],[-4.162938,52.993798],[-4.162903,52.993736],[-4.162791,52.993677],[-4.162732,52.993628],[-4.162726,52.99359],[-4.162772,52.993563],[-4.162871,52.993546],[-4.162933,52.993522],[-4.162958,52.99349],[-4.162946,52.993451],[-4.162897,52.993404],[-4.162856,52.993357],[-4.162824,52.993311],[-4.162801,52.993265],[-4.162786,52.993219],[-4.162698,52.993195],[-4.162538,52.993191],[-4.162307,52.993209],[-4.162003,52.993248],[-4.161704,52.99329],[-4.161411,52.993336],[-4.161123,52.993386],[-4.16084,52.99344],[-4.160592,52.993491],[-4.160379,52.99354],[-4.160201,52.993587],[-4.160057,52.993632],[-4.159904,52.993681],[-4.15974,52.993736],[-4.159567,52.993795],[-4.159384,52.99386],[-4.159207,52.993921],[-4.159037,52.993978],[-4.158873,52.994033],[-4.158714,52.994084],[-4.158582,52.994136],[-4.158476,52.994187],[-4.158396,52.994239],[-4.158343,52.99429],[-4.158286,52.994354],[-4.158225,52.99443],[-4.158162,52.994518],[-4.158095,52.994618],[-4.158062,52.994698],[-4.158063,52.994757],[-4.158097,52.994795],[-4.158165,52.994811],[-4.158219,52.994831],[-4.158257,52.994852],[-4.158281,52.994877],[-4.158289,52.994903],[-4.158267,52.994922],[-4.158215,52.994933],[-4.158132,52.994937],[-4.158018,52.994933],[-4.157916,52.994924],[-4.157825,52.994909],[-4.157747,52.99489],[-4.157681,52.994865],[-4.157625,52.994834],[-4.157582,52.994797],[-4.15755,52.994753],[-4.157529,52.994703],[-4.157488,52.994672],[-4.157428,52.994659],[-4.157347,52.994665],[-4.157247,52.994689],[-4.157164,52.994732],[-4.157098,52.994792],[-4.15705,52.99487],[-4.15702,52.994967],[-4.157017,52.995046],[-4.157042,52.995108],[-4.157094,52.995153],[-4.157174,52.995181],[-4.157242,52.995212],[-4.157297,52.995247],[-4.15734,52.995285],[-4.15737,52.995326],[-4.157349,52.995358],[-4.157275,52.995381],[-4.157149,52.995394],[-4.156971,52.995398],[-4.15684,52.995419],[-4.156757,52.995458],[-4.156722,52.995514],[-4.156733,52.995587],[-4.156763,52.995653],[-4.156811,52.995709],[-4.156878,52.995758],[-4.156962,52.995798],[-4.157,52.995848],[-4.156993,52.995907],[-4.15694,52.995977],[-4.156841,52.996056],[-4.156827,52.99612],[-4.156897,52.99617],[-4.157052,52.996204]]]}}