{"type":"Feature","properties":{"id":"266127","COMMUNE":"Pembrokeshire","PROVINCE":"South West Wales","COUNTRY":"UK","FIREDATE":"2025-03-22 12:53:00","FINALDATE":"2025-03-22 13:57:00","CLASS":"FireSeason","areaHA_geo":70.987},"geometry":{"type":"Polygon","coordinates":[[[-4.802277,51.970159],[-4.802518,51.970119],[-4.802709,51.970069],[-4.80285,51.970009],[-4.802941,51.969941],[-4.802928,51.969871],[-4.802811,51.969799],[-4.802589,51.969727],[-4.802264,51.969654],[-4.802031,51.969571],[-4.80189,51.969477],[-4.801842,51.969373],[-4.801887,51.969259],[-4.801995,51.969201],[-4.802165,51.969198],[-4.802398,51.969251],[-4.802694,51.96936],[-4.802967,51.969455],[-4.803217,51.969534],[-4.803444,51.9696],[-4.803648,51.96965],[-4.803804,51.969651],[-4.803912,51.969602],[-4.803973,51.969504],[-4.803985,51.969356],[-4.804037,51.969239],[-4.804128,51.969154],[-4.804258,51.969101],[-4.804427,51.96908],[-4.804618,51.969108],[-4.804831,51.969186],[-4.805066,51.969314],[-4.805323,51.969491],[-4.805559,51.969622],[-4.805774,51.969706],[-4.805968,51.969744],[-4.806142,51.969735],[-4.80631,51.969748],[-4.806473,51.969785],[-4.80663,51.969845],[-4.806783,51.969927],[-4.806952,51.970006],[-4.807138,51.970081],[-4.807341,51.970152],[-4.807561,51.97022],[-4.807844,51.970268],[-4.808192,51.970297],[-4.808602,51.970307],[-4.809077,51.970298],[-4.809452,51.970271],[-4.809728,51.970227],[-4.809904,51.970164],[-4.809981,51.970084],[-4.809999,51.970007],[-4.809958,51.969933],[-4.809859,51.969861],[-4.809701,51.969792],[-4.809563,51.969728],[-4.809445,51.96967],[-4.809346,51.969617],[-4.809268,51.96957],[-4.809176,51.969505],[-4.809071,51.969423],[-4.808952,51.969323],[-4.808819,51.969206],[-4.808733,51.969119],[-4.808692,51.96906],[-4.808698,51.969031],[-4.80875,51.969031],[-4.808872,51.969053],[-4.809063,51.969099],[-4.809325,51.969168],[-4.809657,51.969259],[-4.809952,51.969333],[-4.810209,51.96939],[-4.81043,51.969429],[-4.810614,51.96945],[-4.810807,51.969454],[-4.81101,51.969441],[-4.811223,51.96941],[-4.811446,51.969363],[-4.811653,51.969329],[-4.811843,51.969308],[-4.812017,51.9693],[-4.812174,51.969306],[-4.812343,51.96929],[-4.812523,51.969255],[-4.812715,51.969199],[-4.812917,51.969122],[-4.813098,51.96901],[-4.813256,51.968862],[-4.813391,51.968679],[-4.813505,51.968461],[-4.81369,51.9682],[-4.813946,51.967897],[-4.814274,51.967551],[-4.814673,51.967163],[-4.814926,51.96685],[-4.815033,51.966614],[-4.814995,51.966453],[-4.81481,51.966368],[-4.814635,51.966324],[-4.814467,51.966319],[-4.814308,51.966356],[-4.814157,51.966432],[-4.814015,51.966471],[-4.81388,51.966472],[-4.813754,51.966436],[-4.813635,51.966361],[-4.813473,51.966304],[-4.813268,51.966263],[-4.813018,51.966239],[-4.812725,51.966232],[-4.812472,51.966235],[-4.812259,51.96625],[-4.812086,51.966275],[-4.811952,51.966311],[-4.811825,51.966327],[-4.811705,51.966323],[-4.81159,51.9663],[-4.811482,51.966256],[-4.811243,51.966247],[-4.810873,51.966272],[-4.810371,51.966331],[-4.809738,51.966424],[-4.809256,51.966526],[-4.808925,51.966639],[-4.808745,51.96676],[-4.808716,51.966891],[-4.808729,51.966998],[-4.808783,51.96708],[-4.808877,51.967138],[-4.809013,51.967172],[-4.809127,51.967202],[-4.809219,51.967229],[-4.809289,51.967252],[-4.809337,51.967271],[-4.8094,51.967287],[-4.809476,51.967299],[-4.809568,51.967309],[-4.809673,51.967314],[-4.809781,51.967304],[-4.809892,51.967277],[-4.810005,51.967234],[-4.81012,51.967175],[-4.810241,51.96715],[-4.810369,51.967159],[-4.810503,51.967202],[-4.810643,51.96728],[-4.810711,51.967359],[-4.810707,51.967439],[-4.81063,51.967521],[-4.810482,51.967603],[-4.810369,51.967686],[-4.810293,51.967769],[-4.810254,51.967852],[-4.81025,51.967935],[-4.810214,51.967997],[-4.810145,51.968038],[-4.810042,51.968057],[-4.809907,51.968055],[-4.809784,51.96803],[-4.809674,51.96798],[-4.809576,51.967906],[-4.809492,51.967809],[-4.809378,51.967732],[-4.809235,51.967677],[-4.809063,51.967643],[-4.808861,51.967631],[-4.808686,51.967605],[-4.808539,51.967567],[-4.808417,51.967515],[-4.808323,51.967451],[-4.808266,51.96739],[-4.808247,51.967331],[-4.808265,51.967277],[-4.80832,51.967225],[-4.808328,51.967164],[-4.808288,51.967092],[-4.808201,51.967011],[-4.808067,51.96692],[-4.80793,51.966867],[-4.80779,51.966853],[-4.807648,51.966877],[-4.807503,51.96694],[-4.807427,51.967017],[-4.807421,51.967107],[-4.807485,51.96721],[-4.807617,51.967327],[-4.807671,51.967419],[-4.807647,51.967486],[-4.807544,51.967527],[-4.807363,51.967544],[-4.807221,51.967537],[-4.807117,51.967505],[-4.807051,51.96745],[-4.807025,51.967371],[-4.806907,51.967328],[-4.806697,51.967323],[-4.806396,51.967355],[-4.806004,51.967424],[-4.805704,51.967511],[-4.805496,51.967617],[-4.805379,51.967742],[-4.805355,51.967885],[-4.805362,51.967991],[-4.8054,51.968059],[-4.80547,51.96809],[-4.805572,51.968084],[-4.805697,51.968101],[-4.805846,51.968143],[-4.806019,51.968209],[-4.806215,51.968298],[-4.806278,51.968362],[-4.806207,51.9684],[-4.806004,51.968411],[-4.805667,51.968397],[-4.805409,51.968364],[-4.805231,51.968313],[-4.805133,51.968245],[-4.805114,51.968158],[-4.805047,51.968073],[-4.80493,51.967989],[-4.804765,51.967906],[-4.804551,51.967825],[-4.804357,51.967719],[-4.804183,51.967588],[-4.80403,51.967433],[-4.803897,51.967252],[-4.803766,51.967071],[-4.803638,51.96689],[-4.803512,51.966708],[-4.803389,51.966527],[-4.803295,51.966355],[-4.80323,51.966195],[-4.803196,51.966045],[-4.80319,51.965905],[-4.803193,51.965736],[-4.803204,51.965537],[-4.803224,51.965309],[-4.803251,51.96505],[-4.803276,51.964838],[-4.803298,51.964673],[-4.803318,51.964554],[-4.803336,51.964482],[-4.803313,51.964463],[-4.803252,51.964496],[-4.803151,51.964582],[-4.803011,51.964721],[-4.8029,51.964792],[-4.802818,51.964796],[-4.802766,51.964733],[-4.802743,51.964602],[-4.802776,51.964477],[-4.802865,51.964357],[-4.803011,51.964243],[-4.803214,51.964135],[-4.803345,51.964032],[-4.803406,51.963935],[-4.803396,51.963844],[-4.803316,51.963758],[-4.803316,51.963706],[-4.803398,51.963686],[-4.80356,51.963699],[-4.803804,51.963744],[-4.803965,51.963807],[-4.804044,51.963886],[-4.804039,51.963982],[-4.803953,51.964095],[-4.803928,51.964184],[-4.803966,51.964249],[-4.804065,51.964291],[-4.804227,51.964308],[-4.804373,51.964272],[-4.804504,51.964182],[-4.804619,51.964039],[-4.804719,51.963841],[-4.804775,51.963677],[-4.804788,51.963544],[-4.804757,51.963445],[-4.804683,51.963378],[-4.804647,51.963327],[-4.804651,51.963291],[-4.804694,51.963271],[-4.804775,51.963267],[-4.804879,51.963235],[-4.805004,51.963175],[-4.80515,51.963086],[-4.805319,51.962969],[-4.80544,51.962859],[-4.805515,51.962758],[-4.805543,51.962663],[-4.805524,51.962576],[-4.805456,51.962526],[-4.805337,51.962513],[-4.805168,51.962536],[-4.804949,51.962595],[-4.804741,51.962662],[-4.804542,51.962735],[-4.804353,51.962814],[-4.804175,51.962901],[-4.80403,51.962949],[-4.80392,51.96296],[-4.803843,51.962933],[-4.803801,51.962869],[-4.803807,51.962809],[-4.803861,51.962754],[-4.803964,51.962705],[-4.804115,51.96266],[-4.80423,51.962585],[-4.804308,51.962479],[-4.804351,51.962343],[-4.804357,51.962177],[-4.804338,51.962034],[-4.804293,51.961916],[-4.804223,51.961821],[-4.804126,51.961751],[-4.804053,51.961688],[-4.804004,51.961634],[-4.803978,51.961588],[-4.803976,51.96155],[-4.80399,51.961499],[-4.80402,51.961435],[-4.804067,51.961357],[-4.80413,51.961266],[-4.804131,51.961193],[-4.804071,51.961137],[-4.803949,51.961098],[-4.803765,51.961077],[-4.803658,51.961051],[-4.803627,51.96102],[-4.803672,51.960984],[-4.803793,51.960943],[-4.803892,51.960892],[-4.803971,51.960831],[-4.804027,51.96076],[-4.804062,51.960679],[-4.804058,51.960605],[-4.804015,51.960537],[-4.803932,51.960476],[-4.80381,51.960421],[-4.803725,51.960361],[-4.803676,51.960293],[-4.803664,51.96022],[-4.80369,51.96014],[-4.803722,51.960066],[-4.803761,51.959998],[-4.803807,51.959934],[-4.803861,51.959877],[-4.803909,51.959813],[-4.803953,51.959744],[-4.803993,51.959669],[-4.804028,51.959588],[-4.804054,51.959486],[-4.80407,51.959363],[-4.804076,51.959219],[-4.804072,51.959054],[-4.804085,51.958915],[-4.804115,51.958803],[-4.804162,51.958717],[-4.804225,51.958658],[-4.804252,51.958593],[-4.804244,51.958521],[-4.804199,51.958442],[-4.804118,51.958356],[-4.80404,51.958231],[-4.803964,51.958066],[-4.80389,51.95786],[-4.803817,51.957614],[-4.803725,51.957392],[-4.803611,51.957193],[-4.803477,51.957017],[-4.803322,51.956865],[-4.80317,51.95676],[-4.803021,51.956703],[-4.802875,51.956693],[-4.802732,51.95673],[-4.802661,51.95679],[-4.802663,51.956872],[-4.802737,51.956978],[-4.802884,51.957106],[-4.802956,51.957197],[-4.802954,51.957251],[-4.802877,51.957269],[-4.802725,51.95725],[-4.802581,51.957286],[-4.802446,51.957376],[-4.802318,51.957521],[-4.802198,51.957721],[-4.802119,51.957895],[-4.802081,51.958044],[-4.802083,51.958166],[-4.802125,51.958263],[-4.802127,51.958352],[-4.802087,51.958433],[-4.802005,51.958507],[-4.801882,51.958574],[-4.801818,51.958631],[-4.801814,51.95868],[-4.801869,51.958719],[-4.801982,51.958749],[-4.80206,51.958793],[-4.8021,51.958852],[-4.802104,51.958925],[-4.802071,51.959012],[-4.802072,51.959094],[-4.802109,51.959172],[-4.80218,51.959246],[-4.802287,51.959315],[-4.802417,51.959372],[-4.802572,51.959416],[-4.802751,51.959448],[-4.802955,51.959466],[-4.803118,51.959504],[-4.803241,51.959562],[-4.803324,51.959639],[-4.803367,51.959736],[-4.803378,51.959831],[-4.803358,51.959926],[-4.803307,51.96002],[-4.803224,51.960114],[-4.803126,51.960191],[-4.803011,51.960254],[-4.802882,51.9603],[-4.802737,51.960332],[-4.802597,51.960386],[-4.802462,51.960464],[-4.802332,51.960565],[-4.802208,51.960689],[-4.802049,51.960804],[-4.801857,51.960912],[-4.801631,51.96101],[-4.801371,51.961101],[-4.801107,51.961181],[-4.800839,51.96125],[-4.800568,51.961308],[-4.800294,51.961355],[-4.800067,51.961407],[-4.799888,51.961461],[-4.799757,51.961519],[-4.799674,51.961581],[-4.799635,51.961657],[-4.799639,51.961749],[-4.799688,51.961856],[-4.799781,51.961978],[-4.799817,51.962093],[-4.799796,51.962201],[-4.799718,51.962301],[-4.799584,51.962395],[-4.7995,51.962501],[-4.799467,51.96262],[-4.799485,51.962751],[-4.799554,51.962895],[-4.79958,51.963002],[-4.799561,51.963071],[-4.7995,51.963103],[-4.799394,51.963097],[-4.799284,51.963057],[-4.799171,51.962982],[-4.799054,51.962873],[-4.798933,51.962729],[-4.798819,51.962629],[-4.798712,51.962572],[-4.798611,51.96256],[-4.798518,51.962591],[-4.798468,51.962667],[-4.798463,51.962789],[-4.798501,51.962956],[-4.798582,51.963169],[-4.798539,51.963333],[-4.798371,51.96345],[-4.798077,51.963519],[-4.797659,51.963541],[-4.797304,51.963582],[-4.797014,51.963645],[-4.796787,51.963728],[-4.796625,51.963831],[-4.796483,51.963927],[-4.796362,51.964016],[-4.796263,51.964097],[-4.796184,51.964171],[-4.79612,51.964266],[-4.796071,51.964384],[-4.796037,51.964524],[-4.796019,51.964685],[-4.795977,51.964808],[-4.795912,51.964893],[-4.795824,51.964939],[-4.795712,51.964947],[-4.795606,51.964964],[-4.795506,51.964989],[-4.795411,51.965024],[-4.795322,51.965067],[-4.795223,51.965145],[-4.795116,51.965257],[-4.794999,51.965404],[-4.794873,51.965586],[-4.794808,51.965732],[-4.794804,51.965844],[-4.794861,51.965922],[-4.794979,51.965964],[-4.795067,51.966009],[-4.795124,51.966055],[-4.795151,51.966105],[-4.795147,51.966156],[-4.795146,51.966206],[-4.795146,51.966253],[-4.795149,51.966299],[-4.795153,51.966343],[-4.795174,51.966399],[-4.795213,51.966468],[-4.795268,51.966548],[-4.795341,51.966641],[-4.795396,51.966744],[-4.795434,51.966857],[-4.795455,51.96698],[-4.795458,51.967113],[-4.795495,51.967238],[-4.795564,51.967353],[-4.795668,51.96746],[-4.795804,51.967557],[-4.795939,51.967619],[-4.796073,51.967647],[-4.796205,51.96764],[-4.796337,51.967598],[-4.796474,51.967574],[-4.796617,51.967568],[-4.796767,51.967581],[-4.796923,51.967612],[-4.797018,51.967656],[-4.797052,51.967712],[-4.797026,51.967781],[-4.796939,51.967862],[-4.796871,51.967936],[-4.79682,51.968003],[-4.796788,51.968062],[-4.796775,51.968115],[-4.796747,51.96817],[-4.796703,51.968226],[-4.796645,51.968285],[-4.796572,51.968345],[-4.796501,51.968403],[-4.796431,51.96846],[-4.796364,51.968515],[-4.796299,51.968567],[-4.796214,51.968631],[-4.796109,51.968705],[-4.795984,51.968789],[-4.795839,51.968884],[-4.795746,51.968977],[-4.795704,51.969068],[-4.795713,51.969158],[-4.795774,51.969246],[-4.795798,51.969319],[-4.795787,51.969378],[-4.795739,51.969422],[-4.795656,51.969452],[-4.795601,51.969489],[-4.795574,51.969534],[-4.795576,51.969586],[-4.795607,51.969646],[-4.795669,51.969683],[-4.795761,51.969696],[-4.795885,51.969687],[-4.796041,51.969654],[-4.796169,51.969651],[-4.796271,51.969676],[-4.796346,51.96973],[-4.796395,51.969813],[-4.796464,51.969879],[-4.796553,51.969929],[-4.796662,51.969961],[-4.796792,51.969976],[-4.796882,51.96995],[-4.796932,51.969884],[-4.796943,51.969776],[-4.796914,51.969626],[-4.796914,51.969504],[-4.796944,51.969408],[-4.797004,51.969338],[-4.797093,51.969295],[-4.797135,51.969235],[-4.79713,51.969159],[-4.797079,51.969067],[-4.79698,51.968959],[-4.796932,51.968861],[-4.796934,51.968775],[-4.796987,51.9687],[-4.79709,51.968636],[-4.797217,51.968621],[-4.797369,51.968656],[-4.797545,51.96874],[-4.797746,51.968874],[-4.797906,51.968997],[-4.798027,51.969109],[-4.798108,51.96921],[-4.798149,51.969301],[-4.798206,51.969365],[-4.798282,51.969403],[-4.798374,51.969415],[-4.798483,51.969402],[-4.798571,51.969414],[-4.798636,51.969454],[-4.798679,51.96952],[-4.7987,51.969613],[-4.798727,51.969702],[-4.798761,51.969787],[-4.798801,51.969868],[-4.798847,51.969945],[-4.798907,51.969993],[-4.798981,51.970012],[-4.799069,51.970002],[-4.79917,51.969964],[-4.799276,51.969946],[-4.799386,51.969948],[-4.799499,51.96997],[-4.799617,51.970012],[-4.799751,51.970056],[-4.799901,51.970101],[-4.800067,51.970146],[-4.800249,51.970193],[-4.800406,51.970212],[-4.800537,51.970201],[-4.800644,51.970162],[-4.800725,51.970095],[-4.800829,51.970059],[-4.800958,51.970056],[-4.80111,51.970084],[-4.801286,51.970144],[-4.801491,51.970182],[-4.801724,51.970197],[-4.801986,51.970189],[-4.802277,51.970159]]]}}