{"type":"Feature","properties":{"id":"266135","COMMUNE":"Pembrokeshire","PROVINCE":"South West Wales","COUNTRY":"UK","FIREDATE":"2025-04-01 10:53:00","CLASS":"FireSeason","areaHA_geo":401.352},"geometry":{"type":"Polygon","coordinates":[[[-4.7662,51.97744],[-4.766204,51.977514],[-4.766223,51.977572],[-4.766258,51.977614],[-4.766308,51.977639],[-4.766378,51.977654],[-4.766468,51.977659],[-4.766577,51.977653],[-4.766707,51.977636],[-4.766855,51.977629],[-4.767021,51.97763],[-4.767206,51.97764],[-4.76741,51.977659],[-4.767596,51.97768],[-4.767765,51.977703],[-4.767916,51.977728],[-4.76805,51.977756],[-4.76817,51.977758],[-4.768276,51.977735],[-4.768369,51.977687],[-4.768448,51.977613],[-4.768495,51.977528],[-4.768509,51.97743],[-4.768491,51.977321],[-4.76844,51.9772],[-4.768362,51.9771],[-4.768258,51.977021],[-4.768127,51.976963],[-4.767969,51.976926],[-4.767846,51.976885],[-4.767759,51.976842],[-4.767708,51.976796],[-4.767691,51.976747],[-4.76766,51.976702],[-4.767615,51.97666],[-4.767556,51.976621],[-4.767481,51.976586],[-4.767378,51.976564],[-4.767245,51.976555],[-4.767083,51.97656],[-4.766892,51.976578],[-4.766749,51.976583],[-4.766653,51.976576],[-4.766605,51.976557],[-4.766605,51.976525],[-4.76663,51.976493],[-4.766682,51.976461],[-4.766759,51.976429],[-4.766863,51.976397],[-4.766953,51.976355],[-4.767029,51.976304],[-4.767092,51.976244],[-4.767141,51.976174],[-4.767198,51.976143],[-4.767263,51.97615],[-4.767336,51.976197],[-4.767416,51.976282],[-4.767497,51.976347],[-4.767579,51.976391],[-4.767662,51.976413],[-4.767746,51.976416],[-4.767817,51.976379],[-4.767875,51.976305],[-4.767921,51.976193],[-4.767953,51.976042],[-4.767987,51.975926],[-4.768022,51.975846],[-4.768059,51.975799],[-4.768097,51.975788],[-4.768149,51.975758],[-4.768215,51.975708],[-4.768296,51.975639],[-4.768391,51.97555],[-4.768493,51.975501],[-4.768604,51.97549],[-4.768722,51.975518],[-4.768849,51.975585],[-4.768995,51.975604],[-4.769163,51.975577],[-4.76935,51.975502],[-4.769559,51.97538],[-4.769725,51.975251],[-4.769851,51.975114],[-4.769935,51.974969],[-4.769977,51.974817],[-4.769976,51.974697],[-4.76993,51.974607],[-4.769841,51.974548],[-4.769707,51.974521],[-4.769611,51.974474],[-4.769552,51.974408],[-4.769532,51.974323],[-4.769549,51.974219],[-4.769617,51.974143],[-4.769736,51.974096],[-4.769906,51.974078],[-4.770128,51.974088],[-4.770319,51.974085],[-4.770479,51.974068],[-4.770609,51.974037],[-4.770708,51.973992],[-4.770841,51.974001],[-4.771007,51.974063],[-4.771206,51.974178],[-4.771439,51.974346],[-4.771639,51.974462],[-4.771806,51.974527],[-4.77194,51.97454],[-4.772041,51.974502],[-4.772131,51.974482],[-4.772209,51.974482],[-4.772275,51.974501],[-4.772329,51.974539],[-4.772392,51.974564],[-4.772464,51.974577],[-4.772544,51.974578],[-4.772634,51.974567],[-4.772676,51.974536],[-4.772669,51.974486],[-4.772615,51.974416],[-4.772512,51.974327],[-4.772443,51.974252],[-4.772406,51.97419],[-4.772403,51.974141],[-4.772433,51.974105],[-4.772415,51.974085],[-4.772352,51.97408],[-4.772241,51.974091],[-4.772084,51.974117],[-4.771944,51.974119],[-4.771822,51.974096],[-4.771718,51.974049],[-4.771632,51.973977],[-4.771587,51.973889],[-4.771583,51.973784],[-4.77162,51.973663],[-4.771699,51.973526],[-4.771794,51.973415],[-4.771906,51.973331],[-4.772035,51.973273],[-4.77218,51.973242],[-4.772298,51.973192],[-4.772389,51.973123],[-4.772453,51.973035],[-4.77249,51.972929],[-4.772567,51.972847],[-4.772683,51.972791],[-4.772839,51.97276],[-4.773034,51.972755],[-4.773191,51.972729],[-4.77331,51.972682],[-4.773392,51.972614],[-4.773435,51.972526],[-4.773434,51.97244],[-4.773391,51.972356],[-4.773304,51.972275],[-4.773174,51.972196],[-4.773077,51.972116],[-4.773013,51.972034],[-4.772983,51.971952],[-4.772986,51.971869],[-4.772965,51.971789],[-4.772918,51.971712],[-4.772847,51.971638],[-4.77275,51.971568],[-4.772613,51.971552],[-4.772434,51.97159],[-4.772213,51.971684],[-4.771951,51.971832],[-4.771695,51.971958],[-4.771445,51.972063],[-4.7712,51.972146],[-4.770962,51.972209],[-4.770772,51.972247],[-4.770632,51.972262],[-4.77054,51.972252],[-4.770498,51.97222],[-4.770467,51.972174],[-4.770448,51.972116],[-4.77044,51.972045],[-4.770443,51.971962],[-4.77042,51.971877],[-4.77037,51.971791],[-4.770294,51.971704],[-4.770192,51.971615],[-4.77013,51.971523],[-4.770108,51.971427],[-4.770127,51.971327],[-4.770186,51.971224],[-4.770208,51.971129],[-4.770195,51.971041],[-4.770144,51.970962],[-4.770058,51.97089],[-4.770037,51.970827],[-4.770082,51.970774],[-4.770191,51.97073],[-4.770366,51.970695],[-4.770531,51.970706],[-4.770685,51.970763],[-4.770828,51.970865],[-4.770961,51.971014],[-4.771088,51.971076],[-4.77121,51.971051],[-4.771326,51.970939],[-4.771435,51.970741],[-4.771491,51.97059],[-4.771494,51.970488],[-4.771442,51.970434],[-4.771336,51.970429],[-4.771248,51.970414],[-4.771178,51.970391],[-4.771126,51.97036],[-4.771092,51.970319],[-4.771033,51.970284],[-4.77095,51.970253],[-4.770843,51.970227],[-4.770711,51.970205],[-4.770595,51.970177],[-4.770495,51.970142],[-4.770411,51.9701],[-4.770343,51.970051],[-4.770266,51.969992],[-4.770181,51.969924],[-4.770087,51.969845],[-4.769985,51.969756],[-4.769853,51.96971],[-4.769691,51.969709],[-4.7695,51.96975],[-4.76928,51.969836],[-4.769082,51.969888],[-4.768906,51.969907],[-4.768754,51.969893],[-4.768624,51.969846],[-4.768564,51.969791],[-4.768574,51.969729],[-4.768655,51.96966],[-4.768806,51.969584],[-4.768904,51.969504],[-4.768949,51.969422],[-4.768941,51.969337],[-4.768881,51.969249],[-4.76888,51.96917],[-4.768939,51.969098],[-4.769058,51.969036],[-4.769237,51.968981],[-4.769359,51.96891],[-4.769423,51.968822],[-4.769429,51.968718],[-4.769379,51.968597],[-4.769347,51.968494],[-4.769334,51.96841],[-4.76934,51.968344],[-4.769366,51.968296],[-4.769368,51.96824],[-4.769346,51.968176],[-4.769302,51.968103],[-4.769233,51.968023],[-4.769197,51.967938],[-4.769193,51.96785],[-4.769222,51.967757],[-4.769283,51.96766],[-4.769371,51.967568],[-4.769487,51.96748],[-4.76963,51.967396],[-4.769801,51.967317],[-4.769945,51.967275],[-4.770063,51.96727],[-4.770154,51.967301],[-4.770218,51.967369],[-4.770304,51.967425],[-4.770412,51.967469],[-4.770542,51.9675],[-4.770694,51.967519],[-4.770774,51.967565],[-4.770783,51.967637],[-4.77072,51.967736],[-4.770585,51.967861],[-4.770525,51.967968],[-4.770539,51.968055],[-4.770626,51.968123],[-4.770788,51.968173],[-4.770896,51.968241],[-4.770951,51.968326],[-4.770952,51.968429],[-4.770899,51.968551],[-4.770889,51.968651],[-4.77092,51.96873],[-4.770994,51.968787],[-4.77111,51.968823],[-4.771229,51.9688],[-4.771352,51.968718],[-4.771478,51.968576],[-4.771608,51.968375],[-4.77173,51.968205],[-4.771845,51.968066],[-4.771952,51.967959],[-4.772051,51.967882],[-4.772142,51.967847],[-4.772227,51.967852],[-4.772305,51.967898],[-4.772375,51.967985],[-4.77246,51.968044],[-4.772559,51.968076],[-4.772672,51.968081],[-4.7728,51.968058],[-4.772895,51.96808],[-4.772958,51.968145],[-4.77299,51.968254],[-4.772989,51.968407],[-4.772995,51.968586],[-4.773006,51.968792],[-4.773024,51.969023],[-4.773049,51.969281],[-4.773083,51.969484],[-4.773127,51.969631],[-4.773181,51.969723],[-4.773245,51.96976],[-4.773299,51.969767],[-4.773344,51.969746],[-4.773379,51.969695],[-4.773404,51.969615],[-4.77344,51.969568],[-4.773487,51.969552],[-4.773544,51.969569],[-4.773613,51.969618],[-4.773682,51.969631],[-4.773753,51.969609],[-4.773824,51.969553],[-4.773897,51.96946],[-4.774001,51.969392],[-4.774137,51.969346],[-4.774303,51.969323],[-4.7745,51.969324],[-4.77466,51.969289],[-4.774782,51.969219],[-4.774866,51.969115],[-4.774913,51.968975],[-4.774988,51.968843],[-4.775091,51.968718],[-4.775224,51.968601],[-4.775384,51.968492],[-4.77555,51.968407],[-4.775722,51.968347],[-4.7759,51.968312],[-4.776083,51.968301],[-4.776171,51.968325],[-4.776165,51.968383],[-4.776064,51.968476],[-4.775867,51.968602],[-4.775732,51.968726],[-4.775659,51.968847],[-4.775646,51.968965],[-4.775695,51.96908],[-4.77575,51.969183],[-4.775812,51.969273],[-4.77588,51.969352],[-4.775954,51.969419],[-4.775977,51.969488],[-4.775949,51.969559],[-4.775869,51.969631],[-4.775739,51.969705],[-4.775612,51.969783],[-4.775489,51.969865],[-4.77537,51.969952],[-4.775255,51.970043],[-4.775133,51.970127],[-4.775003,51.970204],[-4.774865,51.970274],[-4.77472,51.970337],[-4.77458,51.970407],[-4.774446,51.970485],[-4.774316,51.97057],[-4.774191,51.970662],[-4.774123,51.970731],[-4.774113,51.970777],[-4.774159,51.9708],[-4.774263,51.9708],[-4.774338,51.97083],[-4.774384,51.970891],[-4.774402,51.970983],[-4.774391,51.971105],[-4.774359,51.971225],[-4.774305,51.971344],[-4.77423,51.97146],[-4.774133,51.971574],[-4.774086,51.97166],[-4.77409,51.971716],[-4.774144,51.971745],[-4.774247,51.971744],[-4.774363,51.971742],[-4.774492,51.971739],[-4.774633,51.971734],[-4.774786,51.971727],[-4.774927,51.971688],[-4.775054,51.971618],[-4.775167,51.971516],[-4.775268,51.971382],[-4.775376,51.971257],[-4.775493,51.97114],[-4.775618,51.971032],[-4.77575,51.970933],[-4.775856,51.970814],[-4.775934,51.970677],[-4.775986,51.970521],[-4.77601,51.970346],[-4.77604,51.970195],[-4.776076,51.97007],[-4.776118,51.969969],[-4.776165,51.969893],[-4.776234,51.969814],[-4.776326,51.969732],[-4.776441,51.969648],[-4.776578,51.96956],[-4.776715,51.969497],[-4.776852,51.969457],[-4.776989,51.969441],[-4.777127,51.969449],[-4.77726,51.969467],[-4.777389,51.969496],[-4.777513,51.969534],[-4.777633,51.969582],[-4.777682,51.969649],[-4.777659,51.969735],[-4.777564,51.96984],[-4.777397,51.969963],[-4.777276,51.970066],[-4.7772,51.970148],[-4.777169,51.970211],[-4.777184,51.970254],[-4.777172,51.970305],[-4.777135,51.970364],[-4.777072,51.970431],[-4.776983,51.970506],[-4.776902,51.970576],[-4.776831,51.970643],[-4.776769,51.970705],[-4.776716,51.970762],[-4.776703,51.970818],[-4.776732,51.970872],[-4.776801,51.970924],[-4.776911,51.970973],[-4.777055,51.970947],[-4.777234,51.970845],[-4.777446,51.970667],[-4.777693,51.970412],[-4.777911,51.970203],[-4.7781,51.970039],[-4.77826,51.96992],[-4.778391,51.969846],[-4.778508,51.969799],[-4.77861,51.96978],[-4.778699,51.969788],[-4.778773,51.969823],[-4.778853,51.969862],[-4.77894,51.969905],[-4.779034,51.969953],[-4.779134,51.970004],[-4.779224,51.970024],[-4.779304,51.970014],[-4.779373,51.969973],[-4.779432,51.969902],[-4.779466,51.969809],[-4.779474,51.969693],[-4.779456,51.969555],[-4.779413,51.969395],[-4.779381,51.969229],[-4.779359,51.969056],[-4.779349,51.968878],[-4.779349,51.968693],[-4.779324,51.968533],[-4.779274,51.9684],[-4.779199,51.968291],[-4.779098,51.968209],[-4.77904,51.968141],[-4.779022,51.968089],[-4.779046,51.968053],[-4.779112,51.968032],[-4.77917,51.967996],[-4.77922,51.967945],[-4.779263,51.967879],[-4.779298,51.967798],[-4.779252,51.967722],[-4.779125,51.967653],[-4.778917,51.967588],[-4.778627,51.967529],[-4.778352,51.967498],[-4.77809,51.967492],[-4.777843,51.967514],[-4.777611,51.967563],[-4.777413,51.967615],[-4.77725,51.967671],[-4.777122,51.96773],[-4.777029,51.967793],[-4.776913,51.967852],[-4.776776,51.967907],[-4.776617,51.96796],[-4.776436,51.968008],[-4.776279,51.968033],[-4.776144,51.968034],[-4.776033,51.968011],[-4.775945,51.967965],[-4.775948,51.967906],[-4.776043,51.967833],[-4.77623,51.967747],[-4.776508,51.967649],[-4.776819,51.967523],[-4.777162,51.967371],[-4.777539,51.967193],[-4.777947,51.966988],[-4.778215,51.966811],[-4.778341,51.966661],[-4.778326,51.966539],[-4.77817,51.966444],[-4.778047,51.96635],[-4.777959,51.966256],[-4.777904,51.966162],[-4.777884,51.96607],[-4.777804,51.966019],[-4.777667,51.966011],[-4.777471,51.966045],[-4.777216,51.966122],[-4.777004,51.9662],[-4.776833,51.966279],[-4.776704,51.966359],[-4.776617,51.96644],[-4.776504,51.966507],[-4.776366,51.96656],[-4.776203,51.966598],[-4.776014,51.966622],[-4.775859,51.966649],[-4.77574,51.966681],[-4.775656,51.966715],[-4.775606,51.966753],[-4.775598,51.966791],[-4.775631,51.966828],[-4.775706,51.966865],[-4.775822,51.966901],[-4.775881,51.966946],[-4.775883,51.967],[-4.775829,51.967063],[-4.775718,51.967134],[-4.775606,51.967194],[-4.775493,51.967244],[-4.775378,51.967282],[-4.775263,51.96731],[-4.775144,51.967334],[-4.775022,51.967356],[-4.774896,51.967375],[-4.774766,51.967392],[-4.774588,51.967392],[-4.774359,51.967376],[-4.774081,51.967345],[-4.773754,51.967297],[-4.773496,51.967223],[-4.773306,51.967123],[-4.773186,51.966996],[-4.773135,51.966844],[-4.773041,51.966734],[-4.772905,51.966669],[-4.772727,51.966647],[-4.772506,51.966669],[-4.772283,51.966662],[-4.772058,51.966627],[-4.771832,51.966563],[-4.771604,51.966471],[-4.771499,51.966366],[-4.771517,51.966249],[-4.771658,51.96612],[-4.771921,51.965978],[-4.772206,51.965828],[-4.77251,51.965668],[-4.772835,51.965499],[-4.773181,51.965322],[-4.773451,51.9652],[-4.773647,51.965134],[-4.773768,51.965123],[-4.773814,51.965168],[-4.773898,51.965185],[-4.774018,51.965173],[-4.774176,51.965132],[-4.77437,51.965063],[-4.7745,51.96504],[-4.774565,51.965063],[-4.774565,51.965134],[-4.774501,51.96525],[-4.774477,51.96535],[-4.774495,51.965434],[-4.774554,51.965501],[-4.774654,51.965552],[-4.774736,51.965612],[-4.7748,51.96568],[-4.774847,51.965757],[-4.774875,51.965843],[-4.774919,51.965904],[-4.774979,51.965941],[-4.775053,51.965954],[-4.775142,51.965943],[-4.775233,51.96592],[-4.775326,51.965886],[-4.77542,51.965841],[-4.775515,51.965784],[-4.775632,51.965723],[-4.775771,51.965657],[-4.775932,51.965588],[-4.776114,51.965514],[-4.776312,51.965482],[-4.776523,51.965494],[-4.776749,51.965548],[-4.776989,51.965645],[-4.777228,51.965716],[-4.777467,51.965762],[-4.777705,51.965783],[-4.777942,51.965779],[-4.778164,51.965738],[-4.778372,51.96566],[-4.778565,51.965547],[-4.778743,51.965397],[-4.778845,51.965252],[-4.77887,51.965112],[-4.77882,51.964976],[-4.778693,51.964846],[-4.778568,51.964752],[-4.778445,51.964694],[-4.778324,51.964673],[-4.778204,51.964688],[-4.778081,51.964691],[-4.777953,51.964682],[-4.777821,51.96466],[-4.777685,51.964626],[-4.777531,51.964598],[-4.777357,51.964576],[-4.777165,51.964559],[-4.776953,51.964547],[-4.776782,51.964555],[-4.776651,51.964581],[-4.776559,51.964626],[-4.776508,51.96469],[-4.776414,51.964735],[-4.776278,51.964762],[-4.776099,51.96477],[-4.775878,51.96476],[-4.775709,51.96473],[-4.775594,51.964681],[-4.775533,51.964613],[-4.775524,51.964525],[-4.775475,51.964456],[-4.775386,51.964407],[-4.775256,51.964377],[-4.775087,51.964367],[-4.77491,51.964373],[-4.774726,51.964397],[-4.774534,51.964437],[-4.774336,51.964494],[-4.774178,51.964511],[-4.774061,51.964487],[-4.773985,51.964424],[-4.77395,51.96432],[-4.773937,51.964219],[-4.773947,51.964123],[-4.773978,51.96403],[-4.774031,51.96394],[-4.774079,51.963835],[-4.774121,51.963715],[-4.774159,51.96358],[-4.774192,51.963429],[-4.774142,51.963321],[-4.774011,51.963255],[-4.773798,51.963231],[-4.773503,51.963249],[-4.773245,51.963244],[-4.773022,51.963214],[-4.772836,51.963162],[-4.772686,51.963085],[-4.772557,51.963035],[-4.77245,51.96301],[-4.772365,51.963011],[-4.772302,51.963038],[-4.77228,51.96309],[-4.772301,51.963167],[-4.772363,51.963269],[-4.772468,51.963396],[-4.772535,51.963502],[-4.772564,51.963588],[-4.772554,51.963653],[-4.772507,51.963697],[-4.772455,51.963759],[-4.772399,51.96384],[-4.772338,51.963938],[-4.772274,51.964055],[-4.772242,51.964154],[-4.772244,51.964237],[-4.772279,51.964302],[-4.772347,51.964351],[-4.772386,51.964399],[-4.772397,51.964445],[-4.772378,51.96449],[-4.772331,51.964535],[-4.772298,51.964601],[-4.772281,51.964689],[-4.772279,51.964799],[-4.772292,51.964931],[-4.772279,51.965038],[-4.772238,51.96512],[-4.772172,51.965176],[-4.772078,51.965207],[-4.772005,51.965183],[-4.771953,51.965103],[-4.771921,51.964969],[-4.771909,51.964779],[-4.77183,51.964635],[-4.771682,51.964536],[-4.771467,51.964482],[-4.771184,51.964473],[-4.770983,51.964494],[-4.770865,51.964544],[-4.770829,51.964623],[-4.770876,51.964732],[-4.770853,51.964819],[-4.770761,51.964885],[-4.7706,51.964929],[-4.770369,51.964952],[-4.770167,51.964986],[-4.769995,51.96503],[-4.769853,51.965084],[-4.76974,51.96515],[-4.769614,51.965193],[-4.769475,51.965213],[-4.769324,51.965212],[-4.769161,51.965188],[-4.768932,51.965209],[-4.768637,51.965275],[-4.768277,51.965386],[-4.767852,51.965542],[-4.76754,51.965726],[-4.767342,51.965939],[-4.767257,51.966181],[-4.767285,51.966451],[-4.767319,51.966668],[-4.767358,51.966832],[-4.767403,51.966943],[-4.767453,51.967],[-4.767442,51.967067],[-4.767369,51.967143],[-4.767234,51.967229],[-4.767037,51.967324],[-4.766807,51.967404],[-4.766544,51.967469],[-4.766246,51.967519],[-4.765916,51.967555],[-4.765614,51.967606],[-4.76534,51.967672],[-4.765095,51.967754],[-4.764879,51.967852],[-4.764684,51.967905],[-4.764511,51.967914],[-4.764359,51.967879],[-4.764229,51.9678],[-4.764128,51.967716],[-4.764056,51.967626],[-4.764014,51.967531],[-4.764001,51.967431],[-4.76401,51.967309],[-4.764039,51.967165],[-4.76409,51.966999],[-4.764162,51.966812],[-4.764181,51.966652],[-4.764147,51.966519],[-4.76406,51.966414],[-4.76392,51.966336],[-4.763855,51.966259],[-4.763865,51.966181],[-4.763951,51.966103],[-4.764112,51.966025],[-4.764264,51.965992],[-4.764408,51.966002],[-4.764543,51.966057],[-4.764669,51.966155],[-4.764763,51.966174],[-4.764826,51.966112],[-4.764856,51.965969],[-4.764854,51.965747],[-4.764832,51.965581],[-4.76479,51.965471],[-4.764729,51.965419],[-4.764647,51.965423],[-4.764546,51.965424],[-4.764427,51.965423],[-4.764288,51.96542],[-4.764131,51.965415],[-4.764012,51.965411],[-4.763934,51.965408],[-4.763894,51.965406],[-4.763894,51.965406],[-4.763851,51.965423],[-4.763763,51.965456],[-4.763632,51.965507],[-4.763457,51.965573],[-4.763313,51.965639],[-4.7632,51.965705],[-4.763118,51.965769],[-4.763067,51.965833],[-4.763008,51.965858],[-4.762941,51.965844],[-4.762866,51.965792],[-4.762783,51.9657],[-4.762671,51.965628],[-4.762529,51.965576],[-4.762358,51.965544],[-4.762156,51.965531],[-4.761974,51.965546],[-4.761812,51.965589],[-4.76167,51.96566],[-4.761547,51.965758],[-4.761441,51.965868],[-4.761353,51.965991],[-4.761281,51.966126],[-4.761226,51.966273],[-4.761207,51.966385],[-4.761223,51.966463],[-4.761273,51.966506],[-4.761359,51.966514],[-4.761433,51.966556],[-4.761494,51.966631],[-4.761543,51.966739],[-4.76158,51.966881],[-4.761585,51.966979],[-4.761556,51.967034],[-4.761495,51.967045],[-4.761401,51.967012],[-4.76129,51.967036],[-4.761161,51.967116],[-4.761014,51.967252],[-4.760851,51.967445],[-4.760672,51.967585],[-4.760478,51.967674],[-4.76027,51.96771],[-4.760046,51.967693],[-4.759894,51.967635],[-4.759814,51.967533],[-4.759805,51.96739],[-4.759867,51.967203],[-4.759931,51.967053],[-4.759997,51.96694],[-4.760064,51.966863],[-4.760134,51.966822],[-4.760203,51.966774],[-4.760272,51.966717],[-4.760342,51.966653],[-4.760411,51.96658],[-4.760425,51.966521],[-4.760383,51.966475],[-4.760287,51.966443],[-4.760135,51.966424],[-4.759995,51.966424],[-4.759867,51.966444],[-4.75975,51.966482],[-4.759645,51.96654],[-4.759544,51.966587],[-4.759446,51.966621],[-4.759353,51.966644],[-4.759263,51.966656],[-4.75917,51.96668],[-4.759074,51.966718],[-4.758974,51.966769],[-4.758871,51.966833],[-4.75873,51.966876],[-4.758551,51.966899],[-4.758333,51.966901],[-4.758078,51.966882],[-4.757876,51.966853],[-4.757729,51.966815],[-4.757634,51.966766],[-4.757594,51.966708],[-4.7576,51.966646],[-4.757651,51.966583],[-4.757748,51.966516],[-4.757891,51.966447],[-4.757952,51.966352],[-4.757933,51.96623],[-4.757831,51.966082],[-4.757648,51.965908],[-4.757466,51.965783],[-4.757285,51.965707],[-4.757105,51.96568],[-4.756926,51.965703],[-4.756773,51.965697],[-4.756648,51.965662],[-4.756548,51.965598],[-4.756476,51.965505],[-4.756402,51.965433],[-4.756328,51.965382],[-4.756253,51.965352],[-4.756177,51.965342],[-4.756088,51.965355],[-4.755986,51.965391],[-4.75587,51.965448],[-4.755741,51.965528],[-4.755635,51.965567],[-4.755551,51.965565],[-4.75549,51.965522],[-4.755452,51.965438],[-4.755451,51.965364],[-4.755487,51.965303],[-4.755561,51.965252],[-4.755672,51.965212],[-4.755773,51.965164],[-4.755863,51.965108],[-4.755943,51.965044],[-4.756012,51.964972],[-4.756043,51.964895],[-4.756037,51.964813],[-4.755992,51.964726],[-4.755909,51.964634],[-4.75581,51.964571],[-4.755694,51.964534],[-4.755562,51.964526],[-4.755412,51.964544],[-4.755294,51.964524],[-4.755207,51.964465],[-4.755151,51.964367],[-4.755126,51.96423],[-4.755134,51.964116],[-4.755176,51.964025],[-4.755252,51.963956],[-4.755361,51.963911],[-4.755434,51.963833],[-4.75547,51.963723],[-4.755469,51.963582],[-4.755432,51.963408],[-4.75539,51.963269],[-4.755345,51.963163],[-4.755295,51.963091],[-4.755241,51.963053],[-4.75524,51.96299],[-4.755293,51.9629],[-4.7554,51.962785],[-4.75556,51.962644],[-4.755704,51.962531],[-4.755832,51.962448],[-4.755944,51.962394],[-4.756039,51.96237],[-4.75612,51.962339],[-4.756185,51.962302],[-4.756236,51.962259],[-4.756271,51.96221],[-4.756318,51.96217],[-4.756375,51.962141],[-4.756444,51.962121],[-4.756523,51.962111],[-4.756578,51.962134],[-4.756607,51.962191],[-4.756611,51.962281],[-4.756591,51.962405],[-4.756594,51.962508],[-4.756622,51.96259],[-4.756673,51.962652],[-4.756749,51.962694],[-4.756819,51.962701],[-4.756883,51.962674],[-4.75694,51.962612],[-4.756991,51.962516],[-4.757066,51.962445],[-4.757164,51.962397],[-4.757286,51.962374],[-4.757431,51.962375],[-4.757549,51.962368],[-4.757637,51.962353],[-4.757697,51.962332],[-4.757729,51.962302],[-4.757722,51.962274],[-4.757677,51.962248],[-4.757594,51.962224],[-4.757472,51.962201],[-4.75739,51.962157],[-4.757347,51.962092],[-4.757345,51.962007],[-4.757382,51.9619],[-4.757445,51.961819],[-4.757536,51.961763],[-4.757652,51.961732],[-4.757796,51.961727],[-4.757929,51.961715],[-4.758053,51.961696],[-4.758166,51.96167],[-4.758269,51.961638],[-4.758359,51.961596],[-4.758436,51.961545],[-4.758498,51.961485],[-4.758548,51.961415],[-4.75861,51.961375],[-4.758684,51.961366],[-4.758772,51.961387],[-4.758872,51.961438],[-4.759,51.961479],[-4.759155,51.96151],[-4.759339,51.961531],[-4.75955,51.961543],[-4.75971,51.96151],[-4.759819,51.961432],[-4.759877,51.96131],[-4.759884,51.961144],[-4.759911,51.96103],[-4.759958,51.96097],[-4.760026,51.960963],[-4.760114,51.961009],[-4.760207,51.961025],[-4.760306,51.961009],[-4.760409,51.960962],[-4.760518,51.960885],[-4.760628,51.960823],[-4.760737,51.960778],[-4.760846,51.960748],[-4.760956,51.960734],[-4.761073,51.960743],[-4.761198,51.960775],[-4.76133,51.96083],[-4.76147,51.960908],[-4.761556,51.9609],[-4.761587,51.960807],[-4.761564,51.960628],[-4.761486,51.960364],[-4.761446,51.960151],[-4.761443,51.959989],[-4.761479,51.959878],[-4.761552,51.959818],[-4.761613,51.959815],[-4.761662,51.959869],[-4.7617,51.959981],[-4.761725,51.960149],[-4.76179,51.960283],[-4.761896,51.960381],[-4.762041,51.960444],[-4.762227,51.960471],[-4.762349,51.960462],[-4.762406,51.960417],[-4.762399,51.960335],[-4.762329,51.960216],[-4.76229,51.960117],[-4.762285,51.960039],[-4.762312,51.959979],[-4.762371,51.95994],[-4.762475,51.959909],[-4.762623,51.959887],[-4.762816,51.959874],[-4.763053,51.95987],[-4.763245,51.959876],[-4.76339,51.959892],[-4.76349,51.959919],[-4.763544,51.959957],[-4.763601,51.959986],[-4.76366,51.960008],[-4.763721,51.960021],[-4.763785,51.960025],[-4.763835,51.960044],[-4.763873,51.960078],[-4.763896,51.960126],[-4.763907,51.960188],[-4.763929,51.960247],[-4.763964,51.960304],[-4.76401,51.960357],[-4.764068,51.960407],[-4.764135,51.960459],[-4.76421,51.960513],[-4.764294,51.960569],[-4.764386,51.960627],[-4.764467,51.960698],[-4.764536,51.960782],[-4.764594,51.960878],[-4.764641,51.960987],[-4.764702,51.961036],[-4.764777,51.961027],[-4.764865,51.960958],[-4.764968,51.960831],[-4.765077,51.960747],[-4.765193,51.960707],[-4.765316,51.96071],[-4.765446,51.960757],[-4.765603,51.960768],[-4.765786,51.960741],[-4.765996,51.960678],[-4.766232,51.960578],[-4.766465,51.960507],[-4.766695,51.960465],[-4.766922,51.960453],[-4.767145,51.960469],[-4.767289,51.960433],[-4.767353,51.960345],[-4.767337,51.960206],[-4.767242,51.960014],[-4.76719,51.959868],[-4.767182,51.959767],[-4.767218,51.959711],[-4.767298,51.959701],[-4.767354,51.95966],[-4.767388,51.959589],[-4.767398,51.959488],[-4.767385,51.959356],[-4.767367,51.95925],[-4.767346,51.95917],[-4.76732,51.959115],[-4.76729,51.959087],[-4.767245,51.959055],[-4.767186,51.959018],[-4.767112,51.958976],[-4.767024,51.95893],[-4.766931,51.958884],[-4.766833,51.95884],[-4.76673,51.958795],[-4.766622,51.958752],[-4.766521,51.958688],[-4.766425,51.958605],[-4.766336,51.958501],[-4.766253,51.958378],[-4.766241,51.958294],[-4.766298,51.958248],[-4.766426,51.958242],[-4.766623,51.958274],[-4.766793,51.958292],[-4.766934,51.958296],[-4.767048,51.958287],[-4.767133,51.958263],[-4.767215,51.958261],[-4.767294,51.958279],[-4.76737,51.958319],[-4.767442,51.95838],[-4.767526,51.958436],[-4.767621,51.958488],[-4.767728,51.958535],[-4.767845,51.958577],[-4.767974,51.958612],[-4.768113,51.958639],[-4.768262,51.958658],[-4.768421,51.95867],[-4.768565,51.958696],[-4.768693,51.958738],[-4.768805,51.958793],[-4.768901,51.958864],[-4.769009,51.958924],[-4.769129,51.958972],[-4.769261,51.95901],[-4.769405,51.959036],[-4.769513,51.95908],[-4.769585,51.95914],[-4.769622,51.959219],[-4.769623,51.959314],[-4.769631,51.959394],[-4.769648,51.959459],[-4.769672,51.959508],[-4.769704,51.959543],[-4.769763,51.959586],[-4.769848,51.959639],[-4.76996,51.959701],[-4.770098,51.959773],[-4.770227,51.959841],[-4.770347,51.959905],[-4.770458,51.959966],[-4.770561,51.960023],[-4.770684,51.960082],[-4.770829,51.960144],[-4.770996,51.960207],[-4.771184,51.960272],[-4.771363,51.960329],[-4.771535,51.960377],[-4.771699,51.960417],[-4.771855,51.960448],[-4.771981,51.960447],[-4.772079,51.960412],[-4.772147,51.960344],[-4.772186,51.960244],[-4.772207,51.960166],[-4.772209,51.960112],[-4.772193,51.960081],[-4.772159,51.960072],[-4.772108,51.960051],[-4.77204,51.960019],[-4.771955,51.959974],[-4.771853,51.959917],[-4.771748,51.959844],[-4.771641,51.959756],[-4.771531,51.959652],[-4.771418,51.959532],[-4.7713,51.95945],[-4.771176,51.959405],[-4.771046,51.959398],[-4.770911,51.959428],[-4.770781,51.959419],[-4.770656,51.959371],[-4.770536,51.959284],[-4.770422,51.959159],[-4.770278,51.959048],[-4.770106,51.958952],[-4.769905,51.958871],[-4.769675,51.958804],[-4.769522,51.958734],[-4.769446,51.958661],[-4.769446,51.958585],[-4.769523,51.958505],[-4.769577,51.958426],[-4.769608,51.958349],[-4.769617,51.958273],[-4.769602,51.958199],[-4.769625,51.958135],[-4.769685,51.958083],[-4.769783,51.958042],[-4.769918,51.958012],[-4.77003,51.958011],[-4.770116,51.958038],[-4.770179,51.958094],[-4.770218,51.958178],[-4.770226,51.95825],[-4.770205,51.95831],[-4.770154,51.958358],[-4.770072,51.958394],[-4.770032,51.958436],[-4.770032,51.958483],[-4.770073,51.958537],[-4.770156,51.958597],[-4.770255,51.958638],[-4.770372,51.958662],[-4.770506,51.958667],[-4.770657,51.958654],[-4.770762,51.958617],[-4.770819,51.958556],[-4.770829,51.95847],[-4.770792,51.95836],[-4.770801,51.958286],[-4.770856,51.958247],[-4.770956,51.958244],[-4.771102,51.958276],[-4.771231,51.95833],[-4.771344,51.958405],[-4.771441,51.958501],[-4.771522,51.958618],[-4.771597,51.958642],[-4.771668,51.958572],[-4.771733,51.95841],[-4.771792,51.958154],[-4.771867,51.957958],[-4.771956,51.957822],[-4.772061,51.957747],[-4.77218,51.957732],[-4.772284,51.957669],[-4.772371,51.957559],[-4.772443,51.957402],[-4.772499,51.957198],[-4.772561,51.957034],[-4.772629,51.956911],[-4.772702,51.956828],[-4.772782,51.956786],[-4.772848,51.956728],[-4.772901,51.956655],[-4.772941,51.956565],[-4.772968,51.95646],[-4.772992,51.95636],[-4.773012,51.956265],[-4.773029,51.956175],[-4.773042,51.956091],[-4.773024,51.955991],[-4.772975,51.955876],[-4.772895,51.955746],[-4.772784,51.955601],[-4.772734,51.955497],[-4.772745,51.955436],[-4.772816,51.955415],[-4.772947,51.955437],[-4.773069,51.955468],[-4.773181,51.955508],[-4.773283,51.955557],[-4.773376,51.955615],[-4.77347,51.955656],[-4.773565,51.955679],[-4.773663,51.955684],[-4.773763,51.955671],[-4.773894,51.955669],[-4.774058,51.955677],[-4.774253,51.955695],[-4.774481,51.955723],[-4.774728,51.955743],[-4.774996,51.955754],[-4.775285,51.955755],[-4.775594,51.955748],[-4.775882,51.95574],[-4.776149,51.955732],[-4.776395,51.955723],[-4.77662,51.955713],[-4.776799,51.955697],[-4.776931,51.955674],[-4.777017,51.955644],[-4.777056,51.955607],[-4.777108,51.955576],[-4.777173,51.955552],[-4.77725,51.955535],[-4.77734,51.955523],[-4.777505,51.955498],[-4.777746,51.955457],[-4.778062,51.955403],[-4.778454,51.955334],[-4.778773,51.955255],[-4.779018,51.955167],[-4.77919,51.955069],[-4.779289,51.954961],[-4.779392,51.954919],[-4.779498,51.954944],[-4.779609,51.955035],[-4.779724,51.955192],[-4.779879,51.955298],[-4.780074,51.955353],[-4.780309,51.955357],[-4.780583,51.955309],[-4.780803,51.955261],[-4.780968,51.955211],[-4.781078,51.95516],[-4.781134,51.955109],[-4.781231,51.95505],[-4.78137,51.954985],[-4.78155,51.954913],[-4.781773,51.954833],[-4.782093,51.954759],[-4.782511,51.95469],[-4.783027,51.954627],[-4.78364,51.954568],[-4.784328,51.954516],[-4.785091,51.95447],[-4.785928,51.95443],[-4.786841,51.954397],[-4.787512,51.954347],[-4.78794,51.95428],[-4.788127,51.954196],[-4.788073,51.954094],[-4.787965,51.954028],[-4.787804,51.953998],[-4.787591,51.954003],[-4.787324,51.954043],[-4.787091,51.954052],[-4.786891,51.954029],[-4.786725,51.953976],[-4.786593,51.95389],[-4.786482,51.953844],[-4.786391,51.953837],[-4.786321,51.953868],[-4.786272,51.953938],[-4.786208,51.953989],[-4.786131,51.954021],[-4.786039,51.954034],[-4.785934,51.954028],[-4.785834,51.954011],[-4.785742,51.953981],[-4.785655,51.953939],[-4.785575,51.953886],[-4.78547,51.953845],[-4.785342,51.953817],[-4.785188,51.953801],[-4.785011,51.953798],[-4.784849,51.953763],[-4.784702,51.953696],[-4.78457,51.953596],[-4.784453,51.953465],[-4.784336,51.953387],[-4.784219,51.953364],[-4.784103,51.953394],[-4.783986,51.953479],[-4.783817,51.95351],[-4.783597,51.953487],[-4.783325,51.95341],[-4.783001,51.953279],[-4.782716,51.953198],[-4.782472,51.953165],[-4.782267,51.953181],[-4.782103,51.953247],[-4.781912,51.953305],[-4.781695,51.953354],[-4.781452,51.953396],[-4.781183,51.95343],[-4.781037,51.953489],[-4.781013,51.953571],[-4.781111,51.953678],[-4.781331,51.95381],[-4.781398,51.95391],[-4.781312,51.953978],[-4.781073,51.954015],[-4.780681,51.95402],[-4.780323,51.95403],[-4.780002,51.954045],[-4.779715,51.954066],[-4.779464,51.954091],[-4.779326,51.95409],[-4.779301,51.954061],[-4.779389,51.954005],[-4.77959,51.953922],[-4.779674,51.953842],[-4.779642,51.953763],[-4.779495,51.953686],[-4.779231,51.953611],[-4.779012,51.953539],[-4.778838,51.953468],[-4.778709,51.9534],[-4.778625,51.953335],[-4.778547,51.953273],[-4.778476,51.953215],[-4.778411,51.953161],[-4.778353,51.953111],[-4.778277,51.953071],[-4.778184,51.953042],[-4.778074,51.953022],[-4.777946,51.953013],[-4.777845,51.952988],[-4.777769,51.952946],[-4.777718,51.952889],[-4.777694,51.952816],[-4.777608,51.952776],[-4.77746,51.952769],[-4.777251,51.952795],[-4.776981,51.952855],[-4.77686,51.952858],[-4.776888,51.952803],[-4.777066,51.952692],[-4.777393,51.952523],[-4.777692,51.952384],[-4.777962,51.952277],[-4.778203,51.9522],[-4.778416,51.952154],[-4.778576,51.952096],[-4.778682,51.952025],[-4.778734,51.951942],[-4.778733,51.951846],[-4.778695,51.951754],[-4.778618,51.951665],[-4.778504,51.951579],[-4.778352,51.951497],[-4.77828,51.951421],[-4.778288,51.951353],[-4.778377,51.951293],[-4.778546,51.951239],[-4.778633,51.951168],[-4.778639,51.951078],[-4.778564,51.95097],[-4.778408,51.950843],[-4.778248,51.950723],[-4.778086,51.95061],[-4.777921,51.950503],[-4.777752,51.950404],[-4.777672,51.950328],[-4.777681,51.950276],[-4.777778,51.950248],[-4.777963,51.950243],[-4.778079,51.950217],[-4.778125,51.95017],[-4.778102,51.950101],[-4.77801,51.950011],[-4.777964,51.949937],[-4.777966,51.94988],[-4.778014,51.949839],[-4.77811,51.949814],[-4.778192,51.949764],[-4.77826,51.949688],[-4.778314,51.949587],[-4.778355,51.949461],[-4.778332,51.949348],[-4.778247,51.949247],[-4.778098,51.949159],[-4.777886,51.949084],[-4.777714,51.949004],[-4.777582,51.948919],[-4.777489,51.948829],[-4.777437,51.948733],[-4.77751,51.948605],[-4.77771,51.948442],[-4.778036,51.948247],[-4.778489,51.948017],[-4.778822,51.947828],[-4.779037,51.94768],[-4.779133,51.947572],[-4.779111,51.947505],[-4.779131,51.947448],[-4.779193,51.947402],[-4.779298,51.947367],[-4.779445,51.947342],[-4.779569,51.947308],[-4.779669,51.947267],[-4.779746,51.947217],[-4.779799,51.94716],[-4.779872,51.94709],[-4.779964,51.947008],[-4.780075,51.946915],[-4.780206,51.946809],[-4.78032,51.946716],[-4.780418,51.946637],[-4.780499,51.946571],[-4.780565,51.946518],[-4.78067,51.946446],[-4.780816,51.946354],[-4.781002,51.946243],[-4.781228,51.946112],[-4.781379,51.945977],[-4.781457,51.945836],[-4.78146,51.945691],[-4.781389,51.945541],[-4.781303,51.945432],[-4.781203,51.945365],[-4.781088,51.94534],[-4.780959,51.945356],[-4.780831,51.945362],[-4.780704,51.945355],[-4.780579,51.945338],[-4.780455,51.945309],[-4.78034,51.945306],[-4.780234,51.945329],[-4.780136,51.945378],[-4.780047,51.945453],[-4.779927,51.945521],[-4.779776,51.945581],[-4.779595,51.945635],[-4.779382,51.945681],[-4.779213,51.945702],[-4.779087,51.945699],[-4.779005,51.945671],[-4.778967,51.945619],[-4.778886,51.94558],[-4.778764,51.945554],[-4.778599,51.945541],[-4.778391,51.945542],[-4.778238,51.945549],[-4.778138,51.945561],[-4.778093,51.94558],[-4.778101,51.945604],[-4.778117,51.945644],[-4.77814,51.945698],[-4.778171,51.945768],[-4.77821,51.945852],[-4.778208,51.945884],[-4.778164,51.945864],[-4.778081,51.945792],[-4.777956,51.945667],[-4.777841,51.945571],[-4.777734,51.945501],[-4.777637,51.945459],[-4.77755,51.945445],[-4.777484,51.945473],[-4.777439,51.945542],[-4.777417,51.945653],[-4.777416,51.945806],[-4.777389,51.945926],[-4.777335,51.946012],[-4.777254,51.946065],[-4.777147,51.946085],[-4.777029,51.946091],[-4.776902,51.946081],[-4.776764,51.946058],[-4.776616,51.946019],[-4.776482,51.946004],[-4.77636,51.946013],[-4.776252,51.946046],[-4.776157,51.946103],[-4.776115,51.946157],[-4.776128,51.94621],[-4.776194,51.94626],[-4.776314,51.946309],[-4.776446,51.946356],[-4.776591,51.946401],[-4.776748,51.946445],[-4.776918,51.946487],[-4.776989,51.946535],[-4.77696,51.94659],[-4.776833,51.946651],[-4.776606,51.946718],[-4.776402,51.946772],[-4.776219,51.946815],[-4.776057,51.946845],[-4.775918,51.946862],[-4.775768,51.946878],[-4.775607,51.946892],[-4.775434,51.946905],[-4.775251,51.946915],[-4.775135,51.946941],[-4.775087,51.946982],[-4.775106,51.947039],[-4.775192,51.94711],[-4.775241,51.947173],[-4.775254,51.947225],[-4.775229,51.947268],[-4.775168,51.947301],[-4.77509,51.947342],[-4.774997,51.947388],[-4.774888,51.947442],[-4.774763,51.947502],[-4.774636,51.947541],[-4.774506,51.947557],[-4.774375,51.947552],[-4.774241,51.947524],[-4.774151,51.947574],[-4.774106,51.947701],[-4.774104,51.947905],[-4.774146,51.948186],[-4.774166,51.948468],[-4.774162,51.948752],[-4.774136,51.949038],[-4.774086,51.949324],[-4.77407,51.949555],[-4.774088,51.949732],[-4.774139,51.949852],[-4.774223,51.949918],[-4.774263,51.949998],[-4.774257,51.950091],[-4.774207,51.950197],[-4.774113,51.950318],[-4.773985,51.950432],[-4.773825,51.950542],[-4.773631,51.950646],[-4.773405,51.950745],[-4.773221,51.950845],[-4.773078,51.950946],[-4.772977,51.951048],[-4.772918,51.951151],[-4.77279,51.951256],[-4.772593,51.951364],[-4.772326,51.951474],[-4.771991,51.951587],[-4.771707,51.95167],[-4.771477,51.951725],[-4.771299,51.951751],[-4.771173,51.951748],[-4.771044,51.951756],[-4.77091,51.951776],[-4.770773,51.951808],[-4.770632,51.951851],[-4.770496,51.951902],[-4.770365,51.95196],[-4.770239,51.952025],[-4.770118,51.952098],[-4.770015,51.952133],[-4.769932,51.952131],[-4.769867,51.952092],[-4.76982,51.952015],[-4.76974,51.951947],[-4.769627,51.951888],[-4.769481,51.951838],[-4.769301,51.951797],[-4.769128,51.951767],[-4.76896,51.951746],[-4.768799,51.951737],[-4.768643,51.951737],[-4.768504,51.951726],[-4.768383,51.951703],[-4.768278,51.951669],[-4.76819,51.951623],[-4.768088,51.951574],[-4.767972,51.951521],[-4.767842,51.951466],[-4.767698,51.951408],[-4.767556,51.951381],[-4.767418,51.951386],[-4.767282,51.951423],[-4.767149,51.95149],[-4.7671,51.95156],[-4.767135,51.951632],[-4.767253,51.951707],[-4.767455,51.951783],[-4.767619,51.951848],[-4.767746,51.951902],[-4.767836,51.951945],[-4.767888,51.951976],[-4.767893,51.952015],[-4.767852,51.952062],[-4.767764,51.952116],[-4.767629,51.952178],[-4.767509,51.952241],[-4.767406,51.952305],[-4.767319,51.95237],[-4.767248,51.952436],[-4.767176,51.952508],[-4.767103,51.952584],[-4.767029,51.952665],[-4.766954,51.952751],[-4.766863,51.952829],[-4.766757,51.9529],[-4.766636,51.952963],[-4.766499,51.953019],[-4.766376,51.953069],[-4.766266,51.953115],[-4.766171,51.953156],[-4.76609,51.953192],[-4.765993,51.95325],[-4.76588,51.953331],[-4.765751,51.953435],[-4.765607,51.953562],[-4.765511,51.95368],[-4.765466,51.953791],[-4.765469,51.953894],[-4.765522,51.95399],[-4.765562,51.954071],[-4.765589,51.954137],[-4.765604,51.954189],[-4.765606,51.954227],[-4.765542,51.954244],[-4.76541,51.954238],[-4.765212,51.954211],[-4.764946,51.954161],[-4.764711,51.954118],[-4.764506,51.95408],[-4.764332,51.954048],[-4.764189,51.954022],[-4.764073,51.954063],[-4.763985,51.954173],[-4.763925,51.954351],[-4.763894,51.954597],[-4.763834,51.954791],[-4.763746,51.954933],[-4.763631,51.955022],[-4.763488,51.95506],[-4.763383,51.955102],[-4.763315,51.955148],[-4.763286,51.9552],[-4.763294,51.955256],[-4.763275,51.955306],[-4.763227,51.955351],[-4.763152,51.955389],[-4.763049,51.955421],[-4.762841,51.955451],[-4.762528,51.955477],[-4.762111,51.955502],[-4.761589,51.955523],[-4.761151,51.955534],[-4.760798,51.955534],[-4.76053,51.955524],[-4.760347,51.955502],[-4.760133,51.955477],[-4.75989,51.955447],[-4.759617,51.955413],[-4.759313,51.955375],[-4.759103,51.955365],[-4.758984,51.955383],[-4.758958,51.95543],[-4.759025,51.955504],[-4.759071,51.955573],[-4.759097,51.955637],[-4.759104,51.955695],[-4.75909,51.955747],[-4.759074,51.955821],[-4.759053,51.955916],[-4.75903,51.956032],[-4.759003,51.956169],[-4.758946,51.956269],[-4.758858,51.956331],[-4.758739,51.956356],[-4.758589,51.956343],[-4.758486,51.956305],[-4.758428,51.956242],[-4.758417,51.956154],[-4.758452,51.956042],[-4.758441,51.955938],[-4.758383,51.955843],[-4.758279,51.955758],[-4.758129,51.955681],[-4.757934,51.955618],[-4.757695,51.955569],[-4.757411,51.955533],[-4.757082,51.955511],[-4.756725,51.955477],[-4.756341,51.95543],[-4.755929,51.955371],[-4.75549,51.955299],[-4.75516,51.95528],[-4.754938,51.955315],[-4.754825,51.955402],[-4.75482,51.955543],[-4.754737,51.955636],[-4.754576,51.955682],[-4.754337,51.955681],[-4.754019,51.955632],[-4.753736,51.955613],[-4.753486,51.955626],[-4.753269,51.955669],[-4.753087,51.955743],[-4.752965,51.955807],[-4.752905,51.955859],[-4.752906,51.9559],[-4.752968,51.95593],[-4.753019,51.955969],[-4.75306,51.956014],[-4.753091,51.956068],[-4.753112,51.956129],[-4.753095,51.956179],[-4.75304,51.956217],[-4.752948,51.956245],[-4.752819,51.956261],[-4.752694,51.956292],[-4.752574,51.956335],[-4.752458,51.956393],[-4.752347,51.956464],[-4.752284,51.956531],[-4.752269,51.956594],[-4.752301,51.956652],[-4.752381,51.956705],[-4.752383,51.956742],[-4.752306,51.956761],[-4.752151,51.956763],[-4.751918,51.956748],[-4.751698,51.956741],[-4.75149,51.956742],[-4.751296,51.95675],[-4.751115,51.956767],[-4.750924,51.956778],[-4.750724,51.956785],[-4.750514,51.956786],[-4.750295,51.956782],[-4.750081,51.956785],[-4.749872,51.956795],[-4.749668,51.956813],[-4.749468,51.956838],[-4.749272,51.956887],[-4.749078,51.95696],[-4.748887,51.957055],[-4.748699,51.957175],[-4.748536,51.957308],[-4.748399,51.957456],[-4.748287,51.957619],[-4.748201,51.957795],[-4.74815,51.957961],[-4.748134,51.958116],[-4.748154,51.95826],[-4.748208,51.958393],[-4.748308,51.958512],[-4.748452,51.958618],[-4.748642,51.958711],[-4.748875,51.958789],[-4.749046,51.958796],[-4.749154,51.958732],[-4.7492,51.958595],[-4.749182,51.958387],[-4.749188,51.958226],[-4.749217,51.958111],[-4.749269,51.958042],[-4.749344,51.95802],[-4.749426,51.958016],[-4.749514,51.95803],[-4.749608,51.958063],[-4.749708,51.958114],[-4.74979,51.958189],[-4.749855,51.95829],[-4.749902,51.958414],[-4.749931,51.958563],[-4.749923,51.958695],[-4.749878,51.958809],[-4.749796,51.958905],[-4.749677,51.958984],[-4.749561,51.959048],[-4.749448,51.959097],[-4.749338,51.959132],[-4.74923,51.959152],[-4.749111,51.959177],[-4.748981,51.959206],[-4.748839,51.95924],[-4.748686,51.959278],[-4.748541,51.959301],[-4.748403,51.959309],[-4.748274,51.959302],[-4.748152,51.959279],[-4.748042,51.959267],[-4.747943,51.959267],[-4.747856,51.959278],[-4.74778,51.959301],[-4.747734,51.959333],[-4.747718,51.959377],[-4.747731,51.959431],[-4.747773,51.959496],[-4.747721,51.959564],[-4.747574,51.959637],[-4.747332,51.959714],[-4.746996,51.959795],[-4.746721,51.95985],[-4.746508,51.95988],[-4.746357,51.959885],[-4.746267,51.959865],[-4.746165,51.959855],[-4.746052,51.959857],[-4.745926,51.95987],[-4.745789,51.959893],[-4.745701,51.959887],[-4.745663,51.95985],[-4.745675,51.959784],[-4.745736,51.959687],[-4.745737,51.959605],[-4.745679,51.959539],[-4.745561,51.959489],[-4.745383,51.959454],[-4.745248,51.959455],[-4.745157,51.959492],[-4.745109,51.959565],[-4.745104,51.959674],[-4.745074,51.95977],[-4.745018,51.959854],[-4.744938,51.959925],[-4.744833,51.959982],[-4.744766,51.960053],[-4.744737,51.960136],[-4.744745,51.960232],[-4.744792,51.960341],[-4.744849,51.960425],[-4.744915,51.960483],[-4.744991,51.960517],[-4.745077,51.960525],[-4.74518,51.960547],[-4.745301,51.960582],[-4.745439,51.960632],[-4.745595,51.960695],[-4.745709,51.960724],[-4.745779,51.960718],[-4.745807,51.960678],[-4.745793,51.960603],[-4.745843,51.96056],[-4.745959,51.960549],[-4.746139,51.960569],[-4.746385,51.96062],[-4.746576,51.960679],[-4.746712,51.960745],[-4.746793,51.960817],[-4.74682,51.960897],[-4.746811,51.960973],[-4.746768,51.961045],[-4.74669,51.961114],[-4.746577,51.961179],[-4.746521,51.961238],[-4.746524,51.961292],[-4.746584,51.96134],[-4.746702,51.961383],[-4.746795,51.961443],[-4.746862,51.96152],[-4.746904,51.961615],[-4.746921,51.961728],[-4.746897,51.961834],[-4.746832,51.961935],[-4.746726,51.962029],[-4.746579,51.962118],[-4.746511,51.962208],[-4.746521,51.962299],[-4.746608,51.962391],[-4.746775,51.962485],[-4.746936,51.962557],[-4.747093,51.962607],[-4.747245,51.962636],[-4.747393,51.962643],[-4.747546,51.962628],[-4.747705,51.962592],[-4.74787,51.962534],[-4.748041,51.962455],[-4.748208,51.962412],[-4.748372,51.962404],[-4.748531,51.962432],[-4.748687,51.962495],[-4.748846,51.962541],[-4.749006,51.962572],[-4.749169,51.962586],[-4.749335,51.962585],[-4.749451,51.9626],[-4.74952,51.962633],[-4.749539,51.962683],[-4.74951,51.96275],[-4.749498,51.962816],[-4.749503,51.962879],[-4.749526,51.962939],[-4.749566,51.962998],[-4.749573,51.963056],[-4.749545,51.963114],[-4.749484,51.963171],[-4.749389,51.963227],[-4.749302,51.963293],[-4.749223,51.963366],[-4.749151,51.963449],[-4.749088,51.963539],[-4.749056,51.963614],[-4.749055,51.963671],[-4.749084,51.963712],[-4.749144,51.963736],[-4.749192,51.963773],[-4.74923,51.963822],[-4.749256,51.963884],[-4.74927,51.963959],[-4.749287,51.964032],[-4.749305,51.964103],[-4.749326,51.964172],[-4.749348,51.964239],[-4.749325,51.964301],[-4.749256,51.964357],[-4.74914,51.964409],[-4.748979,51.964454],[-4.748804,51.964513],[-4.748616,51.964585],[-4.748413,51.964669],[-4.748196,51.964767],[-4.748046,51.964851],[-4.74796,51.964923],[-4.747941,51.964981],[-4.747987,51.965026],[-4.748056,51.96509],[-4.748146,51.965175],[-4.748258,51.965278],[-4.748393,51.965401],[-4.748488,51.965537],[-4.748543,51.965686],[-4.748558,51.965849],[-4.748534,51.966024],[-4.748535,51.966168],[-4.748563,51.966283],[-4.748617,51.966367],[-4.748697,51.96642],[-4.748696,51.966478],[-4.748612,51.966539],[-4.748448,51.966605],[-4.748201,51.966674],[-4.747957,51.966759],[-4.747716,51.96686],[-4.747477,51.966976],[-4.747241,51.967108],[-4.747088,51.967232],[-4.747018,51.967349],[-4.747031,51.967459],[-4.747128,51.967561],[-4.74718,51.967647],[-4.747187,51.967716],[-4.74715,51.967769],[-4.747069,51.967804],[-4.747026,51.967856],[-4.747023,51.967923],[-4.747059,51.968006],[-4.747133,51.968105],[-4.747126,51.968194],[-4.747038,51.968272],[-4.746869,51.968339],[-4.746618,51.968397],[-4.746396,51.968469],[-4.746202,51.968557],[-4.746037,51.968661],[-4.745901,51.96878],[-4.745805,51.96892],[-4.745749,51.96908],[-4.745734,51.96926],[-4.74576,51.969461],[-4.745831,51.969598],[-4.74595,51.969672],[-4.746114,51.969683],[-4.746325,51.969631],[-4.746533,51.969632],[-4.746738,51.969686],[-4.746939,51.969792],[-4.747138,51.969952],[-4.747329,51.970057],[-4.747512,51.970107],[-4.747687,51.970102],[-4.747854,51.970043],[-4.747956,51.970031],[-4.747994,51.970068],[-4.747968,51.970152],[-4.747877,51.970285],[-4.747771,51.970392],[-4.747648,51.970475],[-4.747509,51.970532],[-4.747353,51.970565],[-4.74721,51.970602],[-4.747079,51.970644],[-4.74696,51.970691],[-4.746852,51.970743],[-4.746776,51.970833],[-4.746732,51.970963],[-4.746718,51.971132],[-4.746736,51.97134],[-4.746767,51.971543],[-4.746813,51.971741],[-4.746872,51.971934],[-4.746945,51.972123],[-4.746993,51.972381],[-4.747014,51.972709],[-4.74701,51.973108],[-4.74698,51.973577],[-4.746958,51.973976],[-4.746944,51.974306],[-4.746937,51.974566],[-4.746939,51.974757],[-4.746961,51.974915],[-4.747003,51.97504],[-4.747065,51.975133],[-4.747147,51.975193],[-4.747241,51.975289],[-4.747348,51.975422],[-4.747467,51.975592],[-4.747598,51.975798],[-4.747801,51.976008],[-4.748075,51.976222],[-4.74842,51.976439],[-4.748837,51.97666],[-4.749174,51.976823],[-4.749432,51.976927],[-4.749611,51.976973],[-4.74971,51.976961],[-4.749754,51.976906],[-4.749743,51.976808],[-4.749675,51.976669],[-4.749552,51.976487],[-4.749554,51.976345],[-4.749681,51.976243],[-4.749932,51.976181],[-4.750309,51.976159],[-4.750636,51.976136],[-4.750914,51.976114],[-4.751143,51.976091],[-4.751322,51.976069],[-4.751487,51.976059],[-4.751639,51.976062],[-4.751777,51.976078],[-4.751901,51.976107],[-4.751985,51.976157],[-4.752029,51.976228],[-4.752034,51.976319],[-4.751999,51.976432],[-4.75199,51.976546],[-4.752008,51.976662],[-4.752053,51.976779],[-4.752123,51.976897],[-4.752187,51.976954],[-4.752242,51.976951],[-4.752291,51.976886],[-4.752332,51.976759],[-4.752373,51.976641],[-4.752413,51.976531],[-4.752454,51.976429],[-4.752496,51.976334],[-4.752569,51.976244],[-4.752675,51.976157],[-4.752813,51.976074],[-4.752984,51.975995],[-4.753144,51.976],[-4.753294,51.97609],[-4.753432,51.976263],[-4.75356,51.976521],[-4.75371,51.976707],[-4.753884,51.976822],[-4.75408,51.976866],[-4.754299,51.976838],[-4.754492,51.976825],[-4.754658,51.976826],[-4.754799,51.976842],[-4.754913,51.976872],[-4.75497,51.976921],[-4.754972,51.976987],[-4.754917,51.977072],[-4.754806,51.977175],[-4.754791,51.977268],[-4.75487,51.97735],[-4.755045,51.977422],[-4.755314,51.977484],[-4.755505,51.977549],[-4.755616,51.977617],[-4.755648,51.97769],[-4.755601,51.977766],[-4.755605,51.977818],[-4.755661,51.977846],[-4.755769,51.97785],[-4.755928,51.97783],[-4.756046,51.977792],[-4.756121,51.977738],[-4.756154,51.977667],[-4.756146,51.977579],[-4.756219,51.977527],[-4.756374,51.97751],[-4.756612,51.97753],[-4.756931,51.977585],[-4.757171,51.97765],[-4.757331,51.977725],[-4.757412,51.977811],[-4.757413,51.977906],[-4.757458,51.977988],[-4.757548,51.978056],[-4.757683,51.978111],[-4.757863,51.978151],[-4.758019,51.978199],[-4.758151,51.978252],[-4.758259,51.978311],[-4.758344,51.978377],[-4.758431,51.978444],[-4.758521,51.978512],[-4.758615,51.978582],[-4.758711,51.978652],[-4.758802,51.978684],[-4.758888,51.978676],[-4.758968,51.978629],[-4.759043,51.978543],[-4.759139,51.978474],[-4.759256,51.978421],[-4.759395,51.978384],[-4.759554,51.978364],[-4.759731,51.978342],[-4.759925,51.978317],[-4.760137,51.97829],[-4.760366,51.978261],[-4.760512,51.978225],[-4.760575,51.978182],[-4.760556,51.978132],[-4.760454,51.978075],[-4.76033,51.978022],[-4.760184,51.977974],[-4.760016,51.97793],[-4.759826,51.97789],[-4.759681,51.977851],[-4.75958,51.977813],[-4.759523,51.977776],[-4.759511,51.977739],[-4.759559,51.977712],[-4.759667,51.977695],[-4.759836,51.977688],[-4.760066,51.977691],[-4.760249,51.977703],[-4.760385,51.977724],[-4.760476,51.977754],[-4.76052,51.977793],[-4.760575,51.977824],[-4.76064,51.977848],[-4.760715,51.977864],[-4.760801,51.977872],[-4.760896,51.977791],[-4.761,51.977622],[-4.761114,51.977364],[-4.761236,51.977017],[-4.761384,51.976761],[-4.761557,51.976596],[-4.761756,51.976522],[-4.761979,51.976538],[-4.762173,51.976545],[-4.762339,51.976543],[-4.762475,51.976532],[-4.762583,51.976512],[-4.762693,51.976502],[-4.762807,51.9765],[-4.762924,51.976507],[-4.763044,51.976524],[-4.763177,51.976542],[-4.763324,51.976562],[-4.763484,51.976583],[-4.763657,51.976606],[-4.763818,51.976628],[-4.763966,51.976651],[-4.764101,51.976674],[-4.764222,51.976696],[-4.764346,51.976662],[-4.764471,51.976569],[-4.764597,51.97642],[-4.764725,51.976212],[-4.764824,51.976104],[-4.764893,51.976095],[-4.764934,51.976186],[-4.764945,51.976375],[-4.765001,51.976525],[-4.765099,51.976633],[-4.765241,51.976701],[-4.765427,51.976729],[-4.765599,51.976777],[-4.765757,51.976846],[-4.765901,51.976936],[-4.766032,51.977047],[-4.766127,51.977153],[-4.766187,51.977253],[-4.766211,51.977349],[-4.7662,51.97744]]]}}