{"type":"Feature","properties":{"id":"266121","COMMUNE":"Mid and East Antrim","PROVINCE":"Mid and East Antrim","COUNTRY":"UK","FIREDATE":"2025-03-13 12:23:00","FINALDATE":"2025-03-13 12:23:00","CLASS":"FireSeason","areaHA_geo":0.732},"geometry":{"type":"Polygon","coordinates":[[[-5.989314,54.857466],[-5.989467,54.857517],[-5.989636,54.857511],[-5.989822,54.857448],[-5.990024,54.857328],[-5.990231,54.857229],[-5.990443,54.857152],[-5.99066,54.857096],[-5.990882,54.857061],[-5.991001,54.856995],[-5.991018,54.856898],[-5.990933,54.856769],[-5.990746,54.856608],[-5.990512,54.85654],[-5.990233,54.856563],[-5.989907,54.856678],[-5.989534,54.856884],[-5.989289,54.857067],[-5.98917,54.857224],[-5.989179,54.857357],[-5.989314,54.857466]]]}}