{"type":"Feature","properties":{"id":"266131","COMMUNE":"Pembrokeshire","PROVINCE":"South West Wales","COUNTRY":"UK","FIREDATE":"2025-03-22 12:37:18.812","FINALDATE":"2025-03-23 12:37:21.982","CLASS":"FireSeason","areaHA_geo":0.946},"geometry":{"type":"Polygon","coordinates":[[[-4.788011,51.963816],[-4.788266,51.963735],[-4.788413,51.963662],[-4.788451,51.963598],[-4.788381,51.963543],[-4.788296,51.963508],[-4.788198,51.963492],[-4.788084,51.963495],[-4.787957,51.963518],[-4.787842,51.963521],[-4.787738,51.963506],[-4.787646,51.963471],[-4.787566,51.963418],[-4.787544,51.963376],[-4.78758,51.963346],[-4.787675,51.963327],[-4.787829,51.96332],[-4.787946,51.963299],[-4.788028,51.963263],[-4.788073,51.963213],[-4.788082,51.963148],[-4.788073,51.963089],[-4.788044,51.963035],[-4.787997,51.962987],[-4.787931,51.962944],[-4.787848,51.962921],[-4.787748,51.962918],[-4.787632,51.962935],[-4.787499,51.962971],[-4.787379,51.962984],[-4.787272,51.962975],[-4.787179,51.962944],[-4.787098,51.962891],[-4.786995,51.962885],[-4.786869,51.962926],[-4.78672,51.963015],[-4.786548,51.963152],[-4.786442,51.963278],[-4.786403,51.963395],[-4.786431,51.963501],[-4.786526,51.963597],[-4.786617,51.963653],[-4.786705,51.963667],[-4.786789,51.96364],[-4.78687,51.963573],[-4.786954,51.963537],[-4.787041,51.963532],[-4.78713,51.963559],[-4.787222,51.963617],[-4.787275,51.963682],[-4.787289,51.963754],[-4.787263,51.963832],[-4.787198,51.963916],[-4.787241,51.963957],[-4.78739,51.963954],[-4.787647,51.963907],[-4.788011,51.963816]]]}}