{"type":"Feature","properties":{"id":"266117","COMMUNE":"Powys","PROVINCE":"Powys","COUNTRY":"UK","FIREDATE":"2025-04-01 14:22:00","FINALDATE":"2025-04-02 03:21:00","CLASS":"FireSeason","areaHA_geo":88.375},"geometry":{"type":"Polygon","coordinates":[[[-3.618461,51.99091],[-3.618715,51.990964],[-3.618906,51.990956],[-3.619035,51.990887],[-3.6191,51.990757],[-3.619145,51.990645],[-3.619169,51.990552],[-3.619173,51.990478],[-3.619156,51.990423],[-3.619174,51.990377],[-3.619228,51.990342],[-3.619317,51.990317],[-3.619441,51.990303],[-3.619549,51.99031],[-3.61964,51.990339],[-3.619714,51.99039],[-3.619772,51.990462],[-3.619842,51.990519],[-3.619925,51.99056],[-3.620021,51.990585],[-3.620129,51.990594],[-3.620209,51.990626],[-3.620261,51.990681],[-3.620286,51.990759],[-3.620282,51.99086],[-3.620375,51.990925],[-3.620565,51.990953],[-3.620853,51.990945],[-3.621238,51.9909],[-3.621586,51.990859],[-3.621898,51.990823],[-3.622172,51.990791],[-3.62241,51.990763],[-3.622627,51.990756],[-3.622825,51.990769],[-3.623002,51.990802],[-3.62316,51.990856],[-3.623297,51.990874],[-3.623415,51.990857],[-3.623513,51.990804],[-3.623591,51.990715],[-3.623611,51.990647],[-3.623573,51.990597],[-3.623475,51.990567],[-3.62332,51.990556],[-3.623224,51.990521],[-3.623187,51.99046],[-3.623211,51.990375],[-3.623294,51.990264],[-3.623391,51.990197],[-3.623501,51.990173],[-3.623624,51.990193],[-3.623761,51.990256],[-3.623942,51.990302],[-3.624168,51.99033],[-3.624437,51.99034],[-3.624752,51.990332],[-3.624868,51.990252],[-3.624786,51.990099],[-3.624505,51.989874],[-3.624027,51.989577],[-3.623634,51.989351],[-3.623328,51.989196],[-3.623109,51.989112],[-3.622976,51.989098],[-3.622831,51.989094],[-3.622674,51.989098],[-3.622504,51.98911],[-3.622323,51.989131],[-3.622178,51.989116],[-3.622068,51.989064],[-3.621994,51.988975],[-3.621955,51.98885],[-3.621843,51.988734],[-3.621657,51.988626],[-3.621398,51.988526],[-3.621065,51.988436],[-3.620767,51.988333],[-3.620503,51.98822],[-3.620274,51.988096],[-3.62008,51.98796],[-3.619966,51.987865],[-3.619932,51.987812],[-3.619978,51.987799],[-3.620104,51.987827],[-3.620288,51.987846],[-3.620531,51.987853],[-3.620832,51.987851],[-3.621192,51.987837],[-3.621452,51.987787],[-3.621613,51.9877],[-3.621674,51.987576],[-3.621636,51.987415],[-3.62165,51.98728],[-3.621716,51.987171],[-3.621835,51.987089],[-3.622005,51.987033],[-3.622135,51.986968],[-3.622223,51.986893],[-3.62227,51.986808],[-3.622276,51.986714],[-3.622371,51.986632],[-3.622555,51.986564],[-3.622829,51.986509],[-3.623191,51.986466],[-3.623507,51.986406],[-3.623776,51.986328],[-3.623998,51.986232],[-3.624174,51.986118],[-3.624256,51.986031],[-3.624243,51.985971],[-3.624137,51.985938],[-3.623936,51.985933],[-3.623825,51.98587],[-3.623806,51.98575],[-3.623877,51.985573],[-3.624039,51.985338],[-3.624141,51.985162],[-3.624181,51.985046],[-3.624161,51.984989],[-3.624079,51.984991],[-3.623984,51.985025],[-3.623876,51.985092],[-3.623754,51.985191],[-3.623618,51.985322],[-3.623484,51.985428],[-3.62335,51.985508],[-3.623218,51.985563],[-3.623086,51.985593],[-3.622982,51.985587],[-3.622904,51.985546],[-3.622854,51.985469],[-3.622831,51.985356],[-3.622766,51.985277],[-3.622658,51.985232],[-3.622508,51.985221],[-3.622316,51.985243],[-3.622129,51.985294],[-3.621948,51.985373],[-3.621773,51.98548],[-3.621603,51.985615],[-3.621505,51.985723],[-3.621477,51.985806],[-3.621521,51.985862],[-3.621636,51.985892],[-3.621723,51.985928],[-3.621784,51.985972],[-3.621817,51.986022],[-3.621822,51.986079],[-3.621796,51.986134],[-3.621736,51.986188],[-3.621643,51.98624],[-3.621518,51.986291],[-3.621413,51.986339],[-3.621327,51.986385],[-3.621262,51.986429],[-3.621216,51.98647],[-3.621135,51.986513],[-3.621021,51.986559],[-3.620871,51.986607],[-3.620687,51.986658],[-3.620551,51.986728],[-3.620461,51.986817],[-3.620418,51.986927],[-3.620423,51.987056],[-3.620403,51.987162],[-3.620359,51.987247],[-3.62029,51.987309],[-3.620196,51.987349],[-3.620103,51.98734],[-3.620009,51.987282],[-3.619915,51.987176],[-3.61982,51.987022],[-3.619749,51.986877],[-3.619702,51.986742],[-3.619678,51.986617],[-3.619678,51.986502],[-3.619689,51.986405],[-3.619712,51.986327],[-3.619746,51.986267],[-3.619792,51.986225],[-3.619839,51.986139],[-3.619886,51.986007],[-3.619934,51.985831],[-3.619983,51.985609],[-3.620026,51.985417],[-3.620064,51.985254],[-3.620096,51.985121],[-3.620123,51.985017],[-3.620081,51.984888],[-3.619969,51.984736],[-3.619789,51.984559],[-3.619539,51.984357],[-3.619338,51.98417],[-3.619185,51.983997],[-3.61908,51.983838],[-3.619024,51.983694],[-3.619035,51.98357],[-3.619115,51.983467],[-3.619263,51.983385],[-3.619478,51.983324],[-3.619661,51.98325],[-3.619811,51.983164],[-3.619927,51.983066],[-3.62001,51.982956],[-3.62003,51.982867],[-3.619986,51.9828],[-3.619878,51.982755],[-3.619707,51.982732],[-3.619587,51.982677],[-3.61952,51.982592],[-3.619504,51.982475],[-3.619541,51.982326],[-3.619586,51.982197],[-3.61964,51.982086],[-3.619702,51.981994],[-3.619773,51.981921],[-3.619921,51.981763],[-3.620146,51.981521],[-3.620447,51.981194],[-3.620824,51.980783],[-3.621152,51.980468],[-3.62143,51.980248],[-3.621659,51.980124],[-3.621838,51.980096],[-3.622067,51.98003],[-3.622345,51.979925],[-3.622674,51.979782],[-3.623052,51.979601],[-3.623268,51.97942],[-3.623323,51.979237],[-3.623217,51.979053],[-3.622949,51.978868],[-3.622721,51.978729],[-3.622534,51.978636],[-3.622388,51.978588],[-3.622282,51.978586],[-3.6222,51.978559],[-3.622143,51.978508],[-3.622111,51.978433],[-3.622104,51.978333],[-3.622063,51.97823],[-3.62199,51.978123],[-3.621882,51.978013],[-3.621742,51.9779],[-3.621614,51.977828],[-3.6215,51.977798],[-3.621398,51.97781],[-3.621309,51.977864],[-3.621249,51.977927],[-3.621218,51.977999],[-3.621217,51.97808],[-3.621245,51.97817],[-3.621187,51.978211],[-3.621044,51.978203],[-3.620815,51.978145],[-3.6205,51.978037],[-3.620317,51.977938],[-3.620266,51.977847],[-3.620346,51.977764],[-3.620557,51.977689],[-3.620664,51.977606],[-3.620665,51.977516],[-3.620562,51.977418],[-3.620353,51.977313],[-3.620129,51.977222],[-3.619889,51.977146],[-3.619632,51.977084],[-3.619359,51.977036],[-3.61907,51.976973],[-3.618764,51.976893],[-3.618442,51.976798],[-3.618103,51.976686],[-3.617832,51.976626],[-3.61763,51.976617],[-3.617496,51.976659],[-3.617431,51.976753],[-3.617357,51.976789],[-3.617274,51.976766],[-3.617182,51.976685],[-3.61708,51.976546],[-3.616961,51.976427],[-3.616825,51.976327],[-3.616672,51.976248],[-3.616501,51.976189],[-3.616275,51.97615],[-3.615994,51.976132],[-3.615658,51.976136],[-3.615267,51.97616],[-3.614909,51.976169],[-3.614585,51.976163],[-3.614295,51.976143],[-3.614038,51.976108],[-3.613781,51.976074],[-3.613524,51.976039],[-3.613267,51.976004],[-3.61301,51.975969],[-3.612763,51.975929],[-3.612527,51.975885],[-3.612301,51.975836],[-3.612085,51.975782],[-3.611679,51.975798],[-3.611085,51.975886],[-3.610301,51.976044],[-3.609328,51.976272],[-3.608602,51.976467],[-3.608124,51.976627],[-3.607893,51.976753],[-3.607909,51.976844],[-3.607912,51.976921],[-3.607902,51.976984],[-3.607879,51.977032],[-3.607842,51.977065],[-3.607833,51.977111],[-3.607851,51.97717],[-3.607897,51.977242],[-3.60797,51.977327],[-3.607883,51.977436],[-3.607637,51.977569],[-3.607231,51.977726],[-3.606665,51.977908],[-3.606285,51.97811],[-3.60609,51.978335],[-3.606081,51.978581],[-3.606257,51.978848],[-3.606424,51.979046],[-3.606581,51.979176],[-3.606728,51.979236],[-3.606866,51.979227],[-3.606997,51.979261],[-3.60712,51.979336],[-3.607235,51.979454],[-3.607343,51.979615],[-3.607468,51.979775],[-3.607611,51.979934],[-3.607772,51.980094],[-3.60795,51.980253],[-3.608001,51.980334],[-3.607925,51.980335],[-3.607723,51.980258],[-3.607393,51.980102],[-3.607124,51.979998],[-3.606915,51.979947],[-3.606766,51.979948],[-3.606676,51.980002],[-3.606734,51.980112],[-3.606938,51.980279],[-3.607288,51.980503],[-3.607785,51.980784],[-3.608206,51.981001],[-3.608553,51.981155],[-3.608824,51.981246],[-3.60902,51.981273],[-3.609186,51.981315],[-3.60932,51.981372],[-3.609424,51.981442],[-3.609497,51.981528],[-3.609564,51.981584],[-3.609626,51.981613],[-3.609682,51.981614],[-3.609732,51.981587],[-3.609812,51.981552],[-3.609923,51.98151],[-3.610063,51.981462],[-3.610234,51.981406],[-3.610418,51.981359],[-3.610618,51.981321],[-3.610832,51.981293],[-3.611061,51.981273],[-3.611298,51.981244],[-3.611544,51.981204],[-3.611798,51.981155],[-3.612061,51.981095],[-3.612285,51.981032],[-3.612469,51.980963],[-3.612614,51.980891],[-3.612719,51.980814],[-3.612851,51.980737],[-3.613009,51.980661],[-3.613194,51.980585],[-3.613405,51.98051],[-3.613636,51.980442],[-3.613887,51.98038],[-3.614158,51.980325],[-3.614448,51.980277],[-3.614689,51.980242],[-3.614881,51.980219],[-3.615025,51.98021],[-3.61512,51.980213],[-3.615203,51.980225],[-3.615273,51.980246],[-3.615332,51.980275],[-3.615379,51.980313],[-3.615434,51.980349],[-3.615498,51.980385],[-3.61557,51.98042],[-3.615651,51.980454],[-3.615657,51.9805],[-3.615587,51.980558],[-3.615441,51.980629],[-3.615221,51.980713],[-3.614987,51.980801],[-3.61474,51.980895],[-3.614481,51.980993],[-3.614208,51.981097],[-3.613946,51.981191],[-3.613696,51.981274],[-3.613458,51.981347],[-3.613231,51.981409],[-3.613046,51.981494],[-3.612903,51.981601],[-3.612802,51.981729],[-3.612742,51.98188],[-3.612741,51.98199],[-3.612798,51.982059],[-3.612912,51.982087],[-3.613084,51.982074],[-3.613252,51.982089],[-3.613418,51.982131],[-3.61358,51.9822],[-3.613739,51.982297],[-3.613896,51.982361],[-3.614053,51.982394],[-3.614208,51.982394],[-3.614362,51.982361],[-3.614523,51.982332],[-3.614691,51.982305],[-3.614865,51.982281],[-3.615046,51.98226],[-3.615142,51.982267],[-3.615153,51.982301],[-3.615078,51.982364],[-3.614919,51.982455],[-3.614785,51.982542],[-3.614676,51.982627],[-3.614592,51.982709],[-3.614535,51.982788],[-3.614498,51.982858],[-3.614482,51.982922],[-3.614487,51.982977],[-3.614514,51.983024],[-3.614556,51.983075],[-3.614613,51.983129],[-3.614687,51.983187],[-3.614776,51.983249],[-3.614886,51.983301],[-3.615017,51.983344],[-3.615167,51.983376],[-3.615339,51.9834],[-3.615527,51.983432],[-3.615733,51.983472],[-3.615957,51.983522],[-3.616198,51.98358],[-3.616366,51.983652],[-3.616463,51.983738],[-3.616488,51.983838],[-3.616441,51.983952],[-3.616404,51.984078],[-3.616377,51.984218],[-3.616359,51.984372],[-3.616352,51.984538],[-3.616324,51.984714],[-3.616276,51.9849],[-3.616207,51.985095],[-3.616117,51.9853],[-3.616102,51.98543],[-3.61616,51.985484],[-3.616291,51.985463],[-3.616496,51.985368],[-3.616665,51.985315],[-3.616797,51.985307],[-3.616893,51.985343],[-3.616953,51.985422],[-3.616991,51.985508],[-3.617007,51.9856],[-3.617002,51.985697],[-3.616976,51.985801],[-3.616935,51.9859],[-3.616882,51.985992],[-3.616815,51.986079],[-3.616734,51.986161],[-3.616617,51.986209],[-3.616463,51.986223],[-3.616273,51.986204],[-3.616045,51.986151],[-3.615868,51.986118],[-3.61574,51.986104],[-3.615663,51.986109],[-3.615635,51.986134],[-3.615635,51.98617],[-3.615661,51.986217],[-3.615714,51.986276],[-3.615795,51.986346],[-3.615868,51.986422],[-3.615934,51.986504],[-3.615994,51.986593],[-3.616046,51.986687],[-3.616114,51.986764],[-3.616197,51.986823],[-3.616294,51.986864],[-3.616407,51.986887],[-3.616509,51.986981],[-3.616601,51.987147],[-3.616683,51.987384],[-3.616755,51.987692],[-3.616828,51.98793],[-3.616903,51.988098],[-3.61698,51.988195],[-3.617059,51.988222],[-3.617114,51.988307],[-3.617147,51.988451],[-3.617156,51.988654],[-3.617143,51.988914],[-3.617171,51.98912],[-3.617241,51.98927],[-3.617352,51.989365],[-3.617505,51.989405],[-3.617667,51.989437],[-3.617839,51.98946],[-3.618019,51.989475],[-3.618209,51.989482],[-3.618357,51.989504],[-3.618462,51.989542],[-3.618526,51.989596],[-3.618547,51.989665],[-3.618531,51.989737],[-3.618478,51.989812],[-3.618387,51.989889],[-3.618259,51.989969],[-3.618169,51.990046],[-3.618115,51.990121],[-3.6181,51.990193],[-3.618121,51.990262],[-3.618107,51.990331],[-3.618057,51.990398],[-3.617972,51.990463],[-3.617851,51.990528],[-3.617839,51.990605],[-3.617937,51.990694],[-3.618145,51.990796],[-3.618461,51.99091]]]}}