{"type":"Feature","properties":{"id":"266151","COMMUNE":"Carmarthenshire","PROVINCE":"South West Wales","COUNTRY":"UK","FIREDATE":"2025-04-01 14:56:42.268","CLASS":"FireSeason","areaHA_geo":6.021},"geometry":{"type":"Polygon","coordinates":[[[-4.155665,52.031311],[-4.155641,52.031447],[-4.155667,52.031567],[-4.155741,52.03167],[-4.155865,52.031757],[-4.155946,52.031806],[-4.155984,52.031817],[-4.15598,52.031791],[-4.155934,52.031727],[-4.155913,52.031663],[-4.155918,52.031598],[-4.15595,52.031533],[-4.156007,52.031467],[-4.156083,52.031384],[-4.156177,52.031285],[-4.15629,52.031168],[-4.156422,52.031035],[-4.156563,52.030959],[-4.156714,52.030941],[-4.156874,52.03098],[-4.157045,52.031077],[-4.157181,52.031167],[-4.157282,52.031251],[-4.157348,52.031329],[-4.15738,52.0314],[-4.157435,52.031465],[-4.157516,52.031525],[-4.15762,52.031579],[-4.157749,52.031627],[-4.157859,52.03165],[-4.157949,52.031647],[-4.158021,52.031618],[-4.158073,52.031564],[-4.158126,52.031533],[-4.158181,52.031527],[-4.158236,52.031544],[-4.158293,52.031585],[-4.158377,52.031629],[-4.158487,52.031674],[-4.158624,52.031721],[-4.158788,52.031771],[-4.158915,52.031793],[-4.159005,52.031788],[-4.159058,52.031754],[-4.159073,52.031694],[-4.159106,52.031622],[-4.159158,52.031538],[-4.159228,52.031443],[-4.159315,52.031336],[-4.15937,52.031249],[-4.159392,52.031182],[-4.159382,52.031135],[-4.159338,52.031109],[-4.159283,52.031101],[-4.159217,52.031111],[-4.159139,52.031141],[-4.15905,52.031189],[-4.158974,52.03121],[-4.158912,52.031204],[-4.158862,52.031172],[-4.158825,52.031112],[-4.158778,52.031047],[-4.158721,52.030977],[-4.158653,52.030901],[-4.158574,52.030819],[-4.158516,52.030727],[-4.158479,52.030625],[-4.158463,52.030512],[-4.158467,52.030389],[-4.15845,52.030277],[-4.158414,52.030178],[-4.158357,52.03009],[-4.158281,52.030013],[-4.15826,52.029944],[-4.158297,52.029881],[-4.15839,52.029824],[-4.158539,52.029774],[-4.158651,52.029695],[-4.158725,52.029587],[-4.158762,52.02945],[-4.158761,52.029285],[-4.158726,52.029161],[-4.158656,52.029078],[-4.158551,52.029038],[-4.158412,52.029038],[-4.158272,52.029085],[-4.158132,52.029177],[-4.157991,52.029314],[-4.157849,52.029497],[-4.157706,52.029649],[-4.157562,52.029771],[-4.157417,52.029862],[-4.157271,52.029922],[-4.157146,52.02996],[-4.157042,52.029975],[-4.156959,52.029968],[-4.156897,52.029938],[-4.156887,52.029887],[-4.15693,52.029815],[-4.157024,52.029722],[-4.15717,52.029608],[-4.157271,52.029509],[-4.157327,52.029425],[-4.157337,52.029356],[-4.157303,52.029301],[-4.157254,52.029244],[-4.157191,52.029185],[-4.157115,52.029124],[-4.157025,52.02906],[-4.156902,52.029038],[-4.156748,52.02906],[-4.156562,52.029124],[-4.156343,52.02923],[-4.15619,52.029282],[-4.156102,52.02928],[-4.156079,52.029222],[-4.156122,52.02911],[-4.156115,52.029036],[-4.15606,52.029],[-4.155956,52.029002],[-4.155803,52.029042],[-4.155684,52.029063],[-4.155598,52.029066],[-4.155544,52.029049],[-4.155524,52.029014],[-4.155471,52.028996],[-4.155383,52.028993],[-4.155261,52.029006],[-4.155104,52.029036],[-4.154975,52.029046],[-4.154872,52.029037],[-4.154795,52.029009],[-4.154745,52.028962],[-4.154681,52.028938],[-4.154602,52.028937],[-4.154509,52.028959],[-4.154401,52.029004],[-4.154346,52.029061],[-4.154342,52.029131],[-4.15439,52.029213],[-4.15449,52.029308],[-4.154526,52.029399],[-4.154497,52.029485],[-4.154404,52.029567],[-4.154246,52.029645],[-4.154182,52.02971],[-4.154212,52.029763],[-4.154335,52.029802],[-4.154553,52.029829],[-4.154747,52.029883],[-4.154917,52.029964],[-4.155062,52.030072],[-4.155184,52.030207],[-4.155306,52.030341],[-4.155426,52.030473],[-4.155547,52.030604],[-4.155667,52.030734],[-4.155739,52.030869],[-4.155762,52.031011],[-4.155738,52.031158],[-4.155665,52.031311]]]}}