{"type":"Feature","properties":{"id":"266172","COMMUNE":"Conwy","PROVINCE":"Conwy and Denbighshire","COUNTRY":"UK","FIREDATE":"2025-04-01 15:27:45.155","FINALDATE":"2025-04-02 15:27:48.895","CLASS":"FireSeason","areaHA_geo":0.48},"geometry":{"type":"Polygon","coordinates":[[[-3.93179,53.252499],[-3.931864,53.252462],[-3.931915,53.252409],[-3.931943,53.252338],[-3.931949,53.252251],[-3.93194,53.252182],[-3.931919,53.252131],[-3.931884,53.252099],[-3.931836,53.252084],[-3.931779,53.252076],[-3.931715,53.252075],[-3.931642,53.252081],[-3.931562,53.252093],[-3.93148,53.252102],[-3.931395,53.252107],[-3.93131,53.252109],[-3.931222,53.252108],[-3.931138,53.252114],[-3.931056,53.252127],[-3.930978,53.252147],[-3.930902,53.252175],[-3.930834,53.252214],[-3.930774,53.252266],[-3.930721,53.25233],[-3.930676,53.252406],[-3.930652,53.252475],[-3.93065,53.252537],[-3.930669,53.252593],[-3.930709,53.252641],[-3.930785,53.25268],[-3.930899,53.252709],[-3.931049,53.252727],[-3.931235,53.252736],[-3.931377,53.25273],[-3.931474,53.252709],[-3.931527,53.252674],[-3.931535,53.252624],[-3.931565,53.252581],[-3.931617,53.252546],[-3.931692,53.252519],[-3.93179,53.252499]]]}}