{"type":"Feature","properties":{"id":"266101","COMMUNE":"Derry City and Strabane","PROVINCE":"Derry City and Strabane","COUNTRY":"UK","FIREDATE":"2025-03-22 11:41:30.974","CLASS":"FireSeason","areaHA_geo":5.95},"geometry":{"type":"Polygon","coordinates":[[[-7.034275,54.802325],[-7.034343,54.802388],[-7.034422,54.802428],[-7.034511,54.802445],[-7.03461,54.802439],[-7.034694,54.802455],[-7.034761,54.802492],[-7.034812,54.802552],[-7.034847,54.802633],[-7.034892,54.802692],[-7.034949,54.802729],[-7.035017,54.802744],[-7.035096,54.802737],[-7.035145,54.802713],[-7.035166,54.802674],[-7.035157,54.802617],[-7.035119,54.802544],[-7.035099,54.802485],[-7.035097,54.802441],[-7.035113,54.80241],[-7.035147,54.802394],[-7.035164,54.802368],[-7.035166,54.802332],[-7.035152,54.802288],[-7.035122,54.802233],[-7.035103,54.802181],[-7.035096,54.802131],[-7.035099,54.802084],[-7.035114,54.802039],[-7.035117,54.801998],[-7.035109,54.801962],[-7.035088,54.801931],[-7.035056,54.801904],[-7.03503,54.801867],[-7.03501,54.801819],[-7.034995,54.80176],[-7.034986,54.801691],[-7.034989,54.801631],[-7.035005,54.80158],[-7.035033,54.801538],[-7.035073,54.801505],[-7.035117,54.801464],[-7.035164,54.801414],[-7.035214,54.801357],[-7.035268,54.80129],[-7.035283,54.801234],[-7.035259,54.801186],[-7.035197,54.801148],[-7.035096,54.801119],[-7.035026,54.801081],[-7.034989,54.801033],[-7.034983,54.800976],[-7.03501,54.80091],[-7.035009,54.800844],[-7.03498,54.800777],[-7.034924,54.800711],[-7.034841,54.800644],[-7.034784,54.800582],[-7.034752,54.800524],[-7.034746,54.80047],[-7.034766,54.80042],[-7.034766,54.800368],[-7.034746,54.800314],[-7.034707,54.800258],[-7.034648,54.8002],[-7.0346,54.800138],[-7.034562,54.800073],[-7.034534,54.800005],[-7.034517,54.799933],[-7.034504,54.799863],[-7.034496,54.799796],[-7.034492,54.799731],[-7.034493,54.799669],[-7.03446,54.79962],[-7.034393,54.799584],[-7.034293,54.799562],[-7.03416,54.799553],[-7.034082,54.799538],[-7.03406,54.799518],[-7.034093,54.799492],[-7.034182,54.79946],[-7.034201,54.79941],[-7.034152,54.799343],[-7.034034,54.799258],[-7.033847,54.799155],[-7.033686,54.799076],[-7.03355,54.799023],[-7.033441,54.798994],[-7.033357,54.79899],[-7.033288,54.798948],[-7.033233,54.798867],[-7.033193,54.798749],[-7.033167,54.798592],[-7.033189,54.798477],[-7.03326,54.798403],[-7.033378,54.79837],[-7.033545,54.798378],[-7.033658,54.798371],[-7.033717,54.798349],[-7.033722,54.798312],[-7.033672,54.79826],[-7.033634,54.798214],[-7.033606,54.798173],[-7.033589,54.798137],[-7.033583,54.798107],[-7.033567,54.798061],[-7.033541,54.798],[-7.033505,54.797924],[-7.033459,54.797833],[-7.0334,54.797763],[-7.033328,54.797714],[-7.033243,54.797687],[-7.033145,54.797681],[-7.03305,54.797694],[-7.032959,54.797726],[-7.03287,54.797778],[-7.032784,54.797848],[-7.032712,54.79788],[-7.032655,54.797872],[-7.032611,54.797825],[-7.032581,54.79774],[-7.032572,54.797668],[-7.032585,54.797609],[-7.032619,54.797564],[-7.032673,54.797533],[-7.032721,54.797481],[-7.032761,54.797407],[-7.032793,54.797312],[-7.032818,54.797195],[-7.032818,54.797071],[-7.032793,54.796939],[-7.032742,54.796801],[-7.032666,54.796655],[-7.032575,54.79655],[-7.03247,54.796487],[-7.032349,54.796465],[-7.032214,54.796483],[-7.032088,54.796506],[-7.031969,54.796532],[-7.03186,54.796562],[-7.031758,54.796596],[-7.031653,54.796624],[-7.031543,54.796647],[-7.03143,54.796665],[-7.031312,54.796677],[-7.031232,54.796708],[-7.031188,54.796757],[-7.031181,54.796824],[-7.031211,54.79691],[-7.031213,54.797013],[-7.031186,54.797134],[-7.031131,54.797273],[-7.031048,54.797429],[-7.031012,54.797561],[-7.031024,54.797669],[-7.031084,54.797752],[-7.031191,54.797812],[-7.031213,54.797856],[-7.031151,54.797886],[-7.031005,54.797902],[-7.030773,54.797903],[-7.030585,54.79792],[-7.030439,54.797954],[-7.030336,54.798004],[-7.030276,54.798071],[-7.030256,54.798168],[-7.030276,54.798294],[-7.030336,54.79845],[-7.030436,54.798636],[-7.030539,54.798769],[-7.030645,54.79885],[-7.030754,54.798879],[-7.030867,54.798855],[-7.030975,54.798849],[-7.031078,54.79886],[-7.031177,54.798888],[-7.031272,54.798934],[-7.031354,54.798934],[-7.031423,54.798889],[-7.03148,54.798799],[-7.031525,54.798664],[-7.03157,54.798543],[-7.031616,54.798435],[-7.031662,54.79834],[-7.031709,54.798259],[-7.031803,54.798251],[-7.031943,54.798316],[-7.03213,54.798453],[-7.032362,54.798663],[-7.032572,54.798871],[-7.032759,54.799078],[-7.032924,54.799283],[-7.033065,54.799486],[-7.033191,54.799657],[-7.033302,54.799796],[-7.033397,54.799903],[-7.033476,54.799978],[-7.033562,54.800077],[-7.033652,54.800202],[-7.033748,54.800351],[-7.03385,54.800524],[-7.033942,54.800657],[-7.034026,54.800749],[-7.0341,54.8008],[-7.034166,54.80081],[-7.034201,54.800832],[-7.034205,54.800865],[-7.034177,54.800908],[-7.034119,54.800963],[-7.034087,54.801048],[-7.034081,54.801162],[-7.034102,54.801306],[-7.034149,54.801479],[-7.034179,54.801632],[-7.034191,54.801765],[-7.034187,54.801878],[-7.034165,54.801971],[-7.034163,54.802062],[-7.034181,54.802152],[-7.034218,54.802239],[-7.034275,54.802325]]]}}