{"type":"Feature","properties":{"id":"266140","COMMUNE":"Carmarthenshire","PROVINCE":"South West Wales","COUNTRY":"UK","FIREDATE":"2025-04-01 12:56:24.44","FINALDATE":"2025-04-02 12:56:28.823","CLASS":"FireSeason","areaHA_geo":46.076},"geometry":{"type":"Polygon","coordinates":[[[-4.18597,52.000915],[-4.186516,52.000744],[-4.186857,52.000505],[-4.186993,52.000197],[-4.186924,51.999821],[-4.186916,51.999539],[-4.186969,51.999351],[-4.187083,51.999257],[-4.187257,51.999257],[-4.187424,51.99929],[-4.187585,51.999356],[-4.187738,51.999455],[-4.187885,51.999586],[-4.188059,51.999627],[-4.188261,51.999576],[-4.188489,51.999433],[-4.188745,51.999199],[-4.189032,51.999036],[-4.189351,51.998944],[-4.189701,51.998922],[-4.190083,51.998972],[-4.190316,51.998981],[-4.190402,51.998949],[-4.190339,51.998877],[-4.190129,51.998763],[-4.190035,51.998649],[-4.190059,51.998534],[-4.1902,51.998418],[-4.190459,51.998301],[-4.190673,51.998235],[-4.190842,51.99822],[-4.190967,51.998255],[-4.191047,51.998342],[-4.19116,51.998411],[-4.191308,51.998462],[-4.191488,51.998497],[-4.191703,51.998513],[-4.191931,51.998507],[-4.192175,51.998477],[-4.192432,51.998425],[-4.192704,51.998349],[-4.192912,51.998265],[-4.193056,51.998172],[-4.193137,51.998072],[-4.193154,51.997963],[-4.193063,51.99787],[-4.192864,51.997792],[-4.192557,51.997731],[-4.192142,51.997685],[-4.191791,51.997624],[-4.191505,51.997546],[-4.191283,51.997453],[-4.191126,51.997344],[-4.190622,51.997266],[-4.189772,51.99722],[-4.188574,51.997205],[-4.187029,51.997222],[-4.185862,51.997249],[-4.185073,51.997286],[-4.184662,51.997333],[-4.184628,51.997391],[-4.184563,51.997434],[-4.184468,51.997461],[-4.184341,51.997474],[-4.184184,51.997472],[-4.184041,51.997446],[-4.183912,51.997398],[-4.183797,51.997326],[-4.183697,51.997232],[-4.183574,51.997145],[-4.183427,51.997067],[-4.183256,51.996997],[-4.183062,51.996935],[-4.182866,51.996894],[-4.182669,51.996876],[-4.182469,51.996879],[-4.182268,51.996903],[-4.182077,51.996905],[-4.181896,51.996884],[-4.181726,51.996841],[-4.181565,51.996775],[-4.181463,51.996675],[-4.181421,51.996541],[-4.181436,51.996374],[-4.181511,51.996172],[-4.181485,51.99601],[-4.181358,51.995886],[-4.181131,51.995802],[-4.180803,51.995756],[-4.180533,51.995703],[-4.180322,51.995643],[-4.18017,51.995576],[-4.180077,51.995502],[-4.179936,51.995418],[-4.179749,51.995323],[-4.179515,51.995218],[-4.179234,51.995102],[-4.179005,51.995026],[-4.178828,51.994989],[-4.178702,51.994991],[-4.178628,51.995032],[-4.17851,51.99503],[-4.178348,51.994986],[-4.178141,51.994898],[-4.177891,51.994769],[-4.177644,51.994652],[-4.177402,51.994548],[-4.177163,51.994456],[-4.176929,51.994378],[-4.176611,51.994283],[-4.17621,51.994171],[-4.175725,51.994043],[-4.175156,51.993899],[-4.174631,51.993783],[-4.174151,51.993697],[-4.173715,51.993641],[-4.173323,51.993614],[-4.173106,51.993696],[-4.173063,51.993888],[-4.173195,51.99419],[-4.173501,51.994602],[-4.173803,51.994945],[-4.174099,51.995218],[-4.174392,51.995423],[-4.174679,51.995559],[-4.174865,51.995676],[-4.174948,51.995773],[-4.174929,51.99585],[-4.174808,51.995907],[-4.174744,51.996046],[-4.174736,51.996266],[-4.174785,51.996567],[-4.174891,51.99695],[-4.175081,51.997298],[-4.175356,51.997612],[-4.175715,51.997891],[-4.17616,51.998137],[-4.176571,51.998373],[-4.176949,51.998599],[-4.177293,51.998817],[-4.177603,51.999025],[-4.178006,51.999248],[-4.178501,51.999487],[-4.179088,51.999742],[-4.179767,52.000012],[-4.180483,52.000262],[-4.181236,52.000491],[-4.182025,52.000699],[-4.182852,52.000887],[-4.18366,52.001003],[-4.184449,52.001046],[-4.185219,52.001017],[-4.18597,52.000915]]]}}