{"type":"Feature","properties":{"id":"266246","COMMUNE":"Angus","PROVINCE":"Angus and Dundee City","COUNTRY":"UK","FIREDATE":"2025-04-03 11:13:00","CLASS":"FireSeason","areaHA_geo":1.029},"geometry":{"type":"Polygon","coordinates":[[[-2.918442,56.897588],[-2.918558,56.89738],[-2.918688,56.897227],[-2.918833,56.897127],[-2.918993,56.897081],[-2.919167,56.897089],[-2.919323,56.897065],[-2.91946,56.897009],[-2.919577,56.896921],[-2.919676,56.8968],[-2.919691,56.896718],[-2.919621,56.896674],[-2.919467,56.896668],[-2.919228,56.8967],[-2.919016,56.896706],[-2.91883,56.896687],[-2.918669,56.896641],[-2.918535,56.896569],[-2.918382,56.896531],[-2.918209,56.896527],[-2.918016,56.896557],[-2.917804,56.896621],[-2.917661,56.896693],[-2.917588,56.896772],[-2.917583,56.89686],[-2.917647,56.896956],[-2.917674,56.897055],[-2.917662,56.897159],[-2.917614,56.897266],[-2.917527,56.897377],[-2.917517,56.897482],[-2.917582,56.897582],[-2.917724,56.897676],[-2.917942,56.897765],[-2.918134,56.89778],[-2.918301,56.897721],[-2.918442,56.897588]]]}}