{"type":"Feature","properties":{"id":"266245","COMMUNE":"Angus","PROVINCE":"Angus and Dundee City","COUNTRY":"UK","FIREDATE":"2025-04-03 11:13:00","CLASS":"FireSeason","areaHA_geo":3.73},"geometry":{"type":"Polygon","coordinates":[[[-2.923796,56.901184],[-2.924202,56.901276],[-2.924475,56.901299],[-2.924616,56.901256],[-2.924624,56.901144],[-2.924531,56.901045],[-2.924338,56.900958],[-2.924042,56.900883],[-2.923646,56.90082],[-2.923413,56.900767],[-2.923344,56.900723],[-2.923437,56.900688],[-2.923693,56.900662],[-2.923925,56.900598],[-2.924132,56.900497],[-2.924314,56.900357],[-2.924471,56.90018],[-2.924678,56.900033],[-2.924934,56.899918],[-2.925241,56.899835],[-2.925597,56.899782],[-2.925891,56.899752],[-2.926123,56.899746],[-2.926293,56.899763],[-2.9264,56.899804],[-2.926511,56.899808],[-2.926625,56.899775],[-2.926741,56.899706],[-2.926861,56.8996],[-2.926821,56.899532],[-2.926623,56.8995],[-2.926266,56.899506],[-2.925751,56.899549],[-2.92525,56.899557],[-2.924765,56.899529],[-2.924294,56.899465],[-2.923838,56.899366],[-2.923528,56.899269],[-2.923363,56.899175],[-2.923343,56.899083],[-2.923468,56.898994],[-2.923508,56.898905],[-2.923461,56.898816],[-2.923329,56.898727],[-2.923111,56.898638],[-2.922905,56.898605],[-2.92271,56.898629],[-2.922527,56.898709],[-2.922356,56.898845],[-2.922222,56.898978],[-2.922126,56.899106],[-2.922068,56.899232],[-2.922047,56.899353],[-2.921975,56.899437],[-2.921851,56.899483],[-2.921674,56.899492],[-2.921446,56.899464],[-2.921272,56.899456],[-2.921151,56.899468],[-2.921084,56.8995],[-2.921071,56.899553],[-2.921122,56.89962],[-2.921236,56.899702],[-2.921414,56.899799],[-2.921655,56.899912],[-2.921841,56.90001],[-2.921972,56.900095],[-2.922048,56.900166],[-2.922067,56.900224],[-2.922104,56.900297],[-2.922158,56.900385],[-2.922229,56.900489],[-2.922317,56.900608],[-2.922518,56.900737],[-2.922831,56.900876],[-2.923257,56.901025],[-2.923796,56.901184]]]}}