{"type":"Feature","properties":{"id":"266253","COMMUNE":"Angus","PROVINCE":"Angus and Dundee City","COUNTRY":"UK","FIREDATE":"2025-04-05 11:28:00","CLASS":"FireSeason","areaHA_geo":1.395},"geometry":{"type":"Polygon","coordinates":[[[-2.871064,56.978749],[-2.870877,56.978923],[-2.870792,56.979063],[-2.870808,56.97917],[-2.870925,56.979242],[-2.871062,56.979283],[-2.871217,56.979293],[-2.871391,56.979271],[-2.871584,56.979219],[-2.871736,56.979168],[-2.871848,56.979119],[-2.871919,56.979072],[-2.87195,56.979027],[-2.872002,56.978993],[-2.872077,56.97897],[-2.872173,56.978958],[-2.872291,56.978958],[-2.872421,56.978943],[-2.872563,56.978913],[-2.872716,56.978869],[-2.872882,56.978811],[-2.873031,56.978763],[-2.873165,56.978726],[-2.873283,56.978699],[-2.873386,56.978684],[-2.873526,56.978642],[-2.873704,56.978576],[-2.873919,56.978483],[-2.874172,56.978366],[-2.874357,56.978266],[-2.874476,56.978184],[-2.874527,56.97812],[-2.874511,56.978074],[-2.874449,56.978041],[-2.874342,56.978021],[-2.874189,56.978014],[-2.87399,56.978019],[-2.873792,56.978033],[-2.873593,56.978054],[-2.873395,56.978083],[-2.873196,56.978119],[-2.873004,56.978167],[-2.872819,56.978226],[-2.87264,56.978296],[-2.872467,56.978378],[-2.872311,56.978422],[-2.872172,56.978429],[-2.87205,56.978399],[-2.871944,56.978331],[-2.871792,56.978332],[-2.871595,56.978402],[-2.871353,56.978541],[-2.871064,56.978749]]]}}