{"type":"Feature","properties":{"id":"266254","COMMUNE":"Angus","PROVINCE":"Angus and Dundee City","COUNTRY":"UK","FIREDATE":"2025-04-05 11:28:00","FINALDATE":"2025-04-05 11:51:00","CLASS":"FireSeason","areaHA_geo":0.485},"geometry":{"type":"Polygon","coordinates":[[[-2.87729,56.980826],[-2.876962,56.981122],[-2.876778,56.981332],[-2.876736,56.981457],[-2.876837,56.981498],[-2.877023,56.981436],[-2.877293,56.981272],[-2.877648,56.981005],[-2.878087,56.980636],[-2.878398,56.980347],[-2.878583,56.980136],[-2.878641,56.980005],[-2.878571,56.979953],[-2.878402,56.980009],[-2.878132,56.980173],[-2.877761,56.980446],[-2.87729,56.980826]]]}}