{"type":"Feature","properties":{"id":"266239","COMMUNE":"Angus","PROVINCE":"Angus and Dundee City","COUNTRY":"UK","FIREDATE":"2025-04-04 12:34:00","CLASS":"FireSeason","areaHA_geo":9.004},"geometry":{"type":"Polygon","coordinates":[[[-2.955209,56.891002],[-2.955388,56.891024],[-2.955649,56.891011],[-2.95599,56.890962],[-2.956413,56.890877],[-2.956846,56.890808],[-2.957288,56.890755],[-2.957739,56.890718],[-2.9582,56.890698],[-2.958535,56.890617],[-2.958744,56.890477],[-2.958827,56.890277],[-2.958784,56.890017],[-2.958779,56.889847],[-2.958814,56.889767],[-2.958888,56.889777],[-2.959,56.889876],[-2.959133,56.889946],[-2.959288,56.889986],[-2.959463,56.889996],[-2.959659,56.889976],[-2.959832,56.889936],[-2.959982,56.889874],[-2.960109,56.889791],[-2.960214,56.889687],[-2.960347,56.88962],[-2.960508,56.889591],[-2.960698,56.8896],[-2.960917,56.889646],[-2.96106,56.88964],[-2.961125,56.889582],[-2.961115,56.889473],[-2.961027,56.889311],[-2.961002,56.889205],[-2.96104,56.889154],[-2.961139,56.889159],[-2.9613,56.88922],[-2.961496,56.889245],[-2.961726,56.889235],[-2.961991,56.889189],[-2.962291,56.889108],[-2.96256,56.889028],[-2.962797,56.888948],[-2.963004,56.88887],[-2.96318,56.888793],[-2.963273,56.888722],[-2.963281,56.888657],[-2.963207,56.888599],[-2.963048,56.888546],[-2.96263,56.888554],[-2.961951,56.888622],[-2.961013,56.88875],[-2.959814,56.888939],[-2.958868,56.889055],[-2.958173,56.889099],[-2.957731,56.889071],[-2.95754,56.888971],[-2.957345,56.888892],[-2.957146,56.888835],[-2.956943,56.8888],[-2.956735,56.888787],[-2.956516,56.888794],[-2.956283,56.888822],[-2.956039,56.88887],[-2.955781,56.888938],[-2.955607,56.888953],[-2.955516,56.888916],[-2.955508,56.888825],[-2.955583,56.888681],[-2.955605,56.888551],[-2.955572,56.888435],[-2.955486,56.888333],[-2.955346,56.888245],[-2.955155,56.888221],[-2.954912,56.888263],[-2.954617,56.888369],[-2.954271,56.88854],[-2.954012,56.888704],[-2.95384,56.888862],[-2.953756,56.889013],[-2.953759,56.889158],[-2.953726,56.889263],[-2.953655,56.88933],[-2.953548,56.889358],[-2.953403,56.889347],[-2.95329,56.889356],[-2.953206,56.889386],[-2.953153,56.889436],[-2.953131,56.889506],[-2.953062,56.889545],[-2.952948,56.889552],[-2.952787,56.889528],[-2.952581,56.889472],[-2.952372,56.889454],[-2.952161,56.889475],[-2.951948,56.889535],[-2.951732,56.889633],[-2.951644,56.889761],[-2.951683,56.889919],[-2.951849,56.890107],[-2.952143,56.890325],[-2.952429,56.890452],[-2.952706,56.890488],[-2.952976,56.890433],[-2.953238,56.890288],[-2.953486,56.890194],[-2.953722,56.890154],[-2.953944,56.890166],[-2.954154,56.89023],[-2.954329,56.89024],[-2.95447,56.890196],[-2.954576,56.890098],[-2.954648,56.889946],[-2.954729,56.889829],[-2.954818,56.889748],[-2.954915,56.889702],[-2.95502,56.889692],[-2.955129,56.889691],[-2.955242,56.889701],[-2.955358,56.889722],[-2.955478,56.889752],[-2.955632,56.889769],[-2.95582,56.889771],[-2.956042,56.88976],[-2.956299,56.889734],[-2.956487,56.889736],[-2.956607,56.889767],[-2.956658,56.889826],[-2.956641,56.889913],[-2.956571,56.889981],[-2.956449,56.890032],[-2.956273,56.890064],[-2.956044,56.890079],[-2.955871,56.890111],[-2.955756,56.890161],[-2.955698,56.890229],[-2.955696,56.890314],[-2.955649,56.890404],[-2.955557,56.890498],[-2.95542,56.890597],[-2.955237,56.890701],[-2.955125,56.890793],[-2.955082,56.890874],[-2.95511,56.890943],[-2.955209,56.891002]]]}}