{"type":"Feature","properties":{"id":"266203","COMMUNE":"Shropshire","PROVINCE":"Shropshire CC","COUNTRY":"UK","FIREDATE":"2025-03-20 13:08:00","CLASS":"FireSeason","areaHA_geo":2.403},"geometry":{"type":"Polygon","coordinates":[[[-2.87483,52.544392],[-2.874917,52.544456],[-2.875035,52.544509],[-2.875186,52.544551],[-2.87537,52.544582],[-2.87551,52.544596],[-2.875607,52.544591],[-2.875662,52.544569],[-2.875673,52.544529],[-2.875701,52.544499],[-2.875746,52.544478],[-2.875807,52.544467],[-2.875885,52.544466],[-2.875949,52.544457],[-2.876,52.544441],[-2.876036,52.544417],[-2.876059,52.544387],[-2.876089,52.544362],[-2.876126,52.544344],[-2.876169,52.544332],[-2.87622,52.544327],[-2.876265,52.54429],[-2.876304,52.544221],[-2.876337,52.544121],[-2.876365,52.54399],[-2.876374,52.543887],[-2.876364,52.543813],[-2.876335,52.543769],[-2.876286,52.543753],[-2.876247,52.543729],[-2.876215,52.543697],[-2.876193,52.543657],[-2.876179,52.543609],[-2.876159,52.543565],[-2.876134,52.543524],[-2.876103,52.543486],[-2.876066,52.543451],[-2.876038,52.543398],[-2.876017,52.543327],[-2.876003,52.543238],[-2.875998,52.543132],[-2.875969,52.543052],[-2.875917,52.542998],[-2.875842,52.542972],[-2.875743,52.542972],[-2.875642,52.542964],[-2.875539,52.542948],[-2.875433,52.542924],[-2.875325,52.542892],[-2.875227,52.542864],[-2.875141,52.542841],[-2.875065,52.542822],[-2.875,52.542808],[-2.874933,52.542789],[-2.874865,52.542763],[-2.874794,52.542733],[-2.874723,52.542697],[-2.874643,52.542669],[-2.874554,52.542649],[-2.874457,52.542638],[-2.874352,52.542636],[-2.874256,52.542649],[-2.874169,52.542679],[-2.874091,52.542725],[-2.874023,52.542787],[-2.873977,52.542854],[-2.873955,52.542927],[-2.873957,52.543005],[-2.873981,52.543089],[-2.873994,52.543158],[-2.873994,52.543213],[-2.873982,52.543253],[-2.873958,52.543278],[-2.87394,52.543309],[-2.873929,52.543344],[-2.873924,52.543385],[-2.873926,52.543431],[-2.873946,52.543482],[-2.873985,52.543541],[-2.874043,52.543605],[-2.874119,52.543676],[-2.874193,52.543732],[-2.874266,52.543771],[-2.874337,52.543795],[-2.874406,52.543803],[-2.87447,52.543834],[-2.874527,52.543887],[-2.874579,52.543962],[-2.874626,52.544059],[-2.874674,52.54415],[-2.874724,52.544236],[-2.874776,52.544317],[-2.87483,52.544392]]]}}