{"type":"Feature","properties":{"id":"266205","COMMUNE":"Shropshire","PROVINCE":"Shropshire CC","COUNTRY":"UK","FIREDATE":"2025-03-20 13:08:00","FINALDATE":"2025-03-20 13:55:00","CLASS":"FireSeason","areaHA_geo":0.251},"geometry":{"type":"Polygon","coordinates":[[[-2.870116,52.544393],[-2.870229,52.54445],[-2.870344,52.544478],[-2.870459,52.544477],[-2.870575,52.544447],[-2.870657,52.54441],[-2.870705,52.544367],[-2.870719,52.544318],[-2.8707,52.544262],[-2.870669,52.544216],[-2.870626,52.544181],[-2.870573,52.544157],[-2.870508,52.544143],[-2.870455,52.544113],[-2.870416,52.544068],[-2.870389,52.544008],[-2.870376,52.543932],[-2.870346,52.543877],[-2.870299,52.543843],[-2.870237,52.543831],[-2.870158,52.543839],[-2.870086,52.543866],[-2.870021,52.543911],[-2.869963,52.543974],[-2.869912,52.544055],[-2.869901,52.544138],[-2.869932,52.544222],[-2.870003,52.544307],[-2.870116,52.544393]]]}}