{"type":"Feature","properties":{"id":"266258","COMMUNE":"Angus","PROVINCE":"Angus and Dundee City","COUNTRY":"UK","FIREDATE":"2025-04-05 11:28:00","FINALDATE":"2025-04-05 11:51:00","CLASS":"FireSeason","areaHA_geo":0.259},"geometry":{"type":"Polygon","coordinates":[[[-2.87598,56.980564],[-2.876272,56.98047],[-2.876489,56.980391],[-2.876631,56.980327],[-2.876699,56.980277],[-2.876692,56.980241],[-2.876642,56.980211],[-2.876548,56.980186],[-2.876412,56.980168],[-2.876232,56.980155],[-2.876055,56.980166],[-2.875879,56.980202],[-2.875706,56.980262],[-2.875534,56.980346],[-2.875422,56.980424],[-2.875369,56.980495],[-2.875376,56.980559],[-2.875442,56.980617],[-2.875565,56.980637],[-2.875744,56.980619],[-2.87598,56.980564]]]}}