{"type":"Feature","properties":{"id":"266200","COMMUNE":"Gwynedd","PROVINCE":"Gwynedd","COUNTRY":"UK","FIREDATE":"2025-03-21 16:10:35.653","CLASS":"FireSeason","areaHA_geo":11.102},"geometry":{"type":"Polygon","coordinates":[[[-4.099243,53.046842],[-4.099211,53.047026],[-4.09929,53.047186],[-4.099481,53.047323],[-4.099784,53.047435],[-4.100095,53.047547],[-4.100414,53.047657],[-4.100742,53.047767],[-4.101079,53.047875],[-4.101418,53.047954],[-4.101762,53.048003],[-4.102109,53.048023],[-4.102459,53.048014],[-4.102762,53.04802],[-4.103017,53.048043],[-4.103224,53.048082],[-4.103384,53.048137],[-4.103556,53.048149],[-4.10374,53.048116],[-4.103936,53.04804],[-4.104143,53.04792],[-4.104319,53.047849],[-4.104462,53.047827],[-4.104572,53.047853],[-4.10465,53.047929],[-4.104825,53.047961],[-4.105095,53.04795],[-4.105462,53.047896],[-4.105925,53.047799],[-4.106341,53.047721],[-4.10671,53.047661],[-4.107032,53.04762],[-4.107308,53.047598],[-4.107548,53.047522],[-4.107753,53.047392],[-4.107921,53.047208],[-4.108055,53.046969],[-4.108036,53.046752],[-4.107865,53.046555],[-4.107541,53.046379],[-4.107065,53.046223],[-4.106589,53.046081],[-4.106113,53.045952],[-4.105638,53.045836],[-4.105162,53.045733],[-4.104743,53.045672],[-4.104383,53.045651],[-4.10408,53.045671],[-4.103835,53.045732],[-4.10366,53.045803],[-4.103554,53.045884],[-4.103518,53.045976],[-4.103552,53.046078],[-4.103491,53.046135],[-4.103336,53.046148],[-4.103087,53.046117],[-4.102744,53.046041],[-4.102418,53.046005],[-4.10211,53.04601],[-4.10182,53.046055],[-4.101548,53.04614],[-4.101325,53.046227],[-4.101151,53.046317],[-4.101027,53.046408],[-4.100952,53.046502],[-4.100848,53.046549],[-4.100715,53.046549],[-4.100554,53.046502],[-4.100363,53.046408],[-4.100191,53.046341],[-4.100036,53.046301],[-4.099899,53.046288],[-4.09978,53.046302],[-4.099655,53.046364],[-4.099524,53.046475],[-4.099386,53.046634],[-4.099243,53.046842]]]}}