{"type":"Feature","properties":{"id":"266244","COMMUNE":"Angus","PROVINCE":"Angus and Dundee City","COUNTRY":"UK","FIREDATE":"2025-04-03 11:13:00","CLASS":"FireSeason","areaHA_geo":6.68},"geometry":{"type":"Polygon","coordinates":[[[-2.919998,56.898953],[-2.919885,56.89876],[-2.91981,56.898601],[-2.919775,56.898477],[-2.919779,56.898387],[-2.919823,56.898331],[-2.919856,56.898271],[-2.91988,56.898204],[-2.919894,56.898133],[-2.919899,56.898056],[-2.919969,56.897997],[-2.920103,56.897958],[-2.920303,56.897938],[-2.920568,56.897938],[-2.920762,56.89789],[-2.920886,56.897797],[-2.920939,56.897658],[-2.920922,56.897472],[-2.920985,56.897359],[-2.921127,56.89732],[-2.921349,56.897353],[-2.921651,56.897459],[-2.921857,56.89757],[-2.921968,56.897687],[-2.921982,56.897809],[-2.921902,56.897936],[-2.921891,56.898029],[-2.92195,56.898087],[-2.922079,56.89811],[-2.922278,56.898099],[-2.922471,56.898026],[-2.922659,56.897893],[-2.922841,56.897698],[-2.923018,56.897442],[-2.923176,56.897324],[-2.923316,56.897344],[-2.923437,56.897502],[-2.923539,56.897798],[-2.923767,56.898052],[-2.924121,56.898264],[-2.924601,56.898433],[-2.925206,56.89856],[-2.925667,56.898619],[-2.925984,56.898608],[-2.926155,56.898529],[-2.926182,56.898382],[-2.926125,56.898249],[-2.925983,56.898131],[-2.925756,56.898028],[-2.925445,56.89794],[-2.925171,56.89787],[-2.924934,56.897817],[-2.924734,56.897781],[-2.924572,56.897763],[-2.9245,56.897724],[-2.924518,56.897662],[-2.924626,56.897579],[-2.924823,56.897474],[-2.925031,56.897398],[-2.925249,56.897351],[-2.925477,56.897332],[-2.925714,56.897343],[-2.925876,56.897314],[-2.925961,56.897245],[-2.925971,56.897138],[-2.925905,56.896991],[-2.925772,56.896888],[-2.925571,56.896827],[-2.925304,56.896809],[-2.924969,56.896834],[-2.924698,56.896805],[-2.92449,56.896724],[-2.924346,56.896589],[-2.924266,56.896401],[-2.924135,56.896248],[-2.923954,56.89613],[-2.923722,56.896047],[-2.92344,56.895998],[-2.923206,56.895941],[-2.923019,56.895874],[-2.92288,56.895799],[-2.922788,56.895714],[-2.922639,56.895689],[-2.922432,56.895722],[-2.922167,56.895814],[-2.921845,56.895966],[-2.921617,56.896117],[-2.921481,56.896266],[-2.921439,56.896415],[-2.92149,56.896564],[-2.921426,56.896706],[-2.921247,56.896843],[-2.920953,56.896975],[-2.920544,56.897101],[-2.920216,56.897223],[-2.919968,56.897342],[-2.919801,56.897456],[-2.919715,56.897567],[-2.919581,56.897687],[-2.919399,56.897816],[-2.919169,56.897954],[-2.918893,56.898101],[-2.918728,56.898256],[-2.918675,56.898418],[-2.918734,56.898589],[-2.918904,56.898768],[-2.919096,56.898915],[-2.919307,56.89903],[-2.919539,56.899114],[-2.91979,56.899165],[-2.919951,56.899155],[-2.92002,56.899085],[-2.919998,56.898953]]]}}