{"type":"Feature","properties":{"id":"266247","COMMUNE":"Angus","PROVINCE":"Angus and Dundee City","COUNTRY":"UK","FIREDATE":"2025-04-03 13:46:00","CLASS":"FireSeason","areaHA_geo":2.195},"geometry":{"type":"Polygon","coordinates":[[[-2.926013,56.906227],[-2.926305,56.906257],[-2.926609,56.906235],[-2.926927,56.906161],[-2.927258,56.906034],[-2.927573,56.905941],[-2.927872,56.905881],[-2.928156,56.905855],[-2.928423,56.905862],[-2.928655,56.905777],[-2.928852,56.9056],[-2.929012,56.905331],[-2.929137,56.904969],[-2.929127,56.904736],[-2.928981,56.904631],[-2.928701,56.904655],[-2.928285,56.904807],[-2.927929,56.904917],[-2.927633,56.904985],[-2.927396,56.905011],[-2.927219,56.904995],[-2.927028,56.905018],[-2.926823,56.905081],[-2.926605,56.905184],[-2.926373,56.905326],[-2.926155,56.905463],[-2.925951,56.905594],[-2.92576,56.90572],[-2.925583,56.90584],[-2.92552,56.90595],[-2.925571,56.906052],[-2.925735,56.906144],[-2.926013,56.906227]]]}}