{"type":"Feature","properties":{"id":"266242","COMMUNE":"Angus","PROVINCE":"Angus and Dundee City","COUNTRY":"UK","FIREDATE":"2025-04-03 12:53:00","FINALDATE":"2025-04-04 14:14:00","CLASS":"FireSeason","areaHA_geo":0.97},"geometry":{"type":"Polygon","coordinates":[[[-2.933488,56.89697],[-2.93408,56.896966],[-2.934496,56.896908],[-2.934738,56.896794],[-2.934804,56.896626],[-2.93469,56.896499],[-2.934395,56.896413],[-2.93392,56.896369],[-2.933264,56.896366],[-2.932727,56.896395],[-2.932311,56.896453],[-2.932014,56.896543],[-2.931837,56.896662],[-2.931896,56.896765],[-2.932191,56.896851],[-2.932721,56.896919],[-2.933488,56.89697]]]}}