{"type":"Feature","properties":{"id":"266256","COMMUNE":"Angus","PROVINCE":"Angus and Dundee City","COUNTRY":"UK","FIREDATE":"2025-04-05 11:28:00","FINALDATE":"2025-04-05 11:51:00","CLASS":"FireSeason","areaHA_geo":0.256},"geometry":{"type":"Polygon","coordinates":[[[-2.8795,56.979593],[-2.879639,56.979445],[-2.879727,56.979328],[-2.879765,56.979243],[-2.879752,56.97919],[-2.879687,56.979168],[-2.87961,56.979157],[-2.879521,56.979158],[-2.879418,56.979169],[-2.879302,56.979192],[-2.879193,56.979239],[-2.879092,56.979309],[-2.878997,56.979403],[-2.878909,56.979521],[-2.878855,56.979619],[-2.878835,56.979695],[-2.878849,56.97975],[-2.878897,56.979785],[-2.878953,56.979809],[-2.879017,56.979824],[-2.87909,56.979829],[-2.87917,56.979824],[-2.879265,56.979783],[-2.879375,56.979706],[-2.8795,56.979593]]]}}