{"type":"Feature","properties":{"id":"266243","COMMUNE":"Angus","PROVINCE":"Angus and Dundee City","COUNTRY":"UK","FIREDATE":"2025-04-03 12:53:00","FINALDATE":"2025-04-04 14:14:00","CLASS":"FireSeason","areaHA_geo":0.99},"geometry":{"type":"Polygon","coordinates":[[[-2.933896,56.896052],[-2.934477,56.896039],[-2.934873,56.896012],[-2.935085,56.895971],[-2.935114,56.895917],[-2.935043,56.895871],[-2.934874,56.895833],[-2.934606,56.895802],[-2.934239,56.895779],[-2.933959,56.89575],[-2.933768,56.895713],[-2.933663,56.895671],[-2.933646,56.895621],[-2.933544,56.895574],[-2.933357,56.895529],[-2.933084,56.895486],[-2.932727,56.895445],[-2.932401,56.895428],[-2.932108,56.895436],[-2.931846,56.895469],[-2.931616,56.895526],[-2.931488,56.895596],[-2.931462,56.89568],[-2.931539,56.895777],[-2.931717,56.895887],[-2.932042,56.895969],[-2.932514,56.896024],[-2.933132,56.896052],[-2.933896,56.896052]]]}}