{"type":"Feature","properties":{"id":"266321","COMMUNE":"Angus","PROVINCE":"Angus and Dundee City","COUNTRY":"UK","FIREDATE":"2025-04-08 12:59:00","CLASS":"FireSeason","areaHA_geo":0.556},"geometry":{"type":"Polygon","coordinates":[[[-2.878666,56.879884],[-2.878727,56.879929],[-2.878818,56.879944],[-2.878938,56.87993],[-2.879086,56.879887],[-2.879231,56.879828],[-2.879373,56.879753],[-2.87951,56.879662],[-2.879645,56.879555],[-2.87976,56.879441],[-2.879855,56.87932],[-2.879932,56.879192],[-2.879989,56.879056],[-2.880004,56.87897],[-2.879976,56.878932],[-2.879906,56.878943],[-2.879793,56.879003],[-2.879695,56.879023],[-2.879614,56.879002],[-2.879549,56.878942],[-2.879499,56.878841],[-2.87941,56.878829],[-2.87928,56.878905],[-2.87911,56.879069],[-2.878899,56.879321],[-2.87875,56.879529],[-2.878661,56.879692],[-2.878633,56.87981],[-2.878666,56.879884]]]}}