{"type":"Feature","properties":{"id":"266328","COMMUNE":"Angus","PROVINCE":"Angus and Dundee City","COUNTRY":"UK","FIREDATE":"2025-04-08 12:59:00","CLASS":"FireSeason","areaHA_geo":1.33},"geometry":{"type":"Polygon","coordinates":[[[-2.864199,56.884563],[-2.864317,56.884597],[-2.864403,56.884599],[-2.864457,56.884568],[-2.86448,56.884505],[-2.864527,56.884453],[-2.864598,56.884411],[-2.864693,56.88438],[-2.864813,56.88436],[-2.864913,56.884334],[-2.864995,56.884302],[-2.865058,56.884263],[-2.865102,56.884218],[-2.865161,56.884179],[-2.865235,56.884145],[-2.865324,56.884117],[-2.865427,56.884094],[-2.865516,56.884066],[-2.86559,56.884033],[-2.865649,56.883993],[-2.865693,56.883948],[-2.865752,56.883922],[-2.865828,56.883915],[-2.865919,56.883926],[-2.866026,56.883956],[-2.8661,56.883961],[-2.866141,56.88394],[-2.86615,56.883895],[-2.866125,56.883824],[-2.866083,56.883748],[-2.866021,56.883667],[-2.865942,56.883581],[-2.865843,56.883489],[-2.865789,56.883416],[-2.865778,56.883363],[-2.86581,56.883328],[-2.865887,56.883312],[-2.865938,56.883284],[-2.865965,56.883243],[-2.865967,56.883189],[-2.865944,56.883122],[-2.865907,56.88306],[-2.865858,56.883002],[-2.865795,56.882948],[-2.865719,56.882899],[-2.86565,56.882878],[-2.86559,56.882886],[-2.865537,56.882923],[-2.865493,56.882988],[-2.865433,56.883042],[-2.865359,56.883084],[-2.865269,56.883114],[-2.865164,56.883133],[-2.865082,56.883193],[-2.865024,56.883294],[-2.864989,56.883436],[-2.864978,56.88362],[-2.864956,56.88377],[-2.864921,56.883887],[-2.864876,56.883971],[-2.864819,56.884021],[-2.864759,56.884046],[-2.864696,56.884046],[-2.86463,56.884022],[-2.86456,56.883972],[-2.864526,56.883926],[-2.864527,56.883886],[-2.864563,56.88385],[-2.864634,56.883818],[-2.864657,56.883775],[-2.86463,56.883721],[-2.864556,56.883656],[-2.864433,56.883579],[-2.864297,56.883534],[-2.864148,56.883523],[-2.863986,56.883544],[-2.863812,56.883598],[-2.863698,56.883683],[-2.863645,56.8838],[-2.863654,56.883948],[-2.863723,56.884128],[-2.863812,56.884279],[-2.863921,56.884402],[-2.86405,56.884497],[-2.864199,56.884563]]]}}