{"type":"Feature","properties":{"id":"266330","COMMUNE":"Angus","PROVINCE":"Angus and Dundee City","COUNTRY":"UK","FIREDATE":"2025-04-08 12:59:00","CLASS":"FireSeason","areaHA_geo":0.148},"geometry":{"type":"Polygon","coordinates":[[[-2.866602,56.88373],[-2.86669,56.88378],[-2.866793,56.883778],[-2.866912,56.883724],[-2.867046,56.883617],[-2.86712,56.883524],[-2.867134,56.883446],[-2.867088,56.883382],[-2.866981,56.883331],[-2.866876,56.883307],[-2.866773,56.883309],[-2.866672,56.883338],[-2.866571,56.883392],[-2.866514,56.883459],[-2.866501,56.883537],[-2.86653,56.883628],[-2.866602,56.88373]]]}}