{"type":"Feature","properties":{"id":"266365","COMMUNE":"West Dunbartonshire","PROVINCE":"East Dunbartonshire, West Dunbartonshire and Helensburgh & Lomond","COUNTRY":"UK","FIREDATE":"2025-04-08 10:34:00","FINALDATE":"2025-04-08 13:53:00","CLASS":"FireSeason","areaHA_geo":55.346},"geometry":{"type":"Polygon","coordinates":[[[-4.480715,55.994106],[-4.480516,55.994124],[-4.480128,55.994144],[-4.479753,55.994161],[-4.47939,55.994176],[-4.479157,55.994206],[-4.479055,55.994251],[-4.478913,55.994271],[-4.478733,55.994265],[-4.47862,55.994218],[-4.478575,55.99413],[-4.478362,55.994165],[-4.47798,55.994321],[-4.477692,55.994474],[-4.477498,55.994622],[-4.477393,55.994701],[-4.477376,55.994711],[-4.477315,55.99472],[-4.477209,55.994728],[-4.477099,55.994742],[-4.476984,55.994761],[-4.476876,55.994783],[-4.476777,55.994809],[-4.476686,55.994838],[-4.476602,55.994869],[-4.476526,55.994904],[-4.476458,55.994943],[-4.476398,55.994984],[-4.476345,55.995028],[-4.476298,55.995078],[-4.476256,55.995131],[-4.476219,55.99519],[-4.476187,55.995253],[-4.47616,55.99532],[-4.476138,55.995393],[-4.476121,55.995469],[-4.476109,55.995551],[-4.47612,55.995631],[-4.476153,55.995709],[-4.476209,55.995786],[-4.476288,55.995862],[-4.47639,55.995936],[-4.476514,55.996008],[-4.476661,55.996079],[-4.476831,55.996149],[-4.476998,55.99621],[-4.477162,55.996262],[-4.477324,55.996306],[-4.477483,55.996341],[-4.47764,55.996368],[-4.477795,55.996386],[-4.477946,55.996395],[-4.478095,55.996396],[-4.478244,55.996391],[-4.478394,55.996382],[-4.478543,55.996367],[-4.478692,55.996347],[-4.478841,55.996321],[-4.478991,55.996291],[-4.47914,55.996255],[-4.479289,55.996214],[-4.47937,55.996192],[-4.479381,55.996188],[-4.479352,55.996139],[-4.479283,55.996046],[-4.4792,55.995935],[-4.479104,55.995807],[-4.479119,55.995735],[-4.479244,55.995721],[-4.479332,55.995701],[-4.479382,55.995675],[-4.479383,55.995552],[-4.479336,55.995332],[-4.479303,55.995196],[-4.479284,55.995145],[-4.479465,55.995151],[-4.479845,55.995214],[-4.480056,55.995253],[-4.480098,55.995268],[-4.480274,55.995244],[-4.480584,55.995182],[-4.480741,55.995151],[-4.480746,55.995151],[-4.480758,55.995141],[-4.480777,55.995124],[-4.480821,55.995083],[-4.480891,55.995018],[-4.480951,55.994964],[-4.481,55.99492],[-4.48104,55.994886],[-4.481068,55.994861],[-4.481087,55.994847],[-4.481095,55.994844],[-4.481121,55.994838],[-4.481163,55.994831],[-4.481222,55.994822],[-4.481298,55.994812],[-4.48139,55.9948],[-4.4815,55.994787],[-4.481613,55.994774],[-4.48173,55.99476],[-4.481821,55.99472],[-4.481886,55.994652],[-4.481967,55.994619],[-4.482063,55.994621],[-4.482149,55.994637],[-4.482226,55.994668],[-4.48231,55.994701],[-4.482401,55.994738],[-4.482489,55.994725],[-4.482572,55.994662],[-4.482614,55.994627],[-4.482614,55.994618],[-4.482612,55.994582],[-4.482609,55.994518],[-4.482711,55.994431],[-4.48292,55.99432],[-4.483178,55.994294],[-4.483485,55.994352],[-4.483695,55.994426],[-4.483806,55.994516],[-4.483906,55.994573],[-4.483994,55.994597],[-4.484082,55.994625],[-4.48417,55.994658],[-4.484256,55.994695],[-4.48434,55.994736],[-4.484438,55.994773],[-4.484549,55.994805],[-4.484672,55.994834],[-4.484809,55.994858],[-4.484959,55.994878],[-4.485122,55.994894],[-4.485298,55.994906],[-4.485487,55.994915],[-4.48568,55.994921],[-4.485878,55.994924],[-4.486081,55.994926],[-4.486288,55.994926],[-4.4865,55.994924],[-4.486717,55.99492],[-4.486938,55.994914],[-4.487163,55.994906],[-4.487327,55.994901],[-4.487429,55.994898],[-4.487669,55.994941],[-4.488046,55.995032],[-4.488346,55.995024],[-4.488569,55.994919],[-4.48869,55.994862],[-4.48871,55.994853],[-4.488812,55.994849],[-4.488998,55.994851],[-4.489105,55.994852],[-4.489135,55.994852],[-4.489223,55.994887],[-4.489368,55.994957],[-4.489592,55.994968],[-4.489896,55.99492],[-4.490065,55.994847],[-4.4901,55.99475],[-4.49009,55.994665],[-4.490035,55.994592],[-4.490012,55.99455],[-4.490021,55.994539],[-4.490043,55.994496],[-4.490076,55.994419],[-4.490101,55.994339],[-4.490117,55.994254],[-4.490017,55.994181],[-4.489802,55.994117],[-4.489581,55.994036],[-4.489353,55.993935],[-4.489207,55.993846],[-4.489144,55.993768],[-4.489111,55.993728],[-4.489109,55.993728],[-4.488964,55.993757],[-4.488677,55.993817],[-4.48843,55.993935],[-4.488222,55.994111],[-4.488072,55.994218],[-4.487979,55.994256],[-4.4878,55.994286],[-4.487535,55.99431],[-4.487345,55.994232],[-4.48723,55.994052],[-4.48726,55.993863],[-4.487435,55.993664],[-4.487721,55.993491],[-4.488119,55.993346],[-4.488465,55.99327],[-4.48876,55.993263],[-4.489053,55.993266],[-4.489343,55.993279],[-4.4896,55.993249],[-4.489823,55.993177],[-4.490092,55.9931],[-4.490406,55.993018],[-4.490683,55.992979],[-4.490923,55.992985],[-4.491131,55.993015],[-4.491307,55.993071],[-4.491402,55.993094],[-4.491417,55.993086],[-4.491504,55.99305],[-4.491663,55.992986],[-4.491817,55.992937],[-4.491966,55.992905],[-4.492066,55.992888],[-4.492118,55.992888],[-4.492175,55.992904],[-4.492238,55.992937],[-4.492456,55.992992],[-4.49283,55.993069],[-4.493128,55.993101],[-4.493349,55.993089],[-4.493787,55.993065],[-4.49444,55.99303],[-4.494815,55.992981],[-4.494909,55.992917],[-4.494971,55.992852],[-4.494998,55.992786],[-4.49502,55.992734],[-4.495037,55.992695],[-4.495104,55.992642],[-4.495221,55.992575],[-4.495367,55.992565],[-4.495542,55.992611],[-4.495674,55.992645],[-4.495764,55.992669],[-4.495814,55.99268],[-4.495826,55.992679],[-4.496107,55.9927],[-4.496659,55.992743],[-4.496949,55.992706],[-4.496977,55.99259],[-4.49676,55.992507],[-4.4963,55.992458],[-4.496046,55.99243],[-4.495997,55.992425],[-4.495956,55.992361],[-4.495922,55.992239],[-4.495964,55.992145],[-4.496082,55.992078],[-4.496147,55.992039],[-4.49616,55.992027],[-4.496285,55.991917],[-4.496522,55.991707],[-4.496761,55.991495],[-4.497002,55.991282],[-4.497082,55.991036],[-4.497002,55.99076],[-4.496869,55.990516],[-4.496682,55.990305],[-4.496375,55.990247],[-4.495946,55.990343],[-4.495531,55.99039],[-4.495128,55.99039],[-4.49467,55.990389],[-4.494155,55.990389],[-4.493701,55.990396],[-4.493306,55.990411],[-4.493089,55.990419],[-4.49305,55.990421],[-4.493023,55.990425],[-4.493009,55.990433],[-4.49294,55.99047],[-4.492816,55.990539],[-4.492621,55.990585],[-4.492356,55.990608],[-4.492078,55.99055],[-4.491788,55.990411],[-4.491506,55.990296],[-4.491234,55.990207],[-4.490991,55.990161],[-4.490777,55.990161],[-4.490632,55.990155],[-4.490558,55.990143],[-4.49052,55.990137],[-4.490519,55.990138],[-4.490456,55.990145],[-4.49033,55.99016],[-4.490164,55.990162],[-4.489958,55.990152],[-4.489832,55.990112],[-4.489784,55.990042],[-4.489704,55.989972],[-4.489591,55.989901],[-4.489432,55.98979],[-4.489227,55.989638],[-4.489044,55.989567],[-4.488883,55.989577],[-4.488657,55.98958],[-4.488367,55.989578],[-4.488064,55.989567],[-4.487748,55.989547],[-4.487442,55.989536],[-4.487147,55.989535],[-4.486862,55.989544],[-4.486587,55.989562],[-4.48637,55.989582],[-4.486212,55.989606],[-4.4861,55.989704],[-4.486034,55.989878],[-4.485927,55.99002],[-4.485778,55.99013],[-4.485528,55.990225],[-4.485177,55.990305],[-4.484891,55.990367],[-4.48467,55.990413],[-4.484496,55.990409],[-4.48437,55.990357],[-4.484234,55.990274],[-4.484088,55.990158],[-4.483989,55.990107],[-4.483936,55.990122],[-4.48389,55.990139],[-4.483852,55.990158],[-4.483793,55.99017],[-4.483714,55.990175],[-4.483613,55.990173],[-4.483492,55.990165],[-4.483358,55.990139],[-4.483211,55.990095],[-4.483051,55.990033],[-4.482878,55.989954],[-4.482714,55.989874],[-4.482559,55.989793],[-4.482413,55.989713],[-4.482276,55.989632],[-4.482164,55.989565],[-4.482078,55.98951],[-4.482017,55.989468],[-4.481982,55.989438],[-4.481939,55.989433],[-4.481886,55.98945],[-4.481824,55.989491],[-4.481753,55.989556],[-4.48167,55.989617],[-4.481576,55.989674],[-4.481469,55.989728],[-4.481351,55.989778],[-4.481218,55.989838],[-4.481069,55.989908],[-4.480904,55.989989],[-4.480724,55.990079],[-4.48057,55.990162],[-4.480444,55.990238],[-4.480345,55.990307],[-4.480273,55.990368],[-4.480125,55.990442],[-4.479901,55.990527],[-4.479601,55.990625],[-4.479226,55.990734],[-4.478852,55.99085],[-4.478478,55.990972],[-4.478105,55.991101],[-4.477734,55.991237],[-4.477394,55.991358],[-4.477086,55.991465],[-4.47681,55.991557],[-4.476565,55.991635],[-4.476322,55.991708],[-4.476079,55.991775],[-4.475838,55.991838],[-4.475598,55.991895],[-4.475398,55.991949],[-4.475238,55.991999],[-4.475118,55.992045],[-4.475039,55.992087],[-4.475013,55.992145],[-4.47504,55.992218],[-4.475121,55.992307],[-4.475256,55.992411],[-4.475387,55.992495],[-4.475516,55.99256],[-4.475642,55.992606],[-4.475764,55.992632],[-4.475871,55.992657],[-4.47596,55.992682],[-4.476033,55.992706],[-4.47609,55.992729],[-4.476134,55.992764],[-4.476166,55.99281],[-4.476186,55.992867],[-4.476194,55.992936],[-4.476183,55.993001],[-4.476153,55.993063],[-4.476103,55.993121],[-4.476034,55.993175],[-4.476006,55.993234],[-4.476018,55.993298],[-4.47607,55.993366],[-4.476163,55.993438],[-4.47625,55.993495],[-4.47633,55.993535],[-4.476405,55.99356],[-4.476474,55.993569],[-4.476511,55.99356],[-4.476516,55.993535],[-4.47649,55.993492],[-4.476431,55.993432],[-4.476411,55.993362],[-4.476428,55.99328],[-4.476482,55.993187],[-4.476574,55.993084],[-4.476652,55.992998],[-4.476716,55.992931],[-4.476766,55.992882],[-4.476802,55.992852],[-4.476883,55.992837],[-4.477008,55.992837],[-4.477178,55.992854],[-4.477392,55.992885],[-4.477546,55.992923],[-4.47764,55.992965],[-4.477672,55.993013],[-4.477645,55.993066],[-4.477613,55.99312],[-4.477577,55.993176],[-4.477538,55.993233],[-4.477494,55.993291],[-4.477475,55.993358],[-4.477479,55.993434],[-4.477508,55.993518],[-4.477561,55.993612],[-4.47766,55.993687],[-4.477803,55.993744],[-4.477991,55.993782],[-4.478225,55.993802],[-4.478444,55.993791],[-4.478649,55.993749],[-4.478839,55.993677],[-4.479014,55.993573],[-4.479163,55.993502],[-4.479285,55.993463],[-4.479381,55.993457],[-4.47945,55.993482],[-4.47949,55.993521],[-4.4795,55.993573],[-4.479482,55.993638],[-4.479434,55.993716],[-4.47944,55.993775],[-4.479498,55.993813],[-4.479611,55.993831],[-4.479777,55.993828],[-4.479883,55.993794],[-4.47993,55.993729],[-4.479917,55.993633],[-4.479845,55.993505],[-4.479788,55.993383],[-4.479744,55.993266],[-4.479714,55.993156],[-4.479699,55.993052],[-4.479694,55.992961],[-4.479701,55.992884],[-4.479719,55.99282],[-4.479748,55.99277],[-4.479779,55.992723],[-4.479813,55.99268],[-4.47985,55.992639],[-4.47989,55.992601],[-4.479937,55.992572],[-4.479992,55.99255],[-4.480055,55.992536],[-4.480126,55.992531],[-4.480178,55.992529],[-4.480211,55.992531],[-4.480224,55.992537],[-4.480219,55.992547],[-4.480213,55.992558],[-4.480207,55.99257],[-4.480201,55.992583],[-4.480195,55.992596],[-4.480189,55.99261],[-4.480184,55.992624],[-4.480179,55.992637],[-4.480174,55.992651],[-4.48017,55.992665],[-4.480166,55.992679],[-4.480162,55.992694],[-4.480159,55.992708],[-4.480156,55.992722],[-4.480154,55.992737],[-4.480152,55.992751],[-4.48015,55.992766],[-4.480148,55.99278],[-4.480147,55.992795],[-4.480146,55.99281],[-4.480146,55.992825],[-4.480146,55.99284],[-4.480146,55.992855],[-4.480147,55.99287],[-4.480147,55.992885],[-4.480149,55.992901],[-4.480151,55.992916],[-4.480153,55.992931],[-4.480155,55.992945],[-4.480158,55.99296],[-4.480162,55.992975],[-4.480165,55.992989],[-4.48017,55.993003],[-4.480174,55.993018],[-4.480179,55.993032],[-4.480185,55.993046],[-4.48019,55.993059],[-4.480197,55.993073],[-4.480203,55.993087],[-4.48021,55.9931],[-4.480218,55.993114],[-4.480226,55.993127],[-4.480234,55.99314],[-4.480242,55.993153],[-4.480251,55.993166],[-4.480261,55.993179],[-4.480271,55.993191],[-4.480281,55.993204],[-4.480292,55.993216],[-4.480303,55.993228],[-4.480314,55.993241],[-4.480326,55.993253],[-4.480338,55.993265],[-4.480351,55.993276],[-4.480364,55.993288],[-4.480378,55.9933],[-4.480391,55.993311],[-4.480405,55.993323],[-4.480419,55.993335],[-4.480432,55.993347],[-4.480445,55.99336],[-4.480458,55.993373],[-4.480471,55.993386],[-4.480483,55.9934],[-4.480495,55.993414],[-4.480508,55.993428],[-4.480519,55.993443],[-4.480531,55.993458],[-4.480543,55.993473],[-4.480554,55.993489],[-4.480565,55.993505],[-4.480576,55.993521],[-4.480587,55.993537],[-4.480597,55.993554],[-4.480607,55.993571],[-4.480618,55.993589],[-4.480627,55.993606],[-4.480637,55.993624],[-4.480647,55.993643],[-4.480656,55.993662],[-4.480665,55.993681],[-4.480674,55.9937],[-4.480683,55.99372],[-4.480691,55.99374],[-4.480699,55.99376],[-4.480708,55.99378],[-4.480715,55.993801],[-4.480723,55.993823],[-4.480731,55.993844],[-4.480738,55.993863],[-4.480746,55.993881],[-4.480753,55.993895],[-4.48076,55.993908],[-4.480768,55.993919],[-4.480775,55.993927],[-4.480782,55.993933],[-4.48079,55.993937],[-4.480792,55.993946],[-4.480791,55.993959],[-4.480785,55.993978],[-4.480775,55.994002],[-4.48076,55.99403],[-4.480741,55.994064],[-4.480726,55.994089],[-4.480715,55.994106]]]}}