{"type":"Feature","properties":{"id":"266323","COMMUNE":"Angus","PROVINCE":"Angus and Dundee City","COUNTRY":"UK","FIREDATE":"2025-04-08 13:53:00","FINALDATE":"2025-04-08 13:53:00","CLASS":"FireSeason","areaHA_geo":1.641},"geometry":{"type":"Polygon","coordinates":[[[-2.880621,56.878691],[-2.880633,56.87878],[-2.880716,56.878827],[-2.88087,56.878831],[-2.881094,56.878792],[-2.881273,56.878777],[-2.881406,56.878786],[-2.881494,56.878819],[-2.881535,56.878876],[-2.881591,56.878908],[-2.88166,56.878915],[-2.881743,56.878898],[-2.88184,56.878856],[-2.881951,56.878779],[-2.882076,56.878667],[-2.882215,56.87852],[-2.882368,56.878339],[-2.882508,56.878188],[-2.882633,56.878068],[-2.882746,56.877978],[-2.882844,56.87792],[-2.882927,56.877836],[-2.882993,56.877726],[-2.883043,56.87759],[-2.883076,56.877428],[-2.883071,56.877327],[-2.883028,56.877287],[-2.882946,56.877307],[-2.882825,56.877388],[-2.882731,56.877427],[-2.882663,56.877424],[-2.882621,56.877378],[-2.882606,56.87729],[-2.882559,56.877245],[-2.88248,56.877243],[-2.882369,56.877284],[-2.882227,56.877367],[-2.88207,56.87745],[-2.881898,56.877534],[-2.881712,56.877619],[-2.881511,56.877704],[-2.881342,56.877751],[-2.881204,56.877761],[-2.881098,56.877733],[-2.881023,56.877667],[-2.880944,56.877658],[-2.88086,56.877705],[-2.880771,56.877808],[-2.880677,56.877967],[-2.880621,56.878097],[-2.880603,56.878196],[-2.880623,56.878265],[-2.880681,56.878304],[-2.88071,56.878366],[-2.88071,56.878451],[-2.88068,56.87856],[-2.880621,56.878691]]]}}