{"type":"Feature","properties":{"id":"266337","COMMUNE":"Angus","PROVINCE":"Angus and Dundee City","COUNTRY":"UK","FIREDATE":"2025-04-07 10:35:28.117","FINALDATE":"2025-04-08 10:35:30.153","CLASS":"FireSeason","areaHA_geo":0.74},"geometry":{"type":"Polygon","coordinates":[[[-2.890228,56.880596],[-2.890413,56.880622],[-2.890552,56.880606],[-2.890646,56.880549],[-2.890694,56.88045],[-2.890718,56.880366],[-2.89072,56.880295],[-2.890698,56.880237],[-2.890653,56.880193],[-2.890632,56.880135],[-2.890633,56.880064],[-2.890658,56.879979],[-2.890706,56.879881],[-2.890704,56.879791],[-2.890654,56.879709],[-2.890554,56.879635],[-2.890405,56.879568],[-2.890246,56.879549],[-2.890077,56.879576],[-2.889898,56.879649],[-2.889709,56.87977],[-2.889561,56.879895],[-2.889454,56.880025],[-2.889387,56.880161],[-2.889361,56.880301],[-2.889362,56.880402],[-2.88939,56.880462],[-2.889445,56.880482],[-2.889527,56.880461],[-2.889647,56.880463],[-2.889803,56.880486],[-2.889997,56.88053],[-2.890228,56.880596]]]}}