{"type":"Feature","properties":{"id":"266322","COMMUNE":"Angus","PROVINCE":"Angus and Dundee City","COUNTRY":"UK","FIREDATE":"2025-04-08 12:38:00","FINALDATE":"2025-04-08 13:53:00","CLASS":"FireSeason","areaHA_geo":1.511},"geometry":{"type":"Polygon","coordinates":[[[-2.877968,56.878903],[-2.878156,56.878936],[-2.878453,56.878859],[-2.878859,56.878674],[-2.879374,56.878379],[-2.879753,56.878139],[-2.879998,56.877952],[-2.880106,56.877819],[-2.880079,56.877741],[-2.880007,56.877692],[-2.879889,56.877674],[-2.879726,56.877685],[-2.879517,56.877726],[-2.879411,56.877731],[-2.879408,56.877701],[-2.879508,56.877636],[-2.879711,56.877534],[-2.879866,56.877439],[-2.879972,56.877349],[-2.880031,56.877265],[-2.880041,56.877187],[-2.879989,56.877154],[-2.879874,56.877165],[-2.879696,56.877221],[-2.879456,56.877322],[-2.879254,56.877392],[-2.879089,56.877431],[-2.878961,56.877438],[-2.878871,56.877415],[-2.87874,56.877444],[-2.878568,56.877526],[-2.878354,56.877661],[-2.8781,56.877849],[-2.877927,56.878006],[-2.877837,56.878133],[-2.877829,56.878229],[-2.877904,56.878294],[-2.877944,56.878353],[-2.877951,56.878405],[-2.877924,56.878451],[-2.877863,56.878489],[-2.877837,56.878554],[-2.877846,56.878644],[-2.877889,56.87876],[-2.877968,56.878903]]]}}