{"type":"Feature","properties":{"id":"266327","COMMUNE":"Angus","PROVINCE":"Angus and Dundee City","COUNTRY":"UK","FIREDATE":"2025-04-08 12:38:00","CLASS":"FireSeason","areaHA_geo":0.603},"geometry":{"type":"Polygon","coordinates":[[[-2.864531,56.882707],[-2.864708,56.882807],[-2.864805,56.882817],[-2.86482,56.882739],[-2.864755,56.882571],[-2.864695,56.882417],[-2.864639,56.882276],[-2.864588,56.882149],[-2.864542,56.882036],[-2.864572,56.881939],[-2.864677,56.881857],[-2.864859,56.881792],[-2.865117,56.881742],[-2.865331,56.881684],[-2.865501,56.881618],[-2.865628,56.881545],[-2.865712,56.881463],[-2.865657,56.881418],[-2.865465,56.881409],[-2.865134,56.881436],[-2.864665,56.881499],[-2.864327,56.881572],[-2.864118,56.881655],[-2.864039,56.88175],[-2.864089,56.881854],[-2.86411,56.881946],[-2.8641,56.882026],[-2.86406,56.882094],[-2.86399,56.88215],[-2.864002,56.882239],[-2.864097,56.882362],[-2.864273,56.882517],[-2.864531,56.882707]]]}}