{"type":"Feature","properties":{"id":"266343","COMMUNE":"Angus","PROVINCE":"Angus and Dundee City","COUNTRY":"UK","FIREDATE":"2025-03-18 11:28:00","CLASS":"FireSeason","areaHA_geo":2.898},"geometry":{"type":"Polygon","coordinates":[[[-2.995854,56.915502],[-2.995896,56.915489],[-2.995884,56.915446],[-2.995818,56.915373],[-2.995698,56.91527],[-2.995625,56.915177],[-2.995599,56.915092],[-2.995619,56.915017],[-2.995686,56.914952],[-2.99575,56.914893],[-2.99581,56.914841],[-2.995867,56.914796],[-2.99592,56.914757],[-2.995941,56.914712],[-2.995932,56.914659],[-2.995891,56.914598],[-2.995819,56.91453],[-2.995784,56.914465],[-2.995783,56.914405],[-2.995819,56.914348],[-2.995891,56.914295],[-2.995939,56.914231],[-2.995965,56.914156],[-2.995966,56.91407],[-2.995945,56.913974],[-2.995943,56.913902],[-2.995959,56.913855],[-2.995995,56.913831],[-2.996049,56.913832],[-2.996134,56.913791],[-2.996249,56.913707],[-2.996395,56.913581],[-2.996571,56.913413],[-2.996704,56.91327],[-2.996796,56.913152],[-2.996845,56.91306],[-2.996852,56.912994],[-2.996826,56.912937],[-2.996767,56.912888],[-2.996675,56.912849],[-2.996551,56.912819],[-2.996452,56.912781],[-2.996378,56.912734],[-2.996331,56.912679],[-2.996309,56.912615],[-2.996277,56.912539],[-2.996237,56.91245],[-2.996188,56.912347],[-2.99613,56.912232],[-2.996072,56.912134],[-2.996014,56.912054],[-2.995957,56.911993],[-2.9959,56.91195],[-2.995853,56.91191],[-2.995817,56.911874],[-2.99579,56.911842],[-2.995775,56.911814],[-2.995762,56.911764],[-2.995751,56.911691],[-2.995744,56.911596],[-2.995739,56.911478],[-2.995713,56.911378],[-2.995666,56.911294],[-2.995598,56.911227],[-2.995508,56.911177],[-2.995416,56.91115],[-2.995322,56.911146],[-2.995225,56.911166],[-2.995125,56.911209],[-2.995011,56.911204],[-2.994881,56.911151],[-2.994737,56.911051],[-2.994577,56.910903],[-2.994446,56.910797],[-2.994343,56.910734],[-2.994268,56.910713],[-2.994221,56.910734],[-2.994212,56.91079],[-2.994241,56.910883],[-2.994308,56.91101],[-2.994413,56.911174],[-2.994506,56.911302],[-2.994586,56.911396],[-2.994655,56.911455],[-2.994711,56.911478],[-2.994783,56.911603],[-2.99487,56.911829],[-2.994973,56.912156],[-2.995092,56.912583],[-2.995187,56.912917],[-2.995258,56.913156],[-2.995305,56.9133],[-2.995328,56.91335],[-2.995363,56.913394],[-2.99541,56.913432],[-2.995467,56.913464],[-2.995536,56.91349],[-2.995593,56.913522],[-2.995636,56.913561],[-2.995667,56.913605],[-2.995684,56.913656],[-2.995695,56.91371],[-2.9957,56.913767],[-2.995698,56.913827],[-2.99569,56.91389],[-2.995645,56.913923],[-2.995562,56.913927],[-2.995441,56.9139],[-2.995283,56.913844],[-2.995181,56.913821],[-2.995134,56.913833],[-2.995142,56.913878],[-2.995205,56.913957],[-2.995252,56.914033],[-2.99528,56.914107],[-2.995292,56.914179],[-2.995286,56.914249],[-2.995259,56.914331],[-2.995211,56.914426],[-2.995142,56.914534],[-2.995051,56.914654],[-2.994993,56.91475],[-2.994966,56.91482],[-2.994971,56.914864],[-2.995008,56.914884],[-2.995024,56.914927],[-2.995021,56.914995],[-2.994997,56.915086],[-2.994953,56.915202],[-2.99494,56.91529],[-2.994957,56.915349],[-2.995005,56.915379],[-2.995084,56.915381],[-2.995169,56.915387],[-2.99526,56.915398],[-2.995357,56.915413],[-2.99546,56.915432],[-2.995561,56.915451],[-2.99566,56.915468],[-2.995758,56.915486],[-2.995854,56.915502]]]}}