{"type":"Feature","properties":{"id":"266338","COMMUNE":"Angus","PROVINCE":"Angus and Dundee City","COUNTRY":"UK","FIREDATE":"2025-04-07 10:35:36.025","FINALDATE":"2025-04-08 09:35:37.867","CLASS":"FireSeason","areaHA_geo":3.48},"geometry":{"type":"Polygon","coordinates":[[[-2.893834,56.882905],[-2.894369,56.882669],[-2.89474,56.882482],[-2.894945,56.882343],[-2.894984,56.882254],[-2.894859,56.882214],[-2.894682,56.882202],[-2.894454,56.882219],[-2.894174,56.882264],[-2.893843,56.882338],[-2.893592,56.882335],[-2.89342,56.882257],[-2.893328,56.882103],[-2.893315,56.881873],[-2.893249,56.881728],[-2.893128,56.881669],[-2.892954,56.881696],[-2.892725,56.881808],[-2.892529,56.881881],[-2.892366,56.881916],[-2.892237,56.881912],[-2.89214,56.881868],[-2.892041,56.88186],[-2.891938,56.881886],[-2.891833,56.881948],[-2.891725,56.882044],[-2.891616,56.882109],[-2.891505,56.882145],[-2.891394,56.88215],[-2.891281,56.882124],[-2.891234,56.882079],[-2.891253,56.882015],[-2.891337,56.88193],[-2.891487,56.881826],[-2.891572,56.881744],[-2.891592,56.881686],[-2.891548,56.881649],[-2.89144,56.881636],[-2.891397,56.881604],[-2.89142,56.881553],[-2.89151,56.881483],[-2.891665,56.881394],[-2.891774,56.881306],[-2.891837,56.881219],[-2.891853,56.881132],[-2.891824,56.881046],[-2.891755,56.880999],[-2.891649,56.880991],[-2.891504,56.881023],[-2.89132,56.881094],[-2.891173,56.881141],[-2.891062,56.881164],[-2.890988,56.881164],[-2.890949,56.881139],[-2.890948,56.881082],[-2.890985,56.880994],[-2.891058,56.880873],[-2.891169,56.88072],[-2.891222,56.880619],[-2.891216,56.880571],[-2.891153,56.880575],[-2.891031,56.880632],[-2.890926,56.880693],[-2.890837,56.880759],[-2.890765,56.880829],[-2.890709,56.880903],[-2.89066,56.880974],[-2.89062,56.881041],[-2.890588,56.881104],[-2.890564,56.881163],[-2.890512,56.881228],[-2.890432,56.881299],[-2.890325,56.881376],[-2.89019,56.881458],[-2.890076,56.881532],[-2.889984,56.881598],[-2.889913,56.881656],[-2.889863,56.881706],[-2.889844,56.881771],[-2.889857,56.881851],[-2.889901,56.881946],[-2.889976,56.882056],[-2.890008,56.882158],[-2.889995,56.882253],[-2.88994,56.882339],[-2.889841,56.882418],[-2.889774,56.882488],[-2.889739,56.882548],[-2.889736,56.882599],[-2.889765,56.882641],[-2.889826,56.882672],[-2.889919,56.882693],[-2.890043,56.882704],[-2.890199,56.882705],[-2.890357,56.882704],[-2.890516,56.882703],[-2.890677,56.8827],[-2.890839,56.882696],[-2.891005,56.882689],[-2.891176,56.882678],[-2.891351,56.882663],[-2.891531,56.882645],[-2.89172,56.882616],[-2.891918,56.882576],[-2.892125,56.882525],[-2.892341,56.882463],[-2.892512,56.882432],[-2.892639,56.882431],[-2.89272,56.882462],[-2.892756,56.882523],[-2.892746,56.882592],[-2.89269,56.882669],[-2.892589,56.882753],[-2.892443,56.882844],[-2.8923,56.882928],[-2.892163,56.883002],[-2.892029,56.883068],[-2.891901,56.883126],[-2.891811,56.883177],[-2.89176,56.883223],[-2.891747,56.883263],[-2.891774,56.883297],[-2.891881,56.883289],[-2.892068,56.88324],[-2.892336,56.883149],[-2.892684,56.883017],[-2.892922,56.882942],[-2.893049,56.882923],[-2.893066,56.882961],[-2.892972,56.883055],[-2.892914,56.88313],[-2.892892,56.883185],[-2.892906,56.88322],[-2.892956,56.883236],[-2.893127,56.883188],[-2.89342,56.883078],[-2.893834,56.882905]]]}}