{"type":"Feature","properties":{"id":"266342","COMMUNE":"Angus","PROVINCE":"Angus and Dundee City","COUNTRY":"UK","FIREDATE":"2025-03-18 11:28:00","CLASS":"FireSeason","areaHA_geo":0.882},"geometry":{"type":"Polygon","coordinates":[[[-2.997316,56.91412],[-2.997406,56.914237],[-2.997493,56.914288],[-2.997575,56.914271],[-2.997655,56.914188],[-2.997703,56.914092],[-2.997719,56.913984],[-2.997704,56.913863],[-2.997658,56.91373],[-2.997646,56.913626],[-2.997668,56.913552],[-2.997725,56.913507],[-2.997815,56.913491],[-2.99788,56.913503],[-2.997918,56.913544],[-2.99793,56.913612],[-2.997915,56.913709],[-2.997963,56.91373],[-2.998073,56.913674],[-2.998245,56.913543],[-2.99848,56.913336],[-2.998638,56.913152],[-2.998721,56.912991],[-2.998727,56.912853],[-2.998657,56.912739],[-2.998557,56.912658],[-2.998426,56.91261],[-2.998265,56.912596],[-2.998073,56.912615],[-2.997905,56.912672],[-2.997761,56.912767],[-2.99764,56.9129],[-2.997543,56.913071],[-2.99745,56.913219],[-2.997362,56.913346],[-2.997278,56.913451],[-2.997199,56.913535],[-2.997163,56.913643],[-2.997171,56.913777],[-2.997221,56.913936],[-2.997316,56.91412]]]}}