{"type":"Feature","properties":{"id":"266636","COMMUNE":"Cornwall","PROVINCE":"Cornwall and Isles of Scilly","COUNTRY":"UK","FIREDATE":"2025-03-05 12:48:00","FINALDATE":"2025-03-05 13:12:00","CLASS":"FireSeason","areaHA_geo":1.086},"geometry":{"type":"Polygon","coordinates":[[[-5.172607,50.050043],[-5.172743,50.050013],[-5.172846,50.049981],[-5.172916,50.049947],[-5.172952,50.049912],[-5.172954,50.049875],[-5.172977,50.049831],[-5.173022,50.049778],[-5.173087,50.049717],[-5.173174,50.049648],[-5.173144,50.049539],[-5.172999,50.049391],[-5.172739,50.049203],[-5.172363,50.048976],[-5.172035,50.048827],[-5.171758,50.048757],[-5.171529,50.048766],[-5.171349,50.048854],[-5.171297,50.048989],[-5.171372,50.04917],[-5.171575,50.049399],[-5.171906,50.049675],[-5.172188,50.049875],[-5.172421,50.049997],[-5.172607,50.050043]]]}}