{"type":"Feature","properties":{"id":"266612","COMMUNE":"Swansea","PROVINCE":"Swansea","COUNTRY":"UK","FIREDATE":"2025-04-05 01:37:00","CLASS":"FireSeason","areaHA_geo":28.022},"geometry":{"type":"Polygon","coordinates":[[[-4.030089,51.592146],[-4.030219,51.592202],[-4.030384,51.592214],[-4.030583,51.592182],[-4.030817,51.592106],[-4.03104,51.592057],[-4.031252,51.592035],[-4.031454,51.592041],[-4.031645,51.592074],[-4.03175,51.592123],[-4.031771,51.592188],[-4.031706,51.59227],[-4.031556,51.592367],[-4.031444,51.592463],[-4.03137,51.592556],[-4.031334,51.592646],[-4.031336,51.592733],[-4.031369,51.592809],[-4.031435,51.592873],[-4.031531,51.592925],[-4.03166,51.592965],[-4.031785,51.592994],[-4.031906,51.593011],[-4.032024,51.593017],[-4.032138,51.593011],[-4.032236,51.593025],[-4.032318,51.593059],[-4.032383,51.593113],[-4.032432,51.593187],[-4.0325,51.593241],[-4.032588,51.593274],[-4.032695,51.593287],[-4.032822,51.593279],[-4.032977,51.593209],[-4.03316,51.593075],[-4.033372,51.592878],[-4.033613,51.592617],[-4.033775,51.592396],[-4.03386,51.592214],[-4.033867,51.592072],[-4.033796,51.591969],[-4.033769,51.591884],[-4.033787,51.591818],[-4.03385,51.591771],[-4.033957,51.591742],[-4.034074,51.591737],[-4.034203,51.591758],[-4.034343,51.591803],[-4.034494,51.591872],[-4.034625,51.591858],[-4.034736,51.591761],[-4.034827,51.59158],[-4.034899,51.591316],[-4.034948,51.591093],[-4.034975,51.59091],[-4.034978,51.590768],[-4.034959,51.590667],[-4.034952,51.59058],[-4.034955,51.590508],[-4.034969,51.59045],[-4.034994,51.590407],[-4.035061,51.590365],[-4.035171,51.590324],[-4.035322,51.590284],[-4.035516,51.590244],[-4.03569,51.590191],[-4.035843,51.590125],[-4.035976,51.590045],[-4.036088,51.589951],[-4.036098,51.58987],[-4.036006,51.589802],[-4.035811,51.589746],[-4.035514,51.589702],[-4.035277,51.589627],[-4.035102,51.58952],[-4.034988,51.589382],[-4.034935,51.589213],[-4.03487,51.589058],[-4.034793,51.588915],[-4.034705,51.588786],[-4.034604,51.588671],[-4.034574,51.588587],[-4.034616,51.588534],[-4.034728,51.588512],[-4.034912,51.588522],[-4.035051,51.588567],[-4.035147,51.588647],[-4.0352,51.588762],[-4.035208,51.588913],[-4.035286,51.589037],[-4.035432,51.589135],[-4.035648,51.589207],[-4.035933,51.589252],[-4.036183,51.589278],[-4.036397,51.589284],[-4.036576,51.58927],[-4.036721,51.589236],[-4.036878,51.589193],[-4.037048,51.589141],[-4.037232,51.589079],[-4.037428,51.589007],[-4.037604,51.58893],[-4.037758,51.588847],[-4.037892,51.588759],[-4.038004,51.588666],[-4.038102,51.588558],[-4.038187,51.588436],[-4.038257,51.5883],[-4.038312,51.58815],[-4.038366,51.588002],[-4.038417,51.587856],[-4.038465,51.587712],[-4.038511,51.587571],[-4.038565,51.587435],[-4.038627,51.587304],[-4.038697,51.587178],[-4.038775,51.587056],[-4.038853,51.586945],[-4.03893,51.586844],[-4.039008,51.586753],[-4.039086,51.586672],[-4.039174,51.586593],[-4.039272,51.586517],[-4.039381,51.586444],[-4.039501,51.586374],[-4.039629,51.586299],[-4.039765,51.586218],[-4.039909,51.586133],[-4.040061,51.586043],[-4.040095,51.585967],[-4.040011,51.585905],[-4.039809,51.585858],[-4.03949,51.585825],[-4.039207,51.585787],[-4.038962,51.585745],[-4.038754,51.585698],[-4.038584,51.585647],[-4.038418,51.585612],[-4.038257,51.585591],[-4.038101,51.585586],[-4.037949,51.585596],[-4.037743,51.585596],[-4.037481,51.585583],[-4.037165,51.58556],[-4.036793,51.585525],[-4.036443,51.585508],[-4.036115,51.585508],[-4.035807,51.585525],[-4.035522,51.585559],[-4.035212,51.585609],[-4.034878,51.585673],[-4.03452,51.585753],[-4.034137,51.585847],[-4.033766,51.58596],[-4.033408,51.586091],[-4.033062,51.58624],[-4.032728,51.586409],[-4.03242,51.586524],[-4.032137,51.586586],[-4.031879,51.586595],[-4.031646,51.586552],[-4.031434,51.586563],[-4.031242,51.58663],[-4.031071,51.586753],[-4.030921,51.586931],[-4.030781,51.587141],[-4.030651,51.587384],[-4.030531,51.58766],[-4.030422,51.587969],[-4.030364,51.588207],[-4.030359,51.588375],[-4.030406,51.588473],[-4.030505,51.588501],[-4.030596,51.588546],[-4.03068,51.588608],[-4.030756,51.588686],[-4.030825,51.588782],[-4.030965,51.58886],[-4.031178,51.588922],[-4.031463,51.588968],[-4.03182,51.588996],[-4.032115,51.589032],[-4.032347,51.589076],[-4.032518,51.589127],[-4.032627,51.589186],[-4.032765,51.589227],[-4.032933,51.58925],[-4.033132,51.589256],[-4.03336,51.589245],[-4.033565,51.58926],[-4.033745,51.589302],[-4.033902,51.58937],[-4.034035,51.589466],[-4.033911,51.589637],[-4.033531,51.589882],[-4.032894,51.590203],[-4.032,51.590598],[-4.031342,51.590913],[-4.030919,51.591148],[-4.030733,51.591302],[-4.030782,51.591376],[-4.030755,51.591457],[-4.030654,51.591545],[-4.030478,51.59164],[-4.030226,51.591743],[-4.030062,51.591844],[-4.029984,51.591945],[-4.029993,51.592046],[-4.030089,51.592146]]]}}