{"type":"Feature","properties":{"id":"266630","COMMUNE":"Cornwall","PROVINCE":"Cornwall and Isles of Scilly","COUNTRY":"UK","FIREDATE":"2025-03-05 12:48:00","FINALDATE":"2025-03-05 13:35:00","CLASS":"FireSeason","areaHA_geo":6.448},"geometry":{"type":"Polygon","coordinates":[[[-5.155142,50.027293],[-5.15528,50.027368],[-5.15555,50.027453],[-5.155951,50.027548],[-5.156485,50.027652],[-5.156901,50.027702],[-5.157199,50.027699],[-5.15738,50.027641],[-5.157445,50.02753],[-5.157513,50.027419],[-5.157587,50.027307],[-5.157666,50.027194],[-5.157749,50.02708],[-5.157838,50.02702],[-5.157933,50.027014],[-5.158035,50.027061],[-5.158142,50.027162],[-5.158257,50.027209],[-5.158381,50.027204],[-5.158512,50.027145],[-5.15865,50.027034],[-5.158765,50.026908],[-5.158854,50.026768],[-5.158919,50.026614],[-5.15896,50.026446],[-5.158806,50.026236],[-5.158458,50.025986],[-5.157915,50.025695],[-5.157179,50.025362],[-5.156559,50.025099],[-5.156057,50.024905],[-5.155671,50.024779],[-5.155403,50.024723],[-5.155181,50.024757],[-5.155004,50.024881],[-5.154872,50.025096],[-5.154786,50.025402],[-5.154726,50.02565],[-5.154693,50.02584],[-5.154685,50.025972],[-5.154704,50.026046],[-5.15476,50.026106],[-5.154852,50.026151],[-5.15498,50.026181],[-5.155145,50.026198],[-5.155253,50.026266],[-5.155302,50.026387],[-5.155293,50.026561],[-5.155226,50.026788],[-5.155178,50.026974],[-5.155148,50.02712],[-5.155136,50.027226],[-5.155142,50.027293]]]}}