{"type":"Feature","properties":{"id":"266618","COMMUNE":"Swansea","PROVINCE":"Swansea","COUNTRY":"UK","FIREDATE":"2025-04-03 11:33:35.398","CLASS":"FireSeason","areaHA_geo":12.134},"geometry":{"type":"Polygon","coordinates":[[[-4.058404,51.623072],[-4.05842,51.623124],[-4.058562,51.623261],[-4.058829,51.623482],[-4.059221,51.623788],[-4.059739,51.624178],[-4.060295,51.62446],[-4.060888,51.624633],[-4.061519,51.624699],[-4.062188,51.624657],[-4.062711,51.624634],[-4.063089,51.624632],[-4.063321,51.62465],[-4.063408,51.624689],[-4.063487,51.624717],[-4.063557,51.624736],[-4.063619,51.624744],[-4.063673,51.624743],[-4.063734,51.624749],[-4.063803,51.624762],[-4.063879,51.624783],[-4.063963,51.624812],[-4.064045,51.624833],[-4.064126,51.624846],[-4.064206,51.624852],[-4.064285,51.62485],[-4.064378,51.624846],[-4.064487,51.624841],[-4.06461,51.624834],[-4.064749,51.624825],[-4.064867,51.624831],[-4.064966,51.624854],[-4.065045,51.624893],[-4.065103,51.624948],[-4.065244,51.624949],[-4.065467,51.624898],[-4.065772,51.624793],[-4.066159,51.624635],[-4.066464,51.624483],[-4.066685,51.624335],[-4.066825,51.624192],[-4.066881,51.624054],[-4.066946,51.623961],[-4.067021,51.623915],[-4.067105,51.623915],[-4.067199,51.62396],[-4.067279,51.623982],[-4.067348,51.623982],[-4.067404,51.623958],[-4.067448,51.623912],[-4.06751,51.623876],[-4.067592,51.623852],[-4.067693,51.623839],[-4.067813,51.623838],[-4.067903,51.623827],[-4.067963,51.623807],[-4.067994,51.623777],[-4.067994,51.623738],[-4.067962,51.623707],[-4.067898,51.623683],[-4.067802,51.623665],[-4.067675,51.623655],[-4.067557,51.62365],[-4.067451,51.62365],[-4.067356,51.623655],[-4.067272,51.623665],[-4.067204,51.623661],[-4.067152,51.623641],[-4.067117,51.623607],[-4.067097,51.623558],[-4.067039,51.623508],[-4.066941,51.623456],[-4.066805,51.623404],[-4.06663,51.623351],[-4.066478,51.623319],[-4.066348,51.623309],[-4.06624,51.623321],[-4.066155,51.623354],[-4.066078,51.623366],[-4.066008,51.623357],[-4.065947,51.623326],[-4.065893,51.623273],[-4.065808,51.62323],[-4.065694,51.623196],[-4.065549,51.623172],[-4.065374,51.623157],[-4.065223,51.623137],[-4.065096,51.623111],[-4.064994,51.62308],[-4.064916,51.623043],[-4.064825,51.623016],[-4.064722,51.623001],[-4.064607,51.622995],[-4.06448,51.623],[-4.064372,51.622995],[-4.064282,51.622981],[-4.06421,51.622956],[-4.064158,51.622921],[-4.064017,51.622865],[-4.063789,51.622787],[-4.063473,51.622688],[-4.063069,51.622567],[-4.062739,51.62245],[-4.062483,51.622337],[-4.062301,51.622228],[-4.062193,51.622122],[-4.062082,51.622041],[-4.061968,51.621982],[-4.061851,51.621948],[-4.061731,51.621936],[-4.061643,51.621906],[-4.061585,51.621856],[-4.061559,51.621787],[-4.061565,51.621699],[-4.061489,51.621676],[-4.061331,51.621717],[-4.061092,51.621822],[-4.061015,51.621863],[-4.060981,51.621917],[-4.060877,51.622026],[-4.060726,51.622158],[-4.060526,51.622313],[-4.060318,51.62244],[-4.0601,51.622537],[-4.059873,51.622606],[-4.059638,51.622646],[-4.059519,51.622667],[-4.059365,51.622746],[-4.059221,51.622816],[-4.059105,51.622869],[-4.058983,51.622911],[-4.058856,51.622943],[-4.058724,51.622965],[-4.058586,51.622977],[-4.058487,51.622998],[-4.058426,51.62303],[-4.058404,51.623072]]]}}