{"type":"Feature","properties":{"id":"266654","COMMUNE":"Cornwall","PROVINCE":"Cornwall and Isles of Scilly","COUNTRY":"UK","FIREDATE":"2025-03-04 11:53:00","FINALDATE":"2025-03-04 11:53:00","CLASS":"FireSeason","areaHA_geo":3.794},"geometry":{"type":"Polygon","coordinates":[[[-5.223848,49.981978],[-5.223967,49.982018],[-5.224089,49.982045],[-5.224211,49.982059],[-5.224335,49.98206],[-5.22446,49.982048],[-5.22458,49.982022],[-5.224696,49.981983],[-5.224808,49.98193],[-5.224915,49.981864],[-5.224981,49.981796],[-5.225004,49.981727],[-5.224986,49.981656],[-5.224926,49.981584],[-5.224916,49.981504],[-5.224955,49.981416],[-5.225045,49.98132],[-5.225184,49.981217],[-5.225292,49.981106],[-5.225368,49.980988],[-5.225412,49.980864],[-5.225425,49.980732],[-5.225406,49.980612],[-5.225356,49.980502],[-5.225274,49.980403],[-5.225161,49.980314],[-5.225041,49.980261],[-5.224916,49.980244],[-5.224785,49.980262],[-5.224648,49.980316],[-5.224556,49.980335],[-5.22451,49.980317],[-5.224509,49.980264],[-5.224554,49.980176],[-5.224591,49.980081],[-5.224619,49.979981],[-5.224639,49.979874],[-5.22465,49.979762],[-5.224687,49.979681],[-5.224748,49.979633],[-5.224835,49.979617],[-5.224947,49.979632],[-5.225051,49.979644],[-5.225148,49.979654],[-5.225238,49.97966],[-5.22532,49.979663],[-5.225382,49.979679],[-5.225425,49.979709],[-5.225448,49.979752],[-5.225451,49.979808],[-5.225494,49.979854],[-5.225576,49.97989],[-5.225696,49.979916],[-5.225856,49.979932],[-5.225998,49.979915],[-5.226122,49.979865],[-5.226228,49.979783],[-5.226315,49.979667],[-5.226385,49.979563],[-5.226438,49.979469],[-5.226473,49.979387],[-5.226491,49.979317],[-5.226469,49.979273],[-5.226409,49.979256],[-5.226309,49.979267],[-5.22617,49.979305],[-5.226057,49.979324],[-5.225969,49.979325],[-5.225906,49.979309],[-5.225869,49.979274],[-5.225773,49.979229],[-5.225617,49.979175],[-5.225402,49.97911],[-5.225128,49.979037],[-5.224912,49.978992],[-5.224754,49.978977],[-5.224655,49.978991],[-5.224613,49.979035],[-5.224554,49.979061],[-5.224476,49.97907],[-5.224379,49.979063],[-5.224265,49.979038],[-5.224132,49.979046],[-5.223981,49.979085],[-5.223811,49.979156],[-5.223624,49.97926],[-5.223463,49.97932],[-5.223329,49.979338],[-5.223222,49.979314],[-5.223141,49.979247],[-5.223069,49.979197],[-5.223005,49.979165],[-5.222949,49.979149],[-5.222902,49.979151],[-5.222884,49.979196],[-5.222896,49.979284],[-5.222938,49.979415],[-5.223009,49.979589],[-5.223043,49.979741],[-5.223041,49.979871],[-5.223003,49.979979],[-5.222927,49.980065],[-5.222893,49.980153],[-5.222898,49.980245],[-5.222944,49.980339],[-5.223031,49.980435],[-5.223193,49.980511],[-5.223432,49.980564],[-5.223746,49.980597],[-5.224136,49.980607],[-5.224447,49.980627],[-5.224679,49.980656],[-5.224832,49.980693],[-5.224906,49.98074],[-5.224935,49.980786],[-5.224919,49.980832],[-5.224857,49.980878],[-5.22475,49.980923],[-5.224673,49.980979],[-5.224624,49.981045],[-5.224605,49.981123],[-5.224615,49.981211],[-5.224599,49.981279],[-5.224556,49.981328],[-5.224486,49.981356],[-5.224389,49.981364],[-5.224291,49.981392],[-5.224192,49.98144],[-5.224093,49.981507],[-5.223992,49.981594],[-5.223906,49.981671],[-5.223834,49.981739],[-5.223776,49.981797],[-5.223733,49.981845],[-5.22373,49.981891],[-5.223768,49.981936],[-5.223848,49.981978]]]}}