{"type":"Feature","properties":{"id":"266625","COMMUNE":"Cornwall","PROVINCE":"Cornwall and Isles of Scilly","COUNTRY":"UK","FIREDATE":"2025-03-16 13:06:00","FINALDATE":"2025-03-16 13:18:00","CLASS":"FireSeason","areaHA_geo":29.015},"geometry":{"type":"Polygon","coordinates":[[[-5.127239,50.03493],[-5.12734,50.034938],[-5.127426,50.03489],[-5.127495,50.034785],[-5.127549,50.034623],[-5.127602,50.034502],[-5.127653,50.034421],[-5.127703,50.034381],[-5.127751,50.03438],[-5.127806,50.03441],[-5.127868,50.034469],[-5.127938,50.034558],[-5.128015,50.034678],[-5.128119,50.034768],[-5.12825,50.034831],[-5.128408,50.034865],[-5.128593,50.034871],[-5.128738,50.034895],[-5.128843,50.034936],[-5.128908,50.034995],[-5.128933,50.035072],[-5.128971,50.035144],[-5.129021,50.035211],[-5.129085,50.035274],[-5.129161,50.035331],[-5.129272,50.035355],[-5.129418,50.035344],[-5.129599,50.0353],[-5.129815,50.035222],[-5.130006,50.035173],[-5.130174,50.035153],[-5.130317,50.035163],[-5.130436,50.035203],[-5.130586,50.035227],[-5.130767,50.035237],[-5.13098,50.035231],[-5.131224,50.035211],[-5.131449,50.035207],[-5.131655,50.035219],[-5.131843,50.035248],[-5.132012,50.035293],[-5.13217,50.035304],[-5.132316,50.035281],[-5.132452,50.035224],[-5.132577,50.035134],[-5.132663,50.035056],[-5.13271,50.034991],[-5.132717,50.034939],[-5.132685,50.0349],[-5.132666,50.034833],[-5.13266,50.034739],[-5.132666,50.034616],[-5.132685,50.034466],[-5.132708,50.03433],[-5.132737,50.034209],[-5.13277,50.034103],[-5.132808,50.034011],[-5.132844,50.033906],[-5.132878,50.033787],[-5.13291,50.033655],[-5.13294,50.033509],[-5.133025,50.033385],[-5.133166,50.033283],[-5.133362,50.033203],[-5.133613,50.033144],[-5.133846,50.033082],[-5.134061,50.033016],[-5.134257,50.032947],[-5.134436,50.032873],[-5.134562,50.032799],[-5.134634,50.032725],[-5.134653,50.03265],[-5.134619,50.032574],[-5.134635,50.032503],[-5.1347,50.032435],[-5.134814,50.032372],[-5.134978,50.032313],[-5.135096,50.032251],[-5.135166,50.032186],[-5.13519,50.032118],[-5.135167,50.032047],[-5.135104,50.031977],[-5.134999,50.031908],[-5.134854,50.03184],[-5.134669,50.031772],[-5.134517,50.031691],[-5.1344,50.031595],[-5.134316,50.031486],[-5.134267,50.031364],[-5.134274,50.031287],[-5.134336,50.031257],[-5.134455,50.031274],[-5.134629,50.031336],[-5.134779,50.031383],[-5.134904,50.031412],[-5.135005,50.031425],[-5.135081,50.031421],[-5.135206,50.031405],[-5.13538,50.031379],[-5.135604,50.031341],[-5.135878,50.031292],[-5.13613,50.031252],[-5.136361,50.03122],[-5.13657,50.031198],[-5.136759,50.031185],[-5.136916,50.031164],[-5.137042,50.031135],[-5.137136,50.031098],[-5.137198,50.031052],[-5.137211,50.031009],[-5.137173,50.030968],[-5.137086,50.030929],[-5.136949,50.030892],[-5.136851,50.030843],[-5.136793,50.030783],[-5.136775,50.030712],[-5.136796,50.030628],[-5.136857,50.030571],[-5.136958,50.030539],[-5.137098,50.030532],[-5.137277,50.030551],[-5.137391,50.03053],[-5.137438,50.030468],[-5.13742,50.030366],[-5.137335,50.030223],[-5.137187,50.030136],[-5.136975,50.030106],[-5.136699,50.030133],[-5.136359,50.030216],[-5.136043,50.030264],[-5.135749,50.030279],[-5.135477,50.03026],[-5.135229,50.030207],[-5.134971,50.030156],[-5.134704,50.030105],[-5.134428,50.030056],[-5.134143,50.030008],[-5.133852,50.029952],[-5.133557,50.029887],[-5.133256,50.029813],[-5.13295,50.029731],[-5.132618,50.029643],[-5.13226,50.029549],[-5.131876,50.02945],[-5.131466,50.029345],[-5.131086,50.029287],[-5.130735,50.029275],[-5.130414,50.029311],[-5.130123,50.029393],[-5.129883,50.029487],[-5.129696,50.029592],[-5.12956,50.029709],[-5.129476,50.029838],[-5.129389,50.029919],[-5.129298,50.029953],[-5.129205,50.029939],[-5.129108,50.029878],[-5.128985,50.029876],[-5.128834,50.029933],[-5.128658,50.03005],[-5.128454,50.030225],[-5.128319,50.030368],[-5.128254,50.030479],[-5.128257,50.030557],[-5.12833,50.030602],[-5.128386,50.03065],[-5.128426,50.0307],[-5.128451,50.030753],[-5.128458,50.030807],[-5.128422,50.030851],[-5.128341,50.030883],[-5.128215,50.030905],[-5.128045,50.030915],[-5.127911,50.030941],[-5.127814,50.030982],[-5.127752,50.031038],[-5.127727,50.031109],[-5.127773,50.031161],[-5.12789,50.031195],[-5.128078,50.03121],[-5.128336,50.031206],[-5.128492,50.031284],[-5.128543,50.031443],[-5.128491,50.031685],[-5.128335,50.032008],[-5.128172,50.032244],[-5.128004,50.032393],[-5.127829,50.032455],[-5.127647,50.03243],[-5.127495,50.032451],[-5.127371,50.032517],[-5.127277,50.032628],[-5.127212,50.032785],[-5.127198,50.032922],[-5.127237,50.03304],[-5.127326,50.033139],[-5.127468,50.033219],[-5.127553,50.033311],[-5.127581,50.033415],[-5.127554,50.033531],[-5.12747,50.03366],[-5.127383,50.033756],[-5.127293,50.033821],[-5.1272,50.033853],[-5.127104,50.033854],[-5.127022,50.033892],[-5.126955,50.033969],[-5.126903,50.034084],[-5.126866,50.034237],[-5.126846,50.034371],[-5.126845,50.034485],[-5.126861,50.03458],[-5.126895,50.034656],[-5.12695,50.034728],[-5.127025,50.034798],[-5.127122,50.034866],[-5.127239,50.03493]]]}}