{"type":"Feature","properties":{"id":"266637","COMMUNE":"Cornwall","PROVINCE":"Cornwall and Isles of Scilly","COUNTRY":"UK","FIREDATE":"2025-03-05 12:48:00","CLASS":"FireSeason","areaHA_geo":2.562},"geometry":{"type":"Polygon","coordinates":[[[-5.169937,50.051058],[-5.169322,50.050751],[-5.168842,50.050543],[-5.168497,50.050434],[-5.168287,50.050423],[-5.168212,50.050512],[-5.16813,50.050617],[-5.168041,50.050738],[-5.167946,50.050875],[-5.167844,50.051027],[-5.167775,50.051148],[-5.167737,50.051236],[-5.167731,50.051292],[-5.167758,50.051316],[-5.167801,50.051329],[-5.167861,50.051331],[-5.167938,50.051323],[-5.168031,50.051305],[-5.168098,50.051308],[-5.16814,50.051334],[-5.168156,50.051383],[-5.168146,50.051454],[-5.168114,50.051506],[-5.168061,50.051541],[-5.167987,50.051557],[-5.167892,50.051555],[-5.167817,50.051562],[-5.167761,50.051581],[-5.167725,50.051609],[-5.167709,50.051647],[-5.16774,50.051695],[-5.167817,50.051751],[-5.167941,50.051816],[-5.168112,50.051889],[-5.168363,50.051954],[-5.168695,50.052009],[-5.169108,50.052054],[-5.169602,50.05209],[-5.170005,50.052078],[-5.170317,50.052018],[-5.170537,50.05191],[-5.170666,50.051753],[-5.170609,50.051559],[-5.170366,50.051327],[-5.169937,50.051058]]]}}