{"type":"Feature","properties":{"id":"266611","COMMUNE":"Swansea","PROVINCE":"Swansea","COUNTRY":"UK","FIREDATE":"2025-04-05 01:37:00","CLASS":"FireSeason","areaHA_geo":8.51},"geometry":{"type":"Polygon","coordinates":[[[-4.02632,51.591366],[-4.026419,51.591651],[-4.026526,51.591849],[-4.026642,51.591961],[-4.026766,51.591986],[-4.026837,51.592027],[-4.026855,51.592085],[-4.02682,51.592159],[-4.026732,51.592249],[-4.026678,51.592354],[-4.026657,51.592472],[-4.026669,51.592604],[-4.026715,51.59275],[-4.026841,51.592813],[-4.027047,51.592792],[-4.027333,51.592687],[-4.0277,51.592499],[-4.028029,51.592306],[-4.028321,51.592107],[-4.028576,51.591903],[-4.028793,51.591693],[-4.02901,51.591399],[-4.029227,51.591022],[-4.029443,51.590561],[-4.029659,51.590016],[-4.029815,51.589556],[-4.02991,51.589182],[-4.029945,51.588892],[-4.029919,51.588688],[-4.029795,51.588569],[-4.029572,51.588536],[-4.02925,51.588589],[-4.02883,51.588728],[-4.028483,51.588802],[-4.028209,51.588811],[-4.028008,51.588756],[-4.02788,51.588636],[-4.027752,51.588547],[-4.027625,51.588491],[-4.027498,51.588466],[-4.027372,51.588474],[-4.027282,51.588495],[-4.027228,51.588529],[-4.027211,51.588577],[-4.02723,51.588638],[-4.027159,51.588711],[-4.026999,51.588794],[-4.026748,51.588888],[-4.026407,51.588993],[-4.026162,51.589115],[-4.026012,51.589253],[-4.025957,51.589407],[-4.025998,51.589578],[-4.026081,51.589699],[-4.026207,51.589772],[-4.026375,51.589795],[-4.026586,51.58977],[-4.026763,51.58977],[-4.026907,51.589797],[-4.027017,51.589849],[-4.027093,51.589928],[-4.027081,51.590011],[-4.026979,51.590099],[-4.026789,51.590192],[-4.026511,51.590289],[-4.026324,51.590456],[-4.026231,51.59069],[-4.026229,51.590994],[-4.02632,51.591366]]]}}