{"type":"Feature","properties":{"id":"266633","COMMUNE":"Cornwall","PROVINCE":"Cornwall and Isles of Scilly","COUNTRY":"UK","FIREDATE":"2025-03-25 13:12:00","FINALDATE":"2025-03-25 13:38:00","CLASS":"FireSeason","areaHA_geo":1.975},"geometry":{"type":"Polygon","coordinates":[[[-5.209552,50.032266],[-5.209783,50.032262],[-5.210121,50.032245],[-5.210568,50.032216],[-5.211122,50.032175],[-5.211523,50.032129],[-5.211771,50.032079],[-5.211867,50.032023],[-5.211809,50.031963],[-5.211699,50.031915],[-5.211536,50.031879],[-5.211321,50.031855],[-5.211052,50.031843],[-5.210902,50.031818],[-5.21087,50.031778],[-5.210957,50.031725],[-5.211162,50.031659],[-5.211257,50.031561],[-5.211242,50.031433],[-5.211117,50.031273],[-5.210881,50.031083],[-5.210627,50.030966],[-5.210356,50.030923],[-5.210067,50.030953],[-5.209761,50.031057],[-5.209511,50.031169],[-5.209319,50.031287],[-5.209184,50.031411],[-5.209105,50.031543],[-5.209062,50.031673],[-5.209055,50.031803],[-5.209083,50.031931],[-5.209147,50.032057],[-5.209226,50.032154],[-5.20932,50.032222],[-5.209428,50.032259],[-5.209552,50.032266]]]}}