{"type":"Feature","properties":{"id":"266656","COMMUNE":"Cornwall","PROVINCE":"Cornwall and Isles of Scilly","COUNTRY":"UK","FIREDATE":"2025-03-04 11:53:00","CLASS":"FireSeason","areaHA_geo":0.42},"geometry":{"type":"Polygon","coordinates":[[[-5.228852,49.978359],[-5.22893,49.978392],[-5.229032,49.978406],[-5.229158,49.978399],[-5.229307,49.978371],[-5.229421,49.978335],[-5.229501,49.97829],[-5.229545,49.978236],[-5.229554,49.978174],[-5.229576,49.978122],[-5.229611,49.978082],[-5.229659,49.978053],[-5.229719,49.978036],[-5.229777,49.978011],[-5.229831,49.977979],[-5.229882,49.97794],[-5.229929,49.977893],[-5.229953,49.977851],[-5.229954,49.977813],[-5.229931,49.97778],[-5.229885,49.97775],[-5.229766,49.977748],[-5.229575,49.977773],[-5.229312,49.977825],[-5.228977,49.977903],[-5.22874,49.977975],[-5.228603,49.978039],[-5.228564,49.978097],[-5.228625,49.978148],[-5.228684,49.978199],[-5.228742,49.978252],[-5.228798,49.978305],[-5.228852,49.978359]]]}}