{"type":"Feature","properties":{"id":"266664","COMMUNE":"Cornwall","PROVINCE":"Cornwall and Isles of Scilly","COUNTRY":"UK","FIREDATE":"2025-04-06 01:17:00","CLASS":"FireSeason","areaHA_geo":41.433},"geometry":{"type":"Polygon","coordinates":[[[-4.615047,50.537032],[-4.615074,50.53714],[-4.615144,50.53723],[-4.615258,50.537301],[-4.615416,50.537353],[-4.615617,50.537388],[-4.615787,50.537425],[-4.615924,50.537466],[-4.616029,50.537509],[-4.616103,50.537555],[-4.616211,50.537598],[-4.616356,50.537637],[-4.616536,50.537673],[-4.616751,50.537706],[-4.616943,50.537758],[-4.617112,50.537829],[-4.617258,50.537919],[-4.617381,50.538029],[-4.617561,50.538141],[-4.617799,50.538257],[-4.618095,50.538375],[-4.618448,50.538497],[-4.6187,50.538601],[-4.618848,50.538689],[-4.618894,50.538759],[-4.618838,50.538813],[-4.618827,50.538861],[-4.618863,50.538903],[-4.618944,50.538939],[-4.61907,50.538969],[-4.619203,50.538989],[-4.619342,50.538999],[-4.619487,50.538999],[-4.619637,50.538989],[-4.619746,50.538961],[-4.619812,50.538915],[-4.619836,50.538852],[-4.619817,50.538771],[-4.619826,50.538728],[-4.619861,50.538723],[-4.619923,50.538757],[-4.620012,50.538829],[-4.620096,50.538888],[-4.620177,50.538933],[-4.620253,50.538965],[-4.620325,50.538984],[-4.620396,50.539019],[-4.620467,50.53907],[-4.620538,50.539137],[-4.620608,50.539221],[-4.62069,50.539288],[-4.620783,50.539339],[-4.620887,50.539373],[-4.621003,50.53939],[-4.621118,50.539419],[-4.621233,50.539457],[-4.621347,50.539506],[-4.621461,50.539566],[-4.621579,50.539609],[-4.621701,50.539635],[-4.621827,50.539644],[-4.621956,50.539637],[-4.622096,50.539653],[-4.622244,50.539695],[-4.622402,50.53976],[-4.62257,50.53985],[-4.622749,50.539975],[-4.622939,50.540136],[-4.623141,50.540333],[-4.623353,50.540566],[-4.623534,50.540756],[-4.623684,50.540904],[-4.623801,50.541009],[-4.623887,50.541072],[-4.623983,50.541131],[-4.624088,50.541185],[-4.624202,50.541234],[-4.624326,50.541278],[-4.624472,50.541323],[-4.624641,50.541369],[-4.624831,50.541415],[-4.625044,50.541462],[-4.625275,50.541475],[-4.625525,50.541454],[-4.625794,50.5414],[-4.626081,50.541312],[-4.626284,50.541224],[-4.626403,50.541137],[-4.626438,50.54105],[-4.626389,50.540964],[-4.626414,50.540887],[-4.626514,50.540821],[-4.626688,50.540765],[-4.626938,50.540719],[-4.627149,50.540693],[-4.627323,50.540687],[-4.627459,50.5407],[-4.627558,50.540734],[-4.627632,50.540781],[-4.62768,50.540842],[-4.627704,50.540917],[-4.627703,50.541005],[-4.627706,50.541086],[-4.627715,50.541159],[-4.627728,50.541225],[-4.627746,50.541283],[-4.627696,50.541331],[-4.627576,50.54137],[-4.627387,50.541399],[-4.62713,50.541418],[-4.626894,50.541449],[-4.626681,50.541493],[-4.62649,50.541549],[-4.626321,50.541617],[-4.626203,50.541696],[-4.626136,50.541786],[-4.62612,50.541887],[-4.626155,50.541998],[-4.626217,50.542077],[-4.626305,50.542124],[-4.62642,50.542138],[-4.62656,50.54212],[-4.626672,50.542127],[-4.626756,50.542158],[-4.62681,50.542213],[-4.626835,50.542293],[-4.62682,50.542351],[-4.626766,50.542386],[-4.62667,50.542398],[-4.626535,50.542388],[-4.626401,50.542405],[-4.626269,50.54245],[-4.626138,50.542522],[-4.626009,50.542623],[-4.625933,50.542709],[-4.625912,50.542781],[-4.625945,50.54284],[-4.626033,50.542884],[-4.626226,50.542909],[-4.626524,50.542915],[-4.626929,50.542901],[-4.627438,50.542868],[-4.627865,50.54286],[-4.628208,50.542879],[-4.628467,50.542923],[-4.628643,50.542993],[-4.628839,50.543061],[-4.629054,50.543126],[-4.629288,50.543189],[-4.629541,50.543249],[-4.629817,50.543291],[-4.630114,50.543315],[-4.630433,50.543322],[-4.630774,50.54331],[-4.631095,50.543282],[-4.631395,50.543236],[-4.631676,50.543173],[-4.631936,50.543093],[-4.63216,50.543008],[-4.632347,50.542916],[-4.632498,50.542819],[-4.632612,50.542716],[-4.632792,50.542653],[-4.633037,50.542628],[-4.633347,50.542642],[-4.633723,50.542696],[-4.634037,50.542761],[-4.634289,50.542838],[-4.634478,50.542926],[-4.634605,50.543026],[-4.634741,50.543114],[-4.634886,50.54319],[-4.63504,50.543255],[-4.635203,50.543308],[-4.63534,50.543341],[-4.635451,50.543355],[-4.635535,50.543349],[-4.635593,50.543323],[-4.635628,50.543278],[-4.635641,50.543213],[-4.635631,50.54313],[-4.635598,50.543027],[-4.635556,50.542959],[-4.635505,50.542923],[-4.635444,50.542922],[-4.635374,50.542954],[-4.635299,50.542973],[-4.63522,50.542979],[-4.635137,50.542971],[-4.63505,50.54295],[-4.635002,50.542914],[-4.634993,50.542864],[-4.635024,50.5428],[-4.635094,50.542721],[-4.635124,50.542664],[-4.635113,50.542628],[-4.635061,50.542614],[-4.634968,50.542622],[-4.634867,50.54261],[-4.634758,50.54258],[-4.634642,50.542531],[-4.634518,50.542464],[-4.634391,50.542397],[-4.63426,50.54233],[-4.634125,50.542264],[-4.633987,50.542198],[-4.633787,50.542145],[-4.633525,50.542104],[-4.633201,50.542077],[-4.632815,50.542061],[-4.632507,50.542062],[-4.632278,50.542077],[-4.632126,50.542108],[-4.632053,50.542155],[-4.631965,50.542193],[-4.63186,50.542223],[-4.631741,50.542244],[-4.631605,50.542257],[-4.631547,50.542247],[-4.631566,50.542214],[-4.631662,50.542159],[-4.631836,50.542081],[-4.632001,50.542019],[-4.632159,50.541973],[-4.632309,50.541943],[-4.632451,50.54193],[-4.632571,50.541911],[-4.63267,50.541886],[-4.632747,50.541857],[-4.632802,50.541822],[-4.632824,50.541776],[-4.632813,50.541719],[-4.63277,50.541652],[-4.632694,50.541574],[-4.632616,50.541514],[-4.632537,50.541473],[-4.632457,50.541451],[-4.632375,50.541448],[-4.632315,50.541431],[-4.632276,50.541401],[-4.632259,50.541358],[-4.632263,50.541302],[-4.632255,50.541246],[-4.632234,50.541191],[-4.6322,50.541136],[-4.632153,50.541082],[-4.632105,50.541039],[-4.632055,50.541009],[-4.632003,50.54099],[-4.63195,50.540983],[-4.631893,50.540967],[-4.631834,50.540942],[-4.631772,50.540908],[-4.631707,50.540865],[-4.631661,50.540794],[-4.631632,50.540693],[-4.631623,50.540563],[-4.631631,50.540404],[-4.631647,50.540276],[-4.631671,50.540178],[-4.631702,50.54011],[-4.631742,50.540072],[-4.631754,50.540029],[-4.631738,50.53998],[-4.631695,50.539925],[-4.631625,50.539864],[-4.631618,50.539813],[-4.631674,50.539771],[-4.631794,50.539738],[-4.631977,50.539715],[-4.632121,50.539654],[-4.632226,50.539557],[-4.632291,50.539424],[-4.632318,50.539253],[-4.632299,50.53913],[-4.632235,50.539055],[-4.632126,50.539027],[-4.631971,50.539047],[-4.63183,50.539048],[-4.631703,50.53903],[-4.63159,50.538992],[-4.631492,50.538935],[-4.631389,50.538814],[-4.631283,50.538628],[-4.631172,50.538378],[-4.631058,50.538063],[-4.630938,50.537817],[-4.630813,50.537641],[-4.630682,50.537534],[-4.630545,50.537496],[-4.630392,50.537504],[-4.630222,50.537558],[-4.630036,50.537659],[-4.629833,50.537805],[-4.629689,50.537953],[-4.629604,50.5381],[-4.629578,50.538249],[-4.629611,50.538398],[-4.629662,50.538526],[-4.629733,50.538633],[-4.629822,50.538719],[-4.629931,50.538783],[-4.630016,50.538839],[-4.630078,50.538884],[-4.630117,50.53892],[-4.630132,50.538945],[-4.630136,50.53898],[-4.630127,50.539023],[-4.630107,50.539074],[-4.630074,50.539134],[-4.630048,50.5392],[-4.630027,50.539272],[-4.630011,50.539351],[-4.630001,50.539436],[-4.630018,50.539547],[-4.630062,50.539685],[-4.630133,50.53985],[-4.63023,50.540042],[-4.630283,50.540197],[-4.630291,50.540317],[-4.630256,50.5404],[-4.630175,50.540448],[-4.630101,50.540507],[-4.630032,50.540579],[-4.629968,50.540663],[-4.629911,50.540758],[-4.629844,50.540824],[-4.629767,50.540859],[-4.629681,50.540864],[-4.629585,50.54084],[-4.629509,50.540798],[-4.629454,50.54074],[-4.62942,50.540666],[-4.629406,50.540575],[-4.62933,50.54047],[-4.629194,50.540351],[-4.628996,50.540217],[-4.628736,50.54007],[-4.628527,50.539962],[-4.628366,50.539895],[-4.628255,50.539867],[-4.628193,50.53988],[-4.62813,50.539872],[-4.628066,50.539843],[-4.628,50.539793],[-4.627934,50.539723],[-4.627856,50.539674],[-4.627767,50.539646],[-4.627666,50.539639],[-4.627553,50.539654],[-4.627414,50.539661],[-4.62725,50.539661],[-4.627059,50.539655],[-4.626842,50.539641],[-4.626711,50.539615],[-4.626666,50.539576],[-4.626707,50.539526],[-4.626833,50.539463],[-4.626943,50.539421],[-4.627035,50.5394],[-4.62711,50.5394],[-4.627168,50.53942],[-4.627234,50.539439],[-4.62731,50.539458],[-4.627394,50.539475],[-4.627487,50.53949],[-4.627539,50.539481],[-4.62755,50.539447],[-4.627521,50.539389],[-4.62745,50.539305],[-4.627432,50.539238],[-4.627468,50.539187],[-4.627556,50.539152],[-4.627696,50.539134],[-4.62783,50.539105],[-4.627957,50.539066],[-4.628077,50.539015],[-4.628189,50.538954],[-4.628259,50.538898],[-4.628287,50.538846],[-4.628272,50.538798],[-4.628214,50.538754],[-4.628135,50.538714],[-4.628036,50.538678],[-4.627916,50.538646],[-4.627775,50.538618],[-4.627655,50.538586],[-4.627556,50.53855],[-4.627477,50.53851],[-4.627419,50.538467],[-4.62736,50.538436],[-4.6273,50.538418],[-4.627238,50.538414],[-4.627174,50.538422],[-4.627106,50.538404],[-4.627034,50.53836],[-4.626957,50.53829],[-4.626875,50.538193],[-4.626793,50.53812],[-4.626711,50.538071],[-4.62663,50.538044],[-4.626548,50.538041],[-4.626478,50.538016],[-4.626419,50.53797],[-4.626373,50.537903],[-4.626337,50.537815],[-4.626289,50.537756],[-4.626229,50.537727],[-4.626156,50.537727],[-4.62607,50.537757],[-4.625997,50.537797],[-4.625936,50.537849],[-4.625888,50.537912],[-4.625853,50.537986],[-4.625804,50.538039],[-4.62574,50.53807],[-4.625663,50.53808],[-4.625571,50.538069],[-4.625503,50.538055],[-4.625457,50.538037],[-4.625434,50.538017],[-4.625434,50.537994],[-4.625448,50.537953],[-4.625477,50.537893],[-4.625521,50.537816],[-4.625578,50.53772],[-4.625639,50.537641],[-4.625704,50.53758],[-4.625772,50.537535],[-4.625844,50.537507],[-4.625898,50.53747],[-4.625935,50.537424],[-4.625954,50.537368],[-4.625955,50.537303],[-4.625972,50.537245],[-4.626004,50.537194],[-4.62605,50.537151],[-4.626112,50.537115],[-4.626166,50.537078],[-4.626213,50.53704],[-4.626252,50.537],[-4.626283,50.536959],[-4.626271,50.536916],[-4.62623,50.536883],[-4.626146,50.536902],[-4.62599,50.536917],[-4.625877,50.5369],[-4.625808,50.536851],[-4.625782,50.536771],[-4.625801,50.536738],[-4.625719,50.536725],[-4.625598,50.536718],[-4.625483,50.536723],[-4.625376,50.536715],[-4.625277,50.536693],[-4.625187,50.536657],[-4.625105,50.536607],[-4.625018,50.536576],[-4.624927,50.536565],[-4.62483,50.536573],[-4.624729,50.5366],[-4.624665,50.536635],[-4.624638,50.536678],[-4.624649,50.536728],[-4.624697,50.536787],[-4.624724,50.536839],[-4.624731,50.536885],[-4.624718,50.536924],[-4.624684,50.536956],[-4.624611,50.536973],[-4.624498,50.536976],[-4.624346,50.536965],[-4.624155,50.536938],[-4.623946,50.53692],[-4.623719,50.53691],[-4.623475,50.536908],[-4.623213,50.536913],[-4.622986,50.536949],[-4.622793,50.537013],[-4.622636,50.537106],[-4.622514,50.537229],[-4.622405,50.537331],[-4.62231,50.537413],[-4.622229,50.537474],[-4.622161,50.537515],[-4.622087,50.537519],[-4.622007,50.537485],[-4.62192,50.537414],[-4.621827,50.537305],[-4.621718,50.537208],[-4.621591,50.537122],[-4.621449,50.537048],[-4.62129,50.536985],[-4.621135,50.536936],[-4.620985,50.536902],[-4.62084,50.536883],[-4.620699,50.536878],[-4.620572,50.53686],[-4.62046,50.536831],[-4.620363,50.536789],[-4.62028,50.536734],[-4.620031,50.536699],[-4.619615,50.536683],[-4.619033,50.536686],[-4.618286,50.536708],[-4.61759,50.536733],[-4.616947,50.53676],[-4.616355,50.536789],[-4.615816,50.536822],[-4.615418,50.536873],[-4.615162,50.536943],[-4.615047,50.537032]]]}}