{"type":"Feature","properties":{"id":"266671","COMMUNE":"Cornwall","PROVINCE":"Cornwall and Isles of Scilly","COUNTRY":"UK","FIREDATE":"2025-04-01 12:44:01.432","CLASS":"FireSeason","areaHA_geo":33.681},"geometry":{"type":"Polygon","coordinates":[[[-4.637078,50.51287],[-4.637114,50.512916],[-4.637172,50.512942],[-4.637251,50.512948],[-4.637353,50.512935],[-4.637419,50.512894],[-4.63745,50.512825],[-4.637446,50.512728],[-4.637406,50.512603],[-4.637356,50.512503],[-4.637295,50.512429],[-4.637224,50.512379],[-4.637141,50.512354],[-4.637094,50.512315],[-4.637084,50.512261],[-4.637109,50.512193],[-4.63717,50.51211],[-4.63723,50.512045],[-4.637289,50.511998],[-4.637349,50.511969],[-4.637407,50.511958],[-4.637455,50.511942],[-4.637492,50.511921],[-4.637518,50.511896],[-4.637534,50.511866],[-4.637533,50.511834],[-4.637515,50.511799],[-4.637482,50.511761],[-4.637431,50.51172],[-4.637356,50.511685],[-4.637257,50.511654],[-4.637132,50.511629],[-4.636983,50.511609],[-4.636877,50.511569],[-4.636815,50.51151],[-4.636796,50.511432],[-4.636821,50.511334],[-4.636861,50.511253],[-4.636915,50.511189],[-4.636984,50.511142],[-4.637068,50.511111],[-4.637138,50.511067],[-4.637194,50.511009],[-4.637236,50.510936],[-4.637265,50.51085],[-4.6373,50.510783],[-4.637341,50.510737],[-4.637388,50.51071],[-4.637442,50.510703],[-4.637492,50.510713],[-4.637538,50.510741],[-4.63758,50.510786],[-4.637618,50.510848],[-4.637668,50.510895],[-4.637728,50.510929],[-4.637799,50.510948],[-4.637882,50.510953],[-4.637946,50.510945],[-4.637992,50.510923],[-4.63802,50.510888],[-4.638029,50.51084],[-4.63805,50.510803],[-4.638082,50.510777],[-4.638126,50.510762],[-4.638181,50.510759],[-4.638239,50.510781],[-4.6383,50.510828],[-4.638365,50.510901],[-4.638433,50.510998],[-4.638476,50.511084],[-4.638494,50.511159],[-4.638486,50.511222],[-4.638452,50.511274],[-4.638459,50.51133],[-4.638506,50.511391],[-4.638594,50.511456],[-4.638722,50.511526],[-4.638853,50.511583],[-4.638988,50.511627],[-4.639127,50.511657],[-4.639269,50.511674],[-4.639417,50.511685],[-4.63957,50.511688],[-4.639729,50.511686],[-4.639894,50.511676],[-4.640034,50.511678],[-4.64015,50.51169],[-4.640241,50.511714],[-4.640308,50.511749],[-4.640379,50.511762],[-4.640455,50.511754],[-4.640534,50.511725],[-4.640618,50.511675],[-4.640662,50.511628],[-4.640666,50.511584],[-4.640632,50.511544],[-4.640558,50.511506],[-4.640484,50.511478],[-4.64041,50.51146],[-4.640336,50.511452],[-4.640262,50.511454],[-4.640181,50.511459],[-4.640094,50.511468],[-4.64,50.511481],[-4.6399,50.511498],[-4.639813,50.511494],[-4.639739,50.511468],[-4.639679,50.51142],[-4.639633,50.511352],[-4.639606,50.511297],[-4.639599,50.511256],[-4.639613,50.51123],[-4.639646,50.511218],[-4.63972,50.5112],[-4.639833,50.511175],[-4.639987,50.511144],[-4.64018,50.511108],[-4.640342,50.511083],[-4.640471,50.51107],[-4.640569,50.511069],[-4.640634,50.511081],[-4.640686,50.511068],[-4.640725,50.511032],[-4.640749,50.510971],[-4.64076,50.510887],[-4.640744,50.510803],[-4.640701,50.510718],[-4.640632,50.510632],[-4.640537,50.510546],[-4.640444,50.510479],[-4.640354,50.510432],[-4.640268,50.510403],[-4.640184,50.510395],[-4.64013,50.510377],[-4.640107,50.51035],[-4.640113,50.510315],[-4.640148,50.510271],[-4.640157,50.510219],[-4.640137,50.510158],[-4.640091,50.51009],[-4.640017,50.510013],[-4.639948,50.509952],[-4.639884,50.509907],[-4.639825,50.509878],[-4.639771,50.509865],[-4.639726,50.509841],[-4.639691,50.509807],[-4.639664,50.509761],[-4.639646,50.509704],[-4.639644,50.509654],[-4.639658,50.509611],[-4.639689,50.509575],[-4.639735,50.509545],[-4.639775,50.509504],[-4.639808,50.509453],[-4.639835,50.50939],[-4.639856,50.509317],[-4.639858,50.509255],[-4.639841,50.509203],[-4.639807,50.509164],[-4.639754,50.509135],[-4.639689,50.509109],[-4.63961,50.509086],[-4.639518,50.509065],[-4.639413,50.509047],[-4.639313,50.509027],[-4.639219,50.509003],[-4.63913,50.508977],[-4.639046,50.508949],[-4.638959,50.508937],[-4.638867,50.508943],[-4.638772,50.508966],[-4.638673,50.509007],[-4.638565,50.509049],[-4.638449,50.509094],[-4.638324,50.50914],[-4.63819,50.509189],[-4.63805,50.509206],[-4.637902,50.509192],[-4.637748,50.509146],[-4.637586,50.509068],[-4.637439,50.509009],[-4.637305,50.50897],[-4.637185,50.508949],[-4.637079,50.508947],[-4.636964,50.508932],[-4.63684,50.508905],[-4.636708,50.508864],[-4.636567,50.508812],[-4.636419,50.50877],[-4.636263,50.508739],[-4.636099,50.508719],[-4.635929,50.508709],[-4.63579,50.508688],[-4.635683,50.508654],[-4.635608,50.508609],[-4.635565,50.508551],[-4.635447,50.508531],[-4.635253,50.508548],[-4.634985,50.508602],[-4.634641,50.508694],[-4.634362,50.508779],[-4.634147,50.508858],[-4.633998,50.50893],[-4.633913,50.508997],[-4.633773,50.509012],[-4.633579,50.508976],[-4.633329,50.508889],[-4.633024,50.508751],[-4.632786,50.508642],[-4.632615,50.508562],[-4.63251,50.50851],[-4.632472,50.508487],[-4.632402,50.508479],[-4.632301,50.508484],[-4.632169,50.508503],[-4.632006,50.508536],[-4.631812,50.508562],[-4.631588,50.508581],[-4.631334,50.508593],[-4.63105,50.508598],[-4.630823,50.508589],[-4.630654,50.508565],[-4.630543,50.508527],[-4.630489,50.508475],[-4.630436,50.508446],[-4.630384,50.508439],[-4.630333,50.508454],[-4.630283,50.508492],[-4.630246,50.508556],[-4.630221,50.508646],[-4.63021,50.508761],[-4.630211,50.508903],[-4.630195,50.509025],[-4.630163,50.509128],[-4.630113,50.509211],[-4.630046,50.509275],[-4.629909,50.509358],[-4.629703,50.509462],[-4.629426,50.509585],[-4.62908,50.509728],[-4.628809,50.509825],[-4.628614,50.509876],[-4.628494,50.50988],[-4.62845,50.509839],[-4.628388,50.509804],[-4.628308,50.509777],[-4.62821,50.509757],[-4.628094,50.509745],[-4.627968,50.509779],[-4.627832,50.509859],[-4.627686,50.509986],[-4.62753,50.51016],[-4.627412,50.510327],[-4.627332,50.510487],[-4.62729,50.51064],[-4.627286,50.510786],[-4.627314,50.510912],[-4.627373,50.511019],[-4.627462,50.511106],[-4.627583,50.511173],[-4.62766,50.511234],[-4.627692,50.511289],[-4.627681,50.511337],[-4.627626,50.51138],[-4.627597,50.511443],[-4.627592,50.511526],[-4.627612,50.51163],[-4.627658,50.511754],[-4.627702,50.511853],[-4.627744,50.511929],[-4.627785,50.51198],[-4.627824,50.512006],[-4.627856,50.512042],[-4.62788,50.512088],[-4.627896,50.512144],[-4.627905,50.51221],[-4.627927,50.512272],[-4.627964,50.51233],[-4.628016,50.512385],[-4.628081,50.512435],[-4.628148,50.512488],[-4.628215,50.512542],[-4.628282,50.512599],[-4.62835,50.512657],[-4.62845,50.512713],[-4.628582,50.512767],[-4.628746,50.512818],[-4.628942,50.512868],[-4.629093,50.512888],[-4.629199,50.512878],[-4.629259,50.512839],[-4.629275,50.51277],[-4.629295,50.512715],[-4.629319,50.512675],[-4.629348,50.512648],[-4.629382,50.512636],[-4.629446,50.512648],[-4.629542,50.512685],[-4.629668,50.512747],[-4.629826,50.512833],[-4.62995,50.512877],[-4.630041,50.512879],[-4.630098,50.512839],[-4.630122,50.512757],[-4.630149,50.512695],[-4.630179,50.512651],[-4.630212,50.512627],[-4.630247,50.512623],[-4.630303,50.51264],[-4.630377,50.51268],[-4.630471,50.512742],[-4.630585,50.512825],[-4.630781,50.51292],[-4.63106,50.513026],[-4.631422,50.513143],[-4.631866,50.51327],[-4.632222,50.51336],[-4.63249,50.513412],[-4.632671,50.513427],[-4.632762,50.513403],[-4.632824,50.513362],[-4.632855,50.513302],[-4.632855,50.513226],[-4.632826,50.513131],[-4.632813,50.513056],[-4.632817,50.513],[-4.632838,50.512964],[-4.632876,50.512947],[-4.6329,50.512925],[-4.63291,50.512896],[-4.632905,50.512861],[-4.632886,50.51282],[-4.632904,50.512774],[-4.632959,50.512724],[-4.633052,50.512669],[-4.633182,50.512609],[-4.633336,50.512574],[-4.633513,50.512565],[-4.633714,50.512581],[-4.633939,50.512623],[-4.634105,50.512617],[-4.634211,50.512562],[-4.634259,50.512458],[-4.634249,50.512306],[-4.634252,50.512169],[-4.63427,50.512049],[-4.634302,50.511945],[-4.634349,50.511856],[-4.634374,50.511775],[-4.634379,50.511701],[-4.634363,50.511636],[-4.634326,50.511577],[-4.63433,50.511543],[-4.634377,50.511533],[-4.634465,50.511547],[-4.634596,50.511586],[-4.634719,50.511617],[-4.634835,50.511642],[-4.634945,50.511659],[-4.635048,50.511669],[-4.635129,50.511702],[-4.63519,50.511757],[-4.63523,50.511835],[-4.63525,50.511935],[-4.635246,50.512023],[-4.635221,50.512099],[-4.635173,50.512163],[-4.635102,50.512215],[-4.635045,50.512276],[-4.635002,50.512344],[-4.634972,50.512421],[-4.634955,50.512506],[-4.634987,50.512573],[-4.635068,50.512621],[-4.635197,50.512652],[-4.635375,50.512664],[-4.635518,50.512688],[-4.635625,50.512724],[-4.635698,50.512771],[-4.635735,50.512829],[-4.635802,50.512865],[-4.6359,50.51288],[-4.636028,50.512874],[-4.636187,50.512845],[-4.636316,50.512811],[-4.636415,50.512771],[-4.636485,50.512724],[-4.636524,50.512672],[-4.636582,50.51264],[-4.636659,50.512628],[-4.636755,50.512636],[-4.63687,50.512665],[-4.636959,50.512702],[-4.637024,50.512749],[-4.637063,50.512805],[-4.637078,50.51287]]]}}