{"type":"Feature","properties":{"id":"266655","COMMUNE":"Cornwall","PROVINCE":"Cornwall and Isles of Scilly","COUNTRY":"UK","FIREDATE":"2025-03-04 11:53:00","CLASS":"FireSeason","areaHA_geo":1.895},"geometry":{"type":"Polygon","coordinates":[[[-5.226444,49.983363],[-5.226626,49.983626],[-5.226777,49.983773],[-5.226896,49.983804],[-5.226983,49.983719],[-5.227054,49.98364],[-5.22711,49.983568],[-5.22715,49.983502],[-5.227175,49.983442],[-5.227273,49.983321],[-5.227444,49.98314],[-5.227689,49.982898],[-5.228007,49.982596],[-5.228228,49.982357],[-5.228352,49.982184],[-5.228379,49.982075],[-5.22831,49.98203],[-5.228236,49.982],[-5.228159,49.981984],[-5.228079,49.981983],[-5.227995,49.981997],[-5.227917,49.982],[-5.227844,49.981992],[-5.227777,49.981973],[-5.227716,49.981944],[-5.227645,49.981938],[-5.227565,49.981956],[-5.227474,49.981998],[-5.227374,49.982063],[-5.227286,49.98212],[-5.227211,49.982166],[-5.227149,49.982204],[-5.227099,49.982232],[-5.227053,49.982238],[-5.227012,49.982224],[-5.226974,49.982188],[-5.226941,49.982132],[-5.226898,49.982077],[-5.226844,49.982026],[-5.22678,49.981977],[-5.226706,49.98193],[-5.226643,49.981918],[-5.226589,49.981941],[-5.226546,49.981998],[-5.226513,49.982089],[-5.226454,49.98217],[-5.226368,49.982239],[-5.226255,49.982298],[-5.226115,49.982345],[-5.226065,49.982475],[-5.226102,49.982688],[-5.226229,49.982984],[-5.226444,49.983363]]]}}