{"type":"Feature","properties":{"id":"266718","COMMUNE":"New Forest","PROVINCE":"Central Hampshire","COUNTRY":"UK","FIREDATE":"2025-03-03 11:46:00","CLASS":"FireSeason","areaHA_geo":4.466},"geometry":{"type":"Polygon","coordinates":[[[-1.690596,50.89558],[-1.691115,50.895308],[-1.691377,50.895031],[-1.691381,50.894749],[-1.691129,50.894463],[-1.690619,50.894171],[-1.69005,50.893969],[-1.689422,50.893854],[-1.688735,50.893828],[-1.687988,50.89389],[-1.687498,50.893999],[-1.687265,50.894153],[-1.687289,50.894353],[-1.687569,50.894599],[-1.687781,50.894831],[-1.687923,50.89505],[-1.687997,50.895255],[-1.688002,50.895446],[-1.688051,50.895572],[-1.688142,50.895631],[-1.688276,50.895624],[-1.688454,50.895551],[-1.688626,50.8955],[-1.688792,50.895469],[-1.688953,50.895459],[-1.689109,50.895471],[-1.689255,50.895511],[-1.689392,50.895579],[-1.68952,50.895676],[-1.689639,50.895801],[-1.689858,50.895827],[-1.690177,50.895753],[-1.690596,50.89558]]]}}