{"type":"Feature","properties":{"id":"266765","COMMUNE":"Gwynedd","PROVINCE":"Gwynedd","COUNTRY":"UK","FIREDATE":"2025-04-05 13:31:00","FINALDATE":"2025-04-05 13:55:00","CLASS":"FireSeason","areaHA_geo":45.481},"geometry":{"type":"Polygon","coordinates":[[[-4.133682,53.045545],[-4.133814,53.04558],[-4.133943,53.045562],[-4.134071,53.045492],[-4.134197,53.045369],[-4.134335,53.045279],[-4.134486,53.045221],[-4.13465,53.045197],[-4.134826,53.045205],[-4.135014,53.045212],[-4.135214,53.045217],[-4.135425,53.045221],[-4.135648,53.045224],[-4.135834,53.045207],[-4.135982,53.045171],[-4.136092,53.045115],[-4.136164,53.04504],[-4.136236,53.04497],[-4.136308,53.044905],[-4.136381,53.044846],[-4.136453,53.044791],[-4.136469,53.044735],[-4.136429,53.044678],[-4.136333,53.044618],[-4.136181,53.044557],[-4.136079,53.044496],[-4.136027,53.044433],[-4.136025,53.04437],[-4.136073,53.044306],[-4.13614,53.044261],[-4.136226,53.044237],[-4.13633,53.044232],[-4.136453,53.044246],[-4.136556,53.044242],[-4.136638,53.04422],[-4.136701,53.044179],[-4.136744,53.04412],[-4.136767,53.044057],[-4.136769,53.04399],[-4.136751,53.04392],[-4.136712,53.043845],[-4.136716,53.043785],[-4.136764,53.04374],[-4.136855,53.04371],[-4.136988,53.043694],[-4.1371,53.043707],[-4.137191,53.043751],[-4.13726,53.043824],[-4.137308,53.043926],[-4.137361,53.044001],[-4.137418,53.044048],[-4.13748,53.044068],[-4.137547,53.04406],[-4.13761,53.044067],[-4.13767,53.044089],[-4.137725,53.044126],[-4.137777,53.044178],[-4.137785,53.044229],[-4.13775,53.044279],[-4.137671,53.044328],[-4.137548,53.044376],[-4.137493,53.044432],[-4.137507,53.044495],[-4.137589,53.044565],[-4.13774,53.044643],[-4.1379,53.044696],[-4.13807,53.044726],[-4.138249,53.044732],[-4.138437,53.044714],[-4.138628,53.044717],[-4.13882,53.044742],[-4.139014,53.044789],[-4.13921,53.044857],[-4.139368,53.044888],[-4.139488,53.044882],[-4.139569,53.044839],[-4.139612,53.04476],[-4.139653,53.044675],[-4.139693,53.044585],[-4.139731,53.044489],[-4.139767,53.044389],[-4.139805,53.044309],[-4.139843,53.044248],[-4.139884,53.044207],[-4.139925,53.044186],[-4.139966,53.044184],[-4.140007,53.044202],[-4.140047,53.04424],[-4.140087,53.044297],[-4.140129,53.044345],[-4.140173,53.044384],[-4.140219,53.044413],[-4.140267,53.044432],[-4.140374,53.044419],[-4.14054,53.044375],[-4.140764,53.044298],[-4.141048,53.04419],[-4.141248,53.044101],[-4.141364,53.044033],[-4.141397,53.043986],[-4.141346,53.043959],[-4.141307,53.043926],[-4.141281,53.043887],[-4.141266,53.043843],[-4.141264,53.043794],[-4.14122,53.043755],[-4.141134,53.043728],[-4.141007,53.043712],[-4.140839,53.043707],[-4.140718,53.043694],[-4.140646,53.043673],[-4.140621,53.043645],[-4.140644,53.043609],[-4.140706,53.043582],[-4.140807,53.043564],[-4.140948,53.043554],[-4.141129,53.043554],[-4.141288,53.043573],[-4.141426,53.043613],[-4.141543,53.043673],[-4.141639,53.043753],[-4.141754,53.043832],[-4.141887,53.04391],[-4.142039,53.043987],[-4.14221,53.044062],[-4.142369,53.044113],[-4.142517,53.044139],[-4.142653,53.04414],[-4.142777,53.044117],[-4.142856,53.044068],[-4.14289,53.043994],[-4.14288,53.043893],[-4.142824,53.043766],[-4.142786,53.043651],[-4.142765,53.043548],[-4.142762,53.043455],[-4.142777,53.043375],[-4.142809,53.043315],[-4.142859,53.043275],[-4.142926,53.043257],[-4.14301,53.04326],[-4.143079,53.043275],[-4.143134,53.043304],[-4.143174,53.043346],[-4.143199,53.043401],[-4.143242,53.043445],[-4.143301,53.043478],[-4.143377,53.043499],[-4.143471,53.043509],[-4.143544,53.043499],[-4.143597,53.04347],[-4.143629,53.043421],[-4.143641,53.043353],[-4.143754,53.043273],[-4.143966,53.043181],[-4.144279,53.043078],[-4.144692,53.042962],[-4.145015,53.042853],[-4.145248,53.04275],[-4.145392,53.042654],[-4.145445,53.042565],[-4.1455,53.042519],[-4.145554,53.042516],[-4.14561,53.042558],[-4.145666,53.042642],[-4.145788,53.042691],[-4.145976,53.042704],[-4.146231,53.042681],[-4.146551,53.042623],[-4.146806,53.042585],[-4.146995,53.042569],[-4.147118,53.042574],[-4.147176,53.0426],[-4.14724,53.042646],[-4.14731,53.04271],[-4.147386,53.042794],[-4.147468,53.042896],[-4.147554,53.042982],[-4.147643,53.04305],[-4.147735,53.043102],[-4.147829,53.043136],[-4.147928,53.043162],[-4.148031,53.043179],[-4.148138,53.043187],[-4.148249,53.043186],[-4.148369,53.043173],[-4.1485,53.043147],[-4.14864,53.043109],[-4.148789,53.043058],[-4.148884,53.043],[-4.148925,53.042934],[-4.148912,53.042862],[-4.148844,53.042783],[-4.148773,53.042722],[-4.1487,53.042678],[-4.148624,53.042653],[-4.148545,53.042646],[-4.148484,53.042631],[-4.148442,53.042609],[-4.148419,53.04258],[-4.148413,53.042543],[-4.148428,53.042512],[-4.148461,53.042487],[-4.148514,53.042468],[-4.148586,53.042456],[-4.148648,53.04243],[-4.148701,53.04239],[-4.148744,53.042337],[-4.148778,53.042271],[-4.14884,53.042216],[-4.14893,53.042174],[-4.149049,53.042145],[-4.149196,53.042127],[-4.149336,53.042116],[-4.149469,53.04211],[-4.149596,53.042111],[-4.149717,53.042117],[-4.149818,53.04211],[-4.149901,53.042087],[-4.149965,53.04205],[-4.150011,53.041999],[-4.15003,53.041944],[-4.150025,53.041884],[-4.149993,53.04182],[-4.149936,53.041752],[-4.149873,53.041716],[-4.149806,53.041712],[-4.149733,53.041739],[-4.149656,53.041798],[-4.149578,53.041843],[-4.149502,53.041872],[-4.149425,53.041888],[-4.149349,53.041889],[-4.149225,53.041875],[-4.149053,53.041848],[-4.148832,53.041806],[-4.148564,53.041751],[-4.148356,53.041727],[-4.148209,53.041734],[-4.148123,53.041772],[-4.148098,53.041842],[-4.14805,53.041893],[-4.147981,53.041926],[-4.147891,53.041941],[-4.147779,53.041938],[-4.147706,53.041912],[-4.147673,53.041864],[-4.147679,53.041794],[-4.147724,53.041701],[-4.147772,53.04162],[-4.147823,53.041552],[-4.147875,53.041496],[-4.14793,53.041452],[-4.147967,53.041408],[-4.147988,53.041364],[-4.14799,53.04132],[-4.147976,53.041276],[-4.147943,53.041229],[-4.147891,53.041179],[-4.147822,53.041125],[-4.147734,53.041069],[-4.147683,53.041015],[-4.147669,53.040963],[-4.147692,53.040912],[-4.147752,53.040863],[-4.147784,53.040803],[-4.147788,53.040732],[-4.147764,53.04065],[-4.147713,53.040556],[-4.147655,53.040488],[-4.147593,53.040445],[-4.147524,53.040428],[-4.147451,53.040437],[-4.147395,53.040457],[-4.147357,53.040489],[-4.147337,53.040532],[-4.147334,53.040586],[-4.147295,53.040617],[-4.147221,53.040624],[-4.147111,53.040606],[-4.146966,53.040566],[-4.146765,53.040526],[-4.14651,53.040488],[-4.146199,53.040451],[-4.145833,53.040415],[-4.14554,53.040381],[-4.145321,53.040349],[-4.145176,53.040318],[-4.145104,53.040289],[-4.145065,53.04026],[-4.145058,53.040229],[-4.145084,53.040198],[-4.145143,53.040166],[-4.145142,53.040107],[-4.145082,53.040021],[-4.144963,53.039907],[-4.144784,53.039766],[-4.144622,53.039663],[-4.144476,53.0396],[-4.144346,53.039574],[-4.144232,53.039588],[-4.144127,53.03961],[-4.144029,53.03964],[-4.14394,53.039679],[-4.143858,53.039726],[-4.143769,53.039759],[-4.143671,53.039779],[-4.143566,53.039786],[-4.143452,53.039778],[-4.143286,53.039822],[-4.143067,53.039917],[-4.142796,53.040062],[-4.142473,53.040259],[-4.142172,53.040425],[-4.141894,53.040559],[-4.141638,53.040664],[-4.141406,53.040737],[-4.141208,53.040805],[-4.141045,53.040868],[-4.140917,53.040926],[-4.140823,53.040979],[-4.140769,53.041026],[-4.140755,53.041067],[-4.140781,53.041103],[-4.140846,53.041132],[-4.140883,53.041197],[-4.140892,53.041295],[-4.140872,53.041429],[-4.140823,53.041597],[-4.14079,53.041743],[-4.140773,53.041868],[-4.14077,53.041971],[-4.140784,53.042053],[-4.140788,53.042129],[-4.140784,53.042201],[-4.140771,53.042267],[-4.14075,53.042328],[-4.14076,53.042396],[-4.140803,53.042472],[-4.140877,53.042556],[-4.140984,53.042647],[-4.141066,53.042743],[-4.141124,53.042845],[-4.141158,53.042951],[-4.141167,53.043062],[-4.141161,53.043148],[-4.141139,53.043209],[-4.141102,53.043245],[-4.14105,53.043255],[-4.141013,53.043237],[-4.14099,53.043189],[-4.140982,53.043113],[-4.140989,53.043009],[-4.140964,53.042928],[-4.140908,53.042873],[-4.140819,53.042841],[-4.140699,53.042835],[-4.14059,53.042824],[-4.140491,53.042809],[-4.140403,53.042789],[-4.140325,53.042765],[-4.140261,53.042758],[-4.140208,53.042768],[-4.140169,53.042796],[-4.140142,53.042841],[-4.140095,53.042876],[-4.140027,53.0429],[-4.139938,53.042915],[-4.139828,53.04292],[-4.139722,53.042923],[-4.139618,53.042925],[-4.139518,53.042925],[-4.13942,53.042924],[-4.139367,53.042906],[-4.139358,53.042869],[-4.139394,53.042815],[-4.139475,53.042743],[-4.13947,53.042699],[-4.139381,53.042682],[-4.139208,53.042694],[-4.13895,53.042733],[-4.138742,53.04277],[-4.138584,53.042805],[-4.138475,53.042839],[-4.138416,53.042871],[-4.138358,53.042894],[-4.138301,53.04291],[-4.138244,53.042916],[-4.138188,53.042915],[-4.138126,53.042897],[-4.13806,53.042863],[-4.137988,53.042814],[-4.13791,53.042748],[-4.137815,53.042705],[-4.1377,53.042685],[-4.137568,53.042689],[-4.137417,53.042715],[-4.137304,53.042746],[-4.137229,53.042782],[-4.137192,53.042823],[-4.137194,53.042868],[-4.137185,53.042907],[-4.137168,53.042938],[-4.137141,53.042962],[-4.137105,53.042979],[-4.137057,53.043001],[-4.136997,53.043029],[-4.136925,53.043063],[-4.13684,53.043102],[-4.136785,53.043144],[-4.136758,53.043188],[-4.13676,53.043236],[-4.136791,53.043287],[-4.13678,53.043306],[-4.136727,53.043293],[-4.136632,53.043249],[-4.136496,53.043174],[-4.136378,53.043119],[-4.136276,53.043085],[-4.136192,53.043073],[-4.136125,53.043081],[-4.136062,53.043088],[-4.136002,53.043095],[-4.135945,53.043102],[-4.135891,53.043108],[-4.135811,53.043097],[-4.135704,53.043068],[-4.135571,53.043021],[-4.135411,53.042957],[-4.135262,53.042911],[-4.135124,53.042884],[-4.134998,53.042875],[-4.134883,53.042885],[-4.134787,53.042883],[-4.13471,53.042869],[-4.134651,53.042844],[-4.134611,53.042807],[-4.134584,53.042767],[-4.13457,53.042725],[-4.134569,53.042681],[-4.134581,53.042633],[-4.134554,53.042557],[-4.134488,53.04245],[-4.134382,53.042314],[-4.134236,53.042148],[-4.134092,53.042006],[-4.133949,53.041888],[-4.133806,53.041793],[-4.133665,53.041723],[-4.133504,53.041649],[-4.133322,53.041573],[-4.133121,53.041494],[-4.132899,53.041412],[-4.132726,53.041334],[-4.1326,53.041259],[-4.132523,53.041188],[-4.132494,53.041121],[-4.132437,53.041049],[-4.132352,53.040971],[-4.13224,53.040889],[-4.1321,53.040802],[-4.131987,53.040714],[-4.131903,53.040626],[-4.131846,53.040538],[-4.131817,53.04045],[-4.131759,53.04036],[-4.131673,53.040269],[-4.131559,53.040175],[-4.131416,53.04008],[-4.131272,53.039985],[-4.131126,53.03989],[-4.130978,53.039795],[-4.130829,53.0397],[-4.130682,53.039598],[-4.130538,53.039488],[-4.130397,53.039371],[-4.130258,53.039246],[-4.130136,53.039159],[-4.13003,53.039111],[-4.12994,53.039102],[-4.129866,53.039132],[-4.129804,53.039139],[-4.129754,53.039124],[-4.129716,53.039087],[-4.12969,53.039028],[-4.129625,53.038986],[-4.129523,53.03896],[-4.129383,53.038952],[-4.129206,53.038961],[-4.129036,53.038985],[-4.128876,53.039025],[-4.128724,53.03908],[-4.128581,53.039151],[-4.128452,53.039221],[-4.128335,53.039289],[-4.128232,53.039355],[-4.128143,53.03942],[-4.127971,53.039478],[-4.127718,53.039531],[-4.127383,53.039578],[-4.126966,53.03962],[-4.126622,53.039665],[-4.12635,53.039713],[-4.12615,53.039766],[-4.126023,53.039823],[-4.125917,53.039879],[-4.125832,53.039935],[-4.125767,53.039991],[-4.125722,53.040046],[-4.125652,53.040091],[-4.125556,53.040125],[-4.125434,53.040149],[-4.125285,53.040162],[-4.125183,53.040211],[-4.125128,53.040294],[-4.125119,53.040413],[-4.125156,53.040567],[-4.125204,53.040696],[-4.125263,53.040802],[-4.125333,53.040883],[-4.125414,53.04094],[-4.125516,53.040989],[-4.125637,53.041031],[-4.125779,53.041065],[-4.12594,53.041091],[-4.126062,53.04112],[-4.126145,53.041149],[-4.126189,53.041181],[-4.126192,53.041213],[-4.126262,53.041283],[-4.126398,53.04139],[-4.1266,53.041533],[-4.126868,53.041714],[-4.12711,53.041851],[-4.127326,53.041947],[-4.127515,53.041999],[-4.127678,53.042009],[-4.127831,53.04203],[-4.127974,53.042063],[-4.128106,53.042108],[-4.128229,53.042164],[-4.12838,53.042231],[-4.128559,53.04231],[-4.128766,53.0424],[-4.129,53.042501],[-4.129214,53.04259],[-4.129406,53.042667],[-4.129577,53.042732],[-4.129726,53.042785],[-4.129918,53.042859],[-4.13015,53.042954],[-4.130425,53.04307],[-4.130741,53.043208],[-4.130999,53.043341],[-4.131199,53.043472],[-4.131339,53.043599],[-4.131422,53.043722],[-4.131536,53.043857],[-4.131682,53.044004],[-4.13186,53.044163],[-4.132069,53.044334],[-4.132287,53.044508],[-4.132512,53.044685],[-4.132745,53.044865],[-4.132987,53.045049],[-4.133201,53.045208],[-4.133388,53.045344],[-4.133549,53.045456],[-4.133682,53.045545]]]}}