{"type":"Feature","properties":{"id":"266721","COMMUNE":"New Forest","PROVINCE":"Central Hampshire","COUNTRY":"UK","FIREDATE":"2025-03-08 15:11:00.767","FINALDATE":"2025-03-09 15:11:03.151","CLASS":"FireSeason","areaHA_geo":2.745},"geometry":{"type":"Polygon","coordinates":[[[-1.69481,50.868448],[-1.694964,50.868542],[-1.695211,50.868572],[-1.695551,50.868538],[-1.695983,50.868439],[-1.696304,50.86833],[-1.696514,50.868213],[-1.696612,50.868086],[-1.696599,50.86795],[-1.696623,50.867831],[-1.696684,50.867729],[-1.696783,50.867644],[-1.696918,50.867575],[-1.696973,50.867514],[-1.696949,50.867462],[-1.696845,50.867418],[-1.696662,50.867381],[-1.696488,50.867276],[-1.696323,50.8671],[-1.696169,50.866855],[-1.696023,50.866541],[-1.695856,50.866311],[-1.695667,50.866166],[-1.695455,50.866105],[-1.695222,50.866129],[-1.695021,50.866173],[-1.694853,50.866238],[-1.694717,50.866324],[-1.694613,50.866431],[-1.694589,50.866529],[-1.694645,50.86662],[-1.69478,50.866702],[-1.694995,50.866776],[-1.695114,50.866905],[-1.695139,50.867087],[-1.695069,50.867324],[-1.694903,50.867616],[-1.694794,50.867874],[-1.694743,50.868098],[-1.694748,50.86829],[-1.69481,50.868448]]]}}