{"type":"Feature","properties":{"id":"266723","COMMUNE":"New Forest","PROVINCE":"Central Hampshire","COUNTRY":"UK","FIREDATE":"2025-03-08 15:11:56.041","CLASS":"FireSeason","areaHA_geo":3.777},"geometry":{"type":"Polygon","coordinates":[[[-1.652694,50.897307],[-1.652694,50.897396],[-1.652896,50.897417],[-1.653297,50.897369],[-1.6539,50.897253],[-1.654517,50.897112],[-1.65515,50.896944],[-1.655799,50.896752],[-1.656462,50.896533],[-1.656821,50.896315],[-1.656874,50.896097],[-1.656623,50.895879],[-1.656067,50.895661],[-1.655539,50.895512],[-1.65504,50.895433],[-1.654569,50.895422],[-1.654126,50.895481],[-1.653813,50.895557],[-1.65363,50.895651],[-1.653577,50.895763],[-1.653653,50.895892],[-1.653677,50.896007],[-1.653647,50.896106],[-1.653565,50.89619],[-1.65343,50.896258],[-1.653326,50.896344],[-1.653255,50.896447],[-1.653214,50.896568],[-1.653206,50.896706],[-1.653149,50.896849],[-1.653045,50.896997],[-1.652893,50.89715],[-1.652694,50.897307]]]}}