{"type":"Feature","properties":{"id":"266740","COMMUNE":"Wiltshire","PROVINCE":"Wiltshire CC","COUNTRY":"UK","FIREDATE":"2025-03-03 15:46:44.282","CLASS":"FireSeason","areaHA_geo":16.856},"geometry":{"type":"Polygon","coordinates":[[[-1.926851,51.25385],[-1.926828,51.253669],[-1.926859,51.253553],[-1.926942,51.253502],[-1.927079,51.253517],[-1.927268,51.253597],[-1.927432,51.253655],[-1.927572,51.253691],[-1.927687,51.253704],[-1.927777,51.253694],[-1.92792,51.253676],[-1.928114,51.253648],[-1.928361,51.25361],[-1.92866,51.253564],[-1.928947,51.253529],[-1.929223,51.253506],[-1.929487,51.253494],[-1.92974,51.253494],[-1.929994,51.253447],[-1.930251,51.253352],[-1.93051,51.25321],[-1.930772,51.25302],[-1.930997,51.252851],[-1.931185,51.252702],[-1.931337,51.252575],[-1.931452,51.252468],[-1.931586,51.252372],[-1.93174,51.252285],[-1.931913,51.252208],[-1.932106,51.252141],[-1.932237,51.25208],[-1.932307,51.252025],[-1.932315,51.251977],[-1.932262,51.251935],[-1.932122,51.251904],[-1.931893,51.251883],[-1.931577,51.251872],[-1.931173,51.251872],[-1.930952,51.251838],[-1.930913,51.251771],[-1.931057,51.251671],[-1.931384,51.251537],[-1.931603,51.251428],[-1.931715,51.251342],[-1.93172,51.251281],[-1.931618,51.251245],[-1.931505,51.251222],[-1.931381,51.251214],[-1.931246,51.25122],[-1.9311,51.25124],[-1.930989,51.251241],[-1.930912,51.251223],[-1.930871,51.251185],[-1.930864,51.251128],[-1.930828,51.251085],[-1.930761,51.251055],[-1.930664,51.251038],[-1.930537,51.251036],[-1.930385,51.251067],[-1.930209,51.251133],[-1.930008,51.251232],[-1.929783,51.251366],[-1.929607,51.251396],[-1.929483,51.251322],[-1.929409,51.251144],[-1.929385,51.250863],[-1.929392,51.25064],[-1.929429,51.250476],[-1.929496,51.25037],[-1.929593,51.250324],[-1.929661,51.250236],[-1.929699,51.250109],[-1.929707,51.249941],[-1.929686,51.249733],[-1.929718,51.249583],[-1.929803,51.24949],[-1.929941,51.249454],[-1.930132,51.249477],[-1.93031,51.249449],[-1.930475,51.249372],[-1.930626,51.249244],[-1.930765,51.249067],[-1.930852,51.248912],[-1.930889,51.24878],[-1.930875,51.248669],[-1.93081,51.248581],[-1.930657,51.24851],[-1.930415,51.248457],[-1.930086,51.24842],[-1.929669,51.2484],[-1.929307,51.248394],[-1.929002,51.248401],[-1.928754,51.248423],[-1.928561,51.248459],[-1.928353,51.248508],[-1.92813,51.24857],[-1.927891,51.248646],[-1.927637,51.248736],[-1.927445,51.248822],[-1.927316,51.248907],[-1.927249,51.248989],[-1.927245,51.249068],[-1.927185,51.249153],[-1.92707,51.249244],[-1.9269,51.24934],[-1.926674,51.249442],[-1.926509,51.249534],[-1.926404,51.249616],[-1.92636,51.249688],[-1.926376,51.249749],[-1.926351,51.249821],[-1.926284,51.249904],[-1.926176,51.249998],[-1.926027,51.250103],[-1.92593,51.250231],[-1.925886,51.250383],[-1.925894,51.250558],[-1.925955,51.250757],[-1.926019,51.250883],[-1.926088,51.250937],[-1.926161,51.250917],[-1.926238,51.250825],[-1.9263,51.250806],[-1.926347,51.250859],[-1.92638,51.250984],[-1.926399,51.251182],[-1.926392,51.251335],[-1.926362,51.251443],[-1.926307,51.251507],[-1.926228,51.251525],[-1.926158,51.251555],[-1.926097,51.251595],[-1.926045,51.251647],[-1.926003,51.251709],[-1.925963,51.251772],[-1.925925,51.251837],[-1.925889,51.251902],[-1.925856,51.251969],[-1.925837,51.252038],[-1.92583,51.252109],[-1.925837,51.252184],[-1.925857,51.25226],[-1.925863,51.252339],[-1.925854,51.252418],[-1.925832,51.2525],[-1.925794,51.252582],[-1.925765,51.252663],[-1.925744,51.252741],[-1.92573,51.252818],[-1.925724,51.252892],[-1.925755,51.252954],[-1.925823,51.253005],[-1.925928,51.253044],[-1.92607,51.253072],[-1.926182,51.253123],[-1.926265,51.253199],[-1.926319,51.253298],[-1.926343,51.253422],[-1.926392,51.253547],[-1.926468,51.253673],[-1.926568,51.253801],[-1.926695,51.25393],[-1.926784,51.253981],[-1.926836,51.253955],[-1.926851,51.25385]]]}}