{"type":"Feature","properties":{"id":"266739","COMMUNE":"Wiltshire","PROVINCE":"Wiltshire CC","COUNTRY":"UK","FIREDATE":"2025-04-02 15:43:04.545","CLASS":"FireSeason","areaHA_geo":57.15},"geometry":{"type":"Polygon","coordinates":[[[-1.856757,51.252596],[-1.857143,51.25244],[-1.857746,51.252082],[-1.858566,51.251523],[-1.859604,51.250761],[-1.860364,51.25013],[-1.860848,51.249631],[-1.861055,51.249262],[-1.860986,51.249025],[-1.860953,51.248841],[-1.860959,51.248711],[-1.861001,51.248635],[-1.861081,51.248612],[-1.861135,51.248556],[-1.861163,51.248468],[-1.861165,51.248346],[-1.86114,51.248192],[-1.861114,51.248069],[-1.861086,51.247977],[-1.861056,51.247915],[-1.861024,51.247884],[-1.86102,51.247838],[-1.861043,51.247777],[-1.861094,51.247701],[-1.861172,51.24761],[-1.861248,51.247474],[-1.861322,51.247292],[-1.861394,51.247066],[-1.861464,51.246795],[-1.861535,51.246572],[-1.861607,51.246399],[-1.86168,51.246274],[-1.861754,51.246198],[-1.861795,51.246136],[-1.861802,51.246089],[-1.861776,51.246056],[-1.861716,51.246038],[-1.861701,51.245897],[-1.86173,51.245632],[-1.861803,51.245244],[-1.86192,51.244734],[-1.861961,51.24435],[-1.861925,51.244095],[-1.861814,51.243967],[-1.861626,51.243967],[-1.861477,51.243958],[-1.861367,51.24394],[-1.861295,51.243913],[-1.861262,51.243877],[-1.86122,51.243852],[-1.86117,51.243837],[-1.86111,51.243834],[-1.861042,51.243841],[-1.860989,51.243834],[-1.860952,51.243813],[-1.860931,51.243779],[-1.860927,51.24373],[-1.860952,51.243686],[-1.861008,51.243646],[-1.861095,51.24361],[-1.861212,51.243579],[-1.861277,51.243544],[-1.861291,51.243506],[-1.861252,51.243465],[-1.861163,51.24342],[-1.861159,51.243369],[-1.861242,51.243312],[-1.861411,51.243248],[-1.861667,51.243178],[-1.86185,51.243103],[-1.861962,51.243023],[-1.862003,51.242938],[-1.861972,51.242848],[-1.86197,51.242776],[-1.861999,51.242722],[-1.862058,51.242685],[-1.862147,51.242666],[-1.862197,51.242639],[-1.862207,51.242604],[-1.862178,51.24256],[-1.86211,51.242509],[-1.862038,51.242465],[-1.861962,51.242429],[-1.861882,51.2424],[-1.861799,51.242379],[-1.861713,51.242365],[-1.861625,51.242357],[-1.861534,51.242355],[-1.861441,51.24236],[-1.86137,51.24235],[-1.861321,51.242326],[-1.861293,51.242287],[-1.861287,51.242234],[-1.861238,51.242216],[-1.861144,51.242233],[-1.861007,51.242285],[-1.860827,51.242372],[-1.860699,51.242423],[-1.860625,51.242438],[-1.860604,51.242416],[-1.860636,51.242359],[-1.860656,51.242294],[-1.860664,51.24222],[-1.86066,51.242137],[-1.860644,51.242046],[-1.860617,51.241975],[-1.860581,51.241925],[-1.860534,51.241896],[-1.860477,51.241887],[-1.860435,51.2419],[-1.860409,51.241934],[-1.860398,51.24199],[-1.860403,51.242068],[-1.860393,51.242134],[-1.860368,51.242188],[-1.860328,51.24223],[-1.860273,51.24226],[-1.860214,51.242289],[-1.860151,51.242317],[-1.860084,51.242345],[-1.860013,51.242372],[-1.859962,51.2424],[-1.859931,51.242431],[-1.859919,51.242462],[-1.859928,51.242496],[-1.859912,51.242524],[-1.859871,51.242548],[-1.859806,51.242567],[-1.859716,51.242581],[-1.859615,51.242599],[-1.859503,51.24262],[-1.85938,51.242645],[-1.859247,51.242673],[-1.859141,51.242702],[-1.859063,51.242732],[-1.859012,51.242763],[-1.858989,51.242795],[-1.858935,51.242827],[-1.85885,51.242861],[-1.858733,51.242895],[-1.858586,51.242929],[-1.858457,51.242952],[-1.858347,51.242964],[-1.858255,51.242963],[-1.858181,51.242951],[-1.858106,51.242963],[-1.858029,51.242997],[-1.85795,51.243056],[-1.85787,51.243137],[-1.857784,51.243178],[-1.857694,51.243177],[-1.857599,51.243136],[-1.8575,51.243053],[-1.85743,51.243039],[-1.857389,51.243095],[-1.857379,51.243219],[-1.857398,51.243413],[-1.857371,51.243564],[-1.857297,51.243672],[-1.857177,51.243736],[-1.857011,51.243758],[-1.85688,51.24376],[-1.856785,51.24374],[-1.856726,51.2437],[-1.856702,51.243639],[-1.856653,51.243609],[-1.856579,51.243612],[-1.856481,51.243647],[-1.856357,51.243713],[-1.856262,51.243775],[-1.856195,51.243834],[-1.856157,51.243888],[-1.856146,51.243938],[-1.856124,51.24398],[-1.85609,51.244016],[-1.856045,51.244043],[-1.855987,51.244064],[-1.855904,51.244106],[-1.855795,51.244168],[-1.855661,51.244252],[-1.8555,51.244356],[-1.85537,51.244421],[-1.855271,51.244446],[-1.855203,51.244431],[-1.855165,51.244376],[-1.855153,51.244323],[-1.855168,51.244273],[-1.855208,51.244225],[-1.855274,51.244179],[-1.855244,51.244151],[-1.855116,51.244142],[-1.854892,51.244152],[-1.85457,51.24418],[-1.854287,51.244279],[-1.854042,51.244448],[-1.853835,51.244688],[-1.853665,51.244999],[-1.853587,51.245247],[-1.8536,51.245431],[-1.853704,51.245553],[-1.853899,51.245611],[-1.853994,51.245659],[-1.853988,51.245696],[-1.853881,51.245723],[-1.853674,51.245739],[-1.853508,51.245777],[-1.853383,51.245836],[-1.853298,51.245917],[-1.853254,51.246019],[-1.853218,51.246121],[-1.85319,51.246221],[-1.853169,51.246321],[-1.853156,51.24642],[-1.853131,51.246483],[-1.853095,51.246509],[-1.853047,51.246498],[-1.852987,51.24645],[-1.852923,51.246415],[-1.852855,51.246393],[-1.852782,51.246383],[-1.852705,51.246386],[-1.852645,51.246404],[-1.852603,51.246438],[-1.852578,51.246487],[-1.852572,51.246551],[-1.852548,51.246579],[-1.852507,51.246571],[-1.852448,51.246527],[-1.852372,51.246447],[-1.852284,51.246362],[-1.852182,51.246272],[-1.852067,51.246178],[-1.85194,51.246078],[-1.851777,51.246039],[-1.851579,51.246059],[-1.851346,51.246139],[-1.851077,51.246279],[-1.850897,51.246405],[-1.850805,51.246517],[-1.850801,51.246616],[-1.850885,51.2467],[-1.850948,51.246782],[-1.850988,51.246861],[-1.851006,51.246937],[-1.851002,51.247011],[-1.851044,51.247077],[-1.851134,51.247136],[-1.851271,51.247188],[-1.851455,51.247233],[-1.851577,51.247296],[-1.851637,51.247378],[-1.851636,51.247479],[-1.851573,51.247597],[-1.851501,51.247711],[-1.85142,51.24782],[-1.851329,51.247923],[-1.85123,51.248021],[-1.851138,51.248119],[-1.851054,51.248216],[-1.850977,51.248311],[-1.850908,51.248407],[-1.850832,51.248491],[-1.85075,51.248566],[-1.850661,51.24863],[-1.850565,51.248684],[-1.850675,51.248818],[-1.850989,51.249033],[-1.851508,51.249328],[-1.852232,51.249703],[-1.852748,51.250032],[-1.853056,51.250313],[-1.853156,51.250547],[-1.853048,51.250734],[-1.852986,51.250909],[-1.85297,51.251072],[-1.853,51.251223],[-1.853075,51.251362],[-1.853119,51.25148],[-1.853133,51.251577],[-1.853115,51.251652],[-1.853067,51.251706],[-1.853073,51.251751],[-1.853133,51.251789],[-1.853249,51.251819],[-1.853419,51.251841],[-1.853558,51.251843],[-1.853668,51.251827],[-1.853746,51.251792],[-1.853795,51.251738],[-1.853865,51.251715],[-1.853957,51.251723],[-1.854071,51.251761],[-1.854206,51.251831],[-1.85435,51.251877],[-1.8545,51.251901],[-1.854659,51.251902],[-1.854825,51.25188],[-1.854969,51.251851],[-1.855089,51.251817],[-1.855186,51.251777],[-1.85526,51.25173],[-1.855376,51.251746],[-1.855533,51.251825],[-1.855733,51.251967],[-1.855974,51.252172],[-1.856197,51.252338],[-1.856402,51.252463],[-1.856589,51.252549],[-1.856757,51.252596]]]}}