{"type":"Feature","properties":{"id":"266713","COMMUNE":"New Forest","PROVINCE":"Central Hampshire","COUNTRY":"UK","FIREDATE":"2025-03-16 12:42:00","FINALDATE":"2025-03-16 13:29:00","CLASS":"FireSeason","areaHA_geo":5.112},"geometry":{"type":"Polygon","coordinates":[[[-1.681406,50.87549],[-1.681572,50.875529],[-1.681785,50.875516],[-1.682047,50.875451],[-1.682357,50.875335],[-1.682581,50.875223],[-1.682717,50.875116],[-1.682767,50.875014],[-1.68273,50.874915],[-1.682693,50.874815],[-1.682655,50.874713],[-1.682617,50.87461],[-1.682579,50.874504],[-1.682562,50.874411],[-1.682567,50.87433],[-1.682594,50.87426],[-1.682642,50.874203],[-1.682674,50.874125],[-1.682688,50.874025],[-1.682685,50.873904],[-1.682664,50.873762],[-1.682674,50.873648],[-1.682713,50.873562],[-1.682782,50.873504],[-1.682881,50.873474],[-1.682939,50.873379],[-1.682956,50.873219],[-1.682932,50.872995],[-1.682866,50.872706],[-1.682818,50.872459],[-1.682788,50.872256],[-1.682776,50.872095],[-1.682782,50.871978],[-1.682701,50.8719],[-1.682533,50.871861],[-1.682279,50.871861],[-1.681938,50.871901],[-1.681669,50.871945],[-1.681472,50.871994],[-1.681347,50.872047],[-1.681295,50.872104],[-1.681264,50.872156],[-1.681256,50.872202],[-1.68127,50.872241],[-1.681306,50.872275],[-1.681293,50.872317],[-1.681231,50.872367],[-1.681119,50.872424],[-1.680959,50.872491],[-1.680849,50.872555],[-1.680792,50.872616],[-1.680787,50.872676],[-1.680833,50.872733],[-1.680834,50.872793],[-1.68079,50.872855],[-1.680702,50.872918],[-1.680569,50.872984],[-1.680469,50.873045],[-1.680402,50.8731],[-1.680368,50.87315],[-1.680368,50.873195],[-1.680391,50.873244],[-1.680438,50.873298],[-1.680509,50.873356],[-1.680604,50.873418],[-1.680655,50.873479],[-1.680662,50.873538],[-1.680625,50.873595],[-1.680545,50.873651],[-1.680516,50.873709],[-1.680539,50.87377],[-1.680615,50.873834],[-1.680742,50.8739],[-1.680824,50.87397],[-1.68086,50.874042],[-1.68085,50.874117],[-1.680795,50.874195],[-1.68077,50.87426],[-1.680776,50.874313],[-1.680812,50.874353],[-1.680878,50.874381],[-1.68093,50.874413],[-1.680969,50.874447],[-1.680993,50.874485],[-1.681004,50.874527],[-1.680992,50.874576],[-1.68096,50.874634],[-1.680906,50.874701],[-1.68083,50.874776],[-1.680803,50.874828],[-1.680824,50.874858],[-1.680894,50.874866],[-1.681013,50.874851],[-1.681098,50.874853],[-1.68115,50.874872],[-1.681169,50.874906],[-1.681154,50.874958],[-1.681163,50.875],[-1.681196,50.875034],[-1.681251,50.87506],[-1.681331,50.875077],[-1.681369,50.875099],[-1.681366,50.875128],[-1.681323,50.875163],[-1.681239,50.875204],[-1.681205,50.875257],[-1.681221,50.875323],[-1.681288,50.8754],[-1.681406,50.87549]]]}}