{"type":"Feature","properties":{"id":"266758","COMMUNE":"Ceredigion","PROVINCE":"South West Wales","COUNTRY":"UK","FIREDATE":"2025-04-09 13:31:00","FINALDATE":"2025-04-09 13:31:00","CLASS":"FireSeason","areaHA_geo":8.679},"geometry":{"type":"Polygon","coordinates":[[[-3.851278,52.163885],[-3.851717,52.163968],[-3.852114,52.163886],[-3.852469,52.163638],[-3.85278,52.163225],[-3.853206,52.162837],[-3.853744,52.162474],[-3.854397,52.162135],[-3.855162,52.161822],[-3.855856,52.161584],[-3.856478,52.161422],[-3.857027,52.161337],[-3.857504,52.161327],[-3.857845,52.161234],[-3.858049,52.161057],[-3.858115,52.160796],[-3.858045,52.160452],[-3.857942,52.1602],[-3.857805,52.16004],[-3.857634,52.159972],[-3.85743,52.159996],[-3.857288,52.160048],[-3.857208,52.160128],[-3.857189,52.160236],[-3.857232,52.160372],[-3.85719,52.160483],[-3.857063,52.160568],[-3.856852,52.160629],[-3.856555,52.160664],[-3.856303,52.160655],[-3.856094,52.160604],[-3.85593,52.160509],[-3.855809,52.16037],[-3.8557,52.160268],[-3.855603,52.160204],[-3.855517,52.160175],[-3.855443,52.160184],[-3.855405,52.160245],[-3.855402,52.160357],[-3.855434,52.16052],[-3.855502,52.160735],[-3.855503,52.160906],[-3.855437,52.161031],[-3.855303,52.161111],[-3.855103,52.161147],[-3.85493,52.161115],[-3.854783,52.161014],[-3.854663,52.160847],[-3.854569,52.160611],[-3.854374,52.160434],[-3.854078,52.160316],[-3.85368,52.160258],[-3.85318,52.160258],[-3.852792,52.160292],[-3.852516,52.16036],[-3.852351,52.160462],[-3.852297,52.160597],[-3.852322,52.160721],[-3.852424,52.160832],[-3.852605,52.160931],[-3.852863,52.161018],[-3.852926,52.161158],[-3.852794,52.16135],[-3.852468,52.161594],[-3.851946,52.16189],[-3.851563,52.162138],[-3.851319,52.162338],[-3.851212,52.162488],[-3.851244,52.16259],[-3.851213,52.162673],[-3.851118,52.162738],[-3.850959,52.162783],[-3.850737,52.162809],[-3.85055,52.162855],[-3.850397,52.16292],[-3.85028,52.163004],[-3.850197,52.163108],[-3.850256,52.163248],[-3.850455,52.163424],[-3.850796,52.163636],[-3.851278,52.163885]]]}}