{"type":"Feature","properties":{"id":"266757","COMMUNE":"Ceredigion","PROVINCE":"South West Wales","COUNTRY":"UK","FIREDATE":"2025-04-09 13:31:00","CLASS":"FireSeason","areaHA_geo":4.781},"geometry":{"type":"Polygon","coordinates":[[[-3.855871,52.155874],[-3.855859,52.156063],[-3.855937,52.15616],[-3.856106,52.156163],[-3.856366,52.156074],[-3.856583,52.155954],[-3.856757,52.155804],[-3.856887,52.155624],[-3.856975,52.155414],[-3.857071,52.155232],[-3.857177,52.155079],[-3.857291,52.154954],[-3.857414,52.154857],[-3.857556,52.15479],[-3.857718,52.154753],[-3.857898,52.154747],[-3.858097,52.15477],[-3.858203,52.154831],[-3.858215,52.15493],[-3.858133,52.155066],[-3.857957,52.155239],[-3.857886,52.15538],[-3.85792,52.155487],[-3.858059,52.155562],[-3.858303,52.155604],[-3.858495,52.155605],[-3.858636,52.155564],[-3.858726,52.155483],[-3.858764,52.155361],[-3.858866,52.155229],[-3.859033,52.155086],[-3.859263,52.154932],[-3.859557,52.154768],[-3.859716,52.154573],[-3.859741,52.154347],[-3.859631,52.154089],[-3.859386,52.153801],[-3.859108,52.153619],[-3.858796,52.153545],[-3.858451,52.153577],[-3.858072,52.153716],[-3.857718,52.153857],[-3.857389,52.154002],[-3.857085,52.15415],[-3.856806,52.1543],[-3.856465,52.154437],[-3.856062,52.154562],[-3.855598,52.154672],[-3.855071,52.15477],[-3.854705,52.154901],[-3.854497,52.155067],[-3.85445,52.155266],[-3.854562,52.1555],[-3.854733,52.155632],[-3.854964,52.155664],[-3.855254,52.155594],[-3.855604,52.155424],[-3.855841,52.155366],[-3.855964,52.155422],[-3.855974,52.155591],[-3.855871,52.155874]]]}}