{"type":"Feature","properties":{"id":"266756","COMMUNE":"Ceredigion","PROVINCE":"South West Wales","COUNTRY":"UK","FIREDATE":"2025-04-09 12:40:00","FINALDATE":"2025-04-09 13:57:00","CLASS":"FireSeason","areaHA_geo":8.158},"geometry":{"type":"Polygon","coordinates":[[[-3.860199,52.159604],[-3.86032,52.159822],[-3.860511,52.15997],[-3.860771,52.160047],[-3.8611,52.160056],[-3.861402,52.160037],[-3.861676,52.159993],[-3.861923,52.159923],[-3.862142,52.159826],[-3.862381,52.159701],[-3.86264,52.159547],[-3.862919,52.159364],[-3.863217,52.159153],[-3.863464,52.158944],[-3.863658,52.158739],[-3.863801,52.158537],[-3.863892,52.158338],[-3.863813,52.158254],[-3.863563,52.158283],[-3.863142,52.158427],[-3.862551,52.158685],[-3.862044,52.15886],[-3.861621,52.158951],[-3.861282,52.158959],[-3.861028,52.158883],[-3.860876,52.158781],[-3.860825,52.158651],[-3.860877,52.158496],[-3.861031,52.158313],[-3.861186,52.15818],[-3.861342,52.158097],[-3.8615,52.158063],[-3.861658,52.15808],[-3.861841,52.158079],[-3.862046,52.15806],[-3.862275,52.158024],[-3.862527,52.157971],[-3.862756,52.157906],[-3.862963,52.157829],[-3.863146,52.157739],[-3.863306,52.157638],[-3.863347,52.15751],[-3.863269,52.157354],[-3.863073,52.157172],[-3.862757,52.156963],[-3.862562,52.156757],[-3.862488,52.156554],[-3.862536,52.156354],[-3.862705,52.156158],[-3.862816,52.155995],[-3.862872,52.155865],[-3.86287,52.155768],[-3.862811,52.155705],[-3.862635,52.155649],[-3.862342,52.155602],[-3.861931,52.155562],[-3.861402,52.155531],[-3.860954,52.15551],[-3.860586,52.155501],[-3.860298,52.155503],[-3.860091,52.155516],[-3.859977,52.155552],[-3.859958,52.155614],[-3.860033,52.155699],[-3.860202,52.155808],[-3.860381,52.155919],[-3.86057,52.156032],[-3.86077,52.156146],[-3.860979,52.156262],[-3.861076,52.156354],[-3.861058,52.156421],[-3.860927,52.156462],[-3.860683,52.15648],[-3.860408,52.156506],[-3.860102,52.156542],[-3.859766,52.156588],[-3.859399,52.156643],[-3.859153,52.156699],[-3.859026,52.156755],[-3.85902,52.156812],[-3.859134,52.156869],[-3.859226,52.156916],[-3.859296,52.156955],[-3.859344,52.156985],[-3.859369,52.157005],[-3.859364,52.157065],[-3.859328,52.157163],[-3.859261,52.1573],[-3.859162,52.157476],[-3.859107,52.157606],[-3.859095,52.15769],[-3.859126,52.157727],[-3.8592,52.157719],[-3.859355,52.157677],[-3.859591,52.157602],[-3.859908,52.157494],[-3.860305,52.157353],[-3.860609,52.157264],[-3.860818,52.157227],[-3.860933,52.157243],[-3.860955,52.157311],[-3.860913,52.157454],[-3.860809,52.157672],[-3.860642,52.157965],[-3.860413,52.158333],[-3.860253,52.158681],[-3.860165,52.159009],[-3.860146,52.159316],[-3.860199,52.159604]]]}}