{"type":"Feature","properties":{"id":"266711","COMMUNE":"New Forest","PROVINCE":"Central Hampshire","COUNTRY":"UK","FIREDATE":"2025-03-05 13:35:00","CLASS":"FireSeason","areaHA_geo":5.079},"geometry":{"type":"Polygon","coordinates":[[[-1.685695,50.887172],[-1.685848,50.887276],[-1.686054,50.887329],[-1.686312,50.887333],[-1.686622,50.887288],[-1.686932,50.887039],[-1.687244,50.886588],[-1.687557,50.885935],[-1.687871,50.885079],[-1.688091,50.884412],[-1.688218,50.883935],[-1.688251,50.883648],[-1.68819,50.88355],[-1.688044,50.883492],[-1.687812,50.883473],[-1.687493,50.883494],[-1.687089,50.883555],[-1.686768,50.883636],[-1.68653,50.883738],[-1.686376,50.88386],[-1.686305,50.884002],[-1.686269,50.884143],[-1.686269,50.884282],[-1.686304,50.88442],[-1.686374,50.884556],[-1.686387,50.884664],[-1.686343,50.884743],[-1.68624,50.884793],[-1.686081,50.884815],[-1.685963,50.884865],[-1.685887,50.884943],[-1.685852,50.885049],[-1.68586,50.885184],[-1.685885,50.885291],[-1.685927,50.885371],[-1.685987,50.885424],[-1.686065,50.88545],[-1.686085,50.885488],[-1.686047,50.885538],[-1.68595,50.885601],[-1.685795,50.885676],[-1.68569,50.885774],[-1.685636,50.885896],[-1.685633,50.886042],[-1.685681,50.886212],[-1.685704,50.886349],[-1.685704,50.886453],[-1.68568,50.886524],[-1.685632,50.886563],[-1.685588,50.886602],[-1.685549,50.886643],[-1.685515,50.886684],[-1.685486,50.886727],[-1.685489,50.886797],[-1.685525,50.886894],[-1.685593,50.88702],[-1.685695,50.887172]]]}}