{"type":"Feature","properties":{"id":"266716","COMMUNE":"New Forest","PROVINCE":"Central Hampshire","COUNTRY":"UK","FIREDATE":"2025-03-03 11:46:00","FINALDATE":"2025-03-03 12:10:00","CLASS":"FireSeason","areaHA_geo":1.519},"geometry":{"type":"Polygon","coordinates":[[[-1.694362,50.893385],[-1.694283,50.893503],[-1.694311,50.89361],[-1.694444,50.893706],[-1.694684,50.893792],[-1.694918,50.893836],[-1.695148,50.89384],[-1.695373,50.893804],[-1.695593,50.893726],[-1.695807,50.89367],[-1.696016,50.893635],[-1.69622,50.893621],[-1.696418,50.893629],[-1.696537,50.893586],[-1.696579,50.893492],[-1.696542,50.893348],[-1.696428,50.893154],[-1.696237,50.892982],[-1.69597,50.89283],[-1.695626,50.892701],[-1.695207,50.892593],[-1.694907,50.892551],[-1.694729,50.892576],[-1.69467,50.892668],[-1.694732,50.892826],[-1.694733,50.892977],[-1.694671,50.893121],[-1.694548,50.893257],[-1.694362,50.893385]]]}}