{"type":"Feature","properties":{"id":"266722","COMMUNE":"New Forest","PROVINCE":"Central Hampshire","COUNTRY":"UK","FIREDATE":"2025-03-08 15:11:25.403","FINALDATE":"2025-03-09 15:11:28.263","CLASS":"FireSeason","areaHA_geo":3.137},"geometry":{"type":"Polygon","coordinates":[[[-1.668556,50.898522],[-1.668473,50.898863],[-1.668696,50.899095],[-1.669222,50.899216],[-1.670053,50.899228],[-1.670666,50.899196],[-1.671061,50.899122],[-1.671238,50.899004],[-1.671197,50.898844],[-1.671114,50.898708],[-1.670988,50.898598],[-1.670819,50.898512],[-1.670607,50.898451],[-1.670516,50.898371],[-1.670546,50.898272],[-1.670695,50.898154],[-1.670965,50.898017],[-1.671151,50.897868],[-1.671252,50.897706],[-1.671268,50.897533],[-1.671199,50.897348],[-1.671049,50.89723],[-1.670818,50.897178],[-1.670506,50.897192],[-1.670112,50.897273],[-1.669721,50.897447],[-1.669331,50.897713],[-1.668942,50.898071],[-1.668556,50.898522]]]}}