{"type":"Feature","properties":{"id":"266719","COMMUNE":"New Forest","PROVINCE":"Central Hampshire","COUNTRY":"UK","FIREDATE":"2025-03-03 11:46:00","FINALDATE":"2025-03-03 12:10:00","CLASS":"FireSeason","areaHA_geo":5.752},"geometry":{"type":"Polygon","coordinates":[[[-1.704093,50.895454],[-1.704479,50.895325],[-1.704771,50.895144],[-1.704968,50.894912],[-1.70507,50.894627],[-1.70522,50.894385],[-1.70542,50.894186],[-1.705669,50.89403],[-1.705968,50.893918],[-1.706154,50.893796],[-1.70623,50.893664],[-1.706194,50.893524],[-1.706047,50.893374],[-1.705953,50.89324],[-1.705912,50.893121],[-1.705923,50.893016],[-1.705988,50.892928],[-1.706079,50.892836],[-1.706197,50.892742],[-1.706341,50.892645],[-1.706511,50.892545],[-1.706369,50.892522],[-1.705914,50.892575],[-1.705147,50.892705],[-1.704067,50.892911],[-1.703237,50.893139],[-1.702658,50.893391],[-1.70233,50.893664],[-1.702253,50.89396],[-1.702252,50.89419],[-1.702326,50.894354],[-1.702476,50.894452],[-1.702702,50.894484],[-1.702862,50.894577],[-1.702956,50.894732],[-1.702984,50.894949],[-1.702946,50.895227],[-1.703038,50.895417],[-1.703259,50.895518],[-1.703611,50.89553],[-1.704093,50.895454]]]}}