{"type":"Feature","properties":{"id":"266715","COMMUNE":"New Forest","PROVINCE":"Central Hampshire","COUNTRY":"UK","FIREDATE":"2025-03-08 13:31:00","CLASS":"FireSeason","areaHA_geo":2.658},"geometry":{"type":"Polygon","coordinates":[[[-1.700488,50.881365],[-1.70083,50.881536],[-1.701332,50.881581],[-1.701992,50.8815],[-1.70281,50.881293],[-1.703417,50.881087],[-1.703811,50.880882],[-1.703994,50.880678],[-1.703964,50.880475],[-1.703846,50.880312],[-1.703641,50.880189],[-1.703347,50.880106],[-1.702966,50.880063],[-1.702664,50.880073],[-1.70244,50.880137],[-1.702296,50.880254],[-1.702231,50.880426],[-1.70205,50.880551],[-1.701754,50.880629],[-1.701343,50.88066],[-1.700816,50.880645],[-1.700468,50.880708],[-1.700297,50.880849],[-1.700303,50.881068],[-1.700488,50.881365]]]}}