{"type":"Feature","properties":{"id":"266768","COMMUNE":"Powys","PROVINCE":"Powys","COUNTRY":"UK","FIREDATE":"2025-03-18 13:44:00","CLASS":"FireSeason","areaHA_geo":2.49},"geometry":{"type":"Polygon","coordinates":[[[-3.408795,52.114823],[-3.408861,52.114745],[-3.40886,52.114634],[-3.408792,52.114491],[-3.408657,52.114315],[-3.408509,52.114181],[-3.408349,52.114089],[-3.408178,52.114038],[-3.407994,52.114029],[-3.407745,52.113927],[-3.407431,52.113731],[-3.407052,52.113443],[-3.406607,52.113061],[-3.406202,52.11277],[-3.405837,52.11257],[-3.405513,52.112462],[-3.405228,52.112444],[-3.405096,52.112522],[-3.405116,52.112696],[-3.405288,52.112965],[-3.405613,52.113331],[-3.405941,52.113668],[-3.406274,52.113977],[-3.40661,52.114258],[-3.40695,52.114511],[-3.40726,52.114681],[-3.407542,52.11477],[-3.407795,52.114776],[-3.408018,52.1147],[-3.408192,52.114665],[-3.408317,52.114671],[-3.408393,52.114718],[-3.40842,52.114805],[-3.408473,52.11486],[-3.408553,52.114881],[-3.408661,52.114868],[-3.408795,52.114823]]]}}