{"type":"Feature","properties":{"id":"266746","COMMUNE":"New Forest","PROVINCE":"Central Hampshire","COUNTRY":"UK","FIREDATE":"2025-03-31 11:47:00","FINALDATE":"2025-03-31 12:59:00","CLASS":"FireSeason","areaHA_geo":5.506},"geometry":{"type":"Polygon","coordinates":[[[-1.839376,50.858973],[-1.839435,50.858993],[-1.839534,50.859015],[-1.839673,50.859039],[-1.839852,50.859066],[-1.839978,50.85907],[-1.84005,50.859051],[-1.840068,50.85901],[-1.840033,50.858945],[-1.839995,50.858872],[-1.839953,50.858789],[-1.839909,50.858698],[-1.839862,50.858597],[-1.839781,50.858507],[-1.839667,50.858426],[-1.839521,50.858355],[-1.839341,50.858293],[-1.839222,50.858244],[-1.839163,50.858209],[-1.839165,50.858186],[-1.839227,50.858175],[-1.8393,50.858172],[-1.839382,50.858175],[-1.839475,50.858185],[-1.839579,50.858201],[-1.839674,50.858212],[-1.83976,50.858217],[-1.839838,50.858216],[-1.839907,50.858208],[-1.839979,50.858201],[-1.840053,50.858195],[-1.840129,50.858188],[-1.840208,50.858182],[-1.840288,50.858184],[-1.840369,50.858193],[-1.840452,50.85821],[-1.840535,50.858234],[-1.840617,50.858262],[-1.840696,50.858293],[-1.840773,50.858327],[-1.840847,50.858364],[-1.840924,50.858391],[-1.841002,50.858407],[-1.841082,50.858413],[-1.841165,50.858408],[-1.841232,50.858392],[-1.841286,50.858364],[-1.841324,50.858324],[-1.841348,50.858273],[-1.841374,50.858231],[-1.841401,50.858198],[-1.841429,50.858174],[-1.84146,50.858159],[-1.84151,50.858153],[-1.84158,50.858154],[-1.84167,50.858164],[-1.841779,50.858182],[-1.841841,50.858179],[-1.841856,50.858156],[-1.841822,50.858113],[-1.841741,50.858049],[-1.841684,50.857995],[-1.841652,50.857949],[-1.841645,50.857913],[-1.841663,50.857886],[-1.841683,50.857852],[-1.841705,50.857813],[-1.84173,50.857768],[-1.841757,50.857716],[-1.84178,50.857666],[-1.841799,50.857619],[-1.841813,50.857573],[-1.841823,50.857529],[-1.841813,50.857499],[-1.841781,50.857483],[-1.841727,50.85748],[-1.841653,50.857492],[-1.841577,50.857507],[-1.8415,50.857526],[-1.841421,50.857548],[-1.841341,50.857574],[-1.841269,50.857591],[-1.841203,50.8576],[-1.841144,50.8576],[-1.841092,50.857592],[-1.841043,50.857567],[-1.840995,50.857526],[-1.84095,50.857469],[-1.840906,50.857396],[-1.840861,50.857331],[-1.840814,50.857277],[-1.840766,50.857232],[-1.840717,50.857196],[-1.840643,50.857158],[-1.840545,50.857118],[-1.840422,50.857077],[-1.840275,50.857034],[-1.840137,50.856999],[-1.84001,50.856972],[-1.839892,50.856953],[-1.839784,50.856943],[-1.839678,50.856925],[-1.839574,50.856898],[-1.839472,50.856864],[-1.839371,50.856822],[-1.839281,50.856789],[-1.839202,50.856765],[-1.839134,50.85675],[-1.839077,50.856744],[-1.839029,50.856759],[-1.83899,50.856794],[-1.83896,50.85685],[-1.83894,50.856926],[-1.838933,50.856991],[-1.838939,50.857046],[-1.838959,50.857091],[-1.838992,50.857124],[-1.839042,50.857142],[-1.839108,50.857145],[-1.83919,50.857133],[-1.839288,50.857105],[-1.839368,50.85709],[-1.839431,50.857088],[-1.839476,50.857098],[-1.839503,50.85712],[-1.839535,50.85715],[-1.83957,50.857186],[-1.83961,50.857229],[-1.839654,50.857279],[-1.839686,50.857329],[-1.839705,50.85738],[-1.839712,50.857431],[-1.839706,50.857482],[-1.839718,50.857532],[-1.839746,50.857581],[-1.83979,50.857629],[-1.839852,50.857675],[-1.839914,50.857721],[-1.839977,50.857767],[-1.84004,50.857813],[-1.840105,50.857859],[-1.840134,50.857902],[-1.840126,50.857941],[-1.840084,50.857976],[-1.840005,50.858007],[-1.839934,50.858013],[-1.83987,50.857993],[-1.839814,50.857948],[-1.839764,50.857877],[-1.839714,50.857829],[-1.839663,50.857804],[-1.839611,50.857802],[-1.839557,50.857823],[-1.839504,50.857832],[-1.839451,50.857829],[-1.839397,50.857814],[-1.839344,50.857786],[-1.839301,50.857773],[-1.839269,50.857774],[-1.839247,50.85779],[-1.839236,50.85782],[-1.839228,50.857853],[-1.839222,50.857889],[-1.839218,50.857928],[-1.839216,50.857969],[-1.839195,50.857999],[-1.839155,50.858019],[-1.839096,50.858028],[-1.839019,50.858026],[-1.83894,50.858013],[-1.838859,50.857989],[-1.838777,50.857954],[-1.838694,50.857908],[-1.838619,50.85786],[-1.838552,50.857808],[-1.838492,50.857754],[-1.838441,50.857697],[-1.8384,50.857636],[-1.838371,50.857572],[-1.838354,50.857504],[-1.838348,50.857432],[-1.838331,50.857374],[-1.838302,50.857329],[-1.838262,50.857298],[-1.838211,50.85728],[-1.838169,50.857283],[-1.838137,50.857306],[-1.838114,50.857351],[-1.838099,50.857417],[-1.838073,50.857457],[-1.838033,50.857471],[-1.83798,50.857459],[-1.837915,50.857421],[-1.837856,50.857383],[-1.837805,50.857347],[-1.837761,50.857311],[-1.837724,50.857275],[-1.837679,50.857236],[-1.837627,50.857193],[-1.837566,50.857146],[-1.837497,50.857094],[-1.837446,50.857044],[-1.837414,50.856996],[-1.837399,50.856949],[-1.837403,50.856904],[-1.837401,50.856859],[-1.837393,50.856815],[-1.837378,50.856772],[-1.837358,50.856729],[-1.837333,50.856693],[-1.837302,50.856663],[-1.837265,50.856639],[-1.837224,50.856622],[-1.837186,50.8566],[-1.837151,50.856572],[-1.837119,50.856539],[-1.837091,50.856501],[-1.837077,50.856458],[-1.837079,50.856411],[-1.837096,50.856358],[-1.837127,50.8563],[-1.837145,50.856253],[-1.83715,50.856216],[-1.837141,50.85619],[-1.837118,50.856175],[-1.837089,50.856172],[-1.837055,50.85618],[-1.837013,50.8562],[-1.836966,50.856233],[-1.836918,50.856256],[-1.836869,50.856269],[-1.836819,50.856274],[-1.836768,50.85627],[-1.836736,50.856254],[-1.836723,50.856227],[-1.836729,50.856189],[-1.836753,50.856139],[-1.836732,50.856094],[-1.836664,50.856052],[-1.836549,50.856014],[-1.836389,50.85598],[-1.836267,50.855968],[-1.836183,50.855978],[-1.836137,50.856009],[-1.836129,50.856063],[-1.836117,50.856113],[-1.836101,50.856159],[-1.836081,50.856202],[-1.836057,50.856242],[-1.836047,50.856279],[-1.836049,50.856314],[-1.836066,50.856346],[-1.836095,50.856376],[-1.836101,50.856408],[-1.836083,50.856442],[-1.836042,50.856478],[-1.835978,50.856516],[-1.835916,50.856542],[-1.835858,50.856556],[-1.835803,50.856557],[-1.835751,50.856547],[-1.835698,50.856548],[-1.835646,50.85656],[-1.835593,50.856584],[-1.83554,50.856619],[-1.8355,50.856656],[-1.835471,50.856697],[-1.835456,50.856741],[-1.835452,50.856789],[-1.835467,50.856829],[-1.835501,50.856864],[-1.835553,50.856892],[-1.835624,50.856914],[-1.835687,50.856919],[-1.835742,50.856906],[-1.83579,50.856876],[-1.835831,50.856829],[-1.83588,50.85679],[-1.835939,50.856757],[-1.836006,50.856732],[-1.836081,50.856715],[-1.836156,50.856712],[-1.836228,50.856724],[-1.8363,50.856751],[-1.836369,50.856792],[-1.836402,50.85683],[-1.836398,50.856863],[-1.836358,50.856893],[-1.836281,50.856918],[-1.836222,50.85695],[-1.836183,50.856989],[-1.836162,50.857033],[-1.836159,50.857084],[-1.836176,50.85713],[-1.836213,50.85717],[-1.836269,50.857204],[-1.836345,50.857234],[-1.836432,50.857253],[-1.836532,50.857262],[-1.836644,50.857261],[-1.836768,50.85725],[-1.836886,50.857255],[-1.836998,50.857274],[-1.837104,50.857309],[-1.837203,50.857359],[-1.837247,50.85743],[-1.837237,50.857521],[-1.837171,50.857632],[-1.83705,50.857763],[-1.836974,50.857867],[-1.836943,50.857944],[-1.836956,50.857992],[-1.837014,50.858014],[-1.837068,50.858038],[-1.837118,50.858065],[-1.837165,50.858095],[-1.837207,50.858127],[-1.837244,50.858168],[-1.837275,50.858216],[-1.8373,50.858273],[-1.83732,50.858337],[-1.83736,50.858394],[-1.837421,50.858443],[-1.837502,50.858485],[-1.837603,50.858519],[-1.837698,50.858556],[-1.837785,50.858595],[-1.837865,50.858636],[-1.837938,50.858679],[-1.838014,50.858724],[-1.838092,50.85877],[-1.838174,50.858818],[-1.838258,50.858868],[-1.838345,50.858914],[-1.838436,50.858955],[-1.838531,50.858992],[-1.838629,50.859025],[-1.838709,50.85906],[-1.838772,50.859099],[-1.838816,50.85914],[-1.838843,50.859184],[-1.838878,50.859226],[-1.838923,50.859265],[-1.838975,50.859302],[-1.839037,50.859336],[-1.839119,50.859367],[-1.839222,50.859395],[-1.839346,50.859419],[-1.83949,50.859439],[-1.839602,50.859451],[-1.83968,50.859454],[-1.839725,50.85945],[-1.839737,50.859437],[-1.839733,50.859417],[-1.839712,50.859391],[-1.839675,50.859358],[-1.839622,50.859319],[-1.83957,50.859283],[-1.83952,50.85925],[-1.839471,50.85922],[-1.839424,50.859194],[-1.839386,50.859168],[-1.839356,50.859142],[-1.839335,50.859117],[-1.839323,50.859091],[-1.839312,50.859071],[-1.839301,50.859056],[-1.83929,50.859047],[-1.83928,50.859042],[-1.839269,50.859036],[-1.839257,50.859027],[-1.839245,50.859017],[-1.839232,50.859004],[-1.839221,50.858993],[-1.839212,50.858981],[-1.839205,50.85897],[-1.8392,50.85896],[-1.839197,50.858949],[-1.839196,50.858938],[-1.839196,50.858927],[-1.839198,50.858915],[-1.839208,50.858909],[-1.839224,50.858907],[-1.839249,50.85891],[-1.839281,50.858918],[-1.839309,50.858928],[-1.839335,50.858941],[-1.839357,50.858956],[-1.839376,50.858973]]]}}