{"type":"Feature","properties":{"id":"266767","COMMUNE":"Gwynedd","PROVINCE":"Gwynedd","COUNTRY":"UK","FIREDATE":"2025-04-05 13:31:00","FINALDATE":"2025-04-05 13:55:00","CLASS":"FireSeason","areaHA_geo":5.886},"geometry":{"type":"Polygon","coordinates":[[[-4.128579,53.038463],[-4.128794,53.038546],[-4.128966,53.03859],[-4.129096,53.038595],[-4.129184,53.038562],[-4.12923,53.03849],[-4.129279,53.038444],[-4.129332,53.038426],[-4.129388,53.038433],[-4.129448,53.038468],[-4.129506,53.038512],[-4.129562,53.038566],[-4.129616,53.038629],[-4.129668,53.038702],[-4.12974,53.038762],[-4.129832,53.038809],[-4.129944,53.038844],[-4.130077,53.038866],[-4.130212,53.038903],[-4.130351,53.038955],[-4.130493,53.039022],[-4.130638,53.039105],[-4.130771,53.039159],[-4.13089,53.039184],[-4.130997,53.039181],[-4.13109,53.039149],[-4.131204,53.03909],[-4.131339,53.039003],[-4.131494,53.038889],[-4.131669,53.038747],[-4.131823,53.038653],[-4.131957,53.038606],[-4.13207,53.038606],[-4.132162,53.038654],[-4.132202,53.038697],[-4.132191,53.038735],[-4.132128,53.03877],[-4.132013,53.0388],[-4.13193,53.038839],[-4.13188,53.038887],[-4.131862,53.038943],[-4.131877,53.039008],[-4.131875,53.039067],[-4.131859,53.039121],[-4.131826,53.03917],[-4.131778,53.039213],[-4.131767,53.039257],[-4.131792,53.039302],[-4.131854,53.039347],[-4.131953,53.039394],[-4.132082,53.039419],[-4.132243,53.039423],[-4.132435,53.039405],[-4.132658,53.039366],[-4.132858,53.039355],[-4.133033,53.039372],[-4.133185,53.039416],[-4.133313,53.039488],[-4.133442,53.039562],[-4.13357,53.039636],[-4.133699,53.039711],[-4.133829,53.039787],[-4.133934,53.039853],[-4.134015,53.039908],[-4.134071,53.039952],[-4.134103,53.039986],[-4.13411,53.040018],[-4.134093,53.040049],[-4.134051,53.040079],[-4.133984,53.040108],[-4.133966,53.040137],[-4.133996,53.040167],[-4.134076,53.040197],[-4.134204,53.040227],[-4.134284,53.04027],[-4.134316,53.040324],[-4.1343,53.040391],[-4.134235,53.040469],[-4.134222,53.040528],[-4.134259,53.040567],[-4.134347,53.040587],[-4.134486,53.040587],[-4.134601,53.040557],[-4.134692,53.040496],[-4.134759,53.040405],[-4.134802,53.040283],[-4.134828,53.040184],[-4.134838,53.040108],[-4.134831,53.040055],[-4.134807,53.040025],[-4.134796,53.039994],[-4.1348,53.039962],[-4.134817,53.03993],[-4.134848,53.039897],[-4.134847,53.039868],[-4.134814,53.039843],[-4.13475,53.039821],[-4.134654,53.039804],[-4.134593,53.039777],[-4.134567,53.03974],[-4.134576,53.039694],[-4.13462,53.039639],[-4.134624,53.039585],[-4.134589,53.03953],[-4.134514,53.039477],[-4.134399,53.039424],[-4.134251,53.039369],[-4.134069,53.039311],[-4.133853,53.039252],[-4.133603,53.03919],[-4.133439,53.039123],[-4.133359,53.039051],[-4.133365,53.038975],[-4.133456,53.038893],[-4.133549,53.038837],[-4.133643,53.038807],[-4.133739,53.038803],[-4.133836,53.038825],[-4.133947,53.038845],[-4.134071,53.038864],[-4.134209,53.038881],[-4.13436,53.038896],[-4.13448,53.038898],[-4.13457,53.038888],[-4.13463,53.038864],[-4.13466,53.038827],[-4.134687,53.038789],[-4.134712,53.038748],[-4.134734,53.038706],[-4.134754,53.038662],[-4.134736,53.038603],[-4.13468,53.038528],[-4.134586,53.038439],[-4.134454,53.038334],[-4.134313,53.038242],[-4.134162,53.038164],[-4.134002,53.0381],[-4.133833,53.03805],[-4.133659,53.038007],[-4.133481,53.037972],[-4.133298,53.037944],[-4.133111,53.037925],[-4.132931,53.037896],[-4.132759,53.037859],[-4.132594,53.037812],[-4.132437,53.037755],[-4.132271,53.037725],[-4.132096,53.037721],[-4.131912,53.037743],[-4.13172,53.037791],[-4.131517,53.037818],[-4.131304,53.037824],[-4.131081,53.03781],[-4.130847,53.037776],[-4.130628,53.037748],[-4.130423,53.037726],[-4.130232,53.037711],[-4.130056,53.037703],[-4.129874,53.037704],[-4.129686,53.037714],[-4.129493,53.037732],[-4.129294,53.03776],[-4.129083,53.037801],[-4.128861,53.037854],[-4.128628,53.03792],[-4.128384,53.037999],[-4.128215,53.038072],[-4.128123,53.038139],[-4.128107,53.038201],[-4.128167,53.038256],[-4.128265,53.038318],[-4.128403,53.038387],[-4.128579,53.038463]]]}}