{"type":"Feature","properties":{"id":"266866","COMMUNE":"Mid Ulster","PROVINCE":"Mid Ulster","COUNTRY":"UK","FIREDATE":"2025-03-18 14:10:00","CLASS":"FireSeason","areaHA_geo":3.301},"geometry":{"type":"Polygon","coordinates":[[[-7.342808,54.43741],[-7.342776,54.437622],[-7.342783,54.437762],[-7.342828,54.437829],[-7.342913,54.437822],[-7.343,54.437833],[-7.343091,54.437863],[-7.343184,54.43791],[-7.34328,54.437975],[-7.34339,54.438004],[-7.343513,54.437998],[-7.34365,54.437956],[-7.343802,54.437878],[-7.343998,54.437656],[-7.344239,54.43729],[-7.344524,54.436781],[-7.344855,54.436127],[-7.345094,54.435587],[-7.345241,54.435162],[-7.345296,54.43485],[-7.34526,54.434653],[-7.345215,54.434508],[-7.34516,54.434415],[-7.345096,54.434373],[-7.345023,54.434384],[-7.344949,54.434421],[-7.344875,54.434485],[-7.344799,54.434576],[-7.344724,54.434693],[-7.344588,54.43479],[-7.344392,54.434865],[-7.344137,54.43492],[-7.343821,54.434954],[-7.343574,54.435007],[-7.343397,54.43508],[-7.343289,54.435173],[-7.343249,54.435285],[-7.343256,54.43539],[-7.343307,54.435486],[-7.343403,54.435575],[-7.343545,54.435656],[-7.34364,54.435759],[-7.343689,54.435884],[-7.343692,54.436031],[-7.343648,54.4362],[-7.343578,54.436342],[-7.343482,54.436457],[-7.343359,54.436545],[-7.34321,54.436606],[-7.343081,54.436722],[-7.342971,54.436895],[-7.34288,54.437125],[-7.342808,54.43741]]]}}