{"type":"Feature","properties":{"id":"266862","COMMUNE":"Mid Ulster","PROVINCE":"Mid Ulster","COUNTRY":"UK","FIREDATE":"2025-03-18 14:10:00","FINALDATE":"2025-03-19 14:10:00","CLASS":"FireSeason","areaHA_geo":4.758},"geometry":{"type":"Polygon","coordinates":[[[-7.355174,54.434495],[-7.355195,54.434595],[-7.355331,54.434651],[-7.355582,54.434665],[-7.355948,54.434635],[-7.35626,54.43469],[-7.35652,54.43483],[-7.356726,54.435055],[-7.356879,54.435364],[-7.357092,54.435623],[-7.357366,54.435831],[-7.357701,54.435989],[-7.358097,54.436095],[-7.358383,54.436185],[-7.35856,54.436258],[-7.358628,54.436314],[-7.358587,54.436354],[-7.358573,54.436422],[-7.358585,54.436518],[-7.358624,54.436644],[-7.358691,54.436797],[-7.358757,54.4369],[-7.358823,54.436952],[-7.358889,54.436954],[-7.358956,54.436905],[-7.359059,54.436874],[-7.359198,54.436859],[-7.359374,54.436862],[-7.359587,54.436883],[-7.359706,54.436871],[-7.359731,54.436828],[-7.359663,54.436754],[-7.359501,54.436648],[-7.359366,54.436538],[-7.359258,54.436424],[-7.359179,54.436306],[-7.359126,54.436184],[-7.359039,54.436073],[-7.358918,54.435972],[-7.358763,54.435882],[-7.358573,54.435802],[-7.358408,54.435729],[-7.358267,54.435662],[-7.358151,54.435601],[-7.35806,54.435547],[-7.358047,54.435477],[-7.358112,54.435392],[-7.358256,54.435292],[-7.358478,54.435176],[-7.358641,54.435023],[-7.358744,54.434834],[-7.358788,54.434609],[-7.358772,54.434347],[-7.35873,54.434137],[-7.358662,54.433978],[-7.358567,54.433871],[-7.358446,54.433815],[-7.358296,54.43376],[-7.358118,54.433707],[-7.357911,54.433655],[-7.357675,54.433605],[-7.357476,54.433553],[-7.357312,54.4335],[-7.357185,54.433447],[-7.357093,54.433393],[-7.356916,54.433365],[-7.356653,54.433363],[-7.356304,54.433387],[-7.355869,54.433438],[-7.355551,54.433499],[-7.355348,54.43357],[-7.355262,54.433651],[-7.355291,54.433742],[-7.355359,54.433816],[-7.355466,54.433871],[-7.35561,54.433908],[-7.355793,54.433926],[-7.355889,54.433952],[-7.355898,54.433985],[-7.35582,54.434024],[-7.355656,54.43407],[-7.355509,54.43414],[-7.355379,54.434234],[-7.355268,54.434353],[-7.355174,54.434495]]]}}