{"type":"Feature","properties":{"id":"266896","COMMUNE":"Causeway Coast and Glens","PROVINCE":"Causeway Coast and Glens","COUNTRY":"UK","FIREDATE":"2025-04-05 12:17:00","FINALDATE":"2025-04-05 12:17:00","CLASS":"FireSeason","areaHA_geo":6.263},"geometry":{"type":"Polygon","coordinates":[[[-6.815391,54.898733],[-6.815448,54.898762],[-6.815539,54.898766],[-6.815665,54.898745],[-6.815825,54.898699],[-6.815962,54.898672],[-6.816077,54.898664],[-6.81617,54.898676],[-6.816241,54.898707],[-6.816351,54.898729],[-6.816499,54.898742],[-6.816687,54.898745],[-6.816914,54.898738],[-6.81711,54.898721],[-6.817273,54.898692],[-6.817405,54.898653],[-6.817506,54.898602],[-6.817583,54.898522],[-6.817637,54.898412],[-6.817668,54.898272],[-6.817675,54.898103],[-6.817702,54.897954],[-6.817748,54.897827],[-6.817814,54.89772],[-6.8179,54.897635],[-6.817962,54.897555],[-6.817999,54.897483],[-6.818012,54.897416],[-6.818001,54.897356],[-6.817979,54.89729],[-6.817945,54.897219],[-6.8179,54.897142],[-6.817843,54.897059],[-6.81775,54.896979],[-6.81762,54.8969],[-6.817453,54.896823],[-6.817249,54.896749],[-6.817104,54.896691],[-6.817019,54.896652],[-6.816994,54.89663],[-6.817028,54.896625],[-6.817056,54.896603],[-6.817079,54.896563],[-6.817095,54.896505],[-6.817107,54.896429],[-6.817157,54.896355],[-6.817248,54.896281],[-6.817379,54.896207],[-6.817549,54.896135],[-6.817599,54.896016],[-6.817529,54.895851],[-6.817339,54.89564],[-6.81703,54.895383],[-6.81678,54.895161],[-6.81659,54.894976],[-6.81646,54.894826],[-6.816391,54.894713],[-6.816327,54.894629],[-6.816268,54.894575],[-6.816215,54.894552],[-6.816168,54.894558],[-6.816123,54.894588],[-6.816081,54.894641],[-6.816041,54.894717],[-6.816004,54.894817],[-6.815939,54.89487],[-6.815845,54.894876],[-6.815722,54.894837],[-6.815571,54.894751],[-6.81543,54.894677],[-6.8153,54.894614],[-6.81518,54.894564],[-6.815071,54.894526],[-6.814979,54.89447],[-6.814905,54.894398],[-6.81485,54.894309],[-6.814812,54.894204],[-6.814752,54.894121],[-6.814669,54.89406],[-6.814563,54.894022],[-6.814435,54.894007],[-6.814379,54.894103],[-6.814395,54.89431],[-6.814483,54.894629],[-6.814643,54.895058],[-6.814789,54.895377],[-6.81492,54.895585],[-6.815036,54.895682],[-6.815138,54.895668],[-6.815238,54.895663],[-6.815336,54.895666],[-6.815432,54.895677],[-6.815527,54.895697],[-6.815588,54.895731],[-6.815615,54.895778],[-6.815609,54.89584],[-6.815569,54.895915],[-6.81551,54.895975],[-6.815432,54.896021],[-6.815336,54.896052],[-6.815221,54.896067],[-6.815143,54.8961],[-6.815104,54.896151],[-6.815102,54.896219],[-6.815138,54.896304],[-6.815195,54.896379],[-6.815272,54.896442],[-6.815369,54.896495],[-6.815487,54.896536],[-6.815558,54.896597],[-6.815581,54.896678],[-6.815558,54.896779],[-6.815487,54.896899],[-6.815459,54.897068],[-6.815476,54.897286],[-6.815537,54.897551],[-6.815641,54.897866],[-6.81569,54.898118],[-6.815684,54.898307],[-6.815623,54.898435],[-6.815507,54.8985],[-6.815426,54.898562],[-6.81538,54.898622],[-6.815368,54.898679],[-6.815391,54.898733]]]}}