{"type":"Feature","properties":{"id":"266873","COMMUNE":"Mid Ulster","PROVINCE":"Mid Ulster","COUNTRY":"UK","FIREDATE":"2025-03-18 13:40:00","CLASS":"FireSeason","areaHA_geo":0.6},"geometry":{"type":"Polygon","coordinates":[[[-7.301108,54.433138],[-7.30125,54.433253],[-7.301365,54.433317],[-7.301455,54.433329],[-7.30152,54.433291],[-7.301584,54.433235],[-7.301649,54.433162],[-7.301713,54.433071],[-7.301778,54.432962],[-7.301741,54.432822],[-7.301604,54.432648],[-7.301365,54.432443],[-7.301026,54.432205],[-7.300766,54.432061],[-7.300585,54.43201],[-7.300484,54.432054],[-7.300462,54.432191],[-7.300475,54.432296],[-7.300524,54.432368],[-7.300608,54.432407],[-7.300727,54.432414],[-7.300802,54.432437],[-7.300835,54.432478],[-7.300824,54.432536],[-7.300771,54.43261],[-7.300772,54.432708],[-7.300829,54.432829],[-7.300941,54.432972],[-7.301108,54.433138]]]}}