{"type":"Feature","properties":{"id":"266869","COMMUNE":"Mid Ulster","PROVINCE":"Mid Ulster","COUNTRY":"UK","FIREDATE":"2025-03-18 10:51:02.582","FINALDATE":"2025-03-19 10:51:07.311","CLASS":"FireSeason","areaHA_geo":3.529},"geometry":{"type":"Polygon","coordinates":[[[-7.330098,54.422261],[-7.330597,54.422632],[-7.331078,54.422892],[-7.33154,54.423041],[-7.331984,54.423079],[-7.332274,54.423043],[-7.332412,54.422934],[-7.332396,54.422751],[-7.332227,54.422494],[-7.332133,54.422267],[-7.332111,54.422071],[-7.332164,54.421905],[-7.33229,54.421769],[-7.332373,54.421652],[-7.332413,54.421553],[-7.33241,54.421473],[-7.332365,54.421413],[-7.332298,54.421381],[-7.33221,54.42138],[-7.332101,54.421408],[-7.33197,54.421466],[-7.331829,54.421493],[-7.331677,54.421489],[-7.331514,54.421455],[-7.33134,54.42139],[-7.331179,54.421348],[-7.331031,54.42133],[-7.330895,54.421336],[-7.330771,54.421364],[-7.330672,54.42136],[-7.330598,54.421323],[-7.330548,54.421253],[-7.330523,54.42115],[-7.330368,54.421008],[-7.330081,54.420826],[-7.329664,54.420606],[-7.329115,54.420347],[-7.328736,54.420222],[-7.328526,54.420229],[-7.328484,54.42037],[-7.328612,54.420644],[-7.328837,54.42097],[-7.329159,54.421348],[-7.32958,54.421778],[-7.330098,54.422261]]]}}