{"type":"Feature","properties":{"id":"266897","COMMUNE":"Causeway Coast and Glens","PROVINCE":"Causeway Coast and Glens","COUNTRY":"UK","FIREDATE":"2025-04-05 12:17:00","FINALDATE":"2025-04-05 12:17:00","CLASS":"FireSeason","areaHA_geo":4.978},"geometry":{"type":"Polygon","coordinates":[[[-6.812032,54.901919],[-6.811941,54.901841],[-6.811823,54.901774],[-6.811678,54.901718],[-6.811504,54.901673],[-6.811303,54.901639],[-6.811185,54.901605],[-6.81115,54.901573],[-6.811198,54.901542],[-6.811329,54.901512],[-6.81146,54.901491],[-6.811591,54.901479],[-6.811723,54.901476],[-6.811855,54.901483],[-6.811979,54.901506],[-6.812096,54.901546],[-6.812206,54.901601],[-6.812308,54.901674],[-6.812437,54.901733],[-6.812593,54.901779],[-6.812776,54.901813],[-6.812986,54.901833],[-6.813172,54.901845],[-6.813334,54.901847],[-6.813473,54.901841],[-6.813589,54.901825],[-6.813569,54.901723],[-6.813414,54.901535],[-6.813124,54.90126],[-6.812698,54.9009],[-6.812349,54.900624],[-6.812074,54.900434],[-6.811876,54.900329],[-6.811752,54.900308],[-6.81163,54.900283],[-6.81151,54.900252],[-6.81139,54.900216],[-6.811272,54.900175],[-6.811149,54.90013],[-6.811021,54.900082],[-6.810888,54.90003],[-6.81075,54.899975],[-6.810692,54.899939],[-6.810713,54.899922],[-6.810814,54.899923],[-6.810995,54.899944],[-6.811144,54.899943],[-6.81126,54.899921],[-6.811344,54.899878],[-6.811396,54.899813],[-6.811377,54.899739],[-6.811287,54.899655],[-6.811127,54.89956],[-6.810897,54.899456],[-6.810672,54.899404],[-6.810453,54.899403],[-6.810239,54.899454],[-6.810031,54.899556],[-6.80987,54.899657],[-6.809754,54.899757],[-6.809685,54.899856],[-6.809661,54.899954],[-6.809627,54.900033],[-6.809581,54.900095],[-6.809524,54.900139],[-6.809456,54.900165],[-6.809397,54.900206],[-6.809345,54.900262],[-6.809302,54.900333],[-6.809267,54.90042],[-6.809204,54.900498],[-6.809115,54.900565],[-6.808997,54.900623],[-6.808853,54.900672],[-6.808721,54.900734],[-6.808603,54.90081],[-6.808497,54.900899],[-6.808404,54.901002],[-6.808387,54.901097],[-6.808445,54.901183],[-6.808579,54.901262],[-6.808788,54.901332],[-6.808968,54.901381],[-6.80912,54.901409],[-6.809244,54.901417],[-6.809338,54.901404],[-6.809492,54.901428],[-6.809705,54.90149],[-6.809976,54.901588],[-6.810306,54.901724],[-6.810597,54.90184],[-6.81085,54.901937],[-6.811064,54.902014],[-6.811239,54.902072],[-6.811394,54.902107],[-6.811527,54.902117],[-6.81164,54.902104],[-6.811732,54.902066],[-6.811819,54.90204],[-6.811903,54.902025],[-6.811981,54.90202],[-6.812056,54.902026],[-6.812089,54.902011],[-6.812081,54.901976],[-6.812032,54.901919]]]}}