{"type":"Feature","properties":{"id":"266865","COMMUNE":"Mid Ulster","PROVINCE":"Mid Ulster","COUNTRY":"UK","FIREDATE":"2025-03-11 13:01:00","FINALDATE":"2025-03-11 13:01:00","CLASS":"FireSeason","areaHA_geo":2.511},"geometry":{"type":"Polygon","coordinates":[[[-7.329589,54.439751],[-7.32969,54.439834],[-7.329846,54.43987],[-7.330058,54.439861],[-7.330326,54.439806],[-7.330587,54.439773],[-7.330839,54.439763],[-7.331085,54.439774],[-7.331323,54.439808],[-7.331529,54.439813],[-7.331704,54.439791],[-7.331848,54.439741],[-7.33196,54.439664],[-7.332085,54.439616],[-7.332224,54.439599],[-7.332375,54.439613],[-7.33254,54.439657],[-7.332694,54.439687],[-7.332837,54.439703],[-7.332969,54.439705],[-7.33309,54.439694],[-7.333194,54.439637],[-7.333282,54.439534],[-7.333352,54.439387],[-7.333405,54.439194],[-7.333434,54.439046],[-7.333438,54.438945],[-7.333419,54.438888],[-7.333376,54.438878],[-7.333338,54.438848],[-7.333308,54.438799],[-7.333283,54.438731],[-7.333265,54.438643],[-7.333213,54.438607],[-7.333127,54.438622],[-7.333008,54.438688],[-7.332854,54.438806],[-7.332711,54.438902],[-7.332578,54.438977],[-7.332456,54.439031],[-7.332343,54.439064],[-7.332132,54.43911],[-7.331822,54.439168],[-7.331413,54.439239],[-7.330905,54.439322],[-7.330637,54.439348],[-7.330608,54.439315],[-7.330819,54.439225],[-7.33127,54.439076],[-7.331639,54.438934],[-7.331925,54.438798],[-7.332129,54.438668],[-7.332251,54.438544],[-7.332391,54.438411],[-7.332549,54.438271],[-7.332725,54.438122],[-7.33292,54.437965],[-7.333052,54.437825],[-7.333121,54.437703],[-7.333127,54.437599],[-7.33307,54.437511],[-7.332945,54.43752],[-7.332753,54.437627],[-7.332492,54.437829],[-7.332165,54.438129],[-7.331866,54.438371],[-7.331595,54.438555],[-7.331354,54.438683],[-7.331141,54.438752],[-7.330897,54.43884],[-7.330622,54.438947],[-7.330316,54.439072],[-7.32998,54.439215],[-7.329739,54.439355],[-7.329593,54.439491],[-7.329543,54.439623],[-7.329589,54.439751]]]}}