{"type":"Feature","properties":{"id":"266888","COMMUNE":"Causeway Coast and Glens","PROVINCE":"Causeway Coast and Glens","COUNTRY":"UK","FIREDATE":"2025-04-06 13:36:00","FINALDATE":"2025-04-06 14:31:00","CLASS":"FireSeason","areaHA_geo":35.249},"geometry":{"type":"Polygon","coordinates":[[[-6.531942,55.125017],[-6.53231,55.125088],[-6.532623,55.125083],[-6.532881,55.125003],[-6.533083,55.124847],[-6.533206,55.124716],[-6.53325,55.124609],[-6.533215,55.124525],[-6.533101,55.124467],[-6.533019,55.124412],[-6.532967,55.124363],[-6.532947,55.124318],[-6.532957,55.124277],[-6.533013,55.124243],[-6.533113,55.124214],[-6.533259,55.12419],[-6.533451,55.124172],[-6.533604,55.124179],[-6.53372,55.12421],[-6.533798,55.124266],[-6.533839,55.124347],[-6.533834,55.124447],[-6.533785,55.124566],[-6.533691,55.124705],[-6.533552,55.124864],[-6.533491,55.124985],[-6.533508,55.125066],[-6.533603,55.125109],[-6.533776,55.125113],[-6.533907,55.125093],[-6.533994,55.125048],[-6.534038,55.124979],[-6.53404,55.124885],[-6.534055,55.124806],[-6.534083,55.124742],[-6.534124,55.124692],[-6.534178,55.124658],[-6.534246,55.124629],[-6.534329,55.124606],[-6.534427,55.12459],[-6.534539,55.124578],[-6.534639,55.124564],[-6.534727,55.124546],[-6.534804,55.124525],[-6.534869,55.124501],[-6.534953,55.124484],[-6.535055,55.124474],[-6.535175,55.124472],[-6.535314,55.124477],[-6.535429,55.124469],[-6.53552,55.124449],[-6.535587,55.124417],[-6.53563,55.124372],[-6.535597,55.124325],[-6.535487,55.124275],[-6.535301,55.124223],[-6.535038,55.124169],[-6.53481,55.124107],[-6.534618,55.12404],[-6.53446,55.123965],[-6.534337,55.123884],[-6.534276,55.12382],[-6.534277,55.123773],[-6.534339,55.123744],[-6.534464,55.123731],[-6.534554,55.123713],[-6.53461,55.12369],[-6.53463,55.123662],[-6.534616,55.123629],[-6.534653,55.123613],[-6.534739,55.123615],[-6.534876,55.123635],[-6.535063,55.123672],[-6.535202,55.123674],[-6.535294,55.12364],[-6.535339,55.123571],[-6.535336,55.123466],[-6.535434,55.123409],[-6.535632,55.1234],[-6.535931,55.123439],[-6.53633,55.123526],[-6.536665,55.123561],[-6.536935,55.123544],[-6.537141,55.123476],[-6.537283,55.123356],[-6.537349,55.123277],[-6.53734,55.123239],[-6.537256,55.123242],[-6.537096,55.123287],[-6.536933,55.123306],[-6.536766,55.123299],[-6.536595,55.123266],[-6.536419,55.123208],[-6.536333,55.123165],[-6.536335,55.123137],[-6.536426,55.123125],[-6.536605,55.123129],[-6.536731,55.12311],[-6.536803,55.123069],[-6.536821,55.123006],[-6.536786,55.122921],[-6.536788,55.122859],[-6.53683,55.122818],[-6.536909,55.122799],[-6.537027,55.122803],[-6.537144,55.12278],[-6.53726,55.122729],[-6.537374,55.122651],[-6.537488,55.122547],[-6.537584,55.122445],[-6.537663,55.122347],[-6.537724,55.122252],[-6.537768,55.12216],[-6.537819,55.12211],[-6.537876,55.1221],[-6.537941,55.122131],[-6.538012,55.122204],[-6.538106,55.12226],[-6.538222,55.122301],[-6.538361,55.122326],[-6.538523,55.122336],[-6.538687,55.122294],[-6.538853,55.122199],[-6.539021,55.122053],[-6.539191,55.121855],[-6.539275,55.121703],[-6.539272,55.121598],[-6.539182,55.12154],[-6.539006,55.121529],[-6.538883,55.121503],[-6.538812,55.121464],[-6.538793,55.121411],[-6.538826,55.121344],[-6.538889,55.121284],[-6.538979,55.121231],[-6.539099,55.121185],[-6.539246,55.121146],[-6.539347,55.121099],[-6.5394,55.121045],[-6.539405,55.120984],[-6.539362,55.120916],[-6.539272,55.12086],[-6.539134,55.120816],[-6.538948,55.120784],[-6.538714,55.120765],[-6.538519,55.12073],[-6.538365,55.120681],[-6.538251,55.120616],[-6.538176,55.120537],[-6.537994,55.120445],[-6.537704,55.120341],[-6.537307,55.120226],[-6.536801,55.120099],[-6.536391,55.119982],[-6.536076,55.119876],[-6.535856,55.119781],[-6.535732,55.119696],[-6.535583,55.119619],[-6.535411,55.119551],[-6.535214,55.11949],[-6.534994,55.119438],[-6.534794,55.119407],[-6.534616,55.119398],[-6.534458,55.11941],[-6.534322,55.119444],[-6.534136,55.119439],[-6.533902,55.119394],[-6.533619,55.11931],[-6.533286,55.119187],[-6.533012,55.119088],[-6.532796,55.119014],[-6.532638,55.118964],[-6.532538,55.118938],[-6.532443,55.118899],[-6.532353,55.118847],[-6.532267,55.118781],[-6.532186,55.118702],[-6.532071,55.118648],[-6.531921,55.118617],[-6.531737,55.11861],[-6.531518,55.118628],[-6.53131,55.118622],[-6.531113,55.118592],[-6.530926,55.118538],[-6.53075,55.11846],[-6.530577,55.118409],[-6.53041,55.118384],[-6.530246,55.118387],[-6.530087,55.118416],[-6.529891,55.118437],[-6.529657,55.118451],[-6.529386,55.118457],[-6.529077,55.118455],[-6.528704,55.118423],[-6.528267,55.118361],[-6.527766,55.118268],[-6.527201,55.118145],[-6.526776,55.118079],[-6.526492,55.11807],[-6.526348,55.118119],[-6.526344,55.118224],[-6.526322,55.118314],[-6.52628,55.118388],[-6.526221,55.118446],[-6.526142,55.118487],[-6.526042,55.118562],[-6.525919,55.11867],[-6.525775,55.118811],[-6.525608,55.118985],[-6.525516,55.119122],[-6.5255,55.119222],[-6.525559,55.119284],[-6.525692,55.119309],[-6.525826,55.119294],[-6.52596,55.119237],[-6.526093,55.119139],[-6.526227,55.119],[-6.526334,55.118908],[-6.526414,55.118862],[-6.526467,55.118863],[-6.526494,55.11891],[-6.526548,55.118958],[-6.526631,55.119008],[-6.526741,55.119058],[-6.526879,55.11911],[-6.526997,55.119163],[-6.527096,55.119218],[-6.527174,55.119275],[-6.527233,55.119334],[-6.527205,55.119385],[-6.52709,55.11943],[-6.526888,55.119467],[-6.5266,55.119498],[-6.526397,55.119538],[-6.526281,55.119587],[-6.52625,55.119644],[-6.526306,55.119711],[-6.526378,55.119777],[-6.526467,55.119843],[-6.526573,55.119909],[-6.526697,55.119974],[-6.526808,55.120003],[-6.526908,55.119996],[-6.526995,55.119952],[-6.527071,55.119872],[-6.527149,55.119825],[-6.52723,55.119812],[-6.527312,55.119834],[-6.527397,55.119889],[-6.527508,55.119954],[-6.527646,55.120029],[-6.52781,55.120114],[-6.528,55.120209],[-6.528161,55.120286],[-6.528291,55.120345],[-6.528392,55.120385],[-6.528463,55.120407],[-6.528517,55.120439],[-6.528555,55.12048],[-6.528577,55.120532],[-6.528582,55.120594],[-6.528611,55.120641],[-6.528663,55.120675],[-6.528738,55.120696],[-6.528836,55.120702],[-6.528939,55.12068],[-6.529045,55.120631],[-6.529155,55.120554],[-6.529268,55.120449],[-6.529344,55.120398],[-6.529383,55.120401],[-6.529384,55.120457],[-6.529348,55.120567],[-6.529316,55.120674],[-6.529287,55.120777],[-6.529262,55.120877],[-6.529241,55.120973],[-6.529181,55.121047],[-6.529082,55.121097],[-6.528945,55.121124],[-6.528768,55.121128],[-6.528614,55.12111],[-6.52848,55.121069],[-6.528368,55.121006],[-6.528278,55.120921],[-6.528186,55.120869],[-6.528092,55.12085],[-6.527997,55.120865],[-6.527901,55.120913],[-6.527823,55.120984],[-6.527764,55.12108],[-6.527723,55.1212],[-6.527701,55.121343],[-6.527725,55.121462],[-6.527795,55.121555],[-6.527912,55.121625],[-6.528074,55.121669],[-6.528206,55.121683],[-6.528309,55.121665],[-6.528381,55.121617],[-6.528423,55.121537],[-6.528484,55.121475],[-6.528565,55.121431],[-6.528665,55.121405],[-6.528785,55.121397],[-6.528886,55.121433],[-6.528968,55.121514],[-6.52903,55.121639],[-6.529074,55.121808],[-6.529151,55.121916],[-6.529263,55.121962],[-6.529408,55.121945],[-6.529588,55.121866],[-6.529726,55.121829],[-6.529824,55.121834],[-6.529881,55.12188],[-6.529897,55.121967],[-6.529939,55.122058],[-6.530006,55.122153],[-6.530098,55.12225],[-6.530216,55.122352],[-6.530242,55.122423],[-6.530177,55.122465],[-6.530022,55.122477],[-6.529775,55.122459],[-6.529509,55.122418],[-6.529225,55.122353],[-6.528922,55.122263],[-6.528601,55.12215],[-6.528311,55.122071],[-6.528052,55.122026],[-6.527825,55.122014],[-6.527629,55.122037],[-6.527469,55.122083],[-6.527344,55.122155],[-6.527256,55.12225],[-6.527203,55.12237],[-6.527195,55.122441],[-6.527231,55.122461],[-6.527311,55.122432],[-6.527436,55.122353],[-6.527553,55.122301],[-6.527662,55.122277],[-6.527765,55.12228],[-6.52786,55.12231],[-6.52798,55.122337],[-6.528127,55.12236],[-6.5283,55.12238],[-6.528498,55.122396],[-6.52863,55.122444],[-6.528694,55.122523],[-6.52869,55.122634],[-6.52862,55.122776],[-6.52859,55.122885],[-6.528601,55.122961],[-6.528654,55.123005],[-6.528748,55.123016],[-6.528835,55.123049],[-6.528916,55.123104],[-6.528992,55.123182],[-6.529061,55.123282],[-6.529147,55.123349],[-6.529251,55.123384],[-6.529372,55.123386],[-6.52951,55.123356],[-6.529624,55.123359],[-6.529714,55.123393],[-6.52978,55.123461],[-6.529821,55.12356],[-6.529885,55.123613],[-6.529969,55.123619],[-6.530076,55.123579],[-6.530203,55.123492],[-6.530328,55.12343],[-6.53045,55.123394],[-6.530569,55.123384],[-6.530686,55.1234],[-6.530796,55.123409],[-6.5309,55.123413],[-6.530998,55.123411],[-6.531091,55.123402],[-6.531202,55.123414],[-6.531331,55.123445],[-6.531479,55.123496],[-6.531646,55.123568],[-6.53175,55.12364],[-6.531791,55.123712],[-6.531768,55.123785],[-6.531683,55.123859],[-6.53159,55.123908],[-6.53149,55.123931],[-6.531383,55.123928],[-6.531269,55.123901],[-6.531159,55.123859],[-6.531053,55.123803],[-6.530952,55.123733],[-6.530855,55.123648],[-6.53076,55.123589],[-6.530666,55.123554],[-6.530575,55.123545],[-6.530486,55.123561],[-6.530466,55.123608],[-6.530516,55.123685],[-6.530634,55.123793],[-6.530823,55.123931],[-6.53095,55.124067],[-6.531016,55.124201],[-6.531021,55.124332],[-6.530965,55.12446],[-6.531029,55.124593],[-6.531214,55.12473],[-6.531518,55.124871],[-6.531942,55.125017]]]}}