{"type":"Feature","properties":{"id":"266907","COMMUNE":"Newry, Mourne and Down","PROVINCE":"Newry, Mourne and Down","COUNTRY":"UK","FIREDATE":"2025-04-04 11:18:42.456","CLASS":"FireSeason","areaHA_geo":96.072},"geometry":{"type":"Polygon","coordinates":[[[-6.144136,54.155123],[-6.14447,54.155094],[-6.144707,54.15503],[-6.144847,54.154931],[-6.144889,54.154795],[-6.145028,54.154635],[-6.145266,54.154451],[-6.1456,54.154242],[-6.146033,54.154008],[-6.146327,54.153786],[-6.146482,54.153575],[-6.146498,54.153376],[-6.146377,54.153188],[-6.146451,54.152995],[-6.146723,54.152797],[-6.147191,54.152593],[-6.147856,54.152384],[-6.148443,54.152202],[-6.148954,54.152046],[-6.149388,54.151916],[-6.149745,54.151813],[-6.150025,54.151708],[-6.15023,54.151602],[-6.150358,54.151495],[-6.150411,54.151386],[-6.150428,54.151279],[-6.150411,54.151175],[-6.150359,54.151073],[-6.150271,54.150973],[-6.150193,54.150866],[-6.150123,54.15075],[-6.150062,54.150626],[-6.15001,54.150494],[-6.149823,54.150403],[-6.149501,54.150353],[-6.149045,54.150344],[-6.148453,54.150377],[-6.147857,54.150377],[-6.147257,54.150346],[-6.146651,54.150283],[-6.146041,54.150188],[-6.145513,54.150098],[-6.145066,54.150014],[-6.144701,54.149935],[-6.144418,54.149862],[-6.14417,54.149809],[-6.143959,54.149777],[-6.143784,54.149766],[-6.143644,54.149775],[-6.143569,54.149727],[-6.14356,54.149622],[-6.143615,54.149459],[-6.143734,54.149239],[-6.143864,54.149034],[-6.144004,54.148844],[-6.144153,54.148669],[-6.144312,54.148509],[-6.144448,54.148449],[-6.144559,54.14849],[-6.144647,54.148631],[-6.144711,54.148873],[-6.144851,54.149037],[-6.145068,54.149124],[-6.145362,54.149134],[-6.145733,54.149066],[-6.146049,54.148991],[-6.146311,54.14891],[-6.146519,54.148822],[-6.146673,54.148728],[-6.146731,54.148613],[-6.146694,54.148479],[-6.146561,54.148325],[-6.146334,54.148152],[-6.146188,54.148004],[-6.146124,54.147883],[-6.146142,54.147788],[-6.146242,54.147719],[-6.146357,54.147699],[-6.146488,54.147728],[-6.146634,54.147806],[-6.146796,54.147932],[-6.147023,54.148016],[-6.147317,54.148055],[-6.147677,54.148051],[-6.148104,54.148004],[-6.148401,54.147941],[-6.148569,54.147863],[-6.148608,54.14777],[-6.148517,54.147662],[-6.148477,54.147581],[-6.148488,54.147529],[-6.14855,54.147504],[-6.148663,54.147508],[-6.148807,54.14754],[-6.148981,54.1476],[-6.149187,54.147688],[-6.149424,54.147805],[-6.149639,54.147864],[-6.14983,54.147867],[-6.149999,54.147812],[-6.150146,54.1477],[-6.150143,54.147561],[-6.14999,54.147396],[-6.149688,54.147204],[-6.149236,54.146986],[-6.14884,54.146819],[-6.148499,54.146702],[-6.148215,54.146636],[-6.147986,54.14662],[-6.147915,54.146451],[-6.148003,54.146129],[-6.148248,54.145653],[-6.148651,54.145025],[-6.148987,54.144517],[-6.149255,54.144129],[-6.149455,54.143861],[-6.149588,54.143714],[-6.149736,54.143567],[-6.149901,54.14342],[-6.150081,54.143273],[-6.150278,54.143126],[-6.150514,54.143071],[-6.150791,54.143109],[-6.151109,54.143238],[-6.151467,54.143459],[-6.151877,54.143643],[-6.152341,54.14379],[-6.152857,54.143899],[-6.153426,54.143972],[-6.153981,54.144028],[-6.154521,54.144067],[-6.155047,54.14409],[-6.155558,54.144096],[-6.155916,54.144076],[-6.15612,54.14403],[-6.156171,54.143958],[-6.156069,54.143861],[-6.156013,54.14375],[-6.156004,54.143626],[-6.156041,54.143489],[-6.156125,54.143339],[-6.156065,54.143268],[-6.155862,54.143277],[-6.155515,54.143365],[-6.155025,54.143532],[-6.154615,54.143651],[-6.154286,54.143723],[-6.154037,54.143747],[-6.153868,54.143723],[-6.153633,54.143671],[-6.153331,54.143591],[-6.152962,54.143482],[-6.152527,54.143346],[-6.152164,54.143192],[-6.151874,54.143022],[-6.151657,54.142836],[-6.151513,54.142632],[-6.151451,54.142474],[-6.151469,54.14236],[-6.151569,54.142291],[-6.151751,54.142267],[-6.151919,54.142161],[-6.152076,54.141974],[-6.15222,54.141704],[-6.152351,54.141353],[-6.15248,54.140956],[-6.152607,54.140512],[-6.152731,54.140023],[-6.152854,54.139488],[-6.152982,54.139058],[-6.153116,54.138734],[-6.153257,54.138516],[-6.153403,54.138404],[-6.153527,54.138286],[-6.153629,54.138161],[-6.153708,54.13803],[-6.153765,54.137892],[-6.153896,54.137761],[-6.154101,54.137637],[-6.15438,54.137518],[-6.154733,54.137406],[-6.155048,54.137337],[-6.155323,54.137309],[-6.155559,54.137324],[-6.155757,54.137381],[-6.155923,54.137401],[-6.156059,54.137383],[-6.156165,54.137327],[-6.156239,54.137234],[-6.156252,54.137146],[-6.156204,54.137064],[-6.156094,54.136989],[-6.155924,54.136919],[-6.15581,54.136841],[-6.155752,54.136756],[-6.155751,54.136664],[-6.155807,54.136563],[-6.155832,54.136465],[-6.155825,54.136369],[-6.155788,54.136274],[-6.15572,54.136181],[-6.155699,54.136119],[-6.155726,54.136088],[-6.155801,54.136087],[-6.155925,54.136117],[-6.15605,54.136102],[-6.156178,54.136044],[-6.156308,54.135941],[-6.15644,54.135793],[-6.156529,54.135645],[-6.156573,54.135495],[-6.156573,54.135344],[-6.156529,54.135193],[-6.156435,54.135085],[-6.15629,54.135021],[-6.156095,54.135],[-6.15585,54.135024],[-6.155606,54.135031],[-6.155364,54.135021],[-6.155124,54.134995],[-6.154884,54.134953],[-6.154643,54.134855],[-6.1544,54.134702],[-6.154155,54.134494],[-6.153907,54.13423],[-6.153619,54.134125],[-6.153291,54.134178],[-6.152921,54.13439],[-6.152511,54.134759],[-6.152177,54.13507],[-6.151919,54.135323],[-6.151737,54.135516],[-6.151631,54.135651],[-6.151417,54.135841],[-6.151093,54.136089],[-6.150661,54.136392],[-6.150119,54.136751],[-6.149664,54.137097],[-6.149294,54.137429],[-6.14901,54.137747],[-6.148813,54.138051],[-6.148571,54.138385],[-6.148285,54.138747],[-6.147955,54.139139],[-6.147581,54.13956],[-6.14727,54.139939],[-6.147022,54.140278],[-6.146838,54.140576],[-6.146717,54.140833],[-6.146572,54.14108],[-6.146403,54.141316],[-6.146209,54.141541],[-6.145992,54.141755],[-6.145786,54.141968],[-6.145591,54.142179],[-6.145408,54.142389],[-6.145236,54.142597],[-6.145165,54.142729],[-6.145195,54.142786],[-6.145326,54.142766],[-6.145559,54.14267],[-6.145803,54.142624],[-6.146058,54.142627],[-6.146325,54.142679],[-6.146604,54.142781],[-6.146759,54.142902],[-6.14679,54.143041],[-6.146698,54.1432],[-6.146482,54.143377],[-6.146331,54.143538],[-6.146245,54.143684],[-6.146225,54.143814],[-6.146271,54.143929],[-6.146236,54.144021],[-6.146121,54.144092],[-6.145925,54.144141],[-6.14565,54.144169],[-6.145432,54.144161],[-6.145272,54.144117],[-6.145169,54.144038],[-6.145124,54.143924],[-6.145033,54.143845],[-6.144897,54.143803],[-6.144716,54.143797],[-6.14449,54.143827],[-6.144222,54.143935],[-6.143914,54.14412],[-6.143564,54.144382],[-6.143173,54.144721],[-6.142807,54.145032],[-6.142466,54.145313],[-6.142148,54.145566],[-6.141855,54.145791],[-6.141579,54.146038],[-6.141321,54.146309],[-6.141079,54.146603],[-6.140855,54.14692],[-6.14069,54.147177],[-6.140584,54.147371],[-6.140537,54.147505],[-6.14055,54.147577],[-6.140432,54.147691],[-6.140182,54.147844],[-6.139802,54.148039],[-6.139291,54.148273],[-6.138842,54.148526],[-6.138455,54.148795],[-6.138131,54.149081],[-6.137869,54.149385],[-6.1377,54.149672],[-6.137624,54.149941],[-6.13764,54.150194],[-6.137749,54.15043],[-6.137849,54.150623],[-6.137941,54.150773],[-6.138023,54.15088],[-6.138096,54.150944],[-6.138189,54.151029],[-6.138302,54.151135],[-6.138435,54.151261],[-6.138589,54.151407],[-6.13873,54.151534],[-6.13886,54.151642],[-6.138979,54.151731],[-6.139086,54.1518],[-6.139192,54.151929],[-6.139299,54.152119],[-6.139406,54.152369],[-6.139513,54.152679],[-6.139642,54.152956],[-6.139794,54.1532],[-6.139969,54.153411],[-6.140166,54.153589],[-6.140369,54.153761],[-6.140578,54.153928],[-6.140793,54.154089],[-6.141014,54.154245],[-6.141286,54.154401],[-6.14161,54.154557],[-6.141986,54.154714],[-6.142414,54.15487],[-6.142842,54.154989],[-6.143272,54.155071],[-6.143703,54.155115],[-6.144136,54.155123]]]}}