{"type":"Feature","properties":{"id":"266901","COMMUNE":"Armagh City, Banbridge and Craigavon","PROVINCE":"Armagh City, Banbridge and Craigavon","COUNTRY":"UK","FIREDATE":"2025-04-05 13:08:00","FINALDATE":"2025-04-05 13:08:00","CLASS":"FireSeason","areaHA_geo":3.585},"geometry":{"type":"Polygon","coordinates":[[[-6.625986,54.467918],[-6.626106,54.467841],[-6.626182,54.46777],[-6.626215,54.467704],[-6.626204,54.467644],[-6.626148,54.46759],[-6.626133,54.467545],[-6.626157,54.467509],[-6.62622,54.467482],[-6.626323,54.467464],[-6.6264,54.467429],[-6.626452,54.467374],[-6.626479,54.467301],[-6.62648,54.46721],[-6.626387,54.46713],[-6.6262,54.467063],[-6.625919,54.467007],[-6.625543,54.466964],[-6.62527,54.466912],[-6.625097,54.466852],[-6.625027,54.466784],[-6.625058,54.466707],[-6.624954,54.466624],[-6.624716,54.466534],[-6.624344,54.466437],[-6.623837,54.466334],[-6.623435,54.466248],[-6.623139,54.466179],[-6.622948,54.466128],[-6.622862,54.466093],[-6.622783,54.466052],[-6.62271,54.466006],[-6.622644,54.465955],[-6.622585,54.465897],[-6.622532,54.465832],[-6.622486,54.46576],[-6.622446,54.465681],[-6.622414,54.465594],[-6.622326,54.465519],[-6.622184,54.465457],[-6.621988,54.465407],[-6.621737,54.465369],[-6.621529,54.465365],[-6.621365,54.465395],[-6.621243,54.465459],[-6.621164,54.465558],[-6.621126,54.465684],[-6.621127,54.465839],[-6.621168,54.466022],[-6.621249,54.466233],[-6.621331,54.466397],[-6.621413,54.466515],[-6.621496,54.466585],[-6.62158,54.466608],[-6.621624,54.466642],[-6.621629,54.466689],[-6.621593,54.466748],[-6.621518,54.466818],[-6.621469,54.466887],[-6.621446,54.466953],[-6.621448,54.467017],[-6.621476,54.467078],[-6.621533,54.467138],[-6.621618,54.467196],[-6.621731,54.467253],[-6.621873,54.467307],[-6.621994,54.467346],[-6.622095,54.46737],[-6.622174,54.467377],[-6.622234,54.467369],[-6.622276,54.467354],[-6.6223,54.46733],[-6.622308,54.4673],[-6.622298,54.467261],[-6.622318,54.467227],[-6.622368,54.467196],[-6.622447,54.467169],[-6.622557,54.467145],[-6.622644,54.467107],[-6.62271,54.467053],[-6.622754,54.466984],[-6.622776,54.4669],[-6.622842,54.46683],[-6.622953,54.466773],[-6.623108,54.466731],[-6.623308,54.466702],[-6.623461,54.466693],[-6.623569,54.466705],[-6.623631,54.466738],[-6.623647,54.466791],[-6.623677,54.466837],[-6.623721,54.466877],[-6.62378,54.46691],[-6.623854,54.466936],[-6.62394,54.46698],[-6.624038,54.467041],[-6.624149,54.46712],[-6.624272,54.467217],[-6.62438,54.467294],[-6.624473,54.46735],[-6.624551,54.467386],[-6.624614,54.467401],[-6.624685,54.467414],[-6.624762,54.467425],[-6.624847,54.467434],[-6.624939,54.467441],[-6.625044,54.467462],[-6.625161,54.467498],[-6.625292,54.46755],[-6.625436,54.467616],[-6.625553,54.467686],[-6.625644,54.467759],[-6.625709,54.467835],[-6.625747,54.467914],[-6.625806,54.467954],[-6.625886,54.467956],[-6.625986,54.467918]]]}}