{"type":"Feature","properties":{"id":"266902","COMMUNE":"Derry City and Strabane","PROVINCE":"Derry City and Strabane","COUNTRY":"UK","FIREDATE":"2025-04-03 12:53:00","CLASS":"FireSeason","areaHA_geo":2.904},"geometry":{"type":"Polygon","coordinates":[[[-7.540263,54.666769],[-7.539944,54.66662],[-7.539406,54.66662],[-7.538649,54.666767],[-7.537674,54.667063],[-7.536481,54.667507],[-7.535677,54.667883],[-7.535261,54.66819],[-7.535235,54.66843],[-7.535599,54.668602],[-7.535938,54.66868],[-7.536252,54.668664],[-7.536543,54.668554],[-7.536809,54.66835],[-7.537229,54.668132],[-7.537804,54.667899],[-7.538533,54.66765],[-7.539417,54.667387],[-7.539999,54.667153],[-7.540281,54.666947],[-7.540263,54.666769]]]}}