{"type":"Feature","properties":{"id":"266909","COMMUNE":"Mid Ulster","PROVINCE":"Mid Ulster","COUNTRY":"UK","FIREDATE":"2025-04-08 12:57:00","FINALDATE":"2025-04-09 04:08:00","CLASS":"FireSeason","areaHA_geo":86.211},"geometry":{"type":"Polygon","coordinates":[[[-7.025043,54.514324],[-7.025042,54.514384],[-7.025092,54.514415],[-7.025194,54.514417],[-7.025347,54.514391],[-7.025496,54.514385],[-7.025642,54.514398],[-7.025783,54.51443],[-7.02592,54.514482],[-7.026032,54.514485],[-7.02612,54.51444],[-7.026183,54.514346],[-7.026221,54.514203],[-7.026319,54.514061],[-7.026478,54.51392],[-7.026696,54.51378],[-7.026974,54.513642],[-7.027196,54.513523],[-7.027359,54.513424],[-7.027466,54.513345],[-7.027515,54.513286],[-7.027564,54.513253],[-7.027615,54.513246],[-7.027666,54.513265],[-7.027718,54.51331],[-7.027781,54.513343],[-7.027856,54.513363],[-7.027941,54.513372],[-7.028038,54.513367],[-7.028143,54.513342],[-7.028255,54.513296],[-7.028374,54.513228],[-7.028501,54.513139],[-7.028641,54.513072],[-7.028794,54.513027],[-7.028961,54.513004],[-7.029142,54.513002],[-7.029321,54.513022],[-7.029499,54.513064],[-7.029675,54.513127],[-7.029851,54.513212],[-7.030038,54.513279],[-7.030236,54.51333],[-7.030446,54.513364],[-7.030666,54.51338],[-7.030923,54.513413],[-7.031215,54.513463],[-7.031543,54.513528],[-7.031907,54.513611],[-7.032227,54.513673],[-7.032504,54.513715],[-7.032737,54.513737],[-7.032927,54.513739],[-7.033103,54.513796],[-7.033266,54.513909],[-7.033415,54.514076],[-7.033551,54.5143],[-7.033598,54.514494],[-7.033557,54.514658],[-7.033427,54.514794],[-7.033209,54.5149],[-7.033021,54.514996],[-7.032863,54.515079],[-7.032736,54.515152],[-7.032638,54.515213],[-7.032536,54.515247],[-7.032428,54.515255],[-7.032315,54.515237],[-7.032198,54.515191],[-7.0321,54.51518],[-7.032024,54.515203],[-7.031967,54.515259],[-7.031932,54.51535],[-7.03193,54.515448],[-7.031963,54.515555],[-7.03203,54.51567],[-7.032132,54.515794],[-7.032254,54.515884],[-7.032397,54.51594],[-7.032561,54.515962],[-7.032745,54.51595],[-7.032886,54.515949],[-7.032984,54.515956],[-7.033039,54.515974],[-7.03305,54.516],[-7.033084,54.516031],[-7.033139,54.516066],[-7.033218,54.516105],[-7.033318,54.516148],[-7.033448,54.516182],[-7.033606,54.516208],[-7.033794,54.516224],[-7.034011,54.516232],[-7.034192,54.516274],[-7.034335,54.516351],[-7.034442,54.516464],[-7.034513,54.51661],[-7.034593,54.516731],[-7.034682,54.516825],[-7.034781,54.516893],[-7.034889,54.516935],[-7.035094,54.516948],[-7.035395,54.516932],[-7.035793,54.516887],[-7.036288,54.516813],[-7.036698,54.516753],[-7.037024,54.516705],[-7.037264,54.51667],[-7.037419,54.516648],[-7.037531,54.516588],[-7.0376,54.516488],[-7.037625,54.516349],[-7.037607,54.516171],[-7.03761,54.516022],[-7.037634,54.515903],[-7.037678,54.515812],[-7.037742,54.515751],[-7.037784,54.515675],[-7.037803,54.515585],[-7.0378,54.515479],[-7.037774,54.51536],[-7.037746,54.515255],[-7.037717,54.515167],[-7.037686,54.515094],[-7.037654,54.515037],[-7.03763,54.514982],[-7.037616,54.514929],[-7.037611,54.514879],[-7.037616,54.514831],[-7.037606,54.51478],[-7.037584,54.514726],[-7.037547,54.51467],[-7.037497,54.51461],[-7.037476,54.514555],[-7.037483,54.514504],[-7.037519,54.514457],[-7.037584,54.514415],[-7.037563,54.514367],[-7.037458,54.514313],[-7.037268,54.514253],[-7.036993,54.514187],[-7.036769,54.514122],[-7.036594,54.514059],[-7.036469,54.513996],[-7.036394,54.513936],[-7.036291,54.513897],[-7.03616,54.513879],[-7.036002,54.513884],[-7.035816,54.51391],[-7.035653,54.513923],[-7.035513,54.513924],[-7.035397,54.513911],[-7.035304,54.513886],[-7.035173,54.513878],[-7.035005,54.513888],[-7.034798,54.513914],[-7.034553,54.513958],[-7.034351,54.513977],[-7.034193,54.51397],[-7.034077,54.513939],[-7.034003,54.513883],[-7.034095,54.513826],[-7.03435,54.513769],[-7.03477,54.513712],[-7.035354,54.513654],[-7.035831,54.513631],[-7.036202,54.513643],[-7.036467,54.513691],[-7.036625,54.513773],[-7.036769,54.513828],[-7.0369,54.513854],[-7.037017,54.513853],[-7.03712,54.513825],[-7.037229,54.513811],[-7.037344,54.513811],[-7.037466,54.513826],[-7.037593,54.513856],[-7.037726,54.513862],[-7.037862,54.513846],[-7.038004,54.513806],[-7.03815,54.513743],[-7.038259,54.513685],[-7.038331,54.513632],[-7.038366,54.513584],[-7.038365,54.513542],[-7.038418,54.513527],[-7.038527,54.51354],[-7.03869,54.513582],[-7.038908,54.513651],[-7.039113,54.513703],[-7.039305,54.513738],[-7.039483,54.513756],[-7.039648,54.513756],[-7.039774,54.513767],[-7.039861,54.513788],[-7.039909,54.51382],[-7.039918,54.513861],[-7.039895,54.513907],[-7.039838,54.513958],[-7.039748,54.514013],[-7.039626,54.514073],[-7.039551,54.514158],[-7.039524,54.514269],[-7.039544,54.514405],[-7.039613,54.514566],[-7.039716,54.514699],[-7.039855,54.514803],[-7.040028,54.514878],[-7.040237,54.514925],[-7.040413,54.514962],[-7.040557,54.51499],[-7.040667,54.515008],[-7.040744,54.515016],[-7.041096,54.515012],[-7.041723,54.514995],[-7.042623,54.514967],[-7.043798,54.514926],[-7.044664,54.514882],[-7.045219,54.514835],[-7.045465,54.514786],[-7.045402,54.514733],[-7.04536,54.514664],[-7.045341,54.514579],[-7.045343,54.514478],[-7.045367,54.51436],[-7.045395,54.51427],[-7.045425,54.514206],[-7.045459,54.514169],[-7.045496,54.514159],[-7.045521,54.514125],[-7.045533,54.514066],[-7.045533,54.513983],[-7.04552,54.513876],[-7.045517,54.513783],[-7.045525,54.513703],[-7.045542,54.513638],[-7.04557,54.513586],[-7.045563,54.513526],[-7.045521,54.513456],[-7.045444,54.513376],[-7.045332,54.513287],[-7.045264,54.513208],[-7.045238,54.513138],[-7.045256,54.513077],[-7.045316,54.513026],[-7.045341,54.512974],[-7.045331,54.512921],[-7.045286,54.512867],[-7.045205,54.512811],[-7.045162,54.51276],[-7.045159,54.512713],[-7.045194,54.51267],[-7.045268,54.512632],[-7.045324,54.512588],[-7.045361,54.51254],[-7.04538,54.512488],[-7.045381,54.512431],[-7.045369,54.512379],[-7.045345,54.512332],[-7.045309,54.512291],[-7.045261,54.512255],[-7.045236,54.51222],[-7.045233,54.512184],[-7.045253,54.512149],[-7.045296,54.512115],[-7.045324,54.512078],[-7.045336,54.512038],[-7.045332,54.511996],[-7.045313,54.511951],[-7.045284,54.511911],[-7.045244,54.511876],[-7.045195,54.511847],[-7.045135,54.511822],[-7.045106,54.511793],[-7.045108,54.511759],[-7.045142,54.511721],[-7.045206,54.511679],[-7.045248,54.511631],[-7.045266,54.511579],[-7.045263,54.511521],[-7.045236,54.511459],[-7.045169,54.511411],[-7.04506,54.511379],[-7.044911,54.511362],[-7.044721,54.51136],[-7.044615,54.511346],[-7.044592,54.511321],[-7.044652,54.511284],[-7.044796,54.511235],[-7.044901,54.511167],[-7.044967,54.51108],[-7.044993,54.510973],[-7.044981,54.510846],[-7.04495,54.510726],[-7.044902,54.510612],[-7.044835,54.510503],[-7.044751,54.510401],[-7.044731,54.510321],[-7.044777,54.510262],[-7.044886,54.510226],[-7.045061,54.510211],[-7.045188,54.510143],[-7.045269,54.510023],[-7.045303,54.509849],[-7.045289,54.509623],[-7.045216,54.509452],[-7.045085,54.509335],[-7.044894,54.509273],[-7.044644,54.509265],[-7.044441,54.509236],[-7.044284,54.509187],[-7.044174,54.509117],[-7.044111,54.509026],[-7.044045,54.508948],[-7.043977,54.508884],[-7.043906,54.508834],[-7.043833,54.508797],[-7.043755,54.508772],[-7.043672,54.50876],[-7.043583,54.50876],[-7.04349,54.508773],[-7.043401,54.508771],[-7.043316,54.508755],[-7.043235,54.508723],[-7.043158,54.508677],[-7.04311,54.508622],[-7.043091,54.508558],[-7.043101,54.508486],[-7.043141,54.508404],[-7.043192,54.508345],[-7.043254,54.508308],[-7.043328,54.508293],[-7.043413,54.5083],[-7.043539,54.508282],[-7.043706,54.50824],[-7.043914,54.508173],[-7.044163,54.508081],[-7.044359,54.507999],[-7.044501,54.507927],[-7.044589,54.507865],[-7.044625,54.507812],[-7.044574,54.507766],[-7.044438,54.507726],[-7.044216,54.507691],[-7.043908,54.507663],[-7.043663,54.507633],[-7.043481,54.507602],[-7.043362,54.507569],[-7.043306,54.507534],[-7.043251,54.507505],[-7.043196,54.507481],[-7.043141,54.507464],[-7.043087,54.507453],[-7.043048,54.507428],[-7.043024,54.507391],[-7.043016,54.507342],[-7.043022,54.507279],[-7.042985,54.50723],[-7.042903,54.507193],[-7.042779,54.507171],[-7.04261,54.507161],[-7.042474,54.50713],[-7.04237,54.507078],[-7.042298,54.507005],[-7.042258,54.506911],[-7.042255,54.506837],[-7.042289,54.506782],[-7.042361,54.506747],[-7.04247,54.506732],[-7.042553,54.5067],[-7.04261,54.506652],[-7.042642,54.506587],[-7.042649,54.506505],[-7.042702,54.506437],[-7.042803,54.506383],[-7.04295,54.506342],[-7.043144,54.506315],[-7.043283,54.506255],[-7.043367,54.506163],[-7.043396,54.506037],[-7.043371,54.50588],[-7.043287,54.505755],[-7.043145,54.505663],[-7.042946,54.505604],[-7.042688,54.505578],[-7.042468,54.505544],[-7.042285,54.505501],[-7.04214,54.505449],[-7.042032,54.505388],[-7.041913,54.505354],[-7.041783,54.505349],[-7.041643,54.505371],[-7.041491,54.505421],[-7.041354,54.505446],[-7.041231,54.505446],[-7.041122,54.505422],[-7.041027,54.505374],[-7.040907,54.505348],[-7.040762,54.505344],[-7.040591,54.505364],[-7.040395,54.505405],[-7.040234,54.50548],[-7.040107,54.505588],[-7.040014,54.505729],[-7.039957,54.505903],[-7.03989,54.506042],[-7.039815,54.506145],[-7.03973,54.506213],[-7.039637,54.506245],[-7.03956,54.506286],[-7.039499,54.506338],[-7.039455,54.506398],[-7.039427,54.506469],[-7.039427,54.50653],[-7.039454,54.506584],[-7.039507,54.506628],[-7.039588,54.506665],[-7.03965,54.506708],[-7.039692,54.506759],[-7.039715,54.506818],[-7.039718,54.506884],[-7.039731,54.506953],[-7.039754,54.507026],[-7.039786,54.507102],[-7.039828,54.507182],[-7.039811,54.507268],[-7.039736,54.507362],[-7.039602,54.507463],[-7.039409,54.50757],[-7.039266,54.507675],[-7.039173,54.507775],[-7.03913,54.507873],[-7.039137,54.507967],[-7.039168,54.508066],[-7.039225,54.508169],[-7.039306,54.508278],[-7.039411,54.508391],[-7.039445,54.508461],[-7.039407,54.508488],[-7.039297,54.508471],[-7.039115,54.508411],[-7.038961,54.508376],[-7.038833,54.508365],[-7.038732,54.508379],[-7.038658,54.508418],[-7.038587,54.50844],[-7.038519,54.508445],[-7.038454,54.508432],[-7.038393,54.508403],[-7.038353,54.508354],[-7.038336,54.508285],[-7.038342,54.508197],[-7.03837,54.508088],[-7.038378,54.507985],[-7.038365,54.507887],[-7.038332,54.507794],[-7.038279,54.507707],[-7.038255,54.507627],[-7.038262,54.507555],[-7.038298,54.507491],[-7.038364,54.507434],[-7.038367,54.507373],[-7.038307,54.507308],[-7.038183,54.507238],[-7.037996,54.507165],[-7.037853,54.507118],[-7.037754,54.507099],[-7.0377,54.507106],[-7.03769,54.507141],[-7.037638,54.507178],[-7.037543,54.507217],[-7.037407,54.507259],[-7.037228,54.507303],[-7.037077,54.50732],[-7.036954,54.507312],[-7.036859,54.507276],[-7.036792,54.507214],[-7.036726,54.507162],[-7.036663,54.507118],[-7.036601,54.507084],[-7.036541,54.507059],[-7.036469,54.507035],[-7.036385,54.507011],[-7.036289,54.506988],[-7.036181,54.506965],[-7.036104,54.50692],[-7.036059,54.506853],[-7.036046,54.506763],[-7.036064,54.506651],[-7.036019,54.506558],[-7.035909,54.506483],[-7.035735,54.506427],[-7.035497,54.506389],[-7.03533,54.506392],[-7.035234,54.506436],[-7.035208,54.506522],[-7.035253,54.506648],[-7.035255,54.50675],[-7.035214,54.506827],[-7.035129,54.506879],[-7.035001,54.506907],[-7.0349,54.50696],[-7.034827,54.507039],[-7.034781,54.507144],[-7.034762,54.507275],[-7.034714,54.507379],[-7.034636,54.507456],[-7.034528,54.507507],[-7.03439,54.507531],[-7.034274,54.507573],[-7.03418,54.507634],[-7.034109,54.507713],[-7.03406,54.50781],[-7.034082,54.507905],[-7.034175,54.507999],[-7.034339,54.508091],[-7.034575,54.508182],[-7.034805,54.508255],[-7.03503,54.508311],[-7.035251,54.508351],[-7.035465,54.508373],[-7.035592,54.508404],[-7.035629,54.508444],[-7.035578,54.508493],[-7.035438,54.50855],[-7.035349,54.508646],[-7.035311,54.508779],[-7.035324,54.508951],[-7.035388,54.50916],[-7.035458,54.509326],[-7.035534,54.509448],[-7.035617,54.509527],[-7.035706,54.509562],[-7.035767,54.5096],[-7.0358,54.50964],[-7.035806,54.509683],[-7.035785,54.509729],[-7.035754,54.509774],[-7.035715,54.509817],[-7.035667,54.509859],[-7.035611,54.5099],[-7.035529,54.509883],[-7.035423,54.509808],[-7.035293,54.509674],[-7.035138,54.509482],[-7.035022,54.509312],[-7.034947,54.509163],[-7.034912,54.509037],[-7.034917,54.508932],[-7.034883,54.508828],[-7.034812,54.508727],[-7.034701,54.508627],[-7.034553,54.508529],[-7.034405,54.508456],[-7.034257,54.508408],[-7.03411,54.508384],[-7.033962,54.508386],[-7.033895,54.508412],[-7.033908,54.508462],[-7.034002,54.508537],[-7.034175,54.508636],[-7.034212,54.508708],[-7.034112,54.508753],[-7.033875,54.508771],[-7.033501,54.508761],[-7.033194,54.50877],[-7.032954,54.508796],[-7.032782,54.50884],[-7.032677,54.508903],[-7.03261,54.508964],[-7.032582,54.509025],[-7.032594,54.509085],[-7.032643,54.509145],[-7.032638,54.509206],[-7.032579,54.509269],[-7.032464,54.509333],[-7.032295,54.5094],[-7.03217,54.509462],[-7.032088,54.509521],[-7.032049,54.509577],[-7.032055,54.509628],[-7.03199,54.509655],[-7.031855,54.509657],[-7.03165,54.509635],[-7.031376,54.509588],[-7.031143,54.509581],[-7.030951,54.509615],[-7.030802,54.509689],[-7.030694,54.509804],[-7.03054,54.509895],[-7.030339,54.509964],[-7.030091,54.510009],[-7.029796,54.510031],[-7.029566,54.51008],[-7.0294,54.510155],[-7.0293,54.510257],[-7.029264,54.510386],[-7.029228,54.510512],[-7.029194,54.510635],[-7.029161,54.510756],[-7.029129,54.510875],[-7.029175,54.510955],[-7.0293,54.510997],[-7.029503,54.511],[-7.029784,54.510966],[-7.030007,54.510954],[-7.030172,54.510964],[-7.030278,54.510997],[-7.030326,54.511052],[-7.03028,54.511107],[-7.030139,54.511162],[-7.029903,54.511217],[-7.029573,54.511273],[-7.029314,54.511332],[-7.029127,54.511394],[-7.02901,54.511458],[-7.028965,54.511527],[-7.028904,54.511567],[-7.028828,54.51158],[-7.028735,54.511566],[-7.028627,54.511524],[-7.028547,54.511476],[-7.028495,54.511421],[-7.028472,54.51136],[-7.028476,54.511293],[-7.028276,54.511341],[-7.027873,54.511505],[-7.027265,54.511783],[-7.026453,54.512176],[-7.025804,54.512523],[-7.025319,54.512824],[-7.024997,54.513078],[-7.024838,54.513285],[-7.024733,54.51346],[-7.024682,54.513602],[-7.024686,54.513712],[-7.024743,54.51379],[-7.024808,54.51386],[-7.02488,54.513924],[-7.024959,54.51398],[-7.025046,54.51403],[-7.025098,54.514089],[-7.025115,54.514158],[-7.025097,54.514236],[-7.025043,54.514324]]]}}