{"type":"Feature","properties":{"id":"266908","COMMUNE":"Newry, Mourne and Down","PROVINCE":"Newry, Mourne and Down","COUNTRY":"UK","FIREDATE":"2025-04-04 11:19:21.14","CLASS":"FireSeason","areaHA_geo":4.109},"geometry":{"type":"Polygon","coordinates":[[[-6.152939,54.150521],[-6.153184,54.150528],[-6.153349,54.150483],[-6.153434,54.150385],[-6.153439,54.150237],[-6.153483,54.150098],[-6.153568,54.149971],[-6.153693,54.149855],[-6.153858,54.14975],[-6.153965,54.149657],[-6.154012,54.149576],[-6.154001,54.149508],[-6.153931,54.149452],[-6.153918,54.149357],[-6.153959,54.149222],[-6.154057,54.149046],[-6.154211,54.148831],[-6.15428,54.148634],[-6.154265,54.148456],[-6.154165,54.148295],[-6.153982,54.148153],[-6.153848,54.148094],[-6.153762,54.148119],[-6.153726,54.148228],[-6.153738,54.148421],[-6.153697,54.148587],[-6.1536,54.148725],[-6.153449,54.148835],[-6.153243,54.148918],[-6.153084,54.148958],[-6.152971,54.148955],[-6.152905,54.148908],[-6.152885,54.148818],[-6.152886,54.148727],[-6.152905,54.148637],[-6.152945,54.148546],[-6.153004,54.148454],[-6.153022,54.14835],[-6.153,54.148232],[-6.152936,54.148102],[-6.152832,54.147958],[-6.152749,54.1478],[-6.152689,54.147627],[-6.152651,54.14744],[-6.152635,54.147238],[-6.15262,54.147062],[-6.152608,54.14691],[-6.152598,54.146784],[-6.15259,54.146683],[-6.15255,54.146582],[-6.152478,54.14648],[-6.152374,54.146378],[-6.152238,54.146276],[-6.152108,54.146229],[-6.151984,54.146236],[-6.151865,54.146298],[-6.151753,54.146415],[-6.151695,54.146541],[-6.151693,54.146675],[-6.151745,54.146819],[-6.151853,54.146972],[-6.15193,54.147105],[-6.151975,54.14722],[-6.151989,54.147315],[-6.151972,54.147391],[-6.151971,54.147521],[-6.151988,54.147704],[-6.152022,54.147941],[-6.152073,54.148231],[-6.152092,54.148499],[-6.152078,54.148747],[-6.152033,54.148973],[-6.151955,54.149178],[-6.151867,54.149398],[-6.151769,54.149634],[-6.151662,54.149885],[-6.151544,54.150151],[-6.151503,54.150339],[-6.151539,54.15045],[-6.151652,54.150484],[-6.151841,54.15044],[-6.152065,54.150422],[-6.152322,54.150429],[-6.152613,54.150462],[-6.152939,54.150521]]]}}