{"type":"Feature","properties":{"id":"267041","COMMUNE":"County Durham","PROVINCE":"Durham CC","COUNTRY":"UK","FIREDATE":"2025-03-06 10:04:00","FINALDATE":"2025-03-07 10:04:00","CLASS":"FireSeason","areaHA_geo":7.847},"geometry":{"type":"Polygon","coordinates":[[[-2.071825,54.519529],[-2.071858,54.519604],[-2.0718,54.519691],[-2.071651,54.519793],[-2.071412,54.519908],[-2.071239,54.520007],[-2.071132,54.520091],[-2.071092,54.520158],[-2.071118,54.520211],[-2.071184,54.520229],[-2.071289,54.520212],[-2.071435,54.520161],[-2.07162,54.520076],[-2.071774,54.520003],[-2.071898,54.519942],[-2.071991,54.519894],[-2.072054,54.519857],[-2.072113,54.519851],[-2.072167,54.519876],[-2.072218,54.519932],[-2.072265,54.520019],[-2.072336,54.52009],[-2.072431,54.520144],[-2.07255,54.520183],[-2.072693,54.520206],[-2.072818,54.520236],[-2.072924,54.520274],[-2.073011,54.520321],[-2.07308,54.520375],[-2.073153,54.520401],[-2.073231,54.5204],[-2.073315,54.52037],[-2.073403,54.520313],[-2.073515,54.520276],[-2.073652,54.520259],[-2.073814,54.520263],[-2.074,54.520288],[-2.074199,54.520303],[-2.074411,54.52031],[-2.074636,54.520307],[-2.074875,54.520296],[-2.075076,54.52031],[-2.07524,54.520349],[-2.075366,54.520412],[-2.075456,54.520501],[-2.075546,54.520549],[-2.075637,54.520555],[-2.075729,54.52052],[-2.075822,54.520444],[-2.075816,54.520361],[-2.075711,54.520271],[-2.075506,54.520173],[-2.075202,54.520069],[-2.074967,54.51997],[-2.074803,54.519877],[-2.074708,54.519788],[-2.074684,54.519706],[-2.074564,54.519612],[-2.07435,54.519508],[-2.07404,54.519394],[-2.073635,54.519269],[-2.073442,54.519186],[-2.073461,54.519145],[-2.073693,54.519145],[-2.074136,54.519187],[-2.074383,54.519188],[-2.074435,54.51915],[-2.074291,54.519071],[-2.073951,54.518952],[-2.073708,54.518851],[-2.073563,54.518768],[-2.073514,54.518702],[-2.073563,54.518655],[-2.073599,54.51859],[-2.073623,54.518509],[-2.073633,54.51841],[-2.07363,54.518295],[-2.073589,54.518201],[-2.07351,54.51813],[-2.073393,54.51808],[-2.073238,54.518053],[-2.073151,54.517999],[-2.073132,54.517919],[-2.073182,54.517812],[-2.0733,54.517678],[-2.073472,54.517565],[-2.073697,54.517473],[-2.073975,54.517402],[-2.074307,54.517351],[-2.074576,54.517294],[-2.074784,54.517231],[-2.074929,54.517162],[-2.075012,54.517087],[-2.07515,54.517012],[-2.075343,54.516939],[-2.075592,54.516865],[-2.075897,54.516793],[-2.076204,54.516714],[-2.076515,54.516629],[-2.07683,54.516537],[-2.077148,54.516439],[-2.077422,54.516345],[-2.077653,54.516255],[-2.07784,54.516169],[-2.077984,54.516088],[-2.078107,54.516005],[-2.078207,54.515919],[-2.078286,54.51583],[-2.078343,54.515739],[-2.078445,54.515621],[-2.078591,54.515476],[-2.078782,54.515303],[-2.079017,54.515103],[-2.079169,54.514935],[-2.079239,54.514797],[-2.079225,54.51469],[-2.079129,54.514614],[-2.07898,54.514607],[-2.078778,54.51467],[-2.078523,54.514802],[-2.078214,54.515002],[-2.077961,54.515177],[-2.077763,54.515324],[-2.07762,54.515445],[-2.077532,54.515539],[-2.07745,54.515595],[-2.077371,54.515615],[-2.077298,54.515598],[-2.077229,54.515544],[-2.077108,54.515524],[-2.076933,54.515538],[-2.076706,54.515586],[-2.076425,54.515669],[-2.076163,54.515751],[-2.07592,54.515832],[-2.075694,54.515914],[-2.075487,54.515995],[-2.075309,54.516078],[-2.075161,54.516163],[-2.075042,54.516249],[-2.074953,54.516337],[-2.074924,54.51641],[-2.074957,54.516468],[-2.075051,54.51651],[-2.075206,54.516538],[-2.075238,54.516573],[-2.075145,54.516615],[-2.074929,54.516665],[-2.074589,54.516723],[-2.074295,54.516779],[-2.074049,54.516834],[-2.073849,54.516887],[-2.073696,54.516939],[-2.073551,54.516956],[-2.073415,54.516939],[-2.073287,54.516887],[-2.073167,54.516802],[-2.073051,54.516746],[-2.072938,54.516721],[-2.072829,54.516725],[-2.072724,54.51676],[-2.07267,54.516819],[-2.072668,54.516901],[-2.072718,54.517007],[-2.07282,54.517137],[-2.072871,54.517248],[-2.072872,54.517339],[-2.072822,54.517411],[-2.072722,54.517464],[-2.072659,54.517519],[-2.072634,54.517576],[-2.072647,54.517636],[-2.072697,54.517698],[-2.072644,54.517787],[-2.072489,54.517903],[-2.072232,54.518045],[-2.071872,54.518214],[-2.071622,54.518364],[-2.071482,54.518493],[-2.071451,54.518603],[-2.07153,54.518693],[-2.071581,54.518794],[-2.071605,54.518908],[-2.0716,54.519033],[-2.071567,54.519171],[-2.071573,54.519289],[-2.071618,54.519388],[-2.071702,54.519468],[-2.071825,54.519529]]]}}