{"type":"Feature","properties":{"id":"267015","COMMUNE":"Rochdale","PROVINCE":"Greater Manchester North East","COUNTRY":"UK","FIREDATE":"2025-03-26 13:21:00","CLASS":"FireSeason","areaHA_geo":15.437},"geometry":{"type":"Polygon","coordinates":[[[-2.056532,53.640489],[-2.056644,53.640547],[-2.056784,53.640612],[-2.056953,53.640683],[-2.05715,53.64076],[-2.057375,53.640844],[-2.057606,53.64092],[-2.057843,53.640988],[-2.058085,53.641047],[-2.058333,53.641097],[-2.058606,53.641125],[-2.058904,53.64113],[-2.059227,53.641111],[-2.059575,53.64107],[-2.059951,53.641041],[-2.060354,53.641023],[-2.060784,53.641016],[-2.061241,53.64102],[-2.061835,53.640948],[-2.062566,53.6408],[-2.063434,53.640576],[-2.064439,53.640275],[-2.065288,53.640068],[-2.065981,53.639954],[-2.066519,53.639935],[-2.0669,53.64001],[-2.067207,53.640053],[-2.067438,53.640065],[-2.067594,53.640044],[-2.067674,53.639992],[-2.067799,53.639928],[-2.067968,53.639852],[-2.068181,53.639763],[-2.068438,53.639662],[-2.068605,53.639561],[-2.068681,53.639459],[-2.068668,53.639357],[-2.068564,53.639254],[-2.068433,53.639175],[-2.068274,53.639119],[-2.068087,53.639086],[-2.067872,53.639076],[-2.067742,53.639049],[-2.067698,53.639007],[-2.06774,53.638948],[-2.067866,53.638872],[-2.067921,53.638796],[-2.067905,53.63872],[-2.067816,53.638642],[-2.067656,53.638564],[-2.06756,53.638481],[-2.06753,53.638393],[-2.067564,53.6383],[-2.067663,53.638203],[-2.067693,53.638085],[-2.067654,53.637948],[-2.067545,53.637791],[-2.067367,53.637614],[-2.067156,53.637486],[-2.06691,53.637407],[-2.066631,53.637377],[-2.066319,53.637396],[-2.066086,53.637388],[-2.065933,53.637353],[-2.06586,53.637291],[-2.065866,53.637203],[-2.065826,53.637147],[-2.06574,53.637124],[-2.065608,53.637134],[-2.06543,53.637177],[-2.065301,53.637226],[-2.065221,53.637281],[-2.065191,53.637342],[-2.06521,53.637409],[-2.065182,53.637478],[-2.065107,53.637548],[-2.064985,53.63762],[-2.064815,53.637693],[-2.064713,53.637754],[-2.064679,53.637801],[-2.064713,53.637835],[-2.064814,53.637857],[-2.064895,53.637907],[-2.064954,53.637985],[-2.064993,53.638093],[-2.065011,53.638229],[-2.064994,53.638334],[-2.064941,53.638408],[-2.064853,53.638452],[-2.064729,53.638464],[-2.064645,53.638484],[-2.064599,53.63851],[-2.064593,53.638544],[-2.064626,53.638584],[-2.064635,53.638644],[-2.064621,53.638724],[-2.064583,53.638824],[-2.064522,53.638943],[-2.064442,53.639042],[-2.064343,53.639121],[-2.064225,53.639179],[-2.064087,53.639218],[-2.063933,53.639215],[-2.063761,53.639169],[-2.063571,53.639082],[-2.063364,53.638952],[-2.063084,53.638868],[-2.062729,53.638832],[-2.0623,53.638841],[-2.061797,53.638898],[-2.061369,53.638958],[-2.061016,53.639021],[-2.060739,53.639088],[-2.060536,53.639159],[-2.060298,53.639212],[-2.060022,53.639249],[-2.05971,53.639269],[-2.059361,53.639273],[-2.059089,53.639292],[-2.058892,53.639327],[-2.058772,53.639378],[-2.058727,53.639446],[-2.058759,53.639491],[-2.058867,53.639515],[-2.05905,53.639517],[-2.059309,53.639497],[-2.059488,53.639503],[-2.059587,53.639534],[-2.059606,53.63959],[-2.059545,53.639671],[-2.059446,53.639733],[-2.059309,53.639775],[-2.059136,53.639797],[-2.058924,53.639799],[-2.058807,53.639816],[-2.058784,53.639846],[-2.058855,53.639891],[-2.059021,53.63995],[-2.059153,53.640023],[-2.059252,53.64011],[-2.059318,53.640212],[-2.059352,53.640327],[-2.059322,53.64041],[-2.059231,53.64046],[-2.059077,53.640477],[-2.05886,53.640461],[-2.058682,53.640404],[-2.058542,53.640305],[-2.058441,53.640164],[-2.058378,53.639982],[-2.058314,53.639843],[-2.058249,53.639746],[-2.058183,53.639691],[-2.058116,53.639679],[-2.05806,53.63965],[-2.058015,53.639604],[-2.057982,53.639542],[-2.057959,53.639463],[-2.057881,53.639403],[-2.057747,53.639363],[-2.057559,53.639343],[-2.057315,53.639342],[-2.057111,53.63937],[-2.056947,53.639427],[-2.056824,53.639513],[-2.05674,53.639628],[-2.056689,53.639735],[-2.056669,53.639834],[-2.056682,53.639926],[-2.056728,53.640009],[-2.056734,53.640088],[-2.056703,53.640163],[-2.056633,53.640235],[-2.056526,53.640302],[-2.056473,53.640367],[-2.056475,53.640429],[-2.056532,53.640489]]]}}