{"type":"Feature","properties":{"id":"267016","COMMUNE":"Rochdale","PROVINCE":"Greater Manchester North East","COUNTRY":"UK","FIREDATE":"2025-03-25 14:40:11.277","CLASS":"FireSeason","areaHA_geo":13.864},"geometry":{"type":"Polygon","coordinates":[[[-2.051608,53.651616],[-2.051806,53.651696],[-2.052047,53.651723],[-2.05233,53.651694],[-2.052656,53.651612],[-2.052888,53.651578],[-2.053024,53.651592],[-2.053066,53.651656],[-2.053014,53.651767],[-2.052911,53.651862],[-2.052758,53.65194],[-2.052556,53.652001],[-2.052304,53.652045],[-2.052176,53.652108],[-2.052173,53.65219],[-2.052295,53.652291],[-2.052541,53.65241],[-2.052742,53.652492],[-2.052898,53.652536],[-2.053008,53.652543],[-2.053073,53.652511],[-2.053133,53.652496],[-2.053186,53.652497],[-2.053233,53.652514],[-2.053275,53.652547],[-2.053398,53.652582],[-2.053605,53.652618],[-2.053894,53.652655],[-2.054265,53.652693],[-2.054567,53.652646],[-2.054799,53.652513],[-2.054961,53.652295],[-2.055054,53.651991],[-2.055155,53.651752],[-2.055264,53.651578],[-2.055381,53.651469],[-2.055507,53.651425],[-2.055635,53.651363],[-2.055766,53.651284],[-2.0559,53.651188],[-2.056037,53.651074],[-2.056147,53.651014],[-2.05623,53.651009],[-2.056286,53.651059],[-2.056316,53.651162],[-2.056345,53.651282],[-2.056373,53.651417],[-2.056401,53.651568],[-2.056428,53.651734],[-2.05644,53.651926],[-2.056439,53.652143],[-2.056423,53.652384],[-2.056394,53.65265],[-2.056406,53.65285],[-2.05646,53.652983],[-2.056556,53.653048],[-2.056693,53.653047],[-2.056758,53.653096],[-2.056749,53.653194],[-2.056667,53.653342],[-2.056511,53.653539],[-2.056436,53.6537],[-2.05644,53.653825],[-2.056524,53.653914],[-2.056687,53.653967],[-2.056844,53.653978],[-2.056994,53.653947],[-2.057138,53.653875],[-2.057275,53.653761],[-2.0574,53.653654],[-2.057515,53.653555],[-2.057618,53.653463],[-2.057711,53.653379],[-2.057854,53.653167],[-2.058048,53.652827],[-2.058293,53.652361],[-2.058589,53.651767],[-2.05884,53.651315],[-2.059048,53.651006],[-2.059212,53.650839],[-2.059332,53.650814],[-2.059464,53.650682],[-2.059607,53.650442],[-2.059761,53.650094],[-2.059927,53.649638],[-2.060001,53.649275],[-2.059981,53.649004],[-2.059869,53.648826],[-2.059664,53.648739],[-2.059513,53.648631],[-2.059417,53.648499],[-2.059376,53.648345],[-2.059388,53.648168],[-2.059363,53.648032],[-2.059299,53.647938],[-2.059196,53.647886],[-2.059055,53.647875],[-2.058927,53.647899],[-2.058811,53.647957],[-2.058708,53.648051],[-2.058618,53.648179],[-2.058535,53.648277],[-2.058459,53.648344],[-2.05839,53.64838],[-2.058328,53.648387],[-2.058214,53.648406],[-2.058048,53.648438],[-2.057831,53.648483],[-2.057561,53.648541],[-2.05736,53.648623],[-2.057225,53.648727],[-2.057159,53.648854],[-2.057159,53.649005],[-2.057138,53.649123],[-2.057093,53.649209],[-2.057027,53.649263],[-2.056937,53.649284],[-2.056865,53.649346],[-2.05681,53.649449],[-2.056772,53.649592],[-2.05675,53.649777],[-2.056704,53.649958],[-2.056634,53.650138],[-2.056539,53.650315],[-2.05642,53.65049],[-2.05628,53.650611],[-2.056119,53.650677],[-2.055937,53.650689],[-2.055734,53.650646],[-2.055547,53.650626],[-2.055378,53.650627],[-2.055226,53.65065],[-2.05509,53.650695],[-2.05497,53.650727],[-2.054864,53.650747],[-2.054774,53.650755],[-2.054698,53.65075],[-2.054582,53.650761],[-2.054426,53.650789],[-2.054229,53.650834],[-2.053993,53.650895],[-2.053776,53.650925],[-2.053579,53.650922],[-2.053402,53.650888],[-2.053246,53.650822],[-2.05307,53.650783],[-2.052876,53.650771],[-2.052663,53.650786],[-2.052431,53.650828],[-2.052245,53.65088],[-2.052103,53.650941],[-2.052007,53.651012],[-2.051956,53.651092],[-2.051876,53.651156],[-2.051768,53.651205],[-2.051632,53.651237],[-2.051467,53.651254],[-2.051382,53.6513],[-2.051377,53.651375],[-2.051453,53.651481],[-2.051608,53.651616]]]}}