{"type":"Feature","properties":{"id":"267033","COMMUNE":"Oldham","PROVINCE":"Greater Manchester North East","COUNTRY":"UK","FIREDATE":"2025-04-03 14:51:06.261","FINALDATE":"2025-04-04 14:51:35.681","CLASS":"FireSeason","areaHA_geo":290.58},"geometry":{"type":"Polygon","coordinates":[[[-1.96621,53.59796],[-1.966261,53.598115],[-1.966466,53.598213],[-1.966826,53.598252],[-1.967341,53.598233],[-1.967846,53.59824],[-1.968341,53.598272],[-1.968826,53.598329],[-1.969301,53.598412],[-1.969695,53.59845],[-1.970008,53.598443],[-1.970239,53.598392],[-1.97039,53.598296],[-1.970491,53.598254],[-1.970542,53.598265],[-1.970543,53.59833],[-1.970495,53.598448],[-1.970507,53.598564],[-1.970581,53.598679],[-1.970715,53.598791],[-1.970911,53.598901],[-1.971139,53.599006],[-1.9714,53.599106],[-1.971694,53.599201],[-1.972021,53.59929],[-1.972324,53.599347],[-1.972605,53.599372],[-1.972863,53.599365],[-1.973098,53.599325],[-1.973332,53.599296],[-1.973566,53.599277],[-1.9738,53.599268],[-1.974033,53.599269],[-1.974226,53.599286],[-1.974379,53.59932],[-1.974493,53.599369],[-1.974566,53.599435],[-1.974697,53.599509],[-1.974884,53.599592],[-1.975129,53.599683],[-1.975431,53.599783],[-1.975827,53.599863],[-1.976317,53.599924],[-1.9769,53.599966],[-1.977577,53.599988],[-1.978121,53.599989],[-1.978532,53.599968],[-1.978811,53.599926],[-1.978957,53.599863],[-1.979111,53.599838],[-1.979272,53.59985],[-1.97944,53.599901],[-1.979616,53.599989],[-1.979847,53.600069],[-1.980135,53.600142],[-1.980478,53.600207],[-1.980878,53.600265],[-1.981277,53.60032],[-1.981676,53.600374],[-1.982073,53.600426],[-1.982471,53.600476],[-1.982977,53.600523],[-1.983592,53.600567],[-1.984315,53.600609],[-1.985147,53.600648],[-1.985798,53.600663],[-1.986267,53.600653],[-1.986555,53.600618],[-1.986661,53.600559],[-1.987144,53.600486],[-1.988002,53.600401],[-1.989237,53.600303],[-1.990847,53.600192],[-1.992068,53.600095],[-1.9929,53.600012],[-1.993342,53.599944],[-1.993395,53.59989],[-1.993475,53.599858],[-1.993582,53.599847],[-1.993715,53.599859],[-1.993875,53.599891],[-1.994148,53.599903],[-1.994535,53.599893],[-1.995036,53.599861],[-1.99565,53.599808],[-1.996276,53.59977],[-1.996913,53.599748],[-1.997561,53.59974],[-1.99822,53.599748],[-1.998827,53.599754],[-1.999383,53.59976],[-1.999887,53.599765],[-2.00034,53.599768],[-2.00087,53.59978],[-2.001478,53.599801],[-2.002164,53.59983],[-2.002927,53.599868],[-2.003553,53.599891],[-2.004041,53.599899],[-2.004392,53.599893],[-2.004605,53.599872],[-2.004935,53.599867],[-2.005384,53.599879],[-2.00595,53.599908],[-2.006633,53.599954],[-2.007178,53.599981],[-2.007584,53.599989],[-2.007851,53.599979],[-2.00798,53.59995],[-2.008281,53.5999],[-2.008753,53.599828],[-2.009397,53.599736],[-2.010213,53.599622],[-2.01082,53.599519],[-2.011218,53.599427],[-2.011407,53.599345],[-2.011386,53.599274],[-2.011472,53.599189],[-2.011662,53.599089],[-2.011958,53.598974],[-2.012359,53.598845],[-2.012828,53.59874],[-2.013366,53.598658],[-2.013972,53.5986],[-2.014646,53.598565],[-2.015367,53.598465],[-2.016134,53.5983],[-2.016947,53.598069],[-2.017807,53.597772],[-2.018471,53.59756],[-2.018941,53.597432],[-2.019216,53.597389],[-2.019296,53.597429],[-2.019456,53.59745],[-2.019696,53.597451],[-2.020015,53.597431],[-2.020414,53.597391],[-2.020841,53.59728],[-2.021295,53.597097],[-2.021776,53.596842],[-2.022285,53.596516],[-2.022678,53.596215],[-2.022955,53.59594],[-2.023117,53.595691],[-2.023162,53.595467],[-2.023233,53.595294],[-2.023328,53.595171],[-2.023447,53.595098],[-2.023591,53.595076],[-2.023716,53.595045],[-2.023821,53.595006],[-2.023907,53.594959],[-2.023973,53.594904],[-2.024063,53.594859],[-2.024176,53.594823],[-2.024312,53.594797],[-2.024472,53.594782],[-2.024613,53.594727],[-2.024737,53.594633],[-2.024843,53.594501],[-2.024931,53.59433],[-2.02498,53.594177],[-2.024989,53.594043],[-2.024959,53.593926],[-2.02489,53.593828],[-2.024843,53.593698],[-2.024818,53.593539],[-2.024815,53.593348],[-2.024834,53.593128],[-2.024781,53.59293],[-2.024656,53.592756],[-2.024459,53.592605],[-2.02419,53.592478],[-2.023915,53.592402],[-2.023634,53.592377],[-2.023347,53.592404],[-2.023055,53.592482],[-2.022858,53.592499],[-2.022757,53.592457],[-2.022751,53.592354],[-2.022842,53.592191],[-2.022866,53.592026],[-2.022826,53.59186],[-2.02272,53.591692],[-2.022548,53.591522],[-2.022479,53.591389],[-2.022513,53.591293],[-2.02265,53.591232],[-2.022889,53.591209],[-2.023103,53.591165],[-2.02329,53.591102],[-2.023451,53.591019],[-2.023586,53.590916],[-2.023627,53.590809],[-2.023574,53.590696],[-2.023428,53.590579],[-2.023188,53.590457],[-2.023017,53.590351],[-2.022916,53.590259],[-2.022884,53.590183],[-2.022921,53.590123],[-2.022912,53.590067],[-2.022856,53.590016],[-2.022754,53.589969],[-2.022605,53.589927],[-2.022512,53.589876],[-2.022474,53.589815],[-2.022491,53.589744],[-2.022564,53.589664],[-2.022596,53.589596],[-2.022587,53.58954],[-2.022537,53.589496],[-2.022446,53.589465],[-2.022355,53.589409],[-2.022263,53.589329],[-2.022172,53.589224],[-2.02208,53.589096],[-2.021971,53.588977],[-2.021844,53.588868],[-2.0217,53.588769],[-2.021537,53.588679],[-2.021359,53.588618],[-2.021165,53.588585],[-2.020955,53.588579],[-2.020728,53.588602],[-2.020528,53.588618],[-2.020352,53.588627],[-2.020203,53.58863],[-2.020079,53.588626],[-2.019928,53.588649],[-2.019751,53.588699],[-2.019547,53.588776],[-2.019317,53.58888],[-2.019123,53.588946],[-2.018967,53.588974],[-2.018848,53.588963],[-2.018765,53.588915],[-2.018622,53.588939],[-2.018417,53.589036],[-2.018151,53.589207],[-2.017824,53.58945],[-2.017527,53.589622],[-2.017262,53.589721],[-2.017027,53.589749],[-2.016822,53.589704],[-2.016631,53.58968],[-2.016452,53.589678],[-2.016287,53.589696],[-2.016134,53.589736],[-2.016017,53.589784],[-2.015938,53.589841],[-2.015895,53.589906],[-2.015888,53.589979],[-2.015835,53.590031],[-2.015734,53.590062],[-2.015586,53.59007],[-2.015391,53.590057],[-2.015074,53.590062],[-2.014636,53.590086],[-2.014077,53.590127],[-2.013396,53.590187],[-2.012871,53.590219],[-2.012503,53.590223],[-2.012291,53.590199],[-2.012236,53.590148],[-2.012295,53.590081],[-2.01247,53.589999],[-2.01276,53.589901],[-2.013166,53.589788],[-2.013457,53.589682],[-2.013634,53.589583],[-2.013697,53.589492],[-2.013646,53.589408],[-2.013595,53.589314],[-2.013544,53.589209],[-2.013494,53.589094],[-2.013445,53.58897],[-2.013356,53.588885],[-2.013227,53.588841],[-2.013059,53.588838],[-2.01285,53.588875],[-2.012647,53.588907],[-2.01245,53.588935],[-2.012258,53.588958],[-2.012072,53.588976],[-2.011866,53.589033],[-2.01164,53.589129],[-2.011394,53.589263],[-2.011129,53.589435],[-2.010954,53.589578],[-2.01087,53.589692],[-2.010877,53.589776],[-2.010975,53.589832],[-2.010983,53.589918],[-2.0109,53.590036],[-2.010727,53.590185],[-2.010464,53.590365],[-2.010123,53.590571],[-2.009703,53.590803],[-2.009206,53.591062],[-2.00863,53.591346],[-2.008161,53.591512],[-2.007799,53.59156],[-2.007543,53.591491],[-2.007393,53.591303],[-2.00725,53.591088],[-2.007112,53.590846],[-2.006981,53.590577],[-2.006856,53.590282],[-2.00673,53.590081],[-2.006604,53.589976],[-2.006478,53.589966],[-2.006352,53.590052],[-2.006278,53.590175],[-2.006255,53.590335],[-2.006284,53.590533],[-2.006365,53.590768],[-2.006497,53.591015],[-2.00668,53.591272],[-2.006914,53.591541],[-2.007199,53.591821],[-2.007496,53.592083],[-2.007806,53.592328],[-2.008127,53.592556],[-2.008461,53.592766],[-2.008573,53.593051],[-2.008463,53.59341],[-2.008132,53.593844],[-2.00758,53.594354],[-2.00707,53.594664],[-2.006602,53.594775],[-2.006177,53.594688],[-2.005794,53.594401],[-2.005473,53.594188],[-2.005214,53.594047],[-2.005017,53.59398],[-2.004882,53.593985],[-2.004786,53.593924],[-2.004728,53.593796],[-2.00471,53.593601],[-2.004732,53.593339],[-2.004704,53.593133],[-2.004626,53.592983],[-2.0045,53.592888],[-2.004325,53.592848],[-2.004222,53.592802],[-2.004193,53.592748],[-2.004238,53.592687],[-2.004355,53.592618],[-2.004428,53.592538],[-2.004456,53.592446],[-2.00444,53.592342],[-2.00438,53.592227],[-2.004282,53.592137],[-2.004148,53.592073],[-2.003976,53.592036],[-2.003768,53.592024],[-2.00358,53.591951],[-2.003412,53.591818],[-2.003264,53.591624],[-2.003136,53.591369],[-2.002998,53.591196],[-2.002849,53.591106],[-2.002689,53.591097],[-2.002519,53.591171],[-2.002348,53.591208],[-2.002177,53.591209],[-2.002006,53.591173],[-2.001835,53.591101],[-2.001678,53.591127],[-2.001536,53.59125],[-2.001408,53.591472],[-2.001293,53.591791],[-2.001231,53.592041],[-2.001221,53.59222],[-2.001262,53.59233],[-2.001356,53.592369],[-2.001406,53.592425],[-2.001413,53.592497],[-2.001376,53.592586],[-2.001297,53.592691],[-2.001186,53.592757],[-2.001043,53.592783],[-2.000868,53.59277],[-2.000661,53.592718],[-2.000437,53.592685],[-2.000194,53.592673],[-1.999933,53.592681],[-1.999653,53.592709],[-1.999416,53.592777],[-1.999221,53.592885],[-1.999069,53.593034],[-1.998959,53.593224],[-1.998848,53.593352],[-1.998737,53.59342],[-1.998627,53.593427],[-1.998515,53.593373],[-1.998411,53.593341],[-1.998312,53.59333],[-1.998219,53.593342],[-1.998133,53.593374],[-1.998071,53.593423],[-1.998035,53.593488],[-1.998024,53.593568],[-1.998037,53.593664],[-1.998018,53.593753],[-1.997966,53.593835],[-1.997882,53.59391],[-1.997765,53.593979],[-1.997644,53.59407],[-1.997519,53.594184],[-1.99739,53.59432],[-1.997257,53.594479],[-1.997078,53.594631],[-1.996853,53.594775],[-1.99658,53.594911],[-1.996261,53.59504],[-1.995954,53.595188],[-1.99566,53.595355],[-1.995378,53.595542],[-1.995108,53.595747],[-1.994833,53.595934],[-1.994553,53.596104],[-1.994268,53.596256],[-1.993978,53.59639],[-1.993703,53.59647],[-1.993444,53.596496],[-1.993199,53.596467],[-1.992971,53.596385],[-1.992729,53.596283],[-1.992476,53.596162],[-1.99221,53.596022],[-1.991932,53.595863],[-1.991643,53.595702],[-1.991343,53.595537],[-1.991032,53.595369],[-1.99071,53.595198],[-1.990425,53.595016],[-1.990178,53.594821],[-1.989969,53.594615],[-1.989797,53.594397],[-1.98964,53.59423],[-1.989498,53.594114],[-1.98937,53.59405],[-1.989257,53.594037],[-1.988934,53.593947],[-1.988401,53.593781],[-1.987658,53.593539],[-1.986705,53.59322],[-1.985948,53.592979],[-1.985389,53.592815],[-1.985026,53.59273],[-1.984859,53.592722],[-1.984673,53.592667],[-1.984466,53.592566],[-1.984239,53.592418],[-1.983992,53.592224],[-1.983779,53.592063],[-1.983599,53.591935],[-1.983452,53.59184],[-1.983339,53.591778],[-1.983243,53.59167],[-1.983165,53.591515],[-1.983104,53.591315],[-1.983061,53.591068],[-1.982823,53.590903],[-1.982389,53.59082],[-1.981759,53.59082],[-1.980934,53.590902],[-1.980289,53.590978],[-1.979823,53.591048],[-1.979537,53.591113],[-1.979431,53.591172],[-1.979141,53.59126],[-1.978668,53.591376],[-1.978011,53.59152],[-1.977171,53.591692],[-1.97651,53.591833],[-1.976028,53.591942],[-1.975725,53.592018],[-1.975601,53.592063],[-1.975493,53.59213],[-1.975403,53.59222],[-1.975329,53.592333],[-1.975272,53.592469],[-1.975123,53.592597],[-1.974884,53.592718],[-1.974554,53.592832],[-1.974133,53.592938],[-1.973817,53.593077],[-1.973605,53.593248],[-1.973499,53.593451],[-1.973497,53.593686],[-1.973374,53.593877],[-1.973128,53.594023],[-1.97276,53.594124],[-1.97227,53.594181],[-1.971878,53.594258],[-1.971585,53.594356],[-1.971389,53.594475],[-1.971292,53.594615],[-1.971015,53.594808],[-1.970559,53.595056],[-1.969923,53.595358],[-1.969108,53.595715],[-1.968404,53.59604],[-1.96781,53.596334],[-1.967327,53.596597],[-1.966955,53.596828],[-1.96668,53.597018],[-1.966503,53.597165],[-1.966424,53.59727],[-1.966442,53.597333],[-1.966429,53.597434],[-1.966387,53.597572],[-1.966313,53.597747],[-1.96621,53.59796]]]}}