{"type":"Feature","properties":{"id":"267040","COMMUNE":"County Durham","PROVINCE":"Durham CC","COUNTRY":"UK","FIREDATE":"2025-03-06 12:29:00","CLASS":"FireSeason","areaHA_geo":1.639},"geometry":{"type":"Polygon","coordinates":[[[-2.057741,54.521623],[-2.057955,54.521652],[-2.058153,54.521648],[-2.058336,54.52161],[-2.058504,54.521539],[-2.058635,54.521509],[-2.058728,54.521521],[-2.058783,54.521575],[-2.058801,54.521671],[-2.058832,54.521749],[-2.058876,54.521809],[-2.058933,54.52185],[-2.059003,54.521874],[-2.059077,54.521839],[-2.059154,54.521746],[-2.059236,54.521595],[-2.059321,54.521386],[-2.059345,54.521193],[-2.059309,54.521017],[-2.059212,54.520857],[-2.059054,54.520714],[-2.058982,54.520612],[-2.058995,54.520549],[-2.059093,54.520528],[-2.059278,54.520546],[-2.059401,54.520528],[-2.059464,54.520473],[-2.059465,54.520381],[-2.059406,54.520253],[-2.059383,54.520155],[-2.059394,54.520087],[-2.05944,54.520049],[-2.059522,54.520041],[-2.059603,54.519995],[-2.059683,54.519911],[-2.059763,54.519789],[-2.059842,54.519629],[-2.059795,54.519578],[-2.059624,54.519638],[-2.059327,54.519807],[-2.058905,54.520086],[-2.05852,54.520355],[-2.058171,54.520615],[-2.057858,54.520865],[-2.057583,54.521105],[-2.057433,54.521301],[-2.05741,54.521453],[-2.057512,54.52156],[-2.057741,54.521623]]]}}