{"type":"Feature","properties":{"id":"267099","COMMUNE":"Aberdeenshire","PROVINCE":"Aberdeen City and Aberdeenshire","COUNTRY":"UK","FIREDATE":"2025-04-01 11:04:00","FINALDATE":"2025-04-01 11:49:00","CLASS":"FireSeason","areaHA_geo":11.102},"geometry":{"type":"Polygon","coordinates":[[[-3.284458,57.081305],[-3.284635,57.081617],[-3.284991,57.081769],[-3.285525,57.081763],[-3.286237,57.081598],[-3.286649,57.081357],[-3.286761,57.081039],[-3.286573,57.080644],[-3.286085,57.080173],[-3.285692,57.079707],[-3.285396,57.079247],[-3.285196,57.078792],[-3.285092,57.078343],[-3.285037,57.077993],[-3.285032,57.077744],[-3.285078,57.077593],[-3.285172,57.077543],[-3.28529,57.077255],[-3.285432,57.076729],[-3.285596,57.075966],[-3.285784,57.074966],[-3.285882,57.074123],[-3.285891,57.073438],[-3.28581,57.072909],[-3.28564,57.072538],[-3.285414,57.07226],[-3.285131,57.072074],[-3.284792,57.071981],[-3.284397,57.071981],[-3.284099,57.072029],[-3.283899,57.072126],[-3.283796,57.072272],[-3.28379,57.072467],[-3.283866,57.072625],[-3.284022,57.072747],[-3.28426,57.072833],[-3.284578,57.072882],[-3.284792,57.07298],[-3.284901,57.073128],[-3.284905,57.073324],[-3.284805,57.073569],[-3.284686,57.073816],[-3.28455,57.074065],[-3.284395,57.074316],[-3.284222,57.074569],[-3.284116,57.074787],[-3.284078,57.07497],[-3.284108,57.075117],[-3.284204,57.07523],[-3.284191,57.075456],[-3.284068,57.075796],[-3.283835,57.076249],[-3.283492,57.076815],[-3.283248,57.077331],[-3.283104,57.077795],[-3.283059,57.078209],[-3.283113,57.078571],[-3.283195,57.078839],[-3.283304,57.079011],[-3.28344,57.079089],[-3.283603,57.079073],[-3.283764,57.079128],[-3.283922,57.079255],[-3.284078,57.079453],[-3.284231,57.079724],[-3.284346,57.080044],[-3.284422,57.080415],[-3.284459,57.080835],[-3.284458,57.081305]]]}}