{"type":"Feature","properties":{"id":"267036","COMMUNE":"Kirklees","PROVINCE":"Calderdale and Kirklees","COUNTRY":"UK","FIREDATE":"2025-04-03 14:53:07.898","FINALDATE":"2025-04-04 14:53:10.688","CLASS":"FireSeason","areaHA_geo":131.089},"geometry":{"type":"Polygon","coordinates":[[[-1.93225,53.624806],[-1.932373,53.625076],[-1.932558,53.625261],[-1.932805,53.625359],[-1.933115,53.625371],[-1.933383,53.625353],[-1.93361,53.625307],[-1.933795,53.625231],[-1.933939,53.625126],[-1.934089,53.625007],[-1.934245,53.624873],[-1.934407,53.624726],[-1.934576,53.624564],[-1.934717,53.624425],[-1.934832,53.624307],[-1.93492,53.624213],[-1.934981,53.62414],[-1.935069,53.624082],[-1.935184,53.624037],[-1.935326,53.624006],[-1.935495,53.62399],[-1.935749,53.623904],[-1.936088,53.62375],[-1.936512,53.623526],[-1.937021,53.623234],[-1.937402,53.622976],[-1.937655,53.622751],[-1.937779,53.622561],[-1.937776,53.622404],[-1.937733,53.622281],[-1.937652,53.622192],[-1.937532,53.622138],[-1.937373,53.622117],[-1.937231,53.622084],[-1.937105,53.622039],[-1.936997,53.621982],[-1.936906,53.621912],[-1.936887,53.621855],[-1.936941,53.62181],[-1.937067,53.621778],[-1.937266,53.621759],[-1.937493,53.621779],[-1.93775,53.621838],[-1.938036,53.621937],[-1.938351,53.622075],[-1.93858,53.622137],[-1.938724,53.622123],[-1.938783,53.622032],[-1.938756,53.621865],[-1.938783,53.621734],[-1.938863,53.621639],[-1.938996,53.621579],[-1.939183,53.621554],[-1.93941,53.621527],[-1.939678,53.621498],[-1.939985,53.621466],[-1.940333,53.621432],[-1.940605,53.621355],[-1.9408,53.621236],[-1.94092,53.621074],[-1.940965,53.62087],[-1.940982,53.620696],[-1.940971,53.620552],[-1.940934,53.620438],[-1.940869,53.620354],[-1.940823,53.620246],[-1.940796,53.620116],[-1.940788,53.619962],[-1.9408,53.619786],[-1.940819,53.619665],[-1.940846,53.619598],[-1.940881,53.619587],[-1.940924,53.619632],[-1.940991,53.61975],[-1.941082,53.619944],[-1.941196,53.620212],[-1.941335,53.620556],[-1.941457,53.620826],[-1.941565,53.621024],[-1.941657,53.62115],[-1.941733,53.621203],[-1.941792,53.621268],[-1.941835,53.621345],[-1.94186,53.621435],[-1.941869,53.621537],[-1.941894,53.621645],[-1.941937,53.621758],[-1.941996,53.621878],[-1.942073,53.622003],[-1.942168,53.622059],[-1.942281,53.622045],[-1.942413,53.621961],[-1.942563,53.621807],[-1.942736,53.621696],[-1.942931,53.621628],[-1.943149,53.621604],[-1.943389,53.621622],[-1.943563,53.621654],[-1.943673,53.621697],[-1.943717,53.621753],[-1.943696,53.621822],[-1.943649,53.62189],[-1.943576,53.621958],[-1.943478,53.622025],[-1.943354,53.622092],[-1.943333,53.622137],[-1.943417,53.622162],[-1.943605,53.622167],[-1.943896,53.62215],[-1.944197,53.622076],[-1.944507,53.621946],[-1.944826,53.621759],[-1.945155,53.621514],[-1.945414,53.621286],[-1.945604,53.621074],[-1.945724,53.620878],[-1.945775,53.620697],[-1.945856,53.620505],[-1.945966,53.6203],[-1.946106,53.620084],[-1.946276,53.619855],[-1.94645,53.619642],[-1.946629,53.619443],[-1.946811,53.619258],[-1.946998,53.619089],[-1.947156,53.618926],[-1.947285,53.618772],[-1.947386,53.618624],[-1.947459,53.618484],[-1.947523,53.618352],[-1.94758,53.618228],[-1.947629,53.618113],[-1.94767,53.618006],[-1.94779,53.617863],[-1.947989,53.617683],[-1.948267,53.617467],[-1.948624,53.617214],[-1.948943,53.616979],[-1.949224,53.616764],[-1.949466,53.616568],[-1.949671,53.61639],[-1.949843,53.61626],[-1.949983,53.616177],[-1.95009,53.61614],[-1.950165,53.616151],[-1.950238,53.616121],[-1.95031,53.616051],[-1.95038,53.615939],[-1.950449,53.615787],[-1.950542,53.615548],[-1.950659,53.615222],[-1.950799,53.614809],[-1.950963,53.614309],[-1.951052,53.613912],[-1.951065,53.613617],[-1.951003,53.613426],[-1.950865,53.613336],[-1.950762,53.613233],[-1.950693,53.613116],[-1.950658,53.612985],[-1.950658,53.61284],[-1.950719,53.612733],[-1.950842,53.612663],[-1.951027,53.612631],[-1.951274,53.612637],[-1.951463,53.612602],[-1.951594,53.612525],[-1.951668,53.612407],[-1.951684,53.612249],[-1.951561,53.612113],[-1.951299,53.611999],[-1.950898,53.611909],[-1.950359,53.611841],[-1.949942,53.611804],[-1.949649,53.611797],[-1.94948,53.61182],[-1.949433,53.611872],[-1.949286,53.611892],[-1.949037,53.611877],[-1.948686,53.611828],[-1.948234,53.611746],[-1.947883,53.611716],[-1.947634,53.611737],[-1.947487,53.611811],[-1.947441,53.611936],[-1.947325,53.612042],[-1.94714,53.612126],[-1.946885,53.612191],[-1.946561,53.612235],[-1.946085,53.612294],[-1.945458,53.612368],[-1.94468,53.612457],[-1.94375,53.612561],[-1.94304,53.612625],[-1.942552,53.612649],[-1.942285,53.612634],[-1.942238,53.612578],[-1.942052,53.612567],[-1.941725,53.612603],[-1.941258,53.612684],[-1.940651,53.61281],[-1.940183,53.612899],[-1.939856,53.612949],[-1.939668,53.612962],[-1.93962,53.612936],[-1.939444,53.61292],[-1.939141,53.612914],[-1.938711,53.612917],[-1.938153,53.61293],[-1.937757,53.612965],[-1.937523,53.613021],[-1.937451,53.613099],[-1.937541,53.613199],[-1.937486,53.613322],[-1.937288,53.613469],[-1.936946,53.613639],[-1.93646,53.613832],[-1.936078,53.613997],[-1.9358,53.614133],[-1.935626,53.614241],[-1.935557,53.61432],[-1.935392,53.614406],[-1.935133,53.614498],[-1.934778,53.614597],[-1.934328,53.614702],[-1.933959,53.614797],[-1.933672,53.614883],[-1.933467,53.614959],[-1.933343,53.615026],[-1.933185,53.615097],[-1.932992,53.615174],[-1.932765,53.615255],[-1.932504,53.615341],[-1.932243,53.615431],[-1.931983,53.615523],[-1.931725,53.615618],[-1.931467,53.615716],[-1.93123,53.615774],[-1.931016,53.615792],[-1.930824,53.61577],[-1.930653,53.615709],[-1.930504,53.615705],[-1.930377,53.61576],[-1.930271,53.615873],[-1.930187,53.616045],[-1.930061,53.616169],[-1.929894,53.616246],[-1.929686,53.616276],[-1.929436,53.616258],[-1.929231,53.616265],[-1.929071,53.616295],[-1.928957,53.616351],[-1.928888,53.61643],[-1.928794,53.616504],[-1.928676,53.616573],[-1.928533,53.616637],[-1.928366,53.616696],[-1.928263,53.616756],[-1.928224,53.616818],[-1.92825,53.61688],[-1.928339,53.616944],[-1.928392,53.617114],[-1.92841,53.61739],[-1.928391,53.617773],[-1.928336,53.618262],[-1.928367,53.618696],[-1.928484,53.619075],[-1.928688,53.619398],[-1.928979,53.619665],[-1.929156,53.619867],[-1.92922,53.620003],[-1.929171,53.620073],[-1.929009,53.620077],[-1.928876,53.620067],[-1.928772,53.620044],[-1.928698,53.620007],[-1.928653,53.619957],[-1.928478,53.619896],[-1.928171,53.619824],[-1.927734,53.61974],[-1.927166,53.619645],[-1.926726,53.619581],[-1.926416,53.619548],[-1.926234,53.619546],[-1.926181,53.619575],[-1.926222,53.619621],[-1.926358,53.619684],[-1.926587,53.619762],[-1.92691,53.619857],[-1.927195,53.619938],[-1.927444,53.620004],[-1.927655,53.620056],[-1.927829,53.620093],[-1.928096,53.620142],[-1.928455,53.620204],[-1.928907,53.620277],[-1.929452,53.620362],[-1.929882,53.620492],[-1.930197,53.620667],[-1.930397,53.620886],[-1.930482,53.62115],[-1.930534,53.621368],[-1.930553,53.621542],[-1.930538,53.62167],[-1.93049,53.621753],[-1.930476,53.621921],[-1.930497,53.622173],[-1.930551,53.622509],[-1.93064,53.62293],[-1.93079,53.623267],[-1.931,53.623522],[-1.93127,53.623693],[-1.931602,53.623781],[-1.931865,53.623937],[-1.932061,53.624159],[-1.932189,53.624449],[-1.93225,53.624806]]]}}