{"type":"Feature","properties":{"id":"267185","COMMUNE":"Inverness and Nairn","PROVINCE":"Inverness & Nairn and Moray, Badenoch & Strathspey","COUNTRY":"UK","FIREDATE":"2025-04-03 11:13:00","FINALDATE":"2025-04-03 13:38:00","CLASS":"FireSeason","areaHA_geo":48.988},"geometry":{"type":"Polygon","coordinates":[[[-4.054672,57.36346],[-4.054726,57.363579],[-4.054817,57.363658],[-4.054945,57.363697],[-4.05511,57.363697],[-4.055253,57.363718],[-4.055373,57.363758],[-4.05547,57.363819],[-4.055545,57.3639],[-4.055779,57.363993],[-4.056172,57.364099],[-4.056724,57.364218],[-4.057435,57.364349],[-4.057998,57.364444],[-4.058411,57.364503],[-4.058676,57.364527],[-4.058792,57.364514],[-4.058958,57.364529],[-4.059172,57.364571],[-4.059436,57.364641],[-4.059748,57.364738],[-4.060308,57.364826],[-4.061114,57.364905],[-4.062168,57.364975],[-4.063469,57.365037],[-4.064538,57.365052],[-4.065374,57.365021],[-4.065977,57.364944],[-4.066349,57.364821],[-4.066632,57.364684],[-4.066827,57.364532],[-4.066934,57.364367],[-4.066953,57.364187],[-4.066939,57.364013],[-4.066892,57.363846],[-4.066811,57.363686],[-4.066697,57.363532],[-4.066652,57.363437],[-4.066677,57.363402],[-4.066772,57.363426],[-4.066936,57.363509],[-4.067111,57.363572],[-4.067298,57.363614],[-4.067496,57.363635],[-4.067706,57.363637],[-4.067854,57.363613],[-4.06794,57.363565],[-4.067965,57.363493],[-4.067928,57.363396],[-4.067962,57.363329],[-4.068069,57.36329],[-4.068247,57.363282],[-4.068497,57.363302],[-4.068704,57.363295],[-4.068866,57.363259],[-4.068985,57.363196],[-4.06906,57.363105],[-4.069195,57.363047],[-4.06939,57.363023],[-4.069644,57.363033],[-4.069958,57.363076],[-4.07018,57.363082],[-4.070311,57.36305],[-4.070351,57.362981],[-4.070299,57.362873],[-4.070202,57.362787],[-4.070062,57.362722],[-4.069877,57.362679],[-4.069648,57.362656],[-4.069506,57.362529],[-4.06945,57.362297],[-4.069481,57.361962],[-4.069599,57.361522],[-4.069759,57.361187],[-4.069963,57.360957],[-4.07021,57.360833],[-4.0705,57.360813],[-4.070739,57.360749],[-4.070929,57.36064],[-4.071068,57.360485],[-4.071156,57.360286],[-4.071223,57.360121],[-4.071267,57.359992],[-4.071288,57.359898],[-4.071287,57.359838],[-4.071184,57.359805],[-4.070977,57.359798],[-4.070668,57.359816],[-4.070256,57.359861],[-4.069936,57.359889],[-4.06971,57.359902],[-4.069576,57.359898],[-4.069536,57.359879],[-4.069414,57.359885],[-4.069211,57.359915],[-4.068927,57.359971],[-4.068562,57.360052],[-4.068254,57.360105],[-4.068005,57.360129],[-4.067813,57.360124],[-4.067679,57.360091],[-4.06755,57.360077],[-4.067425,57.360081],[-4.067305,57.360105],[-4.067189,57.360147],[-4.067005,57.360164],[-4.066754,57.360155],[-4.066436,57.360121],[-4.06605,57.360062],[-4.065599,57.359964],[-4.065084,57.359826],[-4.064504,57.35965],[-4.06386,57.359435],[-4.063348,57.359275],[-4.062966,57.35917],[-4.062716,57.359122],[-4.062598,57.359129],[-4.06252,57.359155],[-4.062482,57.3592],[-4.062485,57.359265],[-4.062528,57.35935],[-4.062459,57.359397],[-4.062276,57.359408],[-4.061979,57.359382],[-4.06157,57.359319],[-4.060983,57.359252],[-4.060218,57.35918],[-4.059274,57.359104],[-4.058153,57.359023],[-4.057167,57.358978],[-4.056316,57.358969],[-4.0556,57.358996],[-4.055018,57.359058],[-4.054647,57.359123],[-4.054485,57.359191],[-4.054534,57.359262],[-4.054794,57.359335],[-4.05502,57.359459],[-4.055214,57.359634],[-4.055374,57.359859],[-4.055502,57.360136],[-4.055599,57.360432],[-4.055664,57.360745],[-4.055697,57.361077],[-4.055699,57.361427],[-4.055634,57.361759],[-4.055501,57.362073],[-4.0553,57.362369],[-4.055032,57.362647],[-4.054836,57.362895],[-4.05471,57.363113],[-4.054656,57.363301],[-4.054672,57.36346]]]}}