{"type":"Feature","properties":{"id":"267106","COMMUNE":"Na h-Eileanan Siar (Western Isles)","PROVINCE":"Na h-Eileanan Siar (Western Isles)","COUNTRY":"UK","FIREDATE":"2025-04-07 11:38:00","FINALDATE":"2025-04-07 11:38:00","CLASS":"FireSeason","areaHA_geo":2.86},"geometry":{"type":"Polygon","coordinates":[[[-6.622846,58.117112],[-6.622869,58.11719],[-6.622989,58.117266],[-6.623205,58.117339],[-6.623517,58.117409],[-6.623777,58.117437],[-6.623985,58.117423],[-6.62414,58.117366],[-6.624244,58.117268],[-6.62436,58.117187],[-6.62449,58.117125],[-6.624633,58.11708],[-6.624789,58.117054],[-6.624958,58.117026],[-6.62514,58.116999],[-6.625334,58.11697],[-6.625541,58.11694],[-6.625711,58.116895],[-6.625845,58.116834],[-6.625942,58.116756],[-6.626002,58.116663],[-6.626045,58.116554],[-6.62607,58.116427],[-6.626077,58.116284],[-6.626067,58.116125],[-6.626001,58.115934],[-6.625877,58.115711],[-6.625696,58.115458],[-6.625459,58.115173],[-6.625236,58.115003],[-6.625029,58.114949],[-6.624837,58.11501],[-6.62466,58.115186],[-6.624516,58.115347],[-6.624406,58.115493],[-6.624329,58.115623],[-6.624286,58.115738],[-6.624192,58.115861],[-6.624049,58.115992],[-6.623856,58.116131],[-6.623613,58.116278],[-6.623439,58.116408],[-6.623334,58.116522],[-6.623297,58.11662],[-6.623329,58.116702],[-6.623331,58.116768],[-6.623303,58.11682],[-6.623245,58.116856],[-6.623158,58.116877],[-6.623074,58.116914],[-6.622994,58.116965],[-6.622918,58.117031],[-6.622846,58.117112]]]}}