{"type":"Feature","properties":{"id":"267102","COMMUNE":"Aberdeenshire","PROVINCE":"Aberdeen City and Aberdeenshire","COUNTRY":"UK","FIREDATE":"2025-03-31 13:01:00","FINALDATE":"2025-03-31 13:01:00","CLASS":"FireSeason","areaHA_geo":5.932},"geometry":{"type":"Polygon","coordinates":[[[-3.279524,57.065556],[-3.279835,57.065637],[-3.280143,57.065669],[-3.280447,57.065653],[-3.280749,57.065589],[-3.281047,57.065477],[-3.281292,57.065413],[-3.281485,57.065399],[-3.281624,57.065433],[-3.28171,57.065516],[-3.281851,57.065581],[-3.282046,57.065627],[-3.282296,57.065656],[-3.2826,57.065665],[-3.282834,57.065687],[-3.282996,57.065722],[-3.283088,57.065769],[-3.28311,57.065828],[-3.283195,57.065842],[-3.283344,57.065811],[-3.283556,57.065736],[-3.283833,57.065616],[-3.284104,57.065506],[-3.28437,57.065407],[-3.28463,57.06532],[-3.284884,57.065242],[-3.285354,57.065082],[-3.286037,57.064838],[-3.286936,57.064511],[-3.288049,57.064101],[-3.288814,57.06378],[-3.289229,57.063548],[-3.289296,57.063406],[-3.289014,57.063353],[-3.28872,57.063335],[-3.288416,57.06335],[-3.2881,57.063401],[-3.287773,57.063485],[-3.287482,57.063541],[-3.287228,57.063567],[-3.287011,57.063563],[-3.28683,57.063531],[-3.286489,57.06355],[-3.285988,57.063622],[-3.285327,57.063746],[-3.284506,57.063922],[-3.283943,57.064082],[-3.283637,57.064225],[-3.283589,57.064353],[-3.283798,57.064465],[-3.283882,57.064556],[-3.283841,57.064626],[-3.283676,57.064676],[-3.283386,57.064706],[-3.28314,57.064716],[-3.282939,57.064706],[-3.282783,57.064676],[-3.282671,57.064626],[-3.282371,57.064644],[-3.281885,57.064729],[-3.281211,57.064883],[-3.28035,57.065104],[-3.279781,57.065289],[-3.279506,57.06544],[-3.279524,57.065556]]]}}