{"type":"Feature","properties":{"id":"267116","COMMUNE":"Skye and Lochalsh","PROVINCE":"Lochaber, Skye & Lochalsh, Arran & Cumbrae and Argyll & Bute","COUNTRY":"UK","FIREDATE":"2025-04-04 19:26:08.073","FINALDATE":"2025-04-05 19:26:10.88","CLASS":"FireSeason","areaHA_geo":59.227},"geometry":{"type":"Polygon","coordinates":[[[-6.379775,57.490546],[-6.379839,57.490699],[-6.379863,57.490845],[-6.379846,57.490986],[-6.379788,57.49112],[-6.379765,57.491254],[-6.379775,57.491389],[-6.379819,57.491524],[-6.379897,57.491659],[-6.379979,57.491757],[-6.380066,57.491819],[-6.380157,57.491843],[-6.380253,57.491831],[-6.380304,57.491784],[-6.380309,57.491702],[-6.380269,57.491585],[-6.380183,57.491432],[-6.380131,57.491308],[-6.380112,57.49121],[-6.380127,57.491141],[-6.380176,57.491098],[-6.380254,57.491075],[-6.380362,57.49107],[-6.380499,57.491085],[-6.380666,57.491118],[-6.380908,57.491138],[-6.381223,57.491143],[-6.381612,57.491135],[-6.382075,57.491113],[-6.382435,57.491106],[-6.382693,57.491115],[-6.382847,57.491138],[-6.382898,57.491177],[-6.38292,57.491254],[-6.382913,57.491368],[-6.382876,57.49152],[-6.382809,57.491709],[-6.382792,57.491877],[-6.382824,57.492022],[-6.382905,57.492146],[-6.383035,57.492247],[-6.383142,57.492288],[-6.383226,57.492268],[-6.383287,57.492188],[-6.383325,57.492047],[-6.383402,57.491947],[-6.383519,57.491887],[-6.383675,57.491868],[-6.38387,57.491888],[-6.384057,57.491919],[-6.384236,57.49196],[-6.384407,57.492011],[-6.38457,57.492072],[-6.384781,57.492127],[-6.385039,57.492176],[-6.385346,57.492219],[-6.385701,57.492256],[-6.385932,57.492254],[-6.386041,57.492213],[-6.386026,57.492134],[-6.385888,57.492015],[-6.385854,57.491892],[-6.385923,57.491766],[-6.386097,57.491635],[-6.386374,57.491501],[-6.38655,57.491368],[-6.386626,57.491236],[-6.386601,57.491105],[-6.386475,57.490976],[-6.386421,57.490877],[-6.38644,57.490806],[-6.386532,57.490765],[-6.386696,57.490754],[-6.38686,57.490753],[-6.387026,57.490764],[-6.387192,57.490786],[-6.387359,57.49082],[-6.387481,57.490809],[-6.387558,57.490754],[-6.387589,57.490655],[-6.387575,57.490512],[-6.38759,57.490394],[-6.387633,57.490303],[-6.387704,57.490237],[-6.387805,57.490198],[-6.387784,57.490067],[-6.387641,57.489844],[-6.387377,57.489531],[-6.386992,57.489127],[-6.386636,57.48875],[-6.38631,57.488402],[-6.386013,57.488081],[-6.385746,57.487789],[-6.385487,57.48745],[-6.385237,57.487065],[-6.384996,57.486633],[-6.384763,57.486155],[-6.384655,57.485869],[-6.384672,57.485777],[-6.384815,57.485877],[-6.385082,57.486169],[-6.385311,57.486387],[-6.385503,57.486531],[-6.385656,57.4866],[-6.385772,57.486594],[-6.385854,57.486615],[-6.385901,57.486664],[-6.385914,57.486739],[-6.385892,57.486842],[-6.385908,57.486951],[-6.38596,57.487066],[-6.386049,57.487189],[-6.386175,57.487318],[-6.386322,57.487438],[-6.38649,57.487548],[-6.386679,57.487649],[-6.386889,57.48774],[-6.387025,57.487834],[-6.387085,57.48793],[-6.387071,57.48803],[-6.386982,57.488131],[-6.387014,57.488241],[-6.387168,57.488357],[-6.387444,57.488481],[-6.387841,57.488612],[-6.38814,57.488676],[-6.388342,57.488674],[-6.388446,57.488604],[-6.388452,57.488467],[-6.388412,57.488305],[-6.388327,57.488116],[-6.388196,57.487902],[-6.38802,57.487661],[-6.387853,57.487478],[-6.387695,57.487353],[-6.387546,57.487286],[-6.387407,57.487276],[-6.387317,57.487238],[-6.387279,57.48717],[-6.38729,57.487073],[-6.387351,57.486948],[-6.387412,57.48682],[-6.387472,57.48669],[-6.38753,57.486559],[-6.387588,57.486424],[-6.387687,57.486278],[-6.387827,57.48612],[-6.388008,57.48595],[-6.38823,57.485768],[-6.388371,57.485585],[-6.388432,57.485401],[-6.388411,57.485216],[-6.38831,57.485029],[-6.388252,57.484844],[-6.388236,57.48466],[-6.388264,57.484478],[-6.388334,57.484297],[-6.388411,57.484149],[-6.388495,57.484034],[-6.388584,57.483953],[-6.388681,57.483904],[-6.388746,57.483853],[-6.388781,57.483799],[-6.388785,57.483742],[-6.388758,57.483682],[-6.388685,57.483623],[-6.388566,57.483566],[-6.388401,57.483509],[-6.38819,57.483454],[-6.388049,57.483393],[-6.387976,57.483325],[-6.387972,57.483251],[-6.388037,57.48317],[-6.388034,57.483053],[-6.387965,57.482898],[-6.387828,57.482707],[-6.387624,57.482479],[-6.387274,57.48219],[-6.386778,57.481841],[-6.386136,57.48143],[-6.385349,57.480958],[-6.384675,57.480542],[-6.384116,57.480182],[-6.38367,57.479878],[-6.383339,57.47963],[-6.383047,57.479443],[-6.382796,57.479316],[-6.382584,57.47925],[-6.382413,57.479244],[-6.382199,57.479192],[-6.381943,57.479092],[-6.381645,57.478947],[-6.381305,57.478754],[-6.381004,57.478574],[-6.380743,57.478408],[-6.380522,57.478254],[-6.38034,57.478114],[-6.380131,57.478007],[-6.379895,57.477932],[-6.379631,57.477891],[-6.37934,57.477882],[-6.37904,57.477816],[-6.378731,57.477692],[-6.378412,57.47751],[-6.378084,57.47727],[-6.377845,57.477123],[-6.377694,57.47707],[-6.377632,57.47711],[-6.377658,57.477242],[-6.377639,57.47736],[-6.377576,57.477463],[-6.377468,57.477551],[-6.377315,57.477625],[-6.377126,57.477653],[-6.376898,57.477637],[-6.376634,57.477575],[-6.376332,57.477468],[-6.376025,57.477366],[-6.375711,57.47727],[-6.375391,57.477178],[-6.375065,57.477093],[-6.374895,57.477023],[-6.374879,57.476971],[-6.37502,57.476935],[-6.375315,57.476916],[-6.375441,57.476857],[-6.375396,57.476759],[-6.375182,57.476621],[-6.374797,57.476442],[-6.374482,57.476342],[-6.374235,57.476318],[-6.374056,57.476373],[-6.373947,57.476504],[-6.373888,57.476654],[-6.373879,57.476823],[-6.373921,57.47701],[-6.374014,57.477216],[-6.374116,57.477386],[-6.374228,57.477522],[-6.374349,57.477622],[-6.37448,57.477687],[-6.374556,57.477761],[-6.374577,57.477845],[-6.374542,57.477937],[-6.374453,57.478039],[-6.374399,57.478143],[-6.374379,57.47825],[-6.374395,57.478359],[-6.374445,57.478471],[-6.374548,57.478596],[-6.374703,57.478735],[-6.374912,57.478887],[-6.375173,57.479054],[-6.375386,57.479217],[-6.375551,57.479378],[-6.375668,57.479535],[-6.375738,57.479689],[-6.375879,57.479844],[-6.376093,57.479998],[-6.376378,57.480153],[-6.376734,57.480307],[-6.377,57.4804],[-6.377176,57.480433],[-6.37726,57.480404],[-6.377253,57.480314],[-6.377307,57.480255],[-6.377421,57.480227],[-6.377595,57.48023],[-6.37783,57.480264],[-6.377912,57.480231],[-6.377842,57.480131],[-6.377619,57.479965],[-6.377243,57.479731],[-6.377,57.479547],[-6.376888,57.479411],[-6.376908,57.479325],[-6.37706,57.479288],[-6.377122,57.479228],[-6.377093,57.479145],[-6.376974,57.47904],[-6.376764,57.478913],[-6.376686,57.478805],[-6.376739,57.478717],[-6.376924,57.478648],[-6.37724,57.478599],[-6.377463,57.478598],[-6.377594,57.478645],[-6.377633,57.47874],[-6.377579,57.478883],[-6.377573,57.47901],[-6.377615,57.479123],[-6.377706,57.47922],[-6.377844,57.479302],[-6.37803,57.479367],[-6.378262,57.479415],[-6.378542,57.479446],[-6.378869,57.479459],[-6.379167,57.479446],[-6.379437,57.479408],[-6.379679,57.479343],[-6.379891,57.479253],[-6.380086,57.479226],[-6.380263,57.479263],[-6.380422,57.479363],[-6.380564,57.479526],[-6.38077,57.479639],[-6.381043,57.479699],[-6.381381,57.479709],[-6.381784,57.479667],[-6.382112,57.479674],[-6.382365,57.479728],[-6.382542,57.47983],[-6.382644,57.47998],[-6.382669,57.480093],[-6.382618,57.480167],[-6.382491,57.480203],[-6.382287,57.480202],[-6.3822,57.480242],[-6.382229,57.480325],[-6.382374,57.480449],[-6.382635,57.480616],[-6.382862,57.480746],[-6.383056,57.480839],[-6.383217,57.480896],[-6.383345,57.480916],[-6.383489,57.480963],[-6.383649,57.481038],[-6.383826,57.481141],[-6.38402,57.48127],[-6.384145,57.481397],[-6.384201,57.481522],[-6.384188,57.481643],[-6.384107,57.481762],[-6.384055,57.481873],[-6.384034,57.481975],[-6.384042,57.482069],[-6.384081,57.482155],[-6.384065,57.482223],[-6.383995,57.482272],[-6.38387,57.482304],[-6.38369,57.482317],[-6.383525,57.482354],[-6.383374,57.482414],[-6.383238,57.482496],[-6.383117,57.482602],[-6.383066,57.482695],[-6.383085,57.482774],[-6.383174,57.48284],[-6.383333,57.482892],[-6.383471,57.482984],[-6.383589,57.483114],[-6.383686,57.483283],[-6.383763,57.48349],[-6.383713,57.483594],[-6.383535,57.483594],[-6.38323,57.483489],[-6.382798,57.483281],[-6.382419,57.483068],[-6.382093,57.482851],[-6.38182,57.48263],[-6.3816,57.482404],[-6.381487,57.482237],[-6.38148,57.482129],[-6.381581,57.48208],[-6.381788,57.48209],[-6.381995,57.48208],[-6.3822,57.48205],[-6.382406,57.481999],[-6.38261,57.481928],[-6.382717,57.481846],[-6.382726,57.481755],[-6.382638,57.481653],[-6.382452,57.48154],[-6.382201,57.481461],[-6.381884,57.481414],[-6.381502,57.481401],[-6.381055,57.481421],[-6.380691,57.481429],[-6.38041,57.481423],[-6.380212,57.481405],[-6.380096,57.481374],[-6.379923,57.481317],[-6.379691,57.481233],[-6.3794,57.481122],[-6.379051,57.480985],[-6.378782,57.480894],[-6.378593,57.48085],[-6.378484,57.480852],[-6.378455,57.480901],[-6.378525,57.481008],[-6.378692,57.481173],[-6.378957,57.481395],[-6.37932,57.481676],[-6.379541,57.481875],[-6.379619,57.481992],[-6.379555,57.482027],[-6.379348,57.48198],[-6.379151,57.481955],[-6.378963,57.481952],[-6.378785,57.48197],[-6.378617,57.482009],[-6.378521,57.482077],[-6.378498,57.482175],[-6.378547,57.482303],[-6.378669,57.48246],[-6.378789,57.482624],[-6.378908,57.482794],[-6.379026,57.482972],[-6.379143,57.483156],[-6.379227,57.483323],[-6.379277,57.48347],[-6.379293,57.4836],[-6.379275,57.483711],[-6.379195,57.483775],[-6.379051,57.483793],[-6.378844,57.483765],[-6.378573,57.48369],[-6.378333,57.483607],[-6.378123,57.483516],[-6.377943,57.483416],[-6.377793,57.483308],[-6.37774,57.483211],[-6.377785,57.483123],[-6.377928,57.483047],[-6.378168,57.48298],[-6.378295,57.482896],[-6.378309,57.482795],[-6.378209,57.482676],[-6.377995,57.48254],[-6.377782,57.482451],[-6.377569,57.48241],[-6.377357,57.482416],[-6.377144,57.48247],[-6.376982,57.48255],[-6.376868,57.482654],[-6.376805,57.482785],[-6.376791,57.482941],[-6.376829,57.483101],[-6.376921,57.483266],[-6.377065,57.483436],[-6.377262,57.483611],[-6.377489,57.483815],[-6.377747,57.48405],[-6.378036,57.484315],[-6.378355,57.48461],[-6.378633,57.484863],[-6.378872,57.485073],[-6.37907,57.48524],[-6.379228,57.485365],[-6.379368,57.485413],[-6.37949,57.485384],[-6.379594,57.485279],[-6.37968,57.485096],[-6.379817,57.484958],[-6.380004,57.484867],[-6.380241,57.484821],[-6.380528,57.484821],[-6.380696,57.484857],[-6.380745,57.484928],[-6.380675,57.485034],[-6.380485,57.485175],[-6.380319,57.485312],[-6.380175,57.485443],[-6.380055,57.485569],[-6.379957,57.48569],[-6.380003,57.4858],[-6.380191,57.485899],[-6.380522,57.485986],[-6.380995,57.486063],[-6.381398,57.486121],[-6.381728,57.486161],[-6.381987,57.486182],[-6.382175,57.486186],[-6.382324,57.486208],[-6.382435,57.486248],[-6.382508,57.486307],[-6.382543,57.486384],[-6.382609,57.486464],[-6.382705,57.486547],[-6.382833,57.486633],[-6.382991,57.486722],[-6.383137,57.486783],[-6.38327,57.486816],[-6.383391,57.486821],[-6.383499,57.486798],[-6.383602,57.486801],[-6.383699,57.48683],[-6.383791,57.486884],[-6.383878,57.486964],[-6.383979,57.48703],[-6.384096,57.487083],[-6.384229,57.487123],[-6.384376,57.48715],[-6.38443,57.487205],[-6.384391,57.487286],[-6.384259,57.487396],[-6.384033,57.487533],[-6.383752,57.487677],[-6.383415,57.487828],[-6.383021,57.487986],[-6.382572,57.488152],[-6.382269,57.488303],[-6.382111,57.488441],[-6.382099,57.488564],[-6.382233,57.488674],[-6.382377,57.488749],[-6.38253,57.488789],[-6.382693,57.488793],[-6.382865,57.488763],[-6.382964,57.488768],[-6.382992,57.48881],[-6.382947,57.488888],[-6.382829,57.489003],[-6.382866,57.489093],[-6.383057,57.48916],[-6.383401,57.489202],[-6.3839,57.489221],[-6.38429,57.489263],[-6.384573,57.489327],[-6.384747,57.489414],[-6.384813,57.489523],[-6.384701,57.489592],[-6.384409,57.489619],[-6.383938,57.489606],[-6.383288,57.489552],[-6.382765,57.489516],[-6.382368,57.489498],[-6.382098,57.489498],[-6.381954,57.489516],[-6.381816,57.48949],[-6.381683,57.489421],[-6.381556,57.489308],[-6.381435,57.489151],[-6.381196,57.489034],[-6.38084,57.488956],[-6.380366,57.488918],[-6.379776,57.48892],[-6.379302,57.488993],[-6.378945,57.489138],[-6.378704,57.489354],[-6.37858,57.489641],[-6.378557,57.489861],[-6.378635,57.490015],[-6.378813,57.490101],[-6.379092,57.49012],[-6.379328,57.490174],[-6.37952,57.490263],[-6.379669,57.490387],[-6.379775,57.490546]]]}}