{"type":"Feature","properties":{"id":"267153","COMMUNE":"Caithness and Sutherland","PROVINCE":"Caithness & Sutherland and Ross & Cromarty","COUNTRY":"UK","FIREDATE":"2025-04-07 11:38:00","CLASS":"FireSeason","areaHA_geo":11.567},"geometry":{"type":"Polygon","coordinates":[[[-4.104478,58.142759],[-4.105119,58.143159],[-4.105639,58.143413],[-4.106038,58.143518],[-4.106317,58.143477],[-4.106521,58.143413],[-4.106652,58.143328],[-4.106708,58.14322],[-4.106691,58.14309],[-4.106621,58.142963],[-4.106498,58.142838],[-4.106322,58.142716],[-4.106093,58.142597],[-4.105911,58.14248],[-4.105775,58.142365],[-4.105685,58.142254],[-4.105642,58.142144],[-4.105484,58.141976],[-4.105212,58.141747],[-4.104826,58.141459],[-4.104326,58.141111],[-4.103978,58.140821],[-4.103785,58.14059],[-4.103745,58.140418],[-4.103859,58.140304],[-4.103929,58.140195],[-4.103956,58.14009],[-4.103939,58.13999],[-4.103879,58.139895],[-4.103863,58.139819],[-4.103891,58.139762],[-4.103964,58.139724],[-4.104082,58.139706],[-4.104163,58.139652],[-4.104207,58.139564],[-4.104215,58.13944],[-4.104186,58.139281],[-4.10418,58.13915],[-4.104196,58.139047],[-4.104234,58.138971],[-4.104294,58.138923],[-4.104345,58.138814],[-4.104385,58.138645],[-4.104417,58.138416],[-4.104438,58.138126],[-4.104375,58.137866],[-4.104228,58.137636],[-4.103995,58.137436],[-4.103679,58.137267],[-4.103449,58.137108],[-4.103306,58.136962],[-4.10325,58.136827],[-4.10328,58.136704],[-4.103286,58.136518],[-4.103267,58.136268],[-4.103223,58.135956],[-4.103154,58.13558],[-4.103005,58.135304],[-4.102776,58.135128],[-4.102468,58.135051],[-4.10208,58.135074],[-4.101803,58.135205],[-4.101637,58.135445],[-4.101581,58.135792],[-4.101636,58.136247],[-4.101653,58.136684],[-4.101631,58.137102],[-4.101571,58.137502],[-4.101473,58.137884],[-4.101388,58.138215],[-4.101317,58.138495],[-4.10126,58.138724],[-4.101217,58.138902],[-4.101195,58.139096],[-4.101193,58.139306],[-4.101211,58.139531],[-4.10125,58.139773],[-4.101332,58.139988],[-4.101458,58.140179],[-4.101628,58.140343],[-4.101842,58.140482],[-4.102042,58.140585],[-4.102227,58.140652],[-4.102398,58.140684],[-4.102555,58.140679],[-4.102659,58.14072],[-4.102711,58.140808],[-4.10271,58.140941],[-4.102656,58.14112],[-4.102806,58.141392],[-4.10316,58.141755],[-4.103717,58.142211],[-4.104478,58.142759]]]}}