{"type":"Feature","properties":{"id":"267110","COMMUNE":"Na h-Eileanan Siar (Western Isles)","PROVINCE":"Na h-Eileanan Siar (Western Isles)","COUNTRY":"UK","FIREDATE":"2025-04-10 12:00:00","FINALDATE":"2025-04-11 01:49:00","CLASS":"FireSeason","areaHA_geo":254.004},"geometry":{"type":"Polygon","coordinates":[[[-7.292271,57.326569],[-7.292808,57.326657],[-7.293455,57.326691],[-7.294231,57.326701],[-7.295135,57.326686],[-7.296005,57.326553],[-7.296842,57.326301],[-7.297365,57.326185],[-7.297574,57.326204],[-7.297815,57.326202],[-7.298089,57.32618],[-7.298369,57.326157],[-7.298657,57.326134],[-7.298952,57.32611],[-7.299255,57.326085],[-7.299564,57.32606],[-7.29988,57.326035],[-7.300204,57.326009],[-7.300535,57.325983],[-7.300854,57.325936],[-7.301161,57.325869],[-7.301456,57.325782],[-7.301738,57.325675],[-7.301884,57.325619],[-7.301894,57.325614],[-7.30241,57.325652],[-7.303434,57.325734],[-7.304434,57.325721],[-7.305411,57.325612],[-7.306131,57.325335],[-7.306592,57.32489],[-7.307453,57.324327],[-7.308713,57.323648],[-7.309312,57.32295],[-7.309249,57.322235],[-7.308978,57.321706],[-7.308499,57.321366],[-7.308123,57.321033],[-7.30785,57.320707],[-7.307508,57.320487],[-7.307097,57.320371],[-7.306598,57.320321],[-7.306011,57.320335],[-7.305401,57.320385],[-7.304768,57.320469],[-7.304229,57.320542],[-7.303782,57.320601],[-7.303235,57.320726],[-7.302587,57.320916],[-7.302221,57.320948],[-7.302137,57.320822],[-7.302,57.320708],[-7.30181,57.320607],[-7.301572,57.320526],[-7.301285,57.320465],[-7.300993,57.320388],[-7.300694,57.320294],[-7.300389,57.320185],[-7.300079,57.320059],[-7.299762,57.319918],[-7.29944,57.31976],[-7.299111,57.319586],[-7.298777,57.319396],[-7.298456,57.319228],[-7.29815,57.31908],[-7.297858,57.318954],[-7.29758,57.318849],[-7.297317,57.318765],[-7.297067,57.318703],[-7.296832,57.318661],[-7.296611,57.318641],[-7.296383,57.318631],[-7.296148,57.318633],[-7.295905,57.318645],[-7.295655,57.318667],[-7.295397,57.318701],[-7.295133,57.318745],[-7.294861,57.3188],[-7.294582,57.318866],[-7.294284,57.318925],[-7.293969,57.318976],[-7.293635,57.319021],[-7.293283,57.31906],[-7.292913,57.319091],[-7.292525,57.319115],[-7.292119,57.319132],[-7.291695,57.319143],[-7.291302,57.319148],[-7.29094,57.319147],[-7.290609,57.319141],[-7.29031,57.31913],[-7.290042,57.319113],[-7.289805,57.31909],[-7.289599,57.319062],[-7.289425,57.319028],[-7.289259,57.318986],[-7.289102,57.318934],[-7.288955,57.318873],[-7.288816,57.318802],[-7.288685,57.318723],[-7.288564,57.318634],[-7.288452,57.318537],[-7.288348,57.31843],[-7.288227,57.318344],[-7.288089,57.31828],[-7.287935,57.318237],[-7.287763,57.318215],[-7.287573,57.318215],[-7.287367,57.318237],[-7.287144,57.318279],[-7.286904,57.318343],[-7.286671,57.318393],[-7.286446,57.318427],[-7.28623,57.318447],[-7.286021,57.318452],[-7.285819,57.318442],[-7.285626,57.318417],[-7.28544,57.318377],[-7.285263,57.318323],[-7.285067,57.318264],[-7.284852,57.318202],[-7.28462,57.318137],[-7.284369,57.318067],[-7.284099,57.317994],[-7.283812,57.317917],[-7.283506,57.317836],[-7.283182,57.317751],[-7.282861,57.317679],[-7.282542,57.317621],[-7.282226,57.317575],[-7.281914,57.317542],[-7.281604,57.317522],[-7.281297,57.317515],[-7.280992,57.317521],[-7.280691,57.31754],[-7.28039,57.317559],[-7.280088,57.317578],[-7.279787,57.317597],[-7.279485,57.317615],[-7.279184,57.317634],[-7.278883,57.317653],[-7.278581,57.317672],[-7.27828,57.317691],[-7.277972,57.317703],[-7.277657,57.317709],[-7.277337,57.317708],[-7.277009,57.3177],[-7.276675,57.317685],[-7.276335,57.317664],[-7.275989,57.317636],[-7.275635,57.317601],[-7.275293,57.317561],[-7.274962,57.317513],[-7.274642,57.31746],[-7.274333,57.317399],[-7.274035,57.317333],[-7.273747,57.31726],[-7.273471,57.317181],[-7.273206,57.317096],[-7.272968,57.317029],[-7.272757,57.316979],[-7.272572,57.316949],[-7.272414,57.316936],[-7.272283,57.316941],[-7.272179,57.316965],[-7.272101,57.317007],[-7.27205,57.317067],[-7.271985,57.317127],[-7.271904,57.317188],[-7.271809,57.317248],[-7.2717,57.317309],[-7.271575,57.31737],[-7.271436,57.317431],[-7.271282,57.317493],[-7.271113,57.317555],[-7.270931,57.317608],[-7.270737,57.317655],[-7.27053,57.317694],[-7.27031,57.317725],[-7.270078,57.317748],[-7.269833,57.317764],[-7.269575,57.317772],[-7.269304,57.317773],[-7.269046,57.317776],[-7.268799,57.317781],[-7.268564,57.317789],[-7.268341,57.317799],[-7.26813,57.317811],[-7.267931,57.317827],[-7.267743,57.317844],[-7.267568,57.317864],[-7.267389,57.317864],[-7.267208,57.317843],[-7.267024,57.317803],[-7.266837,57.317743],[-7.266647,57.317662],[-7.266454,57.317562],[-7.266258,57.317441],[-7.26606,57.317301],[-7.265855,57.317168],[-7.265644,57.317044],[-7.265427,57.316927],[-7.265203,57.316818],[-7.264974,57.316717],[-7.264738,57.316624],[-7.264497,57.316539],[-7.264249,57.316462],[-7.264038,57.316386],[-7.263863,57.316309],[-7.263725,57.316234],[-7.263623,57.316158],[-7.263558,57.316084],[-7.263529,57.316009],[-7.263537,57.315935],[-7.263581,57.315862],[-7.263607,57.315782],[-7.263615,57.315697],[-7.263604,57.315606],[-7.263574,57.315508],[-7.263526,57.315405],[-7.263459,57.315296],[-7.263374,57.315181],[-7.26327,57.315059],[-7.263166,57.314952],[-7.263061,57.314859],[-7.262954,57.314779],[-7.262847,57.314713],[-7.262739,57.314662],[-7.262631,57.314624],[-7.262521,57.3146],[-7.262411,57.31459],[-7.262282,57.314606],[-7.262136,57.314648],[-7.261971,57.314717],[-7.261788,57.314813],[-7.261588,57.314935],[-7.261369,57.315083],[-7.261132,57.315257],[-7.260878,57.315458],[-7.260644,57.315651],[-7.26043,57.315835],[-7.260238,57.31601],[-7.260066,57.316177],[-7.259915,57.316335],[-7.259784,57.316485],[-7.259675,57.316626],[-7.259586,57.316759],[-7.259495,57.316898],[-7.259403,57.317045],[-7.259308,57.317198],[-7.259213,57.317358],[-7.259115,57.317525],[-7.259016,57.317699],[-7.258915,57.31788],[-7.258813,57.318068],[-7.258703,57.318241],[-7.258587,57.3184],[-7.258464,57.318544],[-7.258333,57.318673],[-7.258196,57.318788],[-7.258052,57.318888],[-7.257901,57.318973],[-7.257743,57.319044],[-7.257608,57.319115],[-7.257495,57.319187],[-7.257404,57.319259],[-7.257337,57.319332],[-7.257291,57.319406],[-7.257269,57.31948],[-7.257269,57.319555],[-7.257291,57.31963],[-7.257309,57.3197],[-7.257322,57.319766],[-7.25733,57.319827],[-7.257334,57.319884],[-7.257333,57.319935],[-7.257327,57.319982],[-7.257316,57.320024],[-7.257301,57.320062],[-7.25727,57.320098],[-7.257223,57.320131],[-7.257161,57.320163],[-7.257083,57.320193],[-7.256989,57.320221],[-7.256879,57.320248],[-7.256753,57.320272],[-7.256612,57.320294],[-7.256465,57.320315],[-7.256312,57.320333],[-7.256153,57.32035],[-7.255988,57.320365],[-7.255818,57.320378],[-7.255642,57.320389],[-7.255459,57.320398],[-7.255271,57.320405],[-7.255108,57.320422],[-7.25497,57.320447],[-7.254857,57.320482],[-7.254769,57.320526],[-7.254705,57.320578],[-7.254667,57.32064],[-7.254654,57.320711],[-7.254665,57.320792],[-7.254699,57.320859],[-7.254754,57.320913],[-7.254831,57.320953],[-7.25493,57.320981],[-7.255051,57.320996],[-7.255193,57.320997],[-7.255358,57.320985],[-7.255544,57.320961],[-7.255721,57.320942],[-7.255887,57.320931],[-7.256043,57.320926],[-7.256189,57.320928],[-7.256325,57.320936],[-7.256451,57.320952],[-7.256567,57.320973],[-7.256673,57.321002],[-7.256752,57.321046],[-7.256803,57.321105],[-7.256826,57.321179],[-7.256823,57.321268],[-7.256791,57.321373],[-7.256732,57.321492],[-7.256646,57.321627],[-7.256532,57.321778],[-7.256422,57.321929],[-7.256316,57.32208],[-7.256213,57.322233],[-7.256114,57.322387],[-7.256019,57.322541],[-7.255928,57.322696],[-7.25584,57.322852],[-7.255756,57.323009],[-7.255676,57.323164],[-7.255601,57.323316],[-7.255531,57.323466],[-7.255465,57.323613],[-7.255404,57.323758],[-7.255348,57.3239],[-7.255296,57.32404],[-7.255249,57.324178],[-7.255219,57.324312],[-7.255204,57.324442],[-7.255206,57.324568],[-7.255224,57.32469],[-7.255259,57.324808],[-7.25531,57.324922],[-7.255377,57.325032],[-7.25546,57.325138],[-7.255579,57.325232],[-7.255733,57.325313],[-7.255923,57.325383],[-7.256148,57.32544],[-7.256408,57.325485],[-7.256705,57.325517],[-7.257036,57.325537],[-7.257403,57.325545],[-7.257771,57.325542],[-7.258139,57.325529],[-7.258508,57.325505],[-7.258878,57.325469],[-7.259248,57.325424],[-7.25962,57.325367],[-7.259991,57.3253],[-7.260364,57.325222],[-7.260662,57.325135],[-7.260887,57.325041],[-7.261037,57.324938],[-7.261113,57.324826],[-7.261114,57.324706],[-7.261042,57.324578],[-7.260896,57.324442],[-7.260675,57.324297],[-7.260528,57.324167],[-7.260455,57.32405],[-7.260455,57.323948],[-7.260529,57.32386],[-7.260677,57.323786],[-7.260898,57.323727],[-7.261192,57.323681],[-7.261561,57.32365],[-7.26188,57.3236],[-7.262151,57.323531],[-7.262374,57.323443],[-7.262548,57.323336],[-7.262673,57.323211],[-7.26275,57.323066],[-7.262778,57.322903],[-7.262758,57.322721],[-7.262773,57.322576],[-7.262823,57.322469],[-7.262908,57.3224],[-7.263028,57.322368],[-7.263184,57.322373],[-7.263374,57.322416],[-7.2636,57.322497],[-7.26386,57.322615],[-7.264112,57.322721],[-7.264355,57.322816],[-7.264589,57.322899],[-7.264815,57.32297],[-7.265031,57.32303],[-7.265239,57.323077],[-7.265437,57.323114],[-7.265627,57.323138],[-7.265846,57.323155],[-7.266094,57.323166],[-7.26637,57.323169],[-7.266676,57.323166],[-7.26701,57.323156],[-7.267374,57.323138],[-7.267766,57.323114],[-7.268187,57.323083],[-7.268571,57.323065],[-7.268917,57.323062],[-7.269227,57.323072],[-7.269499,57.323096],[-7.269734,57.323134],[-7.269932,57.323186],[-7.270093,57.323251],[-7.270216,57.323331],[-7.270328,57.323412],[-7.270428,57.323493],[-7.270516,57.323576],[-7.270592,57.32366],[-7.270657,57.323745],[-7.270709,57.323832],[-7.27075,57.323919],[-7.270778,57.324007],[-7.270852,57.324083],[-7.270971,57.324145],[-7.271135,57.324195],[-7.271343,57.324231],[-7.271597,57.324254],[-7.271896,57.324264],[-7.272239,57.32426],[-7.272628,57.324244],[-7.272941,57.324248],[-7.27318,57.324271],[-7.273344,57.324314],[-7.273434,57.324376],[-7.273448,57.324459],[-7.273387,57.324561],[-7.273252,57.324683],[-7.273042,57.324825],[-7.272863,57.324966],[-7.272714,57.325105],[-7.272597,57.325244],[-7.27251,57.325382],[-7.272454,57.325518],[-7.27243,57.325654],[-7.272436,57.325789],[-7.272473,57.325922],[-7.27257,57.326054],[-7.272727,57.326183],[-7.272944,57.32631],[-7.273221,57.326435],[-7.273558,57.326557],[-7.273955,57.326677],[-7.274413,57.326795],[-7.27493,57.326911],[-7.275421,57.327026],[-7.275886,57.32714],[-7.276326,57.327253],[-7.276739,57.327365],[-7.277126,57.327476],[-7.277487,57.327586],[-7.277822,57.327695],[-7.278131,57.327803],[-7.278433,57.327902],[-7.278728,57.327992],[-7.279017,57.328073],[-7.279299,57.328146],[-7.279575,57.32821],[-7.279843,57.328264],[-7.280106,57.32831],[-7.280361,57.328347],[-7.280595,57.328367],[-7.280808,57.328371],[-7.281177,57.328489],[-7.281702,57.328722],[-7.282427,57.328894],[-7.28335,57.329005],[-7.284704,57.328728],[-7.286486,57.328065],[-7.287749,57.327555],[-7.288491,57.327201],[-7.289122,57.326946],[-7.289643,57.326791],[-7.289944,57.326707],[-7.290027,57.326694],[-7.289933,57.326621],[-7.289662,57.326489],[-7.289238,57.326356],[-7.288659,57.32622],[-7.288023,57.326049],[-7.287332,57.325843],[-7.286743,57.325645],[-7.286257,57.325455],[-7.285891,57.325227],[-7.285646,57.324961],[-7.285519,57.324776],[-7.285508,57.324671],[-7.285655,57.324438],[-7.285959,57.324078],[-7.286227,57.323808],[-7.286458,57.323628],[-7.286695,57.323501],[-7.286936,57.323426],[-7.287145,57.323281],[-7.287319,57.323066],[-7.287675,57.322774],[-7.288212,57.322404],[-7.288708,57.322114],[-7.289163,57.321904],[-7.289608,57.321717],[-7.290044,57.321553],[-7.290491,57.321493],[-7.290948,57.321538],[-7.291401,57.321616],[-7.291849,57.321727],[-7.29227,57.321905],[-7.292663,57.32215],[-7.293005,57.322328],[-7.293295,57.322439],[-7.293464,57.322544],[-7.293511,57.322644],[-7.293386,57.322714],[-7.293089,57.322754],[-7.292674,57.322798],[-7.292144,57.322848],[-7.291566,57.322883],[-7.290942,57.322902],[-7.290348,57.323067],[-7.289782,57.323376],[-7.28951,57.323636],[-7.28953,57.323846],[-7.289857,57.323909],[-7.29049,57.323825],[-7.291054,57.323888],[-7.29155,57.324098],[-7.291743,57.324254],[-7.291632,57.324354],[-7.291382,57.324494],[-7.290992,57.324673],[-7.290546,57.324818],[-7.290044,57.324928],[-7.289612,57.32506],[-7.28925,57.325215],[-7.288827,57.325324],[-7.288343,57.325389],[-7.288106,57.325474],[-7.288117,57.325579],[-7.288299,57.325672],[-7.288654,57.325752],[-7.289242,57.325823],[-7.290062,57.325884],[-7.290763,57.326024],[-7.291343,57.326245],[-7.291845,57.326427],[-7.292271,57.326569]],[[-7.258417,57.321417],[-7.259585,57.320707],[-7.259623,57.320788],[-7.259623,57.320788],[-7.259773,57.320938],[-7.260555,57.320919],[-7.261113,57.320759],[-7.26206,57.32042],[-7.262509,57.320531],[-7.262493,57.320831],[-7.262518,57.321552],[-7.261996,57.321621],[-7.262129,57.321901],[-7.261966,57.322392],[-7.261258,57.322401],[-7.260788,57.32191],[-7.259929,57.321769],[-7.258417,57.321417]]]}}