{"type":"Feature","properties":{"id":"267117","COMMUNE":"Skye and Lochalsh","PROVINCE":"Lochaber, Skye & Lochalsh, Arran & Cumbrae and Argyll & Bute","COUNTRY":"UK","FIREDATE":"2025-04-04 19:30:40.151","FINALDATE":"2025-04-05 19:30:43.058","CLASS":"FireSeason","areaHA_geo":60.622},"geometry":{"type":"Polygon","coordinates":[[[-6.280134,57.626843],[-6.28018,57.626913],[-6.280267,57.626946],[-6.280397,57.626944],[-6.280568,57.626905],[-6.280708,57.626887],[-6.280815,57.626892],[-6.280891,57.626918],[-6.280935,57.626966],[-6.281023,57.627002],[-6.281157,57.627027],[-6.281335,57.627041],[-6.281559,57.627042],[-6.281727,57.62707],[-6.28184,57.627125],[-6.281899,57.627205],[-6.281902,57.627311],[-6.28192,57.627406],[-6.281951,57.627488],[-6.281997,57.627558],[-6.282056,57.627616],[-6.282138,57.627619],[-6.282243,57.627567],[-6.28237,57.627461],[-6.28252,57.6273],[-6.282649,57.627204],[-6.282757,57.627172],[-6.282844,57.627206],[-6.282911,57.627305],[-6.282998,57.627387],[-6.283106,57.627454],[-6.283235,57.627505],[-6.283384,57.62754],[-6.283519,57.627532],[-6.283641,57.627481],[-6.283749,57.627387],[-6.283843,57.627251],[-6.283955,57.627166],[-6.284084,57.627132],[-6.284231,57.627149],[-6.284395,57.627218],[-6.284534,57.627249],[-6.284649,57.627244],[-6.284738,57.627202],[-6.284802,57.627122],[-6.284834,57.627044],[-6.284832,57.626967],[-6.284798,57.626891],[-6.284731,57.626816],[-6.284728,57.626749],[-6.28479,57.626687],[-6.284915,57.626633],[-6.285105,57.626586],[-6.285241,57.626524],[-6.285324,57.626449],[-6.285353,57.626359],[-6.285328,57.626255],[-6.285314,57.626166],[-6.285308,57.626093],[-6.285312,57.626034],[-6.285326,57.625991],[-6.285324,57.625942],[-6.285305,57.625888],[-6.28527,57.625829],[-6.285218,57.625764],[-6.285184,57.625694],[-6.285167,57.625619],[-6.285167,57.625539],[-6.285184,57.625453],[-6.285158,57.625339],[-6.285088,57.625197],[-6.284974,57.625025],[-6.284817,57.624825],[-6.284655,57.6246],[-6.284487,57.624351],[-6.284313,57.624077],[-6.284134,57.623779],[-6.283932,57.62352],[-6.283705,57.623302],[-6.283456,57.623124],[-6.283182,57.622986],[-6.282958,57.622864],[-6.282782,57.622758],[-6.282656,57.622668],[-6.282578,57.622595],[-6.282483,57.622538],[-6.282371,57.622499],[-6.282241,57.622476],[-6.282094,57.622471],[-6.281967,57.622491],[-6.28186,57.622537],[-6.281773,57.622609],[-6.281706,57.622706],[-6.281601,57.622739],[-6.281458,57.622706],[-6.281278,57.622608],[-6.28106,57.622445],[-6.280853,57.622345],[-6.280658,57.622307],[-6.280475,57.622331],[-6.280303,57.622418],[-6.280154,57.622463],[-6.280027,57.622467],[-6.279924,57.622429],[-6.279844,57.62235],[-6.279735,57.622257],[-6.279598,57.622149],[-6.279432,57.622027],[-6.279237,57.621891],[-6.279036,57.621771],[-6.278827,57.621666],[-6.278612,57.621577],[-6.27839,57.621504],[-6.278173,57.621442],[-6.277961,57.621391],[-6.277754,57.621352],[-6.277553,57.621323],[-6.277394,57.621286],[-6.27728,57.621241],[-6.277208,57.621188],[-6.27718,57.621126],[-6.27713,57.621057],[-6.277056,57.62098],[-6.27696,57.620895],[-6.27684,57.620803],[-6.276747,57.620757],[-6.27668,57.620756],[-6.27664,57.620801],[-6.276625,57.620892],[-6.276593,57.620957],[-6.276544,57.620996],[-6.276477,57.621009],[-6.276393,57.620995],[-6.276265,57.620951],[-6.276092,57.620874],[-6.275873,57.620766],[-6.27561,57.620627],[-6.275346,57.620533],[-6.27508,57.620486],[-6.274813,57.620485],[-6.274545,57.620531],[-6.274311,57.620538],[-6.274114,57.620506],[-6.273951,57.620435],[-6.273824,57.620327],[-6.273731,57.62023],[-6.273671,57.620145],[-6.273644,57.620073],[-6.27365,57.620013],[-6.273684,57.619971],[-6.273746,57.619949],[-6.273836,57.619945],[-6.273954,57.61996],[-6.274054,57.619948],[-6.274136,57.619908],[-6.2742,57.61984],[-6.274246,57.619745],[-6.274307,57.61967],[-6.274381,57.619613],[-6.27447,57.619575],[-6.274573,57.619556],[-6.274626,57.619515],[-6.274631,57.619452],[-6.274587,57.619367],[-6.274495,57.61926],[-6.274344,57.619191],[-6.274136,57.619161],[-6.27387,57.619169],[-6.273546,57.619215],[-6.273274,57.619216],[-6.273055,57.619172],[-6.272887,57.619083],[-6.272771,57.618949],[-6.272584,57.618843],[-6.272327,57.618765],[-6.271999,57.618716],[-6.2716,57.618694],[-6.27127,57.618695],[-6.271008,57.618719],[-6.270815,57.618765],[-6.27069,57.618834],[-6.270541,57.618917],[-6.270368,57.619012],[-6.27017,57.619122],[-6.269947,57.619244],[-6.269731,57.619363],[-6.269522,57.619479],[-6.269319,57.61959],[-6.269123,57.619697],[-6.268998,57.619792],[-6.268946,57.619872],[-6.268965,57.61994],[-6.269056,57.619994],[-6.269119,57.620102],[-6.269153,57.620264],[-6.269158,57.62048],[-6.269135,57.62075],[-6.269065,57.620952],[-6.268947,57.621085],[-6.268782,57.62115],[-6.268569,57.621147],[-6.268405,57.621177],[-6.268288,57.621239],[-6.26822,57.621333],[-6.268199,57.62146],[-6.268145,57.621531],[-6.268057,57.621545],[-6.267934,57.621502],[-6.267779,57.621403],[-6.267589,57.621333],[-6.267365,57.621293],[-6.267107,57.621282],[-6.266815,57.6213],[-6.266609,57.62136],[-6.266488,57.621461],[-6.266452,57.621604],[-6.266501,57.621788],[-6.266533,57.621938],[-6.266547,57.622055],[-6.266543,57.622139],[-6.266521,57.622189],[-6.266493,57.62225],[-6.266459,57.622323],[-6.266419,57.622407],[-6.266372,57.622501],[-6.266326,57.622584],[-6.26628,57.622655],[-6.266235,57.622715],[-6.266189,57.622762],[-6.266068,57.622808],[-6.265872,57.622853],[-6.2656,57.622897],[-6.265253,57.622941],[-6.264982,57.623013],[-6.264789,57.623114],[-6.264673,57.623245],[-6.264633,57.623404],[-6.26463,57.623514],[-6.264663,57.623575],[-6.264732,57.623587],[-6.264838,57.623551],[-6.264953,57.623523],[-6.265079,57.623504],[-6.265213,57.623495],[-6.265358,57.623495],[-6.265475,57.62354],[-6.265566,57.623629],[-6.265629,57.623764],[-6.265665,57.623944],[-6.265719,57.624082],[-6.265791,57.62418],[-6.265881,57.624237],[-6.265988,57.624254],[-6.2661,57.624284],[-6.266214,57.62433],[-6.266333,57.624389],[-6.266455,57.624463],[-6.266597,57.624512],[-6.266758,57.624537],[-6.266938,57.624536],[-6.267138,57.624511],[-6.267299,57.624517],[-6.267421,57.624552],[-6.267503,57.624618],[-6.267546,57.624713],[-6.267566,57.624813],[-6.267563,57.624917],[-6.267537,57.625026],[-6.267488,57.625139],[-6.267481,57.625217],[-6.267517,57.62526],[-6.267596,57.625268],[-6.267717,57.625241],[-6.267815,57.625242],[-6.267889,57.625272],[-6.26794,57.625329],[-6.267968,57.625415],[-6.268055,57.625486],[-6.268203,57.625542],[-6.26841,57.625583],[-6.268677,57.625609],[-6.268902,57.62565],[-6.269084,57.625708],[-6.269222,57.625781],[-6.269318,57.62587],[-6.269419,57.625953],[-6.269525,57.626029],[-6.269637,57.626098],[-6.269754,57.626161],[-6.269822,57.626168],[-6.26984,57.626122],[-6.269808,57.62602],[-6.269726,57.625864],[-6.269585,57.625717],[-6.269384,57.625579],[-6.269123,57.625449],[-6.268802,57.625329],[-6.268691,57.625243],[-6.26879,57.625192],[-6.2691,57.625176],[-6.269619,57.625194],[-6.270031,57.625244],[-6.270334,57.625325],[-6.270529,57.625438],[-6.270616,57.625581],[-6.270657,57.625702],[-6.270651,57.625801],[-6.270599,57.625877],[-6.270501,57.625931],[-6.270463,57.625995],[-6.270486,57.626069],[-6.270569,57.626154],[-6.270711,57.626249],[-6.270836,57.626304],[-6.270942,57.626317],[-6.27103,57.62629],[-6.271099,57.626222],[-6.271168,57.626166],[-6.271237,57.626121],[-6.271306,57.626089],[-6.271375,57.626069],[-6.271409,57.626027],[-6.271409,57.625965],[-6.271374,57.625882],[-6.271305,57.625777],[-6.271281,57.625699],[-6.271301,57.625646],[-6.271367,57.625618],[-6.271477,57.625616],[-6.271608,57.625661],[-6.27176,57.625752],[-6.271933,57.625889],[-6.272127,57.626073],[-6.272358,57.626191],[-6.272627,57.626244],[-6.272932,57.626231],[-6.273275,57.626153],[-6.273597,57.626077],[-6.273897,57.626004],[-6.274177,57.625934],[-6.274435,57.625866],[-6.27466,57.62581],[-6.274851,57.625765],[-6.275009,57.625732],[-6.275133,57.625711],[-6.275295,57.625701],[-6.275496,57.625703],[-6.275735,57.625716],[-6.276013,57.625741],[-6.276265,57.625745],[-6.276491,57.625729],[-6.276692,57.625692],[-6.276866,57.625634],[-6.277044,57.625566],[-6.277225,57.625487],[-6.27741,57.625397],[-6.277598,57.625297],[-6.277805,57.625213],[-6.27803,57.625146],[-6.278275,57.625097],[-6.278538,57.625064],[-6.278772,57.625035],[-6.278977,57.625009],[-6.279154,57.624987],[-6.279301,57.624969],[-6.279464,57.624947],[-6.279641,57.624922],[-6.279834,57.624894],[-6.280042,57.624862],[-6.280198,57.624857],[-6.280303,57.62488],[-6.280356,57.624929],[-6.280357,57.625006],[-6.280362,57.625102],[-6.280369,57.625217],[-6.280379,57.625351],[-6.280393,57.625504],[-6.280438,57.625635],[-6.280515,57.625744],[-6.280624,57.625832],[-6.280764,57.625897],[-6.280904,57.625941],[-6.281041,57.625962],[-6.281177,57.625962],[-6.281311,57.625939],[-6.28142,57.625939],[-6.281502,57.625961],[-6.281558,57.626006],[-6.281589,57.626074],[-6.281517,57.626149],[-6.281344,57.626233],[-6.281069,57.626325],[-6.280691,57.626426],[-6.280409,57.626528],[-6.280223,57.626631],[-6.280131,57.626736],[-6.280134,57.626843]]]}}