{"type":"Feature","properties":{"id":"267157","COMMUNE":"Caithness and Sutherland","PROVINCE":"Caithness & Sutherland and Ross & Cromarty","COUNTRY":"UK","FIREDATE":"2025-04-04 09:33:24.171","CLASS":"FireSeason","areaHA_geo":2.67},"geometry":{"type":"Polygon","coordinates":[[[-3.861807,58.18978],[-3.86196,58.189892],[-3.862135,58.189944],[-3.862331,58.189934],[-3.86255,58.189863],[-3.862692,58.18979],[-3.862757,58.189713],[-3.862747,58.189634],[-3.86266,58.189552],[-3.862604,58.189458],[-3.862576,58.189353],[-3.862579,58.189237],[-3.862611,58.189108],[-3.862607,58.188952],[-3.862566,58.188766],[-3.86249,58.188552],[-3.862377,58.18831],[-3.862224,58.188079],[-3.862029,58.187859],[-3.861793,58.187651],[-3.861516,58.187454],[-3.861274,58.187265],[-3.861067,58.187082],[-3.860894,58.186907],[-3.860756,58.186739],[-3.860648,58.186585],[-3.86057,58.186444],[-3.860523,58.186317],[-3.860506,58.186204],[-3.860499,58.186096],[-3.8605,58.185995],[-3.860511,58.185901],[-3.860532,58.185812],[-3.86055,58.185713],[-3.860566,58.185603],[-3.860581,58.185483],[-3.860594,58.185352],[-3.860633,58.185238],[-3.8607,58.18514],[-3.860793,58.185058],[-3.860914,58.184993],[-3.861008,58.184931],[-3.861077,58.184874],[-3.861119,58.18482],[-3.861136,58.18477],[-3.861105,58.184737],[-3.861027,58.184722],[-3.8609,58.184723],[-3.860725,58.184741],[-3.86055,58.184742],[-3.860376,58.184727],[-3.860201,58.184695],[-3.860028,58.184646],[-3.859882,58.184662],[-3.859763,58.184744],[-3.859673,58.184891],[-3.85961,58.185104],[-3.859609,58.185325],[-3.859671,58.185554],[-3.859795,58.185791],[-3.859981,58.186035],[-3.860163,58.186274],[-3.86034,58.186508],[-3.860513,58.186736],[-3.860682,58.186958],[-3.860827,58.187173],[-3.860949,58.187381],[-3.861047,58.187582],[-3.861123,58.187776],[-3.861205,58.187964],[-3.861294,58.188147],[-3.861391,58.188324],[-3.861494,58.188495],[-3.861561,58.188661],[-3.861591,58.188821],[-3.861585,58.188975],[-3.861543,58.189124],[-3.861544,58.189278],[-3.861588,58.189439],[-3.861676,58.189607],[-3.861807,58.18978]]]}}