{"type":"Feature","properties":{"id":"267162","COMMUNE":"Caithness and Sutherland","PROVINCE":"Caithness & Sutherland and Ross & Cromarty","COUNTRY":"UK","FIREDATE":"2025-04-04 09:33:18.917","FINALDATE":"2025-04-05 09:33:34.056","CLASS":"FireSeason","areaHA_geo":0.342},"geometry":{"type":"Polygon","coordinates":[[[-3.855717,58.186446],[-3.855953,58.186548],[-3.856158,58.186584],[-3.856333,58.186554],[-3.856477,58.186458],[-3.856508,58.186355],[-3.856425,58.186246],[-3.856227,58.186131],[-3.855916,58.18601],[-3.855658,58.185931],[-3.855453,58.185895],[-3.855301,58.185901],[-3.855201,58.18595],[-3.855193,58.186029],[-3.855276,58.186138],[-3.855451,58.186277],[-3.855717,58.186446]]]}}