{"type":"Feature","properties":{"id":"267111","COMMUNE":"Skye and Lochalsh","PROVINCE":"Lochaber, Skye & Lochalsh, Arran & Cumbrae and Argyll & Bute","COUNTRY":"UK","FIREDATE":"2025-04-08 01:05:00","FINALDATE":"2025-04-09 01:07:00","CLASS":"FireSeason","areaHA_geo":291.156},"geometry":{"type":"Polygon","coordinates":[[[-6.678569,57.44024],[-6.67874,57.440284],[-6.678909,57.440286],[-6.679075,57.440247],[-6.679239,57.440166],[-6.679421,57.440062],[-6.679619,57.439934],[-6.679835,57.439784],[-6.680068,57.43961],[-6.680205,57.439409],[-6.680246,57.439182],[-6.680191,57.438928],[-6.68004,57.438648],[-6.679979,57.438431],[-6.680009,57.438277],[-6.68013,57.438187],[-6.680341,57.43816],[-6.680498,57.438112],[-6.680601,57.438045],[-6.68065,57.437958],[-6.680646,57.437851],[-6.680674,57.437742],[-6.680735,57.437632],[-6.68083,57.437521],[-6.680957,57.437409],[-6.681093,57.437194],[-6.681237,57.436875],[-6.68139,57.436454],[-6.681551,57.435929],[-6.681588,57.435523],[-6.6815,57.435234],[-6.681288,57.435064],[-6.680951,57.435011],[-6.680659,57.43497],[-6.680411,57.434942],[-6.680208,57.434926],[-6.68005,57.434923],[-6.679921,57.434873],[-6.679822,57.434778],[-6.679751,57.434637],[-6.67971,57.43445],[-6.679633,57.434268],[-6.679518,57.434091],[-6.679366,57.433919],[-6.679177,57.433751],[-6.679121,57.433605],[-6.679199,57.433482],[-6.679409,57.43338],[-6.679752,57.4333],[-6.679974,57.433175],[-6.680075,57.433006],[-6.680056,57.432793],[-6.679915,57.432535],[-6.67989,57.432382],[-6.67998,57.432335],[-6.680185,57.432393],[-6.680505,57.432555],[-6.680864,57.432704],[-6.681261,57.432839],[-6.681697,57.43296],[-6.68217,57.433067],[-6.682421,57.433065],[-6.682448,57.432954],[-6.682252,57.432733],[-6.681832,57.432403],[-6.681442,57.43215],[-6.681082,57.431975],[-6.680752,57.431876],[-6.680452,57.431855],[-6.680167,57.431819],[-6.679899,57.43177],[-6.679646,57.431706],[-6.679409,57.431628],[-6.679202,57.431553],[-6.679023,57.43148],[-6.678873,57.431409],[-6.678752,57.431341],[-6.678642,57.431259],[-6.678543,57.431164],[-6.678454,57.431055],[-6.678376,57.430934],[-6.678417,57.430805],[-6.678579,57.430671],[-6.67886,57.43053],[-6.679262,57.430382],[-6.67943,57.430202],[-6.679366,57.429988],[-6.679068,57.429741],[-6.678538,57.429462],[-6.678197,57.429241],[-6.678045,57.429081],[-6.678082,57.42898],[-6.678309,57.428939],[-6.678416,57.428856],[-6.678404,57.428732],[-6.678272,57.428566],[-6.67802,57.428359],[-6.677747,57.428202],[-6.677453,57.428096],[-6.677137,57.42804],[-6.6768,57.428035],[-6.676497,57.428008],[-6.676228,57.427959],[-6.675994,57.427887],[-6.675795,57.427793],[-6.675645,57.427698],[-6.675545,57.427603],[-6.675496,57.427507],[-6.675497,57.427411],[-6.675446,57.427313],[-6.675344,57.427212],[-6.67519,57.427109],[-6.674985,57.427003],[-6.674761,57.426879],[-6.674517,57.426736],[-6.674253,57.426575],[-6.67397,57.426396],[-6.673695,57.426224],[-6.67343,57.42606],[-6.673174,57.425904],[-6.672928,57.425756],[-6.672687,57.425646],[-6.672453,57.425574],[-6.672225,57.42554],[-6.672004,57.425544],[-6.671761,57.425477],[-6.671495,57.425337],[-6.671208,57.425125],[-6.670899,57.42484],[-6.67062,57.424585],[-6.670372,57.424359],[-6.670153,57.424163],[-6.669964,57.423995],[-6.669845,57.423857],[-6.669796,57.42375],[-6.669816,57.423672],[-6.669906,57.423625],[-6.670017,57.423598],[-6.670149,57.423593],[-6.670301,57.42361],[-6.670475,57.423648],[-6.670628,57.423652],[-6.67076,57.423623],[-6.670871,57.423561],[-6.670961,57.423465],[-6.671017,57.423344],[-6.671039,57.423197],[-6.671027,57.423025],[-6.670981,57.422827],[-6.670893,57.422635],[-6.670762,57.422447],[-6.67059,57.422266],[-6.670375,57.422089],[-6.670173,57.421905],[-6.669985,57.421714],[-6.669809,57.421514],[-6.669647,57.421307],[-6.669448,57.421141],[-6.669212,57.421015],[-6.668939,57.42093],[-6.668628,57.420886],[-6.668418,57.420805],[-6.668308,57.420687],[-6.668298,57.420533],[-6.668389,57.420341],[-6.668521,57.420177],[-6.668693,57.420041],[-6.668906,57.419933],[-6.669159,57.419853],[-6.669351,57.419759],[-6.669481,57.419652],[-6.669549,57.419533],[-6.669555,57.4194],[-6.669489,57.419256],[-6.66935,57.4191],[-6.669139,57.418932],[-6.668856,57.418752],[-6.668562,57.41849],[-6.668259,57.418145],[-6.667946,57.417717],[-6.667623,57.417207],[-6.667375,57.416801],[-6.667203,57.416499],[-6.667107,57.416302],[-6.667087,57.416209],[-6.667015,57.416101],[-6.666892,57.415979],[-6.666718,57.415842],[-6.666492,57.415691],[-6.666194,57.415529],[-6.665824,57.415354],[-6.665381,57.415168],[-6.664866,57.41497],[-6.664445,57.414733],[-6.664118,57.414458],[-6.663884,57.414143],[-6.663744,57.413789],[-6.663457,57.413478],[-6.663021,57.41321],[-6.662438,57.412985],[-6.661707,57.412803],[-6.661142,57.412629],[-6.660742,57.412465],[-6.660509,57.412309],[-6.660442,57.412162],[-6.660332,57.41202],[-6.66018,57.411883],[-6.659986,57.411752],[-6.65975,57.411627],[-6.659551,57.411496],[-6.659388,57.411361],[-6.659263,57.411221],[-6.659174,57.411077],[-6.658953,57.410934],[-6.658598,57.410794],[-6.65811,57.410656],[-6.65749,57.410519],[-6.656957,57.410369],[-6.656513,57.410204],[-6.656158,57.410024],[-6.65589,57.409831],[-6.655654,57.409693],[-6.65545,57.409611],[-6.655276,57.409586],[-6.655133,57.409616],[-6.654995,57.409691],[-6.654859,57.40981],[-6.654728,57.409974],[-6.6546,57.410182],[-6.654452,57.410372],[-6.654285,57.410543],[-6.654098,57.410696],[-6.653892,57.41083],[-6.653704,57.410992],[-6.653534,57.411182],[-6.653382,57.411399],[-6.653249,57.411644],[-6.65316,57.411866],[-6.653117,57.412063],[-6.653118,57.412237],[-6.653164,57.412387],[-6.653233,57.412561],[-6.653324,57.412759],[-6.653437,57.412981],[-6.653572,57.413228],[-6.653705,57.413421],[-6.653836,57.41356],[-6.653964,57.413645],[-6.65409,57.413677],[-6.654198,57.413729],[-6.654287,57.413802],[-6.654358,57.413895],[-6.654409,57.414008],[-6.654419,57.414115],[-6.654387,57.414215],[-6.654312,57.414308],[-6.654196,57.414395],[-6.654106,57.414479],[-6.654042,57.414559],[-6.654005,57.414636],[-6.653993,57.414709],[-6.654005,57.414795],[-6.654038,57.414892],[-6.654094,57.415002],[-6.654172,57.415124],[-6.654194,57.41522],[-6.654159,57.41529],[-6.654068,57.415335],[-6.65392,57.415354],[-6.65384,57.415421],[-6.653826,57.415537],[-6.653878,57.415701],[-6.653998,57.415914],[-6.654156,57.4161],[-6.654353,57.416261],[-6.654587,57.416396],[-6.654861,57.416505],[-6.655107,57.416665],[-6.655327,57.416877],[-6.65552,57.41714],[-6.655686,57.417454],[-6.655781,57.417709],[-6.655803,57.417904],[-6.655753,57.418039],[-6.655632,57.418115],[-6.655541,57.41821],[-6.655483,57.418326],[-6.655455,57.418461],[-6.65546,57.418617],[-6.655404,57.41869],[-6.655288,57.418681],[-6.655112,57.418589],[-6.654876,57.418416],[-6.654632,57.418309],[-6.654379,57.418269],[-6.654118,57.418297],[-6.653849,57.418391],[-6.653687,57.418538],[-6.653633,57.418737],[-6.653686,57.418988],[-6.653848,57.419291],[-6.654022,57.419526],[-6.654211,57.419694],[-6.654413,57.419794],[-6.654629,57.419826],[-6.654744,57.419896],[-6.654759,57.420002],[-6.654674,57.420144],[-6.654488,57.420324],[-6.654274,57.420514],[-6.65403,57.420713],[-6.653757,57.420922],[-6.653455,57.42114],[-6.65324,57.421354],[-6.653112,57.421562],[-6.653071,57.421765],[-6.653117,57.421963],[-6.653193,57.422115],[-6.653297,57.422222],[-6.653431,57.422282],[-6.653594,57.422298],[-6.653707,57.422349],[-6.65377,57.422437],[-6.653782,57.422561],[-6.653744,57.422722],[-6.653697,57.422851],[-6.653641,57.422948],[-6.653576,57.423013],[-6.653502,57.423047],[-6.653453,57.42311],[-6.653429,57.423203],[-6.653429,57.423326],[-6.653454,57.423479],[-6.653425,57.423561],[-6.65334,57.423571],[-6.653201,57.423511],[-6.653007,57.42338],[-6.652822,57.423269],[-6.652646,57.423178],[-6.652479,57.423106],[-6.652322,57.423054],[-6.652164,57.42299],[-6.652006,57.422915],[-6.651849,57.422827],[-6.651692,57.422727],[-6.651508,57.422643],[-6.651297,57.422574],[-6.651061,57.42252],[-6.650798,57.422482],[-6.650495,57.422455],[-6.650152,57.422439],[-6.64977,57.422434],[-6.649349,57.42244],[-6.649058,57.422489],[-6.6489,57.422581],[-6.648872,57.422717],[-6.648976,57.422895],[-6.649093,57.423039],[-6.649221,57.423149],[-6.649361,57.423224],[-6.649514,57.423264],[-6.649711,57.423281],[-6.649954,57.423274],[-6.650241,57.423243],[-6.650574,57.423188],[-6.650845,57.423159],[-6.651056,57.423156],[-6.651206,57.423179],[-6.651295,57.423228],[-6.651393,57.423281],[-6.651498,57.42334],[-6.65161,57.423403],[-6.651731,57.423472],[-6.651844,57.423571],[-6.651948,57.423702],[-6.652045,57.423863],[-6.652133,57.424056],[-6.652157,57.424218],[-6.652116,57.424349],[-6.652011,57.424449],[-6.651842,57.424519],[-6.651707,57.42459],[-6.651607,57.424663],[-6.65154,57.424737],[-6.651508,57.424813],[-6.65149,57.424897],[-6.651487,57.424987],[-6.651498,57.425085],[-6.651524,57.425189],[-6.651651,57.425284],[-6.65188,57.425368],[-6.65221,57.425443],[-6.652641,57.425508],[-6.652991,57.425577],[-6.65326,57.42565],[-6.653446,57.425728],[-6.653551,57.425811],[-6.653552,57.425922],[-6.653448,57.426061],[-6.65324,57.426229],[-6.652927,57.426425],[-6.652828,57.426548],[-6.652941,57.4266],[-6.653266,57.426579],[-6.653805,57.426486],[-6.654241,57.426415],[-6.654576,57.426366],[-6.65481,57.426339],[-6.654941,57.426334],[-6.655056,57.426377],[-6.655153,57.426466],[-6.655232,57.426603],[-6.655294,57.426787],[-6.655294,57.426946],[-6.655233,57.42708],[-6.655109,57.427188],[-6.654924,57.427272],[-6.65486,57.427412],[-6.654917,57.427609],[-6.655094,57.427862],[-6.655392,57.428171],[-6.655836,57.428555],[-6.656426,57.429013],[-6.657161,57.429546],[-6.658043,57.430152],[-6.658779,57.430625],[-6.659369,57.430963],[-6.659815,57.431167],[-6.660115,57.431236],[-6.660349,57.431236],[-6.660518,57.431166],[-6.660622,57.431027],[-6.66066,57.430818],[-6.660714,57.430716],[-6.660782,57.430719],[-6.660866,57.430828],[-6.660965,57.431043],[-6.661083,57.431217],[-6.661222,57.431349],[-6.661381,57.43144],[-6.66156,57.431489],[-6.661777,57.431548],[-6.662032,57.431617],[-6.662325,57.431696],[-6.662657,57.431786],[-6.662951,57.431892],[-6.663209,57.432015],[-6.663429,57.432155],[-6.663613,57.432311],[-6.663812,57.432441],[-6.664027,57.432546],[-6.664259,57.432624],[-6.664506,57.432676],[-6.664737,57.432814],[-6.664952,57.433039],[-6.66515,57.433349],[-6.665332,57.433746],[-6.66549,57.434091],[-6.665625,57.434386],[-6.665737,57.434629],[-6.665825,57.434822],[-6.665931,57.435015],[-6.666053,57.435209],[-6.666193,57.435404],[-6.66635,57.4356],[-6.666528,57.435781],[-6.666727,57.435947],[-6.666948,57.436099],[-6.667189,57.436236],[-6.66739,57.436381],[-6.66755,57.436535],[-6.667669,57.436696],[-6.667746,57.436866],[-6.667891,57.43701],[-6.668101,57.437127],[-6.668377,57.437217],[-6.668719,57.437281],[-6.66895,57.43736],[-6.669071,57.437452],[-6.669081,57.437559],[-6.66898,57.43768],[-6.668924,57.437813],[-6.668912,57.437958],[-6.668945,57.438116],[-6.669023,57.438286],[-6.669135,57.438406],[-6.669279,57.438478],[-6.669457,57.4385],[-6.669668,57.438473],[-6.669854,57.438488],[-6.670014,57.438545],[-6.670149,57.438645],[-6.670259,57.438787],[-6.670432,57.438897],[-6.670669,57.438974],[-6.670969,57.43902],[-6.671333,57.439033],[-6.671647,57.439035],[-6.67191,57.439025],[-6.672124,57.439003],[-6.672288,57.438971],[-6.672479,57.438973],[-6.672697,57.439011],[-6.672943,57.439084],[-6.673217,57.439193],[-6.67348,57.439267],[-6.673733,57.439307],[-6.673975,57.439312],[-6.674207,57.439282],[-6.674392,57.439282],[-6.674529,57.439313],[-6.674618,57.439373],[-6.67466,57.439464],[-6.674776,57.439548],[-6.674968,57.439625],[-6.675235,57.439696],[-6.675578,57.43976],[-6.675892,57.439813],[-6.676179,57.439854],[-6.676439,57.439883],[-6.676671,57.439902],[-6.676862,57.439928],[-6.677012,57.439963],[-6.677121,57.440006],[-6.677189,57.440057],[-6.677293,57.440089],[-6.677433,57.440101],[-6.677608,57.440093],[-6.677819,57.440066],[-6.678021,57.440067],[-6.678213,57.440097],[-6.678396,57.440154],[-6.678569,57.44024]]]}}