{"type":"Feature","properties":{"id":"267105","COMMUNE":"Na h-Eileanan Siar (Western Isles)","PROVINCE":"Na h-Eileanan Siar (Western Isles)","COUNTRY":"UK","FIREDATE":"2025-04-05 13:08:00","CLASS":"FireSeason","areaHA_geo":7.368},"geometry":{"type":"Polygon","coordinates":[[[-6.588867,58.129559],[-6.588922,58.129476],[-6.588947,58.129399],[-6.588941,58.129325],[-6.588905,58.129256],[-6.588838,58.129191],[-6.588773,58.129101],[-6.588711,58.128985],[-6.588651,58.128844],[-6.588593,58.128677],[-6.588475,58.128567],[-6.588298,58.128515],[-6.588061,58.128521],[-6.587764,58.128584],[-6.587517,58.128616],[-6.587322,58.128617],[-6.587177,58.128587],[-6.587083,58.128525],[-6.587059,58.128462],[-6.587106,58.128396],[-6.587223,58.128327],[-6.58741,58.128256],[-6.587558,58.128195],[-6.587667,58.128144],[-6.587736,58.128103],[-6.587766,58.128071],[-6.587794,58.128019],[-6.587819,58.127945],[-6.587841,58.127852],[-6.587861,58.127737],[-6.58791,58.127643],[-6.587987,58.127567],[-6.588092,58.127512],[-6.588226,58.127475],[-6.588339,58.127419],[-6.588432,58.127342],[-6.588503,58.127244],[-6.588554,58.127126],[-6.58857,58.127027],[-6.588552,58.126949],[-6.588499,58.126891],[-6.588412,58.126852],[-6.588355,58.126807],[-6.588328,58.126754],[-6.588332,58.126694],[-6.588366,58.126628],[-6.588423,58.12654],[-6.588503,58.126433],[-6.588606,58.126304],[-6.588732,58.126155],[-6.588784,58.126035],[-6.588762,58.125944],[-6.588666,58.125883],[-6.588496,58.12585],[-6.588332,58.125798],[-6.588174,58.125727],[-6.588022,58.125635],[-6.587876,58.125525],[-6.587762,58.125409],[-6.587679,58.12529],[-6.587628,58.125165],[-6.587609,58.125037],[-6.58756,58.12495],[-6.587482,58.124905],[-6.587374,58.124902],[-6.587237,58.12494],[-6.587112,58.124989],[-6.586999,58.125047],[-6.586897,58.125115],[-6.586807,58.125193],[-6.586785,58.125293],[-6.586831,58.125414],[-6.586946,58.125556],[-6.587129,58.125721],[-6.587309,58.125865],[-6.587485,58.125989],[-6.587659,58.126093],[-6.587828,58.126177],[-6.587947,58.126254],[-6.588015,58.126324],[-6.588031,58.126387],[-6.587996,58.126443],[-6.587887,58.126492],[-6.587705,58.126534],[-6.587449,58.12657],[-6.58712,58.126598],[-6.586822,58.126612],[-6.586557,58.126612],[-6.586324,58.126598],[-6.586123,58.12657],[-6.585895,58.126563],[-6.585641,58.126577],[-6.58536,58.126614],[-6.585052,58.126672],[-6.584772,58.126726],[-6.584521,58.126777],[-6.584297,58.126824],[-6.584101,58.126868],[-6.583919,58.126904],[-6.58375,58.12693],[-6.583594,58.126948],[-6.583451,58.126958],[-6.583326,58.126978],[-6.583218,58.127008],[-6.583127,58.12705],[-6.583054,58.127102],[-6.58295,58.127143],[-6.582817,58.127173],[-6.582654,58.127191],[-6.582462,58.127198],[-6.58231,58.127214],[-6.5822,58.12724],[-6.58213,58.127275],[-6.582102,58.127319],[-6.582116,58.127373],[-6.582173,58.127437],[-6.582272,58.127511],[-6.582413,58.127594],[-6.582538,58.12768],[-6.582648,58.127767],[-6.582743,58.127856],[-6.582823,58.127947],[-6.5829,58.127991],[-6.582977,58.127988],[-6.583051,58.127938],[-6.583124,58.127841],[-6.58322,58.127756],[-6.58334,58.127686],[-6.583483,58.127628],[-6.58365,58.127583],[-6.583816,58.127563],[-6.583982,58.127568],[-6.584147,58.127598],[-6.584311,58.127653],[-6.58441,58.127711],[-6.584443,58.127772],[-6.58441,58.127837],[-6.584311,58.127906],[-6.584331,58.127996],[-6.584469,58.128107],[-6.584725,58.128241],[-6.5851,58.128396],[-6.585422,58.128533],[-6.585692,58.128652],[-6.58591,58.128752],[-6.586075,58.128835],[-6.586235,58.128893],[-6.58639,58.128928],[-6.586539,58.128938],[-6.586684,58.128924],[-6.586799,58.128926],[-6.586885,58.128943],[-6.586941,58.128976],[-6.586967,58.129024],[-6.587078,58.129072],[-6.587271,58.12912],[-6.587549,58.129167],[-6.58791,58.129214],[-6.588198,58.129257],[-6.588413,58.129294],[-6.588556,58.129327],[-6.588626,58.129354],[-6.588682,58.129393],[-6.588724,58.129443],[-6.588751,58.129503],[-6.588764,58.129575],[-6.588788,58.129608],[-6.588822,58.129602],[-6.588867,58.129559]]]}}