{"type":"Feature","properties":{"id":"267107","COMMUNE":"Na h-Eileanan Siar (Western Isles)","PROVINCE":"Na h-Eileanan Siar (Western Isles)","COUNTRY":"UK","FIREDATE":"2025-04-06 19:04:11.794","CLASS":"FireSeason","areaHA_geo":3.186},"geometry":{"type":"Polygon","coordinates":[[[-6.636449,58.113895],[-6.636636,58.113937],[-6.636798,58.11393],[-6.636936,58.113875],[-6.63705,58.113771],[-6.637137,58.113646],[-6.637198,58.113498],[-6.637232,58.113328],[-6.637239,58.113135],[-6.637244,58.112961],[-6.637249,58.112804],[-6.637252,58.112666],[-6.637254,58.112546],[-6.637275,58.112421],[-6.637315,58.112291],[-6.637373,58.112156],[-6.63745,58.112017],[-6.637495,58.111886],[-6.637506,58.111765],[-6.637484,58.111653],[-6.63743,58.11155],[-6.637437,58.111442],[-6.637507,58.111327],[-6.637638,58.111206],[-6.637832,58.111079],[-6.637983,58.110953],[-6.638094,58.110828],[-6.638162,58.110704],[-6.638188,58.11058],[-6.638196,58.110472],[-6.638185,58.11038],[-6.638155,58.110302],[-6.638107,58.11024],[-6.638049,58.110191],[-6.637984,58.110154],[-6.637909,58.110131],[-6.637827,58.110121],[-6.637685,58.110172],[-6.637485,58.110285],[-6.637226,58.110459],[-6.636908,58.110694],[-6.636635,58.110892],[-6.636408,58.111052],[-6.636228,58.111175],[-6.636092,58.11126],[-6.635958,58.111365],[-6.635825,58.11149],[-6.635693,58.111634],[-6.635562,58.111798],[-6.635537,58.11192],[-6.635617,58.112],[-6.635802,58.112039],[-6.636093,58.112037],[-6.636265,58.112088],[-6.636317,58.112193],[-6.63625,58.112351],[-6.636064,58.112563],[-6.635933,58.112771],[-6.635857,58.112975],[-6.635836,58.113177],[-6.63587,58.113374],[-6.635949,58.113545],[-6.636071,58.113689],[-6.636238,58.113805],[-6.636449,58.113895]]]}}