{"type":"Feature","properties":{"id":"267186","COMMUNE":"Inverness and Nairn","PROVINCE":"Inverness & Nairn and Moray, Badenoch & Strathspey","COUNTRY":"UK","FIREDATE":"2025-04-03 12:29:00","FINALDATE":"2025-04-03 13:38:00","CLASS":"FireSeason","areaHA_geo":6.22},"geometry":{"type":"Polygon","coordinates":[[[-4.070302,57.359019],[-4.07069,57.359091],[-4.070978,57.359111],[-4.071166,57.359077],[-4.071254,57.35899],[-4.071332,57.358884],[-4.071399,57.358758],[-4.071456,57.358613],[-4.071503,57.358447],[-4.071504,57.358308],[-4.071461,57.358194],[-4.071372,57.358105],[-4.071238,57.358043],[-4.071146,57.35799],[-4.071097,57.357948],[-4.07109,57.357916],[-4.071126,57.357895],[-4.071189,57.357879],[-4.071278,57.357869],[-4.071395,57.357865],[-4.071539,57.357868],[-4.071668,57.357851],[-4.071781,57.357815],[-4.071878,57.35776],[-4.07196,57.357686],[-4.072026,57.3576],[-4.072077,57.357503],[-4.072112,57.357394],[-4.072132,57.357273],[-4.072174,57.357175],[-4.072239,57.3571],[-4.072326,57.357047],[-4.072436,57.357017],[-4.072571,57.356947],[-4.072731,57.356834],[-4.072917,57.356681],[-4.073129,57.356486],[-4.073365,57.356348],[-4.073626,57.356266],[-4.073911,57.356241],[-4.07422,57.356273],[-4.074577,57.356306],[-4.07498,57.356339],[-4.075431,57.356374],[-4.075929,57.356409],[-4.076292,57.356416],[-4.076521,57.356394],[-4.076614,57.356344],[-4.076573,57.356265],[-4.076425,57.356194],[-4.076169,57.35613],[-4.075806,57.356072],[-4.075335,57.356022],[-4.074842,57.355943],[-4.074328,57.355836],[-4.073791,57.355699],[-4.073232,57.355534],[-4.072726,57.35547],[-4.072272,57.355507],[-4.071871,57.355645],[-4.071522,57.355885],[-4.071202,57.356091],[-4.070911,57.356265],[-4.070649,57.356406],[-4.070415,57.356514],[-4.070201,57.356661],[-4.070008,57.356845],[-4.069834,57.357067],[-4.06968,57.357326],[-4.069532,57.357556],[-4.069388,57.357756],[-4.069249,57.357925],[-4.069115,57.358064],[-4.069025,57.358195],[-4.068979,57.358319],[-4.068977,57.358435],[-4.069018,57.358543],[-4.069172,57.358656],[-4.069436,57.358773],[-4.069813,57.358894],[-4.070302,57.359019]]]}}