{"type":"Feature","properties":{"id":"267158","COMMUNE":"Caithness and Sutherland","PROVINCE":"Caithness & Sutherland and Ross & Cromarty","COUNTRY":"UK","FIREDATE":"2025-04-04 13:53:00","FINALDATE":"2025-04-04 13:53:00","CLASS":"FireSeason","areaHA_geo":0.215},"geometry":{"type":"Polygon","coordinates":[[[-3.854609,58.18039],[-3.854813,58.180428],[-3.854973,58.180431],[-3.85509,58.180397],[-3.855163,58.180327],[-3.855154,58.180254],[-3.855065,58.180177],[-3.854895,58.180096],[-3.854644,58.180012],[-3.854438,58.179968],[-3.854278,58.179966],[-3.854163,58.180004],[-3.854094,58.180083],[-3.854104,58.180161],[-3.854193,58.180239],[-3.854361,58.180315],[-3.854609,58.18039]]]}}