{"type":"Feature","properties":{"id":"267161","COMMUNE":"Caithness and Sutherland","PROVINCE":"Caithness & Sutherland and Ross & Cromarty","COUNTRY":"UK","FIREDATE":"2025-04-04 13:53:00","FINALDATE":"2025-04-04 13:53:00","CLASS":"FireSeason","areaHA_geo":0.192},"geometry":{"type":"Polygon","coordinates":[[[-3.854296,58.179479],[-3.854209,58.179373],[-3.854109,58.179291],[-3.853996,58.179233],[-3.853869,58.1792],[-3.853729,58.17919],[-3.853609,58.179193],[-3.85351,58.179208],[-3.853432,58.179236],[-3.853375,58.179275],[-3.853379,58.179328],[-3.853445,58.179393],[-3.853574,58.17947],[-3.853763,58.179561],[-3.85393,58.179625],[-3.854072,58.179663],[-3.85419,58.179675],[-3.854284,58.17966],[-3.854334,58.179623],[-3.854337,58.179562],[-3.854296,58.179479]]]}}