{"type":"Feature","properties":{"id":"267154","COMMUNE":"Caithness and Sutherland","PROVINCE":"Caithness & Sutherland and Ross & Cromarty","COUNTRY":"UK","FIREDATE":"2025-04-07 14:12:00","CLASS":"FireSeason","areaHA_geo":3.126},"geometry":{"type":"Polygon","coordinates":[[[-4.104925,58.145768],[-4.104714,58.145491],[-4.104453,58.145261],[-4.104142,58.145079],[-4.103782,58.144943],[-4.103373,58.144855],[-4.103014,58.144814],[-4.102704,58.14482],[-4.102444,58.144873],[-4.102234,58.144973],[-4.102088,58.145062],[-4.102005,58.14514],[-4.101986,58.145206],[-4.10203,58.145261],[-4.102025,58.145311],[-4.101969,58.145356],[-4.101862,58.145396],[-4.101706,58.14543],[-4.101565,58.145456],[-4.101441,58.145472],[-4.101334,58.145479],[-4.101242,58.145477],[-4.101139,58.145504],[-4.101026,58.145561],[-4.100901,58.145647],[-4.100765,58.145764],[-4.100672,58.145865],[-4.100621,58.145951],[-4.100612,58.146022],[-4.100646,58.146079],[-4.100767,58.146141],[-4.100975,58.146208],[-4.101271,58.146282],[-4.101654,58.146361],[-4.101978,58.146404],[-4.102242,58.146412],[-4.102446,58.146385],[-4.102591,58.146321],[-4.102747,58.146278],[-4.102914,58.146254],[-4.103091,58.14625],[-4.103279,58.146266],[-4.103455,58.146267],[-4.103619,58.146253],[-4.103772,58.146223],[-4.103913,58.146178],[-4.104067,58.146165],[-4.104233,58.146183],[-4.104412,58.146233],[-4.104603,58.146314],[-4.104768,58.14636],[-4.104908,58.146369],[-4.105022,58.146342],[-4.10511,58.146278],[-4.105124,58.146162],[-4.105062,58.145992],[-4.104925,58.145768]]]}}