{"type":"Feature","properties":{"id":"267160","COMMUNE":"Caithness and Sutherland","PROVINCE":"Caithness & Sutherland and Ross & Cromarty","COUNTRY":"UK","FIREDATE":"2025-04-04 13:53:00","FINALDATE":"2025-04-04 13:53:00","CLASS":"FireSeason","areaHA_geo":0.133},"geometry":{"type":"Polygon","coordinates":[[[-3.853594,58.181549],[-3.853645,58.181608],[-3.853734,58.181652],[-3.853863,58.181679],[-3.854032,58.18169],[-3.854177,58.181683],[-3.854299,58.181659],[-3.854399,58.181616],[-3.854475,58.181555],[-3.854469,58.181503],[-3.854379,58.18146],[-3.854206,58.181425],[-3.85395,58.181399],[-3.853761,58.181398],[-3.853639,58.181423],[-3.853583,58.181473],[-3.853594,58.181549]]]}}