{"type":"Feature","properties":{"id":"267179","COMMUNE":"Ross and Cromarty","PROVINCE":"Caithness & Sutherland and Ross & Cromarty","COUNTRY":"UK","FIREDATE":"2025-04-07 14:33:00","FINALDATE":"2025-04-08 13:53:00","CLASS":"FireSeason","areaHA_geo":23.41},"geometry":{"type":"Polygon","coordinates":[[[-4.756803,57.794551],[-4.756905,57.794487],[-4.756993,57.794393],[-4.757066,57.79427],[-4.757124,57.794116],[-4.757167,57.793932],[-4.757172,57.793787],[-4.757138,57.79368],[-4.757066,57.793612],[-4.756955,57.793582],[-4.756833,57.793515],[-4.756701,57.793408],[-4.756558,57.793264],[-4.756404,57.793081],[-4.756256,57.792948],[-4.756113,57.792864],[-4.755975,57.79283],[-4.755843,57.792845],[-4.755734,57.792837],[-4.755647,57.792807],[-4.755584,57.792755],[-4.755544,57.792681],[-4.755431,57.792616],[-4.755245,57.79256],[-4.754987,57.792514],[-4.754656,57.792478],[-4.754387,57.792437],[-4.754181,57.792392],[-4.754037,57.792342],[-4.753956,57.792288],[-4.753939,57.792236],[-4.753988,57.792186],[-4.754102,57.792138],[-4.75428,57.792091],[-4.75441,57.792035],[-4.754491,57.791968],[-4.754524,57.79189],[-4.754508,57.791803],[-4.754522,57.791734],[-4.754566,57.791685],[-4.75464,57.791654],[-4.754743,57.791642],[-4.754833,57.791613],[-4.754907,57.791565],[-4.754966,57.791499],[-4.755011,57.791415],[-4.75502,57.791334],[-4.754993,57.791255],[-4.75493,57.79118],[-4.75483,57.791107],[-4.754734,57.791023],[-4.754641,57.790928],[-4.754551,57.790822],[-4.754464,57.790706],[-4.754421,57.790606],[-4.754421,57.790521],[-4.754464,57.790453],[-4.754552,57.790401],[-4.754641,57.790373],[-4.754733,57.790368],[-4.754827,57.790386],[-4.754923,57.790428],[-4.755012,57.790441],[-4.755094,57.790424],[-4.755169,57.790377],[-4.755237,57.790301],[-4.755258,57.790208],[-4.755233,57.790098],[-4.755161,57.78997],[-4.755042,57.789826],[-4.754921,57.789716],[-4.754796,57.78964],[-4.754668,57.789599],[-4.754537,57.789593],[-4.754356,57.78956],[-4.754123,57.789499],[-4.75384,57.789411],[-4.753507,57.789296],[-4.75317,57.789197],[-4.75283,57.789114],[-4.752487,57.789047],[-4.75214,57.788997],[-4.751731,57.788944],[-4.751259,57.788889],[-4.750725,57.788832],[-4.750127,57.788773],[-4.749632,57.788749],[-4.749237,57.788762],[-4.748943,57.788811],[-4.748751,57.788895],[-4.748638,57.788971],[-4.748606,57.789038],[-4.748655,57.789095],[-4.748783,57.789144],[-4.748903,57.789183],[-4.749014,57.789213],[-4.749116,57.789233],[-4.749209,57.789244],[-4.749277,57.789277],[-4.749319,57.789333],[-4.749337,57.789411],[-4.749329,57.789512],[-4.749317,57.78961],[-4.749302,57.789707],[-4.749284,57.789801],[-4.749262,57.789893],[-4.749126,57.789947],[-4.748877,57.789965],[-4.748513,57.789945],[-4.748036,57.789888],[-4.747677,57.789862],[-4.747437,57.789868],[-4.747317,57.789905],[-4.747315,57.789974],[-4.747398,57.790038],[-4.747566,57.790098],[-4.747818,57.790154],[-4.748156,57.790206],[-4.748415,57.790278],[-4.748596,57.790371],[-4.748699,57.790484],[-4.748724,57.790618],[-4.748762,57.790723],[-4.748813,57.790799],[-4.748877,57.790846],[-4.748953,57.790863],[-4.748973,57.790907],[-4.748938,57.790977],[-4.748846,57.791073],[-4.748698,57.791194],[-4.748602,57.791297],[-4.748557,57.791381],[-4.748564,57.791446],[-4.748622,57.791492],[-4.748684,57.791569],[-4.748748,57.791678],[-4.748815,57.791818],[-4.748885,57.791989],[-4.748977,57.792123],[-4.749091,57.792221],[-4.749227,57.792282],[-4.749385,57.792306],[-4.749515,57.792365],[-4.749618,57.792459],[-4.749693,57.792587],[-4.749739,57.79275],[-4.749736,57.792886],[-4.749681,57.792995],[-4.749577,57.793076],[-4.749421,57.79313],[-4.749306,57.7932],[-4.749232,57.793284],[-4.749199,57.793384],[-4.749206,57.793499],[-4.749292,57.793564],[-4.749457,57.79358],[-4.7497,57.793546],[-4.750021,57.793463],[-4.750276,57.793415],[-4.750463,57.793402],[-4.750583,57.793424],[-4.750636,57.793481],[-4.750625,57.793532],[-4.750549,57.793577],[-4.75041,57.793617],[-4.750206,57.79365],[-4.749924,57.793714],[-4.749563,57.79381],[-4.749124,57.793937],[-4.748605,57.794095],[-4.748157,57.794182],[-4.747778,57.794198],[-4.747469,57.794143],[-4.74723,57.794018],[-4.746996,57.793933],[-4.746766,57.793891],[-4.746541,57.79389],[-4.74632,57.79393],[-4.746174,57.793995],[-4.746102,57.794085],[-4.746104,57.794199],[-4.746181,57.794338],[-4.746266,57.794468],[-4.74636,57.794588],[-4.746463,57.794701],[-4.746574,57.794804],[-4.746711,57.794878],[-4.746872,57.794923],[-4.747059,57.794939],[-4.747271,57.794926],[-4.747469,57.79489],[-4.747653,57.794833],[-4.747823,57.794753],[-4.747979,57.794652],[-4.74814,57.794564],[-4.748308,57.79449],[-4.748481,57.79443],[-4.748659,57.794383],[-4.748875,57.794325],[-4.749128,57.794255],[-4.749417,57.794172],[-4.749744,57.794078],[-4.750059,57.794002],[-4.750361,57.793944],[-4.750651,57.793905],[-4.750929,57.793884],[-4.75114,57.793849],[-4.751282,57.793799],[-4.751357,57.793734],[-4.751364,57.793654],[-4.75143,57.793605],[-4.751555,57.793586],[-4.75174,57.793596],[-4.751984,57.793637],[-4.752182,57.793711],[-4.752334,57.793818],[-4.752441,57.793957],[-4.752501,57.794129],[-4.752615,57.794274],[-4.752782,57.794392],[-4.753002,57.794483],[-4.753275,57.794547],[-4.75348,57.794615],[-4.753618,57.794686],[-4.753689,57.794761],[-4.753691,57.79484],[-4.753675,57.794922],[-4.753641,57.795007],[-4.753588,57.795096],[-4.753517,57.795188],[-4.753545,57.795224],[-4.75367,57.795205],[-4.753894,57.79513],[-4.754216,57.794999],[-4.754489,57.794907],[-4.754714,57.794853],[-4.75489,57.794837],[-4.755018,57.794859],[-4.755163,57.794852],[-4.755326,57.794816],[-4.755506,57.794749],[-4.755704,57.794654],[-4.755893,57.79459],[-4.756073,57.79456],[-4.756244,57.794562],[-4.756406,57.794596],[-4.756554,57.794606],[-4.756686,57.794591],[-4.756803,57.794551]]]}}