{"type":"Feature","properties":{"id":"267143","COMMUNE":"Na h-Eileanan Siar (Western Isles)","PROVINCE":"Na h-Eileanan Siar (Western Isles)","COUNTRY":"UK","FIREDATE":"2025-04-09 14:22:00","CLASS":"FireSeason","areaHA_geo":12.484},"geometry":{"type":"Polygon","coordinates":[[[-7.204527,57.644096],[-7.204612,57.644097],[-7.20468,57.644081],[-7.204733,57.644047],[-7.204769,57.643996],[-7.204774,57.643945],[-7.204749,57.643895],[-7.204692,57.643847],[-7.204605,57.643799],[-7.204562,57.643764],[-7.204565,57.643742],[-7.204612,57.643731],[-7.204705,57.643733],[-7.20477,57.643716],[-7.204807,57.643678],[-7.204817,57.643621],[-7.204799,57.643544],[-7.204807,57.643486],[-7.20484,57.643447],[-7.204898,57.643427],[-7.204981,57.643426],[-7.205048,57.643413],[-7.205099,57.643387],[-7.205133,57.643348],[-7.20515,57.643297],[-7.20519,57.643256],[-7.205252,57.643226],[-7.205336,57.643205],[-7.205441,57.643196],[-7.205557,57.643159],[-7.205682,57.643097],[-7.205816,57.643009],[-7.205959,57.642894],[-7.206098,57.642784],[-7.206232,57.642678],[-7.206362,57.642576],[-7.206487,57.642478],[-7.206584,57.64239],[-7.206654,57.642313],[-7.206696,57.642245],[-7.206711,57.642189],[-7.206833,57.642127],[-7.207063,57.64206],[-7.207399,57.641988],[-7.207843,57.641911],[-7.208143,57.641827],[-7.2083,57.641736],[-7.208314,57.641638],[-7.208183,57.641533],[-7.208059,57.641454],[-7.207942,57.641399],[-7.20783,57.641369],[-7.207725,57.641365],[-7.207645,57.641349],[-7.20759,57.641322],[-7.20756,57.641283],[-7.207555,57.641233],[-7.207526,57.64118],[-7.207472,57.641123],[-7.207395,57.641065],[-7.207293,57.641003],[-7.207178,57.64096],[-7.207051,57.640937],[-7.206911,57.640934],[-7.206758,57.64095],[-7.206582,57.640964],[-7.206381,57.640975],[-7.206156,57.640984],[-7.205907,57.64099],[-7.205727,57.641015],[-7.205615,57.64106],[-7.20557,57.641123],[-7.205595,57.641205],[-7.205662,57.641283],[-7.205774,57.641357],[-7.205929,57.641427],[-7.206128,57.641492],[-7.206276,57.641562],[-7.206372,57.641635],[-7.206417,57.641713],[-7.206411,57.641796],[-7.206336,57.641864],[-7.206192,57.641919],[-7.20598,57.641959],[-7.205699,57.641986],[-7.205448,57.641984],[-7.205227,57.641953],[-7.205037,57.641893],[-7.204876,57.641805],[-7.204698,57.641743],[-7.204504,57.641707],[-7.204293,57.641698],[-7.204065,57.641716],[-7.203856,57.641728],[-7.203666,57.641734],[-7.203495,57.641733],[-7.203343,57.641727],[-7.203199,57.64171],[-7.203062,57.641682],[-7.202932,57.641644],[-7.202809,57.641595],[-7.202698,57.641567],[-7.202598,57.641561],[-7.202509,57.641577],[-7.202431,57.641613],[-7.202388,57.64165],[-7.202381,57.641686],[-7.202409,57.641723],[-7.202472,57.641759],[-7.202563,57.641797],[-7.202683,57.641836],[-7.202831,57.641877],[-7.203008,57.641919],[-7.203196,57.641949],[-7.203395,57.641967],[-7.203606,57.641974],[-7.203829,57.641969],[-7.204044,57.641985],[-7.20425,57.642021],[-7.204447,57.642077],[-7.204636,57.642154],[-7.204823,57.64222],[-7.205006,57.642277],[-7.205186,57.642322],[-7.205364,57.642358],[-7.205474,57.642405],[-7.205519,57.642462],[-7.205497,57.64253],[-7.205409,57.642609],[-7.205285,57.642677],[-7.205126,57.642734],[-7.204931,57.642782],[-7.2047,57.642818],[-7.204511,57.642828],[-7.204364,57.642812],[-7.204259,57.642769],[-7.204196,57.6427],[-7.204072,57.642631],[-7.203888,57.64256],[-7.203643,57.642489],[-7.203338,57.642418],[-7.203069,57.642339],[-7.202838,57.642254],[-7.202643,57.642161],[-7.202485,57.642062],[-7.202348,57.641983],[-7.202233,57.641925],[-7.202139,57.641888],[-7.202066,57.641871],[-7.20199,57.641839],[-7.201913,57.641792],[-7.201833,57.641731],[-7.20175,57.641654],[-7.201612,57.641585],[-7.201417,57.641525],[-7.201165,57.641472],[-7.200858,57.641427],[-7.20056,57.641398],[-7.200272,57.641386],[-7.199994,57.641391],[-7.199725,57.641412],[-7.199479,57.641424],[-7.199255,57.641426],[-7.199053,57.641418],[-7.198873,57.641401],[-7.198732,57.641378],[-7.198628,57.641348],[-7.198561,57.641311],[-7.198533,57.641268],[-7.198543,57.64123],[-7.198589,57.641196],[-7.198674,57.641167],[-7.198796,57.641143],[-7.198874,57.641118],[-7.19891,57.641092],[-7.198902,57.641065],[-7.19885,57.641037],[-7.198825,57.641011],[-7.198827,57.640988],[-7.198856,57.640966],[-7.198912,57.640947],[-7.198997,57.640922],[-7.199113,57.640893],[-7.199259,57.640858],[-7.199434,57.640819],[-7.199616,57.640782],[-7.199805,57.640749],[-7.199999,57.64072],[-7.2002,57.640693],[-7.20034,57.640665],[-7.200419,57.640634],[-7.200437,57.640601],[-7.200393,57.640566],[-7.200328,57.640533],[-7.20024,57.640502],[-7.200131,57.640472],[-7.2,57.640445],[-7.199807,57.640434],[-7.199554,57.640439],[-7.19924,57.64046],[-7.198865,57.640497],[-7.198524,57.64055],[-7.198218,57.64062],[-7.197946,57.640706],[-7.197709,57.640809],[-7.19747,57.640899],[-7.197229,57.640977],[-7.196985,57.641042],[-7.196739,57.641094],[-7.196524,57.641147],[-7.196339,57.641199],[-7.196184,57.64125],[-7.19606,57.641301],[-7.196024,57.641346],[-7.196078,57.641386],[-7.19622,57.64142],[-7.196451,57.641449],[-7.196644,57.641457],[-7.196797,57.641444],[-7.196913,57.641409],[-7.19699,57.641355],[-7.197085,57.64131],[-7.197199,57.641277],[-7.197331,57.641255],[-7.197482,57.641243],[-7.197621,57.641244],[-7.197748,57.641259],[-7.197863,57.641287],[-7.197967,57.641329],[-7.198025,57.641376],[-7.198038,57.641431],[-7.198005,57.641491],[-7.197926,57.641559],[-7.197854,57.641615],[-7.197788,57.64166],[-7.197728,57.641695],[-7.197674,57.641718],[-7.197633,57.64175],[-7.197604,57.641789],[-7.197588,57.641836],[-7.197584,57.641892],[-7.197547,57.641932],[-7.197476,57.641956],[-7.197373,57.641966],[-7.197236,57.641959],[-7.197116,57.641991],[-7.197013,57.642062],[-7.196926,57.642171],[-7.196855,57.642319],[-7.196814,57.642453],[-7.196801,57.642575],[-7.196818,57.642684],[-7.196864,57.64278],[-7.196888,57.642851],[-7.196892,57.642898],[-7.196874,57.642922],[-7.196836,57.642921],[-7.196773,57.642917],[-7.196685,57.64291],[-7.196574,57.6429],[-7.196438,57.642888],[-7.196308,57.642867],[-7.196183,57.642837],[-7.196064,57.642799],[-7.195951,57.642753],[-7.195824,57.642723],[-7.195684,57.642709],[-7.19553,57.642711],[-7.195363,57.642729],[-7.195206,57.642741],[-7.195057,57.642746],[-7.194919,57.642745],[-7.194789,57.642737],[-7.194703,57.642707],[-7.19466,57.642654],[-7.194661,57.642577],[-7.194705,57.642478],[-7.194756,57.642393],[-7.194814,57.642322],[-7.194879,57.642266],[-7.19495,57.642224],[-7.195024,57.642197],[-7.195101,57.642186],[-7.19518,57.64219],[-7.195262,57.64221],[-7.195332,57.642224],[-7.195389,57.642233],[-7.195435,57.642236],[-7.195468,57.642234],[-7.195508,57.642219],[-7.195554,57.642193],[-7.195607,57.642154],[-7.195667,57.642104],[-7.195704,57.642057],[-7.195718,57.642015],[-7.195709,57.641976],[-7.195677,57.641942],[-7.195628,57.641914],[-7.19556,57.641892],[-7.195475,57.641877],[-7.195371,57.641868],[-7.195248,57.641886],[-7.195103,57.641932],[-7.194939,57.642004],[-7.194754,57.642104],[-7.194604,57.642175],[-7.194491,57.642216],[-7.194413,57.642228],[-7.19437,57.642212],[-7.194321,57.642195],[-7.194265,57.642178],[-7.194203,57.64216],[-7.194133,57.642143],[-7.194051,57.642134],[-7.193955,57.642134],[-7.193846,57.642141],[-7.193724,57.642157],[-7.193607,57.642164],[-7.193493,57.642162],[-7.193383,57.64215],[-7.193278,57.64213],[-7.19317,57.642137],[-7.193059,57.642172],[-7.192945,57.642235],[-7.192828,57.642325],[-7.192741,57.642404],[-7.192682,57.642469],[-7.192653,57.642522],[-7.192654,57.642563],[-7.192655,57.642607],[-7.192656,57.642655],[-7.192659,57.642706],[-7.192662,57.64276],[-7.19265,57.642813],[-7.192623,57.642865],[-7.192581,57.642914],[-7.192524,57.642963],[-7.192502,57.643008],[-7.192514,57.64305],[-7.192562,57.643089],[-7.192644,57.643125],[-7.192733,57.643144],[-7.192829,57.643147],[-7.192933,57.643133],[-7.193044,57.643102],[-7.193166,57.643079],[-7.193298,57.643063],[-7.19344,57.643056],[-7.193593,57.643056],[-7.193709,57.643049],[-7.193788,57.643034],[-7.19383,57.643013],[-7.193835,57.642983],[-7.193812,57.642948],[-7.193762,57.642907],[-7.193684,57.64286],[-7.193579,57.642806],[-7.193492,57.642755],[-7.193424,57.642705],[-7.193375,57.642656],[-7.193345,57.642609],[-7.193343,57.642575],[-7.193369,57.642553],[-7.193423,57.642544],[-7.193505,57.642548],[-7.193578,57.642559],[-7.193645,57.642577],[-7.193703,57.642604],[-7.193754,57.642638],[-7.193801,57.642658],[-7.193846,57.642664],[-7.193889,57.642657],[-7.193928,57.642635],[-7.19397,57.642615],[-7.194015,57.642597],[-7.194062,57.642581],[-7.194112,57.642566],[-7.194159,57.642572],[-7.194202,57.642598],[-7.194241,57.642644],[-7.194277,57.64271],[-7.194323,57.642762],[-7.194381,57.642799],[-7.19445,57.642822],[-7.19453,57.64283],[-7.194608,57.642842],[-7.194685,57.642858],[-7.194759,57.642879],[-7.194832,57.642904],[-7.194909,57.642932],[-7.194989,57.642965],[-7.195073,57.643],[-7.19516,57.64304],[-7.195259,57.643074],[-7.195369,57.643105],[-7.19549,57.643131],[-7.195622,57.643152],[-7.195782,57.64317],[-7.195971,57.643185],[-7.196187,57.643196],[-7.196432,57.643205],[-7.196697,57.643226],[-7.196984,57.643259],[-7.197292,57.643305],[-7.197621,57.643364],[-7.1979,57.643394],[-7.198129,57.643398],[-7.198307,57.643374],[-7.198435,57.643322],[-7.198563,57.643282],[-7.198692,57.643251],[-7.198821,57.643232],[-7.19895,57.643223],[-7.199092,57.64322],[-7.199246,57.643223],[-7.199412,57.643232],[-7.199591,57.643247],[-7.199732,57.643251],[-7.199835,57.643242],[-7.1999,57.643222],[-7.199926,57.64319],[-7.19992,57.643153],[-7.199881,57.643111],[-7.199809,57.643065],[-7.199705,57.643014],[-7.199634,57.642945],[-7.199596,57.642858],[-7.199592,57.642754],[-7.199622,57.642632],[-7.199682,57.642536],[-7.199775,57.642466],[-7.199899,57.642421],[-7.200054,57.642403],[-7.200191,57.642397],[-7.200311,57.642405],[-7.200414,57.642426],[-7.200498,57.642459],[-7.200593,57.642489],[-7.200696,57.642514],[-7.200809,57.642534],[-7.200931,57.642551],[-7.201031,57.642556],[-7.201109,57.642551],[-7.201164,57.642535],[-7.201197,57.642509],[-7.201268,57.642491],[-7.201376,57.642481],[-7.201522,57.642481],[-7.201705,57.642489],[-7.201837,57.642515],[-7.201916,57.642559],[-7.201945,57.64262],[-7.201921,57.642698],[-7.201934,57.642746],[-7.201982,57.642764],[-7.202067,57.642752],[-7.202188,57.64271],[-7.202323,57.642681],[-7.202472,57.642665],[-7.202635,57.642663],[-7.202812,57.642674],[-7.202959,57.642695],[-7.203076,57.642724],[-7.203163,57.642762],[-7.20322,57.64281],[-7.2032,57.642863],[-7.203104,57.642921],[-7.202932,57.642985],[-7.202683,57.643055],[-7.202536,57.643142],[-7.202493,57.643246],[-7.202552,57.643368],[-7.202714,57.643507],[-7.202883,57.643616],[-7.20306,57.643695],[-7.203244,57.643743],[-7.203436,57.64376],[-7.203614,57.64379],[-7.203779,57.643831],[-7.20393,57.643884],[-7.204068,57.64395],[-7.204197,57.644003],[-7.204316,57.644046],[-7.204426,57.644076],[-7.204527,57.644096]]]}}