{"type":"Feature","properties":{"id":"267112","COMMUNE":"Skye and Lochalsh","PROVINCE":"Lochaber, Skye & Lochalsh, Arran & Cumbrae and Argyll & Bute","COUNTRY":"UK","FIREDATE":"2025-04-08 12:59:00","CLASS":"FireSeason","areaHA_geo":95.161},"geometry":{"type":"Polygon","coordinates":[[[-6.273731,57.504363],[-6.273798,57.504435],[-6.273942,57.504511],[-6.274164,57.504592],[-6.274464,57.504677],[-6.274776,57.504733],[-6.275098,57.504761],[-6.275433,57.50476],[-6.275779,57.504729],[-6.276049,57.504699],[-6.276244,57.504668],[-6.276363,57.504637],[-6.276406,57.504605],[-6.276454,57.504598],[-6.276506,57.504616],[-6.276564,57.504658],[-6.276627,57.504724],[-6.276713,57.504775],[-6.276822,57.504809],[-6.276955,57.504828],[-6.277111,57.50483],[-6.277269,57.504843],[-6.277426,57.504868],[-6.277585,57.504902],[-6.277745,57.504948],[-6.277895,57.504982],[-6.278035,57.505004],[-6.278166,57.505014],[-6.278288,57.505012],[-6.278395,57.504985],[-6.278486,57.504934],[-6.278563,57.504859],[-6.278624,57.50476],[-6.278684,57.504705],[-6.278741,57.504696],[-6.278796,57.504732],[-6.278848,57.504813],[-6.278967,57.504872],[-6.279152,57.50491],[-6.279402,57.504927],[-6.279719,57.504923],[-6.279974,57.504903],[-6.280166,57.504868],[-6.280297,57.504818],[-6.280366,57.504752],[-6.280436,57.504704],[-6.280508,57.504673],[-6.280582,57.50466],[-6.280657,57.504663],[-6.280742,57.504657],[-6.280837,57.504641],[-6.280941,57.504615],[-6.281056,57.504578],[-6.28116,57.504586],[-6.281252,57.504638],[-6.281334,57.504734],[-6.281405,57.504874],[-6.281493,57.505001],[-6.281597,57.505115],[-6.281718,57.505216],[-6.281856,57.505304],[-6.282001,57.505401],[-6.282155,57.505507],[-6.282317,57.505621],[-6.282486,57.505744],[-6.282631,57.505817],[-6.282752,57.505839],[-6.282847,57.505811],[-6.282918,57.505732],[-6.283015,57.505684],[-6.283138,57.505666],[-6.283287,57.505679],[-6.283462,57.505723],[-6.283614,57.505748],[-6.283743,57.505754],[-6.283849,57.50574],[-6.283933,57.505708],[-6.283989,57.505668],[-6.284017,57.505621],[-6.284016,57.505566],[-6.283989,57.505504],[-6.284018,57.505461],[-6.284106,57.505437],[-6.28425,57.505432],[-6.284453,57.505446],[-6.284649,57.505446],[-6.284838,57.505431],[-6.285021,57.505401],[-6.285198,57.505357],[-6.285426,57.505343],[-6.285707,57.505358],[-6.28604,57.505403],[-6.286425,57.505478],[-6.286767,57.505517],[-6.287067,57.505521],[-6.287325,57.50549],[-6.28754,57.505424],[-6.287768,57.505413],[-6.288009,57.505457],[-6.288262,57.505557],[-6.288528,57.505712],[-6.288814,57.505834],[-6.289119,57.505923],[-6.289444,57.505979],[-6.28979,57.506001],[-6.290116,57.506005],[-6.290425,57.505991],[-6.290714,57.505958],[-6.290985,57.505906],[-6.291231,57.505907],[-6.291451,57.505961],[-6.291646,57.506067],[-6.291815,57.506225],[-6.29198,57.506343],[-6.292141,57.506419],[-6.292298,57.506454],[-6.29245,57.506448],[-6.29264,57.506416],[-6.292867,57.506357],[-6.293131,57.506271],[-6.293432,57.506159],[-6.293638,57.506062],[-6.293748,57.50598],[-6.293763,57.505914],[-6.293683,57.505863],[-6.293688,57.505819],[-6.293779,57.505784],[-6.293954,57.505756],[-6.294215,57.505737],[-6.294443,57.505712],[-6.294638,57.505681],[-6.294799,57.505644],[-6.294927,57.505602],[-6.295034,57.505586],[-6.295121,57.505597],[-6.295187,57.505635],[-6.295232,57.5057],[-6.295391,57.505729],[-6.295662,57.505724],[-6.296046,57.505683],[-6.296544,57.505608],[-6.297038,57.505543],[-6.297528,57.505488],[-6.298015,57.505444],[-6.298498,57.50541],[-6.298894,57.505341],[-6.299204,57.505239],[-6.299427,57.505103],[-6.299563,57.504933],[-6.299661,57.504791],[-6.29972,57.504678],[-6.299742,57.504595],[-6.299726,57.50454],[-6.299745,57.504497],[-6.299801,57.504466],[-6.299892,57.504447],[-6.30002,57.50444],[-6.300132,57.50439],[-6.300231,57.504299],[-6.300314,57.504166],[-6.300382,57.503991],[-6.300354,57.503843],[-6.30023,57.50372],[-6.300009,57.503624],[-6.299691,57.503554],[-6.299465,57.503477],[-6.299329,57.503394],[-6.299284,57.503303],[-6.29933,57.503205],[-6.299334,57.503073],[-6.299297,57.502907],[-6.299217,57.502707],[-6.299095,57.502473],[-6.298987,57.502277],[-6.298892,57.50212],[-6.29881,57.502002],[-6.298742,57.501923],[-6.298698,57.501829],[-6.298677,57.50172],[-6.298681,57.501596],[-6.298708,57.501457],[-6.298701,57.501371],[-6.298658,57.501339],[-6.29858,57.501361],[-6.298466,57.501436],[-6.298373,57.501478],[-6.298298,57.501485],[-6.298243,57.501458],[-6.298207,57.501397],[-6.298187,57.501328],[-6.298181,57.501252],[-6.298191,57.501169],[-6.298216,57.501078],[-6.298274,57.501003],[-6.298365,57.500943],[-6.298491,57.500899],[-6.298649,57.50087],[-6.298721,57.500788],[-6.298705,57.500652],[-6.298601,57.500463],[-6.29841,57.500219],[-6.298247,57.500029],[-6.298112,57.499893],[-6.298006,57.49981],[-6.297927,57.49978],[-6.297868,57.499741],[-6.297829,57.499691],[-6.297811,57.499631],[-6.297812,57.49956],[-6.297789,57.499501],[-6.297743,57.499452],[-6.297672,57.499414],[-6.297578,57.499386],[-6.29754,57.499356],[-6.297558,57.499323],[-6.297632,57.499287],[-6.297762,57.499249],[-6.297863,57.499187],[-6.297935,57.499102],[-6.297977,57.498992],[-6.297991,57.498859],[-6.297955,57.498737],[-6.297868,57.498625],[-6.29773,57.498524],[-6.297543,57.498433],[-6.297362,57.498363],[-6.297188,57.498312],[-6.297021,57.498282],[-6.296861,57.498271],[-6.296738,57.498253],[-6.296653,57.498226],[-6.296605,57.498192],[-6.296594,57.498149],[-6.29662,57.498112],[-6.296683,57.49808],[-6.296784,57.498053],[-6.296921,57.498032],[-6.297023,57.498004],[-6.297089,57.497969],[-6.29712,57.497928],[-6.297115,57.49788],[-6.297091,57.497823],[-6.297049,57.497756],[-6.296988,57.497679],[-6.296908,57.497593],[-6.296772,57.497549],[-6.296579,57.497547],[-6.296329,57.497587],[-6.296023,57.497669],[-6.29571,57.497737],[-6.295392,57.497793],[-6.295067,57.497834],[-6.294737,57.497862],[-6.294484,57.497896],[-6.29431,57.497935],[-6.294214,57.49798],[-6.294195,57.498031],[-6.294171,57.498062],[-6.29414,57.498075],[-6.294102,57.498069],[-6.294058,57.498044],[-6.293989,57.498004],[-6.293896,57.49795],[-6.293777,57.497882],[-6.293634,57.497799],[-6.29351,57.497729],[-6.293407,57.497672],[-6.293324,57.497627],[-6.293261,57.497596],[-6.293176,57.497567],[-6.29307,57.497541],[-6.292943,57.497517],[-6.292795,57.497496],[-6.292664,57.497491],[-6.29255,57.497501],[-6.292453,57.497526],[-6.292373,57.497567],[-6.292289,57.497611],[-6.2922,57.497659],[-6.292107,57.497712],[-6.29201,57.497768],[-6.291932,57.497845],[-6.291875,57.497944],[-6.291837,57.498065],[-6.291819,57.498207],[-6.291793,57.498322],[-6.291759,57.49841],[-6.291716,57.49847],[-6.291666,57.498503],[-6.291597,57.498555],[-6.291511,57.498627],[-6.291407,57.498719],[-6.291286,57.49883],[-6.291198,57.498931],[-6.291145,57.499021],[-6.291125,57.4991],[-6.291139,57.499168],[-6.291138,57.499234],[-6.291122,57.499298],[-6.29109,57.499359],[-6.291043,57.499417],[-6.290943,57.499418],[-6.29079,57.49936],[-6.290585,57.499244],[-6.290327,57.499071],[-6.290098,57.498946],[-6.289896,57.498871],[-6.289723,57.498844],[-6.289578,57.498867],[-6.289451,57.498871],[-6.289343,57.498859],[-6.289254,57.498828],[-6.289184,57.49878],[-6.289112,57.498725],[-6.28904,57.498664],[-6.288967,57.498597],[-6.288892,57.498523],[-6.288812,57.498475],[-6.288724,57.498453],[-6.28863,57.498457],[-6.288529,57.498487],[-6.28843,57.498535],[-6.288332,57.4986],[-6.288236,57.498682],[-6.288142,57.498781],[-6.28804,57.498853],[-6.287929,57.498897],[-6.28781,57.498915],[-6.287683,57.498904],[-6.287583,57.498909],[-6.28751,57.498929],[-6.287464,57.498964],[-6.287446,57.499015],[-6.287461,57.499061],[-6.287508,57.499103],[-6.287589,57.499141],[-6.287702,57.499175],[-6.287804,57.499205],[-6.287893,57.499232],[-6.28797,57.499254],[-6.288036,57.499272],[-6.288081,57.499305],[-6.288108,57.499355],[-6.288114,57.49942],[-6.288101,57.4995],[-6.288093,57.499572],[-6.288089,57.499636],[-6.288089,57.499692],[-6.288094,57.49974],[-6.288128,57.499787],[-6.28819,57.499834],[-6.28828,57.499881],[-6.288399,57.499927],[-6.288471,57.499973],[-6.288495,57.500018],[-6.288472,57.500062],[-6.288402,57.500106],[-6.288304,57.500135],[-6.28818,57.500148],[-6.288028,57.500147],[-6.287848,57.500129],[-6.287719,57.500104],[-6.287638,57.50007],[-6.287607,57.500028],[-6.287625,57.499978],[-6.287624,57.499921],[-6.287604,57.499858],[-6.287565,57.499788],[-6.287506,57.499712],[-6.287416,57.499616],[-6.287294,57.4995],[-6.287141,57.499364],[-6.286957,57.499207],[-6.286795,57.49908],[-6.286657,57.498981],[-6.286542,57.498911],[-6.28645,57.49887],[-6.286333,57.498819],[-6.286191,57.498758],[-6.286024,57.498687],[-6.285833,57.498605],[-6.28565,57.498554],[-6.285477,57.498532],[-6.285313,57.498539],[-6.285157,57.498576],[-6.285025,57.498618],[-6.284915,57.498664],[-6.284828,57.498716],[-6.284763,57.498772],[-6.284701,57.498828],[-6.28464,57.498884],[-6.284581,57.498939],[-6.284524,57.498995],[-6.284446,57.499048],[-6.284347,57.4991],[-6.284226,57.49915],[-6.284084,57.499198],[-6.283947,57.499242],[-6.283813,57.49928],[-6.283683,57.499314],[-6.283557,57.499343],[-6.283471,57.499379],[-6.283425,57.499422],[-6.283419,57.499472],[-6.283452,57.499529],[-6.283515,57.499577],[-6.283606,57.499616],[-6.283726,57.499646],[-6.283874,57.499667],[-6.284018,57.499697],[-6.284158,57.499737],[-6.284295,57.499785],[-6.284427,57.499843],[-6.284529,57.499921],[-6.284602,57.50002],[-6.284645,57.500138],[-6.284658,57.500276],[-6.284711,57.500376],[-6.284804,57.500437],[-6.284936,57.500458],[-6.285108,57.500441],[-6.285277,57.500431],[-6.285443,57.500428],[-6.285606,57.500432],[-6.285766,57.500442],[-6.285856,57.500468],[-6.285874,57.50051],[-6.285822,57.500567],[-6.285699,57.500639],[-6.28555,57.500697],[-6.285373,57.500741],[-6.28517,57.500771],[-6.28494,57.500786],[-6.284754,57.50081],[-6.284613,57.50084],[-6.284516,57.500879],[-6.284463,57.500925],[-6.28434,57.500984],[-6.284148,57.501056],[-6.283886,57.501142],[-6.283554,57.50124],[-6.283262,57.501313],[-6.283009,57.501359],[-6.282796,57.501381],[-6.282622,57.501376],[-6.282388,57.501381],[-6.282092,57.501396],[-6.281736,57.501421],[-6.281318,57.501456],[-6.280919,57.501478],[-6.28054,57.501488],[-6.280179,57.501486],[-6.279838,57.501472],[-6.279555,57.501474],[-6.279329,57.501491],[-6.279162,57.501524],[-6.279054,57.501572],[-6.27892,57.501615],[-6.278761,57.501653],[-6.278577,57.501684],[-6.278368,57.50171],[-6.278191,57.501708],[-6.278047,57.501678],[-6.277935,57.50162],[-6.277855,57.501534],[-6.277805,57.501459],[-6.277785,57.501396],[-6.277795,57.501344],[-6.277834,57.501304],[-6.277866,57.501252],[-6.27789,57.501188],[-6.277907,57.501111],[-6.277916,57.501022],[-6.277964,57.500939],[-6.278052,57.50086],[-6.278178,57.500786],[-6.278343,57.500717],[-6.278319,57.500673],[-6.278106,57.500654],[-6.277704,57.500659],[-6.277113,57.500689],[-6.276709,57.50075],[-6.276494,57.500843],[-6.276465,57.500967],[-6.276625,57.501122],[-6.276717,57.501254],[-6.276741,57.501363],[-6.276698,57.501448],[-6.276586,57.50151],[-6.276483,57.501544],[-6.276387,57.501549],[-6.2763,57.501526],[-6.276219,57.501475],[-6.276048,57.501454],[-6.275787,57.501462],[-6.275434,57.501501],[-6.274991,57.501569],[-6.274668,57.501679],[-6.274466,57.501829],[-6.274384,57.50202],[-6.274422,57.502251],[-6.274426,57.50242],[-6.274396,57.502524],[-6.27433,57.502565],[-6.27423,57.502543],[-6.274139,57.50258],[-6.274056,57.502678],[-6.273982,57.502836],[-6.273916,57.503055],[-6.273912,57.503233],[-6.27397,57.50337],[-6.274089,57.503467],[-6.27427,57.503523],[-6.274413,57.503592],[-6.274518,57.503673],[-6.274587,57.503766],[-6.274618,57.503872],[-6.274584,57.503961],[-6.274487,57.504035],[-6.274325,57.504092],[-6.274098,57.504134],[-6.273925,57.504181],[-6.273807,57.504236],[-6.273742,57.504296],[-6.273731,57.504363]]]}}