{"type":"Feature","properties":{"id":"267159","COMMUNE":"Caithness and Sutherland","PROVINCE":"Caithness & Sutherland and Ross & Cromarty","COUNTRY":"UK","FIREDATE":"2025-04-04 13:53:00","CLASS":"FireSeason","areaHA_geo":0.108},"geometry":{"type":"Polygon","coordinates":[[[-3.853211,58.180761],[-3.853309,58.180773],[-3.853407,58.180756],[-3.853504,58.180709],[-3.853602,58.180631],[-3.85365,58.180561],[-3.853648,58.180499],[-3.853597,58.180445],[-3.853497,58.180397],[-3.853398,58.180383],[-3.8533,58.1804],[-3.853203,58.18045],[-3.853108,58.180532],[-3.853061,58.180604],[-3.853062,58.180666],[-3.853112,58.180718],[-3.853211,58.180761]]]}}