{"type":"Feature","properties":{"id":"267101","COMMUNE":"Aberdeenshire","PROVINCE":"Aberdeen City and Aberdeenshire","COUNTRY":"UK","FIREDATE":"2025-03-31 11:21:00","CLASS":"FireSeason","areaHA_geo":1.249},"geometry":{"type":"Polygon","coordinates":[[[-3.271825,57.074907],[-3.272116,57.074826],[-3.272349,57.07469],[-3.272525,57.074498],[-3.272644,57.074251],[-3.272676,57.074079],[-3.272623,57.073983],[-3.272484,57.073961],[-3.272258,57.074015],[-3.272039,57.074045],[-3.271825,57.074051],[-3.271616,57.074034],[-3.271414,57.073994],[-3.271179,57.074008],[-3.270912,57.074076],[-3.270612,57.074198],[-3.27028,57.074375],[-3.270105,57.074529],[-3.270085,57.074658],[-3.270222,57.074765],[-3.270515,57.074847],[-3.270821,57.074903],[-3.271142,57.074931],[-3.271476,57.074933],[-3.271825,57.074907]]]}}