{"type":"Feature","properties":{"id":"267119","COMMUNE":"Skye and Lochalsh","PROVINCE":"Lochaber, Skye & Lochalsh, Arran & Cumbrae and Argyll & Bute","COUNTRY":"UK","FIREDATE":"2025-04-04 19:30:05.99","CLASS":"FireSeason","areaHA_geo":0.654},"geometry":{"type":"Polygon","coordinates":[[[-6.270188,57.615966],[-6.270259,57.616006],[-6.270375,57.61603],[-6.270537,57.616038],[-6.270745,57.61603],[-6.270932,57.616013],[-6.271097,57.615986],[-6.271242,57.61595],[-6.271367,57.615905],[-6.271452,57.615853],[-6.271497,57.615794],[-6.271503,57.615728],[-6.271471,57.615655],[-6.271389,57.615598],[-6.27126,57.615558],[-6.271083,57.615534],[-6.270857,57.615526],[-6.270674,57.615509],[-6.270534,57.615482],[-6.270437,57.615445],[-6.270383,57.615398],[-6.2703,57.615364],[-6.270191,57.615342],[-6.270053,57.615332],[-6.269887,57.615335],[-6.269748,57.615366],[-6.269636,57.615424],[-6.26955,57.615511],[-6.26949,57.615625],[-6.269463,57.615719],[-6.269468,57.615793],[-6.269506,57.615846],[-6.269576,57.615879],[-6.269657,57.615897],[-6.269747,57.6159],[-6.269848,57.615889],[-6.269959,57.615864],[-6.270048,57.615859],[-6.270116,57.615874],[-6.270163,57.61591],[-6.270188,57.615966]]]}}