{"type":"Feature","properties":{"id":"267181","COMMUNE":"Caithness and Sutherland","PROVINCE":"Caithness & Sutherland and Ross & Cromarty","COUNTRY":"UK","FIREDATE":"2025-04-04 09:49:31.385","CLASS":"FireSeason","areaHA_geo":9.857},"geometry":{"type":"Polygon","coordinates":[[[-4.5378,57.840901],[-4.538011,57.840812],[-4.538084,57.840687],[-4.538019,57.840527],[-4.537816,57.84033],[-4.537476,57.840098],[-4.537188,57.839904],[-4.536954,57.839747],[-4.536772,57.839629],[-4.536644,57.839548],[-4.536551,57.83948],[-4.536494,57.839424],[-4.536473,57.839381],[-4.536488,57.83935],[-4.536459,57.839293],[-4.536384,57.83921],[-4.536265,57.839101],[-4.5361,57.838966],[-4.536024,57.838836],[-4.536035,57.838711],[-4.536134,57.838591],[-4.53632,57.838475],[-4.536566,57.838388],[-4.536871,57.838329],[-4.537236,57.838298],[-4.53766,57.838295],[-4.538031,57.838289],[-4.538349,57.838279],[-4.538614,57.838266],[-4.538827,57.83825],[-4.538986,57.83821],[-4.539091,57.838148],[-4.539142,57.838062],[-4.539139,57.837953],[-4.538949,57.837881],[-4.538572,57.837846],[-4.538007,57.837848],[-4.537255,57.837887],[-4.536635,57.837912],[-4.536145,57.837922],[-4.535787,57.837918],[-4.53556,57.837899],[-4.535257,57.837845],[-4.534879,57.837756],[-4.534424,57.837631],[-4.533893,57.837471],[-4.533365,57.837341],[-4.532838,57.837242],[-4.532314,57.837174],[-4.531792,57.837137],[-4.531355,57.837074],[-4.531004,57.836985],[-4.530738,57.836871],[-4.530558,57.83673],[-4.530364,57.836657],[-4.530156,57.83665],[-4.529934,57.836711],[-4.529698,57.836839],[-4.529468,57.83695],[-4.529246,57.837044],[-4.52903,57.837121],[-4.528821,57.83718],[-4.528719,57.837259],[-4.528724,57.837357],[-4.528836,57.837474],[-4.529056,57.83761],[-4.529265,57.837687],[-4.529464,57.837705],[-4.529654,57.837665],[-4.529833,57.837565],[-4.529971,57.837526],[-4.530069,57.837548],[-4.530126,57.837631],[-4.530143,57.837775],[-4.530136,57.837925],[-4.530103,57.838082],[-4.530045,57.838245],[-4.529963,57.838414],[-4.52997,57.83855],[-4.530066,57.838653],[-4.530251,57.838722],[-4.530526,57.838757],[-4.530748,57.838831],[-4.530917,57.838944],[-4.531032,57.839095],[-4.531095,57.839285],[-4.531206,57.839424],[-4.531365,57.839512],[-4.531572,57.839549],[-4.531827,57.839536],[-4.532036,57.839449],[-4.532197,57.839289],[-4.532312,57.839056],[-4.53238,57.838749],[-4.532461,57.838516],[-4.532554,57.838356],[-4.53266,57.83827],[-4.532778,57.838257],[-4.532875,57.838276],[-4.53295,57.838326],[-4.533003,57.838407],[-4.533035,57.83852],[-4.533069,57.838621],[-4.533104,57.838708],[-4.533141,57.838782],[-4.533179,57.838844],[-4.53319,57.838921],[-4.533172,57.839014],[-4.533127,57.839123],[-4.533054,57.839247],[-4.533021,57.839386],[-4.533028,57.839538],[-4.533074,57.839705],[-4.533161,57.839885],[-4.533347,57.839948],[-4.533634,57.839894],[-4.534021,57.839724],[-4.534508,57.839437],[-4.534912,57.839249],[-4.535232,57.839159],[-4.535469,57.839167],[-4.535622,57.839274],[-4.535755,57.839358],[-4.535868,57.839418],[-4.535962,57.839455],[-4.536036,57.839469],[-4.536111,57.83951],[-4.536186,57.839578],[-4.536263,57.839674],[-4.53634,57.839797],[-4.536462,57.839955],[-4.536629,57.840148],[-4.536841,57.840376],[-4.537098,57.840639],[-4.537343,57.840814],[-4.537577,57.840902],[-4.5378,57.840901]]]}}