{"type":"Feature","properties":{"id":"267122","COMMUNE":"Skye and Lochalsh","PROVINCE":"Lochaber, Skye & Lochalsh, Arran & Cumbrae and Argyll & Bute","COUNTRY":"UK","FIREDATE":"2025-04-07 12:29:00","CLASS":"FireSeason","areaHA_geo":57.259},"geometry":{"type":"Polygon","coordinates":[[[-6.275268,57.391345],[-6.275592,57.391218],[-6.275854,57.391127],[-6.276054,57.391072],[-6.276193,57.391051],[-6.27627,57.391065],[-6.276368,57.391056],[-6.276486,57.391025],[-6.276626,57.39097],[-6.276786,57.390893],[-6.276907,57.390825],[-6.276991,57.390764],[-6.277036,57.390712],[-6.277043,57.390669],[-6.27713,57.390615],[-6.277296,57.390551],[-6.277541,57.390478],[-6.277866,57.390395],[-6.278149,57.390329],[-6.278389,57.390283],[-6.278586,57.390255],[-6.278741,57.390245],[-6.279059,57.390186],[-6.279541,57.390078],[-6.280187,57.389921],[-6.280996,57.389715],[-6.281615,57.389543],[-6.282043,57.389403],[-6.282281,57.389298],[-6.282328,57.389225],[-6.282423,57.389169],[-6.282564,57.38913],[-6.282753,57.389108],[-6.282989,57.389102],[-6.283251,57.389133],[-6.283537,57.389202],[-6.28385,57.389308],[-6.284188,57.389451],[-6.284537,57.389576],[-6.284899,57.389682],[-6.285272,57.389771],[-6.285657,57.389842],[-6.286058,57.389892],[-6.286474,57.389923],[-6.286905,57.389935],[-6.287352,57.389926],[-6.287741,57.389957],[-6.288073,57.390027],[-6.288347,57.390136],[-6.288564,57.390285],[-6.2888,57.390387],[-6.289055,57.390443],[-6.289328,57.390453],[-6.289621,57.390416],[-6.289938,57.390357],[-6.290277,57.390277],[-6.29064,57.390174],[-6.291026,57.39005],[-6.291363,57.389884],[-6.291651,57.389677],[-6.291889,57.389429],[-6.292077,57.389139],[-6.292162,57.388908],[-6.292142,57.388734],[-6.292017,57.388619],[-6.291789,57.388562],[-6.291619,57.388505],[-6.29151,57.388448],[-6.29146,57.38839],[-6.291469,57.388332],[-6.291479,57.388281],[-6.29149,57.388236],[-6.291502,57.388199],[-6.291515,57.388169],[-6.291491,57.38814],[-6.29143,57.388112],[-6.291332,57.388085],[-6.291197,57.388059],[-6.291109,57.388022],[-6.291069,57.387972],[-6.291077,57.38791],[-6.291133,57.387837],[-6.291139,57.387767],[-6.291096,57.387701],[-6.291005,57.387639],[-6.290864,57.387581],[-6.290735,57.387551],[-6.290619,57.387549],[-6.290516,57.387575],[-6.290425,57.387629],[-6.290337,57.387668],[-6.290251,57.387693],[-6.290167,57.387704],[-6.290086,57.3877],[-6.290004,57.38767],[-6.289922,57.387614],[-6.289838,57.387531],[-6.289755,57.387423],[-6.289667,57.387326],[-6.289576,57.38724],[-6.28948,57.387165],[-6.289381,57.387102],[-6.289317,57.387042],[-6.289288,57.386986],[-6.289293,57.386935],[-6.289334,57.386887],[-6.289328,57.386829],[-6.289276,57.386762],[-6.289178,57.386685],[-6.289033,57.386599],[-6.288896,57.386516],[-6.288768,57.386437],[-6.288649,57.386362],[-6.288537,57.386291],[-6.288493,57.386241],[-6.288516,57.386215],[-6.288607,57.386211],[-6.288766,57.386229],[-6.28886,57.386222],[-6.28889,57.386189],[-6.288855,57.386132],[-6.288756,57.386049],[-6.288665,57.385943],[-6.28858,57.385814],[-6.288503,57.385661],[-6.288433,57.385484],[-6.288318,57.38533],[-6.288157,57.385198],[-6.287951,57.385088],[-6.2877,57.385001],[-6.28745,57.384936],[-6.287201,57.384894],[-6.286954,57.384874],[-6.286708,57.384876],[-6.2865,57.384852],[-6.286332,57.384802],[-6.286203,57.384726],[-6.286113,57.384623],[-6.286069,57.384531],[-6.286073,57.38445],[-6.286123,57.384379],[-6.28622,57.38432],[-6.286297,57.384259],[-6.286353,57.384197],[-6.286389,57.384135],[-6.286405,57.384071],[-6.286383,57.383982],[-6.286323,57.383868],[-6.286226,57.38373],[-6.286091,57.383566],[-6.285937,57.383394],[-6.285764,57.383214],[-6.285571,57.383026],[-6.28536,57.382829],[-6.28514,57.382697],[-6.284911,57.382631],[-6.284674,57.38263],[-6.284429,57.382694],[-6.284164,57.382759],[-6.28388,57.382825],[-6.283577,57.382893],[-6.283254,57.382962],[-6.282994,57.383032],[-6.282795,57.383102],[-6.282659,57.383172],[-6.282585,57.383243],[-6.282594,57.383327],[-6.282686,57.383425],[-6.282861,57.383536],[-6.28312,57.383661],[-6.283345,57.383739],[-6.283537,57.383772],[-6.283695,57.38376],[-6.283819,57.383701],[-6.283942,57.383655],[-6.284063,57.383621],[-6.284184,57.383599],[-6.284303,57.383588],[-6.284433,57.383607],[-6.284573,57.383653],[-6.284723,57.383728],[-6.284884,57.383831],[-6.284971,57.383923],[-6.284985,57.384002],[-6.284924,57.384069],[-6.28479,57.384124],[-6.28463,57.384166],[-6.284444,57.384197],[-6.284234,57.384215],[-6.283998,57.38422],[-6.283779,57.384221],[-6.283578,57.384215],[-6.283394,57.384203],[-6.283227,57.384186],[-6.283023,57.38418],[-6.282782,57.384184],[-6.282504,57.384199],[-6.282188,57.384224],[-6.28193,57.384225],[-6.28173,57.384203],[-6.281588,57.384157],[-6.281504,57.384086],[-6.281442,57.384007],[-6.281403,57.38392],[-6.281386,57.383823],[-6.281392,57.383718],[-6.281401,57.3836],[-6.281414,57.383471],[-6.28143,57.383328],[-6.281449,57.383174],[-6.281403,57.383061],[-6.281292,57.382989],[-6.281115,57.382959],[-6.280873,57.382971],[-6.280616,57.383],[-6.280346,57.383048],[-6.280062,57.383115],[-6.279764,57.3832],[-6.279575,57.383276],[-6.279495,57.383343],[-6.279523,57.383401],[-6.27966,57.38345],[-6.27972,57.383487],[-6.279704,57.38351],[-6.279612,57.383521],[-6.279443,57.383518],[-6.279293,57.38353],[-6.279163,57.383555],[-6.279053,57.383595],[-6.278962,57.383649],[-6.278924,57.383711],[-6.278937,57.383781],[-6.279003,57.383858],[-6.27912,57.383943],[-6.279156,57.383999],[-6.279111,57.384026],[-6.278984,57.384024],[-6.278776,57.383993],[-6.278602,57.383995],[-6.278463,57.384029],[-6.278358,57.384096],[-6.278287,57.384195],[-6.278225,57.384284],[-6.278173,57.384365],[-6.278129,57.384435],[-6.278095,57.384497],[-6.278046,57.384556],[-6.277984,57.384614],[-6.277907,57.38467],[-6.277816,57.384724],[-6.277753,57.384798],[-6.277715,57.384893],[-6.277705,57.385009],[-6.277722,57.385144],[-6.277648,57.385242],[-6.277484,57.3853],[-6.27723,57.38532],[-6.276886,57.385301],[-6.276596,57.385291],[-6.276362,57.38529],[-6.276181,57.385297],[-6.276056,57.385313],[-6.275952,57.385336],[-6.275869,57.385368],[-6.275807,57.385408],[-6.275766,57.385456],[-6.275657,57.385507],[-6.275479,57.385563],[-6.275231,57.385623],[-6.274915,57.385686],[-6.274688,57.385757],[-6.274551,57.385836],[-6.274504,57.385923],[-6.274546,57.386017],[-6.274571,57.386098],[-6.274579,57.386166],[-6.27457,57.386221],[-6.274545,57.386262],[-6.274569,57.386296],[-6.274642,57.386322],[-6.274766,57.386341],[-6.274939,57.386353],[-6.275114,57.386339],[-6.275291,57.3863],[-6.27547,57.386236],[-6.275651,57.386147],[-6.27579,57.386102],[-6.275887,57.386102],[-6.275942,57.386146],[-6.275955,57.386235],[-6.275923,57.386321],[-6.275845,57.386404],[-6.275722,57.386485],[-6.275554,57.386563],[-6.275426,57.386667],[-6.275338,57.386797],[-6.27529,57.386952],[-6.275283,57.387134],[-6.275236,57.387241],[-6.275149,57.387273],[-6.275022,57.387231],[-6.274854,57.387114],[-6.274705,57.387032],[-6.274573,57.386984],[-6.274459,57.386971],[-6.274363,57.386992],[-6.274322,57.387036],[-6.274338,57.3871],[-6.27441,57.387186],[-6.274537,57.387294],[-6.274658,57.387406],[-6.274772,57.387522],[-6.274879,57.387643],[-6.274979,57.387768],[-6.275079,57.38784],[-6.27518,57.387858],[-6.275282,57.387823],[-6.275383,57.387734],[-6.27548,57.387689],[-6.275572,57.387687],[-6.275659,57.387728],[-6.275741,57.387813],[-6.275853,57.38787],[-6.275994,57.3879],[-6.276165,57.387902],[-6.276366,57.387877],[-6.276507,57.38787],[-6.276587,57.387881],[-6.276607,57.387911],[-6.276566,57.387959],[-6.276492,57.388011],[-6.276385,57.388067],[-6.276244,57.388127],[-6.27607,57.388192],[-6.275975,57.388253],[-6.27596,57.388309],[-6.276026,57.388361],[-6.276171,57.38841],[-6.276306,57.388459],[-6.27643,57.38851],[-6.276544,57.388563],[-6.276648,57.388616],[-6.276765,57.388692],[-6.276897,57.388789],[-6.277043,57.388909],[-6.277204,57.38905],[-6.277304,57.389166],[-6.277344,57.389256],[-6.277324,57.38932],[-6.277244,57.389358],[-6.277202,57.389397],[-6.277197,57.389436],[-6.27723,57.389474],[-6.2773,57.389513],[-6.277362,57.389562],[-6.277415,57.389622],[-6.27746,57.389692],[-6.277496,57.389773],[-6.277572,57.389839],[-6.277687,57.389889],[-6.277841,57.389923],[-6.278035,57.389941],[-6.278133,57.389958],[-6.278136,57.389975],[-6.278044,57.38999],[-6.277855,57.390004],[-6.277696,57.390029],[-6.277566,57.390064],[-6.277465,57.39011],[-6.277393,57.390166],[-6.277313,57.390205],[-6.277225,57.390225],[-6.277129,57.390228],[-6.277025,57.390212],[-6.276939,57.390178],[-6.276871,57.390125],[-6.276821,57.390053],[-6.276789,57.389962],[-6.276745,57.389891],[-6.276687,57.389842],[-6.276617,57.389812],[-6.276533,57.389804],[-6.276407,57.389829],[-6.276239,57.389888],[-6.276029,57.389981],[-6.275776,57.390108],[-6.275463,57.390226],[-6.275088,57.390337],[-6.274652,57.390441],[-6.274156,57.390536],[-6.27377,57.390616],[-6.273494,57.390682],[-6.273329,57.390732],[-6.273274,57.390768],[-6.273282,57.39082],[-6.273353,57.39089],[-6.273487,57.390976],[-6.273683,57.39108],[-6.273881,57.391176],[-6.27408,57.391265],[-6.27428,57.391347],[-6.274481,57.391422],[-6.274713,57.391446],[-6.274975,57.39142],[-6.275268,57.391345]]]}}