{"type":"Feature","properties":{"id":"267287","COMMUNE":"Inverness and Nairn","PROVINCE":"Inverness & Nairn and Moray, Badenoch & Strathspey","COUNTRY":"UK","FIREDATE":"2025-03-09 11:34:00","CLASS":"FireSeason","areaHA_geo":25.675},"geometry":{"type":"Polygon","coordinates":[[[-3.946932,57.341703],[-3.947233,57.341798],[-3.947516,57.341847],[-3.947782,57.34185],[-3.94803,57.341807],[-3.948261,57.341719],[-3.94843,57.341726],[-3.948537,57.341828],[-3.948583,57.342026],[-3.948567,57.342318],[-3.948488,57.342569],[-3.948348,57.34278],[-3.948145,57.342949],[-3.94788,57.343078],[-3.947684,57.343198],[-3.947555,57.343309],[-3.947493,57.343412],[-3.9475,57.343507],[-3.947434,57.343593],[-3.947298,57.343671],[-3.947089,57.343741],[-3.946809,57.343803],[-3.946575,57.343846],[-3.946389,57.343871],[-3.94625,57.343878],[-3.946157,57.343867],[-3.945982,57.343902],[-3.945723,57.343982],[-3.945382,57.344108],[-3.944957,57.34428],[-3.944585,57.344422],[-3.944265,57.344533],[-3.943996,57.344613],[-3.94378,57.344662],[-3.943609,57.34472],[-3.943482,57.344787],[-3.9434,57.344862],[-3.943363,57.344945],[-3.943209,57.345067],[-3.942937,57.345228],[-3.942547,57.345428],[-3.94204,57.345667],[-3.941593,57.345823],[-3.941204,57.345896],[-3.940875,57.345887],[-3.940605,57.345794],[-3.940357,57.345748],[-3.940132,57.345748],[-3.939929,57.345795],[-3.939749,57.345888],[-3.939577,57.34599],[-3.939413,57.3461],[-3.939257,57.346218],[-3.939109,57.346345],[-3.938932,57.346473],[-3.938727,57.346603],[-3.938493,57.346735],[-3.93823,57.346869],[-3.938047,57.347026],[-3.937944,57.347206],[-3.937921,57.347409],[-3.937978,57.347636],[-3.937884,57.347815],[-3.93764,57.347946],[-3.937246,57.348031],[-3.936701,57.348068],[-3.936268,57.348158],[-3.935945,57.3483],[-3.935732,57.348496],[-3.935631,57.348745],[-3.935608,57.348944],[-3.935665,57.349094],[-3.935801,57.349194],[-3.936017,57.349245],[-3.936275,57.349223],[-3.936577,57.349127],[-3.936922,57.348958],[-3.93731,57.348716],[-3.937616,57.348541],[-3.937839,57.348432],[-3.93798,57.348391],[-3.938039,57.348416],[-3.938097,57.348537],[-3.938154,57.348752],[-3.938211,57.349063],[-3.938267,57.349469],[-3.938297,57.349815],[-3.938303,57.350099],[-3.938282,57.350323],[-3.938237,57.350487],[-3.938182,57.350639],[-3.938118,57.350781],[-3.938045,57.350911],[-3.937963,57.351031],[-3.937862,57.351153],[-3.937743,57.351276],[-3.937604,57.351402],[-3.937447,57.35153],[-3.937394,57.35163],[-3.937447,57.351704],[-3.937604,57.351751],[-3.937866,57.35177],[-3.938107,57.351764],[-3.938325,57.351733],[-3.938522,57.351676],[-3.938696,57.351594],[-3.93889,57.351558],[-3.939104,57.351566],[-3.939338,57.351621],[-3.939592,57.35172],[-3.939861,57.351767],[-3.940148,57.35176],[-3.940451,57.3517],[-3.94077,57.351587],[-3.940896,57.351454],[-3.940829,57.351303],[-3.940569,57.351133],[-3.940115,57.350944],[-3.939756,57.350838],[-3.939493,57.350816],[-3.939325,57.350877],[-3.939253,57.351022],[-3.939187,57.351073],[-3.939126,57.351029],[-3.939071,57.350891],[-3.939022,57.350659],[-3.939009,57.35045],[-3.939032,57.350266],[-3.939091,57.350105],[-3.939186,57.349968],[-3.939291,57.349858],[-3.939406,57.349774],[-3.939532,57.349717],[-3.939667,57.349687],[-3.939851,57.349616],[-3.940083,57.349504],[-3.940363,57.349351],[-3.940691,57.349157],[-3.940928,57.348983],[-3.941075,57.348827],[-3.941131,57.348691],[-3.941096,57.348573],[-3.940976,57.348488],[-3.94077,57.348436],[-3.940478,57.348417],[-3.940102,57.348431],[-3.93982,57.348393],[-3.939635,57.348305],[-3.939545,57.348165],[-3.939551,57.347975],[-3.939508,57.347796],[-3.939415,57.347629],[-3.939273,57.347473],[-3.939081,57.34733],[-3.938941,57.347199],[-3.938851,57.347079],[-3.938813,57.346971],[-3.938825,57.346874],[-3.938879,57.346829],[-3.938974,57.346835],[-3.939111,57.346891],[-3.939289,57.346999],[-3.939453,57.34705],[-3.939602,57.347045],[-3.939738,57.346983],[-3.93986,57.346864],[-3.939986,57.346745],[-3.940117,57.346625],[-3.940252,57.346505],[-3.940393,57.346385],[-3.940553,57.346296],[-3.940732,57.34624],[-3.940931,57.346216],[-3.94115,57.346224],[-3.941303,57.346254],[-3.941391,57.346306],[-3.941414,57.346378],[-3.941372,57.346473],[-3.941319,57.346548],[-3.941258,57.346605],[-3.941186,57.346643],[-3.941106,57.346662],[-3.941031,57.346691],[-3.940962,57.34673],[-3.9409,57.346779],[-3.940844,57.346838],[-3.940789,57.346886],[-3.940735,57.346924],[-3.940681,57.346951],[-3.940628,57.346967],[-3.940579,57.347004],[-3.940532,57.347062],[-3.940488,57.34714],[-3.940448,57.34724],[-3.940437,57.347321],[-3.940457,57.347385],[-3.940506,57.347432],[-3.940585,57.34746],[-3.940609,57.347522],[-3.940577,57.347618],[-3.940489,57.347748],[-3.940345,57.347911],[-3.940298,57.348033],[-3.940349,57.348115],[-3.940497,57.348156],[-3.940742,57.348156],[-3.940997,57.34808],[-3.941263,57.347928],[-3.941538,57.347699],[-3.941824,57.347394],[-3.942095,57.34714],[-3.942352,57.346938],[-3.942594,57.346789],[-3.942821,57.34669],[-3.943054,57.346594],[-3.943292,57.3465],[-3.943536,57.346408],[-3.943786,57.346318],[-3.944031,57.346233],[-3.944271,57.346155],[-3.944505,57.346082],[-3.944735,57.346016],[-3.944877,57.345998],[-3.944933,57.346029],[-3.944902,57.346109],[-3.944784,57.346237],[-3.94461,57.346404],[-3.944379,57.346608],[-3.944091,57.34685],[-3.943747,57.34713],[-3.943468,57.34739],[-3.943255,57.347629],[-3.943108,57.347848],[-3.943027,57.348047],[-3.943067,57.34825],[-3.943229,57.348457],[-3.943513,57.348668],[-3.943918,57.348884],[-3.94431,57.349077],[-3.944688,57.349248],[-3.945053,57.349396],[-3.945405,57.349523],[-3.945694,57.349581],[-3.945921,57.349573],[-3.946086,57.349497],[-3.946188,57.349354],[-3.946188,57.349231],[-3.946086,57.349129],[-3.94588,57.349047],[-3.945573,57.348984],[-3.94532,57.348918],[-3.945121,57.348846],[-3.944977,57.348771],[-3.944888,57.34869],[-3.944826,57.348591],[-3.944791,57.348474],[-3.944783,57.348337],[-3.944803,57.348182],[-3.944853,57.348063],[-3.944934,57.34798],[-3.945047,57.347934],[-3.94519,57.347924],[-3.945301,57.34794],[-3.94538,57.347981],[-3.945428,57.348049],[-3.945444,57.348142],[-3.945507,57.348224],[-3.945617,57.348294],[-3.945774,57.348353],[-3.945978,57.3484],[-3.946181,57.348477],[-3.946384,57.348585],[-3.946585,57.348723],[-3.946787,57.348892],[-3.946959,57.348992],[-3.947104,57.349024],[-3.94722,57.348988],[-3.947308,57.348883],[-3.947409,57.348796],[-3.947524,57.348725],[-3.947654,57.348672],[-3.947797,57.348636],[-3.947908,57.348625],[-3.947987,57.34864],[-3.948034,57.348682],[-3.94805,57.348749],[-3.948106,57.348838],[-3.948202,57.348949],[-3.948338,57.349082],[-3.948515,57.349238],[-3.948676,57.349314],[-3.948822,57.349312],[-3.948953,57.34923],[-3.949069,57.34907],[-3.949152,57.348915],[-3.949202,57.348764],[-3.94922,57.348618],[-3.949206,57.348477],[-3.949165,57.348364],[-3.949099,57.348279],[-3.949006,57.348221],[-3.948887,57.348192],[-3.948799,57.34812],[-3.948741,57.348008],[-3.948714,57.347854],[-3.948718,57.347658],[-3.948635,57.347478],[-3.948465,57.347314],[-3.948208,57.347166],[-3.947864,57.347033],[-3.947594,57.346987],[-3.947398,57.347026],[-3.947277,57.347151],[-3.94723,57.347363],[-3.947221,57.347539],[-3.94725,57.347681],[-3.947318,57.347789],[-3.947424,57.347862],[-3.947492,57.347937],[-3.947521,57.348013],[-3.947511,57.34809],[-3.947463,57.34817],[-3.947394,57.348232],[-3.947303,57.348279],[-3.947193,57.348309],[-3.947061,57.348323],[-3.946944,57.348319],[-3.946842,57.348295],[-3.946755,57.348253],[-3.946683,57.348192],[-3.946628,57.348125],[-3.946591,57.348053],[-3.946571,57.347974],[-3.946568,57.34789],[-3.946516,57.347818],[-3.946415,57.347757],[-3.946264,57.347709],[-3.946064,57.347672],[-3.945883,57.34762],[-3.94572,57.347553],[-3.945576,57.347471],[-3.945451,57.347373],[-3.945411,57.347256],[-3.945457,57.347119],[-3.945589,57.346962],[-3.945806,57.346786],[-3.945981,57.346628],[-3.946115,57.34649],[-3.946207,57.346371],[-3.946257,57.34627],[-3.946265,57.34617],[-3.946232,57.346071],[-3.946158,57.345972],[-3.946042,57.345873],[-3.945951,57.345788],[-3.945884,57.345716],[-3.945842,57.345657],[-3.945825,57.345611],[-3.945909,57.345498],[-3.946095,57.345317],[-3.946383,57.345068],[-3.946772,57.344752],[-3.947104,57.344489],[-3.947377,57.344281],[-3.947593,57.344125],[-3.94775,57.344024],[-3.947905,57.343922],[-3.948056,57.343818],[-3.948205,57.343714],[-3.948351,57.343609],[-3.948481,57.343506],[-3.948596,57.343407],[-3.948694,57.34331],[-3.948776,57.343217],[-3.94886,57.343137],[-3.948947,57.343069],[-3.949037,57.343015],[-3.949129,57.342973],[-3.949215,57.342935],[-3.949295,57.3429],[-3.949368,57.342869],[-3.949436,57.34284],[-3.949477,57.342794],[-3.949492,57.342729],[-3.949479,57.342645],[-3.949441,57.342544],[-3.949437,57.342451],[-3.949469,57.342365],[-3.949535,57.342288],[-3.949636,57.342219],[-3.949821,57.342126],[-3.950089,57.342007],[-3.950441,57.341864],[-3.950877,57.341696],[-3.951217,57.341547],[-3.951462,57.341418],[-3.951612,57.341308],[-3.951665,57.341218],[-3.951679,57.341137],[-3.951652,57.341066],[-3.951584,57.341005],[-3.951477,57.340953],[-3.951284,57.340909],[-3.951005,57.340873],[-3.950642,57.340844],[-3.950193,57.340823],[-3.949858,57.340825],[-3.949637,57.340849],[-3.94953,57.340894],[-3.949536,57.340962],[-3.94947,57.341016],[-3.949333,57.341054],[-3.949124,57.341078],[-3.948843,57.341087],[-3.948584,57.341112],[-3.948345,57.341153],[-3.948127,57.341211],[-3.947929,57.341285],[-3.947753,57.341335],[-3.947597,57.341363],[-3.947461,57.341366],[-3.947346,57.341347],[-3.947216,57.341348],[-3.947072,57.341368],[-3.946914,57.341409],[-3.946741,57.34147],[-3.946686,57.341539],[-3.94675,57.341617],[-3.946932,57.341703]]]}}