{"type":"Feature","properties":{"id":"267297","COMMUNE":"Badenoch and Strathspey","PROVINCE":"Inverness & Nairn and Moray, Badenoch & Strathspey","COUNTRY":"UK","FIREDATE":"2025-03-19 12:34:00","FINALDATE":"2025-03-19 13:27:00","CLASS":"FireSeason","areaHA_geo":0.769},"geometry":{"type":"Polygon","coordinates":[[[-3.666368,57.411547],[-3.666526,57.41106],[-3.666597,57.410711],[-3.666582,57.410499],[-3.66648,57.410425],[-3.666291,57.410489],[-3.666105,57.41065],[-3.665923,57.410907],[-3.665744,57.411262],[-3.665568,57.411714],[-3.665488,57.412046],[-3.665504,57.412258],[-3.665615,57.412349],[-3.665821,57.41232],[-3.666016,57.412177],[-3.666198,57.411919],[-3.666368,57.411547]]]}}