{"type":"Feature","properties":{"id":"267231","COMMUNE":"West Moray","PROVINCE":"Inverness & Nairn and Moray, Badenoch & Strathspey","COUNTRY":"UK","FIREDATE":"2025-04-02 14:35:00","CLASS":"FireSeason","areaHA_geo":0.597},"geometry":{"type":"Polygon","coordinates":[[[-3.589097,57.470086],[-3.589193,57.470201],[-3.58934,57.470311],[-3.589537,57.470416],[-3.589785,57.470515],[-3.589999,57.470578],[-3.590178,57.470605],[-3.590323,57.470595],[-3.590433,57.47055],[-3.590457,57.470452],[-3.590396,57.470302],[-3.59025,57.4701],[-3.590018,57.469846],[-3.589801,57.469675],[-3.5896,57.469588],[-3.589413,57.469584],[-3.589242,57.469665],[-3.589125,57.469755],[-3.589062,57.469855],[-3.589053,57.469966],[-3.589097,57.470086]]]}}