{"type":"Feature","properties":{"id":"267251","COMMUNE":"Inverness and Nairn","PROVINCE":"Inverness & Nairn and Moray, Badenoch & Strathspey","COUNTRY":"UK","FIREDATE":"2025-04-03 12:06:00","CLASS":"FireSeason","areaHA_geo":1.884},"geometry":{"type":"Polygon","coordinates":[[[-4.026096,57.42752],[-4.026167,57.427689],[-4.026407,57.427842],[-4.026817,57.427978],[-4.027395,57.428097],[-4.027905,57.428114],[-4.028347,57.428028],[-4.028719,57.42784],[-4.029024,57.427549],[-4.029207,57.427316],[-4.02927,57.427141],[-4.029213,57.427025],[-4.029035,57.426967],[-4.02875,57.426935],[-4.028357,57.426928],[-4.027858,57.426947],[-4.027251,57.426991],[-4.026771,57.42707],[-4.026419,57.427185],[-4.026194,57.427335],[-4.026096,57.42752]]]}}