{"type":"Feature","properties":{"id":"267278","COMMUNE":"Inverness and Nairn","PROVINCE":"Inverness & Nairn and Moray, Badenoch & Strathspey","COUNTRY":"UK","FIREDATE":"2025-03-20 11:51:00","CLASS":"FireSeason","areaHA_geo":12.395},"geometry":{"type":"Polygon","coordinates":[[[-4.065735,57.34544],[-4.065944,57.345438],[-4.066171,57.34541],[-4.066416,57.345358],[-4.06668,57.345281],[-4.066783,57.34522],[-4.066726,57.345178],[-4.066509,57.345152],[-4.066132,57.345144],[-4.065822,57.34512],[-4.06558,57.345081],[-4.065405,57.345026],[-4.065298,57.344956],[-4.065135,57.344893],[-4.064916,57.344838],[-4.064643,57.34479],[-4.064314,57.344749],[-4.063979,57.344684],[-4.063637,57.344596],[-4.063288,57.344484],[-4.062933,57.344348],[-4.062597,57.344215],[-4.06228,57.344086],[-4.061982,57.34396],[-4.061703,57.343838],[-4.061419,57.343729],[-4.06113,57.343635],[-4.060837,57.343555],[-4.060539,57.343489],[-4.060353,57.343413],[-4.060279,57.343325],[-4.060317,57.343227],[-4.060468,57.343118],[-4.060586,57.343019],[-4.060672,57.342928],[-4.060727,57.342845],[-4.060749,57.342772],[-4.060792,57.342719],[-4.060854,57.342685],[-4.060937,57.34267],[-4.06104,57.342675],[-4.061137,57.342605],[-4.061228,57.342459],[-4.061312,57.342238],[-4.06139,57.341941],[-4.061465,57.3417],[-4.061535,57.341515],[-4.061602,57.341387],[-4.061666,57.341315],[-4.06172,57.341224],[-4.061764,57.341116],[-4.061799,57.34099],[-4.061824,57.340845],[-4.061878,57.340721],[-4.061959,57.340617],[-4.062069,57.340533],[-4.062206,57.340469],[-4.062307,57.340377],[-4.062371,57.340256],[-4.0624,57.340105],[-4.062392,57.339927],[-4.062402,57.339755],[-4.06243,57.339592],[-4.062476,57.339435],[-4.062541,57.339287],[-4.062473,57.339181],[-4.062272,57.339118],[-4.061938,57.339099],[-4.061473,57.339122],[-4.061096,57.339226],[-4.060809,57.339412],[-4.060611,57.33968],[-4.060502,57.34003],[-4.060392,57.340329],[-4.06028,57.340578],[-4.060167,57.340776],[-4.060052,57.340925],[-4.059942,57.341059],[-4.059836,57.34118],[-4.059736,57.341286],[-4.05964,57.341378],[-4.059534,57.34151],[-4.059418,57.341684],[-4.059293,57.341897],[-4.059158,57.342151],[-4.059005,57.342346],[-4.058835,57.342482],[-4.058647,57.342558],[-4.058441,57.342574],[-4.058245,57.342597],[-4.058059,57.342625],[-4.057883,57.342659],[-4.057716,57.342699],[-4.057564,57.342711],[-4.057427,57.342696],[-4.057305,57.342653],[-4.057197,57.342583],[-4.057146,57.342509],[-4.057151,57.342429],[-4.057212,57.342345],[-4.057329,57.342256],[-4.057438,57.342143],[-4.057537,57.342007],[-4.057628,57.341848],[-4.057709,57.341665],[-4.057686,57.341524],[-4.057557,57.341427],[-4.057324,57.341371],[-4.056986,57.341359],[-4.056674,57.341394],[-4.056387,57.341477],[-4.056126,57.341607],[-4.055891,57.341785],[-4.055728,57.341978],[-4.055636,57.342187],[-4.055616,57.342411],[-4.055667,57.34265],[-4.055772,57.342853],[-4.055932,57.343018],[-4.056145,57.343146],[-4.056412,57.343237],[-4.056651,57.343282],[-4.056863,57.343281],[-4.057047,57.343234],[-4.057203,57.343141],[-4.057347,57.343079],[-4.057476,57.343049],[-4.057593,57.34305],[-4.057696,57.343082],[-4.05781,57.343129],[-4.057934,57.343189],[-4.058068,57.343263],[-4.058213,57.343351],[-4.058356,57.34342],[-4.058496,57.34347],[-4.058634,57.343501],[-4.05877,57.343514],[-4.058869,57.343548],[-4.058931,57.343604],[-4.058956,57.343682],[-4.058943,57.343781],[-4.059005,57.343875],[-4.05914,57.343964],[-4.059349,57.344048],[-4.059631,57.344126],[-4.059837,57.344197],[-4.059967,57.344259],[-4.060021,57.344313],[-4.059998,57.344359],[-4.060022,57.344408],[-4.060093,57.344461],[-4.06021,57.344516],[-4.060374,57.344575],[-4.060528,57.344608],[-4.060673,57.344617],[-4.060808,57.344601],[-4.060934,57.34456],[-4.061089,57.344542],[-4.061272,57.344547],[-4.061485,57.344575],[-4.061726,57.344625],[-4.061905,57.344676],[-4.062021,57.344729],[-4.062075,57.344783],[-4.062066,57.344839],[-4.061973,57.344875],[-4.061798,57.344891],[-4.061539,57.344887],[-4.061197,57.344864],[-4.061029,57.344896],[-4.061037,57.344982],[-4.06122,57.345123],[-4.061578,57.345319],[-4.061945,57.345454],[-4.062322,57.345527],[-4.062708,57.34554],[-4.063104,57.345492],[-4.063405,57.345468],[-4.063612,57.345467],[-4.063724,57.34549],[-4.063742,57.345537],[-4.063849,57.345559],[-4.064044,57.345554],[-4.064328,57.345523],[-4.0647,57.345467],[-4.065027,57.34543],[-4.065309,57.345414],[-4.065545,57.345417],[-4.065735,57.34544]]]}}