{"type":"Feature","properties":{"id":"267227","COMMUNE":"West Moray","PROVINCE":"Inverness & Nairn and Moray, Badenoch & Strathspey","COUNTRY":"UK","FIREDATE":"2025-04-01 13:57:00","FINALDATE":"2025-04-02 13:57:00","CLASS":"FireSeason","areaHA_geo":1.194},"geometry":{"type":"Polygon","coordinates":[[[-3.587688,57.464651],[-3.587912,57.46475],[-3.588139,57.464778],[-3.588368,57.464734],[-3.588601,57.464619],[-3.588818,57.464535],[-3.589021,57.464483],[-3.589208,57.464462],[-3.589381,57.464472],[-3.589504,57.464424],[-3.589575,57.464317],[-3.589595,57.464152],[-3.589565,57.463928],[-3.589415,57.463778],[-3.589144,57.463704],[-3.588753,57.463705],[-3.588242,57.463781],[-3.587837,57.463858],[-3.587539,57.463938],[-3.587347,57.464019],[-3.587262,57.464101],[-3.587253,57.464206],[-3.587321,57.464332],[-3.587466,57.464481],[-3.587688,57.464651]]]}}