{"type":"Feature","properties":{"id":"267229","COMMUNE":"West Moray","PROVINCE":"Inverness & Nairn and Moray, Badenoch & Strathspey","COUNTRY":"UK","FIREDATE":"2025-04-01 13:57:00","CLASS":"FireSeason","areaHA_geo":0.258},"geometry":{"type":"Polygon","coordinates":[[[-3.596246,57.46572],[-3.596311,57.465773],[-3.59642,57.465796],[-3.596573,57.465789],[-3.59677,57.465751],[-3.596923,57.465677],[-3.59703,57.465567],[-3.597091,57.465419],[-3.597108,57.465236],[-3.597102,57.465113],[-3.597073,57.46505],[-3.597022,57.465049],[-3.596949,57.465107],[-3.596854,57.465171],[-3.596737,57.46524],[-3.596598,57.465314],[-3.596437,57.465394],[-3.596321,57.465474],[-3.596251,57.465555],[-3.596226,57.465637],[-3.596246,57.46572]]]}}