{"type":"Feature","properties":{"id":"267279","COMMUNE":"Inverness and Nairn","PROVINCE":"Inverness & Nairn and Moray, Badenoch & Strathspey","COUNTRY":"UK","FIREDATE":"2025-03-19 13:27:00","CLASS":"FireSeason","areaHA_geo":1.137},"geometry":{"type":"Polygon","coordinates":[[[-4.048665,57.34222],[-4.048382,57.341957],[-4.048109,57.341765],[-4.047847,57.341647],[-4.047594,57.3416],[-4.047352,57.341626],[-4.047183,57.341728],[-4.047089,57.341904],[-4.047069,57.342155],[-4.047123,57.342481],[-4.047204,57.342711],[-4.04731,57.342844],[-4.047442,57.34288],[-4.047601,57.342819],[-4.047757,57.342785],[-4.04791,57.342777],[-4.048061,57.342794],[-4.048209,57.342838],[-4.048361,57.342853],[-4.048518,57.342839],[-4.048678,57.342796],[-4.048842,57.342724],[-4.048895,57.342604],[-4.048836,57.342436],[-4.048665,57.34222]]]}}