{"type":"Feature","properties":{"id":"267276","COMMUNE":"Inverness and Nairn","PROVINCE":"Inverness & Nairn and Moray, Badenoch & Strathspey","COUNTRY":"UK","FIREDATE":"2025-03-20 12:17:00","CLASS":"FireSeason","areaHA_geo":2.794},"geometry":{"type":"Polygon","coordinates":[[[-4.048665,57.337997],[-4.048601,57.338147],[-4.048617,57.33824],[-4.048712,57.338278],[-4.048887,57.338259],[-4.048997,57.338265],[-4.049044,57.338295],[-4.049027,57.33835],[-4.048947,57.338429],[-4.048974,57.338493],[-4.049108,57.338541],[-4.04935,57.338574],[-4.0497,57.338591],[-4.049927,57.338576],[-4.05003,57.338529],[-4.05001,57.338451],[-4.049867,57.338341],[-4.04984,57.338249],[-4.049927,57.338174],[-4.05013,57.338117],[-4.050448,57.338077],[-4.050681,57.338006],[-4.050828,57.337903],[-4.05089,57.337768],[-4.050867,57.337602],[-4.05088,57.337476],[-4.050928,57.337392],[-4.051013,57.337349],[-4.051133,57.337347],[-4.051247,57.337275],[-4.051354,57.337133],[-4.051455,57.33692],[-4.051549,57.336638],[-4.051613,57.336416],[-4.051647,57.336254],[-4.051651,57.336153],[-4.051625,57.336112],[-4.051577,57.336085],[-4.051506,57.336071],[-4.051412,57.33607],[-4.051296,57.336082],[-4.051188,57.336071],[-4.051088,57.336035],[-4.050998,57.335976],[-4.050915,57.335892],[-4.050808,57.335864],[-4.050678,57.335892],[-4.050523,57.335975],[-4.050344,57.336114],[-4.05021,57.336235],[-4.050123,57.336337],[-4.050082,57.33642],[-4.050087,57.336485],[-4.050023,57.33659],[-4.049892,57.336735],[-4.049692,57.336919],[-4.049425,57.337144],[-4.049188,57.337364],[-4.048983,57.33758],[-4.048809,57.337791],[-4.048665,57.337997]]]}}