{"type":"Feature","properties":{"id":"267261","COMMUNE":"Inverness and Nairn","PROVINCE":"Inverness & Nairn and Moray, Badenoch & Strathspey","COUNTRY":"UK","FIREDATE":"2025-03-19 10:56:00","FINALDATE":"2025-03-19 12:34:00","CLASS":"FireSeason","areaHA_geo":6.979},"geometry":{"type":"Polygon","coordinates":[[[-3.827671,57.369973],[-3.82771,57.37012],[-3.827815,57.370184],[-3.827987,57.370163],[-3.828224,57.370059],[-3.828399,57.369951],[-3.828511,57.369838],[-3.828561,57.369721],[-3.828547,57.3696],[-3.828572,57.369503],[-3.828634,57.36943],[-3.828734,57.369382],[-3.828872,57.369359],[-3.828997,57.369324],[-3.829109,57.369277],[-3.829209,57.369218],[-3.829297,57.369147],[-3.829406,57.369103],[-3.829538,57.369085],[-3.829691,57.369093],[-3.829867,57.369127],[-3.830004,57.369125],[-3.830104,57.369088],[-3.830167,57.369016],[-3.830191,57.368908],[-3.830179,57.368811],[-3.83013,57.368724],[-3.830044,57.368647],[-3.829922,57.368581],[-3.829826,57.36848],[-3.829758,57.368342],[-3.829717,57.368169],[-3.829704,57.36796],[-3.829619,57.367789],[-3.829463,57.367656],[-3.829237,57.367562],[-3.828939,57.367506],[-3.828845,57.367452],[-3.828956,57.367401],[-3.829271,57.367352],[-3.829791,57.367306],[-3.830184,57.367247],[-3.83045,57.367175],[-3.830589,57.36709],[-3.830601,57.366992],[-3.830657,57.366905],[-3.830759,57.366828],[-3.830905,57.366762],[-3.831095,57.366707],[-3.831263,57.366643],[-3.831406,57.366571],[-3.831526,57.36649],[-3.831623,57.366401],[-3.831696,57.366282],[-3.831745,57.366132],[-3.831771,57.365951],[-3.831773,57.365741],[-3.831731,57.365585],[-3.831644,57.365485],[-3.831513,57.365439],[-3.831338,57.365449],[-3.831182,57.365424],[-3.831045,57.365364],[-3.830928,57.365269],[-3.83083,57.365139],[-3.83065,57.365061],[-3.830389,57.365037],[-3.830045,57.365064],[-3.82962,57.365144],[-3.829237,57.365231],[-3.828898,57.365324],[-3.828602,57.365423],[-3.828349,57.365529],[-3.828229,57.36561],[-3.828241,57.365665],[-3.828387,57.365696],[-3.828666,57.365701],[-3.828922,57.365712],[-3.829155,57.365726],[-3.829366,57.365746],[-3.829554,57.36577],[-3.829736,57.365799],[-3.829912,57.365833],[-3.830081,57.365872],[-3.830244,57.365916],[-3.830382,57.365958],[-3.830495,57.365999],[-3.830583,57.366038],[-3.830646,57.366075],[-3.830677,57.366126],[-3.830678,57.366192],[-3.830647,57.366272],[-3.830585,57.366367],[-3.830495,57.366464],[-3.830378,57.366564],[-3.830234,57.366667],[-3.830062,57.366773],[-3.829872,57.366852],[-3.829664,57.366905],[-3.829438,57.366931],[-3.829194,57.36693],[-3.829077,57.366912],[-3.829088,57.366876],[-3.829226,57.366822],[-3.829492,57.36675],[-3.829684,57.366677],[-3.829803,57.366603],[-3.829848,57.366528],[-3.829819,57.366452],[-3.829741,57.366373],[-3.829612,57.36629],[-3.829433,57.366204],[-3.829204,57.366114],[-3.828942,57.366078],[-3.828648,57.366096],[-3.828321,57.366168],[-3.827961,57.366294],[-3.827702,57.36647],[-3.827544,57.366697],[-3.827486,57.366975],[-3.827528,57.367304],[-3.827635,57.367578],[-3.827807,57.367797],[-3.828044,57.36796],[-3.828345,57.368069],[-3.828459,57.368188],[-3.828386,57.368319],[-3.828126,57.36846],[-3.827679,57.368613],[-3.827322,57.368756],[-3.827055,57.368889],[-3.826878,57.369013],[-3.826791,57.369128],[-3.826793,57.36922],[-3.826884,57.369289],[-3.827065,57.369336],[-3.827334,57.36936],[-3.827529,57.369435],[-3.827651,57.369563],[-3.827698,57.369742],[-3.827671,57.369973]]]}}