{"type":"Feature","properties":{"id":"267255","COMMUNE":"Inverness and Nairn","PROVINCE":"Inverness & Nairn and Moray, Badenoch & Strathspey","COUNTRY":"UK","FIREDATE":"2025-04-04 11:47:00","CLASS":"FireSeason","areaHA_geo":1.286},"geometry":{"type":"Polygon","coordinates":[[[-3.994071,57.420295],[-3.993935,57.420019],[-3.993779,57.419805],[-3.993603,57.419653],[-3.993407,57.419561],[-3.993191,57.419531],[-3.993023,57.419518],[-3.992904,57.419522],[-3.992834,57.419544],[-3.992811,57.419583],[-3.992753,57.419609],[-3.992659,57.419623],[-3.99253,57.419623],[-3.992364,57.419611],[-3.992205,57.419658],[-3.992054,57.419764],[-3.99191,57.41993],[-3.991773,57.420154],[-3.991707,57.420323],[-3.991713,57.420436],[-3.99179,57.420492],[-3.991939,57.420493],[-3.99207,57.420492],[-3.992183,57.420488],[-3.992278,57.420482],[-3.992356,57.420473],[-3.992527,57.420483],[-3.992791,57.420509],[-3.993148,57.420554],[-3.993599,57.420615],[-3.993903,57.420593],[-3.99406,57.420486],[-3.994071,57.420295]]]}}