{"type":"Feature","properties":{"id":"267232","COMMUNE":"West Moray","PROVINCE":"Inverness & Nairn and Moray, Badenoch & Strathspey","COUNTRY":"UK","FIREDATE":"2025-04-01 13:57:00","FINALDATE":"2025-04-02 13:57:00","CLASS":"FireSeason","areaHA_geo":0.296},"geometry":{"type":"Polygon","coordinates":[[[-3.590117,57.469187],[-3.590235,57.469383],[-3.590366,57.469494],[-3.590511,57.469522],[-3.59067,57.469465],[-3.590746,57.469372],[-3.59074,57.469242],[-3.590652,57.469075],[-3.590481,57.468871],[-3.59033,57.468713],[-3.590198,57.468602],[-3.590087,57.468537],[-3.589995,57.468518],[-3.589953,57.468574],[-3.589959,57.468704],[-3.590013,57.468908],[-3.590117,57.469187]]]}}