{"type":"Feature","properties":{"id":"267288","COMMUNE":"Inverness and Nairn","PROVINCE":"Inverness & Nairn and Moray, Badenoch & Strathspey","COUNTRY":"UK","FIREDATE":"2025-03-09 11:34:00","CLASS":"FireSeason","areaHA_geo":5.485},"geometry":{"type":"Polygon","coordinates":[[[-3.942704,57.35064],[-3.942566,57.350833],[-3.942505,57.35098],[-3.942518,57.35108],[-3.942607,57.351134],[-3.942741,57.351133],[-3.942921,57.351077],[-3.943146,57.350966],[-3.943416,57.350799],[-3.943701,57.350674],[-3.944002,57.350589],[-3.944318,57.350545],[-3.94465,57.350541],[-3.944924,57.350526],[-3.945139,57.3505],[-3.945297,57.350464],[-3.945396,57.350416],[-3.945483,57.350399],[-3.945556,57.350412],[-3.945617,57.350456],[-3.945665,57.35053],[-3.945724,57.350621],[-3.945795,57.35073],[-3.945877,57.350856],[-3.94597,57.350999],[-3.946121,57.351145],[-3.94633,57.351295],[-3.946596,57.351447],[-3.94692,57.351603],[-3.947254,57.351728],[-3.947599,57.351823],[-3.947954,57.351888],[-3.94832,57.351923],[-3.948614,57.351935],[-3.948835,57.351925],[-3.948984,57.351892],[-3.949061,57.351836],[-3.949244,57.351777],[-3.949534,57.351714],[-3.94993,57.351648],[-3.950433,57.351579],[-3.950869,57.351533],[-3.951238,57.351512],[-3.951541,57.351516],[-3.951777,57.351543],[-3.951982,57.351549],[-3.952157,57.351533],[-3.952302,57.351495],[-3.952416,57.351435],[-3.952477,57.351369],[-3.952484,57.351297],[-3.952437,57.351219],[-3.952337,57.351135],[-3.95223,57.351068],[-3.952119,57.351019],[-3.952002,57.350988],[-3.951879,57.350975],[-3.951737,57.350937],[-3.951577,57.350875],[-3.951397,57.350789],[-3.951198,57.350678],[-3.950982,57.350594],[-3.95075,57.350537],[-3.950501,57.350507],[-3.950235,57.350504],[-3.950083,57.350534],[-3.950044,57.350599],[-3.950118,57.350698],[-3.950306,57.350831],[-3.950418,57.35094],[-3.950455,57.351023],[-3.950415,57.351081],[-3.950301,57.351115],[-3.950135,57.351091],[-3.949919,57.351012],[-3.949651,57.350875],[-3.949333,57.350682],[-3.949085,57.35059],[-3.948907,57.350598],[-3.948799,57.350707],[-3.948761,57.350917],[-3.948716,57.351089],[-3.948663,57.351221],[-3.948603,57.351315],[-3.948536,57.351369],[-3.948396,57.351374],[-3.948182,57.351328],[-3.947896,57.351232],[-3.947536,57.351085],[-3.947259,57.350941],[-3.947062,57.350798],[-3.946948,57.350657],[-3.946914,57.350518],[-3.946924,57.350422],[-3.946978,57.350369],[-3.947074,57.350358],[-3.947214,57.350391],[-3.947342,57.350392],[-3.947457,57.350361],[-3.947561,57.350298],[-3.947652,57.350204],[-3.947678,57.350115],[-3.947636,57.350033],[-3.947529,57.349956],[-3.947355,57.349885],[-3.947182,57.349861],[-3.947009,57.349885],[-3.946838,57.349956],[-3.946667,57.350074],[-3.946501,57.350158],[-3.946338,57.350207],[-3.94618,57.350221],[-3.946025,57.350201],[-3.945894,57.350166],[-3.945787,57.350117],[-3.945704,57.350053],[-3.945645,57.349975],[-3.945533,57.349945],[-3.945368,57.349962],[-3.945151,57.350028],[-3.94488,57.350141],[-3.944648,57.35022],[-3.944454,57.350265],[-3.944299,57.350275],[-3.944182,57.35025],[-3.944096,57.350184],[-3.94404,57.350076],[-3.944015,57.349927],[-3.944021,57.349736],[-3.943988,57.349566],[-3.943916,57.349415],[-3.943805,57.349284],[-3.943656,57.349173],[-3.943531,57.349155],[-3.943432,57.349229],[-3.943358,57.349395],[-3.943309,57.349654],[-3.943219,57.349908],[-3.943089,57.350157],[-3.942917,57.350401],[-3.942704,57.35064]]]}}