{"type":"Feature","properties":{"id":"267296","COMMUNE":"Badenoch and Strathspey","PROVINCE":"Inverness & Nairn and Moray, Badenoch & Strathspey","COUNTRY":"UK","FIREDATE":"2025-03-19 12:34:00","FINALDATE":"2025-03-19 13:27:00","CLASS":"FireSeason","areaHA_geo":0.879},"geometry":{"type":"Polygon","coordinates":[[[-3.670664,57.410463],[-3.670983,57.410564],[-3.671237,57.410583],[-3.671424,57.410519],[-3.671546,57.410372],[-3.67151,57.410211],[-3.671315,57.410035],[-3.670962,57.409844],[-3.670452,57.40964],[-3.670036,57.4095],[-3.669717,57.409425],[-3.669492,57.409415],[-3.669363,57.40947],[-3.6693,57.409539],[-3.669302,57.409623],[-3.669369,57.409721],[-3.669501,57.409834],[-3.669697,57.409965],[-3.669956,57.410113],[-3.670278,57.410279],[-3.670664,57.410463]]]}}