{"type":"Feature","properties":{"id":"267275","COMMUNE":"Inverness and Nairn","PROVINCE":"Inverness & Nairn and Moray, Badenoch & Strathspey","COUNTRY":"UK","FIREDATE":"2025-03-20 11:51:00","FINALDATE":"2025-03-20 13:08:00","CLASS":"FireSeason","areaHA_geo":16.432},"geometry":{"type":"Polygon","coordinates":[[[-4.054354,57.337133],[-4.05442,57.337292],[-4.054548,57.337442],[-4.054738,57.337582],[-4.05499,57.337713],[-4.055267,57.337825],[-4.05557,57.337917],[-4.055899,57.337991],[-4.056253,57.338045],[-4.05657,57.338102],[-4.056851,57.338162],[-4.057094,57.338224],[-4.057301,57.338289],[-4.057487,57.338326],[-4.057652,57.338335],[-4.057796,57.338317],[-4.05792,57.338271],[-4.058015,57.338255],[-4.058081,57.33827],[-4.058119,57.338315],[-4.058127,57.33839],[-4.058196,57.338437],[-4.058324,57.338456],[-4.058513,57.338447],[-4.058761,57.338409],[-4.05897,57.338382],[-4.059141,57.338367],[-4.059273,57.338362],[-4.059366,57.338368],[-4.0595,57.338329],[-4.059675,57.338245],[-4.059891,57.338116],[-4.060147,57.337941],[-4.060351,57.337787],[-4.060502,57.337654],[-4.0606,57.337541],[-4.060645,57.337449],[-4.060705,57.33736],[-4.060777,57.337273],[-4.060864,57.337189],[-4.060964,57.337107],[-4.061054,57.337052],[-4.061134,57.337025],[-4.061205,57.337024],[-4.061265,57.33705],[-4.061342,57.337039],[-4.061434,57.336991],[-4.061543,57.336906],[-4.061668,57.336783],[-4.061787,57.336679],[-4.061901,57.336593],[-4.062009,57.336526],[-4.062111,57.336477],[-4.062216,57.33642],[-4.062323,57.336357],[-4.062432,57.336287],[-4.062544,57.336209],[-4.062672,57.336147],[-4.062815,57.336099],[-4.062974,57.336065],[-4.063148,57.336046],[-4.063284,57.335999],[-4.063381,57.335923],[-4.06344,57.335819],[-4.06346,57.335686],[-4.063496,57.335576],[-4.063548,57.335488],[-4.063617,57.335424],[-4.063702,57.335382],[-4.063739,57.335307],[-4.063728,57.3352],[-4.063669,57.335059],[-4.063562,57.334885],[-4.063476,57.334741],[-4.063412,57.334625],[-4.063369,57.334538],[-4.063347,57.334481],[-4.063309,57.334416],[-4.063256,57.334342],[-4.063187,57.334261],[-4.063102,57.334172],[-4.063001,57.334112],[-4.062883,57.334082],[-4.062749,57.33408],[-4.062598,57.334107],[-4.062396,57.334107],[-4.062143,57.33408],[-4.061839,57.334025],[-4.061485,57.333944],[-4.06116,57.333913],[-4.060865,57.333934],[-4.0606,57.334006],[-4.060365,57.33413],[-4.06017,57.334248],[-4.060016,57.334359],[-4.059902,57.334466],[-4.05983,57.334566],[-4.059751,57.334656],[-4.059665,57.334736],[-4.059573,57.334806],[-4.059475,57.334866],[-4.059297,57.334994],[-4.059039,57.335191],[-4.058701,57.335456],[-4.058283,57.335789],[-4.057971,57.336068],[-4.057764,57.336292],[-4.057662,57.336461],[-4.057665,57.336575],[-4.057612,57.336707],[-4.057503,57.336858],[-4.057338,57.337027],[-4.057117,57.337214],[-4.056884,57.337153],[-4.05664,57.336845],[-4.056384,57.336288],[-4.056116,57.335484],[-4.05584,57.33486],[-4.055554,57.334417],[-4.055259,57.334155],[-4.054955,57.334073],[-4.05471,57.33417],[-4.054523,57.334447],[-4.054394,57.334902],[-4.054323,57.335535],[-4.054278,57.336025],[-4.054259,57.33637],[-4.054265,57.336571],[-4.054297,57.336628],[-4.054322,57.336712],[-4.054339,57.336824],[-4.05435,57.336965],[-4.054354,57.337133]]]}}