{"type":"Feature","properties":{"id":"267280","COMMUNE":"Inverness and Nairn","PROVINCE":"Inverness & Nairn and Moray, Badenoch & Strathspey","COUNTRY":"UK","FIREDATE":"2025-03-20 12:17:00","FINALDATE":"2025-03-20 13:08:00","CLASS":"FireSeason","areaHA_geo":1.4},"geometry":{"type":"Polygon","coordinates":[[[-4.055995,57.340524],[-4.056179,57.340596],[-4.056509,57.340588],[-4.056985,57.340499],[-4.057607,57.340328],[-4.05808,57.340153],[-4.058405,57.339974],[-4.058582,57.33979],[-4.058611,57.339602],[-4.058587,57.339452],[-4.058509,57.33934],[-4.058377,57.339267],[-4.058192,57.339233],[-4.057988,57.339241],[-4.057766,57.339293],[-4.057524,57.339387],[-4.057263,57.339524],[-4.05707,57.33964],[-4.056945,57.339735],[-4.056888,57.339809],[-4.056898,57.339863],[-4.056859,57.339893],[-4.056771,57.339899],[-4.056633,57.339883],[-4.056446,57.339843],[-4.056289,57.339836],[-4.056162,57.33986],[-4.056065,57.339917],[-4.055999,57.340006],[-4.055958,57.340111],[-4.055944,57.340232],[-4.055956,57.34037],[-4.055995,57.340524]]]}}