{"type":"Feature","properties":{"id":"267250","COMMUNE":"Inverness and Nairn","PROVINCE":"Inverness & Nairn and Moray, Badenoch & Strathspey","COUNTRY":"UK","FIREDATE":"2025-04-03 12:06:00","CLASS":"FireSeason","areaHA_geo":11.857},"geometry":{"type":"Polygon","coordinates":[[[-4.016163,57.4291],[-4.01633,57.429587],[-4.016675,57.429945],[-4.017198,57.430174],[-4.017899,57.430273],[-4.018426,57.430328],[-4.018781,57.430339],[-4.018964,57.430306],[-4.018973,57.430228],[-4.018933,57.430148],[-4.018843,57.430067],[-4.018704,57.429984],[-4.018516,57.429899],[-4.018361,57.429818],[-4.01824,57.42974],[-4.018153,57.429666],[-4.0181,57.429595],[-4.018118,57.42954],[-4.018208,57.429503],[-4.018369,57.429482],[-4.018601,57.429478],[-4.018797,57.429464],[-4.018957,57.42944],[-4.01908,57.429405],[-4.019167,57.429361],[-4.019383,57.429432],[-4.019727,57.429619],[-4.0202,57.429921],[-4.020802,57.430339],[-4.021338,57.430636],[-4.021809,57.430813],[-4.022214,57.430869],[-4.022553,57.430805],[-4.022794,57.430741],[-4.022939,57.430676],[-4.022986,57.430612],[-4.022935,57.430547],[-4.02294,57.430493],[-4.023001,57.430448],[-4.023117,57.430412],[-4.023289,57.430387],[-4.023543,57.430218],[-4.023878,57.429906],[-4.024295,57.429451],[-4.024793,57.428852],[-4.025001,57.428394],[-4.024919,57.428078],[-4.024547,57.427903],[-4.023884,57.427869],[-4.02332,57.427899],[-4.022855,57.42799],[-4.022489,57.428145],[-4.022221,57.428362],[-4.02196,57.42857],[-4.021705,57.428769],[-4.021456,57.428958],[-4.021213,57.429138],[-4.021,57.429254],[-4.020818,57.429305],[-4.020667,57.429291],[-4.020546,57.429213],[-4.020387,57.429146],[-4.020191,57.429091],[-4.019956,57.429046],[-4.019683,57.429012],[-4.019403,57.428941],[-4.019114,57.428832],[-4.018818,57.428686],[-4.018513,57.428502],[-4.018355,57.428242],[-4.018344,57.427908],[-4.01848,57.427499],[-4.018762,57.427014],[-4.018859,57.42664],[-4.018772,57.426377],[-4.018499,57.426224],[-4.018041,57.426183],[-4.017669,57.426237],[-4.017382,57.426386],[-4.01718,57.426631],[-4.017064,57.426973],[-4.016933,57.427233],[-4.016787,57.427413],[-4.016627,57.427512],[-4.016452,57.427531],[-4.016319,57.427699],[-4.016226,57.428017],[-4.016174,57.428483],[-4.016163,57.4291]]]}}