{"type":"Feature","properties":{"id":"267390","COMMUNE":"New Forest","PROVINCE":"Central Hampshire","COUNTRY":"UK","FIREDATE":"2025-03-05 12:48:00","CLASS":"FireSeason","areaHA_geo":3.882},"geometry":{"type":"Polygon","coordinates":[[[-1.622127,50.809196],[-1.62225,50.809485],[-1.622457,50.809709],[-1.622748,50.80987],[-1.623162,50.809915],[-1.623696,50.809845],[-1.623893,50.80958],[-1.623752,50.809119],[-1.623511,50.80881],[-1.62317,50.808655],[-1.622714,50.808487],[-1.622141,50.808307],[-1.621757,50.808077],[-1.621561,50.807796],[-1.62123,50.807528],[-1.620764,50.807275],[-1.620309,50.807162],[-1.619864,50.807191],[-1.619451,50.807297],[-1.61907,50.807478],[-1.618972,50.807686],[-1.619157,50.807921],[-1.619405,50.808062],[-1.619719,50.808109],[-1.619969,50.808155],[-1.620156,50.8082],[-1.620703,50.808429],[-1.621611,50.808844],[-1.622127,50.809196]]]}}