{"type":"Feature","properties":{"id":"267345","COMMUNE":"Teignbridge","PROVINCE":"Devon CC","COUNTRY":"UK","FIREDATE":"2025-03-26 00:00:00","FINALDATE":"2025-03-26 00:00:00","CLASS":"FireSeason","areaHA_geo":3.575},"geometry":{"type":"Polygon","coordinates":[[[-3.853193,50.565668],[-3.853482,50.566135],[-3.853655,50.566491],[-3.853711,50.566735],[-3.853759,50.566949],[-3.853797,50.567133],[-3.853846,50.567378],[-3.853905,50.567685],[-3.854156,50.56789],[-3.8546,50.567993],[-3.854988,50.567935],[-3.855319,50.567717],[-3.855583,50.567522],[-3.85578,50.567352],[-3.855884,50.567119],[-3.855895,50.566825],[-3.855775,50.566588],[-3.855523,50.56641],[-3.855268,50.566195],[-3.855011,50.565944],[-3.854684,50.565706],[-3.854287,50.565482],[-3.853911,50.565303],[-3.853556,50.565168],[-3.853297,50.565184],[-3.853132,50.565351],[-3.853193,50.565668]]]}}