{"type":"Feature","properties":{"id":"267362","COMMUNE":"Teignbridge","PROVINCE":"Devon CC","COUNTRY":"UK","FIREDATE":"2025-03-03 00:00:00","CLASS":"FireSeason","areaHA_geo":1.188},"geometry":{"type":"Polygon","coordinates":[[[-3.775869,50.572021],[-3.776097,50.571994],[-3.776282,50.571904],[-3.776424,50.571753],[-3.776619,50.571717],[-3.776868,50.571798],[-3.777033,50.571892],[-3.777115,50.572001],[-3.777272,50.572068],[-3.777505,50.572095],[-3.777749,50.572058],[-3.778005,50.571956],[-3.778069,50.571834],[-3.777939,50.571692],[-3.777825,50.571579],[-3.777725,50.571497],[-3.777669,50.571349],[-3.777656,50.571138],[-3.777568,50.571074],[-3.777406,50.571156],[-3.777198,50.571233],[-3.776945,50.571303],[-3.77667,50.571281],[-3.776374,50.571167],[-3.776155,50.571142],[-3.776012,50.571207],[-3.775895,50.571253],[-3.775803,50.571279],[-3.775757,50.571478],[-3.775755,50.57185],[-3.775869,50.572021]]]}}