{"type":"Feature","properties":{"id":"267363","COMMUNE":"Teignbridge","PROVINCE":"Devon CC","COUNTRY":"UK","FIREDATE":"2025-03-31 00:00:00","FINALDATE":"2025-03-31 00:00:00","CLASS":"FireSeason","areaHA_geo":4.631},"geometry":{"type":"Polygon","coordinates":[[[-3.79023,50.612078],[-3.79039,50.612211],[-3.790616,50.612364],[-3.790908,50.612537],[-3.791173,50.612723],[-3.791413,50.612922],[-3.791551,50.613086],[-3.79159,50.613214],[-3.79184,50.613298],[-3.792302,50.613337],[-3.792765,50.61328],[-3.79323,50.613129],[-3.793479,50.612957],[-3.793511,50.612763],[-3.793488,50.612585],[-3.79341,50.612424],[-3.79336,50.612259],[-3.79334,50.612091],[-3.793399,50.611884],[-3.793536,50.61164],[-3.793637,50.611428],[-3.793704,50.611249],[-3.793656,50.611037],[-3.793492,50.610791],[-3.793113,50.610675],[-3.792517,50.61069],[-3.792095,50.610836],[-3.791848,50.611113],[-3.791331,50.611442],[-3.790544,50.611822],[-3.79023,50.612078]]]}}