{"type":"Feature","properties":{"id":"267375","COMMUNE":"West Somerset","PROVINCE":"Somerset","COUNTRY":"UK","FIREDATE":"2025-03-04 12:14:00","FINALDATE":"2025-03-04 12:14:00","CLASS":"FireSeason","areaHA_geo":4.116},"geometry":{"type":"Polygon","coordinates":[[[-3.224233,51.144155],[-3.22459,51.144114],[-3.224831,51.143925],[-3.224954,51.143588],[-3.225044,51.143262],[-3.2251,51.142947],[-3.225132,51.14272],[-3.225141,51.142581],[-3.225237,51.142447],[-3.225421,51.142318],[-3.225805,51.142158],[-3.22639,51.141968],[-3.22686,51.141852],[-3.227217,51.141811],[-3.227547,51.141719],[-3.22785,51.141576],[-3.228019,51.141395],[-3.228054,51.141176],[-3.228012,51.140988],[-3.227892,51.140833],[-3.22772,51.140706],[-3.227495,51.140609],[-3.227237,51.140608],[-3.226944,51.140703],[-3.226625,51.140832],[-3.226279,51.140995],[-3.225974,51.14113],[-3.22571,51.141238],[-3.225372,51.141346],[-3.224961,51.141454],[-3.22461,51.141603],[-3.22432,51.14179],[-3.224158,51.141909],[-3.224124,51.141959],[-3.224093,51.142532],[-3.224068,51.143628],[-3.224233,51.144155]]]}}