{"type":"Feature","properties":{"id":"267359","COMMUNE":"West Devon","PROVINCE":"Devon CC","COUNTRY":"UK","FIREDATE":"2025-03-12 00:00:00","CLASS":"FireSeason","areaHA_geo":3.911},"geometry":{"type":"Polygon","coordinates":[[[-3.895976,50.577672],[-3.896113,50.577278],[-3.8962,50.576917],[-3.896238,50.576588],[-3.896129,50.57631],[-3.895873,50.576083],[-3.895469,50.575787],[-3.894916,50.575423],[-3.894444,50.574984],[-3.894051,50.574471],[-3.89377,50.574133],[-3.893602,50.57397],[-3.893401,50.573811],[-3.893167,50.573656],[-3.892985,50.573673],[-3.892854,50.573862],[-3.89277,50.574093],[-3.892733,50.574367],[-3.89283,50.574604],[-3.89306,50.574802],[-3.893425,50.575054],[-3.893926,50.57536],[-3.894255,50.575633],[-3.894412,50.575873],[-3.894559,50.576135],[-3.894696,50.576421],[-3.894731,50.576708],[-3.894665,50.576996],[-3.894664,50.57725],[-3.89473,50.577468],[-3.894783,50.577645],[-3.894824,50.577781],[-3.89511,50.577854],[-3.895641,50.577864],[-3.895976,50.577672]]]}}