{"type":"Feature","properties":{"id":"267361","COMMUNE":"Teignbridge","PROVINCE":"Devon CC","COUNTRY":"UK","FIREDATE":"2025-03-03 00:00:00","FINALDATE":"2025-03-03 00:00:00","CLASS":"FireSeason","areaHA_geo":2.488},"geometry":{"type":"Polygon","coordinates":[[[-3.786809,50.572054],[-3.786701,50.572319],[-3.786593,50.572542],[-3.786484,50.57272],[-3.786467,50.572936],[-3.786542,50.573187],[-3.786771,50.573475],[-3.787155,50.573799],[-3.787467,50.574073],[-3.787708,50.574297],[-3.787898,50.574412],[-3.788037,50.574419],[-3.788211,50.574354],[-3.78842,50.574218],[-3.788497,50.573976],[-3.788443,50.573627],[-3.788368,50.573352],[-3.78827,50.573151],[-3.788142,50.57295],[-3.787982,50.572748],[-3.787875,50.572516],[-3.787822,50.572254],[-3.787772,50.572087],[-3.787726,50.572014],[-3.787492,50.571963],[-3.787073,50.571935],[-3.786809,50.572054]]]}}