{"type":"Feature","properties":{"id":"267358","COMMUNE":"West Devon","PROVINCE":"Devon CC","COUNTRY":"UK","FIREDATE":"2025-03-11 00:00:00","FINALDATE":"2025-03-11 00:00:00","CLASS":"FireSeason","areaHA_geo":3.121},"geometry":{"type":"Polygon","coordinates":[[[-3.886117,50.581762],[-3.886623,50.581744],[-3.88711,50.581663],[-3.887578,50.581519],[-3.88797,50.581347],[-3.888285,50.581147],[-3.888526,50.580902],[-3.888695,50.580611],[-3.888747,50.580389],[-3.888684,50.580235],[-3.888517,50.580104],[-3.888246,50.579997],[-3.887941,50.579975],[-3.887602,50.580038],[-3.887221,50.580101],[-3.886796,50.580163],[-3.886432,50.580256],[-3.886128,50.58038],[-3.885923,50.580491],[-3.885817,50.58059],[-3.885727,50.580747],[-3.885655,50.580961],[-3.88568,50.581244],[-3.885803,50.581596],[-3.886117,50.581762]]]}}