{"type":"Feature","properties":{"id":"267399","COMMUNE":"New Forest","PROVINCE":"Central Hampshire","COUNTRY":"UK","FIREDATE":"2025-03-09 00:00:00","FINALDATE":"2025-03-09 00:00:00","CLASS":"FireSeason","areaHA_geo":1.95},"geometry":{"type":"Polygon","coordinates":[[[-1.675392,50.896724],[-1.675912,50.896736],[-1.67629,50.89673],[-1.676525,50.896706],[-1.676708,50.896611],[-1.676838,50.896446],[-1.676985,50.896279],[-1.677149,50.896111],[-1.677346,50.896069],[-1.677574,50.896154],[-1.677768,50.896102],[-1.677926,50.895912],[-1.677719,50.895705],[-1.677145,50.895481],[-1.676682,50.895355],[-1.67633,50.895325],[-1.676022,50.895335],[-1.675758,50.895383],[-1.675503,50.895735],[-1.675255,50.89639],[-1.675392,50.896724]]]}}