{"type":"Feature","properties":{"id":"267387","COMMUNE":"New Forest","PROVINCE":"Central Hampshire","COUNTRY":"UK","FIREDATE":"2025-03-11 11:45:00","CLASS":"FireSeason","areaHA_geo":4.489},"geometry":{"type":"Polygon","coordinates":[[[-1.635944,50.805093],[-1.636477,50.805514],[-1.636854,50.805713],[-1.637074,50.805691],[-1.637457,50.805565],[-1.638001,50.805335],[-1.63848,50.805192],[-1.638892,50.805134],[-1.639181,50.804986],[-1.639347,50.804747],[-1.639248,50.804456],[-1.638886,50.804113],[-1.638308,50.803815],[-1.637516,50.803562],[-1.636898,50.803498],[-1.636452,50.803623],[-1.636137,50.803718],[-1.635953,50.803784],[-1.635766,50.803891],[-1.635577,50.804037],[-1.635531,50.804303],[-1.635629,50.804689],[-1.635944,50.805093]]]}}