{"type":"Feature","properties":{"id":"267384","COMMUNE":"New Forest","PROVINCE":"Central Hampshire","COUNTRY":"UK","FIREDATE":"2025-03-01 14:03:00","CLASS":"FireSeason","areaHA_geo":3.059},"geometry":{"type":"Polygon","coordinates":[[[-1.665814,50.815085],[-1.666054,50.8154],[-1.6662,50.815663],[-1.666252,50.815871],[-1.666302,50.816068],[-1.666349,50.816252],[-1.666495,50.816319],[-1.666742,50.816269],[-1.667017,50.816209],[-1.667319,50.816141],[-1.667597,50.816138],[-1.667853,50.8162],[-1.668101,50.816118],[-1.668343,50.815892],[-1.668469,50.815677],[-1.668478,50.815475],[-1.66854,50.815248],[-1.668656,50.814997],[-1.668605,50.814757],[-1.668387,50.814527],[-1.66807,50.814414],[-1.667652,50.814419],[-1.667006,50.814548],[-1.666131,50.814801],[-1.665814,50.815085]]]}}