{"type":"Feature","properties":{"id":"267378","COMMUNE":"West Somerset","PROVINCE":"Somerset","COUNTRY":"UK","FIREDATE":"2025-03-05 00:00:00","CLASS":"FireSeason","areaHA_geo":2.267},"geometry":{"type":"Polygon","coordinates":[[[-3.21742,51.146955],[-3.217794,51.147312],[-3.21825,51.147568],[-3.218787,51.147722],[-3.219252,51.147799],[-3.219646,51.1478],[-3.220024,51.147788],[-3.220385,51.147762],[-3.220748,51.147697],[-3.221112,51.147593],[-3.221263,51.147437],[-3.221202,51.147229],[-3.220952,51.147088],[-3.220513,51.147016],[-3.219983,51.146969],[-3.219361,51.146948],[-3.218908,51.146869],[-3.218622,51.146732],[-3.218442,51.146622],[-3.218369,51.146538],[-3.218057,51.146566],[-3.217507,51.146707],[-3.21742,51.146955]]]}}