{"type":"Feature","properties":{"id":"267342","COMMUNE":"Teignbridge","PROVINCE":"Devon CC","COUNTRY":"UK","FIREDATE":"2025-03-26 00:00:00","FINALDATE":"2025-03-26 00:00:00","CLASS":"FireSeason","areaHA_geo":2.093},"geometry":{"type":"Polygon","coordinates":[[[-3.826321,50.576778],[-3.826385,50.577062],[-3.826439,50.577314],[-3.826484,50.577534],[-3.826569,50.577749],[-3.826695,50.577959],[-3.826955,50.578059],[-3.82735,50.578051],[-3.827647,50.578028],[-3.827845,50.577991],[-3.827978,50.577876],[-3.828046,50.577682],[-3.828108,50.577436],[-3.828165,50.577137],[-3.828121,50.576884],[-3.827975,50.576677],[-3.827746,50.576506],[-3.827434,50.576371],[-3.827123,50.576277],[-3.826814,50.576222],[-3.826567,50.576305],[-3.826382,50.576526],[-3.826321,50.576778]]]}}