{"type":"Feature","properties":{"id":"267349","COMMUNE":"Teignbridge","PROVINCE":"Devon CC","COUNTRY":"UK","FIREDATE":"2025-03-27 00:00:00","CLASS":"FireSeason","areaHA_geo":1.383},"geometry":{"type":"Polygon","coordinates":[[[-3.85705,50.558322],[-3.857374,50.558659],[-3.857593,50.558919],[-3.857707,50.559102],[-3.857922,50.559297],[-3.858236,50.559503],[-3.858456,50.559618],[-3.858581,50.55964],[-3.858773,50.559612],[-3.859032,50.559533],[-3.859107,50.559388],[-3.858999,50.559175],[-3.858912,50.55896],[-3.858847,50.558742],[-3.858743,50.558595],[-3.858602,50.558518],[-3.858339,50.558409],[-3.857955,50.558268],[-3.857648,50.558136],[-3.857418,50.558014],[-3.8572,50.558003],[-3.856992,50.558103],[-3.85705,50.558322]]]}}