{"type":"Feature","properties":{"id":"267389","COMMUNE":"New Forest","PROVINCE":"Central Hampshire","COUNTRY":"UK","FIREDATE":"2025-03-05 12:48:00","FINALDATE":"2025-03-05 13:14:00","CLASS":"FireSeason","areaHA_geo":1.973},"geometry":{"type":"Polygon","coordinates":[[[-1.617995,50.811532],[-1.618125,50.811852],[-1.618303,50.812159],[-1.618528,50.812453],[-1.618721,50.812623],[-1.618884,50.81267],[-1.61922,50.81266],[-1.619731,50.812592],[-1.620073,50.812407],[-1.620248,50.812104],[-1.620298,50.811806],[-1.620224,50.811512],[-1.620017,50.811335],[-1.619675,50.811275],[-1.61911,50.811277],[-1.618323,50.811341],[-1.617995,50.811532]]]}}