{"type":"Feature","properties":{"id":"267355","COMMUNE":"West Devon","PROVINCE":"Devon CC","COUNTRY":"UK","FIREDATE":"2025-03-26 00:00:00","CLASS":"FireSeason","areaHA_geo":2.163},"geometry":{"type":"Polygon","coordinates":[[[-3.88543,50.559597],[-3.885178,50.559902],[-3.885091,50.560181],[-3.885167,50.560435],[-3.885445,50.560549],[-3.885925,50.560525],[-3.886254,50.56045],[-3.886433,50.560326],[-3.886622,50.560114],[-3.886822,50.559815],[-3.886907,50.559468],[-3.886878,50.559071],[-3.886778,50.558769],[-3.886608,50.558561],[-3.886308,50.558495],[-3.885879,50.55857],[-3.885572,50.558688],[-3.885385,50.558848],[-3.885358,50.559057],[-3.885489,50.559315],[-3.88543,50.559597]]]}}