{"type":"Feature","properties":{"id":"267371","COMMUNE":"West Devon","PROVINCE":"Devon CC","COUNTRY":"UK","FIREDATE":"2025-03-27 00:00:00","FINALDATE":"2025-03-27 00:00:00","CLASS":"FireSeason","areaHA_geo":3.346},"geometry":{"type":"Polygon","coordinates":[[[-3.923724,50.684032],[-3.923825,50.684364],[-3.924129,50.684559],[-3.924637,50.684617],[-3.925157,50.684536],[-3.92569,50.684316],[-3.926028,50.684129],[-3.926172,50.683974],[-3.926215,50.683753],[-3.926156,50.683468],[-3.925982,50.683162],[-3.925692,50.682836],[-3.925209,50.682723],[-3.924531,50.682823],[-3.924125,50.682968],[-3.923991,50.683156],[-3.923756,50.683279],[-3.923419,50.683338],[-3.923108,50.683479],[-3.922821,50.683703],[-3.922719,50.683905],[-3.9228,50.684084],[-3.923049,50.684097],[-3.923466,50.683943],[-3.923724,50.684032]]]}}