{"type":"Feature","properties":{"id":"267373","COMMUNE":"West Somerset","PROVINCE":"Somerset","COUNTRY":"UK","FIREDATE":"2025-03-05 12:48:00","FINALDATE":"2025-03-05 12:48:00","CLASS":"FireSeason","areaHA_geo":2.698},"geometry":{"type":"Polygon","coordinates":[[[-3.208256,51.153357],[-3.20847,51.153841],[-3.208608,51.154187],[-3.208669,51.154395],[-3.208874,51.15468],[-3.209225,51.15504],[-3.209505,51.1552],[-3.209715,51.155161],[-3.209943,51.155096],[-3.210187,51.155006],[-3.210471,51.154966],[-3.210793,51.154975],[-3.211006,51.154858],[-3.211107,51.154616],[-3.211086,51.154372],[-3.210941,51.154127],[-3.210544,51.153949],[-3.209897,51.153839],[-3.209462,51.153612],[-3.209239,51.153268],[-3.209067,51.153056],[-3.208946,51.152978],[-3.208701,51.152983],[-3.208333,51.153071],[-3.208256,51.153357]]]}}