{"type":"Feature","properties":{"id":"267396","COMMUNE":"New Forest","PROVINCE":"Central Hampshire","COUNTRY":"UK","FIREDATE":"2025-03-01 00:00:00","FINALDATE":"2025-03-01 00:00:00","CLASS":"FireSeason","areaHA_geo":2.02},"geometry":{"type":"Polygon","coordinates":[[[-1.479999,50.810326],[-1.480903,50.810022],[-1.481493,50.80982],[-1.481769,50.809721],[-1.481944,50.809514],[-1.482016,50.809198],[-1.482026,50.808935],[-1.481974,50.808726],[-1.481752,50.808666],[-1.481359,50.808752],[-1.480876,50.808931],[-1.480304,50.809203],[-1.479832,50.809428],[-1.479463,50.809608],[-1.479345,50.809893],[-1.47948,50.810283],[-1.479999,50.810326]]]}}