{"type":"Feature","properties":{"id":"267369","COMMUNE":"West Devon","PROVINCE":"Devon CC","COUNTRY":"UK","FIREDATE":"2025-03-26 00:00:00","CLASS":"FireSeason","areaHA_geo":4.104},"geometry":{"type":"Polygon","coordinates":[[[-4.088205,50.620126],[-4.088322,50.61966],[-4.0885,50.619125],[-4.088737,50.618521],[-4.08901,50.618088],[-4.089319,50.617824],[-4.089493,50.617546],[-4.089534,50.617253],[-4.089273,50.617142],[-4.08871,50.617212],[-4.088254,50.617309],[-4.087903,50.617435],[-4.08765,50.617456],[-4.087494,50.617373],[-4.08733,50.617311],[-4.087155,50.617271],[-4.086943,50.617318],[-4.086691,50.617451],[-4.086606,50.617595],[-4.086685,50.61775],[-4.086698,50.618004],[-4.086644,50.61836],[-4.086613,50.61863],[-4.086605,50.618816],[-4.086987,50.619271],[-4.08776,50.619996],[-4.088205,50.620126]]]}}