{"type":"Feature","properties":{"id":"267350","COMMUNE":"Teignbridge","PROVINCE":"Devon CC","COUNTRY":"UK","FIREDATE":"2025-03-27 00:00:00","CLASS":"FireSeason","areaHA_geo":2.031},"geometry":{"type":"Polygon","coordinates":[[[-3.847551,50.561684],[-3.847837,50.561847],[-3.848089,50.562018],[-3.848306,50.562199],[-3.848544,50.562447],[-3.848802,50.562764],[-3.849055,50.562888],[-3.849302,50.562821],[-3.849517,50.562621],[-3.849699,50.562288],[-3.849808,50.561983],[-3.849844,50.561706],[-3.849719,50.561463],[-3.849434,50.561253],[-3.849075,50.561146],[-3.848643,50.561142],[-3.84835,50.561131],[-3.848196,50.561112],[-3.847941,50.561228],[-3.847586,50.561478],[-3.847551,50.561684]]]}}