{"type":"Feature","properties":{"id":"267366","COMMUNE":"West Devon","PROVINCE":"Devon CC","COUNTRY":"UK","FIREDATE":"2025-03-26 00:00:00","FINALDATE":"2025-03-26 00:00:00","CLASS":"FireSeason","areaHA_geo":5.364},"geometry":{"type":"Polygon","coordinates":[[[-4.121855,50.616191],[-4.12232,50.615908],[-4.122693,50.615697],[-4.122976,50.61556],[-4.123243,50.615373],[-4.123495,50.615136],[-4.123604,50.614856],[-4.123569,50.614532],[-4.123501,50.614202],[-4.123398,50.613866],[-4.123232,50.613641],[-4.123002,50.613526],[-4.122549,50.613582],[-4.121872,50.613809],[-4.121418,50.613968],[-4.121186,50.614059],[-4.120879,50.614168],[-4.120497,50.614298],[-4.120252,50.614503],[-4.120143,50.614783],[-4.120139,50.615142],[-4.120241,50.615581],[-4.120319,50.615889],[-4.120374,50.616067],[-4.120706,50.6162],[-4.121317,50.616289],[-4.121855,50.616191]]]}}