{"type":"Feature","properties":{"id":"267319","COMMUNE":"Aberdeenshire","PROVINCE":"Aberdeen City and Aberdeenshire","COUNTRY":"UK","FIREDATE":"2025-03-19 11:47:00","FINALDATE":"2025-03-19 13:53:00","CLASS":"FireSeason","areaHA_geo":1.403},"geometry":{"type":"Polygon","coordinates":[[[-3.234633,57.143534],[-3.234678,57.143702],[-3.234776,57.143778],[-3.234928,57.143761],[-3.235133,57.143652],[-3.2353,57.143477],[-3.235429,57.143238],[-3.235519,57.142933],[-3.23557,57.142563],[-3.235562,57.142278],[-3.235496,57.142078],[-3.23537,57.141962],[-3.235186,57.141931],[-3.234967,57.141938],[-3.234713,57.141983],[-3.234425,57.142066],[-3.234101,57.142188],[-3.233822,57.142311],[-3.233587,57.142438],[-3.233396,57.142566],[-3.233249,57.142697],[-3.233214,57.142777],[-3.23329,57.142805],[-3.233478,57.142782],[-3.233777,57.142707],[-3.234029,57.142669],[-3.234232,57.142668],[-3.234387,57.142703],[-3.234494,57.142775],[-3.234573,57.142894],[-3.234622,57.14306],[-3.234642,57.143274],[-3.234633,57.143534]]]}}