{"type":"Feature","properties":{"id":"267323","COMMUNE":"Aberdeenshire","PROVINCE":"Aberdeen City and Aberdeenshire","COUNTRY":"UK","FIREDATE":"2025-03-19 13:53:00","CLASS":"FireSeason","areaHA_geo":3.51},"geometry":{"type":"Polygon","coordinates":[[[-3.228351,57.139861],[-3.228585,57.140003],[-3.228896,57.140104],[-3.229284,57.140164],[-3.229749,57.140183],[-3.230292,57.140161],[-3.23081,57.140107],[-3.231303,57.140021],[-3.231773,57.139903],[-3.232218,57.139752],[-3.232556,57.13962],[-3.232785,57.139506],[-3.232906,57.139409],[-3.232918,57.13933],[-3.232954,57.13926],[-3.233014,57.139199],[-3.233097,57.139146],[-3.233204,57.139102],[-3.233246,57.13905],[-3.233224,57.138988],[-3.233138,57.138918],[-3.232988,57.13884],[-3.232906,57.138767],[-3.232892,57.138699],[-3.232946,57.138637],[-3.233068,57.13858],[-3.23315,57.138508],[-3.23319,57.138422],[-3.233189,57.138319],[-3.233147,57.138202],[-3.233085,57.138086],[-3.233003,57.13797],[-3.232901,57.137854],[-3.232778,57.13774],[-3.23261,57.137631],[-3.232395,57.137529],[-3.232134,57.137432],[-3.231827,57.137342],[-3.231587,57.137284],[-3.231414,57.137257],[-3.231309,57.137262],[-3.231272,57.137299],[-3.231276,57.137347],[-3.231322,57.137406],[-3.231411,57.137476],[-3.231542,57.137556],[-3.231642,57.137667],[-3.231713,57.137809],[-3.231755,57.137982],[-3.231766,57.138185],[-3.23177,57.13836],[-3.231766,57.138507],[-3.231755,57.138626],[-3.231736,57.138716],[-3.231744,57.138786],[-3.231776,57.138835],[-3.231835,57.138863],[-3.231919,57.138871],[-3.231979,57.13889],[-3.232015,57.13892],[-3.232027,57.13896],[-3.232015,57.139011],[-3.231962,57.139063],[-3.231869,57.139117],[-3.231736,57.139172],[-3.231563,57.139228],[-3.231364,57.139263],[-3.23114,57.139278],[-3.230891,57.139272],[-3.230616,57.139244],[-3.230365,57.139246],[-3.230137,57.139278],[-3.229932,57.139339],[-3.22975,57.139429],[-3.229522,57.139502],[-3.229246,57.139558],[-3.228924,57.139596],[-3.228554,57.139617],[-3.228336,57.139668],[-3.228268,57.13975],[-3.228351,57.139861]]]}}