{"type":"Feature","properties":{"id":"267385","COMMUNE":"New Forest","PROVINCE":"Central Hampshire","COUNTRY":"UK","FIREDATE":"2025-02-13 14:03:00","FINALDATE":"2025-02-14 14:03:00","CLASS":"FireSeason","areaHA_geo":1.867},"geometry":{"type":"Polygon","coordinates":[[[-1.662805,50.818458],[-1.663335,50.81858],[-1.663845,50.818704],[-1.664336,50.818831],[-1.664685,50.818909],[-1.664892,50.818938],[-1.665153,50.818905],[-1.665469,50.81881],[-1.665679,50.818694],[-1.665784,50.818558],[-1.66566,50.818381],[-1.665306,50.818165],[-1.664818,50.818014],[-1.664197,50.817926],[-1.663642,50.817862],[-1.663153,50.817824],[-1.662794,50.817823],[-1.662563,50.817859],[-1.662471,50.818007],[-1.662517,50.818267],[-1.662805,50.818458]]]}}