{"type":"Feature","properties":{"id":"267344","COMMUNE":"Teignbridge","PROVINCE":"Devon CC","COUNTRY":"UK","FIREDATE":"2025-03-26 00:00:00","FINALDATE":"2025-03-26 00:00:00","CLASS":"FireSeason","areaHA_geo":8.038},"geometry":{"type":"Polygon","coordinates":[[[-3.856525,50.563409],[-3.85648,50.563813],[-3.856475,50.564127],[-3.85651,50.564353],[-3.856798,50.564486],[-3.857338,50.564524],[-3.857803,50.564614],[-3.858192,50.564755],[-3.858512,50.564748],[-3.858763,50.564592],[-3.858879,50.564426],[-3.858859,50.56425],[-3.859086,50.564071],[-3.85956,50.563887],[-3.86018,50.563529],[-3.860946,50.562996],[-3.861265,50.562654],[-3.861137,50.562502],[-3.860892,50.562291],[-3.86053,50.562021],[-3.860311,50.56176],[-3.860236,50.561508],[-3.859917,50.561327],[-3.859355,50.561217],[-3.858969,50.561196],[-3.858758,50.561264],[-3.858488,50.561438],[-3.858159,50.561719],[-3.857633,50.562196],[-3.856909,50.562871],[-3.856525,50.563409]]]}}