{"type":"Feature","properties":{"id":"267386","COMMUNE":"New Forest","PROVINCE":"Central Hampshire","COUNTRY":"UK","FIREDATE":"2025-03-01 00:00:00","CLASS":"FireSeason","areaHA_geo":3.092},"geometry":{"type":"Polygon","coordinates":[[[-1.676858,50.809351],[-1.676732,50.809722],[-1.677129,50.810186],[-1.677432,50.810476],[-1.677641,50.810593],[-1.677832,50.810756],[-1.678005,50.810966],[-1.678225,50.811088],[-1.678494,50.811124],[-1.678684,50.811048],[-1.678796,50.81086],[-1.67902,50.81068],[-1.679356,50.810507],[-1.679612,50.810336],[-1.679788,50.810167],[-1.679852,50.810022],[-1.679801,50.809901],[-1.679601,50.809783],[-1.679253,50.809667],[-1.678845,50.809438],[-1.678379,50.809095],[-1.678067,50.808925],[-1.677908,50.808929],[-1.677505,50.809071],[-1.676858,50.809351]]]}}