{"type":"Feature","properties":{"id":"267398","COMMUNE":"New Forest","PROVINCE":"Central Hampshire","COUNTRY":"UK","FIREDATE":"2025-03-09 00:00:00","CLASS":"FireSeason","areaHA_geo":4.167},"geometry":{"type":"Polygon","coordinates":[[[-1.659604,50.90101],[-1.659786,50.901729],[-1.659868,50.902188],[-1.659849,50.902385],[-1.660129,50.902672],[-1.660707,50.903047],[-1.661115,50.903299],[-1.661354,50.903426],[-1.661704,50.903445],[-1.662164,50.903355],[-1.662357,50.903097],[-1.662283,50.90267],[-1.662069,50.902236],[-1.661716,50.901794],[-1.661482,50.901416],[-1.661368,50.901102],[-1.661159,50.900754],[-1.660856,50.900372],[-1.660406,50.900298],[-1.659811,50.900533],[-1.659604,50.90101]]]}}