{"type":"Feature","properties":{"id":"267360","COMMUNE":"Teignbridge","PROVINCE":"Devon CC","COUNTRY":"UK","FIREDATE":"2025-03-12 00:00:00","CLASS":"FireSeason","areaHA_geo":8.267},"geometry":{"type":"Polygon","coordinates":[[[-3.879794,50.589217],[-3.879642,50.589034],[-3.87932,50.588895],[-3.878861,50.588826],[-3.878264,50.588825],[-3.877662,50.588972],[-3.877054,50.589266],[-3.876552,50.589553],[-3.876156,50.589832],[-3.875849,50.590137],[-3.875634,50.590468],[-3.875713,50.590704],[-3.876087,50.590847],[-3.876441,50.590977],[-3.876775,50.591094],[-3.876981,50.591394],[-3.877059,50.591877],[-3.877387,50.592194],[-3.877962,50.592344],[-3.87851,50.592403],[-3.87903,50.592371],[-3.879443,50.59231],[-3.879748,50.592221],[-3.880032,50.592008],[-3.880295,50.591671],[-3.880326,50.591416],[-3.880125,50.591241],[-3.879772,50.591143],[-3.879268,50.59112],[-3.878876,50.591084],[-3.878596,50.591034],[-3.87864,50.590851],[-3.879009,50.590533],[-3.879377,50.590289],[-3.879744,50.590117],[-3.879887,50.589914],[-3.879806,50.589678],[-3.879775,50.589446],[-3.879794,50.589217]]]}}