{"type":"Feature","properties":{"id":"267353","COMMUNE":"West Devon","PROVINCE":"Devon CC","COUNTRY":"UK","FIREDATE":"2025-03-25 00:00:00","CLASS":"FireSeason","areaHA_geo":8.11},"geometry":{"type":"Polygon","coordinates":[[[-3.887097,50.562748],[-3.887854,50.563284],[-3.888411,50.563759],[-3.88877,50.564172],[-3.889201,50.564645],[-3.889704,50.565178],[-3.890028,50.565476],[-3.890173,50.565538],[-3.890515,50.565416],[-3.891055,50.56511],[-3.891529,50.564766],[-3.891938,50.564385],[-3.892197,50.564136],[-3.892307,50.56402],[-3.892318,50.563819],[-3.892232,50.563532],[-3.892109,50.563301],[-3.891948,50.563127],[-3.891778,50.56301],[-3.891598,50.562952],[-3.891436,50.562955],[-3.891293,50.563018],[-3.891252,50.563183],[-3.891314,50.56345],[-3.891366,50.563712],[-3.891407,50.56397],[-3.891244,50.564178],[-3.890877,50.564337],[-3.89056,50.564302],[-3.890292,50.564072],[-3.890084,50.563771],[-3.889937,50.563401],[-3.889741,50.563168],[-3.889495,50.563072],[-3.889394,50.562884],[-3.889436,50.562605],[-3.889421,50.562344],[-3.889348,50.562101],[-3.889141,50.561829],[-3.888798,50.561528],[-3.8883,50.561315],[-3.887649,50.561189],[-3.887127,50.561132],[-3.886734,50.561146],[-3.886414,50.561282],[-3.886167,50.561541],[-3.886212,50.561873],[-3.88655,50.562277],[-3.887097,50.562748]]]}}