{"type":"Feature","properties":{"id":"267357","COMMUNE":"West Devon","PROVINCE":"Devon CC","COUNTRY":"UK","FIREDATE":"2025-02-12 00:00:00","CLASS":"FireSeason","areaHA_geo":2.711},"geometry":{"type":"Polygon","coordinates":[[[-3.887366,50.568166],[-3.887514,50.568595],[-3.888166,50.569188],[-3.888556,50.569548],[-3.888681,50.569675],[-3.888822,50.569832],[-3.888978,50.570018],[-3.889117,50.570211],[-3.889239,50.57041],[-3.889477,50.570515],[-3.889831,50.570528],[-3.890082,50.570513],[-3.890232,50.570471],[-3.890301,50.570347],[-3.89029,50.570143],[-3.890149,50.569923],[-3.889878,50.569687],[-3.889571,50.569289],[-3.889228,50.56873],[-3.888899,50.568299],[-3.888584,50.567997],[-3.888295,50.567827],[-3.888033,50.567788],[-3.887724,50.567901],[-3.887366,50.568166]]]}}