{"type":"Feature","properties":{"id":"267341","COMMUNE":"Teignbridge","PROVINCE":"Devon CC","COUNTRY":"UK","FIREDATE":"2025-03-26 12:55:00","FINALDATE":"2025-03-26 13:18:00","CLASS":"FireSeason","areaHA_geo":6.749},"geometry":{"type":"Polygon","coordinates":[[[-3.826157,50.570875],[-3.826871,50.571027],[-3.826809,50.570877],[-3.826898,50.570685],[-3.827169,50.570522],[-3.827442,50.570384],[-3.827717,50.570273],[-3.827746,50.570264],[-3.827724,50.570235],[-3.826726,50.570117],[-3.826372,50.570054],[-3.825884,50.569822],[-3.825178,50.57012],[-3.824195,50.57061],[-3.823245,50.570514],[-3.822332,50.570678],[-3.822479,50.571031],[-3.822786,50.571497],[-3.822531,50.572323],[-3.822495,50.573043],[-3.823162,50.573174],[-3.824154,50.573133],[-3.825029,50.572841],[-3.824557,50.572103],[-3.82512,50.571744],[-3.825581,50.571608],[-3.825807,50.571104],[-3.826157,50.570875]]]}}