{"type":"Feature","properties":{"id":"267322","COMMUNE":"Aberdeenshire","PROVINCE":"Aberdeen City and Aberdeenshire","COUNTRY":"UK","FIREDATE":"2025-03-19 11:47:00","FINALDATE":"2025-03-19 13:53:00","CLASS":"FireSeason","areaHA_geo":1.459},"geometry":{"type":"Polygon","coordinates":[[[-3.234046,57.145983],[-3.234169,57.146044],[-3.234349,57.146062],[-3.234584,57.146036],[-3.234876,57.145968],[-3.235103,57.145899],[-3.235267,57.14583],[-3.235367,57.14576],[-3.235403,57.145691],[-3.235407,57.145631],[-3.235379,57.145581],[-3.235319,57.145542],[-3.235227,57.145512],[-3.23517,57.145481],[-3.235148,57.145447],[-3.235161,57.145411],[-3.235208,57.145373],[-3.235244,57.145303],[-3.235269,57.145201],[-3.235282,57.145067],[-3.235284,57.144902],[-3.23523,57.144772],[-3.23512,57.144678],[-3.234955,57.14462],[-3.234733,57.144599],[-3.234506,57.144604],[-3.234273,57.144636],[-3.234034,57.144695],[-3.233789,57.14478],[-3.233615,57.14487],[-3.233511,57.144963],[-3.233477,57.145061],[-3.233513,57.145162],[-3.233498,57.145248],[-3.233431,57.145318],[-3.233313,57.145373],[-3.233144,57.145412],[-3.233018,57.145453],[-3.232936,57.145494],[-3.232898,57.145537],[-3.232903,57.14558],[-3.232934,57.145624],[-3.232991,57.145668],[-3.233073,57.145712],[-3.23318,57.145757],[-3.233279,57.14577],[-3.23337,57.145752],[-3.233452,57.145704],[-3.233525,57.145625],[-3.233628,57.145556],[-3.233761,57.145499],[-3.233922,57.145452],[-3.234113,57.145416],[-3.234263,57.145402],[-3.234373,57.14541],[-3.234443,57.14544],[-3.234471,57.145493],[-3.234453,57.145541],[-3.234388,57.145587],[-3.234276,57.145628],[-3.234116,57.145667],[-3.234013,57.145721],[-3.233967,57.145792],[-3.233978,57.14588],[-3.234046,57.145983]]]}}