{"type":"Feature","properties":{"id":"267372","COMMUNE":"West Devon","PROVINCE":"Devon CC","COUNTRY":"UK","FIREDATE":"2025-03-27 00:00:00","FINALDATE":"2025-03-27 00:00:00","CLASS":"FireSeason","areaHA_geo":2.231},"geometry":{"type":"Polygon","coordinates":[[[-3.917662,50.690115],[-3.918002,50.690159],[-3.918394,50.690103],[-3.918836,50.689946],[-3.919156,50.689786],[-3.919352,50.689625],[-3.919497,50.689426],[-3.919589,50.689191],[-3.919639,50.688996],[-3.919647,50.68884],[-3.919462,50.688725],[-3.919085,50.688651],[-3.918647,50.688687],[-3.918146,50.688834],[-3.917695,50.68901],[-3.917294,50.689214],[-3.917005,50.689429],[-3.916829,50.689657],[-3.916928,50.689852],[-3.917304,50.690012],[-3.917662,50.690115]]]}}