{"type":"Feature","properties":{"id":"267320","COMMUNE":"Aberdeenshire","PROVINCE":"Aberdeen City and Aberdeenshire","COUNTRY":"UK","FIREDATE":"2025-03-19 11:47:00","FINALDATE":"2025-03-19 13:53:00","CLASS":"FireSeason","areaHA_geo":1.798},"geometry":{"type":"Polygon","coordinates":[[[-3.237116,57.146864],[-3.237132,57.147015],[-3.237212,57.147111],[-3.237357,57.147155],[-3.237568,57.147144],[-3.237784,57.147103],[-3.238008,57.14703],[-3.238239,57.146927],[-3.238476,57.146792],[-3.23865,57.146708],[-3.23876,57.146675],[-3.238807,57.146692],[-3.23879,57.14676],[-3.238812,57.146807],[-3.238873,57.146834],[-3.238972,57.146841],[-3.23911,57.146827],[-3.23922,57.146828],[-3.239302,57.146845],[-3.239357,57.146876],[-3.239384,57.146923],[-3.239409,57.146973],[-3.239433,57.147026],[-3.239455,57.147082],[-3.239476,57.14714],[-3.239514,57.147153],[-3.239568,57.14712],[-3.23964,57.147041],[-3.239727,57.146916],[-3.239727,57.146793],[-3.239638,57.146672],[-3.23946,57.146554],[-3.239195,57.146437],[-3.238947,57.146363],[-3.238716,57.146331],[-3.238503,57.146342],[-3.238308,57.146395],[-3.238158,57.146422],[-3.238052,57.146425],[-3.23799,57.146402],[-3.237973,57.146354],[-3.237997,57.146292],[-3.238062,57.146217],[-3.238167,57.146127],[-3.238314,57.146024],[-3.238382,57.145924],[-3.238374,57.145829],[-3.238287,57.145737],[-3.238123,57.145648],[-3.238043,57.145543],[-3.238045,57.145422],[-3.23813,57.145283],[-3.238299,57.145128],[-3.23837,57.145011],[-3.238342,57.144934],[-3.238216,57.144896],[-3.237992,57.144897],[-3.237798,57.144922],[-3.237632,57.144972],[-3.237496,57.145047],[-3.237389,57.145146],[-3.23733,57.145232],[-3.237321,57.145305],[-3.23736,57.145364],[-3.237448,57.145411],[-3.237489,57.145455],[-3.237483,57.145497],[-3.237431,57.145536],[-3.237333,57.145574],[-3.237262,57.145648],[-3.23722,57.145757],[-3.237205,57.145902],[-3.237219,57.146083],[-3.237217,57.14627],[-3.237199,57.146462],[-3.237165,57.14666],[-3.237116,57.146864]]]}}