{"type":"Feature","properties":{"id":"267328","COMMUNE":"Aberdeenshire","PROVINCE":"Aberdeen City and Aberdeenshire","COUNTRY":"UK","FIREDATE":"2025-03-18 12:55:00","CLASS":"FireSeason","areaHA_geo":3.034},"geometry":{"type":"Polygon","coordinates":[[[-3.289989,57.135095],[-3.289982,57.134996],[-3.289954,57.134886],[-3.289906,57.134767],[-3.289838,57.134638],[-3.289749,57.134498],[-3.289661,57.134393],[-3.289575,57.134321],[-3.28949,57.134282],[-3.289406,57.134277],[-3.28934,57.134255],[-3.28929,57.134216],[-3.289258,57.134159],[-3.289242,57.134086],[-3.289203,57.134022],[-3.289141,57.133968],[-3.289056,57.133923],[-3.288947,57.133888],[-3.28884,57.133861],[-3.288734,57.133842],[-3.288629,57.133831],[-3.288525,57.133828],[-3.288427,57.133805],[-3.288335,57.133763],[-3.28825,57.1337],[-3.28817,57.133618],[-3.288092,57.133552],[-3.288014,57.133503],[-3.287937,57.133471],[-3.28786,57.133456],[-3.2878,57.133426],[-3.287755,57.133381],[-3.287727,57.133322],[-3.287715,57.133248],[-3.287693,57.133197],[-3.287661,57.133168],[-3.28762,57.133162],[-3.287569,57.133179],[-3.287518,57.133205],[-3.287467,57.13324],[-3.287415,57.133284],[-3.287364,57.133338],[-3.287343,57.133386],[-3.287352,57.133428],[-3.287393,57.133465],[-3.287465,57.133496],[-3.28754,57.133543],[-3.28762,57.133606],[-3.287703,57.133686],[-3.28779,57.133781],[-3.287841,57.133857],[-3.287855,57.133916],[-3.287832,57.133956],[-3.287772,57.133977],[-3.287727,57.134004],[-3.287696,57.134037],[-3.28768,57.134076],[-3.287678,57.134121],[-3.287676,57.134171],[-3.287675,57.134227],[-3.287674,57.134289],[-3.287673,57.134356],[-3.287642,57.134374],[-3.287579,57.134342],[-3.287484,57.13426],[-3.287359,57.134128],[-3.287235,57.134008],[-3.287113,57.133899],[-3.286992,57.133802],[-3.286872,57.133716],[-3.286717,57.133657],[-3.286526,57.133625],[-3.2863,57.133621],[-3.286039,57.133644],[-3.285833,57.133669],[-3.285685,57.133695],[-3.285593,57.133724],[-3.285558,57.133755],[-3.285511,57.133782],[-3.285452,57.133805],[-3.285381,57.133825],[-3.285298,57.133841],[-3.285243,57.133862],[-3.285217,57.133889],[-3.28522,57.133921],[-3.285251,57.133958],[-3.285311,57.133996],[-3.285399,57.134034],[-3.285516,57.134073],[-3.285661,57.134112],[-3.285819,57.134158],[-3.285988,57.13421],[-3.28617,57.134268],[-3.286364,57.134333],[-3.286467,57.134402],[-3.286479,57.134476],[-3.2864,57.134555],[-3.286231,57.134637],[-3.286111,57.134709],[-3.286041,57.134769],[-3.286019,57.134818],[-3.286047,57.134856],[-3.286118,57.134859],[-3.286233,57.134828],[-3.286392,57.134763],[-3.286594,57.134663],[-3.286787,57.134601],[-3.286972,57.134576],[-3.287148,57.134589],[-3.287315,57.134639],[-3.287459,57.134697],[-3.28758,57.134763],[-3.287679,57.134836],[-3.287754,57.134917],[-3.287852,57.135016],[-3.287974,57.135134],[-3.28812,57.13527],[-3.288289,57.135424],[-3.288421,57.13552],[-3.288516,57.135559],[-3.288575,57.135539],[-3.288597,57.135462],[-3.288668,57.13538],[-3.288788,57.135295],[-3.288958,57.135205],[-3.289176,57.135112],[-3.289348,57.135046],[-3.289474,57.135009],[-3.289552,57.135001],[-3.289584,57.135021],[-3.289612,57.135046],[-3.289635,57.135076],[-3.289654,57.135112],[-3.289669,57.135153],[-3.289699,57.135185],[-3.289745,57.13521],[-3.289807,57.135225],[-3.289884,57.135233],[-3.28994,57.135214],[-3.289975,57.135168],[-3.289989,57.135095]]]}}