{"type":"Feature","properties":{"id":"267321","COMMUNE":"Aberdeenshire","PROVINCE":"Aberdeen City and Aberdeenshire","COUNTRY":"UK","FIREDATE":"2025-03-19 11:47:00","FINALDATE":"2025-03-19 12:34:00","CLASS":"FireSeason","areaHA_geo":0.918},"geometry":{"type":"Polygon","coordinates":[[[-3.235696,57.148735],[-3.235813,57.148744],[-3.235918,57.148681],[-3.23601,57.148546],[-3.236089,57.148339],[-3.236163,57.148161],[-3.236233,57.148013],[-3.236297,57.147895],[-3.236357,57.147806],[-3.236403,57.147685],[-3.236435,57.147533],[-3.236454,57.147349],[-3.236458,57.147133],[-3.23643,57.146982],[-3.236369,57.146897],[-3.236275,57.146878],[-3.236149,57.146924],[-3.236064,57.146978],[-3.23602,57.147041],[-3.236017,57.147111],[-3.236056,57.14719],[-3.23604,57.147273],[-3.235969,57.147361],[-3.235844,57.147452],[-3.235664,57.147548],[-3.235519,57.14765],[-3.23541,57.147757],[-3.235336,57.147871],[-3.235298,57.147991],[-3.235244,57.148118],[-3.235174,57.148252],[-3.23509,57.148394],[-3.23499,57.148542],[-3.234948,57.148639],[-3.234964,57.148684],[-3.235038,57.148678],[-3.235171,57.14862],[-3.235303,57.148597],[-3.235434,57.148609],[-3.235565,57.148655],[-3.235696,57.148735]]]}}