{"type":"Feature","properties":{"id":"267325","COMMUNE":"Aberdeenshire","PROVINCE":"Aberdeen City and Aberdeenshire","COUNTRY":"UK","FIREDATE":"2025-03-19 11:47:00","CLASS":"FireSeason","areaHA_geo":0.408},"geometry":{"type":"Polygon","coordinates":[[[-3.233415,57.147114],[-3.233413,57.146993],[-3.233382,57.146893],[-3.233324,57.146816],[-3.233239,57.146762],[-3.233125,57.146729],[-3.233038,57.146656],[-3.232977,57.146544],[-3.232943,57.146391],[-3.232936,57.146199],[-3.232907,57.146055],[-3.232858,57.145961],[-3.232789,57.145915],[-3.232698,57.145919],[-3.232634,57.145975],[-3.232597,57.146084],[-3.232586,57.146245],[-3.232601,57.146459],[-3.232625,57.146649],[-3.232659,57.146814],[-3.232701,57.146954],[-3.232753,57.147071],[-3.232829,57.147161],[-3.232928,57.147226],[-3.233051,57.147264],[-3.233198,57.147277],[-3.233308,57.147256],[-3.23338,57.147202],[-3.233415,57.147114]]]}}