{"type":"Feature","properties":{"id":"267394","COMMUNE":"New Forest","PROVINCE":"Central Hampshire","COUNTRY":"UK","FIREDATE":"2025-03-11 00:00:00","CLASS":"FireSeason","areaHA_geo":4.626},"geometry":{"type":"Polygon","coordinates":[[[-1.573975,50.799485],[-1.574579,50.799232],[-1.575383,50.799045],[-1.576385,50.798925],[-1.57703,50.798831],[-1.577316,50.798764],[-1.577287,50.798345],[-1.576942,50.797575],[-1.576682,50.797084],[-1.576508,50.796871],[-1.575876,50.797079],[-1.574789,50.797706],[-1.574126,50.798089],[-1.573887,50.798229],[-1.573601,50.79842],[-1.573268,50.798665],[-1.573244,50.798993],[-1.57353,50.799405],[-1.573975,50.799485]]]}}