{"type":"Feature","properties":{"id":"267383","COMMUNE":"New Forest","PROVINCE":"Central Hampshire","COUNTRY":"UK","FIREDATE":"2025-03-01 00:00:00","CLASS":"FireSeason","areaHA_geo":2.108},"geometry":{"type":"Polygon","coordinates":[[[-1.702943,50.79891],[-1.703234,50.79874],[-1.703697,50.79874],[-1.704333,50.798909],[-1.704732,50.79902],[-1.704894,50.799074],[-1.705154,50.799001],[-1.705511,50.7988],[-1.705658,50.798575],[-1.705594,50.798324],[-1.705454,50.798139],[-1.705239,50.798021],[-1.704942,50.797946],[-1.704563,50.797914],[-1.704169,50.797896],[-1.70376,50.797891],[-1.703419,50.797937],[-1.703147,50.798035],[-1.702932,50.798106],[-1.702771,50.798149],[-1.702646,50.798271],[-1.702556,50.798473],[-1.702515,50.798635],[-1.702525,50.798758],[-1.702596,50.798863],[-1.702731,50.798951],[-1.702943,50.79891]]]}}