{"type":"Feature","properties":{"id":"267354","COMMUNE":"West Devon","PROVINCE":"Devon CC","COUNTRY":"UK","FIREDATE":"2025-03-26 00:00:00","FINALDATE":"2025-03-26 00:00:00","CLASS":"FireSeason","areaHA_geo":2.699},"geometry":{"type":"Polygon","coordinates":[[[-3.879134,50.558039],[-3.879282,50.558353],[-3.879929,50.558765],[-3.880341,50.558995],[-3.880517,50.559042],[-3.880698,50.559043],[-3.880883,50.558997],[-3.880985,50.558916],[-3.881004,50.5588],[-3.881041,50.558681],[-3.881094,50.55856],[-3.881359,50.558511],[-3.881835,50.558533],[-3.882246,50.558608],[-3.882591,50.558737],[-3.882817,50.558767],[-3.882922,50.558697],[-3.882952,50.558585],[-3.882905,50.558431],[-3.88284,50.558244],[-3.882757,50.558026],[-3.882582,50.557864],[-3.882316,50.55776],[-3.881921,50.557705],[-3.881396,50.5577],[-3.880765,50.557703],[-3.880028,50.557713],[-3.879485,50.557825],[-3.879134,50.558039]]]}}