{"type":"Feature","properties":{"id":"267365","COMMUNE":"West Devon","PROVINCE":"Devon CC","COUNTRY":"UK","FIREDATE":"2025-03-04 00:00:00","CLASS":"FireSeason","areaHA_geo":1.439},"geometry":{"type":"Polygon","coordinates":[[[-3.854072,50.635697],[-3.854082,50.635832],[-3.854022,50.635991],[-3.853891,50.636172],[-3.85378,50.636342],[-3.853688,50.636499],[-3.853632,50.636618],[-3.85361,50.636699],[-3.853665,50.63678],[-3.853797,50.636862],[-3.853968,50.63689],[-3.854176,50.636864],[-3.854357,50.636876],[-3.854511,50.636926],[-3.854665,50.636927],[-3.85482,50.636879],[-3.854988,50.636819],[-3.855167,50.636749],[-3.855328,50.63667],[-3.855472,50.636585],[-3.855532,50.636475],[-3.855507,50.636341],[-3.855415,50.636187],[-3.855254,50.636011],[-3.8551,50.635884],[-3.854953,50.635804],[-3.854846,50.635705],[-3.854779,50.635586],[-3.854692,50.6355],[-3.854583,50.635445],[-3.854413,50.63547],[-3.854183,50.635576],[-3.854072,50.635697]]]}}