{"type":"Feature","properties":{"id":"267425","COMMUNE":"Bridgend","PROVINCE":"Bridgend and Neath Port Talbot","COUNTRY":"UK","FIREDATE":"2025-03-26 00:00:00","FINALDATE":"2025-03-26 00:00:00","CLASS":"FireSeason","areaHA_geo":0.808},"geometry":{"type":"Polygon","coordinates":[[[-3.565938,51.589631],[-3.565989,51.589798],[-3.566086,51.58994],[-3.566228,51.590056],[-3.566429,51.590119],[-3.56669,51.590128],[-3.566861,51.590022],[-3.566944,51.589799],[-3.566998,51.589587],[-3.567022,51.589385],[-3.566922,51.589197],[-3.566698,51.589024],[-3.566427,51.588943],[-3.566109,51.588954],[-3.56594,51.589106],[-3.565922,51.589401],[-3.565938,51.589631]]]}}