{"type":"Feature","properties":{"id":"267441","COMMUNE":"Northumberland","PROVINCE":"Northumberland","COUNTRY":"UK","FIREDATE":"2025-03-18 14:10:00","FINALDATE":"2025-03-19 12:10:00","CLASS":"FireSeason","areaHA_geo":5.292},"geometry":{"type":"Polygon","coordinates":[[[-1.923806,55.325469],[-1.924817,55.325481],[-1.925439,55.325515],[-1.925674,55.32557],[-1.926146,55.325556],[-1.926856,55.325473],[-1.927243,55.325312],[-1.927307,55.325074],[-1.927285,55.324728],[-1.927176,55.324274],[-1.926869,55.323932],[-1.926364,55.323702],[-1.9258,55.323593],[-1.925178,55.323606],[-1.924339,55.323755],[-1.923282,55.324042],[-1.922719,55.324296],[-1.92265,55.324519],[-1.922574,55.32472],[-1.922492,55.324898],[-1.922663,55.325106],[-1.923088,55.325344],[-1.923806,55.325469]]]}}