{"type":"Feature","properties":{"id":"267493","COMMUNE":"Perth and Kinross","PROVINCE":"Perth & Kinross and Stirling","COUNTRY":"UK","FIREDATE":"2025-04-06 12:49:00","FINALDATE":"2025-04-07 12:49:00","CLASS":"FireSeason","areaHA_geo":0.726},"geometry":{"type":"Polygon","coordinates":[[[-3.432564,56.833981],[-3.432998,56.833764],[-3.4333,56.833565],[-3.433468,56.833385],[-3.433503,56.833224],[-3.433406,56.833082],[-3.433294,56.832966],[-3.433169,56.832877],[-3.433031,56.832815],[-3.432878,56.83278],[-3.432748,56.832806],[-3.43264,56.832894],[-3.432554,56.833043],[-3.432489,56.833253],[-3.432417,56.833425],[-3.432336,56.833557],[-3.432248,56.833651],[-3.432151,56.833706],[-3.432072,56.833779],[-3.432012,56.833871],[-3.43197,56.833982],[-3.431947,56.834112],[-3.432038,56.834155],[-3.432244,56.834111],[-3.432564,56.833981]]]}}