{"type":"Feature","properties":{"id":"267440","COMMUNE":"Northumberland","PROVINCE":"Northumberland","COUNTRY":"UK","FIREDATE":"2025-04-01 12:42:00","CLASS":"FireSeason","areaHA_geo":81.49},"geometry":{"type":"Polygon","coordinates":[[[-2.2222,55.314839],[-2.222319,55.315354],[-2.222165,55.31577],[-2.221739,55.316087],[-2.221544,55.316369],[-2.22158,55.316618],[-2.221954,55.316913],[-2.222664,55.317256],[-2.223343,55.317694],[-2.223991,55.318227],[-2.226293,55.318506],[-2.23025,55.318531],[-2.234385,55.318413],[-2.238697,55.318152],[-2.241438,55.318021],[-2.242607,55.318021],[-2.243625,55.31799],[-2.244492,55.317928],[-2.245358,55.318187],[-2.246223,55.318767],[-2.246919,55.31926],[-2.247448,55.319667],[-2.248079,55.319754],[-2.248813,55.319522],[-2.24957,55.31923],[-2.250348,55.318879],[-2.251319,55.318566],[-2.252484,55.318292],[-2.253456,55.317853],[-2.254237,55.317249],[-2.254514,55.316775],[-2.254286,55.316431],[-2.254007,55.316115],[-2.253676,55.315826],[-2.253321,55.315655],[-2.252942,55.3156],[-2.252214,55.31566],[-2.25114,55.315834],[-2.250336,55.31597],[-2.249802,55.316068],[-2.249316,55.316127],[-2.248879,55.316147],[-2.248529,55.316124],[-2.248267,55.316058],[-2.247587,55.31601],[-2.24649,55.31598],[-2.245775,55.316016],[-2.245444,55.316117],[-2.244729,55.316084],[-2.243629,55.315917],[-2.242823,55.315721],[-2.24231,55.315496],[-2.242192,55.315244],[-2.242469,55.314965],[-2.242654,55.314718],[-2.242749,55.314502],[-2.242332,55.314325],[-2.241402,55.314187],[-2.240564,55.314212],[-2.239816,55.3144],[-2.239202,55.314631],[-2.238723,55.314907],[-2.238206,55.314992],[-2.237649,55.314887],[-2.237347,55.314756],[-2.237299,55.3146],[-2.237259,55.31434],[-2.237227,55.313977],[-2.237011,55.313735],[-2.236611,55.313613],[-2.236007,55.313615],[-2.2352,55.31374],[-2.234395,55.313876],[-2.233594,55.314023],[-2.232984,55.314266],[-2.232565,55.314605],[-2.231997,55.314786],[-2.231279,55.314811],[-2.230479,55.314568],[-2.229596,55.314059],[-2.228681,55.31377],[-2.227733,55.313703],[-2.226659,55.313682],[-2.225458,55.313707],[-2.224178,55.313935],[-2.22282,55.314366],[-2.2222,55.314839]]]}}