{"type":"Feature","properties":{"id":"267480","COMMUNE":"Lochaber","PROVINCE":"Lochaber, Skye & Lochalsh, Arran & Cumbrae and Argyll & Bute","COUNTRY":"UK","FIREDATE":"2025-04-11 11:40:00","CLASS":"FireSeason","areaHA_geo":1080.341},"geometry":{"type":"Polygon","coordinates":[[[-5.803471,56.743283],[-5.802805,56.743624],[-5.802721,56.743935],[-5.803178,56.744505],[-5.803627,56.744777],[-5.804518,56.74502],[-5.805097,56.745095],[-5.80594,56.74508],[-5.806408,56.74512],[-5.806967,56.745257],[-5.807391,56.745321],[-5.808101,56.745375],[-5.808585,56.745374],[-5.809324,56.745317],[-5.809772,56.745267],[-5.810375,56.745176],[-5.810732,56.745104],[-5.811198,56.74498],[-5.811503,56.744892],[-5.811948,56.744753],[-5.812238,56.744656],[-5.812663,56.744504],[-5.8129,56.744402],[-5.813187,56.74425],[-5.813332,56.744148],[-5.813481,56.743996],[-5.813557,56.743887],[-5.813635,56.74371],[-5.813663,56.743584],[-5.81367,56.743382],[-5.813681,56.743232],[-5.813707,56.742984],[-5.813731,56.742802],[-5.813778,56.742506],[-5.813903,56.742305],[-5.814231,56.741997],[-5.814543,56.741788],[-5.815153,56.741468],[-5.815561,56.741287],[-5.816175,56.741064],[-5.816586,56.740948],[-5.817205,56.740821],[-5.81758,56.740733],[-5.818087,56.740595],[-5.818388,56.7405],[-5.818783,56.740351],[-5.819034,56.740233],[-5.819391,56.740031],[-5.819616,56.739877],[-5.819935,56.739621],[-5.820064,56.739443],[-5.82013,56.739168],[-5.820091,56.738978],[-5.819905,56.738683],[-5.819746,56.738477],[-5.819456,56.738153],[-5.819229,56.737928],[-5.818835,56.737576],[-5.818493,56.737334],[-5.817861,56.73696],[-5.817361,56.736705],[-5.816491,56.73631],[-5.816032,56.736066],[-5.815522,56.735728],[-5.815302,56.735521],[-5.815152,56.735239],[-5.815122,56.735073],[-5.815183,56.734856],[-5.815294,56.734734],[-5.815567,56.734583],[-5.815763,56.734506],[-5.81608,56.734425],[-5.816307,56.734395],[-5.816669,56.734383],[-5.816884,56.734376],[-5.81717,56.734366],[-5.817336,56.73436],[-5.817546,56.73435],[-5.817705,56.734281],[-5.817971,56.734081],[-5.818168,56.733884],[-5.818491,56.733493],[-5.818656,56.733258],[-5.818829,56.732944],[-5.818894,56.732761],[-5.818916,56.732524],[-5.818997,56.732391],[-5.819219,56.73223],[-5.819434,56.732148],[-5.819856,56.732063],[-5.820095,56.732061],[-5.820389,56.732142],[-5.820542,56.732251],[-5.820707,56.732498],[-5.820777,56.732662],[-5.82082,56.732907],[-5.820807,56.73307],[-5.820727,56.733314],[-5.820626,56.733461],[-5.820403,56.733655],[-5.820207,56.733769],[-5.819841,56.733914],[-5.819668,56.734024],[-5.819518,56.73421],[-5.819489,56.734347],[-5.819555,56.734573],[-5.819623,56.734735],[-5.819763,56.734993],[-5.819881,56.735176],[-5.820096,56.735467],[-5.820308,56.735619],[-5.82073,56.735785],[-5.821079,56.735853],[-5.821707,56.735893],[-5.822062,56.735902],[-5.8225,56.735889],[-5.822729,56.735864],[-5.822977,56.7358],[-5.823108,56.735714],[-5.823255,56.73552],[-5.82332,56.735348],[-5.823366,56.735025],[-5.823433,56.734797],[-5.823585,56.734435],[-5.823722,56.734181],[-5.82398,56.733782],[-5.824169,56.73353],[-5.824477,56.733175],[-5.824698,56.732952],[-5.825055,56.732641],[-5.825313,56.732408],[-5.82573,56.732023],[-5.826028,56.731741],[-5.826506,56.731281],[-5.826861,56.730953],[-5.827448,56.730429],[-5.827877,56.730059],[-5.828575,56.729471],[-5.828956,56.729145],[-5.829403,56.728756],[-5.829616,56.728562],[-5.82981,56.728371],[-5.829955,56.728172],[-5.830195,56.727767],[-5.830371,56.727425],[-5.830658,56.726804],[-5.830816,56.726431],[-5.831001,56.725932],[-5.831091,56.725639],[-5.831175,56.725261],[-5.831204,56.725004],[-5.831206,56.724611],[-5.831179,56.724344],[-5.831098,56.723937],[-5.831066,56.723681],[-5.831052,56.723324],[-5.831065,56.723102],[-5.831118,56.722795],[-5.831186,56.722605],[-5.831335,56.722345],[-5.831466,56.722186],[-5.831712,56.721972],[-5.831877,56.721835],[-5.832129,56.721636],[-5.8323,56.72151],[-5.832558,56.721327],[-5.832722,56.721257],[-5.832954,56.721228],[-5.8331,56.72126],[-5.833306,56.721385],[-5.8334,56.721524],[-5.833478,56.721815],[-5.833487,56.722065],[-5.833436,56.722522],[-5.833424,56.722819],[-5.83344,56.723252],[-5.833472,56.723532],[-5.833553,56.72394],[-5.833642,56.724221],[-5.833827,56.724658],[-5.833985,56.724959],[-5.834274,56.725424],[-5.834375,56.725699],[-5.834389,56.726057],[-5.834306,56.726259],[-5.834046,56.726508],[-5.833855,56.726671],[-5.833544,56.72691],[-5.83332,56.727066],[-5.832958,56.727295],[-5.832771,56.727418],[-5.832572,56.72756],[-5.832492,56.727625],[-5.832455,56.72768],[-5.832331,56.727882],[-5.832,56.728432],[-5.83168,56.728965],[-5.831055,56.730012],[-5.830747,56.730607],[-5.830449,56.731345],[-5.830359,56.731735],[-5.830389,56.732166],[-5.830436,56.732433],[-5.830547,56.732804],[-5.830649,56.733031],[-5.830841,56.733342],[-5.831008,56.733494],[-5.831314,56.73364],[-5.831556,56.733682],[-5.831976,56.733664],[-5.832223,56.733633],[-5.832543,56.73356],[-5.832723,56.733493],[-5.832944,56.733366],[-5.833046,56.733245],[-5.833129,56.733009],[-5.833139,56.732815],[-5.833085,56.732471],[-5.833081,56.732246],[-5.833124,56.731915],[-5.833185,56.731698],[-5.833325,56.73138],[-5.833444,56.731168],[-5.83366,56.730849],[-5.833829,56.730635],[-5.834121,56.730315],[-5.834292,56.730177],[-5.834512,56.730083],[-5.834634,56.730096],[-5.834782,56.730228],[-5.834847,56.730345],[-5.834894,56.730565],[-5.834892,56.730741],[-5.834839,56.731048],[-5.834822,56.731237],[-5.834825,56.731496],[-5.834845,56.731652],[-5.834904,56.731862],[-5.834949,56.732015],[-5.835024,56.732265],[-5.83508,56.732445],[-5.835172,56.732734],[-5.835232,56.732888],[-5.835321,56.733061],[-5.835378,56.733138],[-5.835463,56.733194],[-5.83556,56.733193],[-5.835764,56.733135],[-5.83594,56.733057],[-5.836264,56.732883],[-5.836419,56.732722],[-5.836563,56.732412],[-5.836598,56.73216],[-5.836562,56.731713],[-5.836622,56.731471],[-5.836841,56.731194],[-5.837071,56.731065],[-5.837545,56.730956],[-5.837822,56.730866],[-5.838182,56.730705],[-5.838383,56.73058],[-5.838628,56.730366],[-5.838823,56.730272],[-5.839161,56.730205],[-5.839418,56.73021],[-5.839849,56.73029],[-5.840104,56.73035],[-5.840437,56.730451],[-5.840626,56.730526],[-5.840861,56.730647],[-5.841082,56.730689],[-5.841512,56.730695],[-5.841864,56.730659],[-5.842489,56.730549],[-5.842879,56.730448],[-5.843424,56.730255],[-5.84376,56.730099],[-5.844224,56.729825],[-5.844544,56.729679],[-5.845041,56.729517],[-5.845383,56.729447],[-5.845912,56.729399],[-5.846293,56.729385],[-5.846907,56.729393],[-5.847345,56.729416],[-5.848045,56.72948],[-5.848549,56.729529],[-5.849363,56.729613],[-5.849945,56.729674],[-5.850874,56.729777],[-5.851394,56.729849],[-5.852023,56.729963],[-5.852342,56.730044],[-5.85267,56.73017],[-5.852911,56.730284],[-5.853303,56.730498],[-5.853585,56.73067],[-5.854041,56.730972],[-5.854347,56.731137],[-5.854811,56.73133],[-5.855123,56.731423],[-5.855596,56.731508],[-5.855857,56.73155],[-5.856169,56.731591],[-5.856324,56.731604],[-5.856476,56.731602],[-5.856613,56.731577],[-5.856872,56.731503],[-5.85708,56.73143],[-5.857446,56.731284],[-5.857647,56.731193],[-5.857882,56.731063],[-5.857995,56.730982],[-5.8581,56.730869],[-5.858203,56.730803],[-5.858406,56.730716],[-5.858574,56.730667],[-5.858876,56.730608],[-5.859007,56.730551],[-5.859097,56.730439],[-5.859086,56.730348],[-5.858965,56.730185],[-5.858894,56.730018],[-5.858801,56.729681],[-5.858749,56.729399],[-5.858685,56.728889],[-5.858644,56.728576],[-5.858585,56.728149],[-5.858547,56.727892],[-5.858493,56.727547],[-5.858435,56.727351],[-5.858316,56.727107],[-5.858215,56.726977],[-5.858031,56.726833],[-5.85789,56.726692],[-5.857649,56.726412],[-5.85747,56.726181],[-5.857172,56.725766],[-5.856957,56.725464],[-5.856611,56.724972],[-5.856364,56.724618],[-5.855969,56.724049],[-5.855661,56.723705],[-5.855129,56.723245],[-5.854729,56.722974],[-5.854061,56.722622],[-5.853671,56.7224],[-5.853171,56.722086],[-5.852894,56.721889],[-5.852563,56.721612],[-5.852404,56.721381],[-5.852258,56.720964],[-5.852219,56.720683],[-5.852249,56.720256],[-5.852616,56.720276],[-5.853689,56.720763],[-5.854298,56.721012],[-5.855053,56.721271],[-5.855472,56.721415],[-5.855975,56.721588],[-5.85629,56.721654],[-5.85673,56.721678],[-5.857037,56.721614],[-5.857518,56.721397],[-5.857655,56.721158],[-5.857586,56.720657],[-5.857224,56.72031],[-5.856206,56.719769],[-5.855724,56.719476],[-5.855294,56.719137],[-5.85508,56.718746],[-5.854868,56.71791],[-5.855003,56.717383],[-5.855619,56.716641],[-5.855784,56.716071],[-5.855661,56.715107],[-5.855366,56.714411],[-5.854604,56.71329],[-5.854062,56.712574],[-5.853195,56.711544],[-5.852732,56.711013],[-5.852207,56.710451],[-5.851648,56.710089],[-5.850494,56.709565],[-5.84996,56.709488],[-5.849511,56.709778],[-5.849087,56.709962],[-5.848265,56.71022],[-5.847756,56.710427],[-5.84705,56.710788],[-5.846631,56.711024],[-5.846081,56.71137],[-5.845765,56.711467],[-5.845366,56.711413],[-5.84508,56.711381],[-5.844619,56.711338],[-5.84433,56.711318],[-5.843926,56.711301],[-5.843643,56.711269],[-5.843197,56.71119],[-5.842887,56.711117],[-5.8424,56.710977],[-5.842058,56.710916],[-5.841521,56.710874],[-5.841147,56.710879],[-5.84056,56.710934],[-5.840155,56.71106],[-5.839527,56.71138],[-5.839095,56.711681],[-5.838426,56.712265],[-5.838038,56.7126],[-5.837545,56.71302],[-5.837274,56.713246],[-5.836955,56.713503],[-5.836706,56.713684],[-5.836278,56.713971],[-5.835956,56.714172],[-5.835419,56.714489],[-5.835094,56.714671],[-5.834656,56.714901],[-5.834398,56.715025],[-5.834062,56.715167],[-5.833887,56.715247],[-5.833699,56.715345],[-5.833624,56.715396],[-5.833586,56.715451],[-5.833539,56.715482],[-5.833433,56.71552],[-5.833339,56.71554],[-5.833165,56.715561],[-5.833026,56.715556],[-5.832781,56.71552],[-5.832594,56.715476],[-5.832279,56.715381],[-5.832081,56.715286],[-5.831802,56.715095],[-5.831627,56.714935],[-5.831384,56.714648],[-5.831144,56.714443],[-5.83067,56.714118],[-5.830278,56.713887],[-5.829574,56.713523],[-5.829131,56.713319],[-5.828507,56.71307],[-5.828117,56.712943],[-5.827572,56.71281],[-5.827335,56.71278],[-5.827167,56.712824],[-5.827098,56.712811],[-5.827057,56.712727],[-5.826707,56.712414],[-5.825701,56.711559],[-5.82492,56.711067],[-5.823584,56.710448],[-5.822875,56.710183],[-5.822084,56.710006],[-5.821204,56.709958],[-5.819356,56.70999],[-5.818148,56.709957],[-5.816373,56.709823],[-5.815392,56.709761],[-5.814225,56.709709],[-5.813383,56.709695],[-5.812027,56.709706],[-5.811438,56.709779],[-5.811024,56.709987],[-5.810888,56.710173],[-5.810894,56.710525],[-5.811861,56.710837],[-5.814757,56.71142],[-5.815997,56.711699],[-5.816819,56.71195],[-5.817231,56.712134],[-5.817645,56.712436],[-5.817843,56.71262],[-5.818021,56.712873],[-5.817865,56.71318],[-5.817216,56.713847],[-5.816426,56.71418],[-5.814704,56.71451],[-5.81351,56.714566],[-5.811651,56.714404],[-5.810917,56.714194],[-5.810576,56.713726],[-5.810335,56.713325],[-5.809952,56.712588],[-5.809512,56.712224],[-5.808574,56.71187],[-5.807941,56.711896],[-5.806978,56.712328],[-5.806606,56.712635],[-5.806455,56.713124],[-5.806289,56.713523],[-5.805945,56.714232],[-5.805615,56.714809],[-5.804972,56.715829],[-5.804414,56.716315],[-5.803383,56.716756],[-5.802823,56.716956],[-5.802174,56.717114],[-5.801535,56.717298],[-5.800268,56.717689],[-5.79946,56.717867],[-5.798303,56.71801],[-5.797758,56.718077],[-5.797282,56.718136],[-5.796271,56.718796],[-5.793717,56.720717],[-5.793001,56.721733],[-5.793405,56.722859],[-5.793458,56.724172],[-5.793431,56.724482],[-5.791536,56.725255],[-5.789955,56.725528],[-5.787691,56.725188],[-5.786369,56.725737],[-5.786018,56.726245],[-5.784478,56.727285],[-5.781988,56.727746],[-5.780365,56.728255],[-5.779053,56.729499],[-5.779363,56.730235],[-5.779271,56.732025],[-5.778083,56.733563],[-5.778682,56.733644],[-5.777484,56.736498],[-5.777712,56.737707],[-5.778364,56.739251],[-5.779295,56.739446],[-5.781838,56.739442],[-5.783947,56.739415],[-5.787711,56.738951],[-5.789892,56.73876],[-5.791195,56.738832],[-5.793211,56.738583],[-5.794193,56.73823],[-5.794968,56.738057],[-5.796074,56.737998],[-5.796395,56.738423],[-5.796602,56.739248],[-5.797317,56.739934],[-5.79895,56.740119],[-5.799831,56.741867],[-5.800711,56.742609],[-5.801766,56.743098],[-5.803471,56.743283]]]}}