{"type":"Feature","properties":{"id":"267415","COMMUNE":"Rhondda Cynon Taf","PROVINCE":"Central Valleys","COUNTRY":"UK","FIREDATE":"2025-03-26 00:00:00","FINALDATE":"2025-03-26 12:18:49.519","CLASS":"FireSeason","areaHA_geo":15.324},"geometry":{"type":"Polygon","coordinates":[[[-3.478194,51.614531],[-3.479473,51.615436],[-3.480316,51.615969],[-3.480725,51.616129],[-3.481055,51.616194],[-3.481304,51.616165],[-3.481601,51.616211],[-3.481946,51.61633],[-3.482402,51.616389],[-3.482969,51.616387],[-3.483264,51.616209],[-3.483286,51.615855],[-3.483532,51.615475],[-3.484003,51.615069],[-3.484292,51.614828],[-3.484397,51.614752],[-3.484299,51.614596],[-3.483996,51.61436],[-3.483773,51.61409],[-3.48363,51.613788],[-3.483495,51.61334],[-3.483369,51.612748],[-3.483277,51.612232],[-3.483222,51.611792],[-3.483021,51.611551],[-3.482674,51.611512],[-3.482287,51.611597],[-3.48186,51.611806],[-3.4816,51.611884],[-3.481507,51.611831],[-3.481166,51.611855],[-3.480577,51.611955],[-3.480091,51.612139],[-3.479708,51.612407],[-3.4795,51.612703],[-3.479469,51.613026],[-3.479423,51.613303],[-3.479364,51.613533],[-3.479179,51.61369],[-3.478869,51.613774],[-3.478527,51.61371],[-3.478154,51.613498],[-3.47782,51.613329],[-3.477524,51.613204],[-3.477421,51.613376],[-3.477511,51.613844],[-3.478194,51.614531]]]}}