{"type":"Feature","properties":{"id":"267464","COMMUNE":"East Ayrshire","PROVINCE":"East Ayrshire and North Ayrshire mainland","COUNTRY":"UK","FIREDATE":"2025-04-08 12:10:00","CLASS":"FireSeason","areaHA_geo":34.062},"geometry":{"type":"Polygon","coordinates":[[[-4.463918,55.327337],[-4.463937,55.327457],[-4.464001,55.327597],[-4.464111,55.327758],[-4.464317,55.327901],[-4.464618,55.328025],[-4.464845,55.328122],[-4.464998,55.328191],[-4.464872,55.328336],[-4.464468,55.328557],[-4.46424,55.328735],[-4.464188,55.328872],[-4.464138,55.328979],[-4.46409,55.329057],[-4.463777,55.329108],[-4.463198,55.329131],[-4.462835,55.329116],[-4.462687,55.32906],[-4.462588,55.328999],[-4.462538,55.328933],[-4.46238,55.32885],[-4.462114,55.32875],[-4.46173,55.328679],[-4.461229,55.328636],[-4.460809,55.328568],[-4.460469,55.328477],[-4.460394,55.328341],[-4.460583,55.32816],[-4.460871,55.328112],[-4.46126,55.328197],[-4.461693,55.328299],[-4.462171,55.328418],[-4.462681,55.328453],[-4.463225,55.328404],[-4.463535,55.32831],[-4.463612,55.328171],[-4.46355,55.327968],[-4.46335,55.327701],[-4.463201,55.327527],[-4.463103,55.327446],[-4.463035,55.32741],[-4.462999,55.327421],[-4.462876,55.327427],[-4.462666,55.32743],[-4.462439,55.327409],[-4.462193,55.327365],[-4.461868,55.32735],[-4.461465,55.327364],[-4.460983,55.327408],[-4.460422,55.32748],[-4.459982,55.327506],[-4.459662,55.327485],[-4.459461,55.327417],[-4.459381,55.327304],[-4.459095,55.327201],[-4.458602,55.32711],[-4.457902,55.32703],[-4.456996,55.326961],[-4.456261,55.32693],[-4.455696,55.326938],[-4.455301,55.326984],[-4.455076,55.327068],[-4.454968,55.327173],[-4.454976,55.327298],[-4.4551,55.327445],[-4.45534,55.327613],[-4.455623,55.327767],[-4.455949,55.327906],[-4.456317,55.328032],[-4.456728,55.328144],[-4.457083,55.32824],[-4.457381,55.328321],[-4.457622,55.328388],[-4.457806,55.328439],[-4.457964,55.328486],[-4.458095,55.328528],[-4.458198,55.328567],[-4.458275,55.328602],[-4.458337,55.328676],[-4.458385,55.32879],[-4.458419,55.328943],[-4.458439,55.329137],[-4.458487,55.32931],[-4.458563,55.329465],[-4.458666,55.329599],[-4.458798,55.329714],[-4.458923,55.329846],[-4.459041,55.329996],[-4.459153,55.330162],[-4.459259,55.330345],[-4.459343,55.330513],[-4.459405,55.330665],[-4.459446,55.330802],[-4.459464,55.330923],[-4.459524,55.331033],[-4.459625,55.331134],[-4.459767,55.331224],[-4.459949,55.331304],[-4.460147,55.331365],[-4.46036,55.331405],[-4.460587,55.331426],[-4.46083,55.331427],[-4.460989,55.331372],[-4.461063,55.331262],[-4.461054,55.331097],[-4.46096,55.330876],[-4.460903,55.330685],[-4.460882,55.330525],[-4.460898,55.330394],[-4.460951,55.330294],[-4.46106,55.330227],[-4.461226,55.330193],[-4.46145,55.330193],[-4.46173,55.330225],[-4.461983,55.33029],[-4.46221,55.330387],[-4.462411,55.330516],[-4.462585,55.330676],[-4.462737,55.330822],[-4.462867,55.330951],[-4.462976,55.331066],[-4.463064,55.331164],[-4.463178,55.33125],[-4.46332,55.331324],[-4.46349,55.331386],[-4.463687,55.331436],[-4.463936,55.331472],[-4.464238,55.331495],[-4.464593,55.331505],[-4.465,55.331501],[-4.465352,55.331469],[-4.465649,55.331409],[-4.465891,55.331321],[-4.466079,55.331205],[-4.466287,55.331078],[-4.466517,55.330939],[-4.466768,55.330789],[-4.467041,55.330627],[-4.467274,55.330516],[-4.46747,55.330457],[-4.467627,55.33045],[-4.467745,55.330494],[-4.467838,55.330572],[-4.467904,55.330684],[-4.467945,55.33083],[-4.46796,55.331009],[-4.467998,55.331158],[-4.468061,55.331278],[-4.468149,55.331367],[-4.46826,55.331427],[-4.468415,55.331458],[-4.468613,55.33146],[-4.468856,55.331434],[-4.469142,55.331379],[-4.469391,55.331299],[-4.469601,55.331195],[-4.469774,55.331066],[-4.469909,55.330913],[-4.470065,55.330788],[-4.47024,55.330692],[-4.470435,55.330624],[-4.47065,55.330584],[-4.470845,55.330542],[-4.47102,55.330496],[-4.471175,55.330447],[-4.471309,55.330396],[-4.471421,55.330319],[-4.471512,55.330218],[-4.47158,55.330093],[-4.471627,55.329942],[-4.471632,55.329764],[-4.471595,55.329558],[-4.471516,55.329325],[-4.471394,55.329064],[-4.471224,55.328774],[-4.471005,55.328455],[-4.470737,55.328108],[-4.47042,55.327732],[-4.470093,55.327415],[-4.469756,55.327157],[-4.469408,55.326959],[-4.469051,55.326819],[-4.468735,55.326714],[-4.46846,55.326645],[-4.468228,55.32661],[-4.468036,55.326611],[-4.46784,55.326641],[-4.467638,55.326701],[-4.467432,55.32679],[-4.46722,55.326908],[-4.466994,55.327005],[-4.466754,55.32708],[-4.466499,55.327133],[-4.466229,55.327165],[-4.465882,55.327192],[-4.465457,55.327216],[-4.464954,55.327237],[-4.464373,55.327253],[-4.464039,55.327265],[-4.463952,55.327273],[-4.463918,55.327337]]]}}