{"type":"Feature","properties":{"id":"267459","COMMUNE":"Dumfries and Galloway","PROVINCE":"Dumfries & Galloway","COUNTRY":"UK","FIREDATE":"2025-04-01 00:00:00","FINALDATE":"2025-04-01 00:00:00","CLASS":"FireSeason","areaHA_geo":41.2},"geometry":{"type":"Polygon","coordinates":[[[-3.912111,55.444402],[-3.912141,55.444373],[-3.912343,55.444277],[-3.912718,55.444112],[-3.913104,55.443978],[-3.913499,55.443872],[-3.913843,55.443671],[-3.914135,55.443373],[-3.914121,55.443027],[-3.913801,55.442633],[-3.913485,55.442301],[-3.913172,55.442029],[-3.913161,55.441744],[-3.913453,55.441446],[-3.913401,55.441094],[-3.913004,55.440689],[-3.912216,55.44045],[-3.911035,55.440377],[-3.910219,55.440365],[-3.909768,55.440416],[-3.909184,55.44045],[-3.908469,55.440468],[-3.907854,55.440363],[-3.90734,55.440134],[-3.906646,55.440058],[-3.905771,55.440135],[-3.905028,55.440279],[-3.904416,55.44049],[-3.903892,55.440793],[-3.903455,55.441189],[-3.903049,55.44152],[-3.902674,55.441787],[-3.902521,55.44212],[-3.90259,55.442521],[-3.902591,55.44293],[-3.902521,55.443346],[-3.902268,55.443701],[-3.90183,55.443995],[-3.901178,55.444241],[-3.900309,55.44444],[-3.899684,55.444662],[-3.899302,55.444909],[-3.899028,55.445103],[-3.898861,55.445244],[-3.898861,55.445755],[-3.899028,55.446635],[-3.899838,55.446985],[-3.901289,55.446803],[-3.902418,55.446677],[-3.903224,55.446608],[-3.903863,55.446272],[-3.904335,55.445668],[-3.904831,55.445183],[-3.905352,55.444819],[-3.905991,55.444585],[-3.906748,55.44448],[-3.907401,55.444438],[-3.90795,55.444459],[-3.908422,55.444519],[-3.908818,55.444618],[-3.909082,55.444803],[-3.909214,55.445074],[-3.90936,55.445283],[-3.90952,55.445428],[-3.909732,55.445517],[-3.909996,55.445549],[-3.910295,55.445527],[-3.910628,55.445452],[-3.910798,55.445372],[-3.910805,55.445287],[-3.910857,55.445075],[-3.910954,55.444738],[-3.91126,55.44453],[-3.911774,55.444452],[-3.912047,55.444414],[-3.912079,55.444415],[-3.912111,55.444402]]]}}