{"type":"Feature","properties":{"id":"267420","COMMUNE":"Bridgend","PROVINCE":"Bridgend and Neath Port Talbot","COUNTRY":"UK","FIREDATE":"2025-03-20 00:00:00","CLASS":"FireSeason","areaHA_geo":3.977},"geometry":{"type":"Polygon","coordinates":[[[-3.528116,51.614707],[-3.528489,51.614664],[-3.528794,51.614604],[-3.529029,51.614529],[-3.529248,51.614232],[-3.529453,51.613713],[-3.529546,51.613295],[-3.529527,51.612978],[-3.52947,51.612705],[-3.529376,51.612477],[-3.529191,51.612251],[-3.528917,51.612027],[-3.52858,51.611891],[-3.528178,51.611842],[-3.527865,51.611959],[-3.527641,51.61224],[-3.527557,51.612473],[-3.527613,51.612659],[-3.527637,51.612823],[-3.527629,51.612968],[-3.527522,51.613212],[-3.527316,51.613555],[-3.527156,51.613877],[-3.52704,51.614178],[-3.527219,51.614429],[-3.527692,51.614629],[-3.528116,51.614707]]]}}