{"type":"Feature","properties":{"id":"267414","COMMUNE":"New Forest","PROVINCE":"Central Hampshire","COUNTRY":"UK","FIREDATE":"2025-03-10 00:00:00","CLASS":"FireSeason","areaHA_geo":5.237},"geometry":{"type":"Polygon","coordinates":[[[-1.673445,50.947969],[-1.674071,50.948253],[-1.674665,50.948415],[-1.675228,50.948454],[-1.675711,50.948357],[-1.676112,50.948123],[-1.676362,50.947837],[-1.67646,50.947498],[-1.676491,50.947195],[-1.676454,50.946928],[-1.676349,50.946639],[-1.676178,50.946328],[-1.676019,50.946064],[-1.675871,50.945847],[-1.675547,50.945657],[-1.675045,50.945496],[-1.674713,50.945462],[-1.674553,50.945555],[-1.674138,50.946158],[-1.673468,50.94727],[-1.673445,50.947969]]]}}