{"type":"Feature","properties":{"id":"267428","COMMUNE":"Blaenau Gwent","PROVINCE":"Gwent Valleys","COUNTRY":"UK","FIREDATE":"2025-04-01 13:55:00","CLASS":"FireSeason","areaHA_geo":11.273},"geometry":{"type":"Polygon","coordinates":[[[-3.262254,51.764561],[-3.262433,51.764541],[-3.262393,51.764509],[-3.262275,51.76441],[-3.262187,51.76433],[-3.262128,51.764267],[-3.262067,51.764182],[-3.262003,51.764076],[-3.261936,51.763947],[-3.261867,51.763796],[-3.261826,51.763657],[-3.261812,51.763529],[-3.261826,51.763414],[-3.261867,51.76331],[-3.261893,51.763209],[-3.261904,51.763111],[-3.2619,51.763016],[-3.261881,51.762924],[-3.261869,51.762842],[-3.261863,51.76277],[-3.261865,51.762709],[-3.261874,51.762659],[-3.261847,51.762606],[-3.261782,51.762552],[-3.261681,51.762495],[-3.261543,51.762436],[-3.261455,51.762358],[-3.261418,51.762261],[-3.261432,51.762144],[-3.261496,51.762007],[-3.261531,51.761897],[-3.261538,51.761812],[-3.261516,51.761752],[-3.261466,51.761718],[-3.261401,51.761629],[-3.261322,51.761484],[-3.261228,51.761284],[-3.26112,51.761028],[-3.261074,51.760792],[-3.261089,51.760574],[-3.26111,51.760521],[-3.260948,51.760461],[-3.258854,51.76123],[-3.25803,51.761643],[-3.257297,51.76178],[-3.255882,51.761941],[-3.255096,51.76219],[-3.255627,51.76282],[-3.256415,51.763155],[-3.258105,51.763918],[-3.258567,51.764025],[-3.259572,51.763645],[-3.260481,51.763807],[-3.261232,51.764306],[-3.262254,51.764561]]]}}