{"type":"Feature","properties":{"id":"267423","COMMUNE":"Bridgend","PROVINCE":"Bridgend and Neath Port Talbot","COUNTRY":"UK","FIREDATE":"2025-03-26 00:00:00","CLASS":"FireSeason","areaHA_geo":11.478},"geometry":{"type":"Polygon","coordinates":[[[-3.559402,51.595638],[-3.559944,51.595654],[-3.560317,51.595684],[-3.560523,51.595726],[-3.560672,51.595935],[-3.560764,51.596309],[-3.5608,51.596604],[-3.560779,51.596819],[-3.560855,51.597036],[-3.561029,51.597255],[-3.561353,51.59737],[-3.561829,51.597381],[-3.562154,51.597216],[-3.56233,51.596877],[-3.562301,51.596389],[-3.562065,51.595752],[-3.561925,51.595184],[-3.561881,51.594684],[-3.561677,51.594402],[-3.561315,51.594338],[-3.561035,51.594264],[-3.560838,51.594181],[-3.560685,51.593993],[-3.560575,51.5937],[-3.560694,51.593421],[-3.561042,51.593154],[-3.561149,51.592869],[-3.561014,51.592566],[-3.560843,51.592247],[-3.560634,51.591913],[-3.560545,51.591584],[-3.560576,51.591262],[-3.56053,51.590968],[-3.560407,51.590704],[-3.560173,51.590532],[-3.559827,51.590453],[-3.559491,51.590512],[-3.559165,51.590709],[-3.558899,51.591],[-3.558693,51.591382],[-3.55846,51.592028],[-3.558198,51.592935],[-3.558333,51.593949],[-3.558866,51.59507],[-3.559402,51.595638]]]}}