{"type":"Feature","properties":{"id":"267450","COMMUNE":"Scottish Borders","PROVINCE":"Scottish Borders","COUNTRY":"UK","FIREDATE":"2025-03-18 16:38:25.834","CLASS":"FireSeason","areaHA_geo":17.463},"geometry":{"type":"Polygon","coordinates":[[[-3.212311,55.576982],[-3.212262,55.576966],[-3.212275,55.576953],[-3.212349,55.576942],[-3.212436,55.576925],[-3.212538,55.576902],[-3.212637,55.576875],[-3.212734,55.576844],[-3.212828,55.576809],[-3.212921,55.57677],[-3.213011,55.576727],[-3.213099,55.57668],[-3.213128,55.576634],[-3.2131,55.576587],[-3.213013,55.576542],[-3.212868,55.576496],[-3.212665,55.576451],[-3.212404,55.576407],[-3.212085,55.576363],[-3.211707,55.576319],[-3.21137,55.576294],[-3.211074,55.576289],[-3.210819,55.576302],[-3.210604,55.576335],[-3.21043,55.576388],[-3.210297,55.576459],[-3.210204,55.57655],[-3.210153,55.57666],[-3.210096,55.57676],[-3.210033,55.57685],[-3.209966,55.57693],[-3.209894,55.577],[-3.209816,55.577061],[-3.209733,55.577111],[-3.209645,55.577152],[-3.209551,55.577183],[-3.209459,55.577202],[-3.209367,55.577209],[-3.209276,55.577205],[-3.209186,55.57719],[-3.209096,55.577163],[-3.209007,55.577124],[-3.208919,55.577074],[-3.208831,55.577012],[-3.208763,55.576945],[-3.208715,55.576874],[-3.208687,55.576798],[-3.208678,55.576718],[-3.208689,55.576632],[-3.20872,55.576542],[-3.208771,55.576448],[-3.208841,55.576348],[-3.208876,55.576267],[-3.208877,55.576203],[-3.208843,55.576157],[-3.208774,55.576129],[-3.208671,55.576118],[-3.208533,55.576125],[-3.20836,55.57615],[-3.208152,55.576193],[-3.207972,55.576239],[-3.20782,55.576287],[-3.207695,55.576338],[-3.207599,55.576392],[-3.20753,55.576449],[-3.207489,55.576509],[-3.207476,55.576571],[-3.207491,55.576637],[-3.2075,55.576706],[-3.207504,55.576778],[-3.207503,55.576855],[-3.207497,55.576935],[-3.207485,55.577019],[-3.207468,55.577106],[-3.207446,55.577197],[-3.207419,55.577292],[-3.207407,55.577371],[-3.20741,55.577435],[-3.207428,55.577482],[-3.207461,55.577514],[-3.207509,55.577531],[-3.207572,55.577531],[-3.20765,55.577516],[-3.207743,55.577486],[-3.207836,55.577463],[-3.207927,55.577448],[-3.208008,55.577441],[-3.208078,55.577442],[-3.208164,55.577492],[-3.208265,55.577592],[-3.208548,55.577856],[-3.209011,55.578282],[-3.209583,55.57873],[-3.210264,55.579199],[-3.210758,55.579459],[-3.211065,55.579508],[-3.211497,55.579455],[-3.212054,55.579298],[-3.212688,55.579198],[-3.2134,55.579156],[-3.214009,55.579199],[-3.214517,55.579326],[-3.214713,55.579477],[-3.214598,55.579653],[-3.214361,55.579768],[-3.214002,55.579822],[-3.213642,55.579918],[-3.213281,55.580054],[-3.213059,55.580298],[-3.212975,55.580651],[-3.213053,55.580971],[-3.213226,55.581175],[-3.213475,55.581187],[-3.214138,55.581209],[-3.214741,55.581221],[-3.214891,55.581221],[-3.215528,55.580948],[-3.216137,55.580729],[-3.216541,55.580637],[-3.216848,55.580514],[-3.217058,55.580361],[-3.217218,55.580148],[-3.217329,55.579874],[-3.217495,55.579676],[-3.217715,55.579555],[-3.217855,55.579409],[-3.217913,55.579239],[-3.217763,55.579009],[-3.217404,55.578719],[-3.216838,55.578418],[-3.216065,55.578106],[-3.215308,55.577841],[-3.214567,55.577624],[-3.213731,55.577384],[-3.212801,55.577122],[-3.212311,55.576982]]]}}