{"type":"Feature","properties":{"id":"267439","COMMUNE":"South Lakeland","PROVINCE":"East Cumbria","COUNTRY":"UK","FIREDATE":"2025-03-06 12:29:00","CLASS":"FireSeason","areaHA_geo":1.958},"geometry":{"type":"Polygon","coordinates":[[[-3.140331,54.241184],[-3.140419,54.241514],[-3.140576,54.241702],[-3.140802,54.241749],[-3.141057,54.241748],[-3.14134,54.241697],[-3.141586,54.24145],[-3.141796,54.241006],[-3.141993,54.240687],[-3.142177,54.240493],[-3.142168,54.240299],[-3.141965,54.240106],[-3.141748,54.240031],[-3.141516,54.240077],[-3.141305,54.240023],[-3.141115,54.239869],[-3.140877,54.239812],[-3.140591,54.239853],[-3.140409,54.239888],[-3.14033,54.239917],[-3.14029,54.240204],[-3.140288,54.240748],[-3.140331,54.241184]]]}}