{"type":"Feature","properties":{"id":"267473","COMMUNE":"North Ayrshire mainland","PROVINCE":"East Ayrshire and North Ayrshire mainland","COUNTRY":"UK","FIREDATE":"2025-04-07 00:00:00","FINALDATE":"2025-04-07 00:00:00","CLASS":"FireSeason","areaHA_geo":6.098},"geometry":{"type":"Polygon","coordinates":[[[-4.832808,55.880905],[-4.833653,55.880439],[-4.834226,55.880062],[-4.834525,55.879775],[-4.834603,55.879444],[-4.83446,55.879071],[-4.834409,55.878779],[-4.834451,55.878568],[-4.834382,55.878335],[-4.834203,55.878081],[-4.833781,55.87789],[-4.833117,55.877762],[-4.832433,55.877796],[-4.831731,55.877994],[-4.831273,55.878243],[-4.83106,55.878543],[-4.830908,55.878893],[-4.830816,55.879294],[-4.831174,55.879905],[-4.831981,55.880728],[-4.832808,55.880905]]]}}