{"type":"Feature","properties":{"id":"267490","COMMUNE":"Badenoch and Strathspey","PROVINCE":"Inverness & Nairn and Moray, Badenoch & Strathspey","COUNTRY":"UK","FIREDATE":"2025-04-03 16:22:55.256","CLASS":"FireSeason","areaHA_geo":9.761},"geometry":{"type":"Polygon","coordinates":[[[-4.32287,56.844687],[-4.323218,56.844825],[-4.323582,56.844959],[-4.323961,56.845089],[-4.324357,56.845215],[-4.324769,56.845338],[-4.325219,56.845403],[-4.325706,56.845411],[-4.32623,56.84536],[-4.326792,56.845251],[-4.327289,56.84512],[-4.327721,56.844964],[-4.328088,56.844785],[-4.328389,56.844583],[-4.328592,56.844427],[-4.328697,56.844315],[-4.328703,56.844249],[-4.328611,56.844229],[-4.32858,56.844175],[-4.32861,56.844087],[-4.3287,56.843966],[-4.328851,56.843811],[-4.328894,56.843611],[-4.328828,56.843366],[-4.328653,56.843074],[-4.328369,56.842738],[-4.328029,56.842437],[-4.327632,56.84217],[-4.327179,56.841939],[-4.326668,56.841743],[-4.326268,56.841615],[-4.325979,56.841555],[-4.3258,56.841563],[-4.325731,56.84164],[-4.325771,56.841745],[-4.32592,56.841878],[-4.326178,56.842039],[-4.326546,56.842228],[-4.326787,56.842372],[-4.326902,56.84247],[-4.32689,56.842523],[-4.326753,56.842531],[-4.326619,56.842521],[-4.326489,56.842493],[-4.326363,56.842447],[-4.326241,56.842384],[-4.326025,56.84237],[-4.325715,56.842404],[-4.325312,56.842488],[-4.324815,56.84262],[-4.324467,56.842756],[-4.324269,56.842897],[-4.324219,56.843042],[-4.324319,56.843192],[-4.324301,56.843321],[-4.324167,56.843427],[-4.323915,56.843513],[-4.323547,56.843577],[-4.323297,56.843649],[-4.323166,56.843728],[-4.323154,56.843816],[-4.323261,56.843911],[-4.323274,56.84401],[-4.323193,56.844111],[-4.323019,56.844214],[-4.322751,56.844321],[-4.322637,56.844435],[-4.322677,56.844557],[-4.32287,56.844687]]]}}