{"type":"Feature","properties":{"id":"267405","COMMUNE":"New Forest","PROVINCE":"Central Hampshire","COUNTRY":"UK","FIREDATE":"2025-03-15 00:00:00","FINALDATE":"2025-03-15 00:00:00","CLASS":"FireSeason","areaHA_geo":2.274},"geometry":{"type":"Polygon","coordinates":[[[-1.705534,50.926933],[-1.705495,50.927097],[-1.706115,50.927321],[-1.706478,50.927427],[-1.706582,50.927417],[-1.70683,50.927391],[-1.707223,50.927351],[-1.707667,50.927517],[-1.708164,50.927888],[-1.708515,50.928055],[-1.70872,50.928017],[-1.708949,50.927918],[-1.709203,50.927757],[-1.709292,50.927579],[-1.709215,50.927384],[-1.709061,50.927198],[-1.708827,50.927019],[-1.708412,50.926808],[-1.707813,50.926565],[-1.707281,50.926527],[-1.706813,50.926693],[-1.706231,50.926828],[-1.705534,50.926933]]]}}