{"type":"Feature","properties":{"id":"267449","COMMUNE":"Scottish Borders","PROVINCE":"Scottish Borders","COUNTRY":"UK","FIREDATE":"2025-03-25 12:21:00","CLASS":"FireSeason","areaHA_geo":9.356},"geometry":{"type":"Polygon","coordinates":[[[-3.170505,55.522036],[-3.170994,55.522339],[-3.171761,55.522645],[-3.172806,55.522953],[-3.173827,55.52308],[-3.174825,55.523027],[-3.175526,55.522943],[-3.17593,55.522828],[-3.176163,55.522918],[-3.176226,55.523214],[-3.176565,55.523346],[-3.177182,55.523312],[-3.177745,55.523258],[-3.178255,55.523184],[-3.17855,55.523043],[-3.178628,55.522837],[-3.178333,55.522643],[-3.177663,55.522463],[-3.177125,55.52229],[-3.176719,55.522124],[-3.176515,55.521932],[-3.176516,55.521713],[-3.176323,55.521524],[-3.175938,55.521366],[-3.175808,55.521197],[-3.175932,55.521017],[-3.176266,55.520967],[-3.176809,55.521045],[-3.177173,55.521002],[-3.177357,55.520836],[-3.177403,55.52067],[-3.17731,55.520502],[-3.176968,55.520366],[-3.176379,55.520261],[-3.175975,55.520267],[-3.175756,55.520384],[-3.175563,55.52055],[-3.175395,55.520766],[-3.175211,55.520905],[-3.175011,55.520968],[-3.174743,55.520996],[-3.174409,55.52099],[-3.173816,55.52101],[-3.172964,55.521058],[-3.172252,55.52119],[-3.171678,55.521407],[-3.171266,55.521471],[-3.171015,55.521382],[-3.170697,55.521343],[-3.170313,55.521352],[-3.170045,55.52138],[-3.169895,55.521427],[-3.16993,55.521559],[-3.17015,55.521776],[-3.170505,55.522036]]]}}