{"type":"Feature","properties":{"id":"267481","COMMUNE":"Inverness and Nairn","PROVINCE":"Inverness & Nairn and Moray, Badenoch & Strathspey","COUNTRY":"UK","FIREDATE":"2025-04-07 12:55:00","FINALDATE":"2025-04-08 12:55:00","CLASS":"FireSeason","areaHA_geo":70.273},"geometry":{"type":"Polygon","coordinates":[[[-4.380562,57.13041],[-4.381708,57.130332],[-4.382591,57.130275],[-4.38321,57.130239],[-4.383613,57.130268],[-4.383801,57.130362],[-4.384122,57.130531],[-4.384579,57.130774],[-4.384922,57.130957],[-4.38515,57.131079],[-4.385306,57.131209],[-4.38539,57.131346],[-4.385136,57.131391],[-4.384544,57.131342],[-4.384129,57.131323],[-4.383892,57.131333],[-4.383722,57.131401],[-4.38362,57.131526],[-4.383632,57.131828],[-4.383757,57.132304],[-4.384285,57.132654],[-4.385217,57.132878],[-4.386193,57.133334],[-4.387215,57.134021],[-4.387988,57.134418],[-4.388511,57.134523],[-4.38935,57.134471],[-4.390505,57.134261],[-4.391934,57.134135],[-4.393638,57.134094],[-4.394927,57.134114],[-4.395804,57.134197],[-4.396721,57.134266],[-4.397679,57.134324],[-4.3986,57.134328],[-4.399486,57.134278],[-4.400067,57.134067],[-4.400344,57.133693],[-4.4003,57.133232],[-4.399935,57.132683],[-4.399926,57.13208],[-4.400273,57.13142],[-4.400427,57.131002],[-4.400389,57.130827],[-4.40062,57.130531],[-4.401122,57.130116],[-4.401714,57.129739],[-4.402397,57.129402],[-4.402809,57.129103],[-4.402948,57.128842],[-4.402423,57.128345],[-4.401232,57.12761],[-4.400516,57.127281],[-4.400274,57.127357],[-4.400062,57.12747],[-4.399879,57.127622],[-4.3998,57.127843],[-4.399823,57.128135],[-4.399507,57.128562],[-4.398851,57.129125],[-4.39832,57.129348],[-4.397912,57.12923],[-4.397435,57.128857],[-4.39689,57.128231],[-4.395848,57.12784],[-4.394309,57.127684],[-4.392848,57.12765],[-4.391465,57.127738],[-4.38999,57.127861],[-4.388423,57.128018],[-4.387356,57.128259],[-4.386788,57.128584],[-4.386088,57.1288],[-4.385256,57.128909],[-4.383985,57.128976],[-4.382276,57.129002],[-4.381297,57.129119],[-4.381046,57.129327],[-4.380825,57.129458],[-4.380635,57.129511],[-4.380077,57.12959],[-4.379152,57.129692],[-4.379014,57.12992],[-4.379664,57.130273],[-4.380562,57.13041]]]}}