{"type":"Feature","properties":{"id":"267454","COMMUNE":"Scottish Borders","PROVINCE":"Scottish Borders","COUNTRY":"UK","FIREDATE":"2025-04-01 13:08:00","FINALDATE":"2025-04-01 13:57:00","CLASS":"FireSeason","areaHA_geo":27.315},"geometry":{"type":"Polygon","coordinates":[[[-3.199611,55.599189],[-3.199931,55.599512],[-3.20038,55.599966],[-3.200957,55.600549],[-3.202139,55.601486],[-3.203926,55.602776],[-3.205402,55.603896],[-3.206568,55.604846],[-3.2074,55.605498],[-3.2079,55.60585],[-3.208291,55.606071],[-3.208575,55.606161],[-3.208905,55.606388],[-3.209282,55.606754],[-3.209655,55.607108],[-3.210024,55.607451],[-3.210473,55.607654],[-3.211002,55.607717],[-3.211214,55.607469],[-3.211109,55.606908],[-3.210822,55.606306],[-3.210351,55.605664],[-3.21007,55.604955],[-3.209977,55.604178],[-3.209878,55.603509],[-3.209773,55.602948],[-3.209848,55.602606],[-3.210103,55.602484],[-3.210031,55.602146],[-3.209633,55.601592],[-3.208982,55.601041],[-3.208078,55.600492],[-3.207123,55.600163],[-3.206114,55.600055],[-3.205236,55.599956],[-3.204488,55.599868],[-3.203761,55.599718],[-3.203056,55.599506],[-3.202511,55.599206],[-3.202126,55.598817],[-3.201313,55.598724],[-3.200071,55.598926],[-3.199611,55.599189]]]}}