{"type":"Feature","properties":{"id":"267497","COMMUNE":"Perth and Kinross","PROVINCE":"Perth & Kinross and Stirling","COUNTRY":"UK","FIREDATE":"2025-04-01 11:49:00","FINALDATE":"2025-04-01 13:29:00","CLASS":"FireSeason","areaHA_geo":0.413},"geometry":{"type":"Polygon","coordinates":[[[-3.574123,56.844187],[-3.57427,56.844157],[-3.574328,56.844109],[-3.574299,56.844044],[-3.574182,56.843962],[-3.574026,56.843867],[-3.57383,56.84376],[-3.573594,56.843641],[-3.573319,56.84351],[-3.573089,56.843414],[-3.572904,56.843353],[-3.572765,56.843328],[-3.57267,56.843338],[-3.572663,56.843399],[-3.572742,56.843513],[-3.572908,56.843678],[-3.57316,56.843894],[-3.573407,56.844053],[-3.57365,56.844155],[-3.573889,56.8442],[-3.574123,56.844187]]]}}