{"type":"Feature","properties":{"id":"267417","COMMUNE":"Bridgend","PROVINCE":"Bridgend and Neath Port Talbot","COUNTRY":"UK","FIREDATE":"2025-02-16 00:00:00","CLASS":"FireSeason","areaHA_geo":2.941},"geometry":{"type":"Polygon","coordinates":[[[-3.518447,51.620561],[-3.518902,51.620699],[-3.51929,51.620662],[-3.519613,51.620449],[-3.519833,51.620367],[-3.519951,51.620417],[-3.520226,51.620601],[-3.520657,51.620918],[-3.521063,51.621022],[-3.521443,51.620914],[-3.521702,51.620748],[-3.521841,51.620524],[-3.521802,51.620226],[-3.521586,51.619852],[-3.521229,51.619566],[-3.520731,51.619369],[-3.520258,51.619256],[-3.519811,51.619228],[-3.519246,51.619534],[-3.518562,51.620172],[-3.518447,51.620561]]]}}