{"type":"Feature","properties":{"id":"267491","COMMUNE":"Perth and Kinross","PROVINCE":"Perth & Kinross and Stirling","COUNTRY":"UK","FIREDATE":"2025-04-07 11:15:00","FINALDATE":"2025-04-07 13:18:00","CLASS":"FireSeason","areaHA_geo":14.899},"geometry":{"type":"Polygon","coordinates":[[[-3.463324,56.832723],[-3.463656,56.832644],[-3.463939,56.832596],[-3.464171,56.832578],[-3.464353,56.83259],[-3.464485,56.832634],[-3.464626,56.832638],[-3.464777,56.832604],[-3.464937,56.83253],[-3.465106,56.832416],[-3.465185,56.832297],[-3.465174,56.832171],[-3.465074,56.832038],[-3.464885,56.831899],[-3.464681,56.831818],[-3.464463,56.831796],[-3.464232,56.831833],[-3.463987,56.831928],[-3.463759,56.831965],[-3.463547,56.831943],[-3.463352,56.831861],[-3.463173,56.831721],[-3.462969,56.831541],[-3.462739,56.831323],[-3.462484,56.831067],[-3.462203,56.830772],[-3.462014,56.830553],[-3.461916,56.83041],[-3.46191,56.830344],[-3.461995,56.830354],[-3.462084,56.830383],[-3.462177,56.830431],[-3.462273,56.830497],[-3.462374,56.830582],[-3.462502,56.830639],[-3.462658,56.830667],[-3.462841,56.830667],[-3.463052,56.830638],[-3.463145,56.830575],[-3.463121,56.830475],[-3.46298,56.83034],[-3.462721,56.83017],[-3.462557,56.830039],[-3.462489,56.829948],[-3.462517,56.829895],[-3.462641,56.829882],[-3.462732,56.829854],[-3.462792,56.829809],[-3.46282,56.829749],[-3.462816,56.829673],[-3.462946,56.829656],[-3.463212,56.829699],[-3.463612,56.8298],[-3.464147,56.829961],[-3.464526,56.830034],[-3.464748,56.830021],[-3.464814,56.82992],[-3.464723,56.829732],[-3.464638,56.829583],[-3.464558,56.829474],[-3.464483,56.829404],[-3.464414,56.829373],[-3.464362,56.829335],[-3.464329,56.829291],[-3.464313,56.82924],[-3.464316,56.829183],[-3.464371,56.829142],[-3.464479,56.829118],[-3.464639,56.829111],[-3.464852,56.82912],[-3.464968,56.8291],[-3.464985,56.829051],[-3.464904,56.828972],[-3.464725,56.828863],[-3.464583,56.828758],[-3.464477,56.828658],[-3.464407,56.828562],[-3.464374,56.82847],[-3.464384,56.828383],[-3.464436,56.828301],[-3.464531,56.828224],[-3.464668,56.828153],[-3.464833,56.828136],[-3.465027,56.828173],[-3.465249,56.828264],[-3.4655,56.82841],[-3.465731,56.828537],[-3.465945,56.828645],[-3.46614,56.828734],[-3.466317,56.828805],[-3.466406,56.828778],[-3.466408,56.828654],[-3.466323,56.828432],[-3.46615,56.828113],[-3.466072,56.827865],[-3.46609,56.827688],[-3.466203,56.827582],[-3.466412,56.827548],[-3.466576,56.827484],[-3.466694,56.827392],[-3.466767,56.827272],[-3.466795,56.827122],[-3.466747,56.826924],[-3.466623,56.826676],[-3.466423,56.826378],[-3.466147,56.826032],[-3.465926,56.825741],[-3.46576,56.825507],[-3.46565,56.825329],[-3.465595,56.825208],[-3.465467,56.825046],[-3.465266,56.824844],[-3.464993,56.824602],[-3.464647,56.82432],[-3.464356,56.82411],[-3.46412,56.823972],[-3.46394,56.823907],[-3.463814,56.823913],[-3.463739,56.823955],[-3.463714,56.824031],[-3.463739,56.824141],[-3.463814,56.824286],[-3.463898,56.824408],[-3.463992,56.824506],[-3.464095,56.824581],[-3.464206,56.824633],[-3.464302,56.824688],[-3.464381,56.824747],[-3.464444,56.824809],[-3.464491,56.824874],[-3.464547,56.825046],[-3.464613,56.825326],[-3.464688,56.825713],[-3.464772,56.826207],[-3.464853,56.826611],[-3.464931,56.826924],[-3.465005,56.827147],[-3.465076,56.82728],[-3.465017,56.827327],[-3.464829,56.827289],[-3.464511,56.827167],[-3.464064,56.826959],[-3.463625,56.826782],[-3.463194,56.826636],[-3.462772,56.826521],[-3.462357,56.826437],[-3.462033,56.826392],[-3.461798,56.826388],[-3.461654,56.826424],[-3.4616,56.8265],[-3.461532,56.826562],[-3.461451,56.826612],[-3.461357,56.826649],[-3.461249,56.826673],[-3.461142,56.826724],[-3.461036,56.826802],[-3.460931,56.826907],[-3.460827,56.827039],[-3.460807,56.827136],[-3.46087,56.8272],[-3.461018,56.827229],[-3.461249,56.827224],[-3.461433,56.827235],[-3.461571,56.827262],[-3.461662,56.827305],[-3.461707,56.827364],[-3.461658,56.827415],[-3.461516,56.827458],[-3.461282,56.827494],[-3.460954,56.827522],[-3.46075,56.827561],[-3.460669,56.82761],[-3.460711,56.827671],[-3.460876,56.827743],[-3.461039,56.827791],[-3.4612,56.827816],[-3.461357,56.827817],[-3.461512,56.827795],[-3.461582,56.827795],[-3.461567,56.827819],[-3.461468,56.827866],[-3.461283,56.827936],[-3.461153,56.82801],[-3.461076,56.828088],[-3.461053,56.82817],[-3.461084,56.828256],[-3.461081,56.828322],[-3.461045,56.828367],[-3.460976,56.828392],[-3.460872,56.828396],[-3.460812,56.828421],[-3.460793,56.828468],[-3.460818,56.828535],[-3.460884,56.828624],[-3.461001,56.82868],[-3.461166,56.828704],[-3.461382,56.828696],[-3.461647,56.828656],[-3.461822,56.828649],[-3.461907,56.828675],[-3.461902,56.828734],[-3.461807,56.828827],[-3.461675,56.828896],[-3.461505,56.828943],[-3.461298,56.828966],[-3.461054,56.828966],[-3.460852,56.828987],[-3.460692,56.829029],[-3.460575,56.829092],[-3.460501,56.829176],[-3.460548,56.829243],[-3.460717,56.829292],[-3.461008,56.829324],[-3.46142,56.829338],[-3.461726,56.829378],[-3.461924,56.829443],[-3.462015,56.829534],[-3.461998,56.82965],[-3.461892,56.829735],[-3.461695,56.829787],[-3.461408,56.829807],[-3.461032,56.829796],[-3.460728,56.829808],[-3.460496,56.829845],[-3.460338,56.829906],[-3.460252,56.829992],[-3.46023,56.830099],[-3.46027,56.830228],[-3.460374,56.83038],[-3.460541,56.830553],[-3.460709,56.830679],[-3.460876,56.830757],[-3.461045,56.830787],[-3.461213,56.83077],[-3.461369,56.830784],[-3.461514,56.830829],[-3.461646,56.830906],[-3.461767,56.831014],[-3.461849,56.831139],[-3.461894,56.831281],[-3.461902,56.831439],[-3.461872,56.831614],[-3.461906,56.831767],[-3.462005,56.831897],[-3.462169,56.832004],[-3.462397,56.832088],[-3.462548,56.832168],[-3.462621,56.832243],[-3.462617,56.832313],[-3.462536,56.832379],[-3.462501,56.832451],[-3.462512,56.83253],[-3.462568,56.832614],[-3.462671,56.832705],[-3.462831,56.832754],[-3.463049,56.83276],[-3.463324,56.832723]]]}}