{"type":"Feature","properties":{"id":"267443","COMMUNE":"Northumberland","PROVINCE":"Northumberland","COUNTRY":"UK","FIREDATE":"2025-03-18 00:00:00","FINALDATE":"2025-03-18 00:00:00","CLASS":"FireSeason","areaHA_geo":2.074},"geometry":{"type":"Polygon","coordinates":[[[-1.910187,55.322441],[-1.910602,55.322464],[-1.91095,55.3224],[-1.911232,55.322249],[-1.911382,55.322026],[-1.911402,55.32173],[-1.91122,55.321531],[-1.910836,55.321428],[-1.910339,55.321406],[-1.909731,55.321464],[-1.909248,55.321486],[-1.90889,55.321474],[-1.908524,55.321478],[-1.908149,55.321498],[-1.907823,55.321544],[-1.907545,55.321617],[-1.907464,55.32171],[-1.90758,55.321823],[-1.907733,55.321924],[-1.907923,55.322015],[-1.908173,55.322076],[-1.908482,55.322108],[-1.908636,55.322125],[-1.908636,55.322125],[-1.908972,55.322201],[-1.909644,55.322354],[-1.910187,55.322441]]]}}