{"type":"Feature","properties":{"id":"267492","COMMUNE":"Perth and Kinross","PROVINCE":"Perth & Kinross and Stirling","COUNTRY":"UK","FIREDATE":"2025-04-06 12:49:00","CLASS":"FireSeason","areaHA_geo":3.578},"geometry":{"type":"Polygon","coordinates":[[[-3.432203,56.837083],[-3.432331,56.837205],[-3.432497,56.837293],[-3.432699,56.837346],[-3.432939,56.837366],[-3.433126,56.837335],[-3.43326,56.837255],[-3.433341,56.837124],[-3.43337,56.836943],[-3.43345,56.836777],[-3.433582,56.836626],[-3.433767,56.836491],[-3.434003,56.836371],[-3.434171,56.836221],[-3.434269,56.836042],[-3.434299,56.835834],[-3.434261,56.835596],[-3.434217,56.83536],[-3.434168,56.835127],[-3.434114,56.834895],[-3.434055,56.834666],[-3.433976,56.834502],[-3.433877,56.834404],[-3.433758,56.834372],[-3.433619,56.834406],[-3.43348,56.834418],[-3.433344,56.83441],[-3.433208,56.834382],[-3.433074,56.834332],[-3.432907,56.834346],[-3.432708,56.834424],[-3.432477,56.834566],[-3.432213,56.834772],[-3.432033,56.834994],[-3.431939,56.835233],[-3.431928,56.835489],[-3.432003,56.835761],[-3.432077,56.835977],[-3.432153,56.836138],[-3.432228,56.836243],[-3.432304,56.836293],[-3.432333,56.83635],[-3.432316,56.836416],[-3.432252,56.836489],[-3.432142,56.836571],[-3.432082,56.836671],[-3.432072,56.83679],[-3.432112,56.836927],[-3.432203,56.837083]]]}}