{"type":"Feature","properties":{"id":"267431","COMMUNE":"Powys","PROVINCE":"Powys","COUNTRY":"UK","FIREDATE":"2025-03-26 00:00:00","FINALDATE":"2025-03-26 00:00:00","CLASS":"FireSeason","areaHA_geo":4.828},"geometry":{"type":"Polygon","coordinates":[[[-3.684289,51.819069],[-3.685129,51.819202],[-3.685768,51.819142],[-3.686207,51.818888],[-3.686699,51.818656],[-3.687246,51.818447],[-3.687666,51.818209],[-3.68796,51.817943],[-3.688064,51.81767],[-3.687978,51.817391],[-3.68766,51.817196],[-3.687109,51.817087],[-3.686485,51.817045],[-3.685788,51.817069],[-3.685143,51.817188],[-3.684551,51.817402],[-3.684159,51.817883],[-3.683966,51.81863],[-3.684289,51.819069]]]}}