{"type":"Feature","properties":{"id":"267400","COMMUNE":"New Forest","PROVINCE":"Central Hampshire","COUNTRY":"UK","FIREDATE":"2025-03-05 00:00:00","FINALDATE":"2025-03-05 00:00:00","CLASS":"FireSeason","areaHA_geo":2.241},"geometry":{"type":"Polygon","coordinates":[[[-1.684872,50.88994],[-1.685255,50.890226],[-1.685586,50.890442],[-1.685864,50.890588],[-1.686244,50.890658],[-1.686725,50.890652],[-1.687029,50.890491],[-1.687155,50.890174],[-1.687164,50.889869],[-1.687055,50.889576],[-1.686976,50.889335],[-1.686928,50.889144],[-1.686782,50.888975],[-1.686537,50.888826],[-1.685981,50.889013],[-1.685114,50.889535],[-1.684872,50.88994]]]}}