{"type":"Feature","properties":{"id":"267451","COMMUNE":"Scottish Borders","PROVINCE":"Scottish Borders","COUNTRY":"UK","FIREDATE":"2025-03-19 00:00:00","CLASS":"FireSeason","areaHA_geo":4.261},"geometry":{"type":"Polygon","coordinates":[[[-3.197526,55.574352],[-3.197885,55.574642],[-3.198101,55.574939],[-3.198174,55.575243],[-3.198215,55.575492],[-3.198223,55.575688],[-3.198269,55.575782],[-3.198353,55.575773],[-3.198608,55.575713],[-3.199036,55.575603],[-3.199296,55.575297],[-3.199388,55.574795],[-3.199563,55.574408],[-3.199819,55.574136],[-3.199996,55.573929],[-3.200094,55.573787],[-3.200209,55.57357],[-3.200343,55.573278],[-3.200386,55.573019],[-3.20034,55.572794],[-3.200195,55.57258],[-3.199952,55.572376],[-3.199553,55.572353],[-3.198996,55.57251],[-3.198531,55.572681],[-3.198158,55.572868],[-3.197816,55.573273],[-3.197503,55.573896],[-3.197526,55.574352]]]}}