{"type":"Feature","properties":{"id":"267453","COMMUNE":"Scottish Borders","PROVINCE":"Scottish Borders","COUNTRY":"UK","FIREDATE":"2025-03-19 14:45:20.137","FINALDATE":"2025-03-20 00:00:00","CLASS":"FireSeason","areaHA_geo":2.291},"geometry":{"type":"Polygon","coordinates":[[[-3.224267,55.572555],[-3.223777,55.572738],[-3.223538,55.573017],[-3.223548,55.573393],[-3.223599,55.573715],[-3.22369,55.573984],[-3.223775,55.574279],[-3.223853,55.574598],[-3.223933,55.574836],[-3.224015,55.574991],[-3.224139,55.575101],[-3.224306,55.575165],[-3.224533,55.575149],[-3.22482,55.575054],[-3.225007,55.574878],[-3.225096,55.574623],[-3.225114,55.574162],[-3.225064,55.573496],[-3.225034,55.573105],[-3.225024,55.572992],[-3.224893,55.572817],[-3.224639,55.572582],[-3.224267,55.572555]]]}}