{"type":"Feature","properties":{"id":"267469","COMMUNE":"North Lanarkshire","PROVINCE":"North Lanarkshire","COUNTRY":"UK","FIREDATE":"2025-04-11 01:24:00","FINALDATE":"2025-04-11 13:55:00","CLASS":"FireSeason","areaHA_geo":348.225},"geometry":{"type":"Polygon","coordinates":[[[-3.898716,55.954733],[-3.89894,55.954744],[-3.89914,55.954681],[-3.899317,55.954542],[-3.89947,55.954329],[-3.899631,55.954144],[-3.899799,55.95399],[-3.899974,55.953865],[-3.900156,55.953769],[-3.900288,55.953686],[-3.900372,55.953617],[-3.900405,55.95356],[-3.90039,55.953516],[-3.900413,55.95344],[-3.900475,55.953331],[-3.900577,55.953189],[-3.900717,55.953015],[-3.900903,55.952902],[-3.901135,55.95285],[-3.901412,55.952859],[-3.901735,55.952929],[-3.902305,55.952884],[-3.90312,55.952722],[-3.904181,55.952445],[-3.905488,55.952052],[-3.906629,55.951726],[-3.907605,55.951467],[-3.908417,55.951276],[-3.909062,55.951152],[-3.909605,55.951069],[-3.910043,55.951029],[-3.910379,55.951029],[-3.910611,55.951072],[-3.910862,55.951094],[-3.911133,55.951094],[-3.911424,55.951073],[-3.911734,55.951032],[-3.912091,55.95101],[-3.912496,55.951007],[-3.912949,55.951023],[-3.913449,55.951059],[-3.913893,55.951116],[-3.91428,55.951194],[-3.91461,55.951294],[-3.914884,55.951415],[-3.915142,55.951529],[-3.915383,55.951635],[-3.915608,55.951733],[-3.915816,55.951824],[-3.915991,55.95198],[-3.916132,55.952203],[-3.91624,55.952492],[-3.916314,55.952847],[-3.916454,55.953114],[-3.91666,55.953291],[-3.916933,55.953381],[-3.917271,55.953381],[-3.917631,55.953385],[-3.918013,55.953392],[-3.918416,55.953403],[-3.918841,55.953416],[-3.919171,55.953441],[-3.919407,55.953475],[-3.919549,55.95352],[-3.919596,55.953576],[-3.919682,55.953638],[-3.919809,55.953707],[-3.919975,55.953783],[-3.920181,55.953867],[-3.920399,55.953945],[-3.920628,55.954018],[-3.92087,55.954086],[-3.921122,55.954149],[-3.921364,55.954198],[-3.921593,55.954233],[-3.921811,55.954255],[-3.922016,55.954263],[-3.922177,55.954315],[-3.922294,55.954412],[-3.922365,55.954553],[-3.922391,55.95474],[-3.922391,55.954897],[-3.922362,55.955025],[-3.922306,55.955123],[-3.922223,55.955193],[-3.922134,55.955284],[-3.92204,55.955397],[-3.921939,55.955531],[-3.921832,55.955686],[-3.921785,55.955837],[-3.921797,55.955983],[-3.921869,55.956125],[-3.921999,55.956262],[-3.922172,55.956347],[-3.922387,55.95638],[-3.922645,55.956361],[-3.922944,55.95629],[-3.923223,55.95622],[-3.923482,55.95615],[-3.923721,55.95608],[-3.92394,55.956011],[-3.924161,55.955929],[-3.924385,55.955837],[-3.924611,55.955732],[-3.92484,55.955616],[-3.925041,55.955507],[-3.925214,55.955405],[-3.925359,55.955309],[-3.925476,55.955221],[-3.925564,55.955136],[-3.925622,55.955054],[-3.925651,55.954975],[-3.925651,55.954899],[-3.925697,55.954801],[-3.925789,55.954681],[-3.925928,55.954539],[-3.926112,55.954375],[-3.926279,55.954276],[-3.926429,55.95424],[-3.926561,55.954269],[-3.926676,55.954362],[-3.92684,55.954386],[-3.927054,55.95434],[-3.927317,55.954224],[-3.927629,55.954038],[-3.927887,55.953938],[-3.928092,55.953923],[-3.928242,55.953993],[-3.928339,55.954149],[-3.928498,55.954243],[-3.92872,55.954275],[-3.929004,55.954246],[-3.92935,55.954155],[-3.929692,55.954061],[-3.930029,55.953963],[-3.930361,55.953862],[-3.930689,55.953758],[-3.930997,55.953663],[-3.931285,55.953579],[-3.931552,55.953504],[-3.931799,55.953439],[-3.932074,55.953346],[-3.932376,55.953226],[-3.932705,55.953078],[-3.933061,55.952902],[-3.933336,55.9528],[-3.933529,55.952771],[-3.93364,55.952816],[-3.933669,55.952934],[-3.933728,55.953043],[-3.933818,55.953142],[-3.933939,55.953233],[-3.93409,55.953315],[-3.934236,55.95339],[-3.934375,55.953458],[-3.934509,55.953519],[-3.934637,55.953573],[-3.934795,55.953618],[-3.934984,55.953653],[-3.935204,55.95368],[-3.935454,55.953698],[-3.935814,55.953693],[-3.936284,55.953663],[-3.936865,55.953611],[-3.937555,55.953535],[-3.938114,55.953452],[-3.938542,55.953364],[-3.93884,55.953268],[-3.939006,55.953167],[-3.939101,55.953054],[-3.939124,55.952931],[-3.939075,55.952796],[-3.938955,55.95265],[-3.938822,55.952553],[-3.938676,55.952505],[-3.938517,55.952506],[-3.938345,55.952555],[-3.938193,55.952613],[-3.938062,55.952681],[-3.937951,55.952757],[-3.93786,55.952843],[-3.93775,55.952885],[-3.937621,55.952884],[-3.937473,55.95284],[-3.937306,55.952752],[-3.937166,55.952647],[-3.937054,55.952523],[-3.936969,55.952381],[-3.936911,55.952221],[-3.936856,55.952068],[-3.936804,55.951923],[-3.936754,55.951784],[-3.936706,55.951653],[-3.936595,55.951524],[-3.93642,55.951395],[-3.936182,55.951268],[-3.935879,55.951143],[-3.935718,55.950998],[-3.9357,55.950833],[-3.935823,55.95065],[-3.936088,55.950446],[-3.936318,55.950268],[-3.936513,55.950114],[-3.936673,55.949985],[-3.936797,55.94988],[-3.936965,55.949828],[-3.937174,55.949827],[-3.937427,55.949879],[-3.937721,55.949983],[-3.938011,55.950053],[-3.938295,55.95009],[-3.938573,55.950093],[-3.938847,55.950063],[-3.939077,55.950054],[-3.939265,55.950068],[-3.93941,55.950103],[-3.939511,55.95016],[-3.939665,55.950209],[-3.939869,55.950251],[-3.940125,55.950285],[-3.940433,55.950312],[-3.940721,55.950322],[-3.940989,55.950315],[-3.941238,55.950291],[-3.941467,55.950251],[-3.941688,55.950132],[-3.941901,55.949934],[-3.942106,55.949658],[-3.942303,55.949304],[-3.942602,55.948981],[-3.943005,55.948691],[-3.943511,55.948432],[-3.94412,55.948206],[-3.944529,55.947999],[-3.944738,55.947809],[-3.944747,55.947638],[-3.944557,55.947485],[-3.94447,55.94733],[-3.944488,55.947173],[-3.94461,55.947014],[-3.944836,55.946852],[-3.944907,55.94672],[-3.944822,55.946616],[-3.944581,55.94654],[-3.944185,55.946493],[-3.944034,55.946383],[-3.944127,55.94621],[-3.944465,55.945974],[-3.945047,55.945675],[-3.945477,55.945412],[-3.945753,55.945185],[-3.945877,55.944993],[-3.945848,55.944838],[-3.945838,55.944699],[-3.945849,55.944576],[-3.945878,55.944471],[-3.945927,55.944382],[-3.945936,55.944285],[-3.945905,55.944179],[-3.945833,55.944064],[-3.94572,55.94394],[-3.945599,55.943828],[-3.945468,55.943729],[-3.945329,55.943643],[-3.94518,55.943568],[-3.9449,55.943544],[-3.94449,55.94357],[-3.943949,55.943647],[-3.943278,55.943774],[-3.942712,55.943819],[-3.942252,55.943783],[-3.941898,55.943665],[-3.94165,55.943465],[-3.941329,55.943363],[-3.940934,55.943357],[-3.940466,55.943448],[-3.939925,55.943637],[-3.939448,55.943788],[-3.939036,55.943901],[-3.938688,55.943977],[-3.938404,55.944016],[-3.938174,55.944025],[-3.937996,55.944003],[-3.937872,55.94395],[-3.937802,55.943867],[-3.937786,55.943776],[-3.937825,55.943677],[-3.937918,55.94357],[-3.938066,55.943456],[-3.9382,55.943348],[-3.93832,55.943248],[-3.938425,55.943155],[-3.938516,55.943069],[-3.938626,55.943001],[-3.938756,55.942948],[-3.938906,55.942913],[-3.939075,55.942894],[-3.939191,55.94284],[-3.939253,55.94275],[-3.939262,55.942624],[-3.939217,55.942462],[-3.939161,55.942279],[-3.939094,55.942075],[-3.939016,55.941849],[-3.938927,55.941602],[-3.938734,55.941432],[-3.938436,55.94134],[-3.938035,55.941325],[-3.93753,55.941389],[-3.937052,55.941451],[-3.9366,55.941512],[-3.936175,55.941572],[-3.935777,55.941631],[-3.935416,55.941673],[-3.935093,55.941697],[-3.934808,55.941704],[-3.934561,55.941693],[-3.934357,55.941646],[-3.934198,55.941561],[-3.934083,55.941439],[-3.934013,55.941281],[-3.933952,55.941123],[-3.933902,55.940965],[-3.933863,55.940809],[-3.933834,55.940653],[-3.933788,55.940507],[-3.933725,55.94037],[-3.933645,55.940243],[-3.933548,55.940125],[-3.933308,55.94003],[-3.932923,55.939959],[-3.932395,55.939911],[-3.931723,55.939887],[-3.931124,55.939896],[-3.930598,55.939939],[-3.930145,55.940016],[-3.929765,55.940125],[-3.929429,55.940197],[-3.929136,55.940229],[-3.928887,55.940222],[-3.928681,55.940177],[-3.928481,55.940167],[-3.928287,55.940192],[-3.928099,55.940252],[-3.927917,55.940348],[-3.92772,55.940449],[-3.927508,55.940556],[-3.927281,55.940668],[-3.927039,55.940785],[-3.926793,55.940899],[-3.926542,55.94101],[-3.926286,55.941118],[-3.926026,55.941222],[-3.925734,55.941305],[-3.925412,55.941367],[-3.925058,55.941408],[-3.924672,55.941428],[-3.924317,55.941446],[-3.923991,55.941463],[-3.923696,55.941479],[-3.92343,55.941493],[-3.923125,55.941491],[-3.922779,55.941472],[-3.922395,55.941437],[-3.92197,55.941385],[-3.921594,55.941309],[-3.921267,55.941209],[-3.920989,55.941085],[-3.920759,55.940936],[-3.920548,55.940791],[-3.920355,55.940649],[-3.92018,55.940512],[-3.920023,55.940377],[-3.919788,55.940233],[-3.919476,55.940078],[-3.919084,55.939913],[-3.918615,55.939738],[-3.918224,55.939656],[-3.91791,55.939668],[-3.917674,55.939773],[-3.917516,55.939973],[-3.917352,55.940138],[-3.917183,55.94027],[-3.917009,55.940369],[-3.916829,55.940434],[-3.916646,55.940498],[-3.916458,55.94056],[-3.916267,55.940621],[-3.916072,55.94068],[-3.915871,55.940742],[-3.915664,55.940806],[-3.915451,55.940873],[-3.915233,55.940943],[-3.915007,55.941002],[-3.914774,55.94105],[-3.914534,55.941088],[-3.914286,55.941115],[-3.914099,55.941158],[-3.913971,55.941218],[-3.913904,55.941293],[-3.913896,55.941385],[-3.913775,55.94147],[-3.913539,55.941549],[-3.91319,55.941621],[-3.912726,55.941688],[-3.912291,55.941749],[-3.911885,55.941805],[-3.911508,55.941856],[-3.911159,55.941902],[-3.910839,55.941935],[-3.910549,55.941955],[-3.910288,55.941963],[-3.910056,55.941959],[-3.909793,55.941916],[-3.9095,55.941834],[-3.909176,55.941715],[-3.908822,55.941557],[-3.908568,55.941398],[-3.908416,55.941237],[-3.908364,55.941074],[-3.908413,55.94091],[-3.908234,55.940854],[-3.907826,55.940906],[-3.90719,55.941067],[-3.906326,55.941336],[-3.905697,55.941551],[-3.905301,55.941712],[-3.90514,55.941818],[-3.905213,55.941871],[-3.90531,55.941972],[-3.905431,55.942121],[-3.905577,55.942319],[-3.905747,55.942565],[-3.906012,55.94271],[-3.906373,55.942753],[-3.906829,55.942696],[-3.907381,55.942537],[-3.907837,55.94242],[-3.908196,55.942347],[-3.908459,55.942316],[-3.908626,55.942328],[-3.908725,55.942377],[-3.908756,55.942465],[-3.90872,55.94259],[-3.908616,55.942753],[-3.908571,55.942881],[-3.908584,55.942974],[-3.908656,55.943032],[-3.908786,55.943055],[-3.908821,55.943097],[-3.908762,55.943157],[-3.908607,55.943234],[-3.908357,55.94333],[-3.90803,55.943455],[-3.907625,55.943609],[-3.907143,55.943792],[-3.906584,55.944005],[-3.906081,55.944208],[-3.905636,55.944401],[-3.905249,55.944583],[-3.904918,55.944756],[-3.904586,55.944932],[-3.904252,55.945113],[-3.903915,55.945297],[-3.903577,55.945486],[-3.903281,55.945613],[-3.903027,55.945679],[-3.902816,55.945683],[-3.902646,55.945626],[-3.902497,55.945578],[-3.902368,55.945539],[-3.902259,55.94551],[-3.902171,55.945489],[-3.902023,55.945464],[-3.901816,55.945434],[-3.901549,55.945399],[-3.901223,55.945359],[-3.900933,55.945351],[-3.900678,55.945375],[-3.900458,55.945432],[-3.900273,55.94552],[-3.90024,55.945635],[-3.900359,55.945777],[-3.900629,55.945946],[-3.901052,55.946142],[-3.901279,55.946323],[-3.901312,55.94649],[-3.901151,55.946642],[-3.900794,55.946779],[-3.900465,55.946901],[-3.900165,55.947005],[-3.899892,55.947094],[-3.899647,55.947166],[-3.899439,55.947246],[-3.899267,55.947333],[-3.899132,55.947427],[-3.899033,55.947529],[-3.898845,55.947627],[-3.898568,55.947722],[-3.898202,55.947813],[-3.897746,55.947901],[-3.89729,55.947997],[-3.896833,55.9481],[-3.896375,55.948211],[-3.895917,55.948329],[-3.895568,55.948451],[-3.895329,55.948575],[-3.895199,55.948703],[-3.895178,55.948834],[-3.895253,55.94892],[-3.895424,55.948962],[-3.89569,55.948959],[-3.896052,55.948912],[-3.896345,55.948906],[-3.896567,55.948942],[-3.896721,55.94902],[-3.896804,55.94914],[-3.896933,55.949245],[-3.897108,55.949335],[-3.897328,55.949411],[-3.897594,55.949473],[-3.897766,55.949554],[-3.897843,55.949655],[-3.897825,55.949777],[-3.897714,55.949917],[-3.89759,55.950054],[-3.897455,55.950186],[-3.897308,55.950314],[-3.897149,55.950437],[-3.896951,55.950554],[-3.896713,55.950663],[-3.896435,55.950765],[-3.896117,55.950861],[-3.89579,55.950967],[-3.895453,55.951083],[-3.895106,55.95121],[-3.894749,55.951348],[-3.894441,55.95148],[-3.894182,55.951607],[-3.893972,55.951728],[-3.893811,55.951844],[-3.893692,55.951965],[-3.893615,55.952091],[-3.893581,55.952221],[-3.893589,55.952357],[-3.893587,55.952482],[-3.893574,55.952597],[-3.893551,55.952701],[-3.893517,55.952796],[-3.89353,55.952917],[-3.893591,55.953066],[-3.893698,55.953241],[-3.893852,55.953444],[-3.894168,55.953598],[-3.894646,55.953705],[-3.895287,55.953763],[-3.896089,55.953773],[-3.896732,55.953801],[-3.897215,55.953846],[-3.897539,55.953909],[-3.897703,55.953989],[-3.897836,55.954075],[-3.897936,55.954166],[-3.898005,55.954263],[-3.898042,55.954364],[-3.898131,55.954462],[-3.898273,55.954557],[-3.898468,55.954647],[-3.898716,55.954733]]]}}