{"type":"Feature","properties":{"id":"267438","COMMUNE":"Powys","PROVINCE":"Powys","COUNTRY":"UK","FIREDATE":"2025-04-08 01:05:00","FINALDATE":"2025-04-09 14:20:00","CLASS":"FireSeason","areaHA_geo":415.025},"geometry":{"type":"Polygon","coordinates":[[[-3.742158,52.515882],[-3.742163,52.515905],[-3.74218,52.515947],[-3.742515,52.516081],[-3.743166,52.516307],[-3.743525,52.516567],[-3.74359,52.516861],[-3.743449,52.517112],[-3.7431,52.51732],[-3.74271,52.517483],[-3.742277,52.5176],[-3.741946,52.517513],[-3.741716,52.517222],[-3.741534,52.516866],[-3.741401,52.516446],[-3.741314,52.516221],[-3.741272,52.516192],[-3.741246,52.51618],[-3.741236,52.516184],[-3.741184,52.51621],[-3.741091,52.51626],[-3.741,52.516316],[-3.740911,52.516379],[-3.740824,52.516448],[-3.740739,52.516524],[-3.74065,52.516589],[-3.740559,52.516644],[-3.740463,52.516688],[-3.740365,52.516722],[-3.740287,52.516747],[-3.74023,52.516763],[-3.740193,52.51677],[-3.740176,52.516769],[-3.740164,52.516823],[-3.740157,52.516932],[-3.740154,52.517096],[-3.740155,52.517316],[-3.740263,52.517547],[-3.740478,52.517788],[-3.740798,52.518041],[-3.741226,52.518304],[-3.741561,52.51851],[-3.741804,52.518658],[-3.741956,52.518749],[-3.742016,52.518783],[-3.74206,52.518816],[-3.742088,52.518849],[-3.742101,52.518882],[-3.742098,52.518914],[-3.742102,52.518974],[-3.742112,52.519062],[-3.742129,52.519177],[-3.742152,52.519321],[-3.742184,52.519456],[-3.742225,52.519585],[-3.742274,52.519705],[-3.742332,52.519818],[-3.742431,52.519943],[-3.742573,52.520079],[-3.742757,52.520227],[-3.742983,52.520387],[-3.743208,52.520527],[-3.743432,52.520647],[-3.743655,52.520747],[-3.743878,52.520827],[-3.744114,52.52089],[-3.744365,52.520935],[-3.744629,52.520962],[-3.744907,52.520971],[-3.745168,52.52103],[-3.745414,52.52114],[-3.745644,52.521299],[-3.745857,52.521507],[-3.7461,52.521659],[-3.746371,52.521754],[-3.746672,52.521792],[-3.747002,52.521773],[-3.747311,52.521759],[-3.747599,52.521749],[-3.747866,52.521744],[-3.748112,52.521743],[-3.748292,52.521717],[-3.748408,52.521665],[-3.748458,52.521587],[-3.748442,52.521484],[-3.748458,52.521348],[-3.748504,52.52118],[-3.748581,52.520979],[-3.748689,52.520746],[-3.748847,52.520557],[-3.749055,52.520411],[-3.749314,52.520309],[-3.749623,52.520251],[-3.749918,52.520294],[-3.750199,52.520437],[-3.750468,52.520682],[-3.750722,52.521027],[-3.750937,52.521302],[-3.751112,52.521508],[-3.751247,52.521644],[-3.751343,52.52171],[-3.751432,52.521761],[-3.751516,52.521795],[-3.751594,52.521813],[-3.751665,52.521816],[-3.751886,52.521829],[-3.752256,52.521851],[-3.752775,52.521885],[-3.753443,52.521928],[-3.754131,52.521977],[-3.754839,52.522033],[-3.755567,52.522094],[-3.756315,52.522161],[-3.757029,52.522228],[-3.757709,52.522294],[-3.758355,52.522361],[-3.758966,52.522428],[-3.759544,52.522494],[-3.760087,52.52256],[-3.760597,52.522626],[-3.761072,52.522692],[-3.761574,52.522698],[-3.762102,52.522645],[-3.762657,52.522532],[-3.763238,52.522359],[-3.763846,52.522127],[-3.764481,52.521835],[-3.765142,52.521484],[-3.765829,52.521073],[-3.766457,52.520683],[-3.767026,52.520313],[-3.767536,52.519964],[-3.767986,52.519636],[-3.768377,52.519329],[-3.768708,52.519042],[-3.768981,52.518776],[-3.769193,52.51853],[-3.769394,52.518303],[-3.769582,52.518094],[-3.769758,52.517902],[-3.769921,52.517729],[-3.770071,52.517574],[-3.770209,52.517436],[-3.770335,52.517317],[-3.770448,52.517215],[-3.770573,52.517121],[-3.770709,52.517033],[-3.770856,52.516953],[-3.771014,52.516879],[-3.771184,52.516812],[-3.771365,52.516753],[-3.771557,52.5167],[-3.77176,52.516654],[-3.771946,52.516608],[-3.772112,52.516561],[-3.772261,52.516513],[-3.772391,52.516465],[-3.772503,52.516416],[-3.772596,52.516366],[-3.772671,52.516316],[-3.772727,52.516266],[-3.772758,52.516206],[-3.772764,52.516136],[-3.772743,52.516057],[-3.772697,52.515969],[-3.772626,52.515872],[-3.772531,52.515767],[-3.772411,52.515653],[-3.772266,52.515531],[-3.772061,52.515437],[-3.771795,52.515372],[-3.771468,52.515335],[-3.771081,52.515326],[-3.770732,52.51531],[-3.770423,52.515286],[-3.770154,52.515254],[-3.769923,52.515215],[-3.769681,52.515111],[-3.769428,52.514942],[-3.769163,52.514708],[-3.768887,52.51441],[-3.768719,52.51411],[-3.768659,52.513808],[-3.768709,52.513505],[-3.768866,52.5132],[-3.769073,52.512967],[-3.769329,52.512807],[-3.769634,52.512719],[-3.769988,52.512704],[-3.770257,52.512684],[-3.77044,52.51266],[-3.770537,52.512632],[-3.770549,52.512599],[-3.770593,52.512526],[-3.770669,52.512413],[-3.770776,52.51226],[-3.770915,52.512067],[-3.771064,52.511893],[-3.771223,52.511737],[-3.771393,52.511598],[-3.771573,52.511478],[-3.771769,52.511374],[-3.771982,52.511285],[-3.772211,52.511213],[-3.772457,52.511157],[-3.772658,52.511115],[-3.772814,52.511088],[-3.772925,52.511075],[-3.772992,52.511077],[-3.773073,52.511095],[-3.773167,52.511131],[-3.773275,52.511183],[-3.773396,52.511252],[-3.773525,52.51132],[-3.773661,52.511389],[-3.773804,52.511457],[-3.773954,52.511524],[-3.774122,52.511583],[-3.774308,52.511632],[-3.774511,52.511673],[-3.774732,52.511704],[-3.774965,52.511726],[-3.775209,52.51174],[-3.775466,52.511746],[-3.775735,52.511743],[-3.776016,52.511716],[-3.77631,52.511663],[-3.776617,52.511587],[-3.776936,52.511485],[-3.77721,52.51137],[-3.777438,52.51124],[-3.777621,52.511096],[-3.777758,52.510938],[-3.777864,52.510762],[-3.777937,52.510568],[-3.777979,52.510357],[-3.777988,52.510129],[-3.777993,52.509904],[-3.777993,52.509684],[-3.777989,52.509467],[-3.77798,52.509255],[-3.777921,52.509075],[-3.777809,52.508928],[-3.777647,52.508814],[-3.777434,52.508732],[-3.777242,52.508655],[-3.777073,52.508583],[-3.776925,52.508514],[-3.7768,52.508451],[-3.776702,52.508384],[-3.776633,52.508314],[-3.776592,52.508241],[-3.77658,52.508164],[-3.776628,52.508075],[-3.776736,52.507973],[-3.776905,52.507859],[-3.777134,52.507733],[-3.777342,52.507648],[-3.777527,52.507605],[-3.777691,52.507604],[-3.777833,52.507644],[-3.778029,52.507673],[-3.778281,52.50769],[-3.778587,52.507695],[-3.778948,52.507688],[-3.779229,52.507668],[-3.779429,52.507634],[-3.779548,52.507586],[-3.779587,52.507524],[-3.779606,52.507455],[-3.779605,52.507377],[-3.779584,52.50729],[-3.779542,52.507196],[-3.7795,52.507098],[-3.779458,52.506999],[-3.779415,52.506897],[-3.779373,52.506793],[-3.779338,52.506709],[-3.779312,52.506644],[-3.779294,52.506599],[-3.779284,52.506575],[-3.779307,52.506524],[-3.779364,52.506448],[-3.779454,52.506345],[-3.779577,52.506217],[-3.779739,52.506099],[-3.779938,52.505989],[-3.780176,52.505889],[-3.780451,52.505799],[-3.78069,52.50572],[-3.780891,52.505654],[-3.781056,52.5056],[-3.781184,52.505558],[-3.781305,52.505488],[-3.781421,52.50539],[-3.78153,52.505264],[-3.781634,52.505109],[-3.781698,52.504979],[-3.781723,52.504873],[-3.781708,52.504791],[-3.781655,52.504734],[-3.781591,52.50467],[-3.781516,52.504601],[-3.781431,52.504525],[-3.781335,52.504444],[-3.781227,52.504382],[-3.781109,52.504339],[-3.78098,52.504315],[-3.78084,52.504311],[-3.78071,52.504243],[-3.780591,52.504113],[-3.780483,52.503921],[-3.780385,52.503666],[-3.780288,52.503437],[-3.780191,52.503233],[-3.780096,52.503056],[-3.780001,52.502905],[-3.779932,52.502731],[-3.779889,52.502535],[-3.779872,52.502317],[-3.779881,52.502076],[-3.779867,52.501839],[-3.77983,52.501606],[-3.77977,52.501377],[-3.779687,52.501152],[-3.779573,52.500967],[-3.779427,52.50082],[-3.779249,52.500713],[-3.77904,52.500645],[-3.778803,52.500591],[-3.778539,52.500551],[-3.778246,52.500524],[-3.777926,52.500512],[-3.77758,52.500538],[-3.777208,52.500603],[-3.77681,52.500706],[-3.776387,52.500848],[-3.776023,52.500957],[-3.775718,52.501031],[-3.775474,52.501072],[-3.775288,52.50108],[-3.775098,52.501088],[-3.774901,52.501097],[-3.774699,52.501106],[-3.774492,52.501116],[-3.774315,52.50116],[-3.77417,52.501237],[-3.774056,52.501348],[-3.773973,52.501493],[-3.773889,52.501626],[-3.773806,52.501748],[-3.773723,52.501858],[-3.773639,52.501956],[-3.77355,52.502061],[-3.773457,52.502171],[-3.773358,52.502288],[-3.773254,52.50241],[-3.773114,52.502499],[-3.772941,52.502553],[-3.772732,52.502573],[-3.772488,52.50256],[-3.772223,52.502544],[-3.771936,52.502528],[-3.771629,52.502511],[-3.7713,52.502492],[-3.770965,52.502504],[-3.770624,52.502547],[-3.770277,52.502622],[-3.769923,52.502727],[-3.769648,52.502816],[-3.769452,52.50289],[-3.769333,52.502948],[-3.769293,52.50299],[-3.769241,52.503043],[-3.76918,52.503107],[-3.769107,52.503182],[-3.769024,52.503268],[-3.768887,52.503372],[-3.768694,52.503493],[-3.768447,52.503632],[-3.768145,52.503788],[-3.767889,52.503903],[-3.767678,52.503977],[-3.767513,52.504011],[-3.767393,52.504003],[-3.767287,52.504007],[-3.767196,52.504021],[-3.767118,52.504047],[-3.767053,52.504083],[-3.767002,52.504112],[-3.766962,52.504135],[-3.766934,52.50415],[-3.766919,52.504159],[-3.766907,52.504167],[-3.766898,52.504174],[-3.766893,52.50418],[-3.766892,52.504186],[-3.766883,52.504218],[-3.766866,52.504277],[-3.766842,52.504362],[-3.766811,52.504474],[-3.766793,52.504577],[-3.766789,52.504671],[-3.7668,52.504755],[-3.766823,52.504831],[-3.766795,52.504964],[-3.766715,52.505154],[-3.766583,52.505403],[-3.766399,52.505709],[-3.76619,52.505964],[-3.765956,52.506169],[-3.765697,52.506324],[-3.765414,52.506428],[-3.765169,52.506502],[-3.764962,52.506547],[-3.764793,52.506561],[-3.764662,52.506546],[-3.764506,52.506528],[-3.764323,52.506506],[-3.764115,52.506482],[-3.76388,52.506455],[-3.763669,52.506404],[-3.76348,52.506331],[-3.763314,52.506236],[-3.763171,52.506117],[-3.762994,52.506074],[-3.762781,52.506106],[-3.762534,52.506213],[-3.762252,52.506395],[-3.762002,52.506531],[-3.761784,52.506621],[-3.761599,52.506664],[-3.761445,52.50666],[-3.761277,52.506666],[-3.761094,52.50668],[-3.760896,52.506703],[-3.760684,52.506735],[-3.760483,52.506762],[-3.760293,52.506785],[-3.760114,52.506803],[-3.759947,52.506817],[-3.7598,52.506799],[-3.759673,52.506749],[-3.759566,52.506667],[-3.759479,52.506554],[-3.759374,52.506436],[-3.759251,52.506314],[-3.75911,52.506188],[-3.75895,52.506058],[-3.758774,52.505926],[-3.758582,52.505791],[-3.758373,52.505654],[-3.758147,52.505515],[-3.757977,52.505411],[-3.757863,52.505341],[-3.757804,52.505305],[-3.757802,52.505303],[-3.75788,52.505222],[-3.75804,52.505059],[-3.758282,52.504817],[-3.758604,52.504494],[-3.758905,52.504248],[-3.759185,52.504079],[-3.759443,52.503988],[-3.759679,52.503973],[-3.759883,52.503943],[-3.760054,52.503896],[-3.760193,52.503834],[-3.7603,52.503755],[-3.76044,52.503678],[-3.760614,52.503605],[-3.760821,52.503534],[-3.761062,52.503466],[-3.761301,52.503372],[-3.761536,52.503251],[-3.761769,52.503105],[-3.761999,52.502932],[-3.762159,52.502747],[-3.76225,52.50255],[-3.762272,52.502342],[-3.762224,52.502121],[-3.762245,52.501909],[-3.762334,52.501706],[-3.762491,52.501512],[-3.762717,52.501326],[-3.762925,52.501205],[-3.763115,52.50115],[-3.763288,52.50116],[-3.763443,52.501235],[-3.763625,52.501323],[-3.763832,52.501425],[-3.764066,52.501541],[-3.764326,52.50167],[-3.764595,52.501758],[-3.764872,52.501805],[-3.765159,52.501812],[-3.765455,52.501777],[-3.765717,52.501723],[-3.765946,52.50165],[-3.766141,52.501558],[-3.766302,52.501446],[-3.766435,52.501347],[-3.76654,52.501262],[-3.766615,52.50119],[-3.766663,52.501131],[-3.766736,52.501103],[-3.766835,52.501105],[-3.76696,52.501136],[-3.767111,52.501199],[-3.767242,52.50125],[-3.767353,52.50129],[-3.767445,52.501319],[-3.767516,52.501337],[-3.767583,52.501323],[-3.767645,52.501276],[-3.767701,52.501196],[-3.767753,52.501084],[-3.767781,52.500964],[-3.767785,52.500837],[-3.767764,52.500704],[-3.76772,52.500563],[-3.767674,52.500435],[-3.767627,52.500321],[-3.767578,52.50022],[-3.767529,52.500133],[-3.767406,52.500058],[-3.767211,52.499994],[-3.766943,52.499942],[-3.766602,52.499902],[-3.766297,52.499875],[-3.76603,52.499859],[-3.765799,52.499856],[-3.765605,52.499866],[-3.765348,52.499869],[-3.76503,52.499866],[-3.76465,52.499858],[-3.764207,52.499843],[-3.763791,52.499845],[-3.763403,52.499864],[-3.763042,52.499899],[-3.762708,52.499951],[-3.762397,52.500004],[-3.762107,52.500058],[-3.76184,52.500113],[-3.761594,52.500168],[-3.761334,52.500208],[-3.761057,52.500234],[-3.760765,52.500245],[-3.760457,52.500241],[-3.760218,52.500245],[-3.760047,52.500259],[-3.759944,52.500281],[-3.75991,52.500311],[-3.759812,52.500366],[-3.759651,52.500444],[-3.759426,52.500547],[-3.759138,52.500674],[-3.758843,52.500781],[-3.758543,52.50087],[-3.758236,52.500939],[-3.757924,52.500988],[-3.757583,52.501071],[-3.757215,52.501187],[-3.756818,52.501337],[-3.756394,52.501519],[-3.755986,52.501683],[-3.755595,52.501828],[-3.755219,52.501955],[-3.754859,52.502064],[-3.754515,52.50217],[-3.754187,52.502275],[-3.753874,52.502378],[-3.753578,52.502479],[-3.753294,52.502585],[-3.753022,52.502696],[-3.752764,52.502813],[-3.752518,52.502935],[-3.752259,52.503104],[-3.751989,52.503322],[-3.751706,52.503588],[-3.751411,52.503901],[-3.751155,52.504183],[-3.750939,52.504435],[-3.750763,52.504654],[-3.750625,52.504843],[-3.750477,52.505033],[-3.750319,52.505225],[-3.75015,52.505417],[-3.74997,52.505611],[-3.749652,52.505817],[-3.749196,52.506037],[-3.748602,52.506269],[-3.747869,52.506514],[-3.747214,52.506729],[-3.746638,52.506916],[-3.746141,52.507074],[-3.745721,52.507203],[-3.745347,52.507318],[-3.745018,52.507421],[-3.744734,52.507511],[-3.744494,52.507588],[-3.744303,52.507642],[-3.744159,52.507672],[-3.744063,52.507678],[-3.744015,52.507661],[-3.743836,52.507649],[-3.743527,52.50764],[-3.743088,52.507636],[-3.742519,52.507636],[-3.742066,52.507675],[-3.741729,52.507754],[-3.74151,52.507873],[-3.741406,52.508031],[-3.74133,52.508223],[-3.741281,52.508448],[-3.741259,52.508706],[-3.741263,52.508998],[-3.741341,52.509245],[-3.741493,52.509446],[-3.741717,52.509603],[-3.742015,52.509714],[-3.742287,52.509829],[-3.742532,52.509947],[-3.742751,52.510067],[-3.742944,52.510191],[-3.743073,52.510322],[-3.743139,52.510461],[-3.743141,52.510607],[-3.74308,52.51076],[-3.743088,52.510925],[-3.743166,52.511102],[-3.743314,52.511291],[-3.74353,52.511492],[-3.743753,52.511642],[-3.743982,52.511741],[-3.744216,52.51179],[-3.744457,52.511789],[-3.744654,52.511786],[-3.744807,52.511781],[-3.744916,52.511775],[-3.744982,52.511768],[-3.7451,52.511754],[-3.745269,52.511734],[-3.745489,52.511708],[-3.745761,52.511677],[-3.746042,52.511654],[-3.746332,52.51164],[-3.746631,52.511635],[-3.746939,52.511639],[-3.747167,52.511719],[-3.747315,52.511874],[-3.747383,52.512106],[-3.74737,52.512413],[-3.74732,52.512668],[-3.747231,52.512871],[-3.747103,52.513022],[-3.746937,52.513121],[-3.746792,52.513234],[-3.746669,52.513362],[-3.746565,52.513503],[-3.746483,52.513659],[-3.746387,52.513787],[-3.746276,52.513886],[-3.746151,52.513957],[-3.746011,52.514],[-3.745837,52.51404],[-3.74563,52.514078],[-3.745389,52.514112],[-3.745115,52.514144],[-3.744867,52.514193],[-3.744647,52.514259],[-3.744454,52.514341],[-3.744288,52.51444],[-3.744147,52.514516],[-3.74403,52.51457],[-3.743937,52.514601],[-3.743869,52.514608],[-3.743808,52.514636],[-3.743754,52.514683],[-3.743707,52.51475],[-3.743667,52.514836],[-3.743604,52.514933],[-3.743517,52.515039],[-3.743408,52.515155],[-3.743275,52.51528],[-3.743128,52.515397],[-3.742966,52.515504],[-3.742791,52.515601],[-3.7426,52.51569],[-3.742421,52.51577],[-3.742253,52.515842],[-3.742166,52.515879],[-3.742158,52.515882]],[[-3.755871,52.511165],[-3.755659,52.510628],[-3.755395,52.50962],[-3.755257,52.509008],[-3.755243,52.508792],[-3.755237,52.508641],[-3.755238,52.508558],[-3.755388,52.508289],[-3.755686,52.507835],[-3.755885,52.50746],[-3.755984,52.507164],[-3.756156,52.507009],[-3.756401,52.506998],[-3.756624,52.507047],[-3.756825,52.507158],[-3.757053,52.507399],[-3.757309,52.507771],[-3.757433,52.508033],[-3.757426,52.508185],[-3.757468,52.508406],[-3.757561,52.508697],[-3.757798,52.508837],[-3.758181,52.508826],[-3.758403,52.508959],[-3.758463,52.509237],[-3.758359,52.509517],[-3.758089,52.5098],[-3.757793,52.510128],[-3.757469,52.510501],[-3.757165,52.510804],[-3.75688,52.511039],[-3.75658,52.511183],[-3.756266,52.511236],[-3.756029,52.51123],[-3.755871,52.511165]]]}}