{"type":"Feature","properties":{"id":"267446","COMMUNE":"South Lanarkshire","PROVINCE":"South Lanarkshire","COUNTRY":"UK","FIREDATE":"2025-03-18 00:00:00","CLASS":"FireSeason","areaHA_geo":91.279},"geometry":{"type":"Polygon","coordinates":[[[-3.586385,55.353],[-3.58657,55.353029],[-3.586788,55.353154],[-3.587038,55.353375],[-3.587902,55.353769],[-3.589379,55.354335],[-3.590678,55.354682],[-3.591799,55.354808],[-3.592657,55.354888],[-3.593252,55.354922],[-3.593717,55.354963],[-3.594053,55.355009],[-3.594445,55.354834],[-3.594891,55.354438],[-3.595102,55.353994],[-3.595078,55.3535],[-3.595235,55.353111],[-3.595574,55.352827],[-3.595733,55.35257],[-3.595712,55.35234],[-3.595848,55.352144],[-3.596141,55.35198],[-3.596857,55.351984],[-3.597994,55.352158],[-3.599302,55.352784],[-3.600781,55.353863],[-3.601898,55.354609],[-3.602652,55.355023],[-3.603317,55.35543],[-3.603892,55.35583],[-3.604344,55.356087],[-3.604675,55.3562],[-3.60509,55.356138],[-3.605592,55.355901],[-3.605732,55.355547],[-3.605511,55.355076],[-3.605325,55.354749],[-3.605175,55.354567],[-3.605353,55.354448],[-3.605858,55.354393],[-3.606312,55.354484],[-3.606714,55.354721],[-3.607041,55.35495],[-3.607291,55.355171],[-3.607919,55.355259],[-3.608924,55.355216],[-3.610168,55.355023],[-3.611652,55.354679],[-3.612607,55.354195],[-3.613032,55.35357],[-3.613421,55.352924],[-3.613774,55.352258],[-3.613719,55.351718],[-3.613256,55.351306],[-3.612675,55.351014],[-3.611974,55.350842],[-3.611198,55.350704],[-3.610346,55.350598],[-3.609628,55.350288],[-3.609042,55.349773],[-3.608404,55.349272],[-3.607712,55.348786],[-3.60692,55.348475],[-3.606029,55.348341],[-3.605205,55.348232],[-3.604448,55.348149],[-3.603582,55.348128],[-3.602605,55.348168],[-3.601942,55.348356],[-3.601592,55.348692],[-3.601021,55.348895],[-3.600229,55.348964],[-3.599908,55.348793],[-3.600057,55.34838],[-3.599973,55.347885],[-3.599658,55.347307],[-3.599469,55.346675],[-3.599407,55.345987],[-3.599321,55.345187],[-3.59921,55.344273],[-3.598737,55.343705],[-3.597903,55.343482],[-3.597457,55.343497],[-3.597399,55.343751],[-3.597253,55.344172],[-3.597018,55.34476],[-3.596706,55.345248],[-3.596316,55.345638],[-3.595915,55.345996],[-3.595503,55.346322],[-3.595214,55.346667],[-3.595049,55.347032],[-3.595304,55.347434],[-3.595979,55.347873],[-3.59642,55.34818],[-3.596626,55.348356],[-3.596995,55.348498],[-3.597528,55.348605],[-3.597784,55.348759],[-3.597766,55.34896],[-3.597588,55.349161],[-3.59725,55.349363],[-3.596833,55.349507],[-3.596339,55.349594],[-3.596015,55.349795],[-3.595861,55.350109],[-3.595724,55.350471],[-3.595603,55.350881],[-3.595387,55.351268],[-3.595075,55.351633],[-3.594737,55.351835],[-3.594372,55.351875],[-3.593996,55.351841],[-3.59361,55.351734],[-3.592976,55.351712],[-3.592095,55.351775],[-3.591037,55.351833],[-3.589802,55.351884],[-3.588606,55.351965],[-3.58745,55.352074],[-3.586509,55.352176],[-3.585785,55.352272],[-3.585321,55.352363],[-3.585118,55.352452],[-3.585336,55.352618],[-3.585973,55.352863],[-3.586385,55.353]]]}}