{"type":"Feature","properties":{"id":"267437","COMMUNE":"Powys","PROVINCE":"Powys","COUNTRY":"UK","FIREDATE":"2025-04-11 10:58:00","FINALDATE":"2025-04-11 13:55:00","CLASS":"FireSeason","areaHA_geo":62.313},"geometry":{"type":"Polygon","coordinates":[[[-3.680978,52.103947],[-3.682592,52.104407],[-3.683713,52.1047],[-3.684341,52.104825],[-3.685194,52.104824],[-3.686273,52.104698],[-3.687086,52.104612],[-3.687631,52.104566],[-3.688201,52.104554],[-3.688796,52.104574],[-3.689509,52.104455],[-3.690341,52.104195],[-3.690936,52.103837],[-3.691294,52.103381],[-3.691733,52.102852],[-3.692252,52.10225],[-3.692418,52.1016],[-3.69223,52.100901],[-3.691827,52.100218],[-3.691207,52.099552],[-3.690789,52.098916],[-3.690571,52.09831],[-3.690512,52.097885],[-3.690613,52.097639],[-3.690199,52.097444],[-3.689271,52.0973],[-3.688478,52.097068],[-3.68782,52.096749],[-3.687346,52.096218],[-3.687057,52.095477],[-3.686445,52.095071],[-3.685511,52.095],[-3.684825,52.095161],[-3.684388,52.095555],[-3.684285,52.096027],[-3.684515,52.096576],[-3.684734,52.097046],[-3.684944,52.097437],[-3.684621,52.097772],[-3.683767,52.098052],[-3.683094,52.098302],[-3.682603,52.098521],[-3.681987,52.098954],[-3.681246,52.099599],[-3.680757,52.100062],[-3.68052,52.100342],[-3.680101,52.100841],[-3.679501,52.101561],[-3.679164,52.102087],[-3.679091,52.10242],[-3.679333,52.102869],[-3.679891,52.103434],[-3.680978,52.103947]]]}}