{"type":"Feature","properties":{"id":"267419","COMMUNE":"Bridgend","PROVINCE":"Bridgend and Neath Port Talbot","COUNTRY":"UK","FIREDATE":"2025-03-15 00:00:00","CLASS":"FireSeason","areaHA_geo":7.455},"geometry":{"type":"Polygon","coordinates":[[[-3.519729,51.61729],[-3.520786,51.617374],[-3.521605,51.617398],[-3.522188,51.617363],[-3.522706,51.617286],[-3.523161,51.617169],[-3.523587,51.617088],[-3.523986,51.617041],[-3.524329,51.616897],[-3.524617,51.616656],[-3.524795,51.616348],[-3.524862,51.615973],[-3.524805,51.615612],[-3.524623,51.615266],[-3.524106,51.615135],[-3.523255,51.615218],[-3.522624,51.615308],[-3.522215,51.615403],[-3.521519,51.615533],[-3.520536,51.615695],[-3.519776,51.615911],[-3.519239,51.616181],[-3.519028,51.616549],[-3.519143,51.617015],[-3.519729,51.61729]]]}}