{"type":"Feature","properties":{"id":"267483","COMMUNE":"Inverness and Nairn","PROVINCE":"Inverness & Nairn and Moray, Badenoch & Strathspey","COUNTRY":"UK","FIREDATE":"2025-04-07 11:32:00","FINALDATE":"2025-04-07 12:29:00","CLASS":"FireSeason","areaHA_geo":30.887},"geometry":{"type":"Polygon","coordinates":[[[-4.407488,57.119443],[-4.407699,57.119497],[-4.407904,57.119533],[-4.408101,57.119549],[-4.408525,57.119599],[-4.409177,57.119682],[-4.409596,57.11981],[-4.409783,57.119983],[-4.410079,57.120163],[-4.410486,57.12035],[-4.410921,57.120457],[-4.411384,57.120483],[-4.411969,57.120334],[-4.412677,57.12001],[-4.413346,57.119619],[-4.413978,57.119161],[-4.414485,57.118872],[-4.414867,57.118752],[-4.415131,57.118878],[-4.415275,57.119249],[-4.415419,57.119556],[-4.415561,57.119799],[-4.415965,57.11998],[-4.416631,57.1201],[-4.417021,57.120244],[-4.417134,57.120412],[-4.417411,57.120601],[-4.41785,57.120811],[-4.41823,57.120807],[-4.41855,57.120591],[-4.418631,57.120278],[-4.418472,57.11987],[-4.418212,57.119478],[-4.417852,57.119105],[-4.41776,57.118502],[-4.417935,57.117668],[-4.41807,57.116852],[-4.418164,57.116054],[-4.418193,57.115456],[-4.418157,57.11506],[-4.418082,57.114622],[-4.417967,57.114144],[-4.417635,57.113781],[-4.417086,57.113532],[-4.416595,57.113496],[-4.416164,57.113673],[-4.41597,57.11403],[-4.416012,57.114568],[-4.415982,57.115134],[-4.41588,57.115726],[-4.415715,57.116158],[-4.415487,57.116429],[-4.41539,57.116763],[-4.415426,57.117159],[-4.415436,57.117552],[-4.415421,57.117941],[-4.415099,57.118216],[-4.41447,57.118376],[-4.413999,57.118481],[-4.413684,57.118528],[-4.41333,57.118355],[-4.412938,57.117959],[-4.412525,57.117449],[-4.412091,57.116826],[-4.41168,57.116167],[-4.411291,57.115474],[-4.411035,57.115031],[-4.410912,57.114838],[-4.410655,57.114699],[-4.410264,57.114613],[-4.409861,57.114587],[-4.409445,57.11462],[-4.409221,57.114748],[-4.409189,57.114971],[-4.409189,57.115217],[-4.409222,57.115484],[-4.409096,57.115712],[-4.408811,57.115898],[-4.408608,57.115927],[-4.408487,57.115799],[-4.408294,57.115672],[-4.408031,57.115546],[-4.407631,57.11559],[-4.407095,57.115805],[-4.406674,57.116039],[-4.406368,57.116293],[-4.406149,57.116588],[-4.406019,57.116926],[-4.405932,57.117161],[-4.405889,57.117295],[-4.406246,57.117876],[-4.407003,57.118903],[-4.407488,57.119443]]]}}