{"type":"Feature","properties":{"id":"267448","COMMUNE":"Scottish Borders","PROVINCE":"Scottish Borders","COUNTRY":"UK","FIREDATE":"2025-04-06 10:53:00","CLASS":"FireSeason","areaHA_geo":19.91},"geometry":{"type":"Polygon","coordinates":[[[-2.889822,55.567391],[-2.889887,55.568155],[-2.889981,55.568724],[-2.890103,55.569097],[-2.890413,55.569661],[-2.890909,55.570417],[-2.891677,55.570864],[-2.892716,55.571003],[-2.893653,55.571117],[-2.89449,55.571206],[-2.895272,55.571319],[-2.895999,55.571454],[-2.896402,55.571641],[-2.89648,55.571878],[-2.896577,55.572079],[-2.896693,55.572242],[-2.897116,55.572304],[-2.897848,55.572264],[-2.898303,55.572042],[-2.898481,55.571638],[-2.898362,55.571089],[-2.897948,55.570395],[-2.897397,55.569663],[-2.896709,55.568893],[-2.896003,55.568352],[-2.89528,55.56804],[-2.894478,55.567772],[-2.893597,55.567547],[-2.892929,55.567212],[-2.892473,55.566768],[-2.891845,55.566465],[-2.891047,55.566301],[-2.890433,55.566417],[-2.890004,55.566811],[-2.889822,55.567391]]]}}