{"type":"Feature","properties":{"id":"267412","COMMUNE":"New Forest","PROVINCE":"Central Hampshire","COUNTRY":"UK","FIREDATE":"2025-03-15 00:00:00","CLASS":"FireSeason","areaHA_geo":3.152},"geometry":{"type":"Polygon","coordinates":[[[-1.690121,50.954326],[-1.690809,50.954855],[-1.691369,50.955185],[-1.691802,50.955315],[-1.692198,50.955419],[-1.692556,50.955499],[-1.692899,50.955396],[-1.693226,50.955112],[-1.693408,50.954803],[-1.693447,50.954471],[-1.6933,50.954138],[-1.692969,50.953804],[-1.692047,50.953743],[-1.690534,50.953955],[-1.690121,50.954326]]]}}