{"type":"Feature","properties":{"id":"267418","COMMUNE":"Bridgend","PROVINCE":"Bridgend and Neath Port Talbot","COUNTRY":"UK","FIREDATE":"2025-03-16 00:00:00","FINALDATE":"2025-03-16 00:00:00","CLASS":"FireSeason","areaHA_geo":6.412},"geometry":{"type":"Polygon","coordinates":[[[-3.512736,51.617873],[-3.51339,51.617989],[-3.513861,51.618141],[-3.514151,51.618331],[-3.514364,51.618482],[-3.514501,51.618594],[-3.514781,51.618625],[-3.515204,51.618575],[-3.515598,51.618386],[-3.515963,51.618056],[-3.516387,51.617751],[-3.516869,51.617471],[-3.517183,51.617187],[-3.517328,51.616899],[-3.517055,51.616635],[-3.516364,51.616397],[-3.515722,51.61632],[-3.515129,51.616405],[-3.514449,51.616372],[-3.513681,51.616222],[-3.513,51.61627],[-3.512403,51.616515],[-3.512181,51.616932],[-3.512333,51.617521],[-3.512736,51.617873]]]}}