{"type":"Feature","properties":{"id":"267467","COMMUNE":"East Ayrshire","PROVINCE":"East Ayrshire and North Ayrshire mainland","COUNTRY":"UK","FIREDATE":"2025-04-10 00:00:00","FINALDATE":"2025-04-10 00:00:00","CLASS":"FireSeason","areaHA_geo":11.181},"geometry":{"type":"Polygon","coordinates":[[[-4.391912,55.265379],[-4.392929,55.265951],[-4.393758,55.266453],[-4.394401,55.266884],[-4.395062,55.267256],[-4.395742,55.267568],[-4.396566,55.267611],[-4.397535,55.267384],[-4.398056,55.267094],[-4.39813,55.26674],[-4.397976,55.266207],[-4.397594,55.265492],[-4.396947,55.26505],[-4.396036,55.26488],[-4.395166,55.264601],[-4.394338,55.264214],[-4.393798,55.263897],[-4.393546,55.263651],[-4.393155,55.263466],[-4.392626,55.263343],[-4.39212,55.263344],[-4.39164,55.263469],[-4.391401,55.263922],[-4.391402,55.264703],[-4.391912,55.265379]]]}}