{"type":"Feature","properties":{"id":"267427","COMMUNE":"Rhondda Cynon Taf","PROVINCE":"Central Valleys","COUNTRY":"UK","FIREDATE":"2025-03-31 00:00:00","CLASS":"FireSeason","areaHA_geo":7.017},"geometry":{"type":"Polygon","coordinates":[[[-3.409223,51.644703],[-3.40949,51.645472],[-3.409934,51.645997],[-3.410557,51.646281],[-3.411107,51.646439],[-3.411583,51.646473],[-3.412168,51.64645],[-3.412861,51.64637],[-3.413449,51.646235],[-3.41393,51.646046],[-3.414202,51.645815],[-3.414263,51.645542],[-3.414033,51.645191],[-3.41351,51.644763],[-3.412984,51.644446],[-3.412456,51.644241],[-3.412055,51.644099],[-3.41178,51.64402],[-3.411005,51.644065],[-3.409728,51.644234],[-3.409223,51.644703]]]}}