{"type":"Feature","properties":{"id":"267403","COMMUNE":"New Forest","PROVINCE":"Central Hampshire","COUNTRY":"UK","FIREDATE":"2025-03-15 00:00:00","FINALDATE":"2025-03-15 00:00:00","CLASS":"FireSeason","areaHA_geo":4.391},"geometry":{"type":"Polygon","coordinates":[[[-1.713717,50.926267],[-1.714756,50.925925],[-1.71577,50.925484],[-1.716759,50.924944],[-1.717415,50.924573],[-1.717739,50.924372],[-1.717985,50.924076],[-1.718154,50.923688],[-1.718131,50.923437],[-1.717914,50.923324],[-1.71761,50.923338],[-1.717217,50.92348],[-1.716869,50.923692],[-1.716566,50.923977],[-1.715951,50.924301],[-1.715025,50.924665],[-1.714396,50.924932],[-1.714064,50.925101],[-1.713672,50.925301],[-1.713222,50.925533],[-1.712821,50.925751],[-1.712471,50.925955],[-1.712522,50.926153],[-1.712972,50.926343],[-1.713717,50.926267]]]}}