{"type":"Feature","properties":{"id":"267470","COMMUNE":"East Dunbartonshire","PROVINCE":"East Dunbartonshire, West Dunbartonshire and Helensburgh & Lomond","COUNTRY":"UK","FIREDATE":"2025-04-02 01:17:00","FINALDATE":"2025-04-02 02:34:00","CLASS":"FireSeason","areaHA_geo":42.698},"geometry":{"type":"Polygon","coordinates":[[[-4.37887,55.956858],[-4.378451,55.957379],[-4.378134,55.957783],[-4.377919,55.958068],[-4.378199,55.958232],[-4.378975,55.958275],[-4.379494,55.958452],[-4.379757,55.958765],[-4.38021,55.959],[-4.380852,55.959155],[-4.381496,55.959196],[-4.382141,55.959123],[-4.382617,55.959068],[-4.382926,55.959033],[-4.38304,55.959184],[-4.382961,55.959519],[-4.382776,55.959769],[-4.382487,55.959932],[-4.382517,55.960247],[-4.382866,55.960714],[-4.383945,55.960942],[-4.385753,55.960932],[-4.387008,55.960887],[-4.387709,55.960807],[-4.389032,55.960592],[-4.390976,55.96024],[-4.392268,55.959709],[-4.39291,55.958999],[-4.393285,55.95836],[-4.393395,55.957793],[-4.393133,55.957169],[-4.392499,55.95649],[-4.39155,55.9561],[-4.390285,55.956],[-4.389011,55.955875],[-4.387728,55.955727],[-4.386985,55.955575],[-4.38678,55.955419],[-4.386286,55.955426],[-4.385502,55.955597],[-4.384946,55.95575],[-4.384616,55.955886],[-4.384161,55.95588],[-4.38358,55.955734],[-4.382717,55.955612],[-4.381569,55.955514],[-4.38076,55.9555],[-4.38029,55.95557],[-4.379811,55.955853],[-4.379324,55.956349],[-4.37887,55.956858]]]}}