{"type":"Feature","properties":{"id":"267477","COMMUNE":"Arran and Cumbrae","PROVINCE":"Lochaber, Skye & Lochalsh, Arran & Cumbrae and Argyll & Bute","COUNTRY":"UK","FIREDATE":"2025-04-10 12:00:00","CLASS":"FireSeason","areaHA_geo":528.237},"geometry":{"type":"Polygon","coordinates":[[[-5.20976,55.625849],[-5.210244,55.625717],[-5.210814,55.625489],[-5.211471,55.625167],[-5.21194,55.62484],[-5.212221,55.624509],[-5.212315,55.624172],[-5.212221,55.623831],[-5.212103,55.623405],[-5.211962,55.622893],[-5.211797,55.622296],[-5.211609,55.621614],[-5.211413,55.620889],[-5.211211,55.62012],[-5.211001,55.619308],[-5.210785,55.618453],[-5.210507,55.617617],[-5.210168,55.616799],[-5.209767,55.615999],[-5.209306,55.615218],[-5.208873,55.614511],[-5.208469,55.613877],[-5.208093,55.613316],[-5.207747,55.61283],[-5.207446,55.612084],[-5.207191,55.61108],[-5.206981,55.609816],[-5.206817,55.608294],[-5.206541,55.606835],[-5.206152,55.605439],[-5.205652,55.604106],[-5.205039,55.602837],[-5.204422,55.601733],[-5.203802,55.600795],[-5.203178,55.600022],[-5.20255,55.599415],[-5.201866,55.598815],[-5.201126,55.598222],[-5.20033,55.597636],[-5.199478,55.597056],[-5.19852,55.596479],[-5.197454,55.595903],[-5.196282,55.595329],[-5.195003,55.594758],[-5.193836,55.594321],[-5.19278,55.594019],[-5.191835,55.593853],[-5.191002,55.593822],[-5.19023,55.59385],[-5.189521,55.593936],[-5.188873,55.59408],[-5.188288,55.594284],[-5.187658,55.594525],[-5.186985,55.594805],[-5.186268,55.595123],[-5.185508,55.59548],[-5.184859,55.595823],[-5.184323,55.596152],[-5.183899,55.596468],[-5.183586,55.59677],[-5.183159,55.597054],[-5.182616,55.597318],[-5.181959,55.597563],[-5.181186,55.597788],[-5.18056,55.598063],[-5.180079,55.598385],[-5.179745,55.598756],[-5.179556,55.599176],[-5.179465,55.599693],[-5.17947,55.60031],[-5.179572,55.601024],[-5.179772,55.601837],[-5.179864,55.602526],[-5.179849,55.603089],[-5.179727,55.603528],[-5.179497,55.603842],[-5.179245,55.604099],[-5.17897,55.604297],[-5.178673,55.604438],[-5.178353,55.604521],[-5.178016,55.604534],[-5.177662,55.604478],[-5.17729,55.604352],[-5.176901,55.604157],[-5.176551,55.604062],[-5.17624,55.604066],[-5.175968,55.604171],[-5.175734,55.604375],[-5.175575,55.604643],[-5.175488,55.604972],[-5.175475,55.605365],[-5.175535,55.60582],[-5.175687,55.606336],[-5.175931,55.606913],[-5.176267,55.607549],[-5.176695,55.608246],[-5.177152,55.608868],[-5.177639,55.609415],[-5.178156,55.609887],[-5.178701,55.610283],[-5.179461,55.610626],[-5.180435,55.610916],[-5.181622,55.611152],[-5.183023,55.611335],[-5.184384,55.611412],[-5.185703,55.611384],[-5.186981,55.611251],[-5.188219,55.611013],[-5.189322,55.610857],[-5.190291,55.610784],[-5.191126,55.610793],[-5.191826,55.610884],[-5.19248,55.611031],[-5.193087,55.611232],[-5.193647,55.611489],[-5.19416,55.611802],[-5.194596,55.61209],[-5.194953,55.612355],[-5.195233,55.612597],[-5.195436,55.612815],[-5.19565,55.613064],[-5.195877,55.613345],[-5.196117,55.613657],[-5.196368,55.614001],[-5.196619,55.614368],[-5.196868,55.614756],[-5.197116,55.615166],[-5.197363,55.615599],[-5.197467,55.615874],[-5.197426,55.615991],[-5.197217,55.616096],[-5.19684,55.616188],[-5.196266,55.61635],[-5.195493,55.616583],[-5.194976,55.616889],[-5.194713,55.617268],[-5.194495,55.617711],[-5.194323,55.618217],[-5.193719,55.618776],[-5.192684,55.619388],[-5.191839,55.619803],[-5.191184,55.620021],[-5.190331,55.62031],[-5.189279,55.620669],[-5.188743,55.621034],[-5.188724,55.621407],[-5.188933,55.621995],[-5.18937,55.622798],[-5.189696,55.623476],[-5.189911,55.624028],[-5.190262,55.624506],[-5.190749,55.62491],[-5.191476,55.625088],[-5.192444,55.62504],[-5.193265,55.624986],[-5.193941,55.624927],[-5.194643,55.624831],[-5.195372,55.624696],[-5.196035,55.624604],[-5.196632,55.624555],[-5.196768,55.624747],[-5.196444,55.625179],[-5.195998,55.625615],[-5.195429,55.626054],[-5.194615,55.626338],[-5.193555,55.626467],[-5.192755,55.626679],[-5.192213,55.626977],[-5.192051,55.627667],[-5.192269,55.628751],[-5.192628,55.629726],[-5.19313,55.630591],[-5.193452,55.631257],[-5.193594,55.631726],[-5.194058,55.632283],[-5.194844,55.632928],[-5.195582,55.63329],[-5.19627,55.633368],[-5.197042,55.633448],[-5.197896,55.63353],[-5.198678,55.633481],[-5.19939,55.633302],[-5.199818,55.63303],[-5.199963,55.632666],[-5.200235,55.632413],[-5.200632,55.632272],[-5.201151,55.632337],[-5.20179,55.632606],[-5.202384,55.632916],[-5.202932,55.633266],[-5.203545,55.633573],[-5.204224,55.633838],[-5.20487,55.633806],[-5.205481,55.633477],[-5.205738,55.63303],[-5.20564,55.632463],[-5.205361,55.631907],[-5.204901,55.631361],[-5.204399,55.630971],[-5.203855,55.630736],[-5.203237,55.630522],[-5.202545,55.630328],[-5.201913,55.630185],[-5.201343,55.630092],[-5.201217,55.62998],[-5.201535,55.629849],[-5.202441,55.629693],[-5.203932,55.629512],[-5.204776,55.629409],[-5.204972,55.629386],[-5.205286,55.629347],[-5.205718,55.629295],[-5.206527,55.629104],[-5.207714,55.628775],[-5.208535,55.628456],[-5.20899,55.628146],[-5.209368,55.627799],[-5.20967,55.627415],[-5.20977,55.626987],[-5.209667,55.626513],[-5.209591,55.626186],[-5.209543,55.626005],[-5.20976,55.625849]]]}}