{"type":"Feature","properties":{"id":"267461","COMMUNE":"Dumfries and Galloway","PROVINCE":"Dumfries & Galloway","COUNTRY":"UK","FIREDATE":"2025-04-01 00:00:00","CLASS":"FireSeason","areaHA_geo":4.512},"geometry":{"type":"Polygon","coordinates":[[[-3.857875,55.447682],[-3.858986,55.447691],[-3.860077,55.447685],[-3.861149,55.447666],[-3.862058,55.447639],[-3.862804,55.447606],[-3.863149,55.44751],[-3.863093,55.447351],[-3.862832,55.447149],[-3.862367,55.446904],[-3.862061,55.44674],[-3.861915,55.446657],[-3.861686,55.446542],[-3.861371,55.446395],[-3.86099,55.446347],[-3.860541,55.446396],[-3.859977,55.446409],[-3.859298,55.446386],[-3.858664,55.446406],[-3.858075,55.446472],[-3.857632,55.446578],[-3.857335,55.446727],[-3.857219,55.44702],[-3.857286,55.447458],[-3.857875,55.447682]]]}}