{"type":"Feature","properties":{"id":"267478","COMMUNE":"Argyll and Bute Mainland","PROVINCE":"Lochaber, Skye & Lochalsh, Arran & Cumbrae and Argyll & Bute","COUNTRY":"UK","FIREDATE":"2025-04-06 11:55:00","FINALDATE":"2025-04-07 03:04:00","CLASS":"FireSeason","areaHA_geo":617.18},"geometry":{"type":"Polygon","coordinates":[[[-5.50466,55.959362],[-5.504382,55.959918],[-5.50443,55.960393],[-5.504804,55.960788],[-5.505574,55.961094],[-5.50674,55.961312],[-5.50751,55.961618],[-5.507885,55.962013],[-5.50817,55.962719],[-5.508365,55.963737],[-5.508103,55.964511],[-5.507382,55.965041],[-5.506819,55.965691],[-5.506412,55.966463],[-5.506343,55.967273],[-5.506614,55.968122],[-5.506815,55.968799],[-5.506947,55.969304],[-5.507699,55.969832],[-5.509072,55.970385],[-5.51041,55.970762],[-5.511712,55.970963],[-5.512592,55.971095],[-5.513049,55.971159],[-5.513527,55.971541],[-5.514025,55.972242],[-5.51415,55.972908],[-5.513902,55.97354],[-5.513929,55.974318],[-5.514231,55.975243],[-5.515361,55.975906],[-5.517319,55.976306],[-5.518877,55.976516],[-5.520034,55.976534],[-5.520899,55.976628],[-5.521471,55.976798],[-5.521948,55.97718],[-5.522332,55.977774],[-5.522601,55.978262],[-5.522756,55.978644],[-5.5231,55.978963],[-5.523634,55.979218],[-5.524583,55.979341],[-5.525945,55.979334],[-5.528328,55.979362],[-5.531731,55.979424],[-5.534149,55.979447],[-5.53558,55.979431],[-5.536919,55.979366],[-5.538167,55.979253],[-5.539224,55.979022],[-5.540089,55.978675],[-5.54057,55.978175],[-5.540665,55.977522],[-5.540639,55.976924],[-5.540491,55.976381],[-5.541433,55.975423],[-5.543465,55.97405],[-5.5449,55.972891],[-5.545739,55.971945],[-5.546631,55.970953],[-5.547577,55.969915],[-5.548028,55.969077],[-5.547986,55.968441],[-5.547942,55.967444],[-5.547896,55.966087],[-5.548463,55.964914],[-5.549644,55.963927],[-5.550684,55.962856],[-5.551583,55.961703],[-5.552026,55.960847],[-5.552015,55.960287],[-5.55172,55.959822],[-5.551139,55.959452],[-5.55079,55.959034],[-5.550673,55.958568],[-5.550507,55.958067],[-5.55029,55.957533],[-5.549452,55.957235],[-5.54799,55.957175],[-5.545989,55.957021],[-5.543446,55.956773],[-5.541926,55.956479],[-5.54143,55.956139],[-5.541613,55.955615],[-5.542476,55.954908],[-5.543164,55.954121],[-5.543676,55.953256],[-5.543916,55.952605],[-5.543883,55.952169],[-5.543615,55.951861],[-5.543112,55.951682],[-5.542398,55.951871],[-5.541473,55.952426],[-5.540897,55.952777],[-5.540669,55.952925],[-5.540065,55.95294],[-5.539083,55.95282],[-5.537607,55.952902],[-5.535638,55.953185],[-5.534938,55.95305],[-5.535505,55.952499],[-5.536278,55.951923],[-5.537256,55.951322],[-5.537956,55.950654],[-5.538377,55.94992],[-5.538709,55.949318],[-5.538949,55.948848],[-5.539465,55.948524],[-5.540255,55.948346],[-5.54074,55.948126],[-5.540921,55.947863],[-5.540795,55.947638],[-5.54036,55.947451],[-5.539588,55.947406],[-5.538478,55.947503],[-5.537437,55.947771],[-5.536466,55.948212],[-5.535308,55.948635],[-5.533964,55.949041],[-5.532822,55.949503],[-5.531882,55.950019],[-5.531097,55.950477],[-5.530468,55.950875],[-5.530333,55.951252],[-5.530692,55.951609],[-5.530536,55.95229],[-5.529865,55.953294],[-5.529058,55.953875],[-5.528115,55.954031],[-5.526918,55.954179],[-5.525466,55.954317],[-5.524189,55.954535],[-5.523087,55.954831],[-5.522188,55.955182],[-5.52149,55.955588],[-5.520454,55.956137],[-5.519081,55.956827],[-5.518246,55.95725],[-5.51795,55.957407],[-5.516925,55.957714],[-5.515169,55.95817],[-5.513787,55.958661],[-5.512778,55.959186],[-5.511727,55.959696],[-5.510634,55.960191],[-5.509878,55.960545],[-5.509461,55.960757],[-5.50891,55.960904],[-5.508226,55.960989],[-5.507693,55.960914],[-5.507311,55.96068],[-5.507074,55.960449],[-5.506982,55.96022],[-5.506401,55.95985],[-5.505334,55.95934],[-5.50466,55.959362]]]}}