{"type":"Feature","properties":{"id":"267496","COMMUNE":"Perth and Kinross","PROVINCE":"Perth & Kinross and Stirling","COUNTRY":"UK","FIREDATE":"2025-04-03 11:13:00","CLASS":"FireSeason","areaHA_geo":2.75},"geometry":{"type":"Polygon","coordinates":[[[-3.555463,56.851808],[-3.555419,56.851747],[-3.555373,56.851694],[-3.555324,56.851649],[-3.555273,56.851611],[-3.555218,56.851582],[-3.555176,56.851533],[-3.555146,56.851465],[-3.555128,56.851378],[-3.555122,56.851271],[-3.555042,56.851161],[-3.554887,56.851047],[-3.554657,56.850929],[-3.554352,56.850807],[-3.554089,56.850682],[-3.553869,56.850554],[-3.553692,56.850423],[-3.553556,56.850289],[-3.553458,56.850167],[-3.553397,56.850058],[-3.553373,56.849961],[-3.553386,56.849877],[-3.553414,56.849774],[-3.553457,56.849654],[-3.553515,56.849516],[-3.553589,56.84936],[-3.553722,56.849239],[-3.553913,56.849154],[-3.554164,56.849104],[-3.554473,56.849089],[-3.554655,56.849021],[-3.554709,56.8489],[-3.554635,56.848726],[-3.554433,56.848498],[-3.554149,56.84839],[-3.553785,56.848401],[-3.553338,56.848533],[-3.552811,56.848784],[-3.552422,56.849005],[-3.552171,56.849198],[-3.552059,56.849361],[-3.552086,56.849494],[-3.552145,56.849605],[-3.552237,56.849693],[-3.552361,56.849759],[-3.552517,56.849802],[-3.552627,56.84985],[-3.552689,56.849902],[-3.552705,56.84996],[-3.552673,56.850023],[-3.552677,56.850108],[-3.552716,56.850217],[-3.552791,56.850348],[-3.552901,56.850503],[-3.553004,56.85063],[-3.5531,56.850729],[-3.553189,56.850801],[-3.55327,56.850846],[-3.55339,56.850923],[-3.553548,56.851031],[-3.553745,56.85117],[-3.553981,56.851341],[-3.554232,56.851488],[-3.554499,56.851611],[-3.554782,56.85171],[-3.555081,56.851786],[-3.555294,56.851827],[-3.555421,56.851834],[-3.555463,56.851808]]]}}