{"type":"Feature","properties":{"id":"267442","COMMUNE":"Northumberland","PROVINCE":"Northumberland","COUNTRY":"UK","FIREDATE":"2025-03-18 14:10:00","FINALDATE":"2025-03-19 12:10:00","CLASS":"FireSeason","areaHA_geo":3.169},"geometry":{"type":"Polygon","coordinates":[[[-1.92704,55.322419],[-1.927349,55.322442],[-1.927591,55.322431],[-1.927765,55.322386],[-1.927871,55.322309],[-1.92791,55.322197],[-1.927971,55.322107],[-1.928052,55.322039],[-1.928155,55.321991],[-1.92828,55.321965],[-1.928414,55.321938],[-1.928559,55.32191],[-1.928713,55.321881],[-1.928877,55.321851],[-1.928983,55.321814],[-1.929032,55.321771],[-1.929022,55.321722],[-1.928955,55.321665],[-1.928862,55.321625],[-1.928743,55.321602],[-1.928598,55.321594],[-1.928428,55.321604],[-1.928291,55.321604],[-1.928187,55.321595],[-1.928117,55.321577],[-1.928081,55.32155],[-1.928064,55.321498],[-1.928066,55.321422],[-1.928088,55.321321],[-1.928129,55.321195],[-1.928163,55.321074],[-1.928191,55.320959],[-1.928213,55.320848],[-1.928229,55.320743],[-1.928277,55.320672],[-1.928357,55.320636],[-1.92847,55.320634],[-1.928615,55.320667],[-1.928743,55.320702],[-1.928854,55.320739],[-1.928946,55.320778],[-1.929022,55.320819],[-1.929086,55.320857],[-1.929139,55.320891],[-1.92918,55.320922],[-1.929211,55.32095],[-1.929241,55.320952],[-1.92927,55.32093],[-1.929299,55.320882],[-1.929328,55.320809],[-1.9294,55.32076],[-1.929516,55.320732],[-1.929676,55.320728],[-1.92988,55.320746],[-1.930028,55.320746],[-1.930118,55.320727],[-1.930152,55.320691],[-1.930129,55.320635],[-1.930089,55.320583],[-1.930031,55.320533],[-1.929956,55.320485],[-1.929864,55.32044],[-1.92978,55.3204],[-1.929705,55.320363],[-1.929637,55.32033],[-1.929578,55.320302],[-1.929496,55.320276],[-1.929391,55.320252],[-1.929264,55.32023],[-1.929113,55.32021],[-1.928978,55.320174],[-1.92886,55.320121],[-1.928758,55.320051],[-1.928672,55.319964],[-1.92857,55.319918],[-1.928452,55.319913],[-1.928318,55.319949],[-1.928168,55.320026],[-1.928025,55.320077],[-1.927891,55.320101],[-1.927764,55.3201],[-1.927646,55.320072],[-1.927543,55.32007],[-1.927456,55.320095],[-1.927385,55.320147],[-1.92733,55.320226],[-1.927269,55.320299],[-1.927202,55.320365],[-1.92713,55.320425],[-1.927052,55.320479],[-1.92698,55.320537],[-1.926915,55.320599],[-1.926857,55.320664],[-1.926805,55.320734],[-1.926758,55.320797],[-1.926715,55.320854],[-1.926677,55.320904],[-1.926643,55.320949],[-1.926612,55.321004],[-1.926585,55.321069],[-1.92656,55.321145],[-1.926539,55.321231],[-1.92652,55.321306],[-1.926503,55.321371],[-1.926488,55.321424],[-1.926476,55.321466],[-1.926479,55.321505],[-1.926498,55.321541],[-1.926532,55.321574],[-1.926582,55.321603],[-1.926614,55.321671],[-1.926629,55.321778],[-1.926626,55.321924],[-1.926606,55.322109],[-1.926668,55.322253],[-1.926813,55.322356],[-1.92704,55.322419]]]}}