{"type":"Feature","properties":{"id":"267422","COMMUNE":"Bridgend","PROVINCE":"Bridgend and Neath Port Talbot","COUNTRY":"UK","FIREDATE":"2025-02-26 00:00:00","CLASS":"FireSeason","areaHA_geo":2.613},"geometry":{"type":"Polygon","coordinates":[[[-3.524221,51.59865],[-3.52424,51.599139],[-3.524266,51.599509],[-3.524298,51.599757],[-3.524401,51.599958],[-3.524576,51.60011],[-3.524708,51.600228],[-3.524797,51.60031],[-3.52498,51.600276],[-3.525256,51.600124],[-3.52545,51.599915],[-3.525563,51.59965],[-3.525719,51.599312],[-3.525917,51.598904],[-3.526015,51.598554],[-3.526013,51.598262],[-3.525929,51.598019],[-3.525763,51.597826],[-3.525546,51.597712],[-3.525278,51.597676],[-3.524911,51.597845],[-3.524445,51.598219],[-3.524221,51.59865]]]}}