{"type":"Feature","properties":{"id":"267458","COMMUNE":"Dumfries and Galloway","PROVINCE":"Dumfries & Galloway","COUNTRY":"UK","FIREDATE":"2025-04-01 00:00:00","FINALDATE":"2025-04-01 00:00:00","CLASS":"FireSeason","areaHA_geo":24.381},"geometry":{"type":"Polygon","coordinates":[[[-3.883781,55.449043],[-3.884239,55.449115],[-3.885007,55.448989],[-3.886084,55.448665],[-3.8874,55.448253],[-3.888956,55.447754],[-3.89038,55.447238],[-3.891672,55.446707],[-3.892752,55.446188],[-3.893621,55.445683],[-3.894454,55.445437],[-3.895253,55.445451],[-3.895989,55.445441],[-3.896663,55.445407],[-3.897319,55.445221],[-3.897958,55.444885],[-3.898285,55.444583],[-3.898298,55.444316],[-3.898177,55.444074],[-3.89792,55.443857],[-3.897621,55.443727],[-3.897281,55.443683],[-3.896902,55.443735],[-3.896485,55.443884],[-3.896135,55.444015],[-3.89585,55.444128],[-3.895423,55.444247],[-3.894853,55.444372],[-3.894516,55.444338],[-3.894412,55.444145],[-3.894287,55.443944],[-3.894141,55.443736],[-3.893561,55.44378],[-3.892547,55.444076],[-3.891953,55.444336],[-3.89178,55.44456],[-3.891158,55.444792],[-3.890088,55.445034],[-3.889335,55.44525],[-3.888897,55.445442],[-3.888473,55.445621],[-3.888064,55.445789],[-3.887553,55.44603],[-3.886942,55.446343],[-3.886386,55.44666],[-3.885886,55.446981],[-3.885525,55.447134],[-3.885302,55.447117],[-3.88509,55.446926],[-3.884889,55.446561],[-3.884392,55.446279],[-3.883601,55.446081],[-3.883114,55.446032],[-3.882934,55.446134],[-3.882771,55.446183],[-3.882625,55.446179],[-3.882375,55.446186],[-3.88202,55.446205],[-3.881749,55.446153],[-3.881562,55.446031],[-3.881347,55.445779],[-3.881104,55.445397],[-3.88094,55.445089],[-3.880857,55.444853],[-3.88068,55.444709],[-3.880409,55.444657],[-3.880169,55.444745],[-3.879961,55.444973],[-3.879853,55.44523],[-3.879846,55.445517],[-3.879933,55.445813],[-3.880114,55.44612],[-3.88043,55.446351],[-3.880881,55.446505],[-3.881371,55.446665],[-3.881899,55.446831],[-3.882211,55.44695],[-3.882308,55.447021],[-3.882413,55.447111],[-3.882524,55.447222],[-3.882538,55.447465],[-3.882454,55.447842],[-3.882412,55.448235],[-3.882412,55.448643],[-3.882697,55.448888],[-3.883267,55.448967],[-3.883781,55.449043]]]}}