{"type":"Feature","properties":{"id":"267409","COMMUNE":"New Forest","PROVINCE":"Central Hampshire","COUNTRY":"UK","FIREDATE":"2025-03-16 00:00:00","FINALDATE":"2025-03-16 00:00:00","CLASS":"FireSeason","areaHA_geo":4.585},"geometry":{"type":"Polygon","coordinates":[[[-1.727676,50.948363],[-1.728007,50.948475],[-1.728221,50.948629],[-1.728317,50.948824],[-1.728225,50.949053],[-1.727943,50.949316],[-1.727777,50.94953],[-1.727726,50.949696],[-1.727683,50.949891],[-1.727647,50.950114],[-1.727539,50.95033],[-1.72736,50.950538],[-1.727266,50.950716],[-1.727257,50.950863],[-1.727398,50.950959],[-1.727688,50.951002],[-1.727983,50.950928],[-1.728283,50.950737],[-1.728466,50.950499],[-1.728533,50.950214],[-1.728544,50.949986],[-1.728501,50.949815],[-1.728601,50.949615],[-1.728844,50.949385],[-1.729163,50.949221],[-1.729556,50.949122],[-1.729845,50.949114],[-1.730029,50.949198],[-1.729982,50.949378],[-1.729704,50.949655],[-1.729591,50.94985],[-1.729643,50.949962],[-1.729946,50.950011],[-1.730501,50.949998],[-1.73091,50.949869],[-1.731172,50.949623],[-1.731261,50.949379],[-1.731177,50.949139],[-1.730948,50.948929],[-1.730576,50.948747],[-1.73025,50.948517],[-1.72997,50.948239],[-1.729601,50.947976],[-1.729142,50.947731],[-1.72877,50.947637],[-1.728482,50.947696],[-1.728132,50.94787],[-1.727718,50.948161],[-1.727676,50.948363]]]}}