{"type":"Feature","properties":{"id":"267433","COMMUNE":"Powys","PROVINCE":"Powys","COUNTRY":"UK","FIREDATE":"2025-03-16 00:00:00","CLASS":"FireSeason","areaHA_geo":47.339},"geometry":{"type":"Polygon","coordinates":[[[-3.613122,51.866833],[-3.614146,51.867121],[-3.615049,51.867642],[-3.615832,51.868398],[-3.616615,51.868798],[-3.6174,51.868842],[-3.618303,51.868737],[-3.619326,51.868482],[-3.619768,51.867769],[-3.61963,51.866599],[-3.619614,51.865651],[-3.619722,51.864927],[-3.620063,51.864243],[-3.620636,51.863599],[-3.620708,51.862845],[-3.620277,51.86198],[-3.619717,51.861232],[-3.619028,51.860601],[-3.61776,51.860325],[-3.615913,51.860405],[-3.613922,51.860825],[-3.611787,51.861582],[-3.61058,51.862045],[-3.610301,51.862214],[-3.610134,51.862386],[-3.610078,51.862562],[-3.61069,51.86366],[-3.61197,51.86568],[-3.613122,51.866833]]]}}