{"type":"Feature","properties":{"id":"267508","COMMUNE":"Perth and Kinross","PROVINCE":"Perth & Kinross and Stirling","COUNTRY":"UK","FIREDATE":"2025-04-08 10:34:00","CLASS":"FireSeason","areaHA_geo":0.285},"geometry":{"type":"Polygon","coordinates":[[[-3.450595,56.850447],[-3.450289,56.850257],[-3.450014,56.850143],[-3.44977,56.850104],[-3.449556,56.850139],[-3.449372,56.85025],[-3.449357,56.850353],[-3.449509,56.850447],[-3.44983,56.850534],[-3.450319,56.850613],[-3.45061,56.850625],[-3.450701,56.850569],[-3.450595,56.850447]]]}}