{"type":"Feature","properties":{"id":"267532","COMMUNE":"Perth and Kinross","PROVINCE":"Perth & Kinross and Stirling","COUNTRY":"UK","FIREDATE":"2025-03-15 13:01:00","FINALDATE":"2025-03-15 13:50:00","CLASS":"FireSeason","areaHA_geo":0.707},"geometry":{"type":"Polygon","coordinates":[[[-3.936132,56.438767],[-3.936255,56.438799],[-3.936404,56.43879],[-3.936578,56.43874],[-3.936778,56.438649],[-3.936924,56.438542],[-3.937017,56.438418],[-3.937057,56.438278],[-3.937044,56.438121],[-3.936976,56.437984],[-3.936853,56.437867],[-3.936674,56.437769],[-3.936439,56.437691],[-3.936262,56.437652],[-3.936141,56.437653],[-3.936078,56.437693],[-3.936071,56.437773],[-3.93605,56.437861],[-3.936013,56.437956],[-3.935962,56.438059],[-3.935895,56.43817],[-3.935851,56.438269],[-3.935829,56.438355],[-3.935829,56.438429],[-3.935852,56.438491],[-3.935893,56.438555],[-3.935954,56.438623],[-3.936033,56.438693],[-3.936132,56.438767]]]}}