{"type":"Feature","properties":{"id":"267539","COMMUNE":"Perth and Kinross","PROVINCE":"Perth & Kinross and Stirling","COUNTRY":"UK","FIREDATE":"2025-03-19 18:42:02.96","CLASS":"FireSeason","areaHA_geo":0.659},"geometry":{"type":"Polygon","coordinates":[[[-3.747611,56.460787],[-3.747802,56.460768],[-3.747899,56.460673],[-3.747903,56.4605],[-3.747813,56.460251],[-3.747702,56.460056],[-3.74757,56.459916],[-3.747418,56.459832],[-3.747246,56.459801],[-3.747081,56.459801],[-3.746923,56.45983],[-3.746771,56.459889],[-3.746627,56.459977],[-3.74655,56.460077],[-3.746538,56.460187],[-3.746593,56.460309],[-3.746715,56.460442],[-3.746877,56.460556],[-3.747081,56.460651],[-3.747325,56.460728],[-3.747611,56.460787]]]}}