{"type":"Feature","properties":{"id":"267516","COMMUNE":"Angus","PROVINCE":"Angus and Dundee City","COUNTRY":"UK","FIREDATE":"2025-03-15 12:10:00","FINALDATE":"2025-03-15 13:50:00","CLASS":"FireSeason","areaHA_geo":14.829},"geometry":{"type":"Polygon","coordinates":[[[-3.300379,56.779894],[-3.300564,56.780179],[-3.300899,56.780294],[-3.301383,56.780239],[-3.302016,56.780012],[-3.3025,56.779779],[-3.302834,56.779537],[-3.303019,56.779288],[-3.303054,56.779032],[-3.303196,56.778839],[-3.303444,56.77871],[-3.303799,56.778645],[-3.30426,56.778643],[-3.304691,56.778616],[-3.305092,56.778563],[-3.305463,56.778485],[-3.305804,56.778381],[-3.306174,56.778331],[-3.306575,56.778336],[-3.307005,56.778395],[-3.307465,56.778508],[-3.30787,56.778587],[-3.308222,56.778631],[-3.308519,56.77864],[-3.308762,56.778615],[-3.308825,56.778528],[-3.30871,56.778379],[-3.308415,56.778169],[-3.30794,56.777896],[-3.307534,56.777639],[-3.307197,56.777398],[-3.306929,56.777173],[-3.306729,56.776964],[-3.306797,56.776802],[-3.307134,56.776686],[-3.307739,56.776618],[-3.308613,56.776597],[-3.309199,56.776502],[-3.309496,56.776334],[-3.309504,56.776091],[-3.309224,56.775776],[-3.308902,56.775516],[-3.308536,56.775312],[-3.308127,56.775165],[-3.307675,56.775074],[-3.307298,56.774958],[-3.306996,56.774816],[-3.306769,56.77465],[-3.306617,56.774459],[-3.306422,56.77441],[-3.306182,56.774504],[-3.305899,56.77474],[-3.305571,56.775119],[-3.305347,56.775463],[-3.305226,56.775775],[-3.305209,56.776052],[-3.305296,56.776296],[-3.305249,56.776462],[-3.305071,56.776549],[-3.304759,56.776558],[-3.304315,56.776489],[-3.303927,56.776489],[-3.303594,56.776558],[-3.303318,56.776695],[-3.303097,56.776902],[-3.302843,56.777072],[-3.302554,56.777205],[-3.302231,56.777302],[-3.301875,56.777361],[-3.301542,56.777488],[-3.301232,56.77768],[-3.300946,56.77794],[-3.300684,56.778265],[-3.300496,56.778624],[-3.300383,56.779015],[-3.300344,56.779438],[-3.300379,56.779894]]]}}