{"type":"Feature","properties":{"id":"267593","COMMUNE":"Perth and Kinross","PROVINCE":"Perth & Kinross and Stirling","COUNTRY":"UK","FIREDATE":"2025-04-01 11:28:00","FINALDATE":"2025-04-01 11:28:00","CLASS":"FireSeason","areaHA_geo":9.681},"geometry":{"type":"Polygon","coordinates":[[[-3.770516,56.509264],[-3.770596,56.509366],[-3.770748,56.509431],[-3.770972,56.509461],[-3.771267,56.509455],[-3.771532,56.509438],[-3.771766,56.50941],[-3.771969,56.509372],[-3.772142,56.509322],[-3.772275,56.509272],[-3.772367,56.509219],[-3.77242,56.509166],[-3.772432,56.50911],[-3.772453,56.509054],[-3.772481,56.508998],[-3.772517,56.50894],[-3.772561,56.508881],[-3.772665,56.508852],[-3.77283,56.508851],[-3.773055,56.508878],[-3.77334,56.508935],[-3.773549,56.508958],[-3.773681,56.508949],[-3.773735,56.508908],[-3.773713,56.508833],[-3.773751,56.50877],[-3.773851,56.508718],[-3.774012,56.508678],[-3.774234,56.508649],[-3.774438,56.508619],[-3.774624,56.508587],[-3.774793,56.508554],[-3.774943,56.50852],[-3.775093,56.508476],[-3.775243,56.508421],[-3.775393,56.508356],[-3.775542,56.508281],[-3.775694,56.508223],[-3.775849,56.508182],[-3.776006,56.508158],[-3.776167,56.508151],[-3.776261,56.508133],[-3.77629,56.508105],[-3.776254,56.508065],[-3.776152,56.508015],[-3.776036,56.507952],[-3.775907,56.507878],[-3.775764,56.507791],[-3.775607,56.507693],[-3.775535,56.507629],[-3.775547,56.507599],[-3.775644,56.507604],[-3.775826,56.507643],[-3.775894,56.507622],[-3.775848,56.50754],[-3.775688,56.507397],[-3.775414,56.507193],[-3.775206,56.507053],[-3.775064,56.506978],[-3.774989,56.506966],[-3.77498,56.507018],[-3.774946,56.507072],[-3.774887,56.507127],[-3.774803,56.507183],[-3.774694,56.507241],[-3.774595,56.507289],[-3.774506,56.507327],[-3.774428,56.507354],[-3.77436,56.507372],[-3.774278,56.507379],[-3.774182,56.507377],[-3.774071,56.507364],[-3.773947,56.507342],[-3.773907,56.507316],[-3.773953,56.507287],[-3.774083,56.507254],[-3.774297,56.507218],[-3.774466,56.507174],[-3.774589,56.507121],[-3.774665,56.50706],[-3.774696,56.50699],[-3.774698,56.50692],[-3.774673,56.506851],[-3.77462,56.506782],[-3.77454,56.506714],[-3.774521,56.506661],[-3.774565,56.506621],[-3.774671,56.506596],[-3.774839,56.506586],[-3.775008,56.50655],[-3.775176,56.506488],[-3.775344,56.506401],[-3.775512,56.506288],[-3.77562,56.506245],[-3.775667,56.506272],[-3.775653,56.506369],[-3.775579,56.506536],[-3.77555,56.50669],[-3.775567,56.506832],[-3.775629,56.506961],[-3.775737,56.507078],[-3.775851,56.507179],[-3.775974,56.507266],[-3.776103,56.507338],[-3.77624,56.507395],[-3.776341,56.507404],[-3.776406,56.507365],[-3.776435,56.507278],[-3.776428,56.507143],[-3.776392,56.50704],[-3.776327,56.506971],[-3.776233,56.506933],[-3.77611,56.506928],[-3.776022,56.506907],[-3.775968,56.506867],[-3.775949,56.506811],[-3.775964,56.506738],[-3.776005,56.506676],[-3.77607,56.506627],[-3.776161,56.50659],[-3.776278,56.506564],[-3.776377,56.506537],[-3.776459,56.506508],[-3.776525,56.506476],[-3.776573,56.506443],[-3.776639,56.506424],[-3.776723,56.506418],[-3.776825,56.506427],[-3.776945,56.50645],[-3.77708,56.506468],[-3.777228,56.50648],[-3.777391,56.506487],[-3.777568,56.506488],[-3.777651,56.506513],[-3.777638,56.506562],[-3.777531,56.506635],[-3.777329,56.506731],[-3.777182,56.506831],[-3.777089,56.506936],[-3.777052,56.507045],[-3.77707,56.507158],[-3.777088,56.50726],[-3.777104,56.507351],[-3.77712,56.50743],[-3.777136,56.507497],[-3.777168,56.507559],[-3.777218,56.507613],[-3.777286,56.507662],[-3.777371,56.507704],[-3.77749,56.507733],[-3.777642,56.507748],[-3.777828,56.507751],[-3.778047,56.50774],[-3.778223,56.507696],[-3.778355,56.507619],[-3.778444,56.507509],[-3.77849,56.507366],[-3.778515,56.507226],[-3.778518,56.50709],[-3.778502,56.506957],[-3.778464,56.506828],[-3.778413,56.506714],[-3.77835,56.506616],[-3.778273,56.506533],[-3.778183,56.506466],[-3.77812,56.506407],[-3.778083,56.506355],[-3.778072,56.506312],[-3.778087,56.506278],[-3.778108,56.506239],[-3.778135,56.506198],[-3.778167,56.506154],[-3.778206,56.506106],[-3.778241,56.506058],[-3.778272,56.50601],[-3.7783,56.505961],[-3.778324,56.505912],[-3.778282,56.505866],[-3.778175,56.505821],[-3.778003,56.505778],[-3.777765,56.505737],[-3.777575,56.505726],[-3.777433,56.505745],[-3.777339,56.505794],[-3.777294,56.505873],[-3.777294,56.505932],[-3.77734,56.505969],[-3.777432,56.505985],[-3.77757,56.505981],[-3.777665,56.50599],[-3.777718,56.506014],[-3.777728,56.506052],[-3.777696,56.506104],[-3.777635,56.506149],[-3.777546,56.506185],[-3.777429,56.506214],[-3.777283,56.506235],[-3.77716,56.506238],[-3.77706,56.506225],[-3.776982,56.506194],[-3.776928,56.506146],[-3.776877,56.506087],[-3.77683,56.506016],[-3.776788,56.505934],[-3.776749,56.505841],[-3.776703,56.505784],[-3.776649,56.505763],[-3.776587,56.505778],[-3.776517,56.505829],[-3.776453,56.505854],[-3.776395,56.505854],[-3.776342,56.505828],[-3.776296,56.505777],[-3.77628,56.505726],[-3.776293,56.505674],[-3.776337,56.505623],[-3.776412,56.505571],[-3.776429,56.50552],[-3.77639,56.505471],[-3.776295,56.505422],[-3.776142,56.505374],[-3.775995,56.505359],[-3.775853,56.505377],[-3.775716,56.505428],[-3.775583,56.505511],[-3.775466,56.505588],[-3.775363,56.505658],[-3.775276,56.505721],[-3.775203,56.505778],[-3.775156,56.505833],[-3.775134,56.505887],[-3.775136,56.505939],[-3.775164,56.50599],[-3.775161,56.506039],[-3.775128,56.506088],[-3.775064,56.506135],[-3.774969,56.506181],[-3.774888,56.506206],[-3.774822,56.506209],[-3.77477,56.506191],[-3.774732,56.506151],[-3.774686,56.506105],[-3.774632,56.50605],[-3.774569,56.505988],[-3.774497,56.505919],[-3.774418,56.505868],[-3.774331,56.505833],[-3.774236,56.505817],[-3.774134,56.505817],[-3.774036,56.505839],[-3.773942,56.505881],[-3.773852,56.505944],[-3.773767,56.506027],[-3.773734,56.50609],[-3.773754,56.506133],[-3.773827,56.506155],[-3.773953,56.506157],[-3.774026,56.506172],[-3.774045,56.506199],[-3.774011,56.506239],[-3.773923,56.506292],[-3.773833,56.506341],[-3.77374,56.506386],[-3.773644,56.506426],[-3.773546,56.506462],[-3.773459,56.506498],[-3.773383,56.506533],[-3.773319,56.506567],[-3.773266,56.506601],[-3.773246,56.506641],[-3.773257,56.506686],[-3.773301,56.506736],[-3.773377,56.506792],[-3.773435,56.506848],[-3.773475,56.506906],[-3.773496,56.506964],[-3.773498,56.507022],[-3.773468,56.507051],[-3.773405,56.50705],[-3.773309,56.50702],[-3.77318,56.506959],[-3.773042,56.506899],[-3.772895,56.506839],[-3.772738,56.50678],[-3.772573,56.506721],[-3.772426,56.50667],[-3.772299,56.506627],[-3.772191,56.506593],[-3.772102,56.506566],[-3.772085,56.50654],[-3.772138,56.506514],[-3.772262,56.506488],[-3.772457,56.506462],[-3.772545,56.50644],[-3.772525,56.506423],[-3.772397,56.50641],[-3.772161,56.506402],[-3.771967,56.506423],[-3.771813,56.506473],[-3.7717,56.506552],[-3.771627,56.50666],[-3.771624,56.506759],[-3.77169,56.506851],[-3.771825,56.506935],[-3.772029,56.50701],[-3.772174,56.507097],[-3.772261,56.507195],[-3.77229,56.507305],[-3.772259,56.507426],[-3.772209,56.507497],[-3.772137,56.507519],[-3.772046,56.507491],[-3.771934,56.507414],[-3.771819,56.507357],[-3.771701,56.507321],[-3.771581,56.507305],[-3.771457,56.507311],[-3.771341,56.507369],[-3.771232,56.507479],[-3.771131,56.507642],[-3.771037,56.507857],[-3.771026,56.508025],[-3.771098,56.508145],[-3.771252,56.508219],[-3.77149,56.508244],[-3.771638,56.508295],[-3.771698,56.508371],[-3.77167,56.508471],[-3.771553,56.508596],[-3.77141,56.508699],[-3.771241,56.508779],[-3.771046,56.508835],[-3.770826,56.508869],[-3.770663,56.508929],[-3.770557,56.509015],[-3.770508,56.509126],[-3.770516,56.509264]]]}}