{"type":"Feature","properties":{"id":"267540","COMMUNE":"Perth and Kinross","PROVINCE":"Perth & Kinross and Stirling","COUNTRY":"UK","FIREDATE":"2025-03-19 18:42:18.184","FINALDATE":"2025-03-20 18:42:22.448","CLASS":"FireSeason","areaHA_geo":6.985},"geometry":{"type":"Polygon","coordinates":[[[-3.73027,56.458016],[-3.730118,56.458083],[-3.730032,56.458169],[-3.730011,56.458275],[-3.730057,56.4584],[-3.730175,56.458514],[-3.730367,56.458619],[-3.730633,56.458714],[-3.730972,56.458799],[-3.731263,56.458823],[-3.731506,56.458785],[-3.731701,56.458685],[-3.731848,56.458523],[-3.732009,56.45835],[-3.732184,56.458165],[-3.732374,56.457969],[-3.732577,56.45776],[-3.732667,56.457593],[-3.732643,56.457466],[-3.732505,56.457379],[-3.732254,56.457333],[-3.732109,56.457288],[-3.732071,56.457244],[-3.73214,56.4572],[-3.732315,56.457157],[-3.73245,56.457106],[-3.732547,56.457047],[-3.732603,56.45698],[-3.73262,56.456905],[-3.732665,56.456817],[-3.732739,56.456716],[-3.732841,56.456602],[-3.732971,56.456475],[-3.732964,56.456344],[-3.73282,56.45621],[-3.732539,56.456072],[-3.73212,56.45593],[-3.731875,56.455809],[-3.731801,56.455707],[-3.7319,56.455626],[-3.732172,56.455564],[-3.732305,56.455487],[-3.732301,56.455395],[-3.732159,56.455286],[-3.731879,56.455162],[-3.731632,56.455037],[-3.731417,56.45491],[-3.731235,56.454782],[-3.731086,56.454652],[-3.73096,56.454599],[-3.730858,56.454622],[-3.73078,56.454721],[-3.730727,56.454897],[-3.730665,56.455042],[-3.730596,56.455154],[-3.730519,56.455236],[-3.730434,56.455285],[-3.730348,56.455341],[-3.73026,56.455403],[-3.730171,56.455471],[-3.730081,56.455546],[-3.730064,56.455633],[-3.730122,56.455732],[-3.730254,56.455843],[-3.730461,56.455967],[-3.730526,56.456047],[-3.730451,56.456083],[-3.730236,56.456076],[-3.72988,56.456025],[-3.729534,56.455973],[-3.7292,56.45592],[-3.728875,56.455866],[-3.728562,56.45581],[-3.72825,56.45576],[-3.727941,56.455717],[-3.727634,56.455679],[-3.727329,56.455647],[-3.727098,56.455659],[-3.726943,56.455717],[-3.726862,56.455818],[-3.726857,56.455965],[-3.726826,56.456081],[-3.726769,56.456169],[-3.726687,56.456226],[-3.72658,56.456254],[-3.726507,56.456286],[-3.726469,56.456322],[-3.726465,56.456363],[-3.726496,56.456408],[-3.726599,56.456418],[-3.726772,56.456391],[-3.727017,56.456328],[-3.727334,56.456229],[-3.727562,56.456181],[-3.727702,56.456182],[-3.727754,56.456233],[-3.727717,56.456334],[-3.727773,56.456407],[-3.727921,56.456452],[-3.728162,56.456469],[-3.728495,56.456457],[-3.728831,56.456492],[-3.729168,56.456573],[-3.729508,56.456701],[-3.72985,56.456875],[-3.730134,56.457053],[-3.730362,56.457235],[-3.730532,56.457421],[-3.730645,56.457611],[-3.730675,56.457766],[-3.730623,56.457885],[-3.730488,56.457968],[-3.73027,56.458016]]]}}