{"type":"Feature","properties":{"id":"267575","COMMUNE":"Fermanagh and Omagh","PROVINCE":"Fermanagh and Omagh","COUNTRY":"UK","FIREDATE":"2025-04-11 09:27:33.201","FINALDATE":"2025-04-12 09:27:36.261","CLASS":"FireSeason","areaHA_geo":25.143},"geometry":{"type":"Polygon","coordinates":[[[-7.251546,54.284439],[-7.251703,54.284308],[-7.251847,54.284176],[-7.251979,54.284045],[-7.252098,54.283914],[-7.252205,54.283782],[-7.252292,54.283656],[-7.252359,54.283533],[-7.252406,54.283416],[-7.252433,54.283303],[-7.252495,54.283187],[-7.252591,54.283068],[-7.252722,54.282946],[-7.252888,54.282821],[-7.253012,54.28269],[-7.253094,54.282553],[-7.253135,54.28241],[-7.253134,54.282261],[-7.253155,54.282077],[-7.253196,54.281859],[-7.253259,54.281606],[-7.253343,54.281318],[-7.253411,54.281055],[-7.253463,54.280817],[-7.253499,54.280604],[-7.253519,54.280416],[-7.253552,54.280239],[-7.253597,54.280075],[-7.253656,54.279922],[-7.253727,54.279781],[-7.253739,54.279625],[-7.253691,54.279454],[-7.253584,54.279268],[-7.253417,54.279066],[-7.253121,54.278874],[-7.252696,54.278691],[-7.252142,54.278518],[-7.251459,54.278353],[-7.250927,54.278236],[-7.250547,54.278167],[-7.250319,54.278145],[-7.250242,54.27817],[-7.250159,54.278177],[-7.250069,54.278164],[-7.249973,54.278132],[-7.24987,54.278082],[-7.249753,54.278039],[-7.249623,54.278005],[-7.249479,54.277979],[-7.249321,54.277962],[-7.249187,54.277967],[-7.249078,54.277995],[-7.248991,54.278047],[-7.248929,54.278121],[-7.248838,54.278181],[-7.248716,54.278227],[-7.248566,54.27826],[-7.248386,54.278278],[-7.248253,54.278313],[-7.248165,54.278366],[-7.248124,54.278435],[-7.24813,54.278522],[-7.248161,54.278597],[-7.248216,54.278662],[-7.248297,54.278716],[-7.248403,54.278759],[-7.248506,54.27881],[-7.248607,54.27887],[-7.248705,54.278939],[-7.2488,54.279016],[-7.248905,54.279076],[-7.24902,54.279118],[-7.249145,54.279142],[-7.249279,54.279148],[-7.24938,54.279173],[-7.249448,54.279216],[-7.249484,54.279277],[-7.249486,54.279357],[-7.249443,54.27942],[-7.249353,54.279467],[-7.249218,54.279498],[-7.249037,54.279513],[-7.248864,54.279566],[-7.248699,54.279656],[-7.248542,54.279785],[-7.248394,54.279951],[-7.248253,54.280083],[-7.248119,54.28018],[-7.247993,54.280243],[-7.247873,54.280271],[-7.247704,54.280333],[-7.247486,54.280429],[-7.247217,54.28056],[-7.2469,54.280725],[-7.246655,54.280863],[-7.246484,54.280975],[-7.246385,54.28106],[-7.24636,54.281118],[-7.246346,54.28118],[-7.246343,54.281248],[-7.246352,54.28132],[-7.246372,54.281397],[-7.246326,54.281469],[-7.246214,54.281536],[-7.246035,54.281598],[-7.245791,54.281654],[-7.245622,54.281745],[-7.245531,54.281868],[-7.245517,54.282026],[-7.245579,54.282216],[-7.245575,54.282346],[-7.245504,54.282414],[-7.245366,54.282421],[-7.245161,54.282367],[-7.245005,54.282338],[-7.244898,54.282335],[-7.244839,54.282358],[-7.244828,54.282407],[-7.244944,54.282522],[-7.245187,54.282703],[-7.245557,54.282951],[-7.246054,54.283266],[-7.246482,54.283497],[-7.246843,54.283646],[-7.247135,54.283711],[-7.247359,54.283694],[-7.247565,54.283668],[-7.247753,54.283632],[-7.247923,54.283587],[-7.248076,54.283532],[-7.248262,54.283477],[-7.248481,54.28342],[-7.248735,54.283362],[-7.249023,54.283303],[-7.249316,54.283301],[-7.249614,54.283354],[-7.249918,54.283465],[-7.250226,54.283632],[-7.250442,54.283768],[-7.250566,54.283874],[-7.250596,54.283949],[-7.250534,54.283995],[-7.250422,54.28404],[-7.250261,54.284087],[-7.250049,54.284134],[-7.249788,54.284182],[-7.249555,54.284215],[-7.24935,54.284234],[-7.249173,54.284237],[-7.249024,54.284226],[-7.248879,54.284189],[-7.248737,54.284127],[-7.248599,54.284041],[-7.248463,54.283929],[-7.248345,54.283849],[-7.248243,54.2838],[-7.248157,54.283782],[-7.248088,54.283796],[-7.248058,54.283836],[-7.248068,54.283904],[-7.248118,54.283999],[-7.248207,54.28412],[-7.248251,54.284217],[-7.24825,54.284287],[-7.248204,54.284333],[-7.248112,54.284353],[-7.248048,54.284378],[-7.24801,54.284407],[-7.247999,54.28444],[-7.248015,54.284478],[-7.24808,54.284509],[-7.248193,54.284533],[-7.248355,54.284549],[-7.248566,54.284559],[-7.248754,54.284564],[-7.24892,54.284565],[-7.249063,54.28456],[-7.249184,54.28455],[-7.249367,54.284523],[-7.249611,54.284479],[-7.249917,54.284418],[-7.250284,54.284341],[-7.250589,54.284308],[-7.250832,54.284321],[-7.251014,54.284379],[-7.251132,54.284481],[-7.251261,54.284526],[-7.251399,54.284512],[-7.251546,54.284439]]]}}