{"type":"Feature","properties":{"id":"267596","COMMUNE":"Perth and Kinross","PROVINCE":"Perth & Kinross and Stirling","COUNTRY":"UK","FIREDATE":"2025-04-12 12:36:00","CLASS":"FireSeason","areaHA_geo":2.799},"geometry":{"type":"Polygon","coordinates":[[[-3.373786,56.71809],[-3.373501,56.718267],[-3.373394,56.718402],[-3.373465,56.718496],[-3.373714,56.718548],[-3.37392,56.718578],[-3.374083,56.718588],[-3.374204,56.718577],[-3.374281,56.718545],[-3.374381,56.718515],[-3.374504,56.718487],[-3.374651,56.718462],[-3.37482,56.71844],[-3.374958,56.718454],[-3.375065,56.718503],[-3.37514,56.718589],[-3.375183,56.718711],[-3.375269,56.718784],[-3.375397,56.718807],[-3.375567,56.718781],[-3.37578,56.718705],[-3.376013,56.71868],[-3.376266,56.718705],[-3.376539,56.71878],[-3.376832,56.718905],[-3.377091,56.718984],[-3.377315,56.719017],[-3.377506,56.719003],[-3.377662,56.718943],[-3.377782,56.718874],[-3.377865,56.718798],[-3.377913,56.718712],[-3.377924,56.718619],[-3.377928,56.718531],[-3.377925,56.718448],[-3.377916,56.718371],[-3.377899,56.7183],[-3.377804,56.718207],[-3.37763,56.718091],[-3.377377,56.717953],[-3.377044,56.717793],[-3.376695,56.717672],[-3.376329,56.717591],[-3.375946,56.717549],[-3.375546,56.717547],[-3.37513,56.7176],[-3.374698,56.717708],[-3.37425,56.717871],[-3.373786,56.71809]]]}}