{"type":"Feature","properties":{"id":"267506","COMMUNE":"Perth and Kinross","PROVINCE":"Perth & Kinross and Stirling","COUNTRY":"UK","FIREDATE":"2025-04-08 10:34:00","FINALDATE":"2025-04-08 12:38:00","CLASS":"FireSeason","areaHA_geo":2.074},"geometry":{"type":"Polygon","coordinates":[[[-3.44903,56.848268],[-3.449111,56.8483],[-3.449242,56.848313],[-3.449421,56.848307],[-3.44965,56.848284],[-3.449849,56.848236],[-3.450019,56.848165],[-3.45016,56.84807],[-3.450271,56.847952],[-3.450384,56.847889],[-3.4505,56.84788],[-3.450618,56.847927],[-3.450738,56.848029],[-3.450953,56.848094],[-3.451264,56.848123],[-3.451669,56.848115],[-3.45217,56.848071],[-3.452501,56.847983],[-3.452663,56.847851],[-3.452656,56.847677],[-3.45248,56.847459],[-3.452192,56.847298],[-3.451792,56.847195],[-3.45128,56.847149],[-3.450656,56.84716],[-3.450182,56.8472],[-3.449858,56.847268],[-3.449683,56.847365],[-3.449658,56.84749],[-3.449571,56.847577],[-3.449421,56.847627],[-3.449209,56.847639],[-3.448935,56.847614],[-3.448756,56.847631],[-3.448672,56.847689],[-3.448684,56.847789],[-3.44879,56.847931],[-3.448878,56.848049],[-3.448948,56.848145],[-3.448998,56.848218],[-3.44903,56.848268]]]}}