{"type":"Feature","properties":{"id":"267534","COMMUNE":"Perth and Kinross","PROVINCE":"Perth & Kinross and Stirling","COUNTRY":"UK","FIREDATE":"2025-03-21 11:34:00","CLASS":"FireSeason","areaHA_geo":2.335},"geometry":{"type":"Polygon","coordinates":[[[-3.889367,56.423998],[-3.889368,56.424088],[-3.889496,56.42413],[-3.889751,56.424123],[-3.890132,56.424068],[-3.890442,56.424006],[-3.890681,56.423939],[-3.890849,56.423865],[-3.890945,56.423785],[-3.890982,56.423715],[-3.89096,56.423655],[-3.890879,56.423605],[-3.890739,56.423565],[-3.89061,56.42352],[-3.890491,56.423471],[-3.890384,56.423417],[-3.890287,56.423358],[-3.890285,56.423303],[-3.890379,56.423251],[-3.890569,56.423202],[-3.890853,56.423158],[-3.891069,56.423079],[-3.891216,56.422966],[-3.891294,56.422819],[-3.891303,56.422638],[-3.891195,56.42248],[-3.89097,56.422345],[-3.890628,56.422233],[-3.890169,56.422144],[-3.889815,56.422103],[-3.889566,56.422109],[-3.889423,56.422163],[-3.889385,56.422264],[-3.889291,56.42235],[-3.889141,56.422422],[-3.888936,56.422479],[-3.888676,56.422521],[-3.888567,56.42262],[-3.888611,56.422774],[-3.888808,56.422985],[-3.889156,56.423252],[-3.889387,56.423487],[-3.889498,56.42369],[-3.889492,56.42386],[-3.889367,56.423998]]]}}