{"type":"Feature","properties":{"id":"267583","COMMUNE":"Argyll and Bute Mainland","PROVINCE":"Lochaber, Skye & Lochalsh, Arran & Cumbrae and Argyll & Bute","COUNTRY":"UK","FIREDATE":"2025-04-07 13:18:00","CLASS":"FireSeason","areaHA_geo":13.181},"geometry":{"type":"Polygon","coordinates":[[[-5.13174,55.815291],[-5.131823,55.815347],[-5.131952,55.815382],[-5.132127,55.815395],[-5.132348,55.815387],[-5.13253,55.815395],[-5.132675,55.815417],[-5.132781,55.815454],[-5.13285,55.815506],[-5.132944,55.815536],[-5.133062,55.815542],[-5.133204,55.815526],[-5.133372,55.815487],[-5.133514,55.815464],[-5.133632,55.815455],[-5.133724,55.815461],[-5.133792,55.815482],[-5.133875,55.815494],[-5.133973,55.815497],[-5.134086,55.81549],[-5.134214,55.815475],[-5.134313,55.815474],[-5.134384,55.815487],[-5.134425,55.815515],[-5.134438,55.815557],[-5.134488,55.815582],[-5.134574,55.815588],[-5.134697,55.815576],[-5.134857,55.815547],[-5.135,55.815501],[-5.135127,55.81544],[-5.135237,55.815363],[-5.135331,55.815271],[-5.135406,55.815214],[-5.135462,55.815194],[-5.135498,55.81521],[-5.135514,55.815262],[-5.135521,55.815311],[-5.135518,55.815356],[-5.135506,55.815398],[-5.135484,55.815436],[-5.135474,55.815483],[-5.135478,55.81554],[-5.135495,55.815607],[-5.135524,55.815682],[-5.135568,55.815725],[-5.135626,55.815735],[-5.135698,55.815712],[-5.135784,55.815655],[-5.135848,55.815595],[-5.135892,55.81553],[-5.135914,55.815461],[-5.135916,55.815388],[-5.135936,55.815323],[-5.135975,55.815268],[-5.136034,55.81522],[-5.136112,55.815182],[-5.136176,55.815144],[-5.136224,55.815107],[-5.136259,55.81507],[-5.136278,55.815035],[-5.136313,55.815013],[-5.136365,55.815006],[-5.136432,55.815013],[-5.136514,55.815034],[-5.136585,55.815041],[-5.136643,55.815033],[-5.136689,55.81501],[-5.136723,55.814973],[-5.136796,55.814924],[-5.136909,55.814865],[-5.137061,55.814794],[-5.137253,55.814713],[-5.137389,55.814643],[-5.137471,55.814585],[-5.137498,55.814539],[-5.137469,55.814505],[-5.137427,55.814481],[-5.137371,55.814467],[-5.137302,55.814463],[-5.137219,55.814469],[-5.137126,55.814453],[-5.137024,55.814416],[-5.136913,55.814358],[-5.136792,55.814279],[-5.136721,55.814216],[-5.1367,55.814171],[-5.136728,55.814143],[-5.136805,55.814131],[-5.136887,55.814115],[-5.136974,55.814094],[-5.137066,55.814069],[-5.137162,55.814038],[-5.137255,55.814028],[-5.137346,55.814036],[-5.137435,55.814065],[-5.137521,55.814113],[-5.137581,55.81416],[-5.137615,55.814204],[-5.137624,55.814248],[-5.137606,55.814289],[-5.137616,55.81433],[-5.137651,55.814368],[-5.137713,55.814405],[-5.137801,55.81444],[-5.137918,55.814449],[-5.138062,55.814432],[-5.138234,55.814388],[-5.138433,55.814318],[-5.138585,55.814255],[-5.138689,55.814197],[-5.138746,55.814146],[-5.138754,55.814101],[-5.138829,55.814072],[-5.138968,55.814058],[-5.139174,55.81406],[-5.139445,55.814078],[-5.139673,55.814109],[-5.139859,55.814155],[-5.140001,55.814214],[-5.140101,55.814288],[-5.140188,55.814343],[-5.140262,55.814381],[-5.140324,55.814402],[-5.140374,55.814404],[-5.140417,55.814382],[-5.140455,55.814336],[-5.140487,55.814265],[-5.140513,55.81417],[-5.140539,55.814092],[-5.140565,55.81403],[-5.140592,55.813986],[-5.140618,55.813957],[-5.140628,55.813904],[-5.140624,55.813825],[-5.140604,55.813721],[-5.140568,55.813592],[-5.140519,55.813494],[-5.140458,55.813427],[-5.140383,55.813392],[-5.140296,55.813388],[-5.140219,55.813394],[-5.140153,55.81341],[-5.140097,55.813437],[-5.140052,55.813473],[-5.140029,55.813515],[-5.140029,55.813561],[-5.14005,55.813611],[-5.140094,55.813667],[-5.14012,55.813716],[-5.140128,55.81376],[-5.140118,55.813798],[-5.14009,55.813831],[-5.140053,55.813851],[-5.140007,55.813857],[-5.139952,55.813851],[-5.139889,55.813831],[-5.139842,55.813788],[-5.139812,55.813722],[-5.1398,55.813632],[-5.139804,55.813519],[-5.139854,55.813421],[-5.13995,55.813339],[-5.140092,55.813271],[-5.140281,55.81322],[-5.140433,55.813188],[-5.14055,55.813177],[-5.140631,55.813187],[-5.140676,55.813217],[-5.140727,55.813232],[-5.140783,55.813233],[-5.140844,55.813219],[-5.140911,55.81319],[-5.14098,55.813167],[-5.14105,55.813152],[-5.141122,55.813142],[-5.141195,55.81314],[-5.141274,55.813125],[-5.141359,55.813098],[-5.141449,55.813059],[-5.141544,55.813008],[-5.141619,55.812935],[-5.141673,55.812841],[-5.141707,55.812726],[-5.14172,55.812588],[-5.141697,55.81247],[-5.141638,55.812371],[-5.141542,55.81229],[-5.14141,55.812229],[-5.141272,55.812187],[-5.141127,55.812165],[-5.140976,55.812162],[-5.140819,55.812179],[-5.140708,55.812226],[-5.140643,55.812301],[-5.140623,55.812406],[-5.14065,55.812541],[-5.140652,55.812647],[-5.140631,55.812725],[-5.140585,55.812774],[-5.140515,55.812795],[-5.14043,55.812789],[-5.140332,55.812756],[-5.140219,55.812696],[-5.140092,55.812609],[-5.139948,55.812573],[-5.139789,55.812588],[-5.139612,55.812654],[-5.13942,55.812771],[-5.139263,55.812833],[-5.139143,55.812839],[-5.139058,55.81279],[-5.13901,55.812685],[-5.13894,55.812593],[-5.138849,55.812513],[-5.138737,55.812445],[-5.138604,55.812391],[-5.138443,55.812356],[-5.138255,55.812341],[-5.138039,55.812346],[-5.137796,55.812371],[-5.137608,55.812375],[-5.137477,55.812357],[-5.137401,55.812318],[-5.137381,55.812258],[-5.137331,55.812222],[-5.13725,55.812211],[-5.137139,55.812225],[-5.136998,55.812263],[-5.13687,55.812282],[-5.136757,55.812283],[-5.136658,55.812266],[-5.136573,55.81223],[-5.136476,55.812212],[-5.136365,55.81221],[-5.136242,55.812226],[-5.136106,55.812259],[-5.135931,55.812278],[-5.135717,55.812282],[-5.135463,55.812271],[-5.13517,55.812246],[-5.134938,55.812258],[-5.134766,55.812309],[-5.134654,55.812398],[-5.134604,55.812526],[-5.134539,55.812617],[-5.13446,55.812674],[-5.134368,55.812695],[-5.134262,55.81268],[-5.134178,55.812691],[-5.134115,55.812725],[-5.134074,55.812784],[-5.134054,55.812868],[-5.134042,55.812954],[-5.134037,55.813041],[-5.134039,55.81313],[-5.134049,55.81322],[-5.13406,55.813305],[-5.134074,55.813382],[-5.13409,55.813453],[-5.134107,55.813518],[-5.134115,55.813579],[-5.134113,55.813635],[-5.134101,55.813688],[-5.134079,55.813736],[-5.134055,55.813767],[-5.134028,55.813779],[-5.133999,55.813774],[-5.133968,55.813751],[-5.133929,55.813725],[-5.133883,55.813697],[-5.133829,55.813667],[-5.133768,55.813635],[-5.133693,55.813599],[-5.133605,55.813558],[-5.133502,55.813514],[-5.133387,55.813465],[-5.133297,55.813453],[-5.133235,55.813478],[-5.133198,55.813541],[-5.133189,55.81364],[-5.133186,55.813734],[-5.133189,55.813824],[-5.133199,55.813908],[-5.133215,55.813987],[-5.133256,55.814033],[-5.133322,55.814045],[-5.133413,55.814023],[-5.133529,55.813967],[-5.133638,55.813939],[-5.13374,55.813938],[-5.133835,55.813965],[-5.133924,55.814019],[-5.133946,55.814065],[-5.133901,55.814104],[-5.13379,55.814135],[-5.133613,55.814158],[-5.13348,55.814186],[-5.133389,55.814216],[-5.133342,55.814251],[-5.133338,55.814289],[-5.133313,55.814322],[-5.133267,55.814352],[-5.1332,55.814377],[-5.133111,55.814398],[-5.133031,55.814384],[-5.13296,55.814334],[-5.132896,55.814249],[-5.132842,55.814128],[-5.132772,55.814055],[-5.132687,55.814028],[-5.132587,55.814049],[-5.132473,55.814117],[-5.13238,55.814146],[-5.132311,55.814134],[-5.132264,55.814083],[-5.132239,55.813992],[-5.132178,55.813908],[-5.132081,55.81383],[-5.131947,55.813758],[-5.131776,55.813693],[-5.131665,55.813679],[-5.131614,55.813715],[-5.131623,55.813802],[-5.131692,55.81394],[-5.131782,55.814078],[-5.131894,55.814217],[-5.132028,55.814356],[-5.132183,55.814496],[-5.132252,55.814626],[-5.132233,55.814745],[-5.132128,55.814854],[-5.131935,55.814952],[-5.1318,55.815045],[-5.131723,55.815132],[-5.131703,55.815215],[-5.13174,55.815291]]]}}