{"type":"Feature","properties":{"id":"267567","COMMUNE":"Fermanagh and Omagh","PROVINCE":"Fermanagh and Omagh","COUNTRY":"UK","FIREDATE":"2025-04-11 12:02:00","CLASS":"FireSeason","areaHA_geo":23.696},"geometry":{"type":"Polygon","coordinates":[[[-7.292193,54.273825],[-7.292275,54.273797],[-7.292374,54.273707],[-7.292489,54.273556],[-7.292621,54.273343],[-7.292733,54.27309],[-7.292827,54.272796],[-7.292901,54.272461],[-7.292957,54.272085],[-7.292977,54.271818],[-7.292961,54.271659],[-7.29291,54.271608],[-7.292824,54.271666],[-7.292722,54.271714],[-7.292605,54.271754],[-7.292472,54.271784],[-7.292324,54.271805],[-7.292255,54.271833],[-7.292263,54.271868],[-7.292349,54.27191],[-7.292514,54.271958],[-7.292634,54.272007],[-7.29271,54.272055],[-7.292742,54.272102],[-7.292729,54.27215],[-7.292658,54.272169],[-7.292527,54.272162],[-7.292337,54.272126],[-7.292088,54.272063],[-7.291905,54.271991],[-7.291789,54.271911],[-7.29174,54.271822],[-7.291757,54.271725],[-7.291768,54.271631],[-7.291772,54.271542],[-7.29177,54.271456],[-7.291761,54.271373],[-7.291732,54.271293],[-7.291682,54.271215],[-7.291612,54.271139],[-7.291521,54.271064],[-7.291348,54.271005],[-7.291091,54.270962],[-7.290751,54.270935],[-7.290328,54.270923],[-7.289979,54.270879],[-7.289704,54.270802],[-7.289504,54.270693],[-7.289379,54.270552],[-7.289247,54.270392],[-7.289109,54.270215],[-7.288965,54.270019],[-7.288815,54.269805],[-7.288671,54.269632],[-7.288533,54.2695],[-7.288401,54.269409],[-7.288275,54.269359],[-7.288161,54.269309],[-7.288058,54.269259],[-7.287966,54.269209],[-7.287886,54.26916],[-7.287846,54.269108],[-7.287846,54.269053],[-7.287885,54.268995],[-7.287964,54.268934],[-7.288026,54.26887],[-7.288071,54.2688],[-7.288101,54.268727],[-7.288113,54.268649],[-7.288107,54.268566],[-7.288082,54.268476],[-7.288038,54.268381],[-7.287975,54.26828],[-7.287926,54.268176],[-7.28789,54.268069],[-7.287868,54.26796],[-7.287859,54.267847],[-7.28785,54.26774],[-7.287839,54.267639],[-7.287828,54.267544],[-7.287816,54.267455],[-7.287794,54.267345],[-7.287761,54.267215],[-7.287718,54.267065],[-7.287665,54.266894],[-7.2876,54.266769],[-7.287524,54.266688],[-7.287435,54.266654],[-7.287335,54.266664],[-7.287262,54.266637],[-7.287215,54.266574],[-7.287195,54.266473],[-7.287202,54.266336],[-7.287177,54.266227],[-7.28712,54.266148],[-7.287032,54.266098],[-7.286912,54.266077],[-7.286793,54.266066],[-7.286674,54.266064],[-7.286557,54.266071],[-7.28644,54.266088],[-7.286381,54.266111],[-7.28638,54.266139],[-7.286437,54.266174],[-7.286552,54.266214],[-7.28663,54.266263],[-7.286671,54.26632],[-7.286674,54.266385],[-7.28664,54.266458],[-7.286622,54.266523],[-7.28662,54.26658],[-7.286634,54.266629],[-7.286665,54.26667],[-7.286668,54.266734],[-7.286642,54.266819],[-7.286588,54.266926],[-7.286506,54.267055],[-7.286462,54.267171],[-7.286456,54.267272],[-7.286488,54.26736],[-7.286559,54.267433],[-7.286534,54.26752],[-7.286414,54.267621],[-7.286198,54.267735],[-7.285886,54.267863],[-7.285708,54.267966],[-7.285663,54.268044],[-7.285751,54.268098],[-7.285973,54.268127],[-7.286174,54.268137],[-7.286356,54.268126],[-7.286518,54.268095],[-7.28666,54.268045],[-7.286784,54.268017],[-7.28689,54.268014],[-7.286978,54.268033],[-7.287049,54.268076],[-7.287044,54.268133],[-7.286963,54.268203],[-7.286806,54.268288],[-7.286573,54.268385],[-7.286403,54.268469],[-7.286296,54.268539],[-7.286251,54.268596],[-7.286269,54.268639],[-7.286236,54.268675],[-7.28615,54.268704],[-7.286013,54.268727],[-7.285823,54.268742],[-7.285678,54.268743],[-7.285578,54.268729],[-7.285521,54.2687],[-7.285509,54.268656],[-7.285435,54.268617],[-7.285299,54.268581],[-7.285101,54.268549],[-7.284841,54.268522],[-7.284621,54.268519],[-7.284441,54.268541],[-7.2843,54.268588],[-7.2842,54.268659],[-7.284103,54.268706],[-7.284008,54.268729],[-7.283916,54.268728],[-7.283827,54.268703],[-7.283764,54.268637],[-7.283729,54.26853],[-7.28372,54.268382],[-7.283737,54.268194],[-7.283715,54.268047],[-7.283654,54.267942],[-7.283554,54.267878],[-7.283414,54.267857],[-7.283324,54.267913],[-7.283283,54.268048],[-7.283292,54.268261],[-7.283351,54.268552],[-7.283436,54.268793],[-7.283547,54.268984],[-7.283683,54.269125],[-7.283846,54.269216],[-7.283981,54.269299],[-7.284089,54.269375],[-7.284169,54.269443],[-7.284221,54.269504],[-7.28422,54.269537],[-7.284167,54.269543],[-7.284061,54.269521],[-7.283903,54.269471],[-7.283762,54.269424],[-7.283638,54.269379],[-7.283532,54.269337],[-7.283443,54.269296],[-7.283339,54.269279],[-7.28322,54.269284],[-7.283087,54.269313],[-7.282939,54.269364],[-7.282816,54.269381],[-7.282716,54.269363],[-7.282642,54.26931],[-7.282591,54.269222],[-7.282492,54.269158],[-7.282344,54.269119],[-7.282148,54.269103],[-7.281904,54.269111],[-7.281657,54.26908],[-7.281408,54.269009],[-7.281156,54.268899],[-7.280903,54.268749],[-7.280674,54.268652],[-7.280469,54.268607],[-7.280287,54.268615],[-7.28013,54.268675],[-7.280081,54.26876],[-7.280141,54.268869],[-7.280309,54.269003],[-7.280585,54.269161],[-7.280813,54.269281],[-7.280992,54.269364],[-7.281122,54.269409],[-7.281204,54.269416],[-7.281283,54.269434],[-7.281361,54.269463],[-7.281436,54.269502],[-7.28151,54.269553],[-7.281587,54.269582],[-7.281666,54.269592],[-7.281748,54.269581],[-7.281833,54.26955],[-7.281924,54.26955],[-7.282021,54.269579],[-7.282125,54.269639],[-7.282236,54.26973],[-7.282282,54.269812],[-7.282265,54.269887],[-7.282184,54.269954],[-7.282039,54.270012],[-7.28194,54.270075],[-7.281888,54.270144],[-7.281881,54.270217],[-7.281921,54.270295],[-7.28197,54.270351],[-7.282027,54.270387],[-7.282094,54.270401],[-7.282169,54.270394],[-7.282243,54.270398],[-7.282314,54.270412],[-7.282384,54.270437],[-7.282451,54.270473],[-7.282504,54.270527],[-7.282541,54.2706],[-7.282564,54.270691],[-7.282571,54.270799],[-7.282598,54.270924],[-7.282644,54.271063],[-7.28271,54.271218],[-7.282796,54.271388],[-7.282865,54.271532],[-7.282918,54.271649],[-7.282956,54.271741],[-7.282977,54.271806],[-7.28302,54.27188],[-7.283085,54.271964],[-7.283172,54.272057],[-7.283281,54.272159],[-7.28335,54.272245],[-7.28338,54.272315],[-7.28337,54.272368],[-7.283321,54.272406],[-7.283289,54.272446],[-7.283275,54.27249],[-7.283279,54.272537],[-7.2833,54.272587],[-7.283343,54.272629],[-7.283406,54.272664],[-7.283491,54.272691],[-7.283597,54.27271],[-7.283701,54.272735],[-7.283803,54.272766],[-7.283902,54.272803],[-7.283999,54.272846],[-7.284092,54.272876],[-7.284181,54.272894],[-7.284266,54.272899],[-7.284348,54.272891],[-7.28441,54.272898],[-7.284452,54.272921],[-7.284475,54.272958],[-7.284477,54.273011],[-7.284544,54.273021],[-7.284674,54.27299],[-7.284868,54.272916],[-7.285126,54.272799],[-7.285313,54.272692],[-7.285432,54.272593],[-7.28548,54.272504],[-7.285459,54.272423],[-7.285483,54.272355],[-7.285554,54.272297],[-7.28567,54.272251],[-7.285831,54.272217],[-7.285912,54.272169],[-7.285913,54.272108],[-7.285832,54.272035],[-7.285671,54.271947],[-7.28565,54.271852],[-7.285768,54.271748],[-7.286028,54.271635],[-7.286427,54.271513],[-7.286725,54.271402],[-7.286923,54.271299],[-7.287021,54.271207],[-7.287018,54.271124],[-7.287033,54.271047],[-7.287065,54.270976],[-7.287114,54.270911],[-7.28718,54.270852],[-7.287254,54.270823],[-7.287336,54.270822],[-7.287425,54.270851],[-7.287522,54.27091],[-7.287603,54.270994],[-7.28767,54.271104],[-7.287721,54.27124],[-7.287758,54.271402],[-7.287849,54.2715],[-7.287995,54.271537],[-7.288196,54.27151],[-7.288452,54.27142],[-7.288664,54.271354],[-7.288832,54.271311],[-7.288956,54.271291],[-7.289036,54.271295],[-7.289098,54.271308],[-7.289144,54.27133],[-7.289172,54.271361],[-7.289182,54.271401],[-7.28914,54.271459],[-7.289044,54.271533],[-7.288895,54.271624],[-7.288693,54.271733],[-7.288546,54.271824],[-7.288453,54.271898],[-7.288415,54.271955],[-7.288432,54.271994],[-7.288507,54.272034],[-7.288642,54.272073],[-7.288835,54.272113],[-7.289088,54.272153],[-7.289261,54.272221],[-7.289354,54.272318],[-7.289368,54.272443],[-7.289303,54.272596],[-7.289295,54.27273],[-7.289344,54.272845],[-7.289449,54.27294],[-7.289612,54.273015],[-7.289809,54.273074],[-7.290039,54.273115],[-7.290302,54.273139],[-7.290599,54.273146],[-7.290849,54.273145],[-7.291051,54.273137],[-7.291206,54.273122],[-7.291314,54.273099],[-7.291389,54.273113],[-7.29143,54.273164],[-7.291438,54.273252],[-7.291413,54.273377],[-7.291351,54.273481],[-7.291253,54.273563],[-7.291117,54.273624],[-7.290944,54.273664],[-7.290899,54.273695],[-7.29098,54.273718],[-7.291189,54.273731],[-7.291524,54.273737],[-7.291792,54.273749],[-7.291993,54.273768],[-7.292127,54.273793],[-7.292193,54.273825]]]}}