{"type":"Feature","properties":{"id":"267530","COMMUNE":"Perth and Kinross","PROVINCE":"Perth & Kinross and Stirling","COUNTRY":"UK","FIREDATE":"2025-03-15 12:10:00","CLASS":"FireSeason","areaHA_geo":17.318},"geometry":{"type":"Polygon","coordinates":[[[-3.924153,56.43262],[-3.924317,56.432726],[-3.924497,56.432801],[-3.924692,56.432847],[-3.924904,56.432862],[-3.925131,56.432847],[-3.925327,56.432851],[-3.925491,56.432872],[-3.925624,56.432912],[-3.925726,56.43297],[-3.925857,56.43298],[-3.926018,56.432943],[-3.926208,56.432858],[-3.926428,56.432726],[-3.926635,56.432644],[-3.926829,56.432613],[-3.927011,56.432632],[-3.92718,56.432703],[-3.927341,56.432735],[-3.927495,56.432728],[-3.927642,56.432682],[-3.927781,56.432598],[-3.927938,56.432545],[-3.928113,56.432523],[-3.928307,56.432533],[-3.928519,56.432574],[-3.928696,56.432601],[-3.928839,56.432612],[-3.928947,56.432609],[-3.929021,56.432591],[-3.929125,56.432582],[-3.92926,56.432582],[-3.929424,56.432592],[-3.929619,56.43261],[-3.929863,56.432594],[-3.930158,56.432545],[-3.930503,56.432462],[-3.930899,56.432345],[-3.931217,56.432226],[-3.931459,56.432106],[-3.931625,56.431984],[-3.931714,56.431861],[-3.931805,56.431762],[-3.931898,56.431687],[-3.931994,56.431638],[-3.932092,56.431612],[-3.932155,56.431559],[-3.932184,56.43148],[-3.932179,56.431373],[-3.932138,56.431239],[-3.932148,56.431132],[-3.932208,56.431051],[-3.932318,56.430997],[-3.932478,56.43097],[-3.932584,56.430931],[-3.932638,56.430881],[-3.932637,56.430819],[-3.932584,56.430746],[-3.932506,56.430694],[-3.932406,56.430663],[-3.932281,56.430653],[-3.932133,56.430664],[-3.931988,56.430633],[-3.931845,56.43056],[-3.931704,56.430445],[-3.931565,56.430287],[-3.931436,56.430172],[-3.931316,56.430102],[-3.931206,56.430074],[-3.931104,56.43009],[-3.930959,56.430091],[-3.930771,56.430077],[-3.930539,56.430048],[-3.930263,56.430004],[-3.930043,56.429945],[-3.929877,56.429872],[-3.929767,56.429784],[-3.929711,56.429682],[-3.929615,56.429566],[-3.929479,56.429438],[-3.929302,56.429297],[-3.929084,56.429142],[-3.928891,56.429007],[-3.928723,56.428889],[-3.928579,56.42879],[-3.92846,56.428709],[-3.928324,56.428631],[-3.928172,56.428557],[-3.928002,56.428485],[-3.927816,56.428416],[-3.927642,56.428398],[-3.927479,56.428431],[-3.927329,56.428514],[-3.92719,56.428648],[-3.927055,56.428744],[-3.926925,56.428803],[-3.926798,56.428824],[-3.926676,56.428807],[-3.926568,56.428781],[-3.926474,56.428744],[-3.926394,56.428697],[-3.926329,56.42864],[-3.926241,56.428608],[-3.926131,56.4286],[-3.925998,56.428617],[-3.925844,56.428659],[-3.925736,56.428706],[-3.925675,56.42876],[-3.925661,56.428819],[-3.925694,56.428885],[-3.925677,56.428941],[-3.925609,56.428988],[-3.925491,56.429025],[-3.925322,56.429054],[-3.92517,56.429071],[-3.925034,56.429079],[-3.924915,56.429076],[-3.924811,56.429062],[-3.924704,56.429062],[-3.924592,56.429074],[-3.924476,56.429099],[-3.924356,56.429137],[-3.924267,56.429175],[-3.924209,56.429213],[-3.924183,56.429252],[-3.924189,56.429291],[-3.924171,56.429328],[-3.924131,56.429365],[-3.924068,56.4294],[-3.923982,56.429434],[-3.923957,56.429488],[-3.923992,56.42956],[-3.924089,56.429652],[-3.924246,56.429764],[-3.924394,56.429857],[-3.924534,56.429933],[-3.924665,56.429992],[-3.924787,56.430033],[-3.924948,56.430082],[-3.925148,56.430139],[-3.925387,56.430205],[-3.925664,56.430278],[-3.925837,56.430354],[-3.925907,56.430433],[-3.925872,56.430515],[-3.925733,56.430599],[-3.925563,56.430656],[-3.925364,56.430685],[-3.925134,56.430686],[-3.924874,56.43066],[-3.924708,56.430664],[-3.924635,56.430696],[-3.924655,56.430758],[-3.924769,56.43085],[-3.924899,56.430928],[-3.925044,56.430994],[-3.925204,56.431047],[-3.925379,56.431087],[-3.925545,56.431124],[-3.925701,56.431159],[-3.925847,56.431191],[-3.925983,56.431221],[-3.926143,56.431242],[-3.926326,56.431254],[-3.926533,56.431257],[-3.926764,56.431252],[-3.926917,56.431261],[-3.926993,56.431285],[-3.926991,56.431324],[-3.926912,56.431377],[-3.926806,56.431422],[-3.926672,56.431458],[-3.92651,56.431487],[-3.926321,56.431508],[-3.926238,56.431537],[-3.92626,56.431574],[-3.926388,56.431619],[-3.926623,56.431672],[-3.926726,56.431717],[-3.926699,56.431752],[-3.926541,56.431778],[-3.926252,56.431794],[-3.926026,56.431788],[-3.925863,56.431759],[-3.925763,56.431707],[-3.925727,56.431632],[-3.92566,56.431554],[-3.925564,56.431473],[-3.925437,56.431389],[-3.92528,56.431303],[-3.925074,56.43126],[-3.924819,56.43126],[-3.924516,56.431304],[-3.924163,56.431392],[-3.92389,56.431475],[-3.923695,56.431553],[-3.923578,56.431626],[-3.923541,56.431695],[-3.923469,56.431743],[-3.923364,56.431772],[-3.923224,56.431781],[-3.92305,56.43177],[-3.922903,56.431773],[-3.922784,56.431788],[-3.922691,56.431817],[-3.922626,56.431858],[-3.922648,56.431899],[-3.922756,56.431939],[-3.922952,56.431978],[-3.923234,56.432017],[-3.923462,56.43207],[-3.923634,56.432137],[-3.923751,56.43222],[-3.923814,56.432317],[-3.923902,56.432416],[-3.924015,56.432517],[-3.924153,56.43262]]]}}