{"type":"Feature","properties":{"id":"267538","COMMUNE":"Perth and Kinross","PROVINCE":"Perth & Kinross and Stirling","COUNTRY":"UK","FIREDATE":"2025-03-19 12:34:00","CLASS":"FireSeason","areaHA_geo":0.998},"geometry":{"type":"Polygon","coordinates":[[[-3.769577,56.463856],[-3.769679,56.463974],[-3.76984,56.464054],[-3.770061,56.464095],[-3.77034,56.464098],[-3.770561,56.46408],[-3.770724,56.464042],[-3.770828,56.463984],[-3.770873,56.463907],[-3.770883,56.463833],[-3.770857,56.463762],[-3.770796,56.463696],[-3.7707,56.463633],[-3.770642,56.463553],[-3.77062,56.463454],[-3.770637,56.463337],[-3.77069,56.463201],[-3.770698,56.463061],[-3.77066,56.462915],[-3.770576,56.462764],[-3.770446,56.462608],[-3.770315,56.4625],[-3.770183,56.462442],[-3.770051,56.462432],[-3.769918,56.46247],[-3.769834,56.46252],[-3.769797,56.46258],[-3.769808,56.462652],[-3.769868,56.462735],[-3.769907,56.462832],[-3.769925,56.462943],[-3.769923,56.463069],[-3.7699,56.463209],[-3.769859,56.463317],[-3.769798,56.463392],[-3.769718,56.463435],[-3.769619,56.463446],[-3.769556,56.463493],[-3.769528,56.463577],[-3.769535,56.463698],[-3.769577,56.463856]]]}}