{"type":"Feature","properties":{"id":"267584","COMMUNE":"Argyll and Bute Mainland","PROVINCE":"Lochaber, Skye & Lochalsh, Arran & Cumbrae and Argyll & Bute","COUNTRY":"UK","FIREDATE":"2025-03-18 09:44:29.31","CLASS":"FireSeason","areaHA_geo":43.179},"geometry":{"type":"Polygon","coordinates":[[[-5.13272,55.920301],[-5.132668,55.920073],[-5.132354,55.919801],[-5.131778,55.919484],[-5.13094,55.919121],[-5.130292,55.918851],[-5.129834,55.918672],[-5.129567,55.918585],[-5.129489,55.918589],[-5.129379,55.918577],[-5.129235,55.918547],[-5.129058,55.918501],[-5.128848,55.918437],[-5.128734,55.918371],[-5.128716,55.918302],[-5.128793,55.91823],[-5.128966,55.918155],[-5.129058,55.918074],[-5.129068,55.917986],[-5.128996,55.917893],[-5.128842,55.917793],[-5.128694,55.917731],[-5.128552,55.917706],[-5.128416,55.917719],[-5.128286,55.917769],[-5.128207,55.917786],[-5.128179,55.917769],[-5.128201,55.91772],[-5.128274,55.917637],[-5.128297,55.91755],[-5.12827,55.917457],[-5.128192,55.917359],[-5.128063,55.917257],[-5.127946,55.917171],[-5.12784,55.917103],[-5.127745,55.917051],[-5.127661,55.917017],[-5.127593,55.916978],[-5.127541,55.916935],[-5.127505,55.916888],[-5.127484,55.916836],[-5.127458,55.91679],[-5.127424,55.91675],[-5.127384,55.916716],[-5.127338,55.916687],[-5.127267,55.916653],[-5.127173,55.916615],[-5.127055,55.916573],[-5.126913,55.916526],[-5.126763,55.916475],[-5.126605,55.91642],[-5.126439,55.916361],[-5.126265,55.916299],[-5.126098,55.916199],[-5.125939,55.916063],[-5.125788,55.915891],[-5.125644,55.915682],[-5.125508,55.915515],[-5.12538,55.91539],[-5.125259,55.915307],[-5.125146,55.915266],[-5.124936,55.915236],[-5.124629,55.915216],[-5.124225,55.915207],[-5.123723,55.915208],[-5.123483,55.915191],[-5.123505,55.915157],[-5.123788,55.915104],[-5.124333,55.915034],[-5.124755,55.914959],[-5.125054,55.914879],[-5.12523,55.914794],[-5.125282,55.914704],[-5.125302,55.914613],[-5.125288,55.914521],[-5.12524,55.914428],[-5.125159,55.914335],[-5.125145,55.914253],[-5.125197,55.914182],[-5.125315,55.914124],[-5.125499,55.914077],[-5.125588,55.914035],[-5.125581,55.913996],[-5.12548,55.913961],[-5.125283,55.913931],[-5.125124,55.913897],[-5.125004,55.91386],[-5.124922,55.913819],[-5.124878,55.913775],[-5.124864,55.913733],[-5.124878,55.913691],[-5.124922,55.913652],[-5.124995,55.913613],[-5.125044,55.913568],[-5.125067,55.913516],[-5.125066,55.913457],[-5.12504,55.913392],[-5.12499,55.913326],[-5.124917,55.913261],[-5.124819,55.913197],[-5.124697,55.913133],[-5.124627,55.913062],[-5.12461,55.912985],[-5.124646,55.912902],[-5.124734,55.912813],[-5.124761,55.912757],[-5.124725,55.912734],[-5.124628,55.912745],[-5.124469,55.912788],[-5.124321,55.912815],[-5.124183,55.912824],[-5.124057,55.912816],[-5.123941,55.91279],[-5.123832,55.912726],[-5.12373,55.912622],[-5.123635,55.91248],[-5.123546,55.912298],[-5.123492,55.91215],[-5.123473,55.912034],[-5.123489,55.911951],[-5.12354,55.911901],[-5.123513,55.91185],[-5.123409,55.911798],[-5.123228,55.911746],[-5.122969,55.911693],[-5.122784,55.911642],[-5.122672,55.911591],[-5.122633,55.911542],[-5.122666,55.911493],[-5.122661,55.911435],[-5.122617,55.911367],[-5.122533,55.911288],[-5.12241,55.911199],[-5.122218,55.91117],[-5.121956,55.911198],[-5.121625,55.911286],[-5.121225,55.911433],[-5.120947,55.911566],[-5.120791,55.911685],[-5.120758,55.911791],[-5.120847,55.911884],[-5.1209,55.911972],[-5.120915,55.912057],[-5.120894,55.912137],[-5.120835,55.912213],[-5.120834,55.912282],[-5.120889,55.912344],[-5.121001,55.912399],[-5.12117,55.912448],[-5.121274,55.91249],[-5.121314,55.912524],[-5.12129,55.912552],[-5.121201,55.912572],[-5.121142,55.912602],[-5.121113,55.91264],[-5.121114,55.912686],[-5.121144,55.912742],[-5.121147,55.912805],[-5.121122,55.912877],[-5.12107,55.912957],[-5.12099,55.913046],[-5.120882,55.913127],[-5.120744,55.913203],[-5.120577,55.913272],[-5.120382,55.913335],[-5.120258,55.913395],[-5.120206,55.913453],[-5.120225,55.913509],[-5.120317,55.913562],[-5.120361,55.913625],[-5.12036,55.913699],[-5.120311,55.913784],[-5.120217,55.913879],[-5.120115,55.91394],[-5.120007,55.913968],[-5.119892,55.913962],[-5.119771,55.913923],[-5.119642,55.91389],[-5.119504,55.913865],[-5.119358,55.913847],[-5.119204,55.913836],[-5.119088,55.913852],[-5.119008,55.913896],[-5.118966,55.913968],[-5.11896,55.914067],[-5.118903,55.914157],[-5.118795,55.914239],[-5.118634,55.914312],[-5.118422,55.914377],[-5.118272,55.914457],[-5.118186,55.914551],[-5.118163,55.914659],[-5.118202,55.914783],[-5.118255,55.914873],[-5.118322,55.914932],[-5.118403,55.914958],[-5.118497,55.914951],[-5.118563,55.914929],[-5.118601,55.91489],[-5.11861,55.914835],[-5.118591,55.914763],[-5.118596,55.914705],[-5.118627,55.914659],[-5.118682,55.914627],[-5.118763,55.914607],[-5.118844,55.9146],[-5.118925,55.914605],[-5.119007,55.914622],[-5.119089,55.914652],[-5.119144,55.914693],[-5.119174,55.914746],[-5.119177,55.914811],[-5.119155,55.914887],[-5.119147,55.914958],[-5.119155,55.915024],[-5.119179,55.915084],[-5.119218,55.915138],[-5.119254,55.915163],[-5.119288,55.915159],[-5.119319,55.915126],[-5.119347,55.915064],[-5.119395,55.915039],[-5.119462,55.915054],[-5.119549,55.915106],[-5.119655,55.915197],[-5.119688,55.915287],[-5.119649,55.915378],[-5.119537,55.915469],[-5.119352,55.91556],[-5.119213,55.915643],[-5.11912,55.915718],[-5.119071,55.915786],[-5.119068,55.915845],[-5.119029,55.915886],[-5.118954,55.915907],[-5.118842,55.915909],[-5.118695,55.915892],[-5.118558,55.915885],[-5.118431,55.915888],[-5.118315,55.915901],[-5.118209,55.915924],[-5.11818,55.915955],[-5.118227,55.915996],[-5.11835,55.916047],[-5.11855,55.916107],[-5.118737,55.916141],[-5.118912,55.916149],[-5.119075,55.916132],[-5.119226,55.91609],[-5.119332,55.916074],[-5.119394,55.916087],[-5.119412,55.916126],[-5.119385,55.916194],[-5.119388,55.916251],[-5.11942,55.916299],[-5.119481,55.916337],[-5.119572,55.916366],[-5.119621,55.916395],[-5.119629,55.916426],[-5.119595,55.916459],[-5.11952,55.916492],[-5.119434,55.916509],[-5.119337,55.916508],[-5.119229,55.91649],[-5.119109,55.916455],[-5.119022,55.916463],[-5.118967,55.916514],[-5.118945,55.916608],[-5.118954,55.916745],[-5.118953,55.916859],[-5.118941,55.916952],[-5.118918,55.917022],[-5.118884,55.917071],[-5.118917,55.917122],[-5.119018,55.917176],[-5.119186,55.917234],[-5.119421,55.917294],[-5.119575,55.917357],[-5.119649,55.917422],[-5.119643,55.917489],[-5.119555,55.917559],[-5.119504,55.917642],[-5.11949,55.91774],[-5.119512,55.917852],[-5.11957,55.917978],[-5.119649,55.918073],[-5.119749,55.918137],[-5.11987,55.91817],[-5.120012,55.918173],[-5.120132,55.918158],[-5.120228,55.918124],[-5.120303,55.918072],[-5.120354,55.918002],[-5.120449,55.917957],[-5.120587,55.917938],[-5.120768,55.917945],[-5.120992,55.917977],[-5.121174,55.917992],[-5.121314,55.91799],[-5.121412,55.917971],[-5.121469,55.917935],[-5.121498,55.917876],[-5.121502,55.917794],[-5.121478,55.91769],[-5.121428,55.917563],[-5.121412,55.917465],[-5.121429,55.917397],[-5.12148,55.917357],[-5.121564,55.917347],[-5.121633,55.917378],[-5.121688,55.91745],[-5.121728,55.917564],[-5.121754,55.917718],[-5.121791,55.917847],[-5.12184,55.917949],[-5.121901,55.918025],[-5.121973,55.918076],[-5.122043,55.918108],[-5.12211,55.918122],[-5.122175,55.918118],[-5.122236,55.918096],[-5.122289,55.918096],[-5.122333,55.918118],[-5.122368,55.918161],[-5.122394,55.918227],[-5.122442,55.918283],[-5.122513,55.918329],[-5.122606,55.918364],[-5.122722,55.91839],[-5.122759,55.918428],[-5.122717,55.91848],[-5.122598,55.918545],[-5.122399,55.918623],[-5.12221,55.918679],[-5.122029,55.918713],[-5.121858,55.918725],[-5.121695,55.918715],[-5.121612,55.918733],[-5.121609,55.91878],[-5.121685,55.918856],[-5.12184,55.91896],[-5.121949,55.919058],[-5.122011,55.919149],[-5.122027,55.919233],[-5.121996,55.919311],[-5.122002,55.919379],[-5.122047,55.919438],[-5.122131,55.919487],[-5.122252,55.919526],[-5.122349,55.919532],[-5.122421,55.919504],[-5.122469,55.919441],[-5.122493,55.919345],[-5.122568,55.919278],[-5.122695,55.919241],[-5.122872,55.919233],[-5.123101,55.919255],[-5.12329,55.919248],[-5.123439,55.919213],[-5.123548,55.919149],[-5.123618,55.919057],[-5.12369,55.918972],[-5.123765,55.918894],[-5.123843,55.918824],[-5.123924,55.91876],[-5.123982,55.9187],[-5.124017,55.918644],[-5.12403,55.918592],[-5.12402,55.918544],[-5.123995,55.918486],[-5.123954,55.918417],[-5.123899,55.918337],[-5.123828,55.918247],[-5.123805,55.918177],[-5.12383,55.918128],[-5.123902,55.918098],[-5.124021,55.918089],[-5.124113,55.918103],[-5.124177,55.918142],[-5.124213,55.918206],[-5.124221,55.918294],[-5.124238,55.918382],[-5.124265,55.918473],[-5.124301,55.918564],[-5.124346,55.918657],[-5.124401,55.918742],[-5.124466,55.918818],[-5.124541,55.918885],[-5.124626,55.918944],[-5.124683,55.919023],[-5.124714,55.919123],[-5.124717,55.919243],[-5.124693,55.919384],[-5.124697,55.919507],[-5.12473,55.919614],[-5.124792,55.919704],[-5.124882,55.919777],[-5.124978,55.91984],[-5.125078,55.919895],[-5.125184,55.91994],[-5.125295,55.919976],[-5.125404,55.920029],[-5.125511,55.9201],[-5.125616,55.920188],[-5.125719,55.920294],[-5.125824,55.92037],[-5.12593,55.920416],[-5.126038,55.920433],[-5.126148,55.92042],[-5.126239,55.920416],[-5.126311,55.920422],[-5.126366,55.920438],[-5.126402,55.920463],[-5.126463,55.9205],[-5.126548,55.920549],[-5.126658,55.92061],[-5.126792,55.920682],[-5.126911,55.920738],[-5.127015,55.920777],[-5.127103,55.9208],[-5.127176,55.920806],[-5.127226,55.920822],[-5.127254,55.920848],[-5.127259,55.920885],[-5.127242,55.920931],[-5.127185,55.920977],[-5.127089,55.921023],[-5.126953,55.921069],[-5.126777,55.921115],[-5.126631,55.921169],[-5.126515,55.921232],[-5.126429,55.921304],[-5.126372,55.921385],[-5.126335,55.921458],[-5.126317,55.921524],[-5.126318,55.921583],[-5.126338,55.921635],[-5.126336,55.921697],[-5.126311,55.921769],[-5.126264,55.92185],[-5.126195,55.921943],[-5.126142,55.922031],[-5.126105,55.922117],[-5.126084,55.922199],[-5.12608,55.922279],[-5.126132,55.922303],[-5.126239,55.922273],[-5.126401,55.922188],[-5.12662,55.922049],[-5.12679,55.921922],[-5.126912,55.921806],[-5.126986,55.921702],[-5.127011,55.921611],[-5.127115,55.92151],[-5.127296,55.921399],[-5.127555,55.92128],[-5.127892,55.921151],[-5.128154,55.921061],[-5.128342,55.921012],[-5.128455,55.921002],[-5.128493,55.921032],[-5.1285,55.921068],[-5.128477,55.92111],[-5.128424,55.921158],[-5.128339,55.921213],[-5.128264,55.921297],[-5.128199,55.92141],[-5.128143,55.921554],[-5.128096,55.921727],[-5.128111,55.921871],[-5.128188,55.921988],[-5.128326,55.922076],[-5.128525,55.922135],[-5.128671,55.922168],[-5.128761,55.922175],[-5.128797,55.922155],[-5.128779,55.922108],[-5.1288,55.922067],[-5.128861,55.922032],[-5.128963,55.922004],[-5.129104,55.921982],[-5.129231,55.921987],[-5.129345,55.922017],[-5.129444,55.922074],[-5.129529,55.922158],[-5.129638,55.922204],[-5.129769,55.922213],[-5.129923,55.922184],[-5.1301,55.922119],[-5.130215,55.922059],[-5.130269,55.922006],[-5.130262,55.921959],[-5.130193,55.921918],[-5.130156,55.92187],[-5.130152,55.921814],[-5.13018,55.92175],[-5.13024,55.921679],[-5.130309,55.921631],[-5.130388,55.921607],[-5.130476,55.921606],[-5.130573,55.921629],[-5.130738,55.921589],[-5.130971,55.921488],[-5.131272,55.921324],[-5.131641,55.921097],[-5.13197,55.920882],[-5.13226,55.920677],[-5.13251,55.920483],[-5.13272,55.920301]]]}}