{"type":"Feature","properties":{"id":"267598","COMMUNE":"Rhondda Cynon Taf","PROVINCE":"Central Valleys","COUNTRY":"UK","FIREDATE":"2025-04-09 20:46:00","FINALDATE":"2025-04-10 02:11:00","CLASS":"FireSeason","areaHA_geo":14.897},"geometry":{"type":"Polygon","coordinates":[[[-3.421936,51.653243],[-3.422102,51.653339],[-3.422408,51.653444],[-3.422854,51.653558],[-3.423439,51.653679],[-3.423904,51.653733],[-3.424248,51.65372],[-3.424471,51.653638],[-3.424574,51.653489],[-3.424702,51.653377],[-3.424853,51.653301],[-3.425028,51.653261],[-3.425228,51.653257],[-3.42539,51.653235],[-3.425515,51.653195],[-3.425603,51.653136],[-3.425653,51.653058],[-3.42563,51.652989],[-3.425532,51.652928],[-3.425361,51.652876],[-3.425116,51.652833],[-3.42492,51.65277],[-3.424775,51.652689],[-3.424679,51.652589],[-3.424633,51.652471],[-3.42463,51.652393],[-3.424672,51.652355],[-3.424757,51.652358],[-3.424886,51.652402],[-3.425006,51.652421],[-3.425114,51.652415],[-3.425213,51.652384],[-3.425302,51.652328],[-3.425341,51.652245],[-3.425329,51.652136],[-3.425267,51.651999],[-3.425154,51.651836],[-3.425074,51.651682],[-3.425025,51.651537],[-3.425008,51.651402],[-3.425023,51.651276],[-3.425065,51.651195],[-3.425133,51.651158],[-3.425227,51.651165],[-3.425348,51.651216],[-3.425432,51.651276],[-3.425479,51.651346],[-3.42549,51.651425],[-3.425464,51.651513],[-3.425478,51.651586],[-3.425532,51.651645],[-3.425627,51.65169],[-3.425763,51.65172],[-3.425905,51.651728],[-3.426054,51.651714],[-3.42621,51.651678],[-3.426372,51.65162],[-3.426513,51.651581],[-3.426633,51.65156],[-3.426733,51.651559],[-3.426812,51.651576],[-3.426893,51.651609],[-3.426977,51.651658],[-3.427062,51.651723],[-3.42715,51.651804],[-3.427266,51.651858],[-3.427411,51.651883],[-3.427584,51.651881],[-3.427787,51.651851],[-3.427941,51.651803],[-3.428047,51.651735],[-3.428105,51.651648],[-3.428116,51.651542],[-3.428114,51.65143],[-3.428099,51.651311],[-3.428072,51.651185],[-3.428032,51.651053],[-3.427982,51.650931],[-3.427923,51.65082],[-3.427853,51.650721],[-3.427774,51.650632],[-3.427666,51.650571],[-3.427529,51.650538],[-3.427364,51.650532],[-3.42717,51.650555],[-3.427027,51.65056],[-3.426933,51.650548],[-3.42689,51.650519],[-3.426898,51.650472],[-3.42694,51.65041],[-3.427017,51.650333],[-3.427128,51.65024],[-3.427275,51.650131],[-3.427389,51.65001],[-3.427471,51.649877],[-3.427519,51.649731],[-3.427535,51.649572],[-3.427567,51.649443],[-3.427616,51.649343],[-3.427682,51.649271],[-3.427764,51.649229],[-3.427831,51.649135],[-3.427882,51.648989],[-3.427917,51.64879],[-3.427937,51.64854],[-3.427927,51.648339],[-3.427886,51.648187],[-3.427816,51.648084],[-3.427715,51.64803],[-3.427627,51.647965],[-3.427552,51.647889],[-3.427489,51.647802],[-3.427438,51.647703],[-3.427379,51.64763],[-3.427312,51.647582],[-3.427237,51.64756],[-3.427153,51.647563],[-3.427068,51.647553],[-3.426982,51.647531],[-3.426895,51.647495],[-3.426807,51.647447],[-3.426679,51.647391],[-3.426513,51.647329],[-3.426308,51.647259],[-3.426063,51.647183],[-3.425823,51.647245],[-3.425588,51.647445],[-3.425357,51.647784],[-3.425131,51.648261],[-3.42501,51.648668],[-3.424996,51.649006],[-3.425087,51.649274],[-3.425284,51.649474],[-3.42541,51.64963],[-3.425466,51.649745],[-3.42545,51.649817],[-3.425364,51.649846],[-3.425229,51.649862],[-3.425045,51.649864],[-3.424812,51.649851],[-3.42453,51.649825],[-3.424304,51.649855],[-3.424134,51.64994],[-3.42402,51.65008],[-3.423963,51.650276],[-3.423943,51.650446],[-3.42396,51.650591],[-3.424015,51.650711],[-3.424106,51.650805],[-3.424133,51.650878],[-3.424097,51.650931],[-3.423996,51.650964],[-3.423831,51.650977],[-3.423699,51.650969],[-3.423601,51.650941],[-3.423536,51.650893],[-3.423505,51.650825],[-3.423394,51.650848],[-3.423201,51.650962],[-3.422927,51.651166],[-3.422573,51.651462],[-3.422313,51.651694],[-3.422147,51.651864],[-3.422076,51.65197],[-3.4221,51.652013],[-3.422137,51.652067],[-3.422189,51.652133],[-3.422254,51.65221],[-3.422333,51.652299],[-3.422357,51.652403],[-3.422323,51.652521],[-3.422234,51.652653],[-3.422088,51.652801],[-3.421986,51.652933],[-3.421926,51.653051],[-3.421909,51.653154],[-3.421936,51.653243]]]}}