{"type":"Feature","properties":{"id":"267505","COMMUNE":"Perth and Kinross","PROVINCE":"Perth & Kinross and Stirling","COUNTRY":"UK","FIREDATE":"2025-04-08 10:34:00","FINALDATE":"2025-04-08 12:38:00","CLASS":"FireSeason","areaHA_geo":3.582},"geometry":{"type":"Polygon","coordinates":[[[-3.446097,56.850965],[-3.446198,56.85109],[-3.446368,56.851175],[-3.446608,56.851221],[-3.446917,56.851227],[-3.447213,56.851215],[-3.447495,56.851185],[-3.447765,56.851138],[-3.448021,56.851073],[-3.448193,56.850989],[-3.448281,56.850884],[-3.448285,56.85076],[-3.448205,56.850616],[-3.448103,56.850506],[-3.447979,56.850431],[-3.447832,56.850391],[-3.447662,56.850386],[-3.447507,56.850353],[-3.447366,56.850291],[-3.44724,56.850201],[-3.447128,56.850083],[-3.447099,56.849983],[-3.447153,56.849901],[-3.447291,56.849838],[-3.447511,56.849792],[-3.447621,56.849689],[-3.447619,56.849529],[-3.447507,56.849312],[-3.447282,56.849037],[-3.44701,56.848833],[-3.44669,56.848699],[-3.446321,56.848634],[-3.445904,56.848639],[-3.445559,56.8487],[-3.445287,56.848816],[-3.445087,56.848988],[-3.444959,56.849215],[-3.444913,56.849406],[-3.444948,56.849563],[-3.445065,56.849684],[-3.445263,56.84977],[-3.445416,56.849846],[-3.445523,56.849911],[-3.445585,56.849966],[-3.445601,56.85001],[-3.445602,56.850061],[-3.445588,56.85012],[-3.445559,56.850186],[-3.445515,56.850259],[-3.445518,56.850325],[-3.445568,56.850385],[-3.445664,56.850438],[-3.445806,56.850484],[-3.44592,56.85056],[-3.446007,56.850665],[-3.446066,56.8508],[-3.446097,56.850965]]]}}