{"type":"Feature","properties":{"id":"267568","COMMUNE":"Fermanagh and Omagh","PROVINCE":"Fermanagh and Omagh","COUNTRY":"UK","FIREDATE":"2025-04-11 12:02:00","CLASS":"FireSeason","areaHA_geo":2.221},"geometry":{"type":"Polygon","coordinates":[[[-7.290445,54.269169],[-7.290616,54.269292],[-7.290801,54.269376],[-7.291003,54.269419],[-7.29122,54.269423],[-7.291437,54.269442],[-7.291655,54.269477],[-7.291873,54.269529],[-7.292091,54.269596],[-7.292286,54.269624],[-7.292458,54.269613],[-7.292606,54.269563],[-7.292731,54.269473],[-7.292854,54.269397],[-7.292975,54.269336],[-7.293094,54.26929],[-7.293211,54.269258],[-7.293333,54.269218],[-7.293459,54.26917],[-7.29359,54.269113],[-7.293726,54.269048],[-7.293888,54.268972],[-7.294076,54.268884],[-7.29429,54.268786],[-7.294531,54.268675],[-7.294748,54.268556],[-7.294942,54.268428],[-7.295112,54.268291],[-7.295259,54.268145],[-7.295363,54.268011],[-7.295426,54.26789],[-7.295447,54.267782],[-7.295426,54.267686],[-7.295396,54.267609],[-7.295358,54.26755],[-7.295311,54.267509],[-7.295256,54.267487],[-7.295204,54.267501],[-7.295157,54.267551],[-7.295114,54.267638],[-7.295075,54.267761],[-7.295029,54.267874],[-7.294974,54.267977],[-7.294913,54.268069],[-7.294843,54.268151],[-7.294756,54.268233],[-7.294651,54.268317],[-7.294528,54.268401],[-7.294388,54.268485],[-7.294245,54.268557],[-7.2941,54.268615],[-7.293953,54.268661],[-7.293804,54.268694],[-7.293652,54.268726],[-7.293499,54.268757],[-7.293344,54.268788],[-7.293187,54.268818],[-7.292991,54.268838],[-7.292757,54.268849],[-7.292485,54.268849],[-7.292174,54.268841],[-7.291885,54.268825],[-7.291617,54.268802],[-7.291371,54.268773],[-7.291146,54.268737],[-7.290948,54.268669],[-7.290775,54.268571],[-7.290628,54.268441],[-7.290507,54.26828],[-7.290399,54.268168],[-7.290304,54.268106],[-7.290222,54.268093],[-7.290152,54.268129],[-7.290101,54.268192],[-7.290067,54.268283],[-7.290052,54.2684],[-7.290054,54.268543],[-7.290095,54.268692],[-7.290174,54.268846],[-7.29029,54.269005],[-7.290445,54.269169]]]}}