{"type":"Feature","properties":{"id":"267509","COMMUNE":"Perth and Kinross","PROVINCE":"Perth & Kinross and Stirling","COUNTRY":"UK","FIREDATE":"2025-04-08 10:58:00","FINALDATE":"2025-04-08 12:38:00","CLASS":"FireSeason","areaHA_geo":1.497},"geometry":{"type":"Polygon","coordinates":[[[-3.449178,56.85212],[-3.449069,56.851971],[-3.448929,56.851843],[-3.448757,56.851735],[-3.448555,56.851647],[-3.448321,56.85158],[-3.448051,56.851545],[-3.447743,56.851543],[-3.447397,56.851573],[-3.447015,56.851636],[-3.446724,56.851708],[-3.446523,56.85179],[-3.446412,56.851882],[-3.446393,56.851983],[-3.446409,56.852067],[-3.446461,56.852134],[-3.446549,56.852184],[-3.446672,56.852217],[-3.446796,56.852271],[-3.446921,56.852345],[-3.447046,56.852441],[-3.447172,56.852558],[-3.44739,56.852621],[-3.4477,56.85263],[-3.448103,56.852587],[-3.448599,56.852489],[-3.448943,56.852379],[-3.449136,56.852256],[-3.449178,56.85212]]]}}