{"type":"Feature","properties":{"id":"267541","COMMUNE":"Perth and Kinross","PROVINCE":"Perth & Kinross and Stirling","COUNTRY":"UK","FIREDATE":"2025-03-18 12:06:00","CLASS":"FireSeason","areaHA_geo":1.185},"geometry":{"type":"Polygon","coordinates":[[[-3.729722,56.454515],[-3.729378,56.454293],[-3.729057,56.454127],[-3.728761,56.454017],[-3.728488,56.453963],[-3.72824,56.453966],[-3.728032,56.45398],[-3.727865,56.454006],[-3.727739,56.454044],[-3.727655,56.454093],[-3.72753,56.454125],[-3.727366,56.454138],[-3.727163,56.454134],[-3.72692,56.454111],[-3.726781,56.454122],[-3.726746,56.454166],[-3.726814,56.454244],[-3.726986,56.454355],[-3.7272,56.45445],[-3.727456,56.454528],[-3.727753,56.454589],[-3.728092,56.454633],[-3.728394,56.454686],[-3.728658,56.454747],[-3.728885,56.454816],[-3.729074,56.454893],[-3.729271,56.45494],[-3.729476,56.454959],[-3.729688,56.454948],[-3.729909,56.454908],[-3.729988,56.454823],[-3.729926,56.454692],[-3.729722,56.454515]]]}}