{"type":"Feature","properties":{"id":"267531","COMMUNE":"Perth and Kinross","PROVINCE":"Perth & Kinross and Stirling","COUNTRY":"UK","FIREDATE":"2025-03-15 12:10:00","CLASS":"FireSeason","areaHA_geo":8.722},"geometry":{"type":"Polygon","coordinates":[[[-3.925603,56.437317],[-3.925635,56.43738],[-3.925737,56.437438],[-3.925909,56.437491],[-3.92615,56.437538],[-3.92639,56.437554],[-3.92663,56.437538],[-3.92687,56.43749],[-3.927109,56.437409],[-3.927317,56.437362],[-3.927495,56.437347],[-3.927643,56.437366],[-3.92776,56.437417],[-3.927949,56.43745],[-3.928209,56.437464],[-3.92854,56.437458],[-3.928943,56.437434],[-3.929264,56.437402],[-3.929504,56.437361],[-3.929662,56.437311],[-3.92974,56.437253],[-3.929813,56.437222],[-3.929883,56.437217],[-3.929949,56.437238],[-3.930011,56.437286],[-3.930083,56.437318],[-3.930166,56.437337],[-3.930259,56.43734],[-3.930362,56.437329],[-3.930469,56.437321],[-3.930579,56.437316],[-3.930692,56.437315],[-3.930809,56.437317],[-3.930923,56.437315],[-3.931032,56.437308],[-3.931137,56.437296],[-3.931239,56.43728],[-3.931321,56.437237],[-3.931384,56.437166],[-3.931429,56.437067],[-3.931454,56.436941],[-3.931454,56.436836],[-3.931427,56.436752],[-3.931375,56.43669],[-3.931298,56.436649],[-3.93128,56.436614],[-3.931323,56.436585],[-3.931426,56.436561],[-3.93159,56.436543],[-3.931737,56.436518],[-3.931869,56.436487],[-3.931984,56.436448],[-3.932084,56.436403],[-3.932185,56.436366],[-3.932286,56.436338],[-3.932388,56.436318],[-3.932491,56.436307],[-3.932557,56.436278],[-3.932585,56.436233],[-3.932576,56.436172],[-3.932529,56.436093],[-3.932444,56.436038],[-3.932321,56.436007],[-3.93216,56.436],[-3.93196,56.436016],[-3.931776,56.436015],[-3.931608,56.435997],[-3.931456,56.43596],[-3.93132,56.435906],[-3.931251,56.435864],[-3.931249,56.435835],[-3.931315,56.435818],[-3.931447,56.435813],[-3.931602,56.435767],[-3.93178,56.435678],[-3.93198,56.435548],[-3.932203,56.435375],[-3.932374,56.435224],[-3.932492,56.435096],[-3.932558,56.434988],[-3.932571,56.434903],[-3.932525,56.434838],[-3.932419,56.434792],[-3.932253,56.434767],[-3.932027,56.434762],[-3.931896,56.434726],[-3.931857,56.434659],[-3.931913,56.43456],[-3.932062,56.43443],[-3.932204,56.434331],[-3.93234,56.434261],[-3.932469,56.434223],[-3.932591,56.434214],[-3.932721,56.434215],[-3.932859,56.434225],[-3.933004,56.434243],[-3.933157,56.434271],[-3.933323,56.434295],[-3.9335,56.434315],[-3.93369,56.434332],[-3.933891,56.434344],[-3.934102,56.43434],[-3.934322,56.434318],[-3.934551,56.43428],[-3.93479,56.434224],[-3.934975,56.434172],[-3.935104,56.434123],[-3.93518,56.434078],[-3.9352,56.434036],[-3.935147,56.43402],[-3.935021,56.434028],[-3.934821,56.434063],[-3.934547,56.434122],[-3.934309,56.434149],[-3.934106,56.434144],[-3.933938,56.434107],[-3.933805,56.434038],[-3.93366,56.433983],[-3.933502,56.433943],[-3.933332,56.433919],[-3.93315,56.433909],[-3.932959,56.433853],[-3.932761,56.433751],[-3.932555,56.433604],[-3.93234,56.43341],[-3.93216,56.433277],[-3.932013,56.433207],[-3.931901,56.433198],[-3.931822,56.433251],[-3.9317,56.433281],[-3.931537,56.433286],[-3.931331,56.433268],[-3.931083,56.433226],[-3.930906,56.433163],[-3.9308,56.433081],[-3.930765,56.432979],[-3.9308,56.432857],[-3.930788,56.432794],[-3.930729,56.43279],[-3.930622,56.432846],[-3.930468,56.432962],[-3.930329,56.433072],[-3.930207,56.433177],[-3.9301,56.433276],[-3.930009,56.43337],[-3.929968,56.433453],[-3.929977,56.433526],[-3.930036,56.433589],[-3.930145,56.433642],[-3.930286,56.43369],[-3.930459,56.433736],[-3.930664,56.433777],[-3.930902,56.433816],[-3.931089,56.433863],[-3.931226,56.43392],[-3.931313,56.433986],[-3.93135,56.434061],[-3.9313,56.434122],[-3.931165,56.434169],[-3.930945,56.434201],[-3.930639,56.43422],[-3.930445,56.434252],[-3.930363,56.434298],[-3.930394,56.434358],[-3.930537,56.434431],[-3.930595,56.434496],[-3.930567,56.434554],[-3.930453,56.434603],[-3.930253,56.434644],[-3.93011,56.434703],[-3.930021,56.43478],[-3.929989,56.434873],[-3.930011,56.434984],[-3.929983,56.435078],[-3.929903,56.435153],[-3.929772,56.43521],[-3.92959,56.43525],[-3.929459,56.435295],[-3.929379,56.435346],[-3.929351,56.435402],[-3.929373,56.435464],[-3.929347,56.435515],[-3.929273,56.435555],[-3.929149,56.435585],[-3.928977,56.435603],[-3.928867,56.435633],[-3.928819,56.435672],[-3.928833,56.435723],[-3.928909,56.435784],[-3.928976,56.435843],[-3.929033,56.435901],[-3.929081,56.435957],[-3.929119,56.436013],[-3.929235,56.436043],[-3.929429,56.436049],[-3.929702,56.43603],[-3.930053,56.435987],[-3.930351,56.435977],[-3.930596,56.436],[-3.930789,56.436055],[-3.930929,56.436144],[-3.930997,56.436214],[-3.930994,56.436266],[-3.930919,56.4363],[-3.930773,56.436316],[-3.93061,56.436329],[-3.93043,56.436339],[-3.930234,56.436345],[-3.93002,56.436349],[-3.929886,56.436372],[-3.92983,56.436415],[-3.929853,56.436478],[-3.929955,56.436561],[-3.930068,56.436639],[-3.930194,56.436711],[-3.93033,56.436779],[-3.930479,56.436842],[-3.930562,56.436893],[-3.930581,56.436933],[-3.930536,56.436962],[-3.930426,56.436979],[-3.93032,56.436978],[-3.93022,56.436959],[-3.930124,56.436923],[-3.930032,56.436869],[-3.929911,56.436825],[-3.92976,56.436792],[-3.92958,56.43677],[-3.92937,56.436758],[-3.929191,56.436752],[-3.929043,56.43675],[-3.928926,56.436755],[-3.92884,56.436764],[-3.92874,56.436796],[-3.928626,56.43685],[-3.928497,56.436927],[-3.928355,56.437027],[-3.928214,56.437088],[-3.928075,56.43711],[-3.927937,56.437094],[-3.927801,56.43704],[-3.927714,56.436963],[-3.927678,56.436863],[-3.927691,56.436741],[-3.927754,56.436596],[-3.927749,56.436448],[-3.927676,56.436298],[-3.927535,56.436146],[-3.927326,56.435991],[-3.927104,56.435872],[-3.926867,56.435789],[-3.926618,56.435742],[-3.926354,56.435731],[-3.926195,56.435767],[-3.926141,56.435849],[-3.92619,56.435979],[-3.926344,56.436154],[-3.926423,56.43629],[-3.926427,56.436386],[-3.926356,56.436442],[-3.92621,56.436458],[-3.926084,56.436493],[-3.925978,56.436546],[-3.925893,56.436618],[-3.925828,56.436709],[-3.925822,56.43679],[-3.925875,56.436861],[-3.925986,56.436922],[-3.926157,56.436972],[-3.92624,56.437016],[-3.926236,56.437054],[-3.926144,56.437085],[-3.925966,56.437109],[-3.925822,56.437145],[-3.925714,56.437191],[-3.925641,56.437248],[-3.925603,56.437317]]]}}