{"type":"Feature","properties":{"id":"267512","COMMUNE":"Perth and Kinross","PROVINCE":"Perth & Kinross and Stirling","COUNTRY":"UK","FIREDATE":"2025-03-18 12:55:00","FINALDATE":"2025-03-18 12:55:00","CLASS":"FireSeason","areaHA_geo":1.221},"geometry":{"type":"Polygon","coordinates":[[[-3.423667,56.77896],[-3.423637,56.779059],[-3.423674,56.779118],[-3.42378,56.779137],[-3.423953,56.779116],[-3.424102,56.779111],[-3.424226,56.779122],[-3.424326,56.779149],[-3.424402,56.779192],[-3.424488,56.779201],[-3.424586,56.779174],[-3.424694,56.779113],[-3.424813,56.779016],[-3.42493,56.778954],[-3.425046,56.778925],[-3.42516,56.778931],[-3.425273,56.77897],[-3.425423,56.778998],[-3.425613,56.779014],[-3.42584,56.779019],[-3.426106,56.779012],[-3.426265,56.778986],[-3.426317,56.77894],[-3.426263,56.778874],[-3.426101,56.778789],[-3.425953,56.778718],[-3.42582,56.77866],[-3.425701,56.778615],[-3.425597,56.778584],[-3.425508,56.778545],[-3.425434,56.778499],[-3.425375,56.778445],[-3.425331,56.778384],[-3.425193,56.778325],[-3.424959,56.77827],[-3.424631,56.778218],[-3.424209,56.778169],[-3.42388,56.77817],[-3.423647,56.778222],[-3.423508,56.778323],[-3.423463,56.778475],[-3.423462,56.778583],[-3.423505,56.778647],[-3.42359,56.778668],[-3.423719,56.778646],[-3.423791,56.778664],[-3.423807,56.778722],[-3.423765,56.778821],[-3.423667,56.77896]]]}}