{"type":"Feature","properties":{"id":"267542","COMMUNE":"Argyll and Bute Mainland","PROVINCE":"Lochaber, Skye & Lochalsh, Arran & Cumbrae and Argyll & Bute","COUNTRY":"UK","FIREDATE":"2025-04-07 12:55:00","CLASS":"FireSeason","areaHA_geo":18.724},"geometry":{"type":"Polygon","coordinates":[[[-5.271503,56.36237],[-5.271705,56.362443],[-5.271904,56.36249],[-5.272099,56.362511],[-5.272292,56.362505],[-5.272416,56.362481],[-5.272471,56.362441],[-5.272458,56.362383],[-5.272377,56.362307],[-5.272327,56.362228],[-5.272309,56.362145],[-5.272323,56.362059],[-5.272368,56.361968],[-5.272433,56.361919],[-5.272518,56.361912],[-5.272621,56.361946],[-5.272744,56.362022],[-5.272889,56.36207],[-5.273056,56.36209],[-5.273245,56.362081],[-5.273457,56.362044],[-5.273664,56.362005],[-5.273868,56.361964],[-5.274069,56.36192],[-5.274265,56.361874],[-5.274388,56.361815],[-5.274437,56.361744],[-5.274411,56.361661],[-5.27431,56.361565],[-5.274318,56.361462],[-5.274432,56.361352],[-5.274655,56.361234],[-5.274984,56.361109],[-5.275271,56.361025],[-5.275516,56.360982],[-5.275717,56.360979],[-5.275876,56.361017],[-5.276039,56.361014],[-5.276207,56.360971],[-5.276379,56.360888],[-5.276555,56.360765],[-5.27666,56.360657],[-5.276695,56.360565],[-5.276659,56.360489],[-5.276552,56.360428],[-5.276456,56.360373],[-5.276369,56.360324],[-5.276293,56.36028],[-5.276226,56.360243],[-5.276232,56.360212],[-5.27631,56.360189],[-5.27646,56.360172],[-5.276682,56.360163],[-5.276877,56.36017],[-5.277047,56.360195],[-5.277189,56.360238],[-5.277306,56.360298],[-5.277449,56.360346],[-5.277617,56.360382],[-5.277812,56.360407],[-5.278033,56.36042],[-5.2782,56.360453],[-5.278313,56.360504],[-5.278373,56.360575],[-5.278378,56.360665],[-5.278475,56.360709],[-5.278664,56.360706],[-5.278944,56.360657],[-5.279317,56.360561],[-5.279619,56.360496],[-5.279852,56.360463],[-5.280015,56.36046],[-5.280109,56.360489],[-5.280239,56.360501],[-5.280408,56.360498],[-5.280613,56.360479],[-5.280856,56.360444],[-5.281168,56.360404],[-5.28155,56.360358],[-5.282001,56.360307],[-5.282523,56.36025],[-5.282907,56.360224],[-5.283155,56.360228],[-5.283267,56.360263],[-5.283242,56.360328],[-5.283253,56.360388],[-5.2833,56.360442],[-5.283384,56.36049],[-5.283504,56.360532],[-5.28365,56.360525],[-5.283821,56.360467],[-5.284019,56.36036],[-5.284243,56.360202],[-5.28446,56.360084],[-5.28467,56.360005],[-5.284872,56.359965],[-5.285066,56.359964],[-5.285277,56.359959],[-5.285504,56.359949],[-5.285747,56.359934],[-5.286006,56.359914],[-5.286249,56.359879],[-5.286475,56.359829],[-5.286685,56.359764],[-5.286878,56.359684],[-5.287009,56.359594],[-5.287075,56.359492],[-5.287079,56.359379],[-5.287019,56.359256],[-5.287034,56.35914],[-5.287123,56.35903],[-5.287286,56.358926],[-5.287525,56.35883],[-5.287731,56.35873],[-5.287905,56.358627],[-5.288047,56.35852],[-5.288156,56.35841],[-5.28812,56.358384],[-5.287937,56.35844],[-5.287608,56.358578],[-5.287133,56.3588],[-5.286726,56.358955],[-5.286387,56.359044],[-5.286116,56.359067],[-5.285914,56.359023],[-5.285712,56.358974],[-5.28551,56.358918],[-5.285308,56.358858],[-5.285107,56.358791],[-5.284905,56.358698],[-5.284702,56.358577],[-5.284499,56.35843],[-5.284296,56.358256],[-5.284113,56.35812],[-5.283951,56.358024],[-5.283809,56.357965],[-5.283688,56.357946],[-5.283563,56.357952],[-5.283432,56.357985],[-5.283297,56.358044],[-5.283156,56.358129],[-5.282999,56.358192],[-5.282826,56.358232],[-5.282636,56.358251],[-5.282429,56.358247],[-5.282253,56.358257],[-5.282109,56.35828],[-5.281995,56.358317],[-5.281912,56.358366],[-5.281815,56.358425],[-5.281704,56.358492],[-5.281578,56.358568],[-5.281438,56.358653],[-5.281274,56.358705],[-5.281087,56.358725],[-5.280876,56.358712],[-5.280642,56.358666],[-5.280291,56.358643],[-5.279824,56.358642],[-5.27924,56.358664],[-5.278539,56.358709],[-5.278017,56.358787],[-5.277672,56.358899],[-5.277505,56.359046],[-5.277516,56.359226],[-5.277445,56.359375],[-5.277292,56.359492],[-5.277057,56.359579],[-5.276741,56.359634],[-5.276502,56.359652],[-5.276341,56.359635],[-5.276258,56.359581],[-5.276252,56.359491],[-5.276055,56.359441],[-5.275666,56.359431],[-5.275085,56.359461],[-5.274313,56.359531],[-5.273612,56.35967],[-5.272982,56.359879],[-5.272424,56.360157],[-5.271938,56.360505],[-5.271521,56.360776],[-5.271174,56.360971],[-5.270896,56.36109],[-5.270687,56.361132],[-5.270528,56.361196],[-5.270419,56.361283],[-5.27036,56.361392],[-5.270352,56.361524],[-5.270405,56.361612],[-5.270521,56.361658],[-5.270699,56.361661],[-5.27094,56.36162],[-5.271138,56.361595],[-5.271293,56.361585],[-5.271405,56.36159],[-5.271475,56.36161],[-5.271516,56.361642],[-5.271528,56.361686],[-5.271512,56.361742],[-5.271468,56.361809],[-5.271409,56.361873],[-5.271335,56.361933],[-5.271247,56.361989],[-5.271145,56.362041],[-5.27112,56.362105],[-5.271171,56.362181],[-5.271299,56.362269],[-5.271503,56.36237]]]}}