{"type":"Feature","properties":{"id":"267617","COMMUNE":"Perth and Kinross","PROVINCE":"Perth & Kinross and Stirling","COUNTRY":"UK","FIREDATE":"2025-04-03 14:12:00","CLASS":"FireSeason","areaHA_geo":0.531},"geometry":{"type":"Polygon","coordinates":[[[-3.933966,56.645537],[-3.934082,56.645602],[-3.93427,56.645654],[-3.93453,56.645691],[-3.934861,56.645714],[-3.935117,56.64575],[-3.935296,56.645798],[-3.935399,56.645858],[-3.935426,56.645931],[-3.935492,56.645954],[-3.935597,56.645926],[-3.935741,56.645847],[-3.935923,56.645717],[-3.936005,56.645607],[-3.935987,56.645516],[-3.935868,56.645444],[-3.935649,56.645392],[-3.935393,56.645355],[-3.9351,56.645332],[-3.934771,56.645323],[-3.934404,56.645329],[-3.93414,56.645353],[-3.933979,56.645396],[-3.933921,56.645457],[-3.933966,56.645537]]]}}