{"type":"Feature","properties":{"id":"267679","COMMUNE":"Na h-Eileanan Siar (Western Isles)","PROVINCE":"Na h-Eileanan Siar (Western Isles)","COUNTRY":"UK","FIREDATE":"2025-04-11 11:08:41.922","FINALDATE":"2025-04-12 11:08:45.702","CLASS":"FireSeason","areaHA_geo":1.048},"geometry":{"type":"Polygon","coordinates":[[[-7.228103,57.514015],[-7.228144,57.514083],[-7.22822,57.514134],[-7.22833,57.514168],[-7.228475,57.514185],[-7.228581,57.514171],[-7.228647,57.514126],[-7.228675,57.514049],[-7.228663,57.513941],[-7.228662,57.513862],[-7.228672,57.513812],[-7.228694,57.513791],[-7.228726,57.513799],[-7.228829,57.513815],[-7.229004,57.513841],[-7.229249,57.513876],[-7.229566,57.513919],[-7.229828,57.513952],[-7.230035,57.513975],[-7.230188,57.513987],[-7.230286,57.51399],[-7.230357,57.513972],[-7.230401,57.513934],[-7.230419,57.513876],[-7.23041,57.513798],[-7.230361,57.513724],[-7.230272,57.513656],[-7.230141,57.513591],[-7.229971,57.513532],[-7.22981,57.51349],[-7.22966,57.513468],[-7.22952,57.513463],[-7.22939,57.513478],[-7.229286,57.513456],[-7.229208,57.5134],[-7.229155,57.513308],[-7.229129,57.51318],[-7.229052,57.513095],[-7.228927,57.513052],[-7.228752,57.513052],[-7.228527,57.513094],[-7.228328,57.513143],[-7.228156,57.513199],[-7.22801,57.513263],[-7.22789,57.513333],[-7.227823,57.513409],[-7.227811,57.51349],[-7.227852,57.513576],[-7.227946,57.513667],[-7.228019,57.513757],[-7.228069,57.513844],[-7.228097,57.513931],[-7.228103,57.514015]]]}}