{"type":"Feature","properties":{"id":"267647","COMMUNE":"Northumberland","PROVINCE":"Northumberland","COUNTRY":"UK","FIREDATE":"2025-04-08 10:34:00","FINALDATE":"2025-04-08 10:56:00","CLASS":"FireSeason","areaHA_geo":0.841},"geometry":{"type":"Polygon","coordinates":[[[-1.826067,55.544242],[-1.826152,55.544311],[-1.826377,55.544373],[-1.826744,55.544428],[-1.827252,55.544476],[-1.827625,55.544483],[-1.827864,55.544448],[-1.827968,55.544371],[-1.827938,55.544252],[-1.827868,55.544112],[-1.827757,55.543951],[-1.827606,55.543768],[-1.827414,55.543565],[-1.827249,55.54342],[-1.827109,55.543332],[-1.826995,55.543302],[-1.826907,55.543329],[-1.826856,55.543378],[-1.826844,55.543448],[-1.826868,55.54354],[-1.82693,55.543652],[-1.826926,55.543751],[-1.826855,55.543837],[-1.826718,55.543908],[-1.826514,55.543966],[-1.826347,55.544028],[-1.826217,55.544095],[-1.826124,55.544166],[-1.826067,55.544242]]]}}