{"type":"Feature","properties":{"id":"267601","COMMUNE":"Perth and Kinross","PROVINCE":"Perth & Kinross and Stirling","COUNTRY":"UK","FIREDATE":"2025-03-15 12:10:00","CLASS":"FireSeason","areaHA_geo":0.391},"geometry":{"type":"Polygon","coordinates":[[[-3.960971,56.448855],[-3.960813,56.448647],[-3.96066,56.448502],[-3.960512,56.44842],[-3.96037,56.4484],[-3.960233,56.448443],[-3.960124,56.4485],[-3.960043,56.448571],[-3.95999,56.448656],[-3.959965,56.448754],[-3.95998,56.448844],[-3.960036,56.448925],[-3.960131,56.448998],[-3.960267,56.449062],[-3.960415,56.44911],[-3.960575,56.449143],[-3.960747,56.449161],[-3.960931,56.449163],[-3.96103,56.449113],[-3.961043,56.449011],[-3.960971,56.448855]]]}}