{"type":"Feature","properties":{"id":"267628","COMMUNE":"Harrogate","PROVINCE":"North Yorkshire CC","COUNTRY":"UK","FIREDATE":"2025-04-01 11:02:00","FINALDATE":"2025-04-01 13:08:00","CLASS":"FireSeason","areaHA_geo":0.572},"geometry":{"type":"Polygon","coordinates":[[[-1.792941,54.003911],[-1.793143,54.003863],[-1.793317,54.003808],[-1.793461,54.003748],[-1.793577,54.003682],[-1.793665,54.003611],[-1.793648,54.003562],[-1.793528,54.003536],[-1.793305,54.003533],[-1.792977,54.003553],[-1.792599,54.003577],[-1.79217,54.003604],[-1.791691,54.003635],[-1.791161,54.003669],[-1.790789,54.003706],[-1.790575,54.003747],[-1.790519,54.003791],[-1.790621,54.003839],[-1.790797,54.003871],[-1.791047,54.003887],[-1.79137,54.003887],[-1.791768,54.003872],[-1.792083,54.003869],[-1.792316,54.003878],[-1.792467,54.003899],[-1.792536,54.003933],[-1.792637,54.003946],[-1.792773,54.003939],[-1.792941,54.003911]]]}}