{"type":"Feature","properties":{"id":"267677","COMMUNE":"Na h-Eileanan Siar (Western Isles)","PROVINCE":"Na h-Eileanan Siar (Western Isles)","COUNTRY":"UK","FIREDATE":"2025-04-12 13:23:00","CLASS":"FireSeason","areaHA_geo":0.717},"geometry":{"type":"Polygon","coordinates":[[[-7.233016,57.509595],[-7.233281,57.509554],[-7.233487,57.509508],[-7.233633,57.509459],[-7.233721,57.509404],[-7.233759,57.509358],[-7.233747,57.50932],[-7.233684,57.50929],[-7.233571,57.509269],[-7.233454,57.509261],[-7.233331,57.509266],[-7.233204,57.509285],[-7.233071,57.509318],[-7.232923,57.509307],[-7.232757,57.509253],[-7.232576,57.509155],[-7.232377,57.509014],[-7.232194,57.508929],[-7.232027,57.508899],[-7.231874,57.508925],[-7.231737,57.509007],[-7.2316,57.509087],[-7.231463,57.509165],[-7.231327,57.50924],[-7.231191,57.509313],[-7.231165,57.509384],[-7.231249,57.509454],[-7.231444,57.509522],[-7.231749,57.509588],[-7.232058,57.509628],[-7.232373,57.509643],[-7.232692,57.509632],[-7.233016,57.509595]]]}}