{"type":"Feature","properties":{"id":"267619","COMMUNE":"Perth and Kinross","PROVINCE":"Perth & Kinross and Stirling","COUNTRY":"UK","FIREDATE":"2025-04-04 13:25:00","CLASS":"FireSeason","areaHA_geo":0.901},"geometry":{"type":"Polygon","coordinates":[[[-3.934534,56.652997],[-3.934605,56.652854],[-3.934622,56.652755],[-3.934586,56.6527],[-3.934497,56.652688],[-3.934355,56.652721],[-3.934257,56.652725],[-3.934202,56.652701],[-3.934191,56.65265],[-3.934223,56.65257],[-3.934268,56.652483],[-3.934325,56.652388],[-3.934394,56.652286],[-3.934477,56.652176],[-3.934482,56.652076],[-3.934411,56.651987],[-3.934262,56.651908],[-3.934037,56.651839],[-3.933845,56.65182],[-3.933687,56.65185],[-3.933563,56.651929],[-3.933472,56.652057],[-3.933421,56.65217],[-3.933412,56.652268],[-3.933442,56.652351],[-3.933514,56.652419],[-3.933513,56.652479],[-3.933439,56.652529],[-3.933293,56.65257],[-3.933074,56.652602],[-3.932957,56.652651],[-3.932943,56.652716],[-3.933031,56.652797],[-3.93322,56.652894],[-3.933421,56.652978],[-3.933631,56.653048],[-3.933852,56.653104],[-3.934083,56.653147],[-3.934273,56.653143],[-3.934424,56.653093],[-3.934534,56.652997]]]}}