{"type":"Feature","properties":{"id":"267668","COMMUNE":"Na h-Eileanan Siar (Western Isles)","PROVINCE":"Na h-Eileanan Siar (Western Isles)","COUNTRY":"UK","FIREDATE":"2025-04-07 14:12:00","CLASS":"FireSeason","areaHA_geo":2.289},"geometry":{"type":"Polygon","coordinates":[[[-7.301671,57.558267],[-7.301848,57.558363],[-7.302062,57.558443],[-7.302312,57.558505],[-7.302599,57.558549],[-7.302855,57.558569],[-7.30308,57.558564],[-7.303274,57.558535],[-7.303437,57.558481],[-7.303597,57.558437],[-7.303756,57.558402],[-7.303914,57.558376],[-7.304069,57.55836],[-7.304238,57.558346],[-7.30442,57.558333],[-7.304616,57.558322],[-7.304826,57.558312],[-7.305034,57.558291],[-7.30524,57.558256],[-7.305445,57.55821],[-7.305648,57.55815],[-7.305775,57.558079],[-7.305824,57.557994],[-7.305797,57.557897],[-7.305693,57.557787],[-7.305562,57.557711],[-7.305404,57.557667],[-7.305219,57.557658],[-7.305008,57.557681],[-7.304829,57.557712],[-7.304684,57.557749],[-7.304573,57.557794],[-7.304495,57.557845],[-7.304416,57.557887],[-7.304337,57.557918],[-7.304257,57.557939],[-7.304176,57.55795],[-7.304083,57.557938],[-7.303976,57.557904],[-7.303857,57.557848],[-7.303725,57.557769],[-7.303576,57.557717],[-7.303409,57.557691],[-7.303225,57.557691],[-7.303024,57.557718],[-7.302862,57.557715],[-7.302739,57.557683],[-7.302656,57.557622],[-7.302613,57.557532],[-7.302486,57.557464],[-7.302276,57.557419],[-7.301982,57.557396],[-7.301605,57.557395],[-7.301293,57.557424],[-7.301046,57.557482],[-7.300865,57.557569],[-7.300749,57.557686],[-7.300709,57.55778],[-7.300744,57.557854],[-7.300855,57.557905],[-7.301041,57.557936],[-7.301215,57.557987],[-7.301378,57.558059],[-7.30153,57.558152],[-7.301671,57.558267]]]}}