{"type":"Feature","properties":{"id":"267678","COMMUNE":"Na h-Eileanan Siar (Western Isles)","PROVINCE":"Na h-Eileanan Siar (Western Isles)","COUNTRY":"UK","FIREDATE":"2025-04-12 13:23:00","FINALDATE":"2025-04-12 13:23:00","CLASS":"FireSeason","areaHA_geo":3.043},"geometry":{"type":"Polygon","coordinates":[[[-7.228316,57.511031],[-7.228406,57.511119],[-7.228532,57.51118],[-7.228693,57.511214],[-7.22889,57.511222],[-7.229048,57.511252],[-7.229167,57.511305],[-7.229247,57.51138],[-7.229288,57.511478],[-7.229344,57.511562],[-7.229414,57.511632],[-7.229499,57.511688],[-7.229599,57.51173],[-7.229712,57.511768],[-7.22984,57.511803],[-7.229982,57.511835],[-7.230137,57.511863],[-7.230307,57.51189],[-7.23049,57.511916],[-7.230687,57.511941],[-7.230897,57.511965],[-7.231058,57.511955],[-7.231168,57.511911],[-7.231228,57.511834],[-7.231238,57.511723],[-7.231219,57.511626],[-7.231171,57.511544],[-7.231095,57.511477],[-7.23099,57.511424],[-7.230882,57.51138],[-7.230772,57.511346],[-7.230659,57.511321],[-7.230544,57.511306],[-7.230457,57.511285],[-7.230398,57.511258],[-7.230368,57.511224],[-7.230367,57.511185],[-7.230397,57.511153],[-7.230459,57.511128],[-7.230553,57.51111],[-7.230679,57.511099],[-7.230805,57.511072],[-7.230932,57.511028],[-7.231059,57.510967],[-7.231187,57.510889],[-7.231265,57.510807],[-7.231292,57.510721],[-7.231269,57.510631],[-7.231196,57.510537],[-7.231109,57.510469],[-7.231006,57.510428],[-7.23089,57.510413],[-7.230758,57.510424],[-7.230645,57.510446],[-7.23055,57.510479],[-7.230472,57.510522],[-7.230412,57.510575],[-7.23035,57.510604],[-7.230287,57.510608],[-7.230221,57.510587],[-7.230154,57.510541],[-7.23008,57.510517],[-7.23,57.510516],[-7.229913,57.510536],[-7.229819,57.510579],[-7.229743,57.510598],[-7.229683,57.510592],[-7.22964,57.510562],[-7.229614,57.510507],[-7.229622,57.51045],[-7.229665,57.51039],[-7.229741,57.510326],[-7.229852,57.51026],[-7.229886,57.510175],[-7.229842,57.510073],[-7.229723,57.509952],[-7.229526,57.509814],[-7.229296,57.509699],[-7.229033,57.509607],[-7.228737,57.509539],[-7.228409,57.509494],[-7.228141,57.509473],[-7.227935,57.509476],[-7.22779,57.509503],[-7.227706,57.509554],[-7.22769,57.509644],[-7.227744,57.509774],[-7.227866,57.509944],[-7.228057,57.510153],[-7.228229,57.510326],[-7.228382,57.510463],[-7.228517,57.510563],[-7.228632,57.510627],[-7.22868,57.510676],[-7.22866,57.510711],[-7.228571,57.510731],[-7.228414,57.510736],[-7.22831,57.510769],[-7.228259,57.510829],[-7.228261,57.510917],[-7.228316,57.511031]]]}}