{"type":"Feature","properties":{"id":"267629","COMMUNE":"Harrogate","PROVINCE":"North Yorkshire CC","COUNTRY":"UK","FIREDATE":"2025-04-01 11:02:00","FINALDATE":"2025-04-01 13:08:00","CLASS":"FireSeason","areaHA_geo":0.902},"geometry":{"type":"Polygon","coordinates":[[[-1.793883,54.002789],[-1.794015,54.002936],[-1.794227,54.003011],[-1.79452,54.003013],[-1.794892,54.002942],[-1.795182,54.002875],[-1.795389,54.002812],[-1.795514,54.002752],[-1.795557,54.002696],[-1.795558,54.002654],[-1.795516,54.002627],[-1.795431,54.002613],[-1.795304,54.002614],[-1.795195,54.002602],[-1.795104,54.002576],[-1.795032,54.002537],[-1.794978,54.002485],[-1.794916,54.002397],[-1.794847,54.002274],[-1.79477,54.002116],[-1.794686,54.001923],[-1.794594,54.001774],[-1.794495,54.001668],[-1.79439,54.001606],[-1.794277,54.001588],[-1.794206,54.001614],[-1.794176,54.001683],[-1.794188,54.001796],[-1.794243,54.001951],[-1.794247,54.002072],[-1.794203,54.002157],[-1.794109,54.002206],[-1.793966,54.00222],[-1.793872,54.002285],[-1.793826,54.002402],[-1.79383,54.00257],[-1.793883,54.002789]]]}}