{"type":"Feature","properties":{"id":"267649","COMMUNE":"Northumberland","PROVINCE":"Northumberland","COUNTRY":"UK","FIREDATE":"2025-04-08 10:56:00","CLASS":"FireSeason","areaHA_geo":0.476},"geometry":{"type":"Polygon","coordinates":[[[-1.832775,55.542965],[-1.832809,55.543022],[-1.832944,55.543056],[-1.833179,55.543066],[-1.833516,55.543054],[-1.833782,55.54303],[-1.833979,55.542996],[-1.834105,55.54295],[-1.834162,55.542894],[-1.834185,55.542842],[-1.834173,55.542795],[-1.834128,55.542753],[-1.834049,55.542715],[-1.834021,55.54268],[-1.834045,55.542647],[-1.834121,55.542617],[-1.834249,55.542589],[-1.83432,55.542553],[-1.834335,55.542508],[-1.834294,55.542455],[-1.834196,55.542394],[-1.834106,55.542359],[-1.834024,55.542351],[-1.83395,55.542369],[-1.833884,55.542413],[-1.833817,55.542436],[-1.833749,55.542436],[-1.83368,55.542413],[-1.83361,55.542369],[-1.833547,55.542342],[-1.83349,55.542333],[-1.83344,55.542341],[-1.833397,55.542368],[-1.833371,55.542407],[-1.833361,55.542459],[-1.833368,55.542525],[-1.833391,55.542602],[-1.833379,55.542664],[-1.83333,55.542708],[-1.833245,55.542736],[-1.833123,55.542748],[-1.833016,55.542776],[-1.832922,55.542822],[-1.832841,55.542885],[-1.832775,55.542965]]]}}