{"type":"Feature","properties":{"id":"267630","COMMUNE":"Harrogate","PROVINCE":"North Yorkshire CC","COUNTRY":"UK","FIREDATE":"2025-04-01 11:02:00","CLASS":"FireSeason","areaHA_geo":0.298},"geometry":{"type":"Polygon","coordinates":[[[-1.796925,54.000471],[-1.797135,54.000562],[-1.7973,54.000606],[-1.797419,54.000605],[-1.797494,54.000557],[-1.797531,54.000499],[-1.797531,54.00043],[-1.797494,54.00035],[-1.797419,54.000259],[-1.797316,54.00018],[-1.797184,54.000112],[-1.797023,54.000056],[-1.796834,54.000011],[-1.796676,53.999989],[-1.796548,53.99999],[-1.796452,54.000013],[-1.796387,54.00006],[-1.796402,54.000129],[-1.796496,54.000221],[-1.796671,54.000335],[-1.796925,54.000471]]]}}