{"type":"Feature","properties":{"id":"267663","COMMUNE":"Ross and Cromarty","PROVINCE":"Caithness & Sutherland and Ross & Cromarty","COUNTRY":"UK","FIREDATE":"2025-04-09 14:22:00","FINALDATE":"2025-04-09 14:22:00","CLASS":"FireSeason","areaHA_geo":0.298},"geometry":{"type":"Polygon","coordinates":[[[-5.809246,57.822232],[-5.809273,57.822308],[-5.809335,57.822356],[-5.809434,57.822377],[-5.809568,57.822371],[-5.80968,57.822381],[-5.809771,57.822409],[-5.809839,57.822455],[-5.809885,57.822517],[-5.80995,57.822556],[-5.810034,57.82257],[-5.810137,57.82256],[-5.810259,57.822526],[-5.810344,57.822473],[-5.81039,57.822402],[-5.810398,57.822312],[-5.810369,57.822204],[-5.810316,57.822124],[-5.810238,57.822072],[-5.810136,57.822049],[-5.81001,57.822054],[-5.809882,57.822053],[-5.80975,57.822044],[-5.809615,57.822029],[-5.809477,57.822007],[-5.809371,57.822016],[-5.809297,57.822056],[-5.809255,57.822128],[-5.809246,57.822232]]]}}