{"type":"Feature","properties":{"id":"267613","COMMUNE":"Perth and Kinross","PROVINCE":"Perth & Kinross and Stirling","COUNTRY":"UK","FIREDATE":"2025-04-03 14:12:00","CLASS":"FireSeason","areaHA_geo":3.09},"geometry":{"type":"Polygon","coordinates":[[[-3.928261,56.647591],[-3.928424,56.647554],[-3.928437,56.647464],[-3.928299,56.647321],[-3.928011,56.647124],[-3.927855,56.646962],[-3.927831,56.646833],[-3.927938,56.64674],[-3.928178,56.64668],[-3.928442,56.646677],[-3.92873,56.64673],[-3.929044,56.646839],[-3.929382,56.647005],[-3.929692,56.64717],[-3.929976,56.647333],[-3.930232,56.647495],[-3.93046,56.647656],[-3.930729,56.647779],[-3.931037,56.647864],[-3.931385,56.64791],[-3.931772,56.647919],[-3.93208,56.647909],[-3.932307,56.64788],[-3.932455,56.647832],[-3.932523,56.647766],[-3.932525,56.647711],[-3.932463,56.647667],[-3.932336,56.647634],[-3.932143,56.647613],[-3.93194,56.647572],[-3.931725,56.647511],[-3.931499,56.64743],[-3.931262,56.647329],[-3.931144,56.647251],[-3.931147,56.647196],[-3.93127,56.647163],[-3.931512,56.647154],[-3.931601,56.647113],[-3.931535,56.647039],[-3.931316,56.646935],[-3.930942,56.646798],[-3.930596,56.646671],[-3.930276,56.646554],[-3.929982,56.646446],[-3.929715,56.646348],[-3.929452,56.646259],[-3.929191,56.646177],[-3.928933,56.646104],[-3.928679,56.646039],[-3.928474,56.646015],[-3.928318,56.646031],[-3.928213,56.646089],[-3.928157,56.646188],[-3.928063,56.646277],[-3.92793,56.646354],[-3.927759,56.646421],[-3.92755,56.646478],[-3.927318,56.646528],[-3.927066,56.646572],[-3.926792,56.646611],[-3.926496,56.646643],[-3.926363,56.64672],[-3.926394,56.646844],[-3.926587,56.647013],[-3.926943,56.647227],[-3.927288,56.647393],[-3.927623,56.647508],[-3.927947,56.647574],[-3.928261,56.647591]]]}}