{"type":"Feature","properties":{"id":"267662","COMMUNE":"Ross and Cromarty","PROVINCE":"Caithness & Sutherland and Ross & Cromarty","COUNTRY":"UK","FIREDATE":"2025-04-09 14:22:00","CLASS":"FireSeason","areaHA_geo":0.286},"geometry":{"type":"Polygon","coordinates":[[[-5.810379,57.820956],[-5.810502,57.820977],[-5.810696,57.82098],[-5.81096,57.820967],[-5.811294,57.820936],[-5.811531,57.820881],[-5.81167,57.820801],[-5.811711,57.820696],[-5.811654,57.820567],[-5.811528,57.8205],[-5.811335,57.820497],[-5.811072,57.820556],[-5.810742,57.820679],[-5.810507,57.82078],[-5.810368,57.82086],[-5.810325,57.820919],[-5.810379,57.820956]]]}}