{"type":"Feature","properties":{"id":"267650","COMMUNE":"Northumberland","PROVINCE":"Northumberland","COUNTRY":"UK","FIREDATE":"2025-04-08 10:34:00","FINALDATE":"2025-04-08 13:53:00","CLASS":"FireSeason","areaHA_geo":0.793},"geometry":{"type":"Polygon","coordinates":[[[-1.839777,55.543442],[-1.83991,55.543536],[-1.840101,55.54355],[-1.840351,55.543484],[-1.840659,55.54334],[-1.840898,55.543211],[-1.841068,55.543097],[-1.841169,55.542999],[-1.8412,55.542916],[-1.841238,55.542847],[-1.841281,55.542794],[-1.84133,55.542754],[-1.841385,55.54273],[-1.841376,55.542703],[-1.841302,55.542673],[-1.841163,55.54264],[-1.84096,55.542605],[-1.840789,55.542566],[-1.840651,55.542523],[-1.840546,55.542476],[-1.840474,55.542425],[-1.840405,55.542386],[-1.840337,55.542358],[-1.840271,55.542343],[-1.840208,55.542339],[-1.840169,55.542365],[-1.840154,55.542419],[-1.840163,55.542502],[-1.840197,55.542614],[-1.840181,55.542713],[-1.840116,55.542797],[-1.840001,55.542868],[-1.839837,55.542925],[-1.839733,55.543011],[-1.839688,55.543126],[-1.839703,55.54327],[-1.839777,55.543442]]]}}