{"type":"Feature","properties":{"id":"267648","COMMUNE":"Northumberland","PROVINCE":"Northumberland","COUNTRY":"UK","FIREDATE":"2025-04-08 10:34:00","CLASS":"FireSeason","areaHA_geo":1.728},"geometry":{"type":"Polygon","coordinates":[[[-1.829557,55.544292],[-1.829588,55.544389],[-1.829683,55.544471],[-1.829844,55.544539],[-1.830069,55.544591],[-1.830374,55.544613],[-1.830757,55.544604],[-1.831218,55.544565],[-1.831758,55.544495],[-1.832128,55.544419],[-1.832327,55.544338],[-1.832357,55.544251],[-1.832215,55.544159],[-1.832108,55.544074],[-1.832034,55.543998],[-1.831993,55.54393],[-1.831987,55.543869],[-1.83195,55.543824],[-1.831884,55.543793],[-1.831789,55.543777],[-1.831664,55.543776],[-1.831543,55.543742],[-1.831426,55.543674],[-1.831314,55.543574],[-1.831206,55.54344],[-1.831024,55.543374],[-1.83077,55.543377],[-1.830443,55.543449],[-1.830043,55.543589],[-1.829756,55.543707],[-1.829581,55.543804],[-1.829518,55.543879],[-1.829568,55.543932],[-1.829597,55.544],[-1.829605,55.544082],[-1.829591,55.54418],[-1.829557,55.544292]]]}}