{"type":"Feature","properties":{"id":"267627","COMMUNE":"Harrogate","PROVINCE":"North Yorkshire CC","COUNTRY":"UK","FIREDATE":"2025-04-01 11:02:00","CLASS":"FireSeason","areaHA_geo":1.112},"geometry":{"type":"Polygon","coordinates":[[[-1.795713,54.002278],[-1.795975,54.002303],[-1.796412,54.002252],[-1.797023,54.002125],[-1.797809,54.001923],[-1.798318,54.001757],[-1.798551,54.001628],[-1.798507,54.001536],[-1.798188,54.00148],[-1.797932,54.00145],[-1.797739,54.001446],[-1.79761,54.001467],[-1.797545,54.001514],[-1.797464,54.00154],[-1.797368,54.001547],[-1.797257,54.001533],[-1.797129,54.001499],[-1.796991,54.001478],[-1.796841,54.00147],[-1.796681,54.001474],[-1.796509,54.00149],[-1.796333,54.001535],[-1.796152,54.001607],[-1.795967,54.001707],[-1.795778,54.001834],[-1.795658,54.001955],[-1.795607,54.00207],[-1.795626,54.002177],[-1.795713,54.002278]]]}}