{"type":"Feature","properties":{"id":"267602","COMMUNE":"Perth and Kinross","PROVINCE":"Perth & Kinross and Stirling","COUNTRY":"UK","FIREDATE":"2025-03-15 12:10:00","CLASS":"FireSeason","areaHA_geo":2.912},"geometry":{"type":"Polygon","coordinates":[[[-3.956582,56.445837],[-3.956366,56.44572],[-3.956164,56.445649],[-3.955976,56.445625],[-3.955803,56.445646],[-3.955645,56.445714],[-3.955505,56.445749],[-3.955383,56.445751],[-3.95528,56.44572],[-3.955195,56.445656],[-3.955176,56.445598],[-3.955223,56.445545],[-3.955336,56.445498],[-3.955514,56.445456],[-3.955637,56.445394],[-3.955704,56.445314],[-3.955716,56.445214],[-3.955672,56.445095],[-3.955611,56.445012],[-3.955532,56.444964],[-3.955436,56.444952],[-3.955322,56.444976],[-3.955227,56.444965],[-3.955149,56.44492],[-3.955089,56.444841],[-3.955047,56.444727],[-3.954968,56.444643],[-3.954851,56.444588],[-3.954696,56.444563],[-3.954504,56.444567],[-3.954383,56.444604],[-3.954332,56.444674],[-3.954352,56.444778],[-3.954443,56.444914],[-3.954444,56.444999],[-3.954354,56.445031],[-3.954173,56.445011],[-3.953902,56.444939],[-3.953723,56.444876],[-3.953637,56.444821],[-3.953642,56.444774],[-3.95374,56.444735],[-3.95379,56.44467],[-3.953793,56.44458],[-3.953747,56.444464],[-3.953655,56.444322],[-3.953494,56.444233],[-3.953266,56.444196],[-3.952971,56.444211],[-3.952609,56.444279],[-3.952353,56.444346],[-3.952204,56.444413],[-3.952163,56.444479],[-3.952228,56.444545],[-3.952293,56.444592],[-3.952359,56.444618],[-3.952425,56.444625],[-3.952492,56.444612],[-3.952547,56.444617],[-3.952592,56.444641],[-3.952625,56.444682],[-3.952647,56.444742],[-3.952621,56.444791],[-3.952549,56.44483],[-3.952429,56.444858],[-3.952263,56.444876],[-3.952107,56.444903],[-3.951962,56.444939],[-3.951828,56.444983],[-3.951705,56.445036],[-3.951623,56.4451],[-3.951585,56.445174],[-3.951588,56.44526],[-3.951634,56.445356],[-3.951718,56.445413],[-3.951842,56.44543],[-3.952005,56.445408],[-3.952206,56.445347],[-3.952394,56.445283],[-3.952569,56.445216],[-3.952729,56.445146],[-3.952876,56.445074],[-3.952999,56.445035],[-3.953099,56.44503],[-3.953176,56.445058],[-3.953229,56.44512],[-3.953298,56.445204],[-3.953383,56.44531],[-3.953484,56.445438],[-3.9536,56.445589],[-3.953647,56.445696],[-3.953625,56.44576],[-3.953534,56.445782],[-3.953373,56.44576],[-3.953235,56.445759],[-3.95312,56.44578],[-3.953029,56.445823],[-3.95296,56.445886],[-3.952937,56.445948],[-3.952959,56.446007],[-3.953026,56.446065],[-3.953138,56.44612],[-3.953277,56.446129],[-3.953441,56.446091],[-3.953632,56.446007],[-3.953849,56.445877],[-3.954018,56.445788],[-3.954138,56.445741],[-3.95421,56.445736],[-3.954234,56.445773],[-3.95425,56.445823],[-3.954258,56.445887],[-3.954258,56.445964],[-3.954251,56.446055],[-3.95427,56.44612],[-3.954315,56.44616],[-3.954387,56.446175],[-3.954485,56.446164],[-3.95458,56.446144],[-3.954671,56.446115],[-3.954758,56.446076],[-3.954842,56.446027],[-3.954897,56.445975],[-3.954922,56.445918],[-3.954918,56.445858],[-3.954884,56.445795],[-3.954926,56.44577],[-3.955044,56.445786],[-3.955238,56.44584],[-3.955507,56.445935],[-3.955771,56.446002],[-3.95603,56.446041],[-3.956284,56.446052],[-3.956533,56.446037],[-3.956666,56.445995],[-3.956682,56.445929],[-3.956582,56.445837]]]}}