{"type":"Feature","properties":{"id":"267676","COMMUNE":"Na h-Eileanan Siar (Western Isles)","PROVINCE":"Na h-Eileanan Siar (Western Isles)","COUNTRY":"UK","FIREDATE":"2025-04-12 13:23:00","FINALDATE":"2025-04-12 13:23:00","CLASS":"FireSeason","areaHA_geo":11.771},"geometry":{"type":"Polygon","coordinates":[[[-7.236754,57.511576],[-7.236837,57.511628],[-7.237004,57.511662],[-7.237255,57.511678],[-7.23759,57.511677],[-7.237895,57.511658],[-7.238168,57.511624],[-7.238411,57.511572],[-7.238624,57.511505],[-7.238792,57.511476],[-7.238917,57.511487],[-7.238998,57.511537],[-7.239035,57.511627],[-7.239047,57.511712],[-7.239035,57.511793],[-7.238997,57.51187],[-7.238935,57.511942],[-7.238912,57.512019],[-7.238928,57.5121],[-7.238983,57.512187],[-7.239078,57.512278],[-7.239127,57.51236],[-7.23913,57.512432],[-7.239088,57.512496],[-7.239,57.51255],[-7.238954,57.512591],[-7.238949,57.512617],[-7.238987,57.51263],[-7.239066,57.512628],[-7.239187,57.512624],[-7.239351,57.512616],[-7.239558,57.512604],[-7.239807,57.51259],[-7.240008,57.512564],[-7.240162,57.512529],[-7.240268,57.512483],[-7.240327,57.512426],[-7.240337,57.512378],[-7.240298,57.512339],[-7.240211,57.512309],[-7.240076,57.512287],[-7.239938,57.512261],[-7.239797,57.512229],[-7.239655,57.512192],[-7.239509,57.512151],[-7.239406,57.512106],[-7.239344,57.51206],[-7.239323,57.512011],[-7.239344,57.511959],[-7.239381,57.511921],[-7.239435,57.511895],[-7.239504,57.511883],[-7.23959,57.511884],[-7.239696,57.511874],[-7.239823,57.511852],[-7.239969,57.51182],[-7.240137,57.511776],[-7.240254,57.511761],[-7.240323,57.511773],[-7.240342,57.511813],[-7.240312,57.511881],[-7.240308,57.511931],[-7.240332,57.511963],[-7.240383,57.511977],[-7.240461,57.511973],[-7.240566,57.511913],[-7.240699,57.511798],[-7.240859,57.511627],[-7.241048,57.511401],[-7.241178,57.5112],[-7.24125,57.511022],[-7.241264,57.51087],[-7.24122,57.510742],[-7.241165,57.510647],[-7.241099,57.510585],[-7.241021,57.510558],[-7.240933,57.510563],[-7.240841,57.510555],[-7.240745,57.510533],[-7.240645,57.510496],[-7.240541,57.510446],[-7.240441,57.510405],[-7.240343,57.510374],[-7.240249,57.510352],[-7.240158,57.51034],[-7.240099,57.510316],[-7.240074,57.510282],[-7.240082,57.510236],[-7.240123,57.510178],[-7.240135,57.510117],[-7.240118,57.51005],[-7.240071,57.50998],[-7.239996,57.509904],[-7.23992,57.509844],[-7.239843,57.509797],[-7.239767,57.509766],[-7.239691,57.509748],[-7.239591,57.509739],[-7.239468,57.509739],[-7.239323,57.509747],[-7.239154,57.509763],[-7.239006,57.509753],[-7.238877,57.509717],[-7.238769,57.509654],[-7.238681,57.509565],[-7.238639,57.509485],[-7.238642,57.509415],[-7.238691,57.509354],[-7.238786,57.509301],[-7.238867,57.509286],[-7.238934,57.509308],[-7.238988,57.509366],[-7.239027,57.509461],[-7.2391,57.509531],[-7.239207,57.509575],[-7.239346,57.509593],[-7.239519,57.509585],[-7.239683,57.509587],[-7.23984,57.509598],[-7.239988,57.509619],[-7.240127,57.509649],[-7.240226,57.509656],[-7.240283,57.509639],[-7.2403,57.509599],[-7.240275,57.509535],[-7.240293,57.509493],[-7.240355,57.509473],[-7.240459,57.509474],[-7.240607,57.509497],[-7.240709,57.509536],[-7.240767,57.509591],[-7.240779,57.509662],[-7.240747,57.509748],[-7.240762,57.509799],[-7.240826,57.509813],[-7.240938,57.509792],[-7.241098,57.509734],[-7.241239,57.509686],[-7.241361,57.509649],[-7.241463,57.509622],[-7.241546,57.509604],[-7.241672,57.509582],[-7.24184,57.509553],[-7.242052,57.509519],[-7.242306,57.509479],[-7.242481,57.509432],[-7.242577,57.509376],[-7.242594,57.509313],[-7.242531,57.509242],[-7.242472,57.509168],[-7.242415,57.50909],[-7.24236,57.509009],[-7.242309,57.508924],[-7.242245,57.50886],[-7.242171,57.508817],[-7.242084,57.508794],[-7.241987,57.508792],[-7.241922,57.508778],[-7.24189,57.508754],[-7.241891,57.508718],[-7.241926,57.50867],[-7.24194,57.50862],[-7.241934,57.508566],[-7.241908,57.508508],[-7.241862,57.508447],[-7.241842,57.508397],[-7.241849,57.508356],[-7.241881,57.508326],[-7.24194,57.508306],[-7.241981,57.508281],[-7.242003,57.50825],[-7.242007,57.508215],[-7.241994,57.508174],[-7.241953,57.508147],[-7.241884,57.508135],[-7.241788,57.508137],[-7.241665,57.508153],[-7.241535,57.508164],[-7.241398,57.508168],[-7.241253,57.508167],[-7.241102,57.508159],[-7.240973,57.508146],[-7.240867,57.508127],[-7.240784,57.508101],[-7.240723,57.50807],[-7.240628,57.508037],[-7.240498,57.508004],[-7.240334,57.50797],[-7.240136,57.507936],[-7.239976,57.50792],[-7.239856,57.507924],[-7.239774,57.507947],[-7.239732,57.507989],[-7.239675,57.508035],[-7.239605,57.508086],[-7.239522,57.50814],[-7.239425,57.508199],[-7.23934,57.508245],[-7.239267,57.508277],[-7.239206,57.508296],[-7.239158,57.508303],[-7.239102,57.508297],[-7.239036,57.50828],[-7.238963,57.508251],[-7.238881,57.50821],[-7.238771,57.508174],[-7.238633,57.508142],[-7.238468,57.508114],[-7.238275,57.508091],[-7.238066,57.508095],[-7.237842,57.508126],[-7.237602,57.508185],[-7.237347,57.50827],[-7.237138,57.508346],[-7.236976,57.508411],[-7.23686,57.508467],[-7.236791,57.508513],[-7.236756,57.508561],[-7.236754,57.508612],[-7.236787,57.508664],[-7.236853,57.50872],[-7.236925,57.508764],[-7.237004,57.508798],[-7.237089,57.508821],[-7.23718,57.508833],[-7.237216,57.508856],[-7.237198,57.508889],[-7.237125,57.508932],[-7.236996,57.508985],[-7.23692,57.509034],[-7.236896,57.509079],[-7.236923,57.509119],[-7.237003,57.509154],[-7.237039,57.509195],[-7.237033,57.509241],[-7.236984,57.509293],[-7.236892,57.509351],[-7.236838,57.50942],[-7.236822,57.5095],[-7.236844,57.509591],[-7.236904,57.509693],[-7.236874,57.509767],[-7.236754,57.509815],[-7.236545,57.509836],[-7.236246,57.50983],[-7.236007,57.50985],[-7.235827,57.509897],[-7.235707,57.50997],[-7.235646,57.510069],[-7.235619,57.510157],[-7.235627,57.510232],[-7.235668,57.510295],[-7.235744,57.510346],[-7.235817,57.510397],[-7.235887,57.510449],[-7.235954,57.510501],[-7.236019,57.510553],[-7.236014,57.510617],[-7.235939,57.510693],[-7.235794,57.51078],[-7.235579,57.510878],[-7.235466,57.510963],[-7.235454,57.511033],[-7.235543,57.511089],[-7.235733,57.51113],[-7.235905,57.511153],[-7.236058,57.511158],[-7.236192,57.511143],[-7.236307,57.511109],[-7.23641,57.511105],[-7.236502,57.511131],[-7.236583,57.511187],[-7.236652,57.511272],[-7.236704,57.511354],[-7.236738,57.511432],[-7.236755,57.511506],[-7.236754,57.511576]]]}}