{"type":"Feature","properties":{"id":"267615","COMMUNE":"Perth and Kinross","PROVINCE":"Perth & Kinross and Stirling","COUNTRY":"UK","FIREDATE":"2025-04-01 13:57:00","CLASS":"FireSeason","areaHA_geo":0.831},"geometry":{"type":"Polygon","coordinates":[[[-3.931938,56.644149],[-3.932002,56.644051],[-3.931914,56.643938],[-3.931675,56.64381],[-3.931283,56.643667],[-3.930977,56.643576],[-3.930755,56.643537],[-3.930617,56.643549],[-3.930564,56.643614],[-3.930467,56.643663],[-3.930325,56.643695],[-3.930139,56.643711],[-3.929908,56.643711],[-3.929776,56.643748],[-3.929743,56.643824],[-3.929808,56.643937],[-3.929971,56.644088],[-3.930168,56.644204],[-3.930397,56.644284],[-3.93066,56.64433],[-3.930956,56.64434],[-3.931232,56.644327],[-3.931487,56.644291],[-3.931723,56.644231],[-3.931938,56.644149]]]}}