{"type":"Feature","properties":{"id":"267799","COMMUNE":"East Devon","PROVINCE":"Devon CC","COUNTRY":"UK","FIREDATE":"2025-03-20 11:51:00","FINALDATE":"2025-03-20 11:51:00","CLASS":"FireSeason","areaHA_geo":0.199},"geometry":{"type":"Polygon","coordinates":[[[-3.352106,50.684085],[-3.352188,50.684135],[-3.352327,50.684151],[-3.352523,50.684132],[-3.352776,50.68408],[-3.352914,50.684021],[-3.352939,50.683957],[-3.35285,50.683886],[-3.352646,50.683809],[-3.352475,50.683762],[-3.352337,50.683746],[-3.35223,50.683761],[-3.352156,50.683806],[-3.352107,50.683862],[-3.352082,50.683926],[-3.352082,50.684001],[-3.352106,50.684085]]]}}