{"type":"Feature","properties":{"id":"267864","COMMUNE":"Northumberland","PROVINCE":"Northumberland","COUNTRY":"UK","FIREDATE":"2025-04-01 11:49:00","CLASS":"FireSeason","areaHA_geo":1.487},"geometry":{"type":"Polygon","coordinates":[[[-2.400261,54.913362],[-2.400382,54.913436],[-2.400548,54.913482],[-2.400759,54.913501],[-2.401016,54.913492],[-2.401238,54.913476],[-2.401427,54.913453],[-2.401581,54.913423],[-2.401701,54.913386],[-2.401795,54.913373],[-2.401865,54.913385],[-2.401909,54.913422],[-2.401928,54.913483],[-2.402007,54.913511],[-2.402146,54.913507],[-2.402346,54.913469],[-2.402605,54.913399],[-2.402775,54.913338],[-2.402853,54.913285],[-2.402841,54.913241],[-2.402739,54.913205],[-2.402665,54.913161],[-2.40262,54.913109],[-2.402603,54.913048],[-2.402615,54.91298],[-2.402583,54.912923],[-2.402507,54.912879],[-2.402387,54.912846],[-2.402223,54.912824],[-2.402093,54.912803],[-2.401997,54.912781],[-2.401935,54.912759],[-2.401906,54.912736],[-2.401911,54.912714],[-2.40195,54.912693],[-2.402023,54.912671],[-2.402129,54.91265],[-2.402193,54.912626],[-2.402214,54.912599],[-2.402192,54.912568],[-2.402127,54.912535],[-2.402041,54.91251],[-2.401936,54.912493],[-2.40181,54.912485],[-2.401664,54.912485],[-2.401545,54.912475],[-2.401453,54.912455],[-2.401387,54.912424],[-2.40135,54.912384],[-2.401306,54.912345],[-2.401256,54.912308],[-2.4012,54.912273],[-2.401139,54.912239],[-2.401065,54.912197],[-2.400981,54.912147],[-2.400884,54.912089],[-2.400776,54.912022],[-2.40066,54.91197],[-2.400537,54.911933],[-2.400407,54.911911],[-2.40027,54.911904],[-2.400155,54.911917],[-2.400063,54.91195],[-2.399994,54.912004],[-2.399947,54.912078],[-2.399942,54.912149],[-2.399978,54.912218],[-2.400055,54.912284],[-2.400173,54.912348],[-2.40029,54.912401],[-2.400405,54.912444],[-2.40052,54.912476],[-2.400632,54.912499],[-2.400746,54.912531],[-2.400859,54.912575],[-2.400974,54.912628],[-2.401088,54.912692],[-2.401194,54.912742],[-2.401291,54.912777],[-2.401379,54.912798],[-2.401458,54.912805],[-2.40153,54.912825],[-2.401595,54.912859],[-2.401653,54.912905],[-2.401704,54.912965],[-2.401724,54.913017],[-2.401712,54.91306],[-2.401667,54.913095],[-2.401592,54.913121],[-2.401501,54.913138],[-2.401395,54.913144],[-2.401274,54.91314],[-2.401138,54.913127],[-2.40101,54.913107],[-2.400889,54.913081],[-2.400775,54.91305],[-2.400668,54.913012],[-2.400561,54.912993],[-2.400454,54.912994],[-2.400345,54.913013],[-2.400237,54.913051],[-2.400174,54.913105],[-2.400157,54.913175],[-2.400186,54.913261],[-2.400261,54.913362]]]}}