{"type":"Feature","properties":{"id":"267867","COMMUNE":"Dumfries and Galloway","PROVINCE":"Dumfries & Galloway","COUNTRY":"UK","FIREDATE":"2025-04-01 12:42:00","FINALDATE":"2025-04-01 13:29:00","CLASS":"FireSeason","areaHA_geo":6.709},"geometry":{"type":"Polygon","coordinates":[[[-4.482448,54.710971],[-4.482601,54.711026],[-4.482709,54.711036],[-4.482771,54.710998],[-4.482787,54.710915],[-4.482782,54.710845],[-4.482755,54.71079],[-4.482708,54.71075],[-4.482639,54.710724],[-4.482615,54.710696],[-4.482636,54.710667],[-4.482701,54.710636],[-4.482812,54.710604],[-4.482893,54.710555],[-4.482943,54.710488],[-4.482963,54.710404],[-4.482953,54.710302],[-4.483018,54.710194],[-4.483157,54.710081],[-4.483371,54.709961],[-4.48366,54.709836],[-4.483886,54.709758],[-4.484051,54.709729],[-4.484153,54.709747],[-4.484193,54.709812],[-4.484249,54.709858],[-4.484321,54.709882],[-4.484409,54.709887],[-4.484512,54.709871],[-4.484638,54.709831],[-4.484787,54.709767],[-4.484958,54.709678],[-4.485153,54.709566],[-4.485309,54.709488],[-4.485427,54.709443],[-4.485506,54.709433],[-4.485548,54.709457],[-4.485542,54.709494],[-4.48549,54.709545],[-4.48539,54.70961],[-4.485243,54.709688],[-4.485127,54.709753],[-4.485042,54.709806],[-4.484987,54.709846],[-4.484964,54.709874],[-4.484947,54.709909],[-4.484936,54.709951],[-4.484931,54.710001],[-4.484931,54.710058],[-4.484925,54.710111],[-4.484912,54.710161],[-4.484891,54.710208],[-4.484864,54.710251],[-4.484832,54.710291],[-4.484795,54.710328],[-4.484754,54.710361],[-4.484709,54.710391],[-4.484677,54.710424],[-4.484659,54.71046],[-4.484653,54.710498],[-4.484661,54.710539],[-4.484678,54.710564],[-4.484703,54.710575],[-4.484737,54.71057],[-4.484779,54.71055],[-4.484836,54.710533],[-4.484908,54.710521],[-4.484994,54.710513],[-4.485095,54.710509],[-4.485176,54.710488],[-4.485237,54.71045],[-4.485278,54.710396],[-4.485298,54.710325],[-4.485307,54.710262],[-4.485302,54.710209],[-4.485285,54.710164],[-4.485255,54.710127],[-4.485243,54.710093],[-4.485248,54.710061],[-4.48527,54.710031],[-4.48531,54.710004],[-4.485346,54.709993],[-4.485378,54.709998],[-4.485406,54.710021],[-4.48543,54.71006],[-4.485464,54.710092],[-4.485509,54.710116],[-4.485565,54.710133],[-4.485631,54.710142],[-4.485663,54.710157],[-4.485662,54.710177],[-4.485628,54.710202],[-4.48556,54.710233],[-4.48551,54.710269],[-4.485478,54.71031],[-4.485465,54.710356],[-4.48547,54.710406],[-4.485496,54.71044],[-4.485543,54.710455],[-4.485611,54.710453],[-4.485699,54.710433],[-4.485777,54.710423],[-4.485845,54.710422],[-4.485902,54.710432],[-4.485949,54.710451],[-4.486006,54.710455],[-4.486073,54.710445],[-4.48615,54.710419],[-4.486238,54.710378],[-4.486294,54.710335],[-4.486317,54.710291],[-4.486309,54.710244],[-4.486268,54.710195],[-4.486244,54.710151],[-4.486236,54.71011],[-4.486244,54.710073],[-4.486268,54.710039],[-4.486311,54.710014],[-4.486373,54.709997],[-4.486453,54.709989],[-4.486553,54.709989],[-4.486629,54.709994],[-4.486683,54.710006],[-4.486714,54.710024],[-4.486723,54.710048],[-4.486713,54.710084],[-4.486684,54.710133],[-4.486637,54.710195],[-4.486571,54.710269],[-4.486516,54.710344],[-4.486472,54.710419],[-4.486438,54.710493],[-4.486416,54.710568],[-4.486412,54.71063],[-4.486426,54.710679],[-4.486458,54.710715],[-4.48651,54.710737],[-4.486573,54.710729],[-4.486648,54.71069],[-4.486735,54.710619],[-4.486834,54.710518],[-4.48691,54.710416],[-4.486962,54.710314],[-4.486991,54.710211],[-4.486997,54.710108],[-4.487018,54.71005],[-4.487053,54.710038],[-4.487103,54.710072],[-4.487168,54.710152],[-4.48723,54.710205],[-4.487289,54.710229],[-4.487344,54.710226],[-4.487395,54.710195],[-4.487446,54.710179],[-4.487497,54.710176],[-4.487547,54.710189],[-4.487596,54.710215],[-4.487631,54.710243],[-4.487652,54.710273],[-4.487658,54.710305],[-4.48765,54.710338],[-4.487661,54.710363],[-4.487692,54.710378],[-4.487741,54.710385],[-4.48781,54.710382],[-4.487864,54.710361],[-4.487904,54.710321],[-4.48793,54.710263],[-4.487942,54.710185],[-4.487937,54.710133],[-4.487916,54.710106],[-4.487878,54.710104],[-4.487824,54.710127],[-4.487775,54.710141],[-4.487732,54.710144],[-4.487694,54.710137],[-4.487661,54.71012],[-4.487613,54.710093],[-4.487551,54.710057],[-4.487473,54.710011],[-4.48738,54.709955],[-4.48733,54.709905],[-4.487322,54.709861],[-4.487358,54.709823],[-4.487435,54.709791],[-4.487492,54.709751],[-4.487527,54.709701],[-4.48754,54.709642],[-4.487532,54.709574],[-4.48751,54.709534],[-4.487474,54.70952],[-4.487423,54.709533],[-4.487358,54.709573],[-4.487296,54.709601],[-4.487235,54.709617],[-4.487177,54.70962],[-4.487121,54.709611],[-4.487075,54.709619],[-4.487039,54.709643],[-4.487013,54.709684],[-4.486997,54.709741],[-4.486971,54.709784],[-4.486935,54.709812],[-4.486889,54.709825],[-4.486832,54.709824],[-4.486768,54.709818],[-4.486696,54.709807],[-4.486617,54.70979],[-4.486529,54.709768],[-4.486442,54.709765],[-4.486355,54.709781],[-4.486269,54.709815],[-4.486182,54.709869],[-4.486115,54.709886],[-4.486066,54.709865],[-4.486036,54.709807],[-4.486025,54.709711],[-4.486062,54.709639],[-4.486147,54.709592],[-4.486281,54.709569],[-4.486463,54.709571],[-4.486604,54.709563],[-4.486704,54.709545],[-4.486762,54.709518],[-4.486779,54.709482],[-4.486828,54.709448],[-4.486909,54.709417],[-4.487022,54.709388],[-4.487168,54.709361],[-4.487278,54.709321],[-4.487353,54.709266],[-4.487392,54.709198],[-4.487395,54.709115],[-4.487378,54.709058],[-4.48734,54.709027],[-4.487282,54.70902],[-4.487203,54.709039],[-4.48712,54.709068],[-4.487035,54.709106],[-4.486947,54.709155],[-4.486855,54.709213],[-4.486766,54.709249],[-4.48668,54.709261],[-4.486596,54.70925],[-4.486514,54.709215],[-4.486463,54.709182],[-4.486443,54.709149],[-4.486454,54.709117],[-4.486495,54.709085],[-4.486509,54.709064],[-4.486495,54.709052],[-4.486453,54.70905],[-4.486383,54.709058],[-4.486305,54.709076],[-4.486219,54.709102],[-4.486124,54.709138],[-4.486021,54.709182],[-4.485924,54.709207],[-4.485831,54.709213],[-4.485745,54.7092],[-4.485664,54.709168],[-4.485623,54.709127],[-4.485622,54.709078],[-4.48566,54.70902],[-4.485739,54.708953],[-4.485834,54.708903],[-4.485946,54.708869],[-4.486074,54.708851],[-4.486219,54.708849],[-4.486328,54.708834],[-4.486401,54.708804],[-4.48644,54.708761],[-4.486442,54.708703],[-4.486473,54.708672],[-4.486533,54.708668],[-4.486621,54.708691],[-4.486738,54.70874],[-4.486842,54.708777],[-4.486934,54.708804],[-4.487014,54.708819],[-4.487081,54.708822],[-4.487153,54.708792],[-4.48723,54.708729],[-4.487311,54.708632],[-4.487396,54.708502],[-4.487426,54.70838],[-4.4874,54.708266],[-4.487318,54.70816],[-4.48718,54.708062],[-4.487047,54.707979],[-4.486918,54.707912],[-4.486794,54.707859],[-4.486675,54.707822],[-4.486599,54.707785],[-4.486566,54.707749],[-4.486577,54.707713],[-4.48663,54.707678],[-4.486667,54.707644],[-4.486688,54.707609],[-4.486692,54.707574],[-4.486679,54.707539],[-4.486653,54.707518],[-4.486612,54.707509],[-4.486556,54.707514],[-4.486487,54.707532],[-4.486395,54.707571],[-4.486282,54.707633],[-4.486147,54.707717],[-4.48599,54.707823],[-4.48585,54.707905],[-4.485726,54.707961],[-4.48562,54.707993],[-4.485529,54.707999],[-4.485442,54.708017],[-4.485358,54.708045],[-4.485277,54.708083],[-4.485199,54.708133],[-4.485122,54.708166],[-4.485046,54.708185],[-4.484971,54.708188],[-4.484897,54.708176],[-4.48483,54.708185],[-4.48477,54.708214],[-4.484716,54.708266],[-4.484669,54.708338],[-4.484606,54.708397],[-4.484525,54.708444],[-4.484427,54.708478],[-4.484313,54.708499],[-4.484227,54.708538],[-4.48417,54.708595],[-4.484141,54.70867],[-4.484142,54.708763],[-4.484155,54.708835],[-4.484181,54.708884],[-4.48422,54.708911],[-4.484271,54.708917],[-4.484311,54.70893],[-4.484338,54.70895],[-4.484353,54.708979],[-4.484356,54.709014],[-4.484329,54.70904],[-4.484272,54.709057],[-4.484185,54.709063],[-4.484068,54.70906],[-4.483959,54.709068],[-4.483857,54.709087],[-4.483762,54.709119],[-4.483675,54.709161],[-4.483594,54.709202],[-4.483521,54.70924],[-4.483453,54.709276],[-4.483393,54.70931],[-4.483338,54.709326],[-4.483288,54.709325],[-4.483243,54.709307],[-4.483204,54.709272],[-4.483193,54.709237],[-4.48321,54.709202],[-4.483256,54.709169],[-4.48333,54.709135],[-4.483378,54.709081],[-4.483401,54.709007],[-4.483399,54.708913],[-4.483371,54.708798],[-4.483331,54.708712],[-4.483279,54.708656],[-4.483215,54.708628],[-4.48314,54.708629],[-4.483084,54.708637],[-4.483047,54.70865],[-4.483031,54.708671],[-4.483034,54.708697],[-4.483027,54.708721],[-4.483013,54.708744],[-4.482989,54.708765],[-4.482956,54.708784],[-4.482931,54.708808],[-4.482916,54.708838],[-4.482908,54.708872],[-4.482909,54.708912],[-4.482894,54.708947],[-4.482862,54.708978],[-4.482813,54.709004],[-4.482748,54.709025],[-4.482697,54.709052],[-4.48266,54.709086],[-4.482636,54.709126],[-4.482626,54.709173],[-4.482583,54.709212],[-4.482506,54.709242],[-4.482396,54.709263],[-4.482252,54.709276],[-4.482141,54.709299],[-4.482063,54.709331],[-4.482019,54.709372],[-4.482007,54.709423],[-4.481971,54.709466],[-4.481909,54.709501],[-4.481822,54.709528],[-4.48171,54.709547],[-4.481625,54.709586],[-4.481569,54.709645],[-4.48154,54.709724],[-4.48154,54.709823],[-4.481504,54.709904],[-4.481435,54.709967],[-4.48133,54.710013],[-4.481192,54.710041],[-4.481089,54.710071],[-4.481023,54.710102],[-4.480993,54.710136],[-4.480999,54.710171],[-4.481022,54.7102],[-4.481063,54.710222],[-4.481121,54.710237],[-4.481197,54.710245],[-4.481285,54.710258],[-4.481384,54.710277],[-4.481495,54.710301],[-4.481618,54.710331],[-4.481728,54.710362],[-4.481826,54.710395],[-4.481912,54.71043],[-4.481985,54.710467],[-4.48203,54.710507],[-4.482049,54.71055],[-4.48204,54.710595],[-4.482005,54.710643],[-4.482028,54.710705],[-4.482109,54.71078],[-4.482249,54.710868],[-4.482448,54.710971]]]}}