{"type":"Feature","properties":{"id":"267866","COMMUNE":"County Durham","PROVINCE":"Durham CC","COUNTRY":"UK","FIREDATE":"2025-04-01 12:42:00","FINALDATE":"2025-04-01 13:08:00","CLASS":"FireSeason","areaHA_geo":0.555},"geometry":{"type":"Polygon","coordinates":[[[-2.015082,54.854313],[-2.015117,54.854333],[-2.015171,54.854341],[-2.015244,54.854338],[-2.015336,54.854322],[-2.015422,54.854318],[-2.015501,54.854327],[-2.015573,54.854347],[-2.015639,54.85438],[-2.015717,54.854389],[-2.015809,54.854375],[-2.015913,54.854338],[-2.01603,54.854277],[-2.016128,54.854215],[-2.016208,54.854149],[-2.016268,54.854082],[-2.016308,54.854012],[-2.016297,54.853946],[-2.016233,54.853885],[-2.016117,54.853828],[-2.015948,54.853775],[-2.015799,54.853735],[-2.015669,54.853709],[-2.015558,54.853696],[-2.015467,54.853696],[-2.015383,54.853691],[-2.015307,54.853681],[-2.015237,54.853665],[-2.015175,54.853644],[-2.015121,54.853622],[-2.015074,54.853599],[-2.015035,54.853574],[-2.015004,54.853548],[-2.014946,54.853521],[-2.014861,54.853492],[-2.014749,54.853461],[-2.01461,54.853429],[-2.014501,54.853414],[-2.014422,54.853417],[-2.014374,54.853437],[-2.014356,54.853474],[-2.014376,54.853516],[-2.014435,54.853562],[-2.014533,54.853612],[-2.01467,54.853666],[-2.014789,54.853708],[-2.014891,54.853737],[-2.014974,54.853753],[-2.01504,54.853757],[-2.015093,54.853771],[-2.015132,54.853795],[-2.015158,54.853829],[-2.015172,54.853874],[-2.015191,54.853917],[-2.015217,54.85396],[-2.01525,54.854003],[-2.015289,54.854045],[-2.015299,54.854084],[-2.015281,54.854121],[-2.015233,54.854154],[-2.015157,54.854185],[-2.015104,54.854217],[-2.015074,54.854248],[-2.015067,54.85428],[-2.015082,54.854313]]]}}