{"type":"Feature","properties":{"id":"267870","COMMUNE":"South Lanarkshire","PROVINCE":"South Lanarkshire","COUNTRY":"UK","FIREDATE":"2025-03-19 11:51:44","CLASS":"FireSeason","areaHA_geo":0.795},"geometry":{"type":"Polygon","coordinates":[[[-3.611786,55.547485],[-3.611818,55.547535],[-3.611905,55.547558],[-3.612049,55.547555],[-3.612248,55.547525],[-3.612401,55.547486],[-3.612507,55.547438],[-3.612567,55.54738],[-3.61258,55.547314],[-3.612622,55.547252],[-3.612692,55.547195],[-3.612792,55.547143],[-3.61292,55.547097],[-3.613082,55.547072],[-3.613276,55.547069],[-3.613503,55.547089],[-3.613763,55.54713],[-3.613978,55.547149],[-3.614147,55.547147],[-3.614271,55.547124],[-3.614349,55.547079],[-3.614392,55.547028],[-3.614398,55.546972],[-3.614367,55.546911],[-3.614301,55.546845],[-3.614227,55.546803],[-3.614145,55.546785],[-3.614055,55.546792],[-3.613957,55.546823],[-3.613863,55.546844],[-3.613773,55.546856],[-3.613687,55.546858],[-3.613605,55.546851],[-3.613494,55.546818],[-3.613355,55.54676],[-3.613186,55.546676],[-3.612989,55.546567],[-3.612788,55.54654],[-3.612584,55.546597],[-3.612376,55.546737],[-3.612164,55.54696],[-3.611999,55.547147],[-3.611881,55.547296],[-3.61181,55.547409],[-3.611786,55.547485]]]}}