{"type":"Feature","properties":{"id":"267828","COMMUNE":"Neath Port Talbot","PROVINCE":"Bridgend and Neath Port Talbot","COUNTRY":"UK","FIREDATE":"2025-03-19 10:39:14.571","FINALDATE":"2025-03-20 10:39:17.252","CLASS":"FireSeason","areaHA_geo":22.564},"geometry":{"type":"Polygon","coordinates":[[[-3.857,51.786428],[-3.856984,51.786373],[-3.856988,51.786371],[-3.857024,51.786355],[-3.857094,51.786323],[-3.857166,51.78629],[-3.85724,51.786256],[-3.857317,51.78622],[-3.857396,51.786182],[-3.857478,51.786143],[-3.857562,51.786103],[-3.857646,51.786067],[-3.857729,51.786035],[-3.857812,51.786008],[-3.857894,51.785985],[-3.857975,51.785967],[-3.858056,51.785954],[-3.858136,51.785945],[-3.858216,51.78594],[-3.858287,51.785929],[-3.85835,51.785912],[-3.858404,51.785888],[-3.858451,51.785858],[-3.858488,51.785822],[-3.858517,51.78578],[-3.858538,51.785731],[-3.858551,51.785676],[-3.858558,51.785627],[-3.85856,51.785584],[-3.858557,51.785548],[-3.858549,51.785519],[-3.858536,51.785496],[-3.858517,51.785479],[-3.858493,51.785469],[-3.858464,51.785465],[-3.85844,51.785457],[-3.85842,51.785444],[-3.858405,51.785426],[-3.858394,51.785404],[-3.858388,51.785378],[-3.858386,51.785347],[-3.858389,51.785312],[-3.858396,51.785272],[-3.858396,51.785237],[-3.858389,51.785207],[-3.858374,51.785181],[-3.858352,51.785161],[-3.858322,51.785145],[-3.858285,51.785134],[-3.858241,51.785128],[-3.858189,51.785127],[-3.858144,51.785121],[-3.858107,51.785111],[-3.858077,51.785096],[-3.858054,51.785077],[-3.858039,51.785053],[-3.85803,51.785025],[-3.858029,51.784992],[-3.858035,51.784955],[-3.858032,51.784921],[-3.858019,51.784891],[-3.857997,51.784864],[-3.857965,51.784841],[-3.857924,51.784822],[-3.857873,51.784806],[-3.857812,51.784794],[-3.857742,51.784785],[-3.857681,51.784774],[-3.857629,51.784762],[-3.857585,51.784748],[-3.857551,51.784732],[-3.857525,51.784714],[-3.857508,51.784694],[-3.8575,51.784673],[-3.8575,51.78465],[-3.857505,51.784629],[-3.857514,51.78461],[-3.857527,51.784594],[-3.857545,51.784581],[-3.857567,51.784569],[-3.857593,51.78456],[-3.857623,51.784554],[-3.857657,51.78455],[-3.857687,51.784539],[-3.857712,51.784523],[-3.857732,51.7845],[-3.857748,51.78447],[-3.857758,51.784435],[-3.857765,51.784393],[-3.857766,51.784345],[-3.857763,51.78429],[-3.857764,51.784237],[-3.85777,51.784185],[-3.857781,51.784133],[-3.857796,51.784083],[-3.857816,51.784035],[-3.85784,51.783987],[-3.857869,51.78394],[-3.857902,51.783895],[-3.857922,51.78385],[-3.857928,51.783807],[-3.857921,51.783765],[-3.8579,51.783724],[-3.857866,51.783685],[-3.857819,51.783646],[-3.857758,51.783609],[-3.857683,51.783573],[-3.857609,51.783535],[-3.857535,51.783496],[-3.857461,51.783456],[-3.857388,51.783415],[-3.857315,51.783372],[-3.857243,51.783329],[-3.857171,51.783284],[-3.857099,51.783237],[-3.857034,51.783199],[-3.856978,51.783169],[-3.856928,51.783147],[-3.856886,51.783133],[-3.856852,51.783127],[-3.856825,51.783129],[-3.856805,51.78314],[-3.856793,51.783158],[-3.856778,51.783174],[-3.85676,51.783188],[-3.856739,51.783199],[-3.856715,51.783208],[-3.856688,51.783215],[-3.856659,51.783219],[-3.856626,51.783221],[-3.85659,51.78322],[-3.856558,51.783211],[-3.85653,51.783192],[-3.856506,51.783164],[-3.856486,51.783128],[-3.856469,51.783082],[-3.856457,51.783028],[-3.856448,51.782964],[-3.856443,51.782891],[-3.856433,51.782823],[-3.856419,51.78276],[-3.8564,51.782701],[-3.856376,51.782646],[-3.856347,51.782596],[-3.856314,51.782551],[-3.856276,51.78251],[-3.856233,51.782474],[-3.85619,51.782446],[-3.856147,51.782428],[-3.856105,51.782419],[-3.856062,51.782419],[-3.85602,51.782429],[-3.855978,51.782447],[-3.855935,51.782475],[-3.855893,51.782512],[-3.855859,51.782546],[-3.855831,51.782578],[-3.855811,51.782608],[-3.855798,51.782636],[-3.855792,51.782662],[-3.855793,51.782685],[-3.855802,51.782706],[-3.855817,51.782725],[-3.855823,51.782741],[-3.85582,51.782754],[-3.855806,51.782764],[-3.855782,51.782771],[-3.855749,51.782775],[-3.855706,51.782776],[-3.855653,51.782774],[-3.85559,51.78277],[-3.855534,51.782767],[-3.855485,51.782765],[-3.855443,51.782765],[-3.855408,51.782767],[-3.85538,51.78277],[-3.855359,51.782775],[-3.855345,51.782782],[-3.855337,51.78279],[-3.85533,51.7828],[-3.855323,51.782811],[-3.855315,51.782824],[-3.855308,51.782838],[-3.8553,51.782854],[-3.855293,51.782871],[-3.855285,51.78289],[-3.855278,51.782911],[-3.855265,51.782926],[-3.855246,51.782937],[-3.855222,51.782944],[-3.855191,51.782946],[-3.855156,51.782943],[-3.855114,51.782935],[-3.855067,51.782923],[-3.855014,51.782906],[-3.854962,51.78289],[-3.854909,51.782874],[-3.854856,51.78286],[-3.854803,51.782846],[-3.854751,51.782833],[-3.854698,51.782821],[-3.854645,51.782809],[-3.854592,51.782798],[-3.854549,51.782786],[-3.854514,51.782773],[-3.854489,51.782758],[-3.854473,51.782743],[-3.854467,51.782726],[-3.85447,51.782707],[-3.854481,51.782688],[-3.854503,51.782667],[-3.854516,51.782644],[-3.854521,51.782618],[-3.854519,51.78259],[-3.854508,51.782559],[-3.85449,51.782527],[-3.854464,51.782491],[-3.854429,51.782454],[-3.854387,51.782413],[-3.854345,51.782376],[-3.854304,51.782341],[-3.854263,51.782309],[-3.854222,51.78228],[-3.854182,51.782253],[-3.854141,51.782229],[-3.854102,51.782208],[-3.854062,51.78219],[-3.854016,51.782174],[-3.853963,51.782162],[-3.853904,51.782153],[-3.853838,51.782147],[-3.853765,51.782144],[-3.853685,51.782144],[-3.853599,51.782147],[-3.853506,51.782153],[-3.853414,51.782161],[-3.853323,51.78217],[-3.853233,51.782181],[-3.853144,51.782193],[-3.853056,51.782207],[-3.852968,51.782223],[-3.852882,51.78224],[-3.852797,51.782259],[-3.852718,51.782276],[-3.852645,51.782292],[-3.852579,51.782307],[-3.852519,51.78232],[-3.852465,51.782332],[-3.852417,51.782342],[-3.852376,51.782352],[-3.852341,51.782359],[-3.852304,51.78237],[-3.852266,51.782382],[-3.852226,51.782397],[-3.852185,51.782414],[-3.852143,51.782433],[-3.852098,51.782455],[-3.852053,51.782479],[-3.852006,51.782506],[-3.851959,51.78253],[-3.851912,51.782554],[-3.851866,51.782575],[-3.851819,51.782595],[-3.851773,51.782614],[-3.851728,51.782631],[-3.851682,51.782647],[-3.851637,51.78266],[-3.8516,51.782678],[-3.851571,51.782699],[-3.85155,51.782724],[-3.851537,51.782752],[-3.851532,51.782784],[-3.851536,51.78282],[-3.851547,51.782859],[-3.851566,51.782902],[-3.851594,51.782937],[-3.851629,51.782963],[-3.851673,51.782982],[-3.851724,51.782992],[-3.851784,51.782994],[-3.851852,51.782988],[-3.851928,51.782974],[-3.852012,51.782952],[-3.852091,51.782935],[-3.852165,51.782925],[-3.852235,51.78292],[-3.852299,51.782921],[-3.852359,51.782927],[-3.852414,51.78294],[-3.852464,51.782958],[-3.852509,51.782982],[-3.852542,51.783003],[-3.852562,51.783022],[-3.852571,51.783038],[-3.852567,51.783052],[-3.852552,51.783064],[-3.852524,51.783072],[-3.852484,51.783079],[-3.852431,51.783083],[-3.852391,51.783089],[-3.852362,51.7831],[-3.852345,51.783113],[-3.852339,51.78313],[-3.852345,51.783149],[-3.852362,51.783172],[-3.852391,51.783198],[-3.852432,51.783228],[-3.852472,51.783251],[-3.852511,51.783269],[-3.852548,51.783281],[-3.852585,51.783288],[-3.852621,51.783289],[-3.852655,51.783284],[-3.852689,51.783274],[-3.852721,51.783258],[-3.852756,51.783245],[-3.852793,51.783237],[-3.852832,51.783232],[-3.852873,51.783231],[-3.852917,51.783233],[-3.852962,51.783239],[-3.85301,51.783249],[-3.853059,51.783263],[-3.853104,51.783277],[-3.853144,51.783293],[-3.853179,51.78331],[-3.85321,51.783327],[-3.853235,51.783346],[-3.853255,51.783366],[-3.853271,51.783387],[-3.853282,51.783409],[-3.853289,51.783429],[-3.853293,51.783448],[-3.853293,51.783465],[-3.85329,51.783481],[-3.853284,51.783495],[-3.853274,51.783507],[-3.85326,51.783518],[-3.853244,51.783527],[-3.853229,51.783539],[-3.853217,51.783552],[-3.853207,51.783567],[-3.853199,51.783583],[-3.853194,51.783602],[-3.853191,51.783622],[-3.85319,51.783645],[-3.853192,51.783669],[-3.853199,51.78369],[-3.853212,51.783707],[-3.853231,51.78372],[-3.853256,51.78373],[-3.853287,51.783736],[-3.853323,51.783739],[-3.853366,51.783738],[-3.853414,51.783733],[-3.853453,51.783734],[-3.853484,51.783738],[-3.853507,51.783748],[-3.853521,51.783762],[-3.853527,51.783781],[-3.853525,51.783804],[-3.853514,51.783833],[-3.853494,51.783865],[-3.853473,51.783894],[-3.85345,51.78392],[-3.853426,51.783941],[-3.8534,51.783959],[-3.853372,51.783973],[-3.853343,51.783983],[-3.853311,51.78399],[-3.853279,51.783992],[-3.853249,51.783992],[-3.853224,51.783989],[-3.853202,51.783983],[-3.853183,51.783974],[-3.853168,51.783963],[-3.853157,51.783948],[-3.853149,51.783931],[-3.853144,51.783911],[-3.853133,51.783896],[-3.853115,51.783886],[-3.853091,51.783881],[-3.853059,51.783882],[-3.853021,51.783888],[-3.852976,51.783899],[-3.852924,51.783916],[-3.852866,51.783937],[-3.852823,51.783962],[-3.852795,51.78399],[-3.852784,51.784021],[-3.852787,51.784055],[-3.852807,51.784093],[-3.852842,51.784134],[-3.852892,51.784177],[-3.852958,51.784224],[-3.853024,51.784266],[-3.853091,51.784303],[-3.853157,51.784334],[-3.853224,51.784361],[-3.85329,51.784382],[-3.853357,51.784397],[-3.853424,51.784408],[-3.853491,51.784414],[-3.853549,51.784414],[-3.853599,51.78441],[-3.85364,51.7844],[-3.853672,51.784386],[-3.853695,51.784367],[-3.85371,51.784343],[-3.853716,51.784314],[-3.853714,51.78428],[-3.853714,51.78425],[-3.853717,51.784223],[-3.853724,51.784199],[-3.853733,51.784178],[-3.853745,51.784161],[-3.853761,51.784147],[-3.853779,51.784136],[-3.853801,51.784128],[-3.853827,51.784125],[-3.853858,51.784125],[-3.853895,51.78413],[-3.853936,51.784139],[-3.853982,51.784151],[-3.854033,51.784168],[-3.854089,51.784188],[-3.85415,51.784212],[-3.854198,51.784237],[-3.854231,51.784262],[-3.854251,51.784287],[-3.854257,51.784313],[-3.854249,51.784339],[-3.854227,51.784365],[-3.854192,51.784391],[-3.854143,51.784418],[-3.854099,51.784444],[-3.85406,51.784469],[-3.854026,51.784494],[-3.853997,51.784518],[-3.853973,51.784542],[-3.853954,51.784565],[-3.85394,51.784587],[-3.853931,51.784609],[-3.853916,51.784631],[-3.853894,51.784654],[-3.853867,51.784677],[-3.853834,51.7847],[-3.853795,51.784724],[-3.853749,51.784748],[-3.853698,51.784773],[-3.85364,51.784798],[-3.853591,51.784825],[-3.853548,51.784853],[-3.853514,51.784883],[-3.853487,51.784914],[-3.853468,51.784947],[-3.853456,51.784981],[-3.853452,51.785017],[-3.853456,51.785055],[-3.853457,51.785089],[-3.853454,51.785121],[-3.853449,51.785151],[-3.85344,51.785177],[-3.853429,51.785201],[-3.853414,51.785222],[-3.853397,51.785241],[-3.853376,51.785257],[-3.853352,51.785274],[-3.853324,51.785293],[-3.853294,51.785313],[-3.85326,51.785335],[-3.853223,51.785358],[-3.853183,51.785383],[-3.853139,51.785409],[-3.853092,51.785436],[-3.853039,51.785462],[-3.852979,51.785486],[-3.852913,51.785507],[-3.85284,51.785527],[-3.85276,51.785545],[-3.852674,51.78556],[-3.852581,51.785574],[-3.852482,51.785586],[-3.852397,51.785601],[-3.852326,51.785618],[-3.852268,51.785638],[-3.852225,51.785661],[-3.852196,51.785686],[-3.85218,51.785715],[-3.852179,51.785746],[-3.852191,51.78578],[-3.852195,51.78581],[-3.852189,51.785837],[-3.852175,51.78586],[-3.852152,51.78588],[-3.852119,51.785897],[-3.852078,51.78591],[-3.852027,51.785919],[-3.851968,51.785925],[-3.851915,51.785932],[-3.85187,51.785942],[-3.851832,51.785953],[-3.851802,51.785966],[-3.851778,51.78598],[-3.851762,51.785996],[-3.851753,51.786014],[-3.851751,51.786034],[-3.851758,51.786056],[-3.851772,51.78608],[-3.851794,51.786106],[-3.851825,51.786134],[-3.851864,51.786164],[-3.85191,51.786196],[-3.851965,51.786231],[-3.852028,51.786267],[-3.852088,51.786299],[-3.852145,51.786327],[-3.8522,51.78635],[-3.852253,51.786369],[-3.852302,51.786383],[-3.85235,51.786393],[-3.852394,51.786399],[-3.852436,51.7864],[-3.852476,51.786401],[-3.852513,51.786402],[-3.852548,51.786403],[-3.852581,51.786404],[-3.852612,51.786405],[-3.85264,51.786406],[-3.852667,51.786406],[-3.85269,51.786407],[-3.852716,51.78641],[-3.852742,51.786414],[-3.85277,51.78642],[-3.852799,51.786427],[-3.852829,51.786436],[-3.852861,51.786447],[-3.852894,51.78646],[-3.852928,51.786474],[-3.852962,51.786487],[-3.852996,51.786498],[-3.853029,51.786508],[-3.853062,51.786516],[-3.853095,51.786523],[-3.853128,51.786528],[-3.853161,51.786532],[-3.853193,51.786534],[-3.853225,51.786533],[-3.853256,51.78653],[-3.853288,51.786524],[-3.853318,51.786514],[-3.853349,51.786502],[-3.853379,51.786488],[-3.853408,51.78647],[-3.853438,51.786449],[-3.853468,51.786432],[-3.8535,51.786417],[-3.853534,51.786405],[-3.853568,51.786396],[-3.853605,51.78639],[-3.853642,51.786387],[-3.853681,51.786386],[-3.853721,51.786389],[-3.853756,51.786394],[-3.853785,51.786402],[-3.853809,51.786413],[-3.853827,51.786427],[-3.85384,51.786443],[-3.853847,51.786463],[-3.853848,51.786485],[-3.853844,51.78651],[-3.853845,51.786531],[-3.853851,51.78655],[-3.853861,51.786565],[-3.853877,51.786577],[-3.853898,51.786586],[-3.853923,51.786592],[-3.853954,51.786595],[-3.853989,51.786594],[-3.854022,51.786596],[-3.854052,51.786602],[-3.854079,51.78661],[-3.854103,51.786621],[-3.854124,51.786635],[-3.854143,51.786652],[-3.854159,51.786672],[-3.854172,51.786695],[-3.854183,51.786717],[-3.854192,51.786738],[-3.854199,51.786758],[-3.854204,51.786778],[-3.854207,51.786797],[-3.854208,51.786815],[-3.854208,51.786832],[-3.854205,51.786848],[-3.854195,51.786863],[-3.854179,51.786877],[-3.854157,51.78689],[-3.854128,51.786902],[-3.854093,51.786913],[-3.854051,51.786923],[-3.854002,51.786932],[-3.853947,51.786939],[-3.853899,51.786949],[-3.853857,51.78696],[-3.853821,51.786972],[-3.853792,51.786986],[-3.853769,51.787001],[-3.853752,51.787018],[-3.853742,51.787036],[-3.853738,51.787056],[-3.853743,51.787075],[-3.853756,51.787093],[-3.853778,51.78711],[-3.853807,51.787126],[-3.853845,51.787141],[-3.853892,51.787155],[-3.853946,51.787168],[-3.85401,51.78718],[-3.854068,51.787188],[-3.854121,51.787191],[-3.854169,51.787189],[-3.854213,51.787182],[-3.854252,51.787171],[-3.854285,51.787156],[-3.854314,51.787135],[-3.854338,51.787111],[-3.854366,51.78709],[-3.854397,51.787072],[-3.854433,51.787058],[-3.854472,51.787048],[-3.854516,51.787042],[-3.854563,51.787039],[-3.854614,51.787039],[-3.854668,51.787044],[-3.85472,51.787046],[-3.854769,51.787046],[-3.854815,51.787045],[-3.854859,51.787041],[-3.854899,51.787035],[-3.854937,51.787027],[-3.854971,51.787016],[-3.855003,51.787004],[-3.855035,51.786993],[-3.855067,51.786984],[-3.8551,51.786976],[-3.855132,51.78697],[-3.855165,51.786965],[-3.855198,51.786962],[-3.855232,51.78696],[-3.855265,51.786959],[-3.855286,51.78696],[-3.855293,51.78696],[-3.855292,51.787028],[-3.855284,51.787165],[-3.855153,51.78726],[-3.8549,51.787314],[-3.854656,51.787367],[-3.854421,51.787418],[-3.854291,51.787529],[-3.854266,51.787699],[-3.854299,51.787927],[-3.854388,51.788214],[-3.854533,51.788429],[-3.854732,51.788572],[-3.855063,51.788706],[-3.855526,51.788829],[-3.855954,51.788963],[-3.856347,51.789107],[-3.856804,51.789272],[-3.857326,51.78946],[-3.857695,51.789559],[-3.857911,51.789569],[-3.858152,51.789445],[-3.85842,51.789187],[-3.858502,51.788862],[-3.858399,51.788469],[-3.858332,51.788102],[-3.858303,51.78776],[-3.858349,51.787474],[-3.858471,51.787246],[-3.858562,51.787104],[-3.858622,51.787049],[-3.858646,51.786969],[-3.858632,51.786863],[-3.858548,51.786778],[-3.858392,51.786713],[-3.858208,51.786681],[-3.857996,51.786683],[-3.857725,51.786709],[-3.857393,51.786761],[-3.857183,51.786738],[-3.857095,51.786641],[-3.857034,51.786538],[-3.857,51.786428]]]}}