{"type":"Feature","properties":{"id":"267875","COMMUNE":"Lochaber","PROVINCE":"Lochaber, Skye & Lochalsh, Arran & Cumbrae and Argyll & Bute","COUNTRY":"UK","FIREDATE":"2025-03-20 12:02:16.082","CLASS":"FireSeason","areaHA_geo":313.129},"geometry":{"type":"Polygon","coordinates":[[[-5.698673,56.903771],[-5.699353,56.90375],[-5.699977,56.903627],[-5.700547,56.903402],[-5.701061,56.903073],[-5.701521,56.902643],[-5.70198,56.902318],[-5.702438,56.9021],[-5.702895,56.901988],[-5.703352,56.901982],[-5.703836,56.901879],[-5.704347,56.90168],[-5.704887,56.901383],[-5.705454,56.900989],[-5.705957,56.900606],[-5.706396,56.900234],[-5.70677,56.899873],[-5.707081,56.899523],[-5.707371,56.899219],[-5.70764,56.898961],[-5.707889,56.89875],[-5.708117,56.898584],[-5.708361,56.898442],[-5.70862,56.898323],[-5.708895,56.898227],[-5.709185,56.898154],[-5.709411,56.898011],[-5.709573,56.897798],[-5.709671,56.897514],[-5.709705,56.89716],[-5.709932,56.896858],[-5.710353,56.896607],[-5.710968,56.896407],[-5.711776,56.896258],[-5.712387,56.896118],[-5.712802,56.895986],[-5.713019,56.895863],[-5.713039,56.895748],[-5.713255,56.895621],[-5.713667,56.895484],[-5.714274,56.895335],[-5.715078,56.895174],[-5.715716,56.894949],[-5.71619,56.89466],[-5.716499,56.894307],[-5.716644,56.89389],[-5.716853,56.893558],[-5.717127,56.893313],[-5.717466,56.893153],[-5.717871,56.893078],[-5.718256,56.893028],[-5.718623,56.893002],[-5.718972,56.893],[-5.719302,56.893022],[-5.719574,56.893082],[-5.719788,56.893181],[-5.719944,56.893318],[-5.720041,56.893494],[-5.720238,56.893567],[-5.720535,56.893537],[-5.720931,56.893404],[-5.721428,56.893168],[-5.721693,56.892955],[-5.721726,56.892763],[-5.721528,56.892594],[-5.721099,56.892446],[-5.720675,56.892323],[-5.720255,56.892225],[-5.719839,56.892151],[-5.719429,56.892101],[-5.718927,56.892066],[-5.718333,56.892044],[-5.717648,56.892037],[-5.716872,56.892045],[-5.716282,56.892033],[-5.715879,56.892001],[-5.715662,56.891949],[-5.715632,56.891878],[-5.715613,56.891805],[-5.715604,56.891731],[-5.715607,56.891656],[-5.715621,56.891579],[-5.715509,56.891534],[-5.715274,56.891519],[-5.714914,56.891535],[-5.714429,56.891581],[-5.713982,56.891595],[-5.713573,56.891576],[-5.713202,56.891525],[-5.712868,56.891441],[-5.712446,56.891389],[-5.711933,56.891371],[-5.711332,56.891385],[-5.710641,56.891432],[-5.710041,56.891477],[-5.709532,56.89152],[-5.709114,56.891562],[-5.708787,56.891602],[-5.708479,56.891646],[-5.70819,56.891694],[-5.70792,56.891745],[-5.707668,56.891801],[-5.707405,56.891802],[-5.70713,56.891748],[-5.706843,56.891639],[-5.706545,56.891476],[-5.706282,56.891314],[-5.706054,56.891155],[-5.705861,56.890997],[-5.705704,56.890842],[-5.705671,56.890683],[-5.705764,56.890522],[-5.705981,56.890358],[-5.706323,56.890192],[-5.706678,56.890027],[-5.707044,56.889863],[-5.707423,56.889701],[-5.707813,56.889541],[-5.708093,56.889376],[-5.708262,56.889206],[-5.708319,56.88903],[-5.708266,56.888849],[-5.708329,56.888673],[-5.708508,56.888501],[-5.708804,56.888334],[-5.709217,56.888171],[-5.709448,56.887999],[-5.709498,56.887818],[-5.709366,56.887628],[-5.709052,56.887429],[-5.708749,56.887254],[-5.708456,56.887102],[-5.708173,56.886975],[-5.707899,56.886871],[-5.70757,56.88677],[-5.707186,56.886674],[-5.706745,56.886581],[-5.706249,56.886491],[-5.705731,56.886389],[-5.705189,56.886274],[-5.704625,56.886146],[-5.704039,56.886005],[-5.703472,56.885872],[-5.702926,56.885745],[-5.702399,56.885625],[-5.701893,56.885512],[-5.701439,56.885386],[-5.701037,56.885248],[-5.700687,56.885097],[-5.700389,56.884933],[-5.700114,56.884745],[-5.699864,56.884532],[-5.699637,56.884294],[-5.699435,56.884032],[-5.699213,56.883806],[-5.698973,56.883617],[-5.698714,56.883464],[-5.698436,56.883348],[-5.698195,56.883253],[-5.697991,56.883178],[-5.697825,56.883123],[-5.697696,56.883089],[-5.697486,56.88308],[-5.697195,56.883097],[-5.696823,56.883139],[-5.696371,56.883207],[-5.695965,56.883263],[-5.695605,56.883306],[-5.695292,56.883338],[-5.695025,56.883358],[-5.694738,56.883369],[-5.694428,56.883369],[-5.694098,56.883359],[-5.693746,56.88334],[-5.693442,56.883327],[-5.693187,56.88332],[-5.692981,56.883321],[-5.692824,56.883327],[-5.69264,56.883353],[-5.692429,56.883397],[-5.692192,56.88346],[-5.691929,56.883543],[-5.691646,56.883808],[-5.691343,56.884257],[-5.69102,56.88489],[-5.690677,56.885706],[-5.690352,56.886348],[-5.690045,56.886816],[-5.689757,56.887111],[-5.689487,56.887231],[-5.689299,56.88722],[-5.689193,56.887077],[-5.689168,56.886802],[-5.689226,56.886395],[-5.689293,56.886012],[-5.689371,56.885653],[-5.689459,56.885317],[-5.689556,56.885006],[-5.689533,56.884815],[-5.689389,56.884745],[-5.689124,56.884796],[-5.688738,56.884968],[-5.68835,56.885106],[-5.687958,56.88521],[-5.687564,56.88528],[-5.687166,56.885316],[-5.686832,56.885394],[-5.686562,56.885514],[-5.686356,56.885677],[-5.686213,56.885882],[-5.686,56.88607],[-5.685718,56.886242],[-5.685365,56.886397],[-5.684942,56.886536],[-5.684605,56.886674],[-5.684354,56.886811],[-5.684187,56.886947],[-5.684107,56.887081],[-5.684016,56.887205],[-5.683914,56.887317],[-5.683802,56.887418],[-5.68368,56.887508],[-5.683512,56.887654],[-5.683299,56.887854],[-5.68304,56.888111],[-5.682736,56.888422],[-5.682509,56.888684],[-5.682357,56.888896],[-5.682282,56.889058],[-5.682284,56.889171],[-5.682368,56.889301],[-5.682533,56.889449],[-5.682781,56.889616],[-5.683111,56.8898],[-5.683398,56.88995],[-5.683641,56.890064],[-5.68384,56.890143],[-5.683996,56.890186],[-5.684116,56.890281],[-5.6842,56.890426],[-5.684249,56.890623],[-5.684262,56.890872],[-5.684253,56.891107],[-5.684221,56.891329],[-5.684166,56.891539],[-5.684088,56.891736],[-5.684049,56.891928],[-5.684048,56.892115],[-5.684085,56.892298],[-5.68416,56.892476],[-5.684156,56.892642],[-5.684072,56.892796],[-5.683908,56.892938],[-5.683665,56.893068],[-5.68349,56.893183],[-5.683383,56.893283],[-5.683345,56.893369],[-5.683375,56.89344],[-5.683423,56.8935],[-5.683489,56.893548],[-5.683573,56.893584],[-5.683676,56.893609],[-5.68376,56.893674],[-5.683827,56.893778],[-5.683876,56.893922],[-5.683908,56.894106],[-5.683894,56.894248],[-5.683833,56.894349],[-5.683727,56.894409],[-5.683574,56.894427],[-5.683493,56.894465],[-5.683482,56.894523],[-5.683543,56.8946],[-5.683676,56.894696],[-5.683786,56.894795],[-5.683875,56.894897],[-5.683942,56.895001],[-5.683987,56.895108],[-5.68403,56.895249],[-5.68407,56.895425],[-5.684107,56.895636],[-5.684142,56.895882],[-5.68416,56.896154],[-5.68416,56.896454],[-5.684143,56.896781],[-5.684109,56.897135],[-5.684079,56.897457],[-5.684053,56.897747],[-5.68403,56.898006],[-5.684011,56.898233],[-5.683901,56.898462],[-5.683701,56.898693],[-5.683409,56.898925],[-5.683026,56.899159],[-5.682764,56.899353],[-5.682623,56.899508],[-5.682603,56.899622],[-5.682704,56.899698],[-5.682865,56.899768],[-5.683088,56.899835],[-5.683372,56.899897],[-5.683718,56.899955],[-5.684088,56.899991],[-5.684484,56.900005],[-5.684905,56.899998],[-5.685351,56.899968],[-5.685758,56.899969],[-5.686126,56.899999],[-5.686455,56.900058],[-5.686745,56.900148],[-5.68687,56.900267],[-5.68683,56.900416],[-5.686624,56.900594],[-5.686253,56.900801],[-5.685876,56.900994],[-5.685492,56.901172],[-5.685103,56.901335],[-5.684707,56.901483],[-5.684315,56.901615],[-5.683929,56.901731],[-5.683547,56.90183],[-5.683169,56.901914],[-5.683008,56.901993],[-5.683062,56.902067],[-5.683332,56.902138],[-5.683819,56.902203],[-5.684373,56.902254],[-5.684996,56.902291],[-5.685688,56.902313],[-5.686447,56.90232],[-5.6871,56.902331],[-5.687645,56.902346],[-5.688082,56.902364],[-5.688413,56.902386],[-5.688773,56.902411],[-5.689163,56.902439],[-5.689582,56.902469],[-5.690032,56.902501],[-5.690595,56.902533],[-5.691273,56.902562],[-5.692064,56.902591],[-5.69297,56.902618],[-5.693857,56.902709],[-5.694725,56.902866],[-5.695576,56.903087],[-5.696407,56.903373],[-5.697201,56.903582],[-5.697956,56.903715],[-5.698673,56.903771]]]}}