{"type":"Feature","properties":{"id":"267871","COMMUNE":"South Lanarkshire","PROVINCE":"South Lanarkshire","COUNTRY":"UK","FIREDATE":"2025-03-19 11:51:44","FINALDATE":"2025-03-19 11:51:44","CLASS":"FireSeason","areaHA_geo":1.429},"geometry":{"type":"Polygon","coordinates":[[[-3.614742,55.546201],[-3.614704,55.546262],[-3.614756,55.546297],[-3.614898,55.546306],[-3.615131,55.546289],[-3.615397,55.546247],[-3.615695,55.54618],[-3.616027,55.546088],[-3.616391,55.545971],[-3.616685,55.545853],[-3.616907,55.545735],[-3.61706,55.545616],[-3.617141,55.545497],[-3.617177,55.545387],[-3.617167,55.545286],[-3.617112,55.545194],[-3.617011,55.545111],[-3.616897,55.545053],[-3.616769,55.54502],[-3.616629,55.545012],[-3.616476,55.545028],[-3.616346,55.545034],[-3.616239,55.545029],[-3.616156,55.545014],[-3.616097,55.544988],[-3.616012,55.544985],[-3.615903,55.545005],[-3.61577,55.545048],[-3.615612,55.545114],[-3.615482,55.54518],[-3.615378,55.545247],[-3.615302,55.545313],[-3.615253,55.54538],[-3.615192,55.545443],[-3.615119,55.545504],[-3.615034,55.545563],[-3.614938,55.545618],[-3.614882,55.545677],[-3.614868,55.54574],[-3.614895,55.545806],[-3.614963,55.545877],[-3.614981,55.545951],[-3.614951,55.54603],[-3.614871,55.546113],[-3.614742,55.546201]]]}}