{"type":"Feature","properties":{"id":"267860","COMMUNE":"Northumberland","PROVINCE":"Northumberland","COUNTRY":"UK","FIREDATE":"2025-03-31 13:01:00","FINALDATE":"2025-03-31 13:01:00","CLASS":"FireSeason","areaHA_geo":3.482},"geometry":{"type":"Polygon","coordinates":[[[-2.542859,54.904732],[-2.542745,54.904766],[-2.542688,54.904804],[-2.542689,54.904846],[-2.542748,54.904894],[-2.542839,54.904919],[-2.542962,54.904922],[-2.543118,54.904903],[-2.543306,54.904861],[-2.543477,54.904812],[-2.54363,54.904756],[-2.543767,54.904692],[-2.543887,54.904621],[-2.544068,54.90456],[-2.544309,54.904509],[-2.544611,54.904468],[-2.544973,54.904437],[-2.545291,54.904427],[-2.545564,54.904439],[-2.545792,54.904472],[-2.545976,54.904527],[-2.546116,54.904525],[-2.546213,54.904467],[-2.546267,54.904354],[-2.546278,54.904184],[-2.546281,54.904049],[-2.546276,54.903948],[-2.546264,54.903881],[-2.546245,54.90385],[-2.546232,54.903817],[-2.546226,54.903784],[-2.546228,54.90375],[-2.546237,54.903716],[-2.546255,54.903668],[-2.546283,54.903608],[-2.54632,54.903534],[-2.546366,54.903448],[-2.5464,54.90336],[-2.546421,54.903271],[-2.54643,54.90318],[-2.546425,54.903088],[-2.546455,54.903013],[-2.546518,54.902956],[-2.546614,54.902917],[-2.546745,54.902895],[-2.54686,54.902837],[-2.54696,54.902742],[-2.547046,54.902611],[-2.547116,54.902444],[-2.547127,54.90234],[-2.547081,54.9023],[-2.546975,54.902323],[-2.546811,54.90241],[-2.546664,54.902469],[-2.546535,54.902501],[-2.546422,54.902504],[-2.546326,54.90248],[-2.546219,54.902459],[-2.546101,54.90244],[-2.545971,54.902424],[-2.545829,54.90241],[-2.545688,54.902407],[-2.545546,54.902416],[-2.545404,54.902436],[-2.545262,54.902467],[-2.545139,54.902532],[-2.545035,54.902629],[-2.544949,54.90276],[-2.544883,54.902925],[-2.544802,54.903049],[-2.544706,54.903135],[-2.544596,54.903181],[-2.544471,54.903188],[-2.544395,54.903218],[-2.54437,54.90327],[-2.544394,54.903344],[-2.544469,54.90344],[-2.544496,54.903515],[-2.544475,54.903568],[-2.544408,54.903598],[-2.544293,54.903607],[-2.544185,54.90363],[-2.544084,54.903667],[-2.54399,54.903718],[-2.543902,54.903783],[-2.543812,54.903835],[-2.543719,54.903874],[-2.543623,54.9039],[-2.543524,54.903913],[-2.543444,54.903968],[-2.543384,54.904065],[-2.543343,54.904205],[-2.543322,54.904387],[-2.543263,54.904531],[-2.543166,54.904637],[-2.543031,54.904704],[-2.542859,54.904732]]]}}