{"type":"Feature","properties":{"id":"267846","COMMUNE":"Derbyshire Dales","PROVINCE":"South and West Derbyshire","COUNTRY":"UK","FIREDATE":"2025-04-08 13:50:00","CLASS":"FireSeason","areaHA_geo":19.812},"geometry":{"type":"Polygon","coordinates":[[[-1.58404,53.195229],[-1.584361,53.195279],[-1.584681,53.195322],[-1.584999,53.195357],[-1.585314,53.195386],[-1.585613,53.195385],[-1.585894,53.195354],[-1.586158,53.195293],[-1.586404,53.195203],[-1.586604,53.195121],[-1.586757,53.195047],[-1.586862,53.194982],[-1.58692,53.194925],[-1.587095,53.194876],[-1.587386,53.194837],[-1.587794,53.194807],[-1.588318,53.194786],[-1.588787,53.194698],[-1.589201,53.194544],[-1.58956,53.194323],[-1.589864,53.194036],[-1.590118,53.193805],[-1.590324,53.19363],[-1.590479,53.193512],[-1.590586,53.19345],[-1.590663,53.19337],[-1.59071,53.193274],[-1.590729,53.19316],[-1.590718,53.193028],[-1.590683,53.192911],[-1.590624,53.19281],[-1.590543,53.192724],[-1.590437,53.192653],[-1.590358,53.192543],[-1.590305,53.192393],[-1.590278,53.192204],[-1.590278,53.191976],[-1.59023,53.191801],[-1.590136,53.191682],[-1.589995,53.191616],[-1.589807,53.191605],[-1.589647,53.191569],[-1.589513,53.191508],[-1.589407,53.191422],[-1.589327,53.191312],[-1.589234,53.191229],[-1.589126,53.191173],[-1.589005,53.191144],[-1.588869,53.191142],[-1.588739,53.191177],[-1.588617,53.191248],[-1.588501,53.191355],[-1.588392,53.191498],[-1.588228,53.191606],[-1.588007,53.191679],[-1.587731,53.191717],[-1.587399,53.191719],[-1.587121,53.191739],[-1.586897,53.191775],[-1.586727,53.191829],[-1.58661,53.191899],[-1.586481,53.191956],[-1.586338,53.191999],[-1.586183,53.192029],[-1.586015,53.192045],[-1.585808,53.192098],[-1.585561,53.192188],[-1.585275,53.192315],[-1.58495,53.192479],[-1.584684,53.192619],[-1.584475,53.192735],[-1.584324,53.192827],[-1.584232,53.192895],[-1.584105,53.19295],[-1.583944,53.192991],[-1.583748,53.19302],[-1.583518,53.193034],[-1.583313,53.193052],[-1.583134,53.193073],[-1.582981,53.193097],[-1.582852,53.193124],[-1.582722,53.193144],[-1.58259,53.193157],[-1.582456,53.193163],[-1.58232,53.193161],[-1.582192,53.193074],[-1.582071,53.192901],[-1.581958,53.192643],[-1.581852,53.1923],[-1.581738,53.192038],[-1.581615,53.191858],[-1.581484,53.19176],[-1.581344,53.191744],[-1.581176,53.191781],[-1.580978,53.19187],[-1.580752,53.192011],[-1.580496,53.192206],[-1.580301,53.192416],[-1.580165,53.192643],[-1.58009,53.192886],[-1.580074,53.193146],[-1.580099,53.193341],[-1.580165,53.193471],[-1.580272,53.193536],[-1.58042,53.193536],[-1.580637,53.193622],[-1.580924,53.193794],[-1.58128,53.19405],[-1.581706,53.194393],[-1.58208,53.194661],[-1.582404,53.194854],[-1.582677,53.194973],[-1.582898,53.195018],[-1.583145,53.195066],[-1.583418,53.195117],[-1.583716,53.195172],[-1.58404,53.195229]]]}}