{"type":"Feature","properties":{"id":"267865","COMMUNE":"Northumberland","PROVINCE":"Northumberland","COUNTRY":"UK","FIREDATE":"2025-04-01 11:49:00","FINALDATE":"2025-04-01 11:49:00","CLASS":"FireSeason","areaHA_geo":0.441},"geometry":{"type":"Polygon","coordinates":[[[-2.398928,54.912776],[-2.399115,54.9129],[-2.399285,54.912971],[-2.399438,54.912989],[-2.399573,54.912955],[-2.399685,54.912918],[-2.399773,54.912877],[-2.399837,54.912834],[-2.399878,54.912788],[-2.399889,54.912752],[-2.399872,54.912725],[-2.399826,54.912708],[-2.399751,54.912701],[-2.399664,54.912665],[-2.399567,54.912599],[-2.399459,54.912504],[-2.399341,54.912379],[-2.399236,54.912278],[-2.399144,54.9122],[-2.399066,54.912146],[-2.399001,54.912114],[-2.398923,54.912108],[-2.398829,54.912125],[-2.398722,54.912168],[-2.3986,54.912234],[-2.39856,54.912329],[-2.398601,54.91245],[-2.398724,54.912599],[-2.398928,54.912776]]]}}