{"type":"Feature","properties":{"id":"267862","COMMUNE":"Northumberland","PROVINCE":"Northumberland","COUNTRY":"UK","FIREDATE":"2025-04-01 13:29:00","FINALDATE":"2025-04-01 13:29:00","CLASS":"FireSeason","areaHA_geo":1.518},"geometry":{"type":"Polygon","coordinates":[[[-2.406701,54.928868],[-2.406761,54.928848],[-2.406793,54.928797],[-2.406799,54.928715],[-2.406777,54.928602],[-2.406823,54.9285],[-2.406936,54.928407],[-2.407117,54.928324],[-2.407365,54.928252],[-2.407522,54.928173],[-2.407589,54.928087],[-2.407566,54.927996],[-2.407452,54.927898],[-2.407344,54.927824],[-2.407242,54.927774],[-2.407146,54.927748],[-2.407055,54.927745],[-2.406969,54.927733],[-2.406888,54.927709],[-2.406813,54.927675],[-2.406742,54.92763],[-2.406673,54.927601],[-2.406603,54.927588],[-2.406535,54.927591],[-2.406467,54.927609],[-2.406397,54.927624],[-2.406324,54.927636],[-2.406248,54.927645],[-2.40617,54.927651],[-2.40609,54.92765],[-2.406009,54.92764],[-2.405926,54.927624],[-2.405842,54.9276],[-2.405765,54.927581],[-2.405696,54.927566],[-2.405634,54.927557],[-2.405579,54.927553],[-2.405521,54.927555],[-2.405458,54.927563],[-2.405392,54.927578],[-2.405321,54.927598],[-2.405244,54.927606],[-2.405161,54.927602],[-2.405072,54.927586],[-2.404977,54.927557],[-2.404917,54.927559],[-2.404894,54.927592],[-2.404907,54.927656],[-2.404956,54.92775],[-2.405049,54.927872],[-2.405185,54.928022],[-2.405365,54.928198],[-2.405588,54.928402],[-2.405768,54.92856],[-2.405907,54.928674],[-2.406003,54.928742],[-2.406057,54.928765],[-2.406109,54.928794],[-2.40616,54.928828],[-2.406209,54.928868],[-2.406256,54.928913],[-2.406301,54.928938],[-2.406345,54.928943],[-2.406386,54.928929],[-2.406425,54.928894],[-2.406477,54.928871],[-2.40654,54.928859],[-2.406614,54.928858],[-2.406701,54.928868]]]}}