{"type":"Feature","properties":{"id":"267852","COMMUNE":"Gwynedd","PROVINCE":"Gwynedd","COUNTRY":"UK","FIREDATE":"2025-03-08 11:30:40.99","CLASS":"FireSeason","areaHA_geo":82.154},"geometry":{"type":"Polygon","coordinates":[[[-4.04887,52.986458],[-4.048991,52.986582],[-4.049161,52.986648],[-4.049382,52.986656],[-4.049652,52.986605],[-4.049905,52.986532],[-4.050139,52.986437],[-4.050356,52.986321],[-4.050555,52.986182],[-4.050739,52.986086],[-4.050907,52.986031],[-4.05106,52.986017],[-4.051196,52.986046],[-4.051274,52.986088],[-4.051292,52.986143],[-4.051251,52.986212],[-4.05115,52.986294],[-4.05111,52.986358],[-4.051131,52.986403],[-4.051211,52.98643],[-4.051352,52.986439],[-4.051509,52.986422],[-4.051681,52.98638],[-4.051869,52.986311],[-4.052072,52.986217],[-4.052281,52.986149],[-4.052496,52.986108],[-4.052717,52.986093],[-4.052944,52.986104],[-4.053147,52.986117],[-4.053327,52.986131],[-4.053484,52.986146],[-4.053617,52.986162],[-4.053779,52.986146],[-4.053971,52.986098],[-4.054191,52.986018],[-4.054442,52.985905],[-4.054673,52.985817],[-4.054886,52.985754],[-4.055081,52.985715],[-4.055257,52.9857],[-4.055463,52.985687],[-4.055698,52.985675],[-4.055963,52.985665],[-4.056258,52.985655],[-4.056499,52.985652],[-4.056686,52.985656],[-4.056819,52.985666],[-4.056899,52.985682],[-4.057001,52.985702],[-4.057126,52.985725],[-4.057273,52.985752],[-4.057443,52.985783],[-4.057606,52.985793],[-4.057761,52.985781],[-4.05791,52.985747],[-4.058051,52.985692],[-4.058222,52.985607],[-4.058423,52.98549],[-4.058654,52.985343],[-4.058915,52.985166],[-4.059137,52.985025],[-4.059321,52.98492],[-4.059466,52.984852],[-4.059572,52.98482],[-4.059688,52.984792],[-4.059813,52.984768],[-4.059947,52.984747],[-4.06009,52.98473],[-4.060237,52.984722],[-4.060386,52.984724],[-4.060538,52.984735],[-4.060694,52.984755],[-4.060844,52.984783],[-4.060989,52.98482],[-4.061129,52.984866],[-4.061264,52.98492],[-4.061424,52.984928],[-4.061608,52.984891],[-4.061817,52.984807],[-4.062051,52.984677],[-4.062171,52.984551],[-4.062179,52.984429],[-4.062074,52.984311],[-4.061855,52.984196],[-4.061707,52.984086],[-4.06163,52.98398],[-4.061623,52.983879],[-4.061687,52.983782],[-4.061756,52.983692],[-4.06183,52.98361],[-4.061909,52.983536],[-4.061993,52.983468],[-4.062094,52.983404],[-4.062212,52.983342],[-4.062347,52.983283],[-4.062499,52.983227],[-4.062647,52.983191],[-4.062791,52.983178],[-4.062932,52.983185],[-4.063068,52.983213],[-4.063206,52.983196],[-4.063345,52.983131],[-4.063484,52.983021],[-4.063623,52.982864],[-4.063695,52.982733],[-4.063697,52.982627],[-4.063631,52.982547],[-4.063496,52.982493],[-4.063372,52.982423],[-4.063259,52.982337],[-4.063156,52.982236],[-4.063065,52.982119],[-4.063019,52.982005],[-4.06302,52.981893],[-4.063066,52.981784],[-4.063159,52.981677],[-4.063247,52.981566],[-4.063331,52.981451],[-4.063412,52.981332],[-4.063488,52.981208],[-4.063549,52.981079],[-4.063596,52.980946],[-4.063627,52.980808],[-4.063644,52.980666],[-4.063642,52.980545],[-4.06362,52.980445],[-4.063578,52.980367],[-4.063517,52.980311],[-4.063459,52.980239],[-4.063404,52.980153],[-4.063352,52.980053],[-4.063304,52.979937],[-4.063262,52.979834],[-4.063226,52.979742],[-4.063197,52.979662],[-4.063175,52.979595],[-4.063129,52.979543],[-4.063058,52.979507],[-4.062964,52.979486],[-4.062845,52.979481],[-4.06272,52.979464],[-4.062588,52.979435],[-4.062449,52.979393],[-4.062304,52.97934],[-4.062164,52.979293],[-4.062028,52.979252],[-4.061897,52.979216],[-4.06177,52.979187],[-4.061656,52.979154],[-4.061553,52.979118],[-4.061464,52.979079],[-4.061386,52.979037],[-4.061337,52.978984],[-4.061315,52.97892],[-4.061322,52.978844],[-4.061357,52.978757],[-4.061441,52.978688],[-4.061573,52.978637],[-4.061754,52.978605],[-4.061983,52.97859],[-4.062167,52.978559],[-4.062305,52.978511],[-4.062398,52.978445],[-4.062445,52.978363],[-4.062463,52.978278],[-4.06245,52.97819],[-4.062407,52.9781],[-4.062333,52.978006],[-4.062364,52.977915],[-4.0625,52.977825],[-4.062739,52.977738],[-4.063084,52.977653],[-4.063294,52.977615],[-4.063372,52.977625],[-4.063317,52.977683],[-4.063128,52.977788],[-4.063019,52.977869],[-4.06299,52.977927],[-4.063041,52.977961],[-4.063172,52.977971],[-4.063326,52.977969],[-4.063502,52.977954],[-4.0637,52.977928],[-4.063921,52.977889],[-4.064076,52.977882],[-4.064164,52.977906],[-4.064185,52.977963],[-4.06414,52.978051],[-4.064074,52.978144],[-4.063989,52.97824],[-4.063884,52.97834],[-4.063759,52.978444],[-4.063683,52.978536],[-4.063656,52.978616],[-4.063678,52.978683],[-4.063749,52.978739],[-4.06379,52.978791],[-4.063802,52.978841],[-4.063782,52.978888],[-4.063733,52.978932],[-4.063769,52.97896],[-4.06389,52.978971],[-4.064095,52.978966],[-4.064386,52.978944],[-4.064641,52.978935],[-4.064859,52.978938],[-4.065043,52.978953],[-4.06519,52.97898],[-4.065286,52.979015],[-4.065332,52.979057],[-4.065327,52.979107],[-4.065272,52.979165],[-4.065257,52.979232],[-4.065282,52.979309],[-4.065348,52.979395],[-4.065454,52.979491],[-4.065521,52.9796],[-4.065551,52.979721],[-4.065541,52.979854],[-4.065494,52.98],[-4.065494,52.980115],[-4.065543,52.980199],[-4.06564,52.980251],[-4.065785,52.980272],[-4.065877,52.980308],[-4.065914,52.980358],[-4.065898,52.980422],[-4.065828,52.9805],[-4.065783,52.980588],[-4.065762,52.980687],[-4.065766,52.980795],[-4.065794,52.980913],[-4.065821,52.981051],[-4.065847,52.981211],[-4.065872,52.981392],[-4.065896,52.981593],[-4.065937,52.981735],[-4.065996,52.981817],[-4.066073,52.98184],[-4.066167,52.981804],[-4.066272,52.981753],[-4.066389,52.981688],[-4.066518,52.981609],[-4.066657,52.981516],[-4.066795,52.98141],[-4.066932,52.981292],[-4.067067,52.981161],[-4.0672,52.981018],[-4.067311,52.980885],[-4.067398,52.980763],[-4.067463,52.980652],[-4.067504,52.980551],[-4.067555,52.98044],[-4.067616,52.980317],[-4.067686,52.980185],[-4.067767,52.980041],[-4.067801,52.979905],[-4.067791,52.979775],[-4.067734,52.979652],[-4.067633,52.979537],[-4.067541,52.979444],[-4.067459,52.979374],[-4.067388,52.979326],[-4.067327,52.979302],[-4.067231,52.979237],[-4.0671,52.979131],[-4.066935,52.978984],[-4.066735,52.978797],[-4.066556,52.978657],[-4.066398,52.978564],[-4.066261,52.978518],[-4.066144,52.978519],[-4.066051,52.978505],[-4.065983,52.978475],[-4.065939,52.978429],[-4.065918,52.978367],[-4.065943,52.978288],[-4.066012,52.97819],[-4.066125,52.978075],[-4.066283,52.977941],[-4.066401,52.977806],[-4.066478,52.977669],[-4.066515,52.977531],[-4.066512,52.977391],[-4.06647,52.977287],[-4.066389,52.97722],[-4.06627,52.97719],[-4.066112,52.977196],[-4.065947,52.977209],[-4.065773,52.977229],[-4.06559,52.977257],[-4.0654,52.977293],[-4.06525,52.977298],[-4.065141,52.977272],[-4.065072,52.977217],[-4.065044,52.977131],[-4.065054,52.977034],[-4.065104,52.976926],[-4.065192,52.976807],[-4.06532,52.976677],[-4.065348,52.976584],[-4.065276,52.976529],[-4.065105,52.976511],[-4.064835,52.97653],[-4.064633,52.97653],[-4.064499,52.97651],[-4.064433,52.976472],[-4.064436,52.976414],[-4.064448,52.976355],[-4.064471,52.976295],[-4.064504,52.976234],[-4.064547,52.976171],[-4.0646,52.97612],[-4.064661,52.976081],[-4.064732,52.976054],[-4.064812,52.976038],[-4.064899,52.975997],[-4.064995,52.975932],[-4.065098,52.975841],[-4.065209,52.975726],[-4.065325,52.975642],[-4.065446,52.97559],[-4.065571,52.975568],[-4.065702,52.975578],[-4.06587,52.975555],[-4.066075,52.975499],[-4.066317,52.97541],[-4.066596,52.975288],[-4.066786,52.975163],[-4.066888,52.975036],[-4.066901,52.974907],[-4.066826,52.974775],[-4.066837,52.97468],[-4.066934,52.974621],[-4.067118,52.974597],[-4.067388,52.97461],[-4.067611,52.974633],[-4.067787,52.974667],[-4.067915,52.97471],[-4.067997,52.974765],[-4.068087,52.974773],[-4.068187,52.974736],[-4.068295,52.974653],[-4.068412,52.974524],[-4.068499,52.974383],[-4.068554,52.97423],[-4.06858,52.974064],[-4.068574,52.973886],[-4.068553,52.973741],[-4.068517,52.973631],[-4.068465,52.973554],[-4.068398,52.973511],[-4.068369,52.973447],[-4.068378,52.973363],[-4.068426,52.973259],[-4.068513,52.973134],[-4.068517,52.973058],[-4.068439,52.973032],[-4.06828,52.973056],[-4.068038,52.973129],[-4.067851,52.973167],[-4.067719,52.97317],[-4.067642,52.973138],[-4.06762,52.97307],[-4.067634,52.972992],[-4.067685,52.972903],[-4.067771,52.972803],[-4.067895,52.972693],[-4.067951,52.972574],[-4.067942,52.972448],[-4.067865,52.972313],[-4.067723,52.972171],[-4.067494,52.972089],[-4.067179,52.972069],[-4.066778,52.97211],[-4.066291,52.972212],[-4.065896,52.972313],[-4.065594,52.972413],[-4.065384,52.972511],[-4.065267,52.972608],[-4.065128,52.972725],[-4.064965,52.972862],[-4.064781,52.97302],[-4.064573,52.973197],[-4.064346,52.973379],[-4.064099,52.973565],[-4.063832,52.973754],[-4.063544,52.973948],[-4.063295,52.974118],[-4.063082,52.974264],[-4.062907,52.974387],[-4.06277,52.974486],[-4.062621,52.974607],[-4.062461,52.974751],[-4.062289,52.974916],[-4.062107,52.975104],[-4.061941,52.975286],[-4.061792,52.975463],[-4.06166,52.975635],[-4.061544,52.975802],[-4.061528,52.97597],[-4.06161,52.976139],[-4.061791,52.976309],[-4.06207,52.97648],[-4.062267,52.976553],[-4.062381,52.976526],[-4.062411,52.976402],[-4.062359,52.976178],[-4.062346,52.975985],[-4.062372,52.975822],[-4.062438,52.97569],[-4.062542,52.975588],[-4.062655,52.975518],[-4.062775,52.975478],[-4.062902,52.975469],[-4.063037,52.975492],[-4.063185,52.975586],[-4.063346,52.975752],[-4.06352,52.97599],[-4.063707,52.976299],[-4.063822,52.976546],[-4.063867,52.976729],[-4.06384,52.976849],[-4.063741,52.976905],[-4.063639,52.976933],[-4.063532,52.976933],[-4.063422,52.976904],[-4.063308,52.976848],[-4.06316,52.976835],[-4.062979,52.976866],[-4.062764,52.976941],[-4.062516,52.977059],[-4.06234,52.97717],[-4.062235,52.977271],[-4.062202,52.977365],[-4.06224,52.977449],[-4.062242,52.977526],[-4.062206,52.977594],[-4.062132,52.977654],[-4.062021,52.977705],[-4.061916,52.977756],[-4.061815,52.977806],[-4.06172,52.977855],[-4.06163,52.977904],[-4.06154,52.977963],[-4.061451,52.978031],[-4.061362,52.978108],[-4.061274,52.978195],[-4.061174,52.978279],[-4.061062,52.978359],[-4.060938,52.978436],[-4.060803,52.97851],[-4.06062,52.978601],[-4.060391,52.978711],[-4.060114,52.97884],[-4.05979,52.978987],[-4.059525,52.979111],[-4.059319,52.979211],[-4.059172,52.979289],[-4.059084,52.979345],[-4.058969,52.979416],[-4.058827,52.979503],[-4.058659,52.979605],[-4.058464,52.979724],[-4.058244,52.979846],[-4.057998,52.979971],[-4.057726,52.980099],[-4.057429,52.980229],[-4.057159,52.980346],[-4.056916,52.980448],[-4.0567,52.980536],[-4.056512,52.980609],[-4.056319,52.980685],[-4.056121,52.980762],[-4.055919,52.980842],[-4.055712,52.980924],[-4.055502,52.98099],[-4.05529,52.981041],[-4.055076,52.981076],[-4.054859,52.981095],[-4.054746,52.981091],[-4.054737,52.981063],[-4.054831,52.981012],[-4.05503,52.980937],[-4.055234,52.980853],[-4.055442,52.980758],[-4.055654,52.980653],[-4.055872,52.980538],[-4.055998,52.980435],[-4.056032,52.980345],[-4.055974,52.980267],[-4.055825,52.980202],[-4.055732,52.980136],[-4.055694,52.980071],[-4.055712,52.980005],[-4.055786,52.979939],[-4.055891,52.979893],[-4.056026,52.979867],[-4.056192,52.979862],[-4.056388,52.979877],[-4.05655,52.979901],[-4.056678,52.979934],[-4.056771,52.979975],[-4.05683,52.980026],[-4.056896,52.980056],[-4.056969,52.980067],[-4.057048,52.980057],[-4.057134,52.980028],[-4.057247,52.979983],[-4.057386,52.979922],[-4.057552,52.979845],[-4.057745,52.979752],[-4.05787,52.979654],[-4.057927,52.979552],[-4.057915,52.979444],[-4.057836,52.979333],[-4.057744,52.9792],[-4.057641,52.979046],[-4.057525,52.978871],[-4.057397,52.978676],[-4.057264,52.978515],[-4.057126,52.978387],[-4.056984,52.978294],[-4.056837,52.978235],[-4.056765,52.978154],[-4.056769,52.978051],[-4.056847,52.977927],[-4.057001,52.977781],[-4.057062,52.977635],[-4.05703,52.977489],[-4.056905,52.977343],[-4.056687,52.977196],[-4.056469,52.977117],[-4.056252,52.977104],[-4.056036,52.977158],[-4.055821,52.97728],[-4.055673,52.977394],[-4.055591,52.977503],[-4.055577,52.977605],[-4.05563,52.977701],[-4.055625,52.977759],[-4.055563,52.977779],[-4.055442,52.977761],[-4.055265,52.977706],[-4.054985,52.977753],[-4.054604,52.977904],[-4.054121,52.978157],[-4.053536,52.978513],[-4.053047,52.978756],[-4.052654,52.978885],[-4.052356,52.978901],[-4.052154,52.978804],[-4.051964,52.978767],[-4.051786,52.978792],[-4.05162,52.978877],[-4.051466,52.979023],[-4.051368,52.979152],[-4.051325,52.979266],[-4.051339,52.979363],[-4.051408,52.979444],[-4.051438,52.979568],[-4.051429,52.979735],[-4.051381,52.979945],[-4.051294,52.980198],[-4.051158,52.980399],[-4.050973,52.980549],[-4.05074,52.980646],[-4.050457,52.980693],[-4.050212,52.980755],[-4.050004,52.980834],[-4.049833,52.980929],[-4.0497,52.981041],[-4.04961,52.981155],[-4.049563,52.981272],[-4.04956,52.981392],[-4.0496,52.981515],[-4.049609,52.981629],[-4.049585,52.981734],[-4.049528,52.98183],[-4.04944,52.981917],[-4.049398,52.982],[-4.049403,52.982079],[-4.049454,52.982154],[-4.049552,52.982226],[-4.049665,52.98231],[-4.049792,52.982406],[-4.049935,52.982516],[-4.050092,52.982638],[-4.050235,52.982724],[-4.050363,52.982776],[-4.050478,52.982793],[-4.050578,52.982775],[-4.050664,52.982776],[-4.050734,52.982796],[-4.05079,52.982836],[-4.05083,52.982895],[-4.050933,52.982916],[-4.051098,52.9829],[-4.051325,52.982846],[-4.051614,52.982755],[-4.051885,52.982665],[-4.052138,52.982578],[-4.052373,52.982493],[-4.05259,52.982409],[-4.052761,52.982362],[-4.052884,52.982351],[-4.052962,52.982375],[-4.052992,52.982435],[-4.052984,52.9825],[-4.052938,52.982569],[-4.052853,52.982643],[-4.05273,52.982722],[-4.05266,52.982791],[-4.052642,52.98285],[-4.052677,52.9829],[-4.052765,52.982941],[-4.052812,52.982994],[-4.052818,52.983061],[-4.052782,52.98314],[-4.052706,52.983232],[-4.052682,52.983343],[-4.052709,52.983474],[-4.052788,52.983624],[-4.052918,52.983794],[-4.052986,52.983928],[-4.052991,52.984026],[-4.052935,52.984089],[-4.052816,52.984115],[-4.05268,52.984155],[-4.052528,52.984209],[-4.052358,52.984275],[-4.052172,52.984354],[-4.052004,52.984387],[-4.051856,52.984372],[-4.051727,52.984311],[-4.051617,52.984203],[-4.051488,52.984151],[-4.051341,52.984156],[-4.051175,52.984217],[-4.05099,52.984334],[-4.050881,52.984438],[-4.050846,52.984528],[-4.050887,52.984605],[-4.051004,52.984668],[-4.051036,52.984765],[-4.050983,52.984895],[-4.050846,52.98506],[-4.050624,52.985258],[-4.050451,52.985427],[-4.050326,52.985566],[-4.050251,52.985676],[-4.050224,52.985756],[-4.050173,52.985827],[-4.050098,52.98589],[-4.049999,52.985945],[-4.049876,52.985991],[-4.049776,52.986037],[-4.0497,52.986081],[-4.049648,52.986123],[-4.049619,52.986165],[-4.049562,52.98617],[-4.049478,52.986139],[-4.049365,52.986071],[-4.049224,52.985966],[-4.049099,52.9859],[-4.048988,52.985871],[-4.048893,52.985881],[-4.048813,52.985929],[-4.048771,52.98601],[-4.048766,52.986125],[-4.048799,52.986275],[-4.04887,52.986458]]]}}