{"type":"Feature","properties":{"id":"267840","COMMUNE":"Powys","PROVINCE":"Powys","COUNTRY":"UK","FIREDATE":"2025-04-01 11:00:31.889","CLASS":"FireSeason","areaHA_geo":3.158},"geometry":{"type":"Polygon","coordinates":[[[-3.289044,52.319594],[-3.289386,52.319515],[-3.289628,52.319406],[-3.289771,52.319268],[-3.289816,52.319101],[-3.289899,52.31897],[-3.290022,52.318875],[-3.290185,52.318816],[-3.290387,52.318794],[-3.290606,52.318812],[-3.290843,52.318872],[-3.291097,52.318974],[-3.291368,52.319117],[-3.291616,52.319199],[-3.291841,52.31922],[-3.292043,52.31918],[-3.292221,52.319078],[-3.292349,52.318983],[-3.292426,52.318893],[-3.292452,52.318809],[-3.292429,52.318731],[-3.292461,52.318666],[-3.29255,52.318616],[-3.292696,52.318579],[-3.292898,52.318556],[-3.292977,52.318504],[-3.292933,52.318422],[-3.292766,52.31831],[-3.292477,52.318169],[-3.292155,52.318078],[-3.2918,52.318037],[-3.291414,52.318046],[-3.290995,52.318105],[-3.290637,52.318146],[-3.290339,52.318168],[-3.290103,52.318171],[-3.289928,52.318156],[-3.289732,52.318199],[-3.289515,52.318299],[-3.289278,52.318456],[-3.28902,52.31867],[-3.288749,52.318857],[-3.288465,52.319016],[-3.288168,52.319148],[-3.287858,52.319253],[-3.28766,52.319351],[-3.287573,52.319441],[-3.287599,52.319525],[-3.287736,52.319603],[-3.287949,52.319648],[-3.288239,52.319662],[-3.288603,52.319643],[-3.289044,52.319594]]]}}