{"type":"Feature","properties":{"id":"267872","COMMUNE":"South Lanarkshire","PROVINCE":"South Lanarkshire","COUNTRY":"UK","FIREDATE":"2025-03-19 11:51:44","FINALDATE":"2025-03-19 11:51:44","CLASS":"FireSeason","areaHA_geo":0.339},"geometry":{"type":"Polygon","coordinates":[[[-3.615743,55.549163],[-3.615781,55.549185],[-3.61583,55.54919],[-3.615889,55.549178],[-3.615959,55.54915],[-3.616033,55.549129],[-3.616111,55.549114],[-3.616193,55.549106],[-3.616279,55.549105],[-3.616325,55.549087],[-3.616331,55.549051],[-3.616297,55.548999],[-3.616222,55.54893],[-3.616158,55.548864],[-3.616104,55.548803],[-3.61606,55.548745],[-3.616027,55.548691],[-3.615975,55.548629],[-3.615903,55.548557],[-3.615811,55.548476],[-3.6157,55.548386],[-3.615592,55.548339],[-3.615486,55.548337],[-3.615383,55.548377],[-3.615282,55.548462],[-3.615209,55.548538],[-3.615164,55.548606],[-3.615147,55.548666],[-3.615158,55.548718],[-3.615204,55.548757],[-3.615285,55.548783],[-3.615402,55.548796],[-3.615554,55.548796],[-3.615661,55.548813],[-3.615723,55.548847],[-3.615741,55.548898],[-3.615714,55.548966],[-3.615701,55.549027],[-3.615701,55.54908],[-3.615715,55.549126],[-3.615743,55.549163]]]}}