{"type":"Feature","properties":{"id":"267868","COMMUNE":"Dumfries and Galloway","PROVINCE":"Dumfries & Galloway","COUNTRY":"UK","FIREDATE":"2025-04-06 13:36:00","FINALDATE":"2025-04-06 13:36:00","CLASS":"FireSeason","areaHA_geo":3.445},"geometry":{"type":"Polygon","coordinates":[[[-4.52517,54.748802],[-4.525288,54.748801],[-4.525382,54.748789],[-4.52545,54.748765],[-4.525493,54.748729],[-4.525512,54.748682],[-4.525551,54.748644],[-4.525613,54.748616],[-4.525695,54.748599],[-4.525799,54.748591],[-4.525952,54.748518],[-4.526155,54.748379],[-4.526406,54.748175],[-4.526708,54.747906],[-4.52693,54.74768],[-4.527073,54.747497],[-4.527137,54.747357],[-4.527122,54.747262],[-4.527141,54.747187],[-4.527193,54.747135],[-4.527279,54.747103],[-4.527397,54.747094],[-4.527498,54.74706],[-4.527579,54.747002],[-4.527642,54.746919],[-4.527686,54.746811],[-4.527749,54.74673],[-4.52783,54.746677],[-4.52793,54.74665],[-4.528048,54.746649],[-4.528163,54.746622],[-4.528276,54.746568],[-4.528386,54.746487],[-4.528493,54.746379],[-4.528564,54.746295],[-4.5286,54.746235],[-4.5286,54.746199],[-4.528564,54.746187],[-4.528571,54.746147],[-4.528621,54.746077],[-4.528714,54.745979],[-4.528849,54.745852],[-4.528902,54.745737],[-4.528871,54.745636],[-4.528758,54.745549],[-4.528561,54.745474],[-4.528401,54.745427],[-4.528277,54.745406],[-4.528189,54.745413],[-4.528138,54.745446],[-4.52812,54.745479],[-4.528134,54.745513],[-4.52818,54.745546],[-4.52826,54.74558],[-4.528298,54.745619],[-4.528296,54.745662],[-4.528254,54.745711],[-4.52817,54.745764],[-4.528087,54.745791],[-4.528006,54.745794],[-4.527924,54.745772],[-4.527844,54.745725],[-4.527768,54.745693],[-4.527695,54.745676],[-4.527625,54.745676],[-4.527559,54.74569],[-4.527495,54.74572],[-4.527432,54.745765],[-4.527371,54.745825],[-4.527311,54.7459],[-4.527268,54.745975],[-4.527239,54.74605],[-4.527227,54.746125],[-4.52723,54.746199],[-4.527207,54.746274],[-4.527156,54.746348],[-4.527079,54.746422],[-4.526976,54.746495],[-4.526882,54.746568],[-4.526797,54.746641],[-4.526723,54.746712],[-4.526658,54.746784],[-4.526593,54.746832],[-4.526529,54.746856],[-4.526465,54.746857],[-4.526402,54.746835],[-4.526363,54.746805],[-4.526349,54.746766],[-4.526359,54.746718],[-4.526394,54.746661],[-4.526447,54.746599],[-4.526517,54.74653],[-4.526604,54.746456],[-4.52671,54.746375],[-4.526758,54.746319],[-4.52675,54.746285],[-4.526685,54.746276],[-4.526564,54.74629],[-4.526454,54.746321],[-4.526354,54.746368],[-4.526266,54.746431],[-4.526188,54.746511],[-4.526102,54.746568],[-4.526008,54.746601],[-4.525905,54.746612],[-4.525794,54.7466],[-4.525682,54.746621],[-4.525569,54.746674],[-4.525455,54.74676],[-4.52534,54.746878],[-4.525288,54.746981],[-4.5253,54.747069],[-4.525376,54.747143],[-4.525516,54.747201],[-4.525587,54.747282],[-4.525591,54.747385],[-4.525527,54.74751],[-4.525394,54.747657],[-4.525283,54.747775],[-4.525192,54.747861],[-4.525121,54.747918],[-4.525072,54.747944],[-4.525034,54.748015],[-4.525009,54.748131],[-4.524995,54.748291],[-4.524994,54.748495],[-4.525023,54.748649],[-4.525082,54.748751],[-4.52517,54.748802]]]}}