{"type":"Feature","properties":{"id":"267926","COMMUNE":"Lochaber","PROVINCE":"Lochaber, Skye & Lochalsh, Arran & Cumbrae and Argyll & Bute","COUNTRY":"UK","FIREDATE":"2025-04-08 13:05:24.305","CLASS":"FireSeason","areaHA_geo":12.755},"geometry":{"type":"Polygon","coordinates":[[[-5.812767,56.987782],[-5.81287,56.987801],[-5.812973,56.987807],[-5.813073,56.987799],[-5.813172,56.987778],[-5.813276,56.987786],[-5.813384,56.987825],[-5.813497,56.987894],[-5.813614,56.987993],[-5.813739,56.988068],[-5.813874,56.988119],[-5.814016,56.988147],[-5.814168,56.988151],[-5.814297,56.98813],[-5.814402,56.988086],[-5.814485,56.988017],[-5.814545,56.987924],[-5.814599,56.987825],[-5.814646,56.987722],[-5.814688,56.987614],[-5.814723,56.987502],[-5.81472,56.987408],[-5.81468,56.987334],[-5.814603,56.987279],[-5.814488,56.987243],[-5.814421,56.987195],[-5.814403,56.987134],[-5.814434,56.98706],[-5.814514,56.986973],[-5.814552,56.986884],[-5.81455,56.986791],[-5.814508,56.986696],[-5.814424,56.986598],[-5.814396,56.986513],[-5.814424,56.986442],[-5.814507,56.986384],[-5.814647,56.98634],[-5.814791,56.986298],[-5.814941,56.98626],[-5.815096,56.986224],[-5.815257,56.986191],[-5.815378,56.986193],[-5.815461,56.98623],[-5.815504,56.986303],[-5.815509,56.986411],[-5.815479,56.986501],[-5.815415,56.986575],[-5.815316,56.986631],[-5.815183,56.98667],[-5.815091,56.986718],[-5.815041,56.986776],[-5.815033,56.986844],[-5.815066,56.986922],[-5.815082,56.987008],[-5.815081,56.987103],[-5.815063,56.987207],[-5.815028,56.98732],[-5.815018,56.987443],[-5.815033,56.987577],[-5.815074,56.987721],[-5.81514,56.987875],[-5.815206,56.988014],[-5.815271,56.988137],[-5.815336,56.988245],[-5.8154,56.988336],[-5.815433,56.988414],[-5.815435,56.988477],[-5.815406,56.988526],[-5.815345,56.98856],[-5.81534,56.988601],[-5.81539,56.98865],[-5.815494,56.988705],[-5.815654,56.988766],[-5.8158,56.98883],[-5.815932,56.988895],[-5.81605,56.988962],[-5.816154,56.989031],[-5.816254,56.989094],[-5.816349,56.989153],[-5.816441,56.989206],[-5.816528,56.989254],[-5.816658,56.989276],[-5.816831,56.989273],[-5.817048,56.989244],[-5.817308,56.98919],[-5.817516,56.989133],[-5.817674,56.989073],[-5.81778,56.98901],[-5.817835,56.988944],[-5.817854,56.988862],[-5.817836,56.988762],[-5.817782,56.988646],[-5.817692,56.988512],[-5.817665,56.988419],[-5.817701,56.988367],[-5.8178,56.988356],[-5.817963,56.988386],[-5.818099,56.988453],[-5.81821,56.988557],[-5.818295,56.988698],[-5.818355,56.988876],[-5.81843,56.989013],[-5.818521,56.989108],[-5.818627,56.989161],[-5.818748,56.989174],[-5.818843,56.989142],[-5.81891,56.989066],[-5.81895,56.988945],[-5.818963,56.988781],[-5.818987,56.988651],[-5.819021,56.988557],[-5.819067,56.988497],[-5.819123,56.988472],[-5.819177,56.988477],[-5.819229,56.988511],[-5.819279,56.988575],[-5.819327,56.988669],[-5.819384,56.988733],[-5.819449,56.988768],[-5.819522,56.988774],[-5.819603,56.98875],[-5.819692,56.988733],[-5.819788,56.988724],[-5.819891,56.988721],[-5.820001,56.988726],[-5.820087,56.988705],[-5.820151,56.988659],[-5.820191,56.988587],[-5.820208,56.98849],[-5.820193,56.988397],[-5.820147,56.988308],[-5.820068,56.988223],[-5.819959,56.988141],[-5.819894,56.988073],[-5.819875,56.988019],[-5.819902,56.987979],[-5.819973,56.987952],[-5.820044,56.987946],[-5.820113,56.987963],[-5.820182,56.988001],[-5.820249,56.98806],[-5.820329,56.988107],[-5.820422,56.988141],[-5.820529,56.988162],[-5.820649,56.988169],[-5.820742,56.988152],[-5.820807,56.988111],[-5.820845,56.988044],[-5.820856,56.987952],[-5.820743,56.98787],[-5.820508,56.987797],[-5.820151,56.987733],[-5.81967,56.987679],[-5.819279,56.987616],[-5.818978,56.987545],[-5.818767,56.987464],[-5.818646,56.987375],[-5.81852,56.987306],[-5.818391,56.987256],[-5.818257,56.987226],[-5.81812,56.987216],[-5.817998,56.987173],[-5.817891,56.987098],[-5.817799,56.986991],[-5.817723,56.986851],[-5.817685,56.986744],[-5.817687,56.986669],[-5.817727,56.986627],[-5.817806,56.986617],[-5.817876,56.986634],[-5.817936,56.986679],[-5.817988,56.986751],[-5.81803,56.98685],[-5.818095,56.98693],[-5.818184,56.986991],[-5.818296,56.987034],[-5.818431,56.987058],[-5.818532,56.987037],[-5.818599,56.98697],[-5.818632,56.986857],[-5.818631,56.986699],[-5.818624,56.98656],[-5.81861,56.986439],[-5.818589,56.986338],[-5.818562,56.986255],[-5.818524,56.986156],[-5.818474,56.98604],[-5.818414,56.985907],[-5.818341,56.985758],[-5.818264,56.985596],[-5.818181,56.98542],[-5.818092,56.985232],[-5.817998,56.985031],[-5.817892,56.984887],[-5.817776,56.9848],[-5.817649,56.984769],[-5.81751,56.984795],[-5.817427,56.984863],[-5.817399,56.984973],[-5.817426,56.985124],[-5.817508,56.985317],[-5.817586,56.985483],[-5.817657,56.985621],[-5.817723,56.985732],[-5.817783,56.985815],[-5.81779,56.985875],[-5.817744,56.985912],[-5.817644,56.985927],[-5.817491,56.985919],[-5.817352,56.985948],[-5.817226,56.986016],[-5.817115,56.986121],[-5.817018,56.986264],[-5.816915,56.986349],[-5.816806,56.986376],[-5.816691,56.986345],[-5.81657,56.986255],[-5.816484,56.986168],[-5.816435,56.986081],[-5.816421,56.985996],[-5.816444,56.985912],[-5.816432,56.985826],[-5.816386,56.985739],[-5.816307,56.98565],[-5.816194,56.98556],[-5.816164,56.985495],[-5.816217,56.985454],[-5.816354,56.985439],[-5.816574,56.985448],[-5.816703,56.985432],[-5.816739,56.985391],[-5.816684,56.985326],[-5.816537,56.985235],[-5.816412,56.985155],[-5.816306,56.985084],[-5.816222,56.985023],[-5.816159,56.984972],[-5.816074,56.984938],[-5.815967,56.984922],[-5.815838,56.984923],[-5.815688,56.984942],[-5.815558,56.984944],[-5.815448,56.98493],[-5.815359,56.984901],[-5.815289,56.984855],[-5.815207,56.984832],[-5.815111,56.984833],[-5.815003,56.984856],[-5.814881,56.984903],[-5.814798,56.98497],[-5.814751,56.985057],[-5.814743,56.985164],[-5.814773,56.985291],[-5.814811,56.985396],[-5.814859,56.985479],[-5.814916,56.985538],[-5.814981,56.985575],[-5.814994,56.98563],[-5.814955,56.985703],[-5.814862,56.985794],[-5.814717,56.985902],[-5.814567,56.985988],[-5.814411,56.986052],[-5.814251,56.986095],[-5.814085,56.986115],[-5.81395,56.986141],[-5.813847,56.986171],[-5.813775,56.986207],[-5.813734,56.986248],[-5.813654,56.986262],[-5.813536,56.986247],[-5.813378,56.986204],[-5.813181,56.986133],[-5.813008,56.986093],[-5.812859,56.986084],[-5.812733,56.986107],[-5.812631,56.98616],[-5.812516,56.986191],[-5.812386,56.9862],[-5.812244,56.986187],[-5.812087,56.986152],[-5.811954,56.986151],[-5.811843,56.986185],[-5.811756,56.986254],[-5.811692,56.986356],[-5.81165,56.986449],[-5.811631,56.98653],[-5.811634,56.986601],[-5.81166,56.986661],[-5.811643,56.986699],[-5.811583,56.986716],[-5.811481,56.98671],[-5.811336,56.986683],[-5.811239,56.986684],[-5.81119,56.986715],[-5.811189,56.986775],[-5.811235,56.986865],[-5.811313,56.986935],[-5.811423,56.986987],[-5.811564,56.987021],[-5.811737,56.987036],[-5.811898,56.987087],[-5.812048,56.987175],[-5.812186,56.9873],[-5.812313,56.98746],[-5.812435,56.987589],[-5.812551,56.987686],[-5.812661,56.98775],[-5.812767,56.987782]]]}}