{"type":"Feature","properties":{"id":"268159","COMMUNE":"North Ayrshire mainland","PROVINCE":"East Ayrshire and North Ayrshire mainland","COUNTRY":"UK","FIREDATE":"2025-04-07 12:55:00","CLASS":"FireSeason","areaHA_geo":2.064},"geometry":{"type":"Polygon","coordinates":[[[-4.849814,55.868993],[-4.849907,55.868887],[-4.84995,55.868779],[-4.849943,55.868668],[-4.849888,55.868555],[-4.849783,55.868439],[-4.849707,55.868343],[-4.849659,55.868267],[-4.849641,55.868212],[-4.849652,55.868177],[-4.849625,55.868123],[-4.84956,55.868049],[-4.849458,55.867956],[-4.849319,55.867844],[-4.849235,55.867738],[-4.849208,55.867636],[-4.849238,55.86754],[-4.849323,55.867448],[-4.849355,55.867365],[-4.849332,55.86729],[-4.849255,55.867223],[-4.849124,55.867164],[-4.849036,55.867109],[-4.848992,55.867056],[-4.848991,55.867008],[-4.849034,55.866962],[-4.849027,55.866888],[-4.84897,55.866787],[-4.848863,55.866658],[-4.848706,55.8665],[-4.84855,55.866394],[-4.848395,55.866338],[-4.848242,55.866332],[-4.84809,55.866377],[-4.847976,55.866449],[-4.8479,55.86655],[-4.847862,55.866678],[-4.847861,55.866833],[-4.847898,55.866999],[-4.847972,55.867177],[-4.848083,55.867365],[-4.848232,55.867563],[-4.84836,55.867739],[-4.848467,55.867892],[-4.848554,55.868022],[-4.848619,55.86813],[-4.848654,55.868244],[-4.848658,55.868365],[-4.848632,55.868493],[-4.848575,55.868628],[-4.848538,55.868744],[-4.848521,55.868841],[-4.848524,55.868918],[-4.848546,55.868976],[-4.848631,55.869026],[-4.848779,55.869066],[-4.848991,55.869096],[-4.849265,55.869118],[-4.849493,55.869108],[-4.849677,55.869066],[-4.849814,55.868993]]]}}