{"type":"Feature","properties":{"id":"268133","COMMUNE":"Northumberland","PROVINCE":"Northumberland","COUNTRY":"UK","FIREDATE":"2025-03-25 11:34:00","CLASS":"FireSeason","areaHA_geo":5.545},"geometry":{"type":"Polygon","coordinates":[[[-1.878997,55.336877],[-1.879035,55.336915],[-1.879123,55.336945],[-1.87926,55.336965],[-1.879446,55.336976],[-1.879589,55.336972],[-1.879687,55.336952],[-1.879741,55.336917],[-1.879752,55.336867],[-1.879779,55.336831],[-1.879825,55.33681],[-1.879888,55.336802],[-1.879969,55.336809],[-1.880035,55.336831],[-1.880086,55.336869],[-1.880122,55.336923],[-1.880143,55.336992],[-1.880259,55.337049],[-1.880472,55.337093],[-1.88078,55.337125],[-1.881185,55.337144],[-1.881514,55.33715],[-1.881769,55.337143],[-1.881949,55.337123],[-1.882054,55.337091],[-1.88214,55.337076],[-1.882205,55.33708],[-1.882252,55.337103],[-1.882278,55.337143],[-1.882323,55.337169],[-1.882385,55.33718],[-1.882466,55.337177],[-1.882565,55.33716],[-1.882632,55.337123],[-1.882668,55.337068],[-1.882671,55.336993],[-1.882643,55.3369],[-1.882598,55.336808],[-1.882535,55.336719],[-1.882455,55.33663],[-1.882357,55.336544],[-1.882331,55.336477],[-1.882378,55.336429],[-1.882497,55.336402],[-1.882689,55.336394],[-1.882821,55.336409],[-1.882894,55.336448],[-1.882907,55.336511],[-1.882861,55.336597],[-1.882846,55.336682],[-1.88286,55.336768],[-1.882906,55.336853],[-1.882981,55.336937],[-1.883071,55.337002],[-1.883174,55.337046],[-1.883291,55.33707],[-1.883421,55.337074],[-1.883555,55.337081],[-1.883692,55.33709],[-1.883833,55.337103],[-1.883978,55.337117],[-1.884041,55.33708],[-1.884024,55.336991],[-1.883925,55.33685],[-1.883745,55.336657],[-1.883576,55.336479],[-1.883417,55.336316],[-1.88327,55.336169],[-1.883133,55.336037],[-1.883008,55.335939],[-1.882894,55.335876],[-1.882791,55.335846],[-1.882699,55.335851],[-1.882621,55.335839],[-1.882556,55.33581],[-1.882506,55.335765],[-1.882469,55.335703],[-1.882401,55.335646],[-1.882301,55.335595],[-1.88217,55.335548],[-1.882006,55.335506],[-1.881846,55.335483],[-1.881688,55.335479],[-1.881534,55.335493],[-1.881382,55.335526],[-1.881231,55.33552],[-1.881081,55.335475],[-1.880932,55.335391],[-1.880784,55.335268],[-1.880624,55.335187],[-1.88045,55.335149],[-1.880265,55.335152],[-1.880066,55.335197],[-1.87979,55.33523],[-1.879437,55.335249],[-1.879006,55.335255],[-1.878498,55.335248],[-1.878132,55.335267],[-1.877908,55.335312],[-1.877827,55.335382],[-1.877888,55.335479],[-1.877958,55.33556],[-1.878038,55.335627],[-1.878126,55.335679],[-1.878224,55.335717],[-1.878306,55.335771],[-1.878374,55.335841],[-1.878427,55.335928],[-1.878465,55.33603],[-1.878524,55.336143],[-1.878606,55.336266],[-1.87871,55.336399],[-1.878835,55.336542],[-1.878927,55.336661],[-1.878984,55.336757],[-1.879007,55.336829],[-1.878997,55.336877]]]}}