{"type":"Feature","properties":{"id":"268163","COMMUNE":"North Ayrshire mainland","PROVINCE":"East Ayrshire and North Ayrshire mainland","COUNTRY":"UK","FIREDATE":"2025-04-07 13:18:00","CLASS":"FireSeason","areaHA_geo":0.899},"geometry":{"type":"Polygon","coordinates":[[[-4.853639,55.867285],[-4.853684,55.867379],[-4.853788,55.867444],[-4.85395,55.867481],[-4.85417,55.867489],[-4.854382,55.867482],[-4.854586,55.867462],[-4.854781,55.867427],[-4.854967,55.867378],[-4.855111,55.867321],[-4.855213,55.867254],[-4.855272,55.86718],[-4.855288,55.867097],[-4.855334,55.86702],[-4.85541,55.866951],[-4.855515,55.866888],[-4.855651,55.866831],[-4.855751,55.866777],[-4.855816,55.866725],[-4.855845,55.866676],[-4.855839,55.86663],[-4.855759,55.86661],[-4.855605,55.866618],[-4.855377,55.866654],[-4.855075,55.866716],[-4.854834,55.86674],[-4.854652,55.866724],[-4.854532,55.866669],[-4.854471,55.866575],[-4.854382,55.866538],[-4.854263,55.866559],[-4.854115,55.866637],[-4.853937,55.866773],[-4.853801,55.866905],[-4.853706,55.867035],[-4.853652,55.867161],[-4.853639,55.867285]]]}}