{"type":"Feature","properties":{"id":"268176","COMMUNE":"Caithness and Sutherland","PROVINCE":"Caithness & Sutherland and Ross & Cromarty","COUNTRY":"UK","FIREDATE":"2025-04-09 12:17:00","CLASS":"FireSeason","areaHA_geo":50.692},"geometry":{"type":"Polygon","coordinates":[[[-4.553626,57.845445],[-4.554245,57.845269],[-4.554757,57.845081],[-4.555163,57.844882],[-4.555462,57.844671],[-4.555655,57.84445],[-4.555713,57.844287],[-4.555635,57.844183],[-4.555423,57.844138],[-4.555075,57.844151],[-4.554787,57.844136],[-4.554558,57.844093],[-4.554387,57.844021],[-4.554276,57.84392],[-4.554212,57.843819],[-4.554194,57.843717],[-4.554223,57.843614],[-4.554298,57.843509],[-4.554476,57.84342],[-4.554755,57.843345],[-4.555137,57.843285],[-4.555621,57.84324],[-4.555983,57.843177],[-4.556225,57.843096],[-4.556346,57.842998],[-4.556346,57.842881],[-4.556474,57.842758],[-4.556732,57.84263],[-4.557119,57.842495],[-4.557635,57.842355],[-4.558134,57.842229],[-4.558618,57.842117],[-4.559087,57.842019],[-4.559539,57.841936],[-4.560029,57.841886],[-4.560555,57.84187],[-4.561119,57.841887],[-4.561719,57.841937],[-4.56232,57.841968],[-4.56292,57.841978],[-4.56352,57.841969],[-4.56412,57.841941],[-4.564595,57.841864],[-4.564944,57.84174],[-4.565169,57.841568],[-4.565268,57.841349],[-4.565337,57.84116],[-4.565375,57.841001],[-4.565382,57.840873],[-4.565358,57.840776],[-4.565295,57.840688],[-4.565193,57.84061],[-4.565051,57.840541],[-4.564871,57.840482],[-4.564697,57.840406],[-4.56453,57.840314],[-4.564371,57.840205],[-4.564218,57.84008],[-4.563998,57.839975],[-4.563708,57.839891],[-4.563351,57.839826],[-4.562925,57.839781],[-4.562699,57.839715],[-4.562672,57.839629],[-4.562844,57.839521],[-4.563215,57.839393],[-4.563478,57.839257],[-4.563632,57.839115],[-4.563678,57.838966],[-4.563615,57.83881],[-4.563671,57.838684],[-4.563848,57.838588],[-4.564144,57.83852],[-4.56456,57.838483],[-4.56477,57.838376],[-4.564773,57.838201],[-4.564571,57.837956],[-4.564162,57.837643],[-4.56383,57.83735],[-4.563575,57.837078],[-4.563397,57.836827],[-4.563295,57.836596],[-4.563121,57.836396],[-4.562872,57.836228],[-4.56255,57.83609],[-4.562154,57.835984],[-4.561675,57.835879],[-4.561112,57.835777],[-4.560466,57.835676],[-4.559736,57.835577],[-4.559229,57.835573],[-4.558944,57.835663],[-4.558881,57.835847],[-4.559041,57.836126],[-4.559109,57.836382],[-4.559086,57.836616],[-4.558972,57.836828],[-4.558766,57.837017],[-4.558573,57.837199],[-4.558392,57.837373],[-4.558225,57.83754],[-4.558069,57.837699],[-4.557836,57.837854],[-4.557525,57.838005],[-4.557135,57.838152],[-4.556668,57.838295],[-4.556209,57.838381],[-4.555757,57.838408],[-4.555313,57.838376],[-4.554877,57.838287],[-4.554428,57.838243],[-4.553966,57.838244],[-4.553491,57.83829],[-4.553002,57.838381],[-4.552541,57.838501],[-4.552107,57.838649],[-4.5517,57.838825],[-4.55132,57.83903],[-4.550974,57.839259],[-4.550661,57.839512],[-4.550381,57.83979],[-4.550135,57.840093],[-4.549961,57.84039],[-4.549859,57.840683],[-4.549831,57.840971],[-4.549874,57.841254],[-4.549964,57.841499],[-4.550099,57.841707],[-4.55028,57.841878],[-4.550506,57.842012],[-4.550792,57.842117],[-4.551136,57.842193],[-4.55154,57.842242],[-4.552003,57.842261],[-4.552353,57.842303],[-4.55259,57.842367],[-4.552715,57.842452],[-4.552726,57.842559],[-4.55268,57.842677],[-4.552575,57.842805],[-4.552412,57.842944],[-4.55219,57.843094],[-4.552003,57.843258],[-4.551852,57.843437],[-4.551737,57.843632],[-4.551657,57.843841],[-4.551586,57.844055],[-4.551526,57.844274],[-4.551476,57.844499],[-4.551435,57.844728],[-4.551487,57.84494],[-4.551633,57.845135],[-4.551871,57.845312],[-4.552202,57.845471],[-4.552605,57.845547],[-4.55308,57.845538],[-4.553626,57.845445]]]}}