{"type":"Feature","properties":{"id":"268161","COMMUNE":"North Ayrshire mainland","PROVINCE":"East Ayrshire and North Ayrshire mainland","COUNTRY":"UK","FIREDATE":"2025-04-07 14:10:00","CLASS":"FireSeason","areaHA_geo":20.296},"geometry":{"type":"Polygon","coordinates":[[[-4.848486,55.87377],[-4.848482,55.873846],[-4.848605,55.873869],[-4.848856,55.873837],[-4.849234,55.873752],[-4.849595,55.873676],[-4.849937,55.873609],[-4.850262,55.87355],[-4.850569,55.8735],[-4.850856,55.87347],[-4.851124,55.873459],[-4.851371,55.873467],[-4.851599,55.873494],[-4.851822,55.873507],[-4.852038,55.873505],[-4.852249,55.873488],[-4.852455,55.873457],[-4.852623,55.873446],[-4.852753,55.873454],[-4.852845,55.873482],[-4.8529,55.87353],[-4.852967,55.873541],[-4.853048,55.873514],[-4.853141,55.873451],[-4.853247,55.87335],[-4.853258,55.873261],[-4.853174,55.873183],[-4.852994,55.873117],[-4.852719,55.873061],[-4.852522,55.873003],[-4.852402,55.872943],[-4.85236,55.87288],[-4.852395,55.872815],[-4.852414,55.872737],[-4.852415,55.872646],[-4.852399,55.872541],[-4.852366,55.872423],[-4.852303,55.87234],[-4.852211,55.87229],[-4.85209,55.872273],[-4.85194,55.872291],[-4.851803,55.872289],[-4.85168,55.872266],[-4.85157,55.872223],[-4.851473,55.87216],[-4.851468,55.8721],[-4.851555,55.872042],[-4.851733,55.871988],[-4.852003,55.871936],[-4.852222,55.871884],[-4.85239,55.871834],[-4.852507,55.871785],[-4.852573,55.871737],[-4.852634,55.871707],[-4.85269,55.871697],[-4.852742,55.871706],[-4.852789,55.871735],[-4.852855,55.871749],[-4.85294,55.871749],[-4.853043,55.871735],[-4.853165,55.871707],[-4.853295,55.871699],[-4.853432,55.87171],[-4.853576,55.87174],[-4.853728,55.87179],[-4.85385,55.871807],[-4.853941,55.871793],[-4.854002,55.871747],[-4.854032,55.871669],[-4.854077,55.871605],[-4.854136,55.871554],[-4.854209,55.871517],[-4.854297,55.871493],[-4.854398,55.871505],[-4.854513,55.871552],[-4.854641,55.871635],[-4.854783,55.871753],[-4.854908,55.871842],[-4.855015,55.8719],[-4.855104,55.871928],[-4.855176,55.871927],[-4.855252,55.871951],[-4.855332,55.872003],[-4.855417,55.872081],[-4.855505,55.872185],[-4.85559,55.872304],[-4.855671,55.872436],[-4.855749,55.872582],[-4.855822,55.872743],[-4.855893,55.872848],[-4.85596,55.872897],[-4.856024,55.872891],[-4.856085,55.87283],[-4.856169,55.872781],[-4.856276,55.872745],[-4.856406,55.872721],[-4.856559,55.87271],[-4.856687,55.872722],[-4.856791,55.872757],[-4.856871,55.872815],[-4.856926,55.872897],[-4.856999,55.872935],[-4.857088,55.872932],[-4.857194,55.872885],[-4.857317,55.872796],[-4.857379,55.8727],[-4.857381,55.872595],[-4.857323,55.872481],[-4.857203,55.87236],[-4.857161,55.872274],[-4.857196,55.872223],[-4.857307,55.872206],[-4.857495,55.872224],[-4.857636,55.872172],[-4.857727,55.87205],[-4.857771,55.871857],[-4.857766,55.871594],[-4.857808,55.871388],[-4.857896,55.871239],[-4.858029,55.871147],[-4.858209,55.871113],[-4.858347,55.871054],[-4.858442,55.870972],[-4.858495,55.870866],[-4.858506,55.870736],[-4.858503,55.870581],[-4.858488,55.870401],[-4.85846,55.870194],[-4.858419,55.869962],[-4.858352,55.869812],[-4.858259,55.869741],[-4.858139,55.869752],[-4.857993,55.869844],[-4.857833,55.86993],[-4.857659,55.870012],[-4.857471,55.870088],[-4.857269,55.870159],[-4.857068,55.870242],[-4.856869,55.870336],[-4.856671,55.870442],[-4.856475,55.87056],[-4.856278,55.870637],[-4.856081,55.870674],[-4.855883,55.87067],[-4.855685,55.870626],[-4.855591,55.87058],[-4.855603,55.870531],[-4.855719,55.87048],[-4.85594,55.870427],[-4.856099,55.870369],[-4.856196,55.870307],[-4.856231,55.870241],[-4.856204,55.87017],[-4.856211,55.870079],[-4.856254,55.869969],[-4.856331,55.86984],[-4.856443,55.869692],[-4.856564,55.869574],[-4.856694,55.869488],[-4.856833,55.869433],[-4.85698,55.869409],[-4.857121,55.869304],[-4.857256,55.869119],[-4.857383,55.868854],[-4.857504,55.868509],[-4.857574,55.868237],[-4.857595,55.868038],[-4.857565,55.867913],[-4.857485,55.867862],[-4.857389,55.86788],[-4.857278,55.867968],[-4.857151,55.868125],[-4.857008,55.868351],[-4.856836,55.86853],[-4.856633,55.868662],[-4.8564,55.868747],[-4.856136,55.868785],[-4.85593,55.868791],[-4.855781,55.868764],[-4.855689,55.868706],[-4.855654,55.868615],[-4.855605,55.868548],[-4.85554,55.868505],[-4.85546,55.868486],[-4.855365,55.868491],[-4.855187,55.868555],[-4.854928,55.868681],[-4.854585,55.868866],[-4.854161,55.869112],[-4.853866,55.869257],[-4.853701,55.8693],[-4.853667,55.869242],[-4.853762,55.869082],[-4.853777,55.86897],[-4.85371,55.868907],[-4.853563,55.868892],[-4.853334,55.868926],[-4.853115,55.868945],[-4.852905,55.868949],[-4.852705,55.868939],[-4.852514,55.868914],[-4.852368,55.868928],[-4.852268,55.868981],[-4.852212,55.869072],[-4.852202,55.869201],[-4.852152,55.869331],[-4.852062,55.869459],[-4.851934,55.869588],[-4.851765,55.869716],[-4.851559,55.86983],[-4.851313,55.86993],[-4.851029,55.870016],[-4.850706,55.870087],[-4.85041,55.87018],[-4.850139,55.870293],[-4.849894,55.870426],[-4.849676,55.870581],[-4.849513,55.870723],[-4.849407,55.870854],[-4.849356,55.870973],[-4.849361,55.871081],[-4.84934,55.871183],[-4.849292,55.87128],[-4.849219,55.871371],[-4.849119,55.871457],[-4.849054,55.871548],[-4.849024,55.871643],[-4.849029,55.871742],[-4.849069,55.871845],[-4.849073,55.87195],[-4.849041,55.872055],[-4.848973,55.872161],[-4.848869,55.872268],[-4.848802,55.872375],[-4.848771,55.872484],[-4.848776,55.872593],[-4.848819,55.872703],[-4.848876,55.872806],[-4.84895,55.872902],[-4.849038,55.872991],[-4.849142,55.873074],[-4.84919,55.873151],[-4.849182,55.873223],[-4.849117,55.87329],[-4.848995,55.873351],[-4.848872,55.87343],[-4.848746,55.873526],[-4.848617,55.873639],[-4.848486,55.87377]]]}}