{"type":"Feature","properties":{"id":"268150","COMMUNE":"Eden","PROVINCE":"East Cumbria","COUNTRY":"UK","FIREDATE":"2025-03-14 12:27:00","FINALDATE":"2025-03-14 12:27:00","CLASS":"FireSeason","areaHA_geo":2.428},"geometry":{"type":"Polygon","coordinates":[[[-2.350875,54.549571],[-2.350606,54.549767],[-2.350516,54.549908],[-2.350605,54.549994],[-2.350872,54.550025],[-2.351081,54.550068],[-2.351231,54.550123],[-2.351322,54.550191],[-2.351354,54.550272],[-2.351372,54.550344],[-2.351376,54.550407],[-2.351367,54.550462],[-2.351343,54.550509],[-2.351337,54.550554],[-2.351351,54.550599],[-2.351383,54.550643],[-2.351435,54.550687],[-2.351511,54.550693],[-2.351612,54.550663],[-2.351738,54.550597],[-2.35189,54.550493],[-2.352008,54.550427],[-2.352095,54.550399],[-2.352149,54.550408],[-2.352171,54.550454],[-2.352239,54.550487],[-2.352356,54.550506],[-2.352519,54.550512],[-2.35273,54.550504],[-2.352914,54.550491],[-2.353072,54.550473],[-2.353204,54.55045],[-2.353309,54.550421],[-2.35337,54.550383],[-2.353386,54.550335],[-2.353357,54.550278],[-2.353283,54.55021],[-2.353222,54.550128],[-2.353174,54.550032],[-2.353138,54.549921],[-2.353116,54.549795],[-2.353104,54.549682],[-2.353104,54.54958],[-2.353115,54.549491],[-2.353137,54.549414],[-2.353133,54.549351],[-2.353102,54.549301],[-2.353046,54.549265],[-2.352963,54.549242],[-2.352877,54.549217],[-2.352789,54.549188],[-2.352697,54.549156],[-2.352603,54.549122],[-2.352555,54.549077],[-2.352554,54.549022],[-2.352599,54.548957],[-2.35269,54.548882],[-2.352729,54.548804],[-2.352716,54.548724],[-2.352651,54.548641],[-2.352534,54.548556],[-2.352409,54.548507],[-2.352275,54.548494],[-2.352134,54.548517],[-2.351985,54.548576],[-2.351887,54.548637],[-2.351842,54.548701],[-2.351849,54.548768],[-2.351908,54.548837],[-2.35184,54.548952],[-2.351645,54.549112],[-2.351324,54.549318],[-2.350875,54.549571]]]}}