{"type":"Feature","properties":{"id":"268166","COMMUNE":"Inverclyde","PROVINCE":"Inverclyde, East Renfrewshire and Renfrewshire","COUNTRY":"UK","FIREDATE":"2025-04-07 16:22:08","CLASS":"FireSeason","areaHA_geo":11.492},"geometry":{"type":"Polygon","coordinates":[[[-4.798582,55.900212],[-4.798848,55.900292],[-4.799199,55.900355],[-4.799636,55.900399],[-4.800159,55.900426],[-4.80057,55.900461],[-4.80087,55.900503],[-4.801059,55.900552],[-4.801136,55.900609],[-4.801274,55.900666],[-4.801473,55.900722],[-4.801733,55.900777],[-4.802053,55.900832],[-4.802324,55.900876],[-4.802545,55.900907],[-4.802717,55.900927],[-4.802838,55.900934],[-4.802924,55.900918],[-4.802975,55.900876],[-4.802991,55.90081],[-4.802973,55.90072],[-4.803004,55.900643],[-4.803086,55.900578],[-4.803217,55.900526],[-4.8034,55.900487],[-4.803552,55.900504],[-4.803675,55.900578],[-4.803768,55.900708],[-4.803832,55.900895],[-4.803951,55.901041],[-4.804126,55.901146],[-4.804355,55.90121],[-4.804641,55.901234],[-4.804881,55.901266],[-4.805078,55.901304],[-4.805229,55.90135],[-4.805337,55.901404],[-4.805449,55.901446],[-4.805567,55.901476],[-4.805691,55.901495],[-4.80582,55.901502],[-4.806014,55.901525],[-4.806274,55.901565],[-4.806599,55.901622],[-4.80699,55.901695],[-4.807351,55.901756],[-4.807681,55.901806],[-4.807982,55.901843],[-4.808252,55.901869],[-4.808453,55.901854],[-4.808586,55.901799],[-4.80865,55.901703],[-4.808645,55.901567],[-4.808666,55.901453],[-4.808714,55.901362],[-4.808788,55.901292],[-4.808888,55.901245],[-4.80897,55.901166],[-4.809034,55.901055],[-4.809079,55.900912],[-4.809107,55.900737],[-4.809156,55.900586],[-4.809226,55.900461],[-4.809318,55.900361],[-4.809431,55.900286],[-4.809464,55.900219],[-4.809418,55.900161],[-4.809292,55.90011],[-4.809087,55.900068],[-4.808891,55.900035],[-4.808704,55.900011],[-4.808527,55.899995],[-4.808358,55.899989],[-4.80826,55.899969],[-4.808232,55.899937],[-4.808274,55.899893],[-4.808386,55.899835],[-4.80842,55.899775],[-4.808376,55.899712],[-4.808254,55.899646],[-4.808054,55.899577],[-4.807871,55.899535],[-4.807704,55.899522],[-4.807554,55.899536],[-4.80742,55.899578],[-4.807343,55.899583],[-4.807323,55.89955],[-4.807359,55.89948],[-4.807451,55.899372],[-4.807488,55.899277],[-4.807469,55.899196],[-4.807393,55.899127],[-4.807262,55.899072],[-4.807146,55.899048],[-4.807046,55.899055],[-4.806962,55.899094],[-4.806894,55.899164],[-4.806844,55.899234],[-4.806812,55.899303],[-4.806798,55.899374],[-4.806801,55.899444],[-4.806757,55.899505],[-4.806667,55.899558],[-4.80653,55.899601],[-4.806346,55.899636],[-4.806181,55.899647],[-4.806034,55.899633],[-4.805905,55.899595],[-4.805794,55.899533],[-4.805677,55.899496],[-4.805554,55.899484],[-4.805425,55.899497],[-4.80529,55.899535],[-4.80516,55.899557],[-4.805036,55.899563],[-4.804918,55.899552],[-4.804805,55.899526],[-4.804655,55.89953],[-4.804468,55.899565],[-4.804243,55.899632],[-4.80398,55.899729],[-4.803734,55.899795],[-4.803503,55.899831],[-4.803288,55.899836],[-4.803089,55.899811],[-4.802895,55.899828],[-4.802705,55.899888],[-4.802519,55.89999],[-4.802338,55.900135],[-4.802176,55.900221],[-4.802033,55.900249],[-4.801909,55.900219],[-4.801804,55.90013],[-4.801746,55.900051],[-4.801736,55.899984],[-4.801774,55.899928],[-4.801859,55.899883],[-4.801941,55.899825],[-4.80202,55.899754],[-4.802096,55.89967],[-4.80217,55.899573],[-4.802154,55.899471],[-4.80205,55.899364],[-4.801858,55.899252],[-4.801576,55.899135],[-4.801314,55.899062],[-4.80107,55.899034],[-4.800845,55.899049],[-4.800639,55.899108],[-4.800511,55.899159],[-4.800459,55.8992],[-4.800486,55.899232],[-4.800589,55.899255],[-4.800675,55.899284],[-4.800743,55.899318],[-4.800794,55.899357],[-4.800827,55.899402],[-4.800818,55.899437],[-4.800769,55.899463],[-4.800679,55.899479],[-4.800547,55.899485],[-4.800395,55.899443],[-4.800221,55.89935],[-4.800027,55.899209],[-4.799812,55.899018],[-4.799599,55.898899],[-4.799387,55.898851],[-4.799177,55.898874],[-4.798969,55.898969],[-4.798811,55.899062],[-4.798704,55.899151],[-4.798647,55.899239],[-4.79864,55.899323],[-4.798603,55.899419],[-4.798538,55.899526],[-4.798443,55.899644],[-4.798319,55.899773],[-4.798271,55.899895],[-4.798299,55.900008],[-4.798403,55.900114],[-4.798582,55.900212]]]}}