{"type":"Feature","properties":{"id":"268165","COMMUNE":"Inverclyde","PROVINCE":"Inverclyde, East Renfrewshire and Renfrewshire","COUNTRY":"UK","FIREDATE":"2025-04-07 16:22:08","CLASS":"FireSeason","areaHA_geo":2.955},"geometry":{"type":"Polygon","coordinates":[[[-4.80016,55.904274],[-4.800314,55.904241],[-4.800453,55.904118],[-4.800575,55.903908],[-4.800681,55.903609],[-4.800754,55.903325],[-4.800792,55.903055],[-4.800797,55.902801],[-4.800769,55.902562],[-4.800712,55.902393],[-4.800627,55.902295],[-4.800514,55.902268],[-4.800373,55.902311],[-4.800229,55.902342],[-4.800083,55.902361],[-4.799934,55.902369],[-4.799782,55.902365],[-4.799651,55.902378],[-4.799541,55.902408],[-4.799451,55.902456],[-4.799381,55.902522],[-4.799289,55.902585],[-4.799174,55.902644],[-4.799036,55.902701],[-4.798875,55.902756],[-4.798711,55.902786],[-4.798544,55.902792],[-4.798374,55.902775],[-4.7982,55.902733],[-4.798067,55.90272],[-4.797974,55.902736],[-4.797922,55.902779],[-4.79791,55.902851],[-4.797858,55.902896],[-4.797766,55.902913],[-4.797635,55.902903],[-4.797463,55.902866],[-4.7973,55.902842],[-4.797146,55.902832],[-4.797001,55.902834],[-4.796865,55.90285],[-4.796791,55.902878],[-4.796778,55.902917],[-4.796827,55.902967],[-4.796937,55.903029],[-4.797033,55.903094],[-4.797114,55.903162],[-4.797181,55.903232],[-4.797233,55.903305],[-4.797333,55.903376],[-4.797481,55.903445],[-4.797678,55.903511],[-4.797924,55.903575],[-4.798128,55.903614],[-4.798291,55.903628],[-4.798413,55.903617],[-4.798494,55.903581],[-4.798586,55.903579],[-4.798689,55.903611],[-4.798803,55.903677],[-4.798928,55.903777],[-4.799065,55.903847],[-4.799214,55.903887],[-4.799376,55.903896],[-4.799549,55.903876],[-4.799675,55.903879],[-4.799752,55.903905],[-4.799781,55.903955],[-4.799761,55.904028],[-4.79979,55.904096],[-4.799865,55.90416],[-4.799989,55.904219],[-4.80016,55.904274]]]}}