{"type":"Feature","properties":{"id":"268264","COMMUNE":"South Lanarkshire","PROVINCE":"South Lanarkshire","COUNTRY":"UK","FIREDATE":"2025-03-20 00:00:00","FINALDATE":"2025-03-20 00:00:00","CLASS":"FireSeason","areaHA_geo":16.631},"geometry":{"type":"Polygon","coordinates":[[[-3.584082,55.36495],[-3.58432,55.3651],[-3.584563,55.365267],[-3.584812,55.365451],[-3.585431,55.365718],[-3.586419,55.366067],[-3.587265,55.366186],[-3.58797,55.366074],[-3.588579,55.366043],[-3.589092,55.366093],[-3.589594,55.366021],[-3.590085,55.365827],[-3.590487,55.365555],[-3.5908,55.365204],[-3.591213,55.365054],[-3.591725,55.365103],[-3.592679,55.365263],[-3.594073,55.365533],[-3.595021,55.365676],[-3.595522,55.365692],[-3.595952,55.365681],[-3.59631,55.365642],[-3.596497,55.365463],[-3.596511,55.365145],[-3.596311,55.364745],[-3.595897,55.364263],[-3.594886,55.363846],[-3.593277,55.363493],[-3.591668,55.363317],[-3.590056,55.363317],[-3.588803,55.363365],[-3.587907,55.363462],[-3.586585,55.363852],[-3.584837,55.364534],[-3.584082,55.36495]]]}}