{"type":"Feature","properties":{"id":"268260","COMMUNE":"Gwynedd","PROVINCE":"Gwynedd","COUNTRY":"UK","FIREDATE":"2025-04-11 01:24:00","FINALDATE":"2025-04-11 13:55:00","CLASS":"FireSeason","areaHA_geo":65.741},"geometry":{"type":"Polygon","coordinates":[[[-3.982402,52.967485],[-3.982385,52.967668],[-3.982462,52.967769],[-3.982634,52.967787],[-3.982901,52.967722],[-3.98315,52.967695],[-3.98338,52.967704],[-3.983592,52.967751],[-3.983785,52.967834],[-3.984,52.967899],[-3.984237,52.967944],[-3.984495,52.96797],[-3.984774,52.967978],[-3.985006,52.967965],[-3.985189,52.967934],[-3.985325,52.967883],[-3.985413,52.967813],[-3.98556,52.967754],[-3.985766,52.967706],[-3.986031,52.96767],[-3.986355,52.967645],[-3.986674,52.967596],[-3.986988,52.967523],[-3.987297,52.967425],[-3.987601,52.967303],[-3.987863,52.967207],[-3.988084,52.967138],[-3.988264,52.967095],[-3.988403,52.967078],[-3.988537,52.967056],[-3.988666,52.967028],[-3.98879,52.966993],[-3.98891,52.966952],[-3.989041,52.966885],[-3.989182,52.966792],[-3.989334,52.966673],[-3.989497,52.966527],[-3.989589,52.966393],[-3.98961,52.966271],[-3.98956,52.966161],[-3.989439,52.966062],[-3.98928,52.965992],[-3.989084,52.965952],[-3.988851,52.965941],[-3.98858,52.96596],[-3.988365,52.965965],[-3.988208,52.965957],[-3.988107,52.965936],[-3.988062,52.965901],[-3.988005,52.965878],[-3.987934,52.965866],[-3.987851,52.965866],[-3.987755,52.965877],[-3.987624,52.965918],[-3.987458,52.965987],[-3.987258,52.966085],[-3.987023,52.966213],[-3.986827,52.966282],[-3.98667,52.966294],[-3.986552,52.966248],[-3.986474,52.966144],[-3.986377,52.966076],[-3.986261,52.966043],[-3.986126,52.966046],[-3.985972,52.966084],[-3.98594,52.966046],[-3.98603,52.965932],[-3.986243,52.965742],[-3.986577,52.965477],[-3.986831,52.965254],[-3.987005,52.965074],[-3.987098,52.964936],[-3.987112,52.964842],[-3.98716,52.964753],[-3.987244,52.96467],[-3.987363,52.964593],[-3.987517,52.964521],[-3.987638,52.964452],[-3.987727,52.964385],[-3.987783,52.96432],[-3.987807,52.964258],[-3.987897,52.964169],[-3.988053,52.964054],[-3.988276,52.963913],[-3.988565,52.963746],[-3.988768,52.963571],[-3.988885,52.963387],[-3.988917,52.963196],[-3.988862,52.962996],[-3.988875,52.962848],[-3.988954,52.962752],[-3.989101,52.962708],[-3.989314,52.962716],[-3.989428,52.962685],[-3.989444,52.962613],[-3.98936,52.962501],[-3.989177,52.96235],[-3.989053,52.962225],[-3.988988,52.962126],[-3.988981,52.962054],[-3.989032,52.962008],[-3.989115,52.961956],[-3.98923,52.9619],[-3.989376,52.961838],[-3.989553,52.96177],[-3.989722,52.961695],[-3.989884,52.961613],[-3.990037,52.961524],[-3.990183,52.961427],[-3.990243,52.961323],[-3.990218,52.961213],[-3.990108,52.961096],[-3.989913,52.960973],[-3.989689,52.960889],[-3.989436,52.960846],[-3.989155,52.960842],[-3.988846,52.960879],[-3.988639,52.960881],[-3.988535,52.96085],[-3.988533,52.960786],[-3.988634,52.960687],[-3.988715,52.960596],[-3.988776,52.960513],[-3.988817,52.960436],[-3.988839,52.960367],[-3.988906,52.960293],[-3.989019,52.960213],[-3.989176,52.960128],[-3.98938,52.960037],[-3.989572,52.959948],[-3.989754,52.95986],[-3.989925,52.959774],[-3.990085,52.959688],[-3.990189,52.959615],[-3.990235,52.959553],[-3.990224,52.959502],[-3.990156,52.959464],[-3.990066,52.959426],[-3.989954,52.959389],[-3.989821,52.959353],[-3.989665,52.959319],[-3.989552,52.959279],[-3.989482,52.959234],[-3.989455,52.959184],[-3.98947,52.959129],[-3.989535,52.959083],[-3.989651,52.959046],[-3.989816,52.959018],[-3.990032,52.958999],[-3.990268,52.958986],[-3.990526,52.958979],[-3.990806,52.958978],[-3.991106,52.958983],[-3.991392,52.958967],[-3.991663,52.958932],[-3.991919,52.958877],[-3.992161,52.958802],[-3.992361,52.958729],[-3.99252,52.958657],[-3.992639,52.958586],[-3.992716,52.958517],[-3.992797,52.958479],[-3.992884,52.958472],[-3.992975,52.958497],[-3.993071,52.958552],[-3.993188,52.95859],[-3.993328,52.95861],[-3.993489,52.958612],[-3.993673,52.958598],[-3.993829,52.958576],[-3.993958,52.958547],[-3.99406,52.958512],[-3.994135,52.95847],[-3.994215,52.958436],[-3.994301,52.958409],[-3.994391,52.95839],[-3.994487,52.958379],[-3.994598,52.958377],[-3.994722,52.958386],[-3.994861,52.958404],[-3.995015,52.958433],[-3.995136,52.958474],[-3.995225,52.958526],[-3.995283,52.958591],[-3.995308,52.958668],[-3.995367,52.958757],[-3.995462,52.958859],[-3.995591,52.958974],[-3.995754,52.959101],[-3.995934,52.959211],[-3.996131,52.959305],[-3.996344,52.959381],[-3.996574,52.95944],[-3.996752,52.959459],[-3.996878,52.959438],[-3.996952,52.959376],[-3.996974,52.959274],[-3.997086,52.959185],[-3.997289,52.959112],[-3.997583,52.959052],[-3.997967,52.959007],[-3.998226,52.958936],[-3.998361,52.958841],[-3.998372,52.95872],[-3.998257,52.958574],[-3.998109,52.95845],[-3.997926,52.958348],[-3.997709,52.958269],[-3.997457,52.958212],[-3.997144,52.958134],[-3.996768,52.958035],[-3.99633,52.957915],[-3.99583,52.957775],[-3.995367,52.957631],[-3.994943,52.957485],[-3.994556,52.957336],[-3.994207,52.957184],[-3.993989,52.957052],[-3.993903,52.956939],[-3.993947,52.956845],[-3.994122,52.956771],[-3.994277,52.956702],[-3.99441,52.956636],[-3.994523,52.956575],[-3.994615,52.956517],[-3.994646,52.956459],[-3.994615,52.956399],[-3.994523,52.956338],[-3.99437,52.956277],[-3.994269,52.956205],[-3.994221,52.956124],[-3.994224,52.956034],[-3.99428,52.955934],[-3.994303,52.955844],[-3.994293,52.955762],[-3.99425,52.955689],[-3.994173,52.955624],[-3.994071,52.955575],[-3.993944,52.95554],[-3.99379,52.95552],[-3.993611,52.955514],[-3.993443,52.955517],[-3.993287,52.955529],[-3.993141,52.95555],[-3.993006,52.955579],[-3.992869,52.955598],[-3.992728,52.955608],[-3.992584,52.955609],[-3.992437,52.955599],[-3.992264,52.955603],[-3.992064,52.95562],[-3.991839,52.95565],[-3.991587,52.955693],[-3.991388,52.955753],[-3.991241,52.95583],[-3.991147,52.955924],[-3.991106,52.956035],[-3.991064,52.956127],[-3.991021,52.956198],[-3.990977,52.95625],[-3.990932,52.956282],[-3.990879,52.956315],[-3.990818,52.956349],[-3.990749,52.956383],[-3.990672,52.956419],[-3.990568,52.956465],[-3.990437,52.95652],[-3.990278,52.956585],[-3.990092,52.95666],[-3.989965,52.956728],[-3.989896,52.95679],[-3.989886,52.956844],[-3.989935,52.956892],[-3.989948,52.95694],[-3.989925,52.956989],[-3.989867,52.957039],[-3.989773,52.95709],[-3.989672,52.957147],[-3.989565,52.95721],[-3.989452,52.957278],[-3.989332,52.957352],[-3.989194,52.957396],[-3.989039,52.957411],[-3.988865,52.957397],[-3.988673,52.957353],[-3.988498,52.9573],[-3.98834,52.957239],[-3.988198,52.957169],[-3.988072,52.957091],[-3.987963,52.957045],[-3.987871,52.957033],[-3.987794,52.957054],[-3.987734,52.957107],[-3.98766,52.957124],[-3.98757,52.957105],[-3.987466,52.957049],[-3.987347,52.956957],[-3.987277,52.95687],[-3.987256,52.956789],[-3.987285,52.956714],[-3.987362,52.956645],[-3.987401,52.956579],[-3.987402,52.956516],[-3.987366,52.956455],[-3.987292,52.956398],[-3.987169,52.956352],[-3.986997,52.956319],[-3.986777,52.956298],[-3.986509,52.95629],[-3.986222,52.956294],[-3.985917,52.95631],[-3.985594,52.956338],[-3.985252,52.956378],[-3.984986,52.956436],[-3.984795,52.956512],[-3.984679,52.956605],[-3.984637,52.956716],[-3.984494,52.956836],[-3.984248,52.956965],[-3.9839,52.957103],[-3.983449,52.957249],[-3.983087,52.957378],[-3.982813,52.95749],[-3.982628,52.957585],[-3.982532,52.957663],[-3.982419,52.957749],[-3.982289,52.957844],[-3.982143,52.957948],[-3.98198,52.95806],[-3.981828,52.958138],[-3.981687,52.958181],[-3.981557,52.95819],[-3.981438,52.958164],[-3.98129,52.958151],[-3.981113,52.958152],[-3.980907,52.958166],[-3.980672,52.958194],[-3.980538,52.958233],[-3.980505,52.958283],[-3.980572,52.958345],[-3.98074,52.958419],[-3.980844,52.958491],[-3.980884,52.958563],[-3.980861,52.958634],[-3.980773,52.958704],[-3.980618,52.958739],[-3.980396,52.958739],[-3.980107,52.958703],[-3.979752,52.958631],[-3.979494,52.958647],[-3.979333,52.958749],[-3.97927,52.958938],[-3.979305,52.959213],[-3.979248,52.959421],[-3.9791,52.959561],[-3.978861,52.959634],[-3.97853,52.95964],[-3.978256,52.959682],[-3.978038,52.959761],[-3.977876,52.959877],[-3.977771,52.960029],[-3.977717,52.960185],[-3.977714,52.960345],[-3.977762,52.960509],[-3.977861,52.960677],[-3.977965,52.960783],[-3.978073,52.960826],[-3.978186,52.960808],[-3.978304,52.960728],[-3.978436,52.960699],[-3.978582,52.960722],[-3.978742,52.960796],[-3.978916,52.960922],[-3.979115,52.96103],[-3.979338,52.96112],[-3.979586,52.961192],[-3.979859,52.961247],[-3.980084,52.961275],[-3.980262,52.961278],[-3.980393,52.961254],[-3.980476,52.961204],[-3.980577,52.961164],[-3.980694,52.961134],[-3.980829,52.961113],[-3.98098,52.961102],[-3.981092,52.961055],[-3.981165,52.960974],[-3.981199,52.960856],[-3.981194,52.960704],[-3.981233,52.960603],[-3.981316,52.960553],[-3.981444,52.960555],[-3.981617,52.960608],[-3.981721,52.960672],[-3.981756,52.960748],[-3.981724,52.960835],[-3.981623,52.960933],[-3.98157,52.961024],[-3.981564,52.961108],[-3.981606,52.961185],[-3.981695,52.961254],[-3.981795,52.961299],[-3.981907,52.961319],[-3.98203,52.961314],[-3.982165,52.961285],[-3.982329,52.961304],[-3.982523,52.961371],[-3.982746,52.961486],[-3.982999,52.96165],[-3.983232,52.961805],[-3.983447,52.961953],[-3.983642,52.962093],[-3.983818,52.962225],[-3.983984,52.962325],[-3.984139,52.962394],[-3.984284,52.96243],[-3.984418,52.962434],[-3.984559,52.962439],[-3.984705,52.962445],[-3.984857,52.962452],[-3.985014,52.96246],[-3.985138,52.962484],[-3.985229,52.962523],[-3.985285,52.962578],[-3.985309,52.962649],[-3.985317,52.962742],[-3.985311,52.96286],[-3.98529,52.963],[-3.985255,52.963164],[-3.985226,52.963302],[-3.985202,52.963415],[-3.985183,52.963502],[-3.98517,52.963563],[-3.985119,52.963621],[-3.985032,52.963674],[-3.984907,52.963724],[-3.984744,52.96377],[-3.984614,52.963836],[-3.984515,52.963925],[-3.984448,52.964034],[-3.984414,52.964164],[-3.984383,52.964281],[-3.984355,52.964384],[-3.984332,52.964473],[-3.984312,52.964549],[-3.984338,52.964602],[-3.984409,52.964634],[-3.984526,52.964644],[-3.984688,52.964631],[-3.984841,52.964623],[-3.984984,52.96462],[-3.985117,52.964621],[-3.98524,52.964626],[-3.985314,52.964647],[-3.985337,52.964685],[-3.98531,52.964738],[-3.985233,52.964807],[-3.985112,52.964869],[-3.984948,52.964925],[-3.984739,52.964974],[-3.984487,52.965017],[-3.984262,52.965072],[-3.984062,52.965139],[-3.983888,52.965217],[-3.98374,52.965308],[-3.9836,52.965413],[-3.983467,52.965531],[-3.983342,52.965664],[-3.983224,52.965811],[-3.983158,52.965974],[-3.983144,52.966152],[-3.983182,52.966345],[-3.983272,52.966554],[-3.983365,52.966703],[-3.983461,52.966791],[-3.983559,52.96682],[-3.983659,52.966788],[-3.983744,52.966785],[-3.983813,52.96681],[-3.983867,52.966863],[-3.983905,52.966945],[-3.983908,52.967025],[-3.983878,52.967102],[-3.983814,52.967176],[-3.983715,52.967247],[-3.983605,52.967267],[-3.983484,52.967234],[-3.983351,52.96715],[-3.983207,52.967014],[-3.98308,52.966913],[-3.982969,52.966846],[-3.982875,52.966814],[-3.982799,52.966816],[-3.982713,52.966884],[-3.982618,52.967018],[-3.982515,52.967219],[-3.982402,52.967485]]]}}