{"type":"Feature","properties":{"id":"268263","COMMUNE":"South Lanarkshire","PROVINCE":"South Lanarkshire","COUNTRY":"UK","FIREDATE":"2025-03-20 12:17:00","CLASS":"FireSeason","areaHA_geo":40.373},"geometry":{"type":"Polygon","coordinates":[[[-3.615628,55.381572],[-3.61627,55.381994],[-3.617594,55.382236],[-3.619599,55.382299],[-3.621302,55.382114],[-3.622702,55.38168],[-3.623845,55.381221],[-3.624732,55.380738],[-3.625476,55.3802],[-3.626077,55.379607],[-3.626313,55.379124],[-3.626185,55.378751],[-3.626231,55.378078],[-3.626453,55.377105],[-3.626398,55.37632],[-3.626068,55.375723],[-3.6256,55.375177],[-3.624995,55.37468],[-3.624185,55.374311],[-3.623172,55.37407],[-3.622326,55.373864],[-3.621647,55.373692],[-3.62086,55.373479],[-3.619967,55.373225],[-3.619418,55.373249],[-3.619213,55.373553],[-3.619079,55.373884],[-3.619017,55.374242],[-3.618953,55.374864],[-3.618887,55.37575],[-3.619079,55.376485],[-3.619528,55.377069],[-3.6198,55.377496],[-3.619893,55.377767],[-3.619962,55.378147],[-3.620007,55.378634],[-3.619993,55.378952],[-3.61992,55.3791],[-3.61874,55.379721],[-3.616451,55.380814],[-3.615628,55.381572]]]}}