{"type":"Feature","properties":{"id":"268253","COMMUNE":"Powys","PROVINCE":"Powys","COUNTRY":"UK","FIREDATE":"2025-04-07 01:00:00","CLASS":"FireSeason","areaHA_geo":5018.139},"geometry":{"type":"Polygon","coordinates":[[[-3.762676,52.298434],[-3.763697,52.298669],[-3.764677,52.298717],[-3.765486,52.298547],[-3.766137,52.298333],[-3.766631,52.298075],[-3.767098,52.297732],[-3.767538,52.297305],[-3.767657,52.29722],[-3.767637,52.297205],[-3.767346,52.297043],[-3.767163,52.296845],[-3.767037,52.296444],[-3.767187,52.296157],[-3.767677,52.295929],[-3.768064,52.295883],[-3.76841,52.295965],[-3.768507,52.296272],[-3.768502,52.296639],[-3.76856,52.296823],[-3.768739,52.296814],[-3.769109,52.296946],[-3.769413,52.296935],[-3.769653,52.296782],[-3.769858,52.29652],[-3.770028,52.296149],[-3.770106,52.295677],[-3.770089,52.295103],[-3.769928,52.294396],[-3.769623,52.293555],[-3.769388,52.293007],[-3.769226,52.292751],[-3.769,52.292489],[-3.76871,52.292223],[-3.768526,52.291831],[-3.768445,52.291315],[-3.768832,52.290456],[-3.769685,52.289254],[-3.770418,52.288254],[-3.771029,52.287456],[-3.771541,52.28667],[-3.771954,52.285896],[-3.772245,52.285386],[-3.772414,52.285141],[-3.773047,52.284803],[-3.774144,52.284374],[-3.774523,52.283754],[-3.774186,52.282942],[-3.773869,52.282328],[-3.773574,52.281912],[-3.772877,52.281719],[-3.771778,52.281747],[-3.770941,52.281633],[-3.770367,52.281375],[-3.770115,52.281029],[-3.770183,52.280595],[-3.76957,52.280341],[-3.768274,52.280268],[-3.76755,52.280378],[-3.767396,52.280671],[-3.766866,52.280946],[-3.765962,52.281203],[-3.765326,52.281465],[-3.764959,52.281733],[-3.764474,52.281953],[-3.763871,52.282124],[-3.763311,52.282103],[-3.762796,52.28189],[-3.762597,52.281763],[-3.762716,52.281722],[-3.762611,52.28172],[-3.762284,52.281759],[-3.762013,52.281766],[-3.7618,52.28174],[-3.761791,52.281516],[-3.761986,52.281093],[-3.762311,52.280754],[-3.762765,52.280501],[-3.763333,52.280284],[-3.764015,52.280104],[-3.764449,52.279915],[-3.764633,52.279718],[-3.764558,52.279414],[-3.764223,52.279003],[-3.763864,52.278644],[-3.763481,52.278339],[-3.763393,52.278061],[-3.763602,52.277811],[-3.763897,52.277639],[-3.764278,52.277544],[-3.764574,52.277572],[-3.764785,52.277722],[-3.765121,52.278009],[-3.765582,52.27843],[-3.765998,52.278707],[-3.766368,52.278839],[-3.76681,52.278875],[-3.767325,52.278814],[-3.767887,52.278711],[-3.768498,52.278564],[-3.769034,52.278376],[-3.769495,52.278147],[-3.769954,52.277842],[-3.770409,52.277464],[-3.770751,52.277238],[-3.770979,52.277165],[-3.771423,52.277338],[-3.772084,52.277757],[-3.772754,52.278065],[-3.773431,52.278261],[-3.774176,52.278411],[-3.774989,52.278516],[-3.776031,52.278632],[-3.777302,52.278758],[-3.778196,52.278728],[-3.778712,52.278543],[-3.779137,52.27813],[-3.779469,52.27749],[-3.77992,52.276836],[-3.780489,52.276168],[-3.780918,52.275705],[-3.781206,52.275446],[-3.781476,52.275326],[-3.781729,52.275347],[-3.78192,52.275562],[-3.782049,52.275973],[-3.781993,52.27638],[-3.78175,52.276784],[-3.78183,52.277037],[-3.782232,52.27714],[-3.782731,52.277032],[-3.783328,52.276711],[-3.783676,52.276445],[-3.783773,52.276233],[-3.784223,52.275968],[-3.785026,52.275648],[-3.785545,52.275474],[-3.785783,52.275447],[-3.786045,52.275691],[-3.786331,52.276209],[-3.786593,52.276453],[-3.78683,52.276425],[-3.787278,52.276348],[-3.787935,52.27622],[-3.788527,52.276013],[-3.789052,52.275726],[-3.789447,52.27548],[-3.78971,52.275273],[-3.789833,52.274946],[-3.789814,52.274497],[-3.789639,52.27433],[-3.789305,52.274444],[-3.788998,52.274706],[-3.788716,52.275115],[-3.788497,52.275266],[-3.78834,52.275159],[-3.7883,52.274901],[-3.788376,52.274491],[-3.788119,52.274133],[-3.78753,52.273827],[-3.787063,52.273581],[-3.786718,52.273396],[-3.786476,52.273087],[-3.786339,52.272652],[-3.785861,52.27237],[-3.78504,52.272241],[-3.784393,52.272142],[-3.78392,52.272072],[-3.783647,52.271791],[-3.783574,52.271299],[-3.78379,52.27081],[-3.784294,52.270326],[-3.784797,52.269903],[-3.785299,52.269544],[-3.785615,52.269244],[-3.785745,52.269003],[-3.785799,52.268784],[-3.785778,52.268586],[-3.785518,52.268479],[-3.78502,52.268462],[-3.784348,52.268541],[-3.7835,52.268716],[-3.782799,52.268773],[-3.782247,52.268713],[-3.781916,52.268639],[-3.781806,52.268552],[-3.781359,52.268304],[-3.780574,52.267895],[-3.779988,52.267601],[-3.779603,52.267421],[-3.779017,52.267252],[-3.778228,52.267094],[-3.777455,52.266984],[-3.776697,52.266923],[-3.776124,52.266928],[-3.775736,52.266998],[-3.775436,52.266958],[-3.775225,52.266808],[-3.774945,52.266703],[-3.774598,52.266644],[-3.774148,52.266646],[-3.773594,52.266711],[-3.773147,52.266726],[-3.772808,52.266691],[-3.772592,52.266854],[-3.772501,52.267215],[-3.772375,52.267458],[-3.772214,52.267583],[-3.771895,52.267389],[-3.771416,52.266875],[-3.771128,52.266555],[-3.771032,52.266429],[-3.77122,52.266075],[-3.771693,52.265494],[-3.772035,52.265016],[-3.772245,52.264641],[-3.772412,52.264259],[-3.772536,52.263869],[-3.772661,52.263616],[-3.772789,52.263501],[-3.772554,52.263341],[-3.771956,52.263135],[-3.771548,52.262945],[-3.771329,52.262771],[-3.771081,52.262637],[-3.770806,52.262544],[-3.770625,52.26249],[-3.770538,52.262475],[-3.770422,52.262427],[-3.770275,52.262344],[-3.770201,52.262302],[-3.770198,52.262303],[-3.770013,52.262437],[-3.769646,52.262705],[-3.769378,52.262962],[-3.769209,52.263207],[-3.769092,52.263359],[-3.769028,52.263416],[-3.768851,52.263374],[-3.768561,52.263233],[-3.768311,52.262962],[-3.768103,52.262561],[-3.768025,52.262182],[-3.768077,52.261825],[-3.768283,52.261438],[-3.768644,52.26102],[-3.769002,52.26059],[-3.769355,52.260148],[-3.769868,52.259887],[-3.770541,52.259808],[-3.771593,52.260023],[-3.773025,52.260531],[-3.773858,52.260897],[-3.774092,52.261119],[-3.774249,52.261316],[-3.77433,52.261487],[-3.774391,52.261618],[-3.774434,52.261708],[-3.7747,52.262075],[-3.77519,52.262718],[-3.775508,52.263144],[-3.775656,52.263352],[-3.775838,52.263606],[-3.776056,52.263906],[-3.776447,52.264236],[-3.777011,52.264595],[-3.777653,52.264808],[-3.778371,52.264874],[-3.779258,52.265083],[-3.780312,52.265435],[-3.781245,52.265726],[-3.782056,52.265956],[-3.783044,52.266291],[-3.784208,52.26673],[-3.785252,52.266983],[-3.786176,52.26705],[-3.786697,52.267076],[-3.786816,52.267062],[-3.78681,52.266913],[-3.786679,52.266628],[-3.786276,52.266324],[-3.7856,52.266003],[-3.784967,52.265752],[-3.784377,52.265571],[-3.783687,52.265401],[-3.782899,52.265244],[-3.78214,52.264982],[-3.781409,52.264617],[-3.781059,52.26422],[-3.781088,52.263791],[-3.781038,52.263371],[-3.780908,52.262961],[-3.780882,52.262551],[-3.780958,52.262141],[-3.780997,52.261918],[-3.780999,52.261882],[-3.781196,52.26188],[-3.781589,52.261913],[-3.78185,52.26185],[-3.781979,52.261692],[-3.782262,52.261525],[-3.782699,52.261348],[-3.783237,52.260972],[-3.783877,52.260396],[-3.784373,52.259887],[-3.784726,52.259445],[-3.784968,52.259041],[-3.785099,52.258675],[-3.785312,52.258438],[-3.785605,52.258328],[-3.785885,52.25837],[-3.786152,52.258564],[-3.786271,52.258813],[-3.786243,52.259117],[-3.785892,52.259696],[-3.785218,52.260552],[-3.78472,52.261275],[-3.784399,52.261865],[-3.784217,52.262199],[-3.784174,52.262278],[-3.784175,52.262452],[-3.784219,52.262722],[-3.784595,52.263004],[-3.785302,52.263296],[-3.785833,52.263484],[-3.786188,52.263568],[-3.786411,52.263755],[-3.786502,52.264044],[-3.786529,52.264392],[-3.786493,52.264797],[-3.786836,52.265169],[-3.787559,52.26551],[-3.788047,52.265628],[-3.788301,52.265523],[-3.78843,52.265345],[-3.788433,52.265094],[-3.788461,52.264791],[-3.788513,52.264434],[-3.788716,52.264298],[-3.78907,52.264381],[-3.789432,52.264551],[-3.7898,52.264809],[-3.790932,52.264951],[-3.792829,52.264979],[-3.794176,52.265021],[-3.794973,52.265077],[-3.795455,52.265108],[-3.795621,52.265114],[-3.795734,52.265213],[-3.795795,52.265406],[-3.795864,52.265624],[-3.79594,52.265865],[-3.79638,52.266089],[-3.797183,52.266295],[-3.797745,52.266254],[-3.798065,52.265966],[-3.798299,52.265451],[-3.798448,52.264709],[-3.798725,52.264351],[-3.79913,52.264377],[-3.799568,52.264487],[-3.80004,52.264682],[-3.8004,52.264978],[-3.800648,52.265374],[-3.800715,52.265717],[-3.800601,52.266006],[-3.800539,52.266201],[-3.80053,52.266302],[-3.800541,52.266401],[-3.800571,52.266497],[-3.800876,52.266487],[-3.801454,52.266369],[-3.801912,52.266064],[-3.80225,52.265574],[-3.802501,52.265069],[-3.802666,52.264548],[-3.802759,52.264062],[-3.80278,52.263609],[-3.802816,52.263266],[-3.802866,52.263035],[-3.802482,52.26273],[-3.801665,52.26235],[-3.80102,52.262125],[-3.800546,52.262056],[-3.800256,52.261915],[-3.800148,52.261702],[-3.800132,52.261391],[-3.800208,52.260981],[-3.799955,52.260635],[-3.799374,52.260353],[-3.799021,52.260189],[-3.798896,52.260142],[-3.798617,52.260037],[-3.798183,52.259874],[-3.797984,52.259653],[-3.798019,52.259373],[-3.79745,52.259065],[-3.796276,52.258727],[-3.795457,52.258535],[-3.794991,52.25849],[-3.794694,52.258262],[-3.794564,52.257851],[-3.794114,52.257529],[-3.793342,52.257294],[-3.792768,52.257098],[-3.792391,52.256942],[-3.791987,52.256702],[-3.791556,52.256377],[-3.79151,52.255993],[-3.791848,52.25555],[-3.792036,52.255302],[-3.792076,52.25525],[-3.792391,52.254989],[-3.792982,52.254519],[-3.793339,52.254026],[-3.793464,52.253511],[-3.793449,52.252812],[-3.793294,52.251928],[-3.793379,52.251418],[-3.793705,52.251279],[-3.79385,52.251087],[-3.793813,52.250841],[-3.793597,52.250741],[-3.793202,52.250787],[-3.792757,52.25094],[-3.792264,52.251198],[-3.791881,52.251544],[-3.791607,52.251976],[-3.791397,52.252352],[-3.79125,52.252669],[-3.790945,52.253068],[-3.790481,52.253548],[-3.790061,52.253895],[-3.789685,52.254109],[-3.789191,52.254084],[-3.788581,52.253823],[-3.788293,52.253572],[-3.788327,52.253331],[-3.788256,52.252996],[-3.788079,52.252566],[-3.787802,52.25201],[-3.787423,52.251329],[-3.787166,52.250771],[-3.787029,52.250336],[-3.786903,52.25],[-3.786787,52.249763],[-3.786497,52.24956],[-3.786033,52.249389],[-3.785596,52.249302],[-3.785185,52.249301],[-3.784616,52.249317],[-3.783889,52.249353],[-3.782786,52.249369],[-3.781309,52.249368],[-3.780111,52.249346],[-3.779192,52.249305],[-3.778651,52.249281],[-3.778488,52.249274],[-3.778107,52.24923],[-3.777508,52.249151],[-3.776622,52.248942],[-3.775449,52.248604],[-3.774885,52.248181],[-3.774931,52.247675],[-3.775002,52.247262],[-3.775098,52.246943],[-3.775076,52.246745],[-3.774934,52.246668],[-3.774953,52.24652],[-3.775133,52.246299],[-3.775218,52.245977],[-3.775207,52.245552],[-3.77522,52.2452],[-3.775255,52.244921],[-3.774913,52.244485],[-3.774194,52.243893],[-3.773398,52.243386],[-3.772527,52.242962],[-3.77149,52.242533],[-3.770287,52.242099],[-3.769321,52.241636],[-3.768593,52.241146],[-3.767716,52.24051],[-3.766692,52.239729],[-3.765926,52.239117],[-3.765418,52.238676],[-3.764826,52.238358],[-3.764149,52.238162],[-3.763182,52.23815],[-3.761924,52.238323],[-3.760682,52.238744],[-3.759457,52.239413],[-3.758314,52.240085],[-3.757255,52.24076],[-3.756387,52.241263],[-3.755712,52.241592],[-3.755222,52.241863],[-3.754919,52.242073],[-3.754686,52.242376],[-3.754523,52.242771],[-3.754414,52.243272],[-3.754358,52.243879],[-3.753998,52.24456],[-3.753332,52.245314],[-3.752573,52.245966],[-3.75172,52.246517],[-3.75082,52.247111],[-3.749871,52.247748],[-3.749515,52.248378],[-3.749752,52.249001],[-3.750347,52.249657],[-3.751302,52.250347],[-3.752045,52.250885],[-3.752577,52.251274],[-3.752927,52.251733],[-3.753094,52.252265],[-3.752841,52.252833],[-3.752169,52.253437],[-3.751518,52.253977],[-3.750888,52.254451],[-3.750302,52.254808],[-3.749762,52.255046],[-3.749396,52.255189],[-3.749206,52.255236],[-3.748463,52.255286],[-3.747166,52.255338],[-3.746052,52.255381],[-3.745119,52.255415],[-3.744475,52.255603],[-3.744119,52.255946],[-3.743826,52.256056],[-3.743593,52.255932],[-3.743132,52.255685],[-3.742441,52.255315],[-3.741983,52.255031],[-3.741757,52.254832],[-3.741435,52.254657],[-3.741018,52.254505],[-3.740565,52.254433],[-3.740075,52.254441],[-3.739627,52.254518],[-3.739223,52.254666],[-3.738774,52.254768],[-3.738282,52.254826],[-3.737926,52.254867],[-3.737706,52.254893],[-3.73716,52.254957],[-3.73629,52.255059],[-3.735288,52.255201],[-3.734156,52.255384],[-3.733355,52.255578],[-3.732886,52.255783],[-3.732533,52.255899],[-3.732295,52.255927],[-3.732003,52.255911],[-3.731656,52.255851],[-3.731004,52.255928],[-3.730045,52.25614],[-3.729549,52.256261],[-3.729517,52.25629],[-3.729363,52.25632],[-3.729086,52.256353],[-3.728791,52.256199],[-3.72848,52.25586],[-3.72814,52.255562],[-3.727773,52.255304],[-3.72763,52.255046],[-3.727713,52.254786],[-3.728086,52.254604],[-3.728752,52.254501],[-3.729347,52.254307],[-3.729872,52.25402],[-3.730153,52.253727],[-3.730188,52.253427],[-3.73021,52.253237],[-3.73022,52.253155],[-3.73014,52.252912],[-3.729972,52.252506],[-3.729863,52.252093],[-3.729814,52.251673],[-3.729579,52.25125],[-3.729158,52.250824],[-3.728775,52.250518],[-3.72843,52.250333],[-3.728087,52.24996],[-3.727748,52.249399],[-3.727755,52.248835],[-3.728111,52.248267],[-3.72856,52.247739],[-3.729104,52.24725],[-3.729271,52.246667],[-3.729059,52.245991],[-3.728622,52.245316],[-3.727959,52.244642],[-3.727495,52.244208],[-3.72723,52.244014],[-3.726765,52.243906],[-3.726102,52.243883],[-3.725558,52.243852],[-3.725133,52.243813],[-3.724774,52.24378],[-3.724481,52.243753],[-3.723925,52.243612],[-3.723107,52.243357],[-3.722353,52.243107],[-3.721661,52.242863],[-3.720791,52.242376],[-3.719743,52.241648],[-3.719145,52.241081],[-3.719,52.240676],[-3.718857,52.240448],[-3.718716,52.240398],[-3.71871,52.240233],[-3.718839,52.239956],[-3.718835,52.239763],[-3.7187,52.239655],[-3.71842,52.239409],[-3.717995,52.239025],[-3.717733,52.238674],[-3.717634,52.238355],[-3.717541,52.238005],[-3.717455,52.237623],[-3.717333,52.237335],[-3.717174,52.237143],[-3.717199,52.237006],[-3.717407,52.236924],[-3.717591,52.236734],[-3.717752,52.236437],[-3.717816,52.236048],[-3.717784,52.235566],[-3.717955,52.235221],[-3.718329,52.235012],[-3.718835,52.234819],[-3.719472,52.234641],[-3.719898,52.234436],[-3.720113,52.234205],[-3.720159,52.233972],[-3.720035,52.233739],[-3.719918,52.233392],[-3.719807,52.23293],[-3.71983,52.232654],[-3.719988,52.232563],[-3.720292,52.232507],[-3.720741,52.232485],[-3.721084,52.232528],[-3.72132,52.232634],[-3.721555,52.232653],[-3.721787,52.232585],[-3.721965,52.232507],[-3.72209,52.23242],[-3.722127,52.23224],[-3.722075,52.231968],[-3.721876,52.231816],[-3.721528,52.231784],[-3.721109,52.231797],[-3.72062,52.231854],[-3.720139,52.231802],[-3.719666,52.231641],[-3.719386,52.231395],[-3.719299,52.231064],[-3.719236,52.230674],[-3.719197,52.230224],[-3.719042,52.229917],[-3.718771,52.229753],[-3.718464,52.229665],[-3.718123,52.229653],[-3.71762,52.229588],[-3.716958,52.22947],[-3.716407,52.229302],[-3.715967,52.229085],[-3.715557,52.228854],[-3.715176,52.22861],[-3.714819,52.228387],[-3.714484,52.228186],[-3.714367,52.227973],[-3.714466,52.227747],[-3.714382,52.227314],[-3.714115,52.226674],[-3.713997,52.226162],[-3.714028,52.225776],[-3.714161,52.225446],[-3.714396,52.225171],[-3.714727,52.224471],[-3.715153,52.223348],[-3.715478,52.222603],[-3.715701,52.222236],[-3.716185,52.221731],[-3.71693,52.221086],[-3.717411,52.220488],[-3.717627,52.219936],[-3.71772,52.219585],[-3.717689,52.219434],[-3.717623,52.21925],[-3.717522,52.219035],[-3.717265,52.218807],[-3.716852,52.218567],[-3.716406,52.218412],[-3.715929,52.218344],[-3.715478,52.218236],[-3.715053,52.218088],[-3.714817,52.217887],[-3.714769,52.217633],[-3.714716,52.217234],[-3.714658,52.216691],[-3.714623,52.216152],[-3.71461,52.215618],[-3.714621,52.21509],[-3.714655,52.214567],[-3.714712,52.214049],[-3.714792,52.213536],[-3.714839,52.213268],[-3.714852,52.213246],[-3.714748,52.213146],[-3.714528,52.21297],[-3.714433,52.212735],[-3.714464,52.212444],[-3.714467,52.212091],[-3.714443,52.211678],[-3.714425,52.211258],[-3.714414,52.210833],[-3.71467,52.210451],[-3.715193,52.210112],[-3.715627,52.209906],[-3.715971,52.209834],[-3.716517,52.209653],[-3.717265,52.209363],[-3.717714,52.209123],[-3.717865,52.208935],[-3.717892,52.208713],[-3.717794,52.208458],[-3.717661,52.20834],[-3.717493,52.20836],[-3.717281,52.208379],[-3.717025,52.208398],[-3.716853,52.208381],[-3.716767,52.208327],[-3.716691,52.208197],[-3.716627,52.207991],[-3.716603,52.207878],[-3.716619,52.207857],[-3.716763,52.207675],[-3.717035,52.207331],[-3.717438,52.207011],[-3.717974,52.206713],[-3.718382,52.206399],[-3.718663,52.206067],[-3.718839,52.20571],[-3.718912,52.205328],[-3.718918,52.205039],[-3.718857,52.204844],[-3.718736,52.204682],[-3.718556,52.204553],[-3.718333,52.204537],[-3.718066,52.204632],[-3.717787,52.204857],[-3.717496,52.205211],[-3.717253,52.205442],[-3.71706,52.20555],[-3.716771,52.205771],[-3.716386,52.206104],[-3.715994,52.206443],[-3.715596,52.206789],[-3.715232,52.207053],[-3.714903,52.207235],[-3.714367,52.207533],[-3.713624,52.207945],[-3.713109,52.208136],[-3.71282,52.208106],[-3.712605,52.208035],[-3.712466,52.207923],[-3.712275,52.207759],[-3.712032,52.207542],[-3.711683,52.207262],[-3.711227,52.206921],[-3.711004,52.206627],[-3.711014,52.20638],[-3.711128,52.206129],[-3.711346,52.205875],[-3.711421,52.205682],[-3.711353,52.205551],[-3.711278,52.205452],[-3.711194,52.205385],[-3.711032,52.205342],[-3.710791,52.205323],[-3.710528,52.205358],[-3.710243,52.205449],[-3.710015,52.205619],[-3.709842,52.205869],[-3.709602,52.206002],[-3.709294,52.206019],[-3.708935,52.205999],[-3.708526,52.205941],[-3.708167,52.205845],[-3.707858,52.205708],[-3.707581,52.205521],[-3.707334,52.205282],[-3.707074,52.205126],[-3.7068,52.205052],[-3.706462,52.204972],[-3.706059,52.204886],[-3.705881,52.204792],[-3.705928,52.20469],[-3.706193,52.204511],[-3.706676,52.204254],[-3.707058,52.204123],[-3.707338,52.204119],[-3.707678,52.204127],[-3.708075,52.204148],[-3.708302,52.204097],[-3.708358,52.203976],[-3.708438,52.203804],[-3.70854,52.203581],[-3.708621,52.203338],[-3.708679,52.203073],[-3.708791,52.202806],[-3.708958,52.202538],[-3.709091,52.202312],[-3.70919,52.202128],[-3.709159,52.201978],[-3.708998,52.201863],[-3.708736,52.201827],[-3.708374,52.201869],[-3.707889,52.201921],[-3.707282,52.201983],[-3.706807,52.202067],[-3.706465,52.202174],[-3.706114,52.202354],[-3.705754,52.202606],[-3.705236,52.202801],[-3.704558,52.202937],[-3.704121,52.203041],[-3.703924,52.203112],[-3.703798,52.203284],[-3.703743,52.203559],[-3.703626,52.203864],[-3.70345,52.2042],[-3.703228,52.204394],[-3.702962,52.204444],[-3.702727,52.204467],[-3.702522,52.204462],[-3.702169,52.204412],[-3.70167,52.204317],[-3.701147,52.204321],[-3.700599,52.204423],[-3.699896,52.204577],[-3.699036,52.204783],[-3.698154,52.204939],[-3.697247,52.205045],[-3.696239,52.2051],[-3.695129,52.205106],[-3.694531,52.204994],[-3.694443,52.204765],[-3.694447,52.204549],[-3.69454,52.204347],[-3.694616,52.204177],[-3.694673,52.204039],[-3.694929,52.203981],[-3.695383,52.204001],[-3.695932,52.204017],[-3.696577,52.204028],[-3.697183,52.203938],[-3.69775,52.203747],[-3.698191,52.203404],[-3.698506,52.202908],[-3.698806,52.20249],[-3.699092,52.202151],[-3.69928,52.201928],[-3.699372,52.201821],[-3.699622,52.201768],[-3.700029,52.201768],[-3.700303,52.201794],[-3.700444,52.201844],[-3.700543,52.201986],[-3.7006,52.202218],[-3.700721,52.202381],[-3.700907,52.202474],[-3.701143,52.20248],[-3.701431,52.202399],[-3.701608,52.202287],[-3.701673,52.202146],[-3.701751,52.202046],[-3.701843,52.201987],[-3.702028,52.201879],[-3.702308,52.201722],[-3.702651,52.201591],[-3.703056,52.201486],[-3.70336,52.201432],[-3.703562,52.201427],[-3.70381,52.201418],[-3.704102,52.201402],[-3.704553,52.20134],[-3.70516,52.201231],[-3.705416,52.201072],[-3.70532,52.200863],[-3.705095,52.200722],[-3.704744,52.200648],[-3.70427,52.200584],[-3.703673,52.200529],[-3.703253,52.200512],[-3.703008,52.200531],[-3.702688,52.200458],[-3.702293,52.200294],[-3.701955,52.20019],[-3.701675,52.200146],[-3.701532,52.200014],[-3.701526,52.199795],[-3.701804,52.199605],[-3.702364,52.199444],[-3.702895,52.199339],[-3.703396,52.19929],[-3.703803,52.199213],[-3.704115,52.19911],[-3.70424,52.198985],[-3.704179,52.198839],[-3.70399,52.198737],[-3.703675,52.198678],[-3.703398,52.198596],[-3.703162,52.198489],[-3.703035,52.198361],[-3.70302,52.198209],[-3.702977,52.198047],[-3.702907,52.197873],[-3.702665,52.197777],[-3.702253,52.197759],[-3.701865,52.197794],[-3.701501,52.197885],[-3.701225,52.19795],[-3.701034,52.197992],[-3.700778,52.197974],[-3.700456,52.197897],[-3.700241,52.19786],[-3.700133,52.197863],[-3.699936,52.19791],[-3.699651,52.198],[-3.699428,52.198089],[-3.699267,52.198174],[-3.699123,52.198263],[-3.698995,52.198353],[-3.698875,52.198396],[-3.698764,52.198391],[-3.698456,52.19836],[-3.697954,52.198304],[-3.697547,52.198179],[-3.697236,52.197986],[-3.696958,52.197746],[-3.696712,52.197459],[-3.696541,52.197261],[-3.696446,52.197151],[-3.696315,52.19707],[-3.696148,52.197018],[-3.695502,52.196869],[-3.694379,52.196621],[-3.693692,52.196386],[-3.69344,52.196164],[-3.69309,52.196036],[-3.692641,52.196002],[-3.691718,52.195928],[-3.690321,52.195814],[-3.689424,52.195759],[-3.68903,52.195764],[-3.688616,52.195769],[-3.688185,52.195775],[-3.687723,52.195792],[-3.687231,52.195821],[-3.686577,52.195806],[-3.685761,52.195748],[-3.685289,52.195644],[-3.685161,52.195495],[-3.68505,52.195364],[-3.684956,52.195253],[-3.685125,52.195115],[-3.685559,52.194949],[-3.686006,52.194753],[-3.686468,52.194527],[-3.68667,52.194346],[-3.686612,52.194209],[-3.686473,52.194115],[-3.686253,52.194065],[-3.685828,52.19398],[-3.685197,52.193863],[-3.684573,52.193744],[-3.683956,52.193625],[-3.683491,52.193588],[-3.683177,52.193634],[-3.682541,52.193704],[-3.681584,52.193796],[-3.681,52.193731],[-3.680789,52.193507],[-3.680786,52.19332],[-3.68099,52.193172],[-3.681173,52.193055],[-3.681334,52.192969],[-3.681396,52.192843],[-3.68136,52.192675],[-3.681185,52.192542],[-3.680873,52.192445],[-3.680536,52.192393],[-3.680174,52.192387],[-3.679882,52.192378],[-3.679659,52.192366],[-3.679518,52.192343],[-3.67946,52.192309],[-3.679527,52.192226],[-3.679722,52.192093],[-3.680165,52.191749],[-3.680857,52.191194],[-3.681358,52.190744],[-3.681667,52.190398],[-3.682051,52.189907],[-3.682509,52.18927],[-3.683027,52.188781],[-3.683607,52.18844],[-3.684424,52.188144],[-3.685479,52.187893],[-3.686165,52.187704],[-3.686483,52.187576],[-3.686859,52.187395],[-3.687294,52.187162],[-3.688059,52.186845],[-3.689157,52.186443],[-3.690325,52.186125],[-3.691563,52.185889],[-3.692387,52.185711],[-3.692797,52.18559],[-3.692975,52.185396],[-3.692921,52.185129],[-3.692591,52.18493],[-3.691984,52.184801],[-3.691501,52.184638],[-3.691142,52.184443],[-3.690924,52.184223],[-3.690848,52.183977],[-3.690811,52.183717],[-3.690815,52.183443],[-3.690504,52.183114],[-3.689878,52.182732],[-3.689382,52.18248],[-3.689017,52.182359],[-3.688566,52.182347],[-3.68803,52.182446],[-3.687494,52.182591],[-3.686957,52.182781],[-3.686438,52.182888],[-3.685938,52.182909],[-3.685592,52.182848],[-3.685398,52.182702],[-3.685262,52.1826],[-3.685183,52.18254],[-3.684942,52.182534],[-3.684539,52.182581],[-3.683918,52.182598],[-3.68308,52.182587],[-3.682576,52.182691],[-3.682406,52.182912],[-3.681901,52.183107],[-3.681059,52.183279],[-3.68054,52.183285],[-3.680341,52.183125],[-3.680293,52.182876],[-3.680396,52.182536],[-3.680735,52.182332],[-3.68131,52.182265],[-3.681808,52.182189],[-3.682229,52.182103],[-3.682373,52.181895],[-3.68224,52.181564],[-3.681944,52.18138],[-3.681485,52.181342],[-3.681046,52.181321],[-3.680627,52.181315],[-3.680048,52.181228],[-3.67931,52.181059],[-3.678854,52.180793],[-3.678682,52.18043],[-3.678367,52.180184],[-3.677909,52.180056],[-3.677421,52.180021],[-3.676904,52.180082],[-3.67643,52.180283],[-3.675999,52.180625],[-3.67575,52.180973],[-3.675681,52.181327],[-3.675368,52.181756],[-3.674809,52.182258],[-3.674185,52.18265],[-3.673497,52.182931],[-3.672704,52.183231],[-3.671805,52.183551],[-3.671349,52.183714],[-3.671336,52.183719],[-3.671003,52.184014],[-3.67035,52.184601],[-3.669845,52.185179],[-3.669485,52.18575],[-3.669126,52.18632],[-3.668767,52.186891],[-3.668473,52.187335],[-3.668244,52.187653],[-3.668045,52.188068],[-3.667877,52.18858],[-3.667945,52.188958],[-3.66825,52.189202],[-3.66834,52.189486],[-3.668215,52.18981],[-3.668113,52.190098],[-3.668033,52.190351],[-3.668299,52.190636],[-3.668911,52.190953],[-3.669224,52.191184],[-3.669239,52.191328],[-3.669219,52.191549],[-3.669162,52.191848],[-3.669032,52.1921],[-3.668828,52.192306],[-3.668403,52.192365],[-3.667759,52.192279],[-3.667323,52.19222],[-3.667096,52.19219],[-3.66692,52.192164],[-3.666794,52.192142],[-3.666651,52.192259],[-3.666492,52.192514],[-3.666384,52.192837],[-3.666326,52.193226],[-3.666064,52.193439],[-3.665598,52.193475],[-3.665109,52.193341],[-3.664597,52.193036],[-3.664005,52.192713],[-3.663332,52.192372],[-3.662307,52.192145],[-3.66093,52.192032],[-3.660199,52.191935],[-3.660114,52.191854],[-3.659964,52.191753],[-3.659747,52.191633],[-3.659341,52.191525],[-3.658745,52.19143],[-3.658101,52.191278],[-3.657409,52.191067],[-3.656983,52.191134],[-3.656823,52.191481],[-3.656768,52.19188],[-3.656818,52.192329],[-3.656695,52.192653],[-3.656399,52.192852],[-3.656089,52.193198],[-3.655766,52.193691],[-3.655198,52.194167],[-3.654386,52.194626],[-3.653732,52.194967],[-3.653234,52.195189],[-3.653068,52.195564],[-3.653232,52.196091],[-3.653376,52.196603],[-3.6535,52.197099],[-3.653413,52.197392],[-3.653112,52.197481],[-3.652741,52.197534],[-3.652298,52.197549],[-3.652053,52.197814],[-3.652005,52.19833],[-3.652021,52.198911],[-3.652103,52.199558],[-3.652283,52.199993],[-3.652561,52.200215],[-3.653136,52.200385],[-3.654007,52.200503],[-3.654516,52.200653],[-3.654663,52.200836],[-3.654714,52.201049],[-3.65467,52.201291],[-3.654618,52.20145],[-3.654558,52.201527],[-3.654179,52.201553],[-3.653479,52.201528],[-3.652889,52.201462],[-3.652408,52.201354],[-3.651683,52.20142],[-3.650714,52.201661],[-3.649992,52.201881],[-3.649518,52.202082],[-3.648973,52.202392],[-3.648357,52.20281],[-3.647834,52.203235],[-3.647401,52.203668],[-3.647055,52.204137],[-3.646794,52.204641],[-3.646537,52.205254],[-3.646285,52.205976],[-3.646226,52.206603],[-3.646361,52.207134],[-3.646448,52.207798],[-3.646488,52.208595],[-3.646654,52.209369],[-3.646946,52.210118],[-3.647203,52.210799],[-3.647423,52.211412],[-3.647554,52.212071],[-3.647594,52.212777],[-3.647674,52.213706],[-3.647794,52.214859],[-3.647962,52.215686],[-3.648178,52.21619],[-3.648577,52.216608],[-3.649158,52.216942],[-3.649621,52.217471],[-3.649966,52.218196],[-3.650269,52.218881],[-3.650529,52.219525],[-3.650811,52.220048],[-3.651115,52.22045],[-3.651462,52.220847],[-3.651853,52.221239],[-3.652254,52.22152],[-3.652665,52.221691],[-3.653046,52.221765],[-3.653397,52.221743],[-3.653767,52.22159],[-3.654157,52.221308],[-3.654478,52.220997],[-3.65473,52.220658],[-3.65523,52.220536],[-3.655975,52.220632],[-3.656564,52.220846],[-3.656996,52.221178],[-3.657238,52.221478],[-3.657292,52.221745],[-3.657405,52.222014],[-3.657579,52.222286],[-3.657882,52.222442],[-3.658312,52.222483],[-3.658717,52.222536],[-3.659095,52.222601],[-3.659542,52.222636],[-3.660057,52.222641],[-3.660457,52.222747],[-3.660743,52.222954],[-3.661028,52.223192],[-3.661315,52.22346],[-3.661663,52.223694],[-3.662074,52.223894],[-3.66248,52.224033],[-3.662881,52.22411],[-3.663134,52.224223],[-3.663238,52.22437],[-3.663093,52.224511],[-3.6627,52.224645],[-3.662217,52.224772],[-3.661645,52.224892],[-3.66104,52.22514],[-3.660403,52.225515],[-3.659556,52.225735],[-3.6585,52.225799],[-3.657703,52.225848],[-3.657165,52.225881],[-3.656491,52.225856],[-3.655682,52.225773],[-3.655086,52.225771],[-3.654705,52.225851],[-3.65454,52.226021],[-3.654592,52.22628],[-3.65474,52.226476],[-3.654984,52.226607],[-3.654834,52.226872],[-3.654292,52.227272],[-3.653707,52.227632],[-3.653082,52.227953],[-3.652299,52.228328],[-3.651359,52.228756],[-3.650794,52.229132],[-3.650605,52.229455],[-3.65072,52.22992],[-3.651141,52.230527],[-3.651704,52.231029],[-3.652407,52.231425],[-3.653121,52.231758],[-3.653843,52.232029],[-3.654433,52.232199],[-3.65489,52.23227],[-3.655236,52.23231],[-3.655471,52.232318],[-3.655807,52.232279],[-3.656244,52.232192],[-3.656596,52.232018],[-3.656863,52.231757],[-3.657175,52.231455],[-3.657533,52.231112],[-3.657713,52.23094],[-3.657716,52.230939],[-3.657789,52.231186],[-3.657931,52.23168],[-3.657863,52.23198],[-3.657586,52.232087],[-3.65732,52.232244],[-3.657065,52.232451],[-3.656649,52.232748],[-3.656073,52.233134],[-3.655654,52.233324],[-3.655391,52.233319],[-3.655089,52.233328],[-3.654748,52.23335],[-3.65443,52.233449],[-3.654137,52.233625],[-3.653886,52.233796],[-3.653676,52.233962],[-3.653612,52.234129],[-3.653693,52.234297],[-3.653919,52.234368],[-3.654288,52.234343],[-3.654605,52.234288],[-3.654869,52.234204],[-3.655301,52.234101],[-3.655901,52.233978],[-3.656596,52.234021],[-3.657387,52.23423],[-3.657926,52.234424],[-3.658214,52.234603],[-3.658608,52.234797],[-3.659108,52.235004],[-3.659533,52.235158],[-3.659884,52.235259],[-3.660439,52.235505],[-3.661199,52.235895],[-3.661822,52.236265],[-3.662309,52.236616],[-3.662952,52.236958],[-3.663752,52.23729],[-3.66435,52.237444],[-3.664745,52.237419],[-3.665071,52.237509],[-3.66533,52.237713],[-3.665502,52.237941],[-3.665586,52.238191],[-3.665747,52.238363],[-3.665985,52.238457],[-3.666742,52.238643],[-3.668018,52.238919],[-3.669248,52.239325],[-3.670431,52.239861],[-3.671371,52.240363],[-3.672068,52.240831],[-3.672698,52.241174],[-3.673259,52.241392],[-3.673756,52.241449],[-3.674188,52.241346],[-3.674626,52.241215],[-3.67507,52.241057],[-3.675572,52.240759],[-3.676132,52.240322],[-3.676848,52.239964],[-3.677719,52.239685],[-3.678233,52.239705],[-3.67839,52.240023],[-3.678514,52.240328],[-3.678605,52.240618],[-3.678671,52.240877],[-3.678712,52.241102],[-3.67853,52.241354],[-3.678123,52.241632],[-3.677481,52.241901],[-3.676605,52.242163],[-3.675816,52.242379],[-3.675115,52.242549],[-3.674209,52.242717],[-3.6731,52.242881],[-3.672026,52.243069],[-3.670988,52.243278],[-3.670194,52.243521],[-3.669641,52.243798],[-3.668894,52.244567],[-3.667953,52.245829],[-3.667175,52.246735],[-3.666563,52.247284],[-3.666014,52.247756],[-3.665527,52.248149],[-3.66508,52.248498],[-3.664673,52.248802],[-3.664606,52.24904],[-3.664879,52.249212],[-3.664909,52.249383],[-3.664694,52.249556],[-3.664602,52.249734],[-3.664634,52.249917],[-3.664626,52.250097],[-3.664579,52.250274],[-3.664604,52.250599],[-3.6647,52.251071],[-3.664823,52.251548],[-3.664973,52.252029],[-3.665131,52.252494],[-3.665297,52.252942],[-3.665681,52.253194],[-3.666286,52.253248],[-3.666899,52.253208],[-3.667521,52.253073],[-3.668127,52.253049],[-3.668716,52.253137],[-3.669099,52.253178],[-3.669276,52.253173],[-3.669591,52.253035],[-3.670043,52.252764],[-3.670396,52.252629],[-3.670652,52.252631],[-3.670885,52.25272],[-3.671094,52.252899],[-3.671187,52.253036],[-3.671166,52.253132],[-3.671081,52.253228],[-3.670932,52.253323],[-3.670713,52.253481],[-3.670424,52.253702],[-3.669961,52.253896],[-3.669324,52.254064],[-3.66887,52.254163],[-3.668599,52.254195],[-3.668195,52.25425],[-3.667657,52.254328],[-3.667016,52.254442],[-3.66627,52.254591],[-3.665745,52.254667],[-3.66544,52.254672],[-3.665022,52.254681],[-3.66449,52.254697],[-3.664147,52.254908],[-3.663993,52.255316],[-3.664058,52.255565],[-3.664342,52.255657],[-3.664913,52.255809],[-3.665771,52.256021],[-3.6667,52.256255],[-3.6677,52.256513],[-3.668761,52.256639],[-3.669883,52.256633],[-3.670867,52.256635],[-3.671714,52.256646],[-3.672591,52.256676],[-3.673501,52.256726],[-3.674434,52.256851],[-3.675391,52.257052],[-3.676263,52.25727],[-3.677052,52.257505],[-3.677633,52.257812],[-3.678006,52.258189],[-3.678386,52.258464],[-3.678772,52.258638],[-3.679341,52.258782],[-3.680092,52.258897],[-3.6809,52.259029],[-3.681764,52.259178],[-3.682421,52.259358],[-3.68287,52.259571],[-3.683123,52.259674],[-3.683179,52.259668],[-3.683351,52.259647],[-3.68364,52.259614],[-3.684012,52.259586],[-3.684465,52.259564],[-3.68495,52.259562],[-3.685466,52.25958],[-3.685843,52.259684],[-3.686082,52.259875],[-3.686268,52.260063],[-3.686403,52.26025],[-3.686409,52.26039],[-3.686284,52.260483],[-3.686087,52.260545],[-3.685815,52.260576],[-3.685469,52.26057],[-3.685046,52.260526],[-3.684726,52.260563],[-3.684507,52.260682],[-3.684388,52.260745],[-3.684368,52.260753],[-3.684476,52.260835],[-3.684711,52.260991],[-3.684839,52.261086],[-3.684858,52.261119],[-3.684918,52.261253],[-3.685019,52.261489],[-3.685189,52.261732],[-3.68543,52.261984],[-3.685523,52.262196],[-3.685468,52.262367],[-3.685199,52.262497],[-3.684714,52.262586],[-3.684109,52.262723],[-3.683383,52.262906],[-3.682932,52.263016],[-3.682755,52.263054],[-3.682693,52.263332],[-3.682748,52.263853],[-3.683014,52.264143],[-3.683491,52.264203],[-3.684278,52.264259],[-3.685375,52.264313],[-3.686336,52.264324],[-3.687164,52.264294],[-3.687749,52.26444],[-3.688093,52.264762],[-3.688482,52.264972],[-3.688917,52.265069],[-3.689211,52.265233],[-3.689364,52.265462],[-3.689666,52.265608],[-3.690117,52.26567],[-3.690471,52.265852],[-3.690727,52.266151],[-3.690776,52.26631],[-3.69062,52.266328],[-3.690361,52.266408],[-3.690001,52.266549],[-3.689834,52.266749],[-3.689861,52.26701],[-3.689967,52.26722],[-3.690152,52.267379],[-3.690299,52.267461],[-3.690408,52.267465],[-3.690784,52.267413],[-3.691425,52.267305],[-3.691878,52.267244],[-3.692143,52.267229],[-3.692485,52.267371],[-3.692901,52.267668],[-3.693217,52.267944],[-3.693432,52.268199],[-3.693709,52.268307],[-3.694047,52.268267],[-3.694464,52.268219],[-3.694959,52.268161],[-3.695415,52.268067],[-3.695833,52.267936],[-3.696148,52.267734],[-3.69636,52.267462],[-3.696725,52.267206],[-3.697243,52.266964],[-3.697846,52.266778],[-3.698535,52.266649],[-3.699349,52.266619],[-3.700289,52.266691],[-3.700912,52.266783],[-3.701217,52.266896],[-3.701919,52.266896],[-3.703018,52.266784],[-3.704015,52.266693],[-3.70491,52.266621],[-3.705645,52.266683],[-3.706219,52.26688],[-3.706435,52.267094],[-3.706291,52.267324],[-3.706034,52.267453],[-3.705665,52.26748],[-3.704924,52.267484],[-3.703811,52.267466],[-3.702511,52.267494],[-3.701023,52.267569],[-3.700226,52.267785],[-3.700122,52.268143],[-3.69968,52.268541],[-3.698899,52.268978],[-3.698405,52.269167],[-3.698198,52.269109],[-3.697843,52.269183],[-3.697341,52.26939],[-3.696995,52.269538],[-3.696807,52.269625],[-3.696411,52.269828],[-3.695809,52.270145],[-3.695581,52.270452],[-3.695727,52.270748],[-3.696004,52.270987],[-3.696413,52.27117],[-3.697117,52.27122],[-3.698116,52.271136],[-3.699489,52.271124],[-3.701236,52.271184],[-3.703084,52.271224],[-3.705034,52.271243],[-3.706403,52.271347],[-3.70719,52.271535],[-3.707935,52.271629],[-3.708637,52.271629],[-3.709316,52.2716],[-3.709972,52.271539],[-3.710549,52.271398],[-3.711046,52.271175],[-3.711504,52.270998],[-3.711922,52.270867],[-3.71237,52.270963],[-3.712849,52.271286],[-3.713209,52.271614],[-3.713448,52.271949],[-3.713602,52.272268],[-3.713671,52.272573],[-3.713984,52.272842],[-3.714543,52.273073],[-3.71503,52.273205],[-3.715445,52.273239],[-3.715676,52.273265],[-3.715722,52.273283],[-3.715968,52.273378],[-3.716413,52.273549],[-3.716648,52.273673],[-3.716672,52.27375],[-3.716781,52.273783],[-3.716974,52.273775],[-3.717136,52.273764],[-3.717265,52.273749],[-3.717488,52.2737],[-3.717804,52.273618],[-3.718196,52.273517],[-3.718665,52.273399],[-3.719156,52.273328],[-3.719669,52.273304],[-3.72037,52.273241],[-3.72126,52.273137],[-3.722088,52.273099],[-3.722856,52.273127],[-3.723437,52.273109],[-3.723834,52.273045],[-3.724124,52.272974],[-3.724308,52.272898],[-3.724395,52.272702],[-3.724385,52.272386],[-3.724411,52.272111],[-3.724471,52.271877],[-3.724735,52.271746],[-3.725203,52.271719],[-3.725479,52.271745],[-3.725563,52.271826],[-3.725736,52.271951],[-3.725998,52.27212],[-3.726474,52.272192],[-3.727164,52.272165],[-3.72777,52.272199],[-3.72829,52.272292],[-3.728536,52.272413],[-3.728508,52.272562],[-3.728362,52.272688],[-3.728097,52.272791],[-3.727677,52.272922],[-3.727102,52.27308],[-3.72665,52.273301],[-3.726323,52.273584],[-3.726099,52.273723],[-3.725978,52.273719],[-3.725529,52.273708],[-3.72475,52.273691],[-3.724024,52.273771],[-3.723351,52.273949],[-3.722499,52.274076],[-3.721466,52.274151],[-3.720686,52.274225],[-3.720158,52.274295],[-3.719451,52.27446],[-3.718565,52.274717],[-3.71772,52.275106],[-3.716916,52.275627],[-3.716237,52.276046],[-3.715683,52.276365],[-3.715211,52.27652],[-3.714821,52.276511],[-3.714497,52.276426],[-3.714239,52.276266],[-3.714018,52.276083],[-3.713835,52.275878],[-3.713734,52.275626],[-3.713715,52.275329],[-3.713599,52.275125],[-3.713386,52.275014],[-3.713138,52.274866],[-3.712857,52.274681],[-3.712642,52.274522],[-3.712492,52.27439],[-3.712417,52.274324],[-3.712416,52.274324],[-3.712226,52.274371],[-3.711845,52.274466],[-3.711426,52.274702],[-3.710971,52.275081],[-3.710913,52.275488],[-3.711255,52.275924],[-3.711652,52.276341],[-3.712105,52.276738],[-3.712761,52.277325],[-3.71362,52.278101],[-3.714409,52.278785],[-3.715128,52.279377],[-3.71562,52.280033],[-3.715887,52.280753],[-3.716152,52.281273],[-3.716417,52.281592],[-3.716931,52.281858],[-3.717695,52.282069],[-3.718703,52.282602],[-3.719956,52.283457],[-3.721083,52.284302],[-3.722084,52.285136],[-3.723348,52.28609],[-3.724875,52.287164],[-3.725956,52.287863],[-3.726592,52.28819],[-3.727301,52.288357],[-3.728084,52.288366],[-3.729163,52.288402],[-3.730538,52.288467],[-3.731524,52.288665],[-3.73212,52.288996],[-3.732924,52.289202],[-3.733935,52.289284],[-3.734859,52.289351],[-3.735697,52.289403],[-3.736259,52.289363],[-3.736545,52.289229],[-3.736704,52.289037],[-3.736736,52.288788],[-3.736923,52.288666],[-3.737267,52.288671],[-3.737514,52.288653],[-3.737665,52.28861],[-3.737783,52.288333],[-3.737869,52.287822],[-3.73811,52.287218],[-3.738507,52.286521],[-3.739039,52.286058],[-3.739706,52.28583],[-3.740215,52.285683],[-3.740563,52.285617],[-3.740971,52.285544],[-3.741439,52.285464],[-3.741892,52.285274],[-3.742331,52.284972],[-3.742743,52.284648],[-3.743127,52.284303],[-3.743448,52.284215],[-3.743707,52.284385],[-3.743687,52.284713],[-3.743388,52.285199],[-3.743092,52.285697],[-3.742801,52.286206],[-3.742809,52.286756],[-3.743118,52.287346],[-3.743449,52.287683],[-3.743804,52.287766],[-3.744246,52.287865],[-3.744774,52.287978],[-3.745295,52.288005],[-3.74581,52.287945],[-3.746192,52.287787],[-3.74644,52.287533],[-3.746977,52.287282],[-3.747803,52.287035],[-3.748488,52.286993],[-3.749031,52.287155],[-3.749198,52.28734],[-3.74958,52.28734],[-3.750207,52.287804],[-3.750368,52.288446],[-3.750233,52.288779],[-3.749809,52.289016],[-3.750038,52.289641],[-3.75034,52.290732],[-3.750411,52.291048],[-3.750611,52.291131],[-3.751124,52.292636],[-3.751764,52.29327],[-3.753155,52.294378],[-3.753226,52.294859],[-3.753394,52.295071],[-3.753758,52.29553],[-3.754666,52.295742],[-3.755074,52.295725],[-3.7553,52.295716],[-3.755379,52.295585],[-3.756826,52.295978],[-3.757096,52.296477],[-3.757588,52.296744],[-3.759027,52.297401],[-3.759985,52.29775],[-3.760301,52.297722],[-3.760966,52.297669],[-3.761945,52.297847],[-3.76248,52.298274],[-3.762676,52.298434]],[[-3.747635,52.273168],[-3.747489,52.273222],[-3.747349,52.273245],[-3.747215,52.273236],[-3.747087,52.273197],[-3.746982,52.273156],[-3.746901,52.273113],[-3.746842,52.273069],[-3.746807,52.273023],[-3.746795,52.272976],[-3.746806,52.272928],[-3.74684,52.272878],[-3.746897,52.272826],[-3.746935,52.27278],[-3.746954,52.272738],[-3.746953,52.272702],[-3.746933,52.27267],[-3.746893,52.272644],[-3.746834,52.272623],[-3.746755,52.272607],[-3.746657,52.272596],[-3.746562,52.272571],[-3.746471,52.272532],[-3.746383,52.272479],[-3.746299,52.272412],[-3.746219,52.272331],[-3.746141,52.272235],[-3.746068,52.272126],[-3.745997,52.272003],[-3.745942,52.271882],[-3.745902,52.271762],[-3.745877,52.271644],[-3.745867,52.271528],[-3.745872,52.271414],[-3.745892,52.271302],[-3.745927,52.271192],[-3.745977,52.271083],[-3.74603,52.270984],[-3.746086,52.270894],[-3.746144,52.270813],[-3.746206,52.270742],[-3.746271,52.27068],[-3.746338,52.270627],[-3.746409,52.270584],[-3.746482,52.270549],[-3.746549,52.270508],[-3.746611,52.27046],[-3.746666,52.270405],[-3.746714,52.270343],[-3.746757,52.270275],[-3.746794,52.270199],[-3.746825,52.270116],[-3.746849,52.270027],[-3.746877,52.269939],[-3.746907,52.269852],[-3.746941,52.269766],[-3.746977,52.269682],[-3.747017,52.269598],[-3.747059,52.269516],[-3.747105,52.269436],[-3.747154,52.269356],[-3.747203,52.26928],[-3.747254,52.269208],[-3.747306,52.269139],[-3.747359,52.269073],[-3.747413,52.269011],[-3.747468,52.268953],[-3.747525,52.268898],[-3.747582,52.268846],[-3.74763,52.26879],[-3.747667,52.268729],[-3.747695,52.268664],[-3.747712,52.268595],[-3.74772,52.268521],[-3.747718,52.268443],[-3.747706,52.26836],[-3.747683,52.268273],[-3.747668,52.268182],[-3.747658,52.268089],[-3.747655,52.267992],[-3.747657,52.267893],[-3.747666,52.26779],[-3.747682,52.267684],[-3.747703,52.267574],[-3.747731,52.267462],[-3.747766,52.26735],[-3.747809,52.267239],[-3.747859,52.267127],[-3.747916,52.267016],[-3.74798,52.266906],[-3.748052,52.266796],[-3.748131,52.266686],[-3.748218,52.266576],[-3.74831,52.266471],[-3.748407,52.266372],[-3.74851,52.266277],[-3.748619,52.266188],[-3.748733,52.266103],[-3.748852,52.266023],[-3.748977,52.265948],[-3.749108,52.265878],[-3.749227,52.265808],[-3.749333,52.265738],[-3.749428,52.265668],[-3.749511,52.265597],[-3.749582,52.265526],[-3.749641,52.265455],[-3.749689,52.265384],[-3.749724,52.265312],[-3.749743,52.265251],[-3.749745,52.265198],[-3.74973,52.265155],[-3.749698,52.265122],[-3.74965,52.265099],[-3.749585,52.265085],[-3.749504,52.26508],[-3.749406,52.265085],[-3.749328,52.265084],[-3.74927,52.265076],[-3.749233,52.265062],[-3.749216,52.265042],[-3.749219,52.265015],[-3.749243,52.264982],[-3.749287,52.264942],[-3.749351,52.264896],[-3.749418,52.264852],[-3.749486,52.264811],[-3.749557,52.264773],[-3.74963,52.264737],[-3.749705,52.264704],[-3.749782,52.264673],[-3.749861,52.264645],[-3.749943,52.26462],[-3.750027,52.264603],[-3.750114,52.264595],[-3.750203,52.264596],[-3.750296,52.264606],[-3.750391,52.264625],[-3.750489,52.264653],[-3.75059,52.26469],[-3.750694,52.264735],[-3.750792,52.264774],[-3.750885,52.264806],[-3.750972,52.26483],[-3.751054,52.264848],[-3.75113,52.264859],[-3.751201,52.264862],[-3.751266,52.264859],[-3.751326,52.264849],[-3.75138,52.264844],[-3.751429,52.264845],[-3.751473,52.264851],[-3.75151,52.264863],[-3.751543,52.26488],[-3.75157,52.264902],[-3.751591,52.26493],[-3.751607,52.264964],[-3.75163,52.264992],[-3.751663,52.265014],[-3.751703,52.265032],[-3.751751,52.265044],[-3.751808,52.26505],[-3.751873,52.265052],[-3.751946,52.265047],[-3.752027,52.265038],[-3.752105,52.265026],[-3.752181,52.265013],[-3.752254,52.264997],[-3.752325,52.264979],[-3.752393,52.264959],[-3.752458,52.264937],[-3.752521,52.264913],[-3.752581,52.264886],[-3.752645,52.264864],[-3.752714,52.264844],[-3.752788,52.264828],[-3.752865,52.264816],[-3.752947,52.264807],[-3.753033,52.264802],[-3.753124,52.2648],[-3.753219,52.264802],[-3.753307,52.264813],[-3.753387,52.264833],[-3.753459,52.264863],[-3.753524,52.264902],[-3.753581,52.26495],[-3.753631,52.265007],[-3.753673,52.265074],[-3.753707,52.26515],[-3.753724,52.265221],[-3.753724,52.265287],[-3.753706,52.265348],[-3.753671,52.265403],[-3.753619,52.265454],[-3.753549,52.265499],[-3.753461,52.265539],[-3.753357,52.265573],[-3.753289,52.265619],[-3.75326,52.265675],[-3.753268,52.265742],[-3.753313,52.26582],[-3.753396,52.265909],[-3.753517,52.266009],[-3.753675,52.26612],[-3.753871,52.266241],[-3.754048,52.266349],[-3.754205,52.266444],[-3.754343,52.266525],[-3.754461,52.266593],[-3.754561,52.266647],[-3.75464,52.266688],[-3.754701,52.266716],[-3.754742,52.266731],[-3.754792,52.266733],[-3.754849,52.266724],[-3.754915,52.266703],[-3.754989,52.26667],[-3.755071,52.266626],[-3.755161,52.26657],[-3.755259,52.266502],[-3.755366,52.266422],[-3.755456,52.266362],[-3.75553,52.266322],[-3.755588,52.266302],[-3.75563,52.266302],[-3.755656,52.266322],[-3.755666,52.266361],[-3.75566,52.266421],[-3.755637,52.266501],[-3.75561,52.266573],[-3.755578,52.266638],[-3.755541,52.266695],[-3.755499,52.266745],[-3.755451,52.266787],[-3.755399,52.266822],[-3.755342,52.26685],[-3.75528,52.26687],[-3.755212,52.26689],[-3.755136,52.26691],[-3.755055,52.26693],[-3.754966,52.26695],[-3.754871,52.26697],[-3.75477,52.26699],[-3.754662,52.26701],[-3.754547,52.267029],[-3.754444,52.267049],[-3.754351,52.267069],[-3.75427,52.267088],[-3.7542,52.267108],[-3.754141,52.267127],[-3.754093,52.267146],[-3.754056,52.267165],[-3.754031,52.267184],[-3.754015,52.267215],[-3.75401,52.267256],[-3.754015,52.267309],[-3.75403,52.267373],[-3.754054,52.267448],[-3.75409,52.267535],[-3.754135,52.267633],[-3.75419,52.267742],[-3.754249,52.267845],[-3.754313,52.267942],[-3.75438,52.268034],[-3.754452,52.268121],[-3.754528,52.268201],[-3.754608,52.268276],[-3.754692,52.268345],[-3.754781,52.268408],[-3.754857,52.268468],[-3.75492,52.268525],[-3.754972,52.268578],[-3.755011,52.268628],[-3.755038,52.268675],[-3.755053,52.268718],[-3.755056,52.268758],[-3.755046,52.268794],[-3.75504,52.268836],[-3.755038,52.268884],[-3.75504,52.268937],[-3.755045,52.268996],[-3.755054,52.26906],[-3.755067,52.26913],[-3.755083,52.269205],[-3.755104,52.269286],[-3.755126,52.269365],[-3.75515,52.269442],[-3.755176,52.269516],[-3.755204,52.269588],[-3.755234,52.269658],[-3.755265,52.269726],[-3.755299,52.269791],[-3.755335,52.269854],[-3.755351,52.26992],[-3.755349,52.269987],[-3.755327,52.270057],[-3.755287,52.270129],[-3.755227,52.270203],[-3.755149,52.27028],[-3.755052,52.270359],[-3.754935,52.27044],[-3.754826,52.270506],[-3.754725,52.270557],[-3.754632,52.270593],[-3.754547,52.270614],[-3.754469,52.270621],[-3.7544,52.270612],[-3.754338,52.270588],[-3.754284,52.27055],[-3.754227,52.270508],[-3.754169,52.270464],[-3.754108,52.270416],[-3.754045,52.270366],[-3.753979,52.270313],[-3.753912,52.270257],[-3.753842,52.270197],[-3.75377,52.270135],[-3.753703,52.270087],[-3.753642,52.270052],[-3.753587,52.270032],[-3.753538,52.270025],[-3.753494,52.270031],[-3.753456,52.270052],[-3.753423,52.270086],[-3.753396,52.270134],[-3.753352,52.270186],[-3.753292,52.270241],[-3.753215,52.2703],[-3.753122,52.270362],[-3.753012,52.270428],[-3.752885,52.270497],[-3.752742,52.27057],[-3.752582,52.270646],[-3.752438,52.270727],[-3.752311,52.270812],[-3.7522,52.2709],[-3.752106,52.270993],[-3.752028,52.27109],[-3.751966,52.271191],[-3.751921,52.271296],[-3.751892,52.271406],[-3.751854,52.271506],[-3.751807,52.271598],[-3.75175,52.271682],[-3.751685,52.271757],[-3.75161,52.271824],[-3.751525,52.271882],[-3.751432,52.271931],[-3.751329,52.271972],[-3.75123,52.27202],[-3.751136,52.272074],[-3.751045,52.272135],[-3.750959,52.272203],[-3.750876,52.272278],[-3.750798,52.272359],[-3.750724,52.272447],[-3.750654,52.272542],[-3.750584,52.272624],[-3.750515,52.272694],[-3.750447,52.272751],[-3.75038,52.272796],[-3.750313,52.272828],[-3.750247,52.272848],[-3.750182,52.272855],[-3.750117,52.27285],[-3.750051,52.272846],[-3.749983,52.272844],[-3.749914,52.272842],[-3.749843,52.272843],[-3.74977,52.272844],[-3.749696,52.272847],[-3.749621,52.272852],[-3.749544,52.272858],[-3.74948,52.272855],[-3.749429,52.272844],[-3.749392,52.272825],[-3.749367,52.272797],[-3.749356,52.272761],[-3.749358,52.272717],[-3.749373,52.272664],[-3.749401,52.272603],[-3.749435,52.272547],[-3.749475,52.272494],[-3.749521,52.272445],[-3.749572,52.272401],[-3.74963,52.27236],[-3.749693,52.272324],[-3.749763,52.272292],[-3.749838,52.272264],[-3.749905,52.272228],[-3.749964,52.272185],[-3.750015,52.272135],[-3.750057,52.272077],[-3.750091,52.272011],[-3.750117,52.271939],[-3.750134,52.271858],[-3.750143,52.271771],[-3.750155,52.27169],[-3.750168,52.271616],[-3.750184,52.27155],[-3.750202,52.27149],[-3.750222,52.271437],[-3.750245,52.271391],[-3.750269,52.271352],[-3.750296,52.27132],[-3.750314,52.271283],[-3.750323,52.271241],[-3.750324,52.271194],[-3.750315,52.271142],[-3.750298,52.271085],[-3.750272,52.271023],[-3.750237,52.270956],[-3.750194,52.270885],[-3.750165,52.270819],[-3.75015,52.270761],[-3.75015,52.270709],[-3.750165,52.270664],[-3.750195,52.270626],[-3.750238,52.270594],[-3.750297,52.270569],[-3.75037,52.270551],[-3.75045,52.270527],[-3.750536,52.270496],[-3.750629,52.270458],[-3.750728,52.270415],[-3.750834,52.270365],[-3.750946,52.270308],[-3.751065,52.270245],[-3.751191,52.270176],[-3.751308,52.2701],[-3.751417,52.270016],[-3.751518,52.269926],[-3.751611,52.269828],[-3.751696,52.269724],[-3.751773,52.269612],[-3.751841,52.269494],[-3.751902,52.269368],[-3.751959,52.269257],[-3.752013,52.269162],[-3.752064,52.269082],[-3.752112,52.269017],[-3.752157,52.268967],[-3.752199,52.268933],[-3.752237,52.268913],[-3.752273,52.268909],[-3.75231,52.26891],[-3.75235,52.268916],[-3.752392,52.268926],[-3.752437,52.268942],[-3.752483,52.268963],[-3.752532,52.268988],[-3.752583,52.269019],[-3.752636,52.269054],[-3.752694,52.269082],[-3.752755,52.269102],[-3.752821,52.269114],[-3.752891,52.269119],[-3.752964,52.269116],[-3.753043,52.269105],[-3.753125,52.269087],[-3.753211,52.269061],[-3.753278,52.269035],[-3.753325,52.269009],[-3.753353,52.268984],[-3.753361,52.268959],[-3.753349,52.268934],[-3.753318,52.26891],[-3.753267,52.268886],[-3.753196,52.268862],[-3.75314,52.268834],[-3.753099,52.268803],[-3.753072,52.268768],[-3.75306,52.268729],[-3.753062,52.268687],[-3.753079,52.268641],[-3.753111,52.268591],[-3.753157,52.268538],[-3.753198,52.268488],[-3.753233,52.268441],[-3.753263,52.268398],[-3.753288,52.268358],[-3.753306,52.268322],[-3.75332,52.268289],[-3.753328,52.26826],[-3.75333,52.268234],[-3.753322,52.268206],[-3.753305,52.268176],[-3.753278,52.268143],[-3.753241,52.268109],[-3.753194,52.268073],[-3.753137,52.268035],[-3.753071,52.267995],[-3.752995,52.267952],[-3.75293,52.267907],[-3.752877,52.26786],[-3.752835,52.26781],[-3.752806,52.267757],[-3.752788,52.267702],[-3.752781,52.267644],[-3.752787,52.267584],[-3.752804,52.267521],[-3.752818,52.267462],[-3.75283,52.267408],[-3.752839,52.267358],[-3.752846,52.267312],[-3.75285,52.267271],[-3.752852,52.267234],[-3.752851,52.267201],[-3.752847,52.267172],[-3.752838,52.267152],[-3.752823,52.267139],[-3.752803,52.267134],[-3.752778,52.267137],[-3.752747,52.267148],[-3.752711,52.267167],[-3.752669,52.267193],[-3.752622,52.267228],[-3.752572,52.267256],[-3.752517,52.26728],[-3.752459,52.267297],[-3.752397,52.267309],[-3.752331,52.267316],[-3.752262,52.267317],[-3.752189,52.267312],[-3.752112,52.267302],[-3.75204,52.267286],[-3.751973,52.267264],[-3.75191,52.267236],[-3.751853,52.267203],[-3.751799,52.267164],[-3.751751,52.267119],[-3.751708,52.267069],[-3.751669,52.267012],[-3.751628,52.266969],[-3.751585,52.26694],[-3.751539,52.266924],[-3.751491,52.266922],[-3.75144,52.266933],[-3.751388,52.266957],[-3.751333,52.266995],[-3.751275,52.267047],[-3.751202,52.267097],[-3.751114,52.267146],[-3.75101,52.267194],[-3.75089,52.26724],[-3.750755,52.267284],[-3.750604,52.267328],[-3.750438,52.26737],[-3.750256,52.26741],[-3.750103,52.267435],[-3.749977,52.267445],[-3.749879,52.26744],[-3.74981,52.267419],[-3.749768,52.267383],[-3.749755,52.267332],[-3.749769,52.267265],[-3.749812,52.267183],[-3.749837,52.267119],[-3.749845,52.267073],[-3.749836,52.267046],[-3.749809,52.267036],[-3.749765,52.267044],[-3.749704,52.267071],[-3.749625,52.267115],[-3.749529,52.267178],[-3.749441,52.267238],[-3.749362,52.267295],[-3.749291,52.26735],[-3.749229,52.267402],[-3.749175,52.267452],[-3.749129,52.267499],[-3.749092,52.267543],[-3.749063,52.267585],[-3.749024,52.267634],[-3.748974,52.267689],[-3.748914,52.267752],[-3.748844,52.267821],[-3.748763,52.267897],[-3.748672,52.26798],[-3.748571,52.268069],[-3.748459,52.268166],[-3.748352,52.268266],[-3.74825,52.26837],[-3.748152,52.268479],[-3.748058,52.268591],[-3.747969,52.268706],[-3.747884,52.268826],[-3.747804,52.26895],[-3.747728,52.269077],[-3.747664,52.2692],[-3.74761,52.269319],[-3.747568,52.269433],[-3.747537,52.269542],[-3.747516,52.269647],[-3.747507,52.269748],[-3.747509,52.269844],[-3.747522,52.269935],[-3.74756,52.27002],[-3.747623,52.270099],[-3.74771,52.270171],[-3.747823,52.270236],[-3.74796,52.270295],[-3.748123,52.270347],[-3.74831,52.270393],[-3.748522,52.270432],[-3.748707,52.270475],[-3.748865,52.270522],[-3.748995,52.270572],[-3.749099,52.270625],[-3.749175,52.270683],[-3.749225,52.270743],[-3.749247,52.270808],[-3.749242,52.270876],[-3.749235,52.270944],[-3.749227,52.271013],[-3.749216,52.271083],[-3.749204,52.271154],[-3.749191,52.271225],[-3.749175,52.271296],[-3.749157,52.271368],[-3.749138,52.271441],[-3.749099,52.271531],[-3.749041,52.271638],[-3.748963,52.271762],[-3.748866,52.271904],[-3.748748,52.272062],[-3.748612,52.272238],[-3.748455,52.27243],[-3.748279,52.27264],[-3.748109,52.272819],[-3.747945,52.272966],[-3.747787,52.273083],[-3.747635,52.273168]],[[-3.764562,52.26078],[-3.764747,52.258587],[-3.764954,52.258354],[-3.765434,52.257993],[-3.765798,52.257265],[-3.766344,52.25682],[-3.766229,52.256452],[-3.765866,52.25619],[-3.765072,52.256245],[-3.76431,52.256601],[-3.76431,52.257096],[-3.763976,52.257326],[-3.763899,52.257678],[-3.763499,52.257991],[-3.762873,52.258084],[-3.762477,52.258016],[-3.762431,52.257869],[-3.762767,52.257449],[-3.76332,52.256927],[-3.763472,52.256319],[-3.765054,52.255296],[-3.766107,52.255667],[-3.766787,52.256044],[-3.767544,52.25607],[-3.767679,52.256301],[-3.768314,52.256436],[-3.768294,52.256572],[-3.76836,52.257078],[-3.768389,52.25757],[-3.768585,52.25829],[-3.768371,52.259],[-3.767609,52.259356],[-3.766929,52.259474],[-3.766106,52.259932],[-3.765582,52.260451],[-3.764562,52.26078]],[[-3.760942,52.26468],[-3.760955,52.264677],[-3.761944,52.26514],[-3.762887,52.265287],[-3.763896,52.265394],[-3.765068,52.265514],[-3.765649,52.265687],[-3.76607,52.266105],[-3.765867,52.266884],[-3.765232,52.267297],[-3.763391,52.267899],[-3.763113,52.268607],[-3.76266,52.269094],[-3.762223,52.269467],[-3.761382,52.269727],[-3.760663,52.269538],[-3.759997,52.268844],[-3.759529,52.26811],[-3.758938,52.267906],[-3.758541,52.268],[-3.758544,52.268006],[-3.758293,52.268452],[-3.757644,52.268766],[-3.757209,52.268936],[-3.75689,52.26937],[-3.756486,52.269636],[-3.756421,52.270259],[-3.756141,52.270609],[-3.755563,52.270737],[-3.755348,52.269015],[-3.755342,52.268996],[-3.755611,52.268508],[-3.755667,52.268421],[-3.75557,52.268349],[-3.755352,52.268326],[-3.754981,52.268321],[-3.754515,52.267845],[-3.754355,52.267333],[-3.754682,52.267118],[-3.755202,52.267009],[-3.75567,52.266905],[-3.75596,52.266485],[-3.755788,52.266103],[-3.755204,52.265673],[-3.754914,52.265337],[-3.754854,52.264894],[-3.755303,52.26431],[-3.755638,52.263949],[-3.756277,52.263633],[-3.757138,52.263017],[-3.757198,52.262705],[-3.757436,52.262371],[-3.75822,52.262263],[-3.758887,52.262458],[-3.759178,52.262714],[-3.759249,52.263108],[-3.758501,52.263244],[-3.757751,52.263541],[-3.757454,52.264106],[-3.758229,52.264643],[-3.758768,52.264596],[-3.759556,52.264504],[-3.760267,52.264501],[-3.760885,52.264621],[-3.760942,52.26468]],[[-3.74898,52.272803],[-3.749234,52.272891],[-3.749272,52.273012],[-3.749223,52.273185],[-3.749279,52.273471],[-3.749708,52.273963],[-3.749944,52.274061],[-3.750275,52.273918],[-3.750536,52.273658],[-3.750911,52.273217],[-3.751162,52.272707],[-3.751086,52.272465],[-3.751345,52.27231],[-3.751631,52.27213],[-3.752083,52.271826],[-3.752341,52.271337],[-3.752517,52.270919],[-3.753042,52.270628],[-3.753511,52.270594],[-3.754043,52.270761],[-3.754013,52.270994],[-3.753791,52.271376],[-3.753822,52.272019],[-3.753612,52.272441],[-3.753168,52.272555],[-3.752852,52.27253],[-3.752591,52.272352],[-3.752176,52.272338],[-3.751898,52.272871],[-3.751527,52.273541],[-3.7511,52.273926],[-3.750346,52.274578],[-3.749692,52.274675],[-3.749415,52.274666],[-3.748728,52.274224],[-3.747994,52.273412],[-3.748044,52.273135],[-3.748342,52.272995],[-3.748375,52.272978],[-3.748507,52.272626],[-3.749273,52.271758],[-3.749618,52.270776],[-3.749723,52.270166],[-3.750074,52.269581],[-3.750306,52.268902],[-3.750848,52.268168],[-3.751627,52.268005],[-3.752371,52.268008],[-3.752866,52.268167],[-3.75284,52.26837],[-3.752591,52.268616],[-3.751978,52.268742],[-3.751701,52.268902],[-3.751421,52.269333],[-3.751059,52.269882],[-3.750092,52.270394],[-3.749985,52.271095],[-3.74995,52.271642],[-3.749295,52.272299],[-3.74898,52.272803]],[[-3.747901,52.270035],[-3.747827,52.269609],[-3.747849,52.269208],[-3.748014,52.268881],[-3.748432,52.268415],[-3.748964,52.267936],[-3.749362,52.26769],[-3.749741,52.267574],[-3.749946,52.267568],[-3.750179,52.26774],[-3.75024,52.267841],[-3.749939,52.268112],[-3.749431,52.268479],[-3.74906,52.268903],[-3.748797,52.269296],[-3.748218,52.269817],[-3.747901,52.270035]],[[-3.772466,52.273779],[-3.772696,52.27316],[-3.773276,52.272981],[-3.773671,52.272694],[-3.773929,52.272165],[-3.773774,52.271961],[-3.773569,52.271504],[-3.773902,52.271021],[-3.774411,52.270518],[-3.775064,52.27009],[-3.775884,52.269901],[-3.776689,52.269955],[-3.777799,52.270305],[-3.778859,52.270107],[-3.780015,52.270026],[-3.780394,52.270074],[-3.781613,52.269709],[-3.782545,52.269877],[-3.782673,52.27038],[-3.782035,52.270954],[-3.78131,52.271058],[-3.780754,52.271216],[-3.779891,52.271077],[-3.778681,52.270793],[-3.777981,52.271171],[-3.777311,52.271546],[-3.776349,52.271862],[-3.775546,52.271716],[-3.774471,52.271768],[-3.774302,52.272195],[-3.774383,52.27274],[-3.773801,52.273012],[-3.773647,52.273677],[-3.773038,52.273767],[-3.772466,52.273779]],[[-3.777739,52.26208],[-3.776694,52.26116],[-3.776793,52.26059],[-3.777606,52.259889],[-3.777864,52.259446],[-3.778661,52.259329],[-3.778863,52.259717],[-3.778919,52.260147],[-3.778734,52.260823],[-3.779197,52.261157],[-3.77959,52.261523],[-3.779354,52.262036],[-3.778894,52.26209],[-3.778427,52.26212],[-3.777739,52.26208]],[[-3.774752,52.259278],[-3.774443,52.258296],[-3.773923,52.258284],[-3.773081,52.258262],[-3.772103,52.258183],[-3.771204,52.257852],[-3.770749,52.257542],[-3.771212,52.257245],[-3.771794,52.257201],[-3.772283,52.25724],[-3.772744,52.257695],[-3.773472,52.25761],[-3.773864,52.257467],[-3.774212,52.257184],[-3.774964,52.256416],[-3.775883,52.255799],[-3.775856,52.255463],[-3.775249,52.255049],[-3.775018,52.254567],[-3.77506,52.25432],[-3.776,52.254404],[-3.776472,52.255148],[-3.776794,52.255159],[-3.777423,52.255012],[-3.777791,52.254921],[-3.777884,52.255467],[-3.777182,52.255889],[-3.776361,52.256689],[-3.775404,52.25731],[-3.775114,52.257902],[-3.776135,52.258243],[-3.776929,52.258368],[-3.777343,52.258926],[-3.77693,52.259508],[-3.776202,52.259593],[-3.775322,52.259575],[-3.774752,52.259278]],[[-3.755455,52.248791],[-3.756137,52.247707],[-3.75609,52.247557],[-3.755798,52.247324],[-3.755631,52.247143],[-3.755881,52.24689],[-3.756445,52.246824],[-3.757339,52.246764],[-3.758039,52.247016],[-3.758372,52.247379],[-3.759178,52.247619],[-3.759225,52.247769],[-3.759095,52.248052],[-3.758524,52.248097],[-3.757637,52.248178],[-3.756402,52.248435],[-3.756247,52.248988],[-3.755885,52.249231],[-3.755632,52.249238],[-3.755455,52.248791]],[[-3.758023,52.244521],[-3.760729,52.242554],[-3.761131,52.24244],[-3.761329,52.242372],[-3.761625,52.241802],[-3.762285,52.241346],[-3.763276,52.240895],[-3.764338,52.240904],[-3.765101,52.241127],[-3.765296,52.241282],[-3.766277,52.241613],[-3.766754,52.241736],[-3.76679,52.2422],[-3.766153,52.242497],[-3.765789,52.242384],[-3.765309,52.241905],[-3.764682,52.242001],[-3.764074,52.242273],[-3.763522,52.242494],[-3.762958,52.24256],[-3.762345,52.242699],[-3.762436,52.243223],[-3.763394,52.243713],[-3.763819,52.24402],[-3.764095,52.244433],[-3.763664,52.244573],[-3.762791,52.244586],[-3.761932,52.244642],[-3.7616,52.244748],[-3.760612,52.244975],[-3.760099,52.244969],[-3.75992,52.245213],[-3.75997,52.24572],[-3.759781,52.246165],[-3.759246,52.246206],[-3.758818,52.246122],[-3.758562,52.245773],[-3.758177,52.245595],[-3.757829,52.245302],[-3.757874,52.245096],[-3.758023,52.244521]],[[-3.769178,52.245152],[-3.769168,52.244306],[-3.769317,52.2442],[-3.7697,52.244021],[-3.770271,52.243865],[-3.770825,52.244],[-3.771195,52.244247],[-3.770994,52.244538],[-3.770661,52.244755],[-3.770519,52.244884],[-3.770432,52.245072],[-3.769756,52.245129],[-3.769178,52.245152]],[[-3.756436,52.292062],[-3.757136,52.2911],[-3.75716,52.291049],[-3.757463,52.290353],[-3.757801,52.289898],[-3.758307,52.289594],[-3.758724,52.289521],[-3.759124,52.289645],[-3.759274,52.289994],[-3.759078,52.290262],[-3.758347,52.290616],[-3.758381,52.290979],[-3.757966,52.291443],[-3.75735,52.291907],[-3.757163,52.292589],[-3.756473,52.292816],[-3.756305,52.292665],[-3.756386,52.292411],[-3.756436,52.292062]],[[-3.753979,52.29279],[-3.754475,52.292072],[-3.75467,52.291927],[-3.754941,52.291895],[-3.755357,52.291944],[-3.755485,52.292223],[-3.755389,52.29243],[-3.755294,52.292636],[-3.755254,52.292763],[-3.754743,52.292799],[-3.754018,52.292786],[-3.753979,52.29279]],[[-3.767249,52.294952],[-3.767248,52.294439],[-3.767705,52.294361],[-3.768045,52.294296],[-3.768358,52.294015],[-3.768684,52.293904],[-3.768975,52.294065],[-3.769149,52.294362],[-3.769054,52.294569],[-3.768765,52.294799],[-3.768176,52.294966],[-3.767719,52.295044],[-3.767249,52.294952]],[[-3.754262,52.2942],[-3.7546,52.293745],[-3.75508,52.293615],[-3.755739,52.293415],[-3.755968,52.293633],[-3.755804,52.29375],[-3.755461,52.294059],[-3.755319,52.294247],[-3.754708,52.294343],[-3.754291,52.294294],[-3.754262,52.2942]],[[-3.757857,52.293901],[-3.758111,52.293309],[-3.758181,52.293276],[-3.758703,52.293533],[-3.758693,52.293754],[-3.758597,52.293961],[-3.7586,52.294352],[-3.758128,52.294383],[-3.757905,52.294311],[-3.757857,52.293901]],[[-3.765784,52.284564],[-3.766571,52.283323],[-3.766928,52.283209],[-3.767406,52.283105],[-3.767647,52.283125],[-3.768053,52.283293],[-3.768146,52.283713],[-3.767984,52.283947],[-3.767844,52.284251],[-3.768294,52.284557],[-3.768176,52.28493],[-3.768103,52.285322],[-3.767496,52.285512],[-3.766762,52.285551],[-3.766375,52.285692],[-3.765836,52.285851],[-3.765565,52.285739],[-3.765538,52.285527],[-3.76564,52.285227],[-3.765704,52.284933],[-3.765784,52.284564]],[[-3.743284,52.283777],[-3.743728,52.282815],[-3.743872,52.282774],[-3.74428,52.282822],[-3.744377,52.282883],[-3.744617,52.283022],[-3.744848,52.283258],[-3.744823,52.283429],[-3.744148,52.283652],[-3.744047,52.283831],[-3.743638,52.283903],[-3.743284,52.283777]],[[-3.735233,52.287185],[-3.735838,52.285136],[-3.735881,52.285097],[-3.736236,52.284903],[-3.736702,52.284798],[-3.737118,52.2848],[-3.73741,52.284935],[-3.737503,52.285144],[-3.737311,52.285589],[-3.737111,52.285748],[-3.736835,52.286017],[-3.736776,52.286446],[-3.736732,52.286925],[-3.736393,52.287522],[-3.735906,52.287562],[-3.735501,52.287508],[-3.735233,52.287185]],[[-3.731719,52.286142],[-3.73198,52.285739],[-3.732114,52.285724],[-3.732323,52.285682],[-3.732562,52.285739],[-3.732742,52.28587],[-3.732772,52.286052],[-3.732816,52.286284],[-3.732803,52.286505],[-3.732576,52.286667],[-3.732234,52.286724],[-3.731787,52.286624],[-3.731666,52.286503],[-3.731663,52.286317],[-3.731719,52.286142]],[[-3.746144,52.277247],[-3.746137,52.276606],[-3.746544,52.276535],[-3.747084,52.276519],[-3.747512,52.276516],[-3.747981,52.27677],[-3.748126,52.27711],[-3.748513,52.27735],[-3.748471,52.277711],[-3.748103,52.277778],[-3.747505,52.27761],[-3.747115,52.278107],[-3.746513,52.278796],[-3.746102,52.278725],[-3.745924,52.278532],[-3.746078,52.278276],[-3.746337,52.277985],[-3.746408,52.277715],[-3.746144,52.277247]],[[-3.768398,52.276117],[-3.769101,52.275572],[-3.769338,52.275491],[-3.769692,52.27504],[-3.770031,52.274823],[-3.770278,52.274865],[-3.770197,52.27507],[-3.770215,52.275406],[-3.770072,52.2756],[-3.76996,52.275987],[-3.769553,52.276639],[-3.76922,52.276785],[-3.768524,52.276795],[-3.768284,52.276681],[-3.768277,52.27638],[-3.768398,52.276117]],[[-3.758274,52.276272],[-3.759292,52.275246],[-3.759349,52.27515],[-3.759623,52.274816],[-3.759967,52.274704],[-3.760107,52.274777],[-3.760019,52.275054],[-3.760005,52.275287],[-3.760266,52.27547],[-3.760614,52.275464],[-3.761112,52.275566],[-3.761122,52.275689],[-3.760868,52.275808],[-3.760071,52.275777],[-3.759622,52.275741],[-3.75944,52.275993],[-3.759098,52.276389],[-3.758979,52.276474],[-3.758513,52.276475],[-3.758412,52.276434],[-3.758274,52.276272]],[[-3.765564,52.272573],[-3.765287,52.272249],[-3.765333,52.272208],[-3.765896,52.272053],[-3.766401,52.272083],[-3.766662,52.272266],[-3.76671,52.272509],[-3.766506,52.272604],[-3.766214,52.272603],[-3.765564,52.272573]],[[-3.750533,52.264343],[-3.751351,52.263186],[-3.751478,52.263171],[-3.751947,52.262575],[-3.75292,52.262641],[-3.753371,52.262929],[-3.753676,52.263274],[-3.754036,52.263272],[-3.754286,52.263022],[-3.754626,52.262642],[-3.754957,52.262443],[-3.755469,52.262503],[-3.75571,52.262855],[-3.75574,52.263052],[-3.755645,52.263483],[-3.755389,52.263714],[-3.754616,52.263864],[-3.754124,52.264282],[-3.753521,52.264453],[-3.75294,52.264481],[-3.751684,52.264769],[-3.751508,52.264729],[-3.750846,52.264606],[-3.750533,52.264343]],[[-3.748221,52.260949],[-3.747787,52.260299],[-3.747858,52.260211],[-3.747924,52.260003],[-3.748035,52.25973],[-3.748329,52.259515],[-3.749025,52.259433],[-3.749352,52.259535],[-3.749271,52.259905],[-3.74926,52.260287],[-3.749888,52.260614],[-3.750282,52.260928],[-3.74969,52.261238],[-3.749445,52.261607],[-3.748859,52.261936],[-3.748394,52.26171],[-3.748285,52.261362],[-3.748221,52.260949]],[[-3.755195,52.260272],[-3.756069,52.26013],[-3.756391,52.260112],[-3.756786,52.259906],[-3.757084,52.259811],[-3.757425,52.259851],[-3.757498,52.260083],[-3.757319,52.260244],[-3.757121,52.260347],[-3.756591,52.260749],[-3.756725,52.261174],[-3.75662,52.261467],[-3.756208,52.261515],[-3.755324,52.261519],[-3.755124,52.261302],[-3.755097,52.261005],[-3.755185,52.260554],[-3.755195,52.260272]],[[-3.760236,52.262938],[-3.761156,52.262523],[-3.761615,52.262648],[-3.761783,52.262782],[-3.76182,52.263034],[-3.761713,52.263226],[-3.761549,52.263374],[-3.761273,52.263432],[-3.76086,52.263454],[-3.760289,52.26324],[-3.760236,52.262938]],[[-3.750065,52.258364],[-3.749893,52.257949],[-3.750049,52.257777],[-3.750222,52.257526],[-3.750813,52.256867],[-3.751323,52.256218],[-3.751897,52.255639],[-3.752072,52.255259],[-3.753057,52.254785],[-3.753664,52.254714],[-3.754162,52.254963],[-3.754552,52.255404],[-3.75432,52.255867],[-3.753877,52.256329],[-3.753093,52.256908],[-3.752108,52.257382],[-3.752012,52.257342],[-3.751433,52.257102],[-3.751111,52.25755],[-3.750832,52.257865],[-3.750065,52.258364]],[[-3.745303,52.26005],[-3.746235,52.258736],[-3.746341,52.258673],[-3.746794,52.258645],[-3.747294,52.258766],[-3.747225,52.259082],[-3.746842,52.259331],[-3.746655,52.259405],[-3.746699,52.259681],[-3.746592,52.259873],[-3.746202,52.25997],[-3.746068,52.260345],[-3.745387,52.26045],[-3.745372,52.2604],[-3.745303,52.26005]],[[-3.718402,52.269863],[-3.718481,52.269002],[-3.718705,52.268976],[-3.719042,52.268936],[-3.721173,52.268687],[-3.722065,52.268193],[-3.723296,52.267481],[-3.724207,52.267233],[-3.725056,52.267346],[-3.725586,52.267923],[-3.725445,52.268401],[-3.725144,52.26911],[-3.725302,52.269801],[-3.725094,52.270251],[-3.724464,52.270467],[-3.723441,52.270728],[-3.721881,52.270946],[-3.720631,52.270667],[-3.719703,52.270491],[-3.718402,52.269863]],[[-3.694591,52.260452],[-3.695087,52.259517],[-3.695249,52.259442],[-3.696104,52.258918],[-3.696903,52.258655],[-3.697556,52.258522],[-3.69861,52.258484],[-3.699275,52.258831],[-3.69965,52.259437],[-3.699803,52.259928],[-3.699416,52.260172],[-3.697968,52.260284],[-3.697906,52.260235],[-3.697265,52.260111],[-3.696718,52.260288],[-3.69649,52.260004],[-3.695975,52.259838],[-3.695524,52.260173],[-3.695268,52.260542],[-3.694591,52.260452]],[[-3.680957,52.257601],[-3.68322,52.256093],[-3.683618,52.255736],[-3.684159,52.25539],[-3.684968,52.255013],[-3.686647,52.254902],[-3.687593,52.254961],[-3.688106,52.255269],[-3.688127,52.255634],[-3.687318,52.256011],[-3.687105,52.255923],[-3.686867,52.255753],[-3.686343,52.255559],[-3.685357,52.255816],[-3.6847,52.256232],[-3.68461,52.256836],[-3.685468,52.257358],[-3.686476,52.257467],[-3.686833,52.258019],[-3.68654,52.258563],[-3.685718,52.258602],[-3.685211,52.258463],[-3.684762,52.258063],[-3.6844,52.257794],[-3.683889,52.257938],[-3.682467,52.258133],[-3.681476,52.258078],[-3.680936,52.25783],[-3.680957,52.257601]],[[-3.693312,52.248927],[-3.693229,52.248661],[-3.693106,52.248267],[-3.69324,52.247907],[-3.693726,52.247657],[-3.693962,52.247285],[-3.693648,52.246504],[-3.693212,52.246125],[-3.693348,52.245657],[-3.693325,52.244907],[-3.693029,52.244748],[-3.691767,52.244207],[-3.691649,52.243941],[-3.691987,52.243557],[-3.693095,52.243944],[-3.693513,52.244154],[-3.694206,52.244567],[-3.694237,52.245231],[-3.694266,52.246002],[-3.694537,52.24653],[-3.694298,52.247117],[-3.694125,52.248256],[-3.693877,52.24893],[-3.693688,52.249791],[-3.692992,52.250045],[-3.69231,52.24978],[-3.692227,52.249402],[-3.692342,52.249128],[-3.692407,52.249188],[-3.692754,52.249169],[-3.693156,52.248981],[-3.693184,52.248968],[-3.693312,52.248927]],[[-3.707357,52.235788],[-3.708793,52.234819],[-3.70906,52.234766],[-3.709701,52.234431],[-3.71107,52.234271],[-3.711574,52.234407],[-3.712307,52.234711],[-3.712119,52.235015],[-3.711703,52.235388],[-3.710137,52.23594],[-3.709859,52.236297],[-3.709194,52.23644],[-3.709066,52.23626],[-3.708657,52.236199],[-3.70793,52.236371],[-3.707381,52.236998],[-3.706926,52.237247],[-3.706519,52.237078],[-3.706196,52.236725],[-3.706536,52.236339],[-3.707128,52.236075],[-3.707357,52.235788]],[[-3.708513,52.232902],[-3.7098,52.232253],[-3.710377,52.23251],[-3.710588,52.232616],[-3.711403,52.232499],[-3.711502,52.232249],[-3.711857,52.231796],[-3.712491,52.23144],[-3.712733,52.231195],[-3.713041,52.231159],[-3.713343,52.231557],[-3.713971,52.231635],[-3.714162,52.231678],[-3.714397,52.231976],[-3.714358,52.232305],[-3.713766,52.232569],[-3.712844,52.232569],[-3.711656,52.232968],[-3.711261,52.233295],[-3.710784,52.233698],[-3.710551,52.233747],[-3.710106,52.233799],[-3.709998,52.233681],[-3.709884,52.233543],[-3.708513,52.232902]],[[-3.699696,52.221],[-3.699523,52.220226],[-3.700211,52.220021],[-3.700374,52.219667],[-3.699711,52.219077],[-3.699264,52.218962],[-3.698752,52.218854],[-3.697876,52.218456],[-3.697555,52.217867],[-3.697982,52.217483],[-3.699512,52.217346],[-3.700476,52.217149],[-3.701883,52.2164],[-3.703488,52.215628],[-3.704424,52.21556],[-3.704783,52.21627],[-3.705446,52.216861],[-3.705214,52.217431],[-3.703622,52.218244],[-3.702613,52.218738],[-3.702177,52.219749],[-3.700773,52.220289],[-3.699696,52.221]],[[-3.707657,52.220654],[-3.707716,52.219311],[-3.708432,52.218977],[-3.709186,52.218763],[-3.710336,52.218503],[-3.71136,52.218718],[-3.711445,52.219209],[-3.711188,52.219699],[-3.71066,52.21976],[-3.709834,52.219523],[-3.709042,52.219615],[-3.708376,52.220111],[-3.707657,52.220654]],[[-3.691314,52.211453],[-3.690557,52.210121],[-3.691668,52.209741],[-3.694288,52.209811],[-3.695632,52.209738],[-3.697046,52.209447],[-3.697979,52.209589],[-3.699794,52.209711],[-3.70035,52.209521],[-3.700909,52.208244],[-3.701282,52.207908],[-3.702611,52.208003],[-3.703127,52.208779],[-3.702945,52.20951],[-3.702769,52.2107],[-3.703084,52.211707],[-3.703766,52.212797],[-3.702306,52.213594],[-3.70099,52.213539],[-3.697716,52.213128],[-3.696881,52.212641],[-3.695589,52.211789],[-3.693877,52.21178],[-3.691314,52.211453]],[[-3.691272,52.207156],[-3.692814,52.206182],[-3.693737,52.206075],[-3.694475,52.20603],[-3.695622,52.20598],[-3.699064,52.205619],[-3.700188,52.205279],[-3.701212,52.205494],[-3.701495,52.205962],[-3.701502,52.206421],[-3.701037,52.206684],[-3.699872,52.207112],[-3.698496,52.207524],[-3.697099,52.207645],[-3.696295,52.207697],[-3.693904,52.208143],[-3.692852,52.208057],[-3.691922,52.207707],[-3.691272,52.207156]],[[-3.66196,52.211735],[-3.665283,52.210641],[-3.665602,52.21018],[-3.667361,52.209386],[-3.668467,52.208974],[-3.668545,52.208729],[-3.66846,52.208456],[-3.668208,52.208391],[-3.667678,52.208547],[-3.666847,52.208974],[-3.665312,52.209247],[-3.664362,52.209169],[-3.663639,52.20883],[-3.663866,52.208567],[-3.664575,52.208367],[-3.665454,52.208217],[-3.666087,52.208144],[-3.667177,52.207805],[-3.668013,52.207519],[-3.669394,52.207617],[-3.67017,52.20788],[-3.6707,52.208219],[-3.671926,52.208689],[-3.672211,52.208985],[-3.671869,52.209496],[-3.670786,52.209858],[-3.670497,52.209798],[-3.669714,52.209512],[-3.669432,52.209474],[-3.669251,52.209636],[-3.669542,52.210569],[-3.669563,52.211132],[-3.668581,52.211694],[-3.667993,52.211786],[-3.666623,52.212464],[-3.665075,52.212574],[-3.663358,52.212632],[-3.662403,52.212414],[-3.66196,52.211735]],[[-3.656763,52.216228],[-3.656618,52.216009],[-3.655819,52.215796],[-3.655193,52.215398],[-3.655422,52.215018],[-3.656276,52.215036],[-3.656831,52.215207],[-3.657459,52.214993],[-3.657471,52.214661],[-3.657197,52.214151],[-3.656242,52.213933],[-3.65668,52.213481],[-3.65724,52.213298],[-3.658239,52.21304],[-3.658899,52.213175],[-3.659214,52.213445],[-3.659127,52.213785],[-3.65924,52.214149],[-3.659176,52.214934],[-3.658664,52.215394],[-3.658299,52.21546],[-3.657591,52.215543],[-3.656763,52.216228]],[[-3.655582,52.208095],[-3.656603,52.207411],[-3.656708,52.207375],[-3.6579,52.207118],[-3.658391,52.207085],[-3.659242,52.207339],[-3.659343,52.207539],[-3.658752,52.207749],[-3.658378,52.207911],[-3.656968,52.208334],[-3.65606,52.208393],[-3.655582,52.208095]],[[-3.688477,52.20361],[-3.686891,52.203361],[-3.687103,52.202903],[-3.68834,52.20246],[-3.688817,52.202567],[-3.689418,52.202931],[-3.689716,52.203032],[-3.690097,52.203258],[-3.69076,52.203533],[-3.69196,52.203827],[-3.69192,52.204265],[-3.69143,52.204404],[-3.690644,52.204441],[-3.689457,52.204336],[-3.68865,52.204023],[-3.688477,52.20361]],[[-3.671857,52.199531],[-3.671254,52.199303],[-3.67136,52.199074],[-3.672287,52.198776],[-3.673035,52.198472],[-3.672844,52.198142],[-3.672601,52.197791],[-3.672396,52.197273],[-3.671913,52.197004],[-3.671047,52.196644],[-3.67077,52.195755],[-3.671194,52.195407],[-3.671787,52.195175],[-3.672712,52.195013],[-3.673305,52.19535],[-3.674028,52.195537],[-3.673509,52.196004],[-3.673508,52.196574],[-3.67424,52.196787],[-3.674998,52.196942],[-3.675369,52.197278],[-3.675104,52.197851],[-3.675132,52.198228],[-3.67415,52.198776],[-3.673669,52.19894],[-3.671857,52.199531]],[[-3.665759,52.200459],[-3.666169,52.199354],[-3.666621,52.199383],[-3.667086,52.199735],[-3.667081,52.200007],[-3.667094,52.20033],[-3.667552,52.200521],[-3.667752,52.200877],[-3.667737,52.201258],[-3.667262,52.201585],[-3.667093,52.202038],[-3.666765,52.202266],[-3.666278,52.202269],[-3.666215,52.201924],[-3.66629,52.201454],[-3.666087,52.2008],[-3.665759,52.200459]],[[-3.672681,52.185843],[-3.67262,52.184607],[-3.672594,52.184525],[-3.672484,52.184171],[-3.673242,52.184083],[-3.673989,52.184109],[-3.674408,52.184116],[-3.675705,52.183683],[-3.676238,52.183168],[-3.677095,52.182955],[-3.677429,52.183284],[-3.677416,52.183539],[-3.676868,52.183857],[-3.676051,52.184348],[-3.676265,52.184888],[-3.675938,52.185322],[-3.675596,52.185559],[-3.675382,52.186206],[-3.674759,52.18673],[-3.673868,52.186834],[-3.673371,52.186723],[-3.672681,52.185843]],[[-3.684445,52.184301],[-3.685105,52.183602],[-3.685319,52.183549],[-3.686024,52.183438],[-3.686733,52.183638],[-3.686846,52.183851],[-3.686869,52.184074],[-3.686653,52.184269],[-3.686126,52.184359],[-3.685281,52.184316],[-3.684551,52.184345],[-3.684445,52.184301]]]}}