{"type":"Feature","properties":{"id":"268329","COMMUNE":"Neath Port Talbot","PROVINCE":"Bridgend and Neath Port Talbot","COUNTRY":"UK","FIREDATE":"2025-04-08 01:05:00","CLASS":"FireSeason","areaHA_geo":20.926},"geometry":{"type":"Polygon","coordinates":[[[-3.794894,51.609046],[-3.795008,51.608888],[-3.795059,51.608686],[-3.795047,51.608441],[-3.794971,51.608154],[-3.794833,51.607824],[-3.794772,51.607565],[-3.794787,51.607379],[-3.794878,51.607265],[-3.795045,51.607223],[-3.795161,51.607144],[-3.795226,51.607031],[-3.795238,51.606881],[-3.795199,51.606695],[-3.795079,51.606525],[-3.794878,51.60637],[-3.794595,51.606231],[-3.794232,51.606106],[-3.793972,51.605994],[-3.793815,51.605896],[-3.793761,51.60581],[-3.793811,51.605737],[-3.793813,51.605628],[-3.793768,51.605482],[-3.793676,51.6053],[-3.793537,51.605082],[-3.793394,51.604869],[-3.79325,51.604663],[-3.793102,51.604463],[-3.792952,51.604268],[-3.792792,51.604102],[-3.792624,51.603966],[-3.792446,51.603858],[-3.79226,51.60378],[-3.792084,51.603695],[-3.79192,51.603602],[-3.791768,51.603503],[-3.791627,51.603397],[-3.791489,51.603301],[-3.791355,51.603217],[-3.791223,51.603143],[-3.791096,51.60308],[-3.790973,51.603005],[-3.790856,51.602918],[-3.790745,51.60282],[-3.790638,51.602709],[-3.790482,51.602613],[-3.790277,51.602532],[-3.790021,51.602464],[-3.789716,51.602411],[-3.789416,51.60236],[-3.789121,51.602311],[-3.788831,51.602265],[-3.788546,51.60222],[-3.788244,51.602161],[-3.787923,51.602087],[-3.787584,51.601999],[-3.787228,51.601896],[-3.786899,51.601958],[-3.786598,51.602183],[-3.786326,51.602574],[-3.786081,51.603128],[-3.786066,51.603605],[-3.786279,51.604005],[-3.786721,51.604327],[-3.787393,51.604571],[-3.787935,51.604792],[-3.788348,51.604989],[-3.788631,51.605162],[-3.788786,51.605311],[-3.78903,51.605475],[-3.789365,51.605653],[-3.78979,51.605846],[-3.790305,51.606053],[-3.790767,51.606278],[-3.791176,51.60652],[-3.791532,51.60678],[-3.791834,51.607057],[-3.792213,51.607378],[-3.792668,51.607743],[-3.793201,51.608152],[-3.79381,51.608605],[-3.794296,51.608905],[-3.794657,51.609052],[-3.794894,51.609046]]]}}