{"type":"Feature","properties":{"id":"268603","COMMUNE":"Scarborough","PROVINCE":"North Yorkshire CC","COUNTRY":"UK","FIREDATE":"2025-04-19 14:12:00","FINALDATE":"2025-04-19 14:12:00","CLASS":"FireSeason","areaHA_geo":32.958},"geometry":{"type":"Polygon","coordinates":[[[-0.689094,54.37016],[-0.689508,54.369812],[-0.690008,54.36951],[-0.690594,54.369252],[-0.691082,54.369131],[-0.691472,54.369149],[-0.692061,54.369133],[-0.692849,54.369081],[-0.693444,54.368917],[-0.693847,54.36864],[-0.694147,54.368424],[-0.694344,54.368269],[-0.694473,54.368024],[-0.694535,54.36769],[-0.694546,54.367447],[-0.694506,54.367295],[-0.694726,54.367173],[-0.695206,54.367079],[-0.695602,54.367174],[-0.695913,54.367458],[-0.696812,54.367777],[-0.698299,54.368132],[-0.699593,54.368313],[-0.700693,54.368321],[-0.701793,54.368044],[-0.702893,54.367481],[-0.703844,54.366975],[-0.704647,54.366525],[-0.705294,54.366218],[-0.705785,54.366054],[-0.706187,54.366002],[-0.706499,54.366061],[-0.707263,54.365917],[-0.708478,54.365569],[-0.709221,54.365176],[-0.709492,54.364738],[-0.710029,54.364293],[-0.710832,54.363843],[-0.711248,54.363505],[-0.711278,54.363277],[-0.711796,54.362817],[-0.712802,54.362125],[-0.713295,54.361684],[-0.713276,54.361496],[-0.713077,54.361245],[-0.712699,54.360933],[-0.712204,54.360855],[-0.711592,54.361012],[-0.711057,54.361292],[-0.710598,54.361695],[-0.709832,54.362228],[-0.708759,54.362892],[-0.707923,54.363328],[-0.707324,54.363535],[-0.706309,54.363909],[-0.704877,54.364448],[-0.703816,54.36493],[-0.703125,54.365353],[-0.702613,54.365665],[-0.702279,54.365867],[-0.701726,54.366192],[-0.700952,54.366639],[-0.70032,54.366945],[-0.699828,54.367109],[-0.699137,54.367074],[-0.698245,54.36684],[-0.69738,54.366596],[-0.696542,54.366341],[-0.695424,54.366205],[-0.694025,54.366188],[-0.692951,54.366282],[-0.692203,54.366485],[-0.691341,54.366879],[-0.690366,54.367465],[-0.689608,54.368145],[-0.689068,54.368918],[-0.688676,54.369522],[-0.688433,54.369958],[-0.688456,54.370215],[-0.688743,54.370294],[-0.689094,54.37016]]]}}