{"type":"Feature","properties":{"id":"268681","COMMUNE":"Ceredigion","PROVINCE":"South West Wales","COUNTRY":"UK","FIREDATE":"2025-04-06 13:14:00","CLASS":"FireSeason","areaHA_geo":16.689},"geometry":{"type":"Polygon","coordinates":[[[-3.865593,52.38991],[-3.866768,52.390289],[-3.867778,52.390574],[-3.868622,52.390764],[-3.869276,52.390894],[-3.86974,52.390964],[-3.870131,52.391176],[-3.870449,52.391533],[-3.870768,52.391733],[-3.871089,52.391778],[-3.871453,52.391694],[-3.871862,52.39148],[-3.872085,52.391164],[-3.872122,52.390745],[-3.871769,52.390331],[-3.871026,52.389922],[-3.870209,52.389707],[-3.869318,52.389688],[-3.868306,52.389611],[-3.867173,52.389475],[-3.86647,52.389351],[-3.866196,52.389238],[-3.866112,52.389134],[-3.866218,52.389039],[-3.866629,52.388835],[-3.867347,52.388522],[-3.867726,52.388322],[-3.867766,52.388235],[-3.868057,52.387973],[-3.868599,52.387536],[-3.868966,52.387192],[-3.869159,52.386942],[-3.869086,52.386712],[-3.868747,52.386504],[-3.868423,52.386449],[-3.868114,52.386547],[-3.867761,52.386827],[-3.867363,52.387288],[-3.866953,52.387658],[-3.86653,52.387935],[-3.866136,52.388085],[-3.865768,52.388108],[-3.865516,52.388117],[-3.865378,52.388112],[-3.864936,52.388165],[-3.864187,52.388274],[-3.863737,52.388358],[-3.863586,52.388417],[-3.863396,52.38846],[-3.863166,52.388487],[-3.862692,52.388388],[-3.861973,52.388162],[-3.861493,52.38799],[-3.861252,52.387874],[-3.86114,52.387628],[-3.861157,52.387253],[-3.860895,52.386912],[-3.860354,52.386602],[-3.860159,52.386149],[-3.86031,52.385552],[-3.860472,52.385098],[-3.860645,52.384787],[-3.860727,52.384508],[-3.860716,52.384261],[-3.860603,52.384119],[-3.860387,52.384082],[-3.860089,52.384107],[-3.859708,52.384194],[-3.859411,52.384384],[-3.859198,52.384678],[-3.85902,52.385082],[-3.858877,52.385596],[-3.85886,52.386023],[-3.858968,52.386362],[-3.859029,52.386717],[-3.859045,52.387088],[-3.859085,52.387373],[-3.859148,52.387573],[-3.859229,52.387719],[-3.859326,52.387811],[-3.860782,52.388323],[-3.863597,52.389254],[-3.865593,52.38991]]]}}