{"type":"Feature","properties":{"id":"268695","COMMUNE":"Merthyr Tydfil","PROVINCE":"Central Valleys","COUNTRY":"UK","FIREDATE":"2025-04-09 02:02:00","FINALDATE":"2025-04-09 02:02:00","CLASS":"FireSeason","areaHA_geo":7.606},"geometry":{"type":"Polygon","coordinates":[[[-3.301906,51.69643],[-3.302079,51.69659],[-3.302364,51.696673],[-3.302761,51.696679],[-3.303053,51.696543],[-3.303241,51.696264],[-3.303318,51.695966],[-3.303286,51.695648],[-3.303248,51.695312],[-3.303205,51.694957],[-3.302959,51.694586],[-3.302511,51.6942],[-3.302059,51.693937],[-3.301601,51.693797],[-3.301106,51.693602],[-3.300575,51.693355],[-3.30015,51.693152],[-3.299833,51.692996],[-3.299457,51.692885],[-3.299021,51.692819],[-3.298551,51.692776],[-3.298046,51.692757],[-3.297783,51.692851],[-3.297762,51.693059],[-3.297792,51.6933],[-3.297873,51.693574],[-3.297986,51.693812],[-3.298129,51.694014],[-3.298424,51.694167],[-3.298871,51.69427],[-3.299204,51.694341],[-3.299424,51.69438],[-3.299633,51.69442],[-3.299833,51.694462],[-3.300405,51.694949],[-3.301348,51.695883],[-3.301906,51.69643]]]}}