{"type":"Feature","properties":{"id":"268606","COMMUNE":"Argyll and Bute Islands","PROVINCE":"Lochaber, Skye & Lochalsh, Arran & Cumbrae and Argyll & Bute","COUNTRY":"UK","FIREDATE":"2025-04-08 12:12:00","CLASS":"FireSeason","areaHA_geo":4.34},"geometry":{"type":"Polygon","coordinates":[[[-6.124076,55.810242],[-6.124512,55.810545],[-6.124824,55.810894],[-6.125012,55.811291],[-6.125368,55.81156],[-6.125891,55.811703],[-6.12626,55.811767],[-6.126475,55.811752],[-6.126744,55.811656],[-6.127067,55.811478],[-6.127205,55.811226],[-6.127156,55.810898],[-6.127063,55.81057],[-6.126926,55.810241],[-6.126701,55.809837],[-6.126391,55.809358],[-6.126106,55.809048],[-6.125849,55.808908],[-6.125506,55.808828],[-6.125079,55.808809],[-6.124613,55.809122],[-6.12411,55.809768],[-6.124076,55.810242]]]}}