{"type":"Feature","properties":{"id":"268679","COMMUNE":"Neath Port Talbot","PROVINCE":"Bridgend and Neath Port Talbot","COUNTRY":"UK","FIREDATE":"2025-04-11 00:00:00","FINALDATE":"2025-04-11 00:00:00","CLASS":"FireSeason","areaHA_geo":5.659},"geometry":{"type":"Polygon","coordinates":[[[-3.827714,51.78582],[-3.827947,51.785888],[-3.828367,51.785963],[-3.828972,51.786046],[-3.829713,51.786071],[-3.830592,51.786038],[-3.831394,51.786008],[-3.832119,51.785981],[-3.832649,51.785978],[-3.832984,51.785998],[-3.833334,51.786069],[-3.833701,51.786192],[-3.834093,51.786241],[-3.834509,51.786215],[-3.834956,51.786162],[-3.835434,51.786081],[-3.835719,51.785976],[-3.835814,51.785846],[-3.835855,51.785698],[-3.835842,51.785533],[-3.835597,51.785395],[-3.835118,51.785285],[-3.834719,51.785243],[-3.834399,51.78527],[-3.834047,51.785288],[-3.833664,51.785297],[-3.833184,51.785337],[-3.832606,51.785405],[-3.832244,51.785389],[-3.832096,51.785287],[-3.831994,51.785174],[-3.831936,51.78505],[-3.831721,51.784951],[-3.83135,51.784876],[-3.83086,51.784821],[-3.830251,51.784786],[-3.829593,51.784751],[-3.828887,51.784716],[-3.828524,51.784759],[-3.828503,51.784881],[-3.828515,51.784951],[-3.82856,51.784969],[-3.82861,51.785005],[-3.828665,51.785058],[-3.828714,51.785154],[-3.828757,51.785291],[-3.828483,51.785467],[-3.827892,51.78568],[-3.827714,51.78582]]]}}