{"type":"Feature","properties":{"id":"268607","COMMUNE":"Na h-Eileanan Siar (Western Isles)","PROVINCE":"Na h-Eileanan Siar (Western Isles)","COUNTRY":"UK","FIREDATE":"2025-04-16 01:28:00","FINALDATE":"2025-04-16 03:57:00","CLASS":"FireSeason","areaHA_geo":73.053},"geometry":{"type":"Polygon","coordinates":[[[-6.894004,58.218371],[-6.894559,58.218334],[-6.89505,58.218096],[-6.895476,58.217657],[-6.895786,58.217207],[-6.89598,58.216748],[-6.896125,58.216353],[-6.896221,58.216023],[-6.896202,58.215716],[-6.896066,58.215432],[-6.895934,58.21519],[-6.895806,58.214989],[-6.895666,58.214697],[-6.895515,58.214315],[-6.895282,58.213994],[-6.894966,58.213733],[-6.89468,58.213435],[-6.894424,58.2131],[-6.894026,58.212967],[-6.893486,58.213036],[-6.892976,58.213034],[-6.892496,58.212961],[-6.892312,58.212843],[-6.892424,58.212678],[-6.892622,58.21256],[-6.892907,58.212491],[-6.893308,58.212364],[-6.893825,58.212181],[-6.894402,58.21189],[-6.895038,58.211491],[-6.895423,58.211099],[-6.895557,58.210714],[-6.895773,58.210135],[-6.89607,58.209361],[-6.896124,58.208677],[-6.895935,58.208082],[-6.89566,58.20754],[-6.895299,58.207051],[-6.894615,58.20652],[-6.893608,58.205946],[-6.892407,58.205497],[-6.891012,58.205174],[-6.889879,58.205],[-6.889009,58.204978],[-6.888312,58.204983],[-6.887787,58.205017],[-6.887465,58.205074],[-6.887345,58.205157],[-6.887166,58.205347],[-6.886926,58.205645],[-6.886702,58.205807],[-6.886492,58.205834],[-6.886125,58.205797],[-6.885599,58.205697],[-6.885093,58.205636],[-6.884606,58.205615],[-6.884141,58.205708],[-6.883699,58.205915],[-6.883194,58.206222],[-6.882625,58.206629],[-6.882187,58.206843],[-6.88188,58.206866],[-6.88149,58.206882],[-6.881017,58.206892],[-6.880508,58.206957],[-6.879961,58.207077],[-6.879477,58.207231],[-6.879058,58.207418],[-6.878721,58.207578],[-6.878466,58.207711],[-6.878362,58.207925],[-6.878407,58.20822],[-6.878543,58.208437],[-6.878768,58.208576],[-6.879125,58.208689],[-6.879612,58.208777],[-6.880246,58.208905],[-6.881027,58.209074],[-6.881529,58.209227],[-6.881755,58.209365],[-6.882021,58.209557],[-6.88233,58.209802],[-6.8829,58.20993],[-6.883732,58.209941],[-6.884486,58.209953],[-6.885161,58.209967],[-6.885596,58.210046],[-6.885791,58.210188],[-6.885942,58.210336],[-6.886047,58.21049],[-6.886344,58.210644],[-6.886832,58.210799],[-6.88717,58.211007],[-6.887358,58.211267],[-6.887516,58.211532],[-6.887644,58.211799],[-6.887814,58.212154],[-6.888025,58.212595],[-6.888206,58.21294],[-6.888357,58.213189],[-6.88856,58.21338],[-6.888815,58.213515],[-6.889187,58.213793],[-6.889676,58.214216],[-6.889954,58.214465],[-6.890022,58.21454],[-6.890108,58.214621],[-6.890214,58.214708],[-6.890349,58.214824],[-6.890514,58.21497],[-6.890639,58.215097],[-6.890721,58.215203],[-6.890819,58.215374],[-6.890932,58.215611],[-6.891674,58.216394],[-6.893042,58.217725],[-6.894004,58.218371]]]}}