{"type":"Feature","properties":{"id":"268678","COMMUNE":"Neath Port Talbot","PROVINCE":"Bridgend and Neath Port Talbot","COUNTRY":"UK","FIREDATE":"2025-04-11 00:00:00","CLASS":"FireSeason","areaHA_geo":6.626},"geometry":{"type":"Polygon","coordinates":[[[-3.835924,51.78834],[-3.83625,51.788146],[-3.836563,51.787942],[-3.836863,51.787728],[-3.837181,51.787571],[-3.837517,51.787471],[-3.837852,51.787431],[-3.838187,51.787451],[-3.838402,51.787521],[-3.838497,51.787641],[-3.838579,51.787809],[-3.838646,51.788028],[-3.838906,51.788211],[-3.839358,51.78836],[-3.839756,51.788491],[-3.840101,51.788605],[-3.840449,51.788701],[-3.840802,51.788778],[-3.841177,51.788775],[-3.841576,51.788691],[-3.841867,51.788538],[-3.842048,51.788314],[-3.842158,51.78811],[-3.842198,51.787927],[-3.842245,51.787766],[-3.842298,51.787629],[-3.842279,51.787506],[-3.842188,51.787398],[-3.841966,51.787275],[-3.841615,51.787139],[-3.841217,51.786948],[-3.840774,51.786703],[-3.840434,51.786541],[-3.840197,51.786462],[-3.839831,51.786404],[-3.839337,51.786367],[-3.839006,51.786359],[-3.838838,51.786379],[-3.838538,51.786498],[-3.838103,51.786717],[-3.837643,51.786914],[-3.837158,51.787091],[-3.836638,51.787314],[-3.836084,51.787582],[-3.8357,51.787777],[-3.835487,51.787897],[-3.83537,51.788018],[-3.83535,51.78814],[-3.835445,51.78826],[-3.835655,51.788378],[-3.835924,51.78834]]]}}