{"type":"Feature","properties":{"id":"268676","COMMUNE":"Neath Port Talbot","PROVINCE":"Bridgend and Neath Port Talbot","COUNTRY":"UK","FIREDATE":"2025-04-11 12:55:00","CLASS":"FireSeason","areaHA_geo":11.335},"geometry":{"type":"Polygon","coordinates":[[[-3.838561,51.783278],[-3.839144,51.783232],[-3.839694,51.783143],[-3.840214,51.783012],[-3.840741,51.782817],[-3.841276,51.782558],[-3.84186,51.782276],[-3.842492,51.78197],[-3.843007,51.781794],[-3.843402,51.781747],[-3.84375,51.781665],[-3.84405,51.781549],[-3.844221,51.78135],[-3.844264,51.781069],[-3.843969,51.780661],[-3.843337,51.780126],[-3.842895,51.779787],[-3.842646,51.779645],[-3.84233,51.779561],[-3.84195,51.779538],[-3.841544,51.779551],[-3.841112,51.779603],[-3.840843,51.779698],[-3.840737,51.779837],[-3.840643,51.780015],[-3.840561,51.780232],[-3.8404,51.780372],[-3.840158,51.780435],[-3.839867,51.78043],[-3.839527,51.780355],[-3.839231,51.780275],[-3.838981,51.78019],[-3.83881,51.780182],[-3.83872,51.78025],[-3.838697,51.780356],[-3.838742,51.7805],[-3.838856,51.780659],[-3.839041,51.780833],[-3.839208,51.78098],[-3.839357,51.7811],[-3.839488,51.781252],[-3.839601,51.781434],[-3.83961,51.781554],[-3.839516,51.781611],[-3.839254,51.781579],[-3.838825,51.781457],[-3.83846,51.781455],[-3.83816,51.781571],[-3.837856,51.781734],[-3.837548,51.781943],[-3.837354,51.782069],[-3.837275,51.782113],[-3.837173,51.782206],[-3.837049,51.782347],[-3.836988,51.782481],[-3.83699,51.782608],[-3.837124,51.782678],[-3.83739,51.782692],[-3.837709,51.78285],[-3.838083,51.783151],[-3.838561,51.783278]]]}}