{"type":"Feature","properties":{"id":"268697","COMMUNE":"Powys","PROVINCE":"Powys","COUNTRY":"UK","FIREDATE":"2025-04-02 01:43:00","CLASS":"FireSeason","areaHA_geo":15.096},"geometry":{"type":"Polygon","coordinates":[[[-3.211368,51.814474],[-3.212155,51.814676],[-3.212971,51.814796],[-3.213818,51.814835],[-3.214499,51.814925],[-3.215013,51.815069],[-3.215541,51.815194],[-3.216081,51.8153],[-3.216561,51.815296],[-3.216981,51.815181],[-3.217204,51.814954],[-3.21723,51.814616],[-3.21726,51.814226],[-3.217293,51.813785],[-3.217178,51.813462],[-3.216918,51.813257],[-3.216479,51.813032],[-3.215862,51.812789],[-3.215284,51.812558],[-3.214747,51.812339],[-3.214293,51.812093],[-3.213922,51.811822],[-3.21343,51.811603],[-3.212818,51.811438],[-3.212119,51.811439],[-3.211334,51.811606],[-3.210857,51.811682],[-3.210689,51.811668],[-3.21034,51.811775],[-3.209808,51.812003],[-3.20938,51.812091],[-3.209056,51.812038],[-3.208839,51.81204],[-3.208729,51.812097],[-3.208659,51.812229],[-3.208629,51.812433],[-3.208774,51.812585],[-3.209093,51.812683],[-3.209461,51.812697],[-3.209876,51.812628],[-3.210174,51.812594],[-3.210357,51.812596],[-3.210522,51.812633],[-3.210671,51.812706],[-3.210774,51.812778],[-3.210831,51.81285],[-3.210839,51.812967],[-3.210796,51.813128],[-3.210663,51.813323],[-3.21044,51.813549],[-3.210303,51.813699],[-3.210252,51.813772],[-3.210227,51.813842],[-3.210229,51.813909],[-3.210416,51.81405],[-3.210789,51.814266],[-3.211368,51.814474]]]}}