{"type":"Feature","properties":{"id":"268696","COMMUNE":"Powys","PROVINCE":"Powys","COUNTRY":"UK","FIREDATE":"2025-04-02 00:00:00","FINALDATE":"2025-04-02 00:00:00","CLASS":"FireSeason","areaHA_geo":6.633},"geometry":{"type":"Polygon","coordinates":[[[-3.224588,51.814777],[-3.225544,51.814937],[-3.22623,51.815016],[-3.226647,51.815014],[-3.227087,51.814997],[-3.22755,51.814967],[-3.228016,51.814825],[-3.228485,51.81457],[-3.228837,51.814379],[-3.229072,51.814251],[-3.229481,51.814255],[-3.230066,51.81439],[-3.230494,51.814454],[-3.230764,51.814445],[-3.231069,51.814372],[-3.231409,51.814232],[-3.231512,51.81403],[-3.231379,51.813765],[-3.231175,51.81357],[-3.230902,51.813444],[-3.23034,51.813357],[-3.22949,51.813308],[-3.228716,51.813239],[-3.228018,51.81315],[-3.227436,51.813116],[-3.226969,51.813135],[-3.226584,51.813246],[-3.226281,51.813448],[-3.226065,51.813635],[-3.225934,51.813807],[-3.225592,51.813941],[-3.22504,51.814037],[-3.224677,51.814067],[-3.224502,51.814031],[-3.224339,51.814184],[-3.224186,51.814526],[-3.224588,51.814777]]]}}