{"type":"Feature","properties":{"id":"268929","COMMUNE":"Guildford","PROVINCE":"West Surrey","COUNTRY":"UK","FIREDATE":"2025-04-10 14:01:00","FINALDATE":"2025-04-10 14:01:00","CLASS":"FireSeason","areaHA_geo":11.545},"geometry":{"type":"Polygon","coordinates":[[[-0.69377,51.286388],[-0.693871,51.286442],[-0.694046,51.286472],[-0.694296,51.28648],[-0.69462,51.286464],[-0.694925,51.286467],[-0.69521,51.28649],[-0.695476,51.286531],[-0.695722,51.286593],[-0.6959,51.286607],[-0.696012,51.286573],[-0.696056,51.286492],[-0.696034,51.286363],[-0.696054,51.28623],[-0.696119,51.286091],[-0.696227,51.285947],[-0.696378,51.285797],[-0.696512,51.28566],[-0.696628,51.285535],[-0.696727,51.285422],[-0.696808,51.285322],[-0.696912,51.285219],[-0.69704,51.285113],[-0.697192,51.285006],[-0.697368,51.284897],[-0.697488,51.284796],[-0.697552,51.284703],[-0.697561,51.28462],[-0.697513,51.284545],[-0.697497,51.284478],[-0.697513,51.284418],[-0.697561,51.284366],[-0.69764,51.284321],[-0.697719,51.284301],[-0.697798,51.284305],[-0.697878,51.284334],[-0.697958,51.284387],[-0.69809,51.284381],[-0.698276,51.284315],[-0.698515,51.284189],[-0.698808,51.284003],[-0.69909,51.283824],[-0.699363,51.283652],[-0.699627,51.283487],[-0.69988,51.283328],[-0.700089,51.283166],[-0.700252,51.283002],[-0.700369,51.282835],[-0.700441,51.282665],[-0.700456,51.28253],[-0.700414,51.282429],[-0.700314,51.282362],[-0.700157,51.28233],[-0.700002,51.282327],[-0.699847,51.282353],[-0.699694,51.282408],[-0.699542,51.282492],[-0.699446,51.282526],[-0.699405,51.282511],[-0.69942,51.282447],[-0.69949,51.282333],[-0.699533,51.282224],[-0.69955,51.28212],[-0.69954,51.282021],[-0.699502,51.281926],[-0.69944,51.281849],[-0.699351,51.28179],[-0.699237,51.281748],[-0.699097,51.281723],[-0.698959,51.281708],[-0.698823,51.281702],[-0.698689,51.281705],[-0.698558,51.281717],[-0.698425,51.281749],[-0.698292,51.281801],[-0.698158,51.281873],[-0.698023,51.281965],[-0.697914,51.282049],[-0.69783,51.282124],[-0.697773,51.282191],[-0.697743,51.28225],[-0.697672,51.282308],[-0.697562,51.282364],[-0.697413,51.28242],[-0.697224,51.282475],[-0.697066,51.282555],[-0.696938,51.28266],[-0.69684,51.28279],[-0.696772,51.282946],[-0.696645,51.283059],[-0.69646,51.28313],[-0.696217,51.283158],[-0.695915,51.283144],[-0.695648,51.28316],[-0.695417,51.283208],[-0.695221,51.283285],[-0.695059,51.283393],[-0.694946,51.283491],[-0.694881,51.283579],[-0.694864,51.283656],[-0.694894,51.283723],[-0.694877,51.2838],[-0.694811,51.283885],[-0.694697,51.28398],[-0.694535,51.284083],[-0.694425,51.284187],[-0.694367,51.28429],[-0.694361,51.284393],[-0.694408,51.284496],[-0.69445,51.284594],[-0.694486,51.284686],[-0.694518,51.284773],[-0.694544,51.284854],[-0.694566,51.284929],[-0.694582,51.284998],[-0.694593,51.28506],[-0.694598,51.285115],[-0.694517,51.285183],[-0.69435,51.285264],[-0.694095,51.285358],[-0.693755,51.285464],[-0.693507,51.285571],[-0.693353,51.285678],[-0.693293,51.285786],[-0.693326,51.285895],[-0.693371,51.285985],[-0.693429,51.286057],[-0.6935,51.28611],[-0.693582,51.286144],[-0.693651,51.286189],[-0.693705,51.286245],[-0.693745,51.286311],[-0.69377,51.286388]]]}}