{"type":"Feature","properties":{"id":"268956","COMMUNE":"Dumfries and Galloway","PROVINCE":"Dumfries & Galloway","COUNTRY":"UK","FIREDATE":"2025-04-05 13:08:00","FINALDATE":"2025-04-05 13:31:00","CLASS":"FireSeason","areaHA_geo":3.689},"geometry":{"type":"Polygon","coordinates":[[[-5.088306,54.831878],[-5.088413,54.832082],[-5.088566,54.832275],[-5.088764,54.832457],[-5.0889,54.832632],[-5.088974,54.832801],[-5.089099,54.833029],[-5.089278,54.833317],[-5.089529,54.833466],[-5.089852,54.833478],[-5.090236,54.833397],[-5.090679,54.833222],[-5.091096,54.833045],[-5.091487,54.832866],[-5.091741,54.832625],[-5.091857,54.832325],[-5.091859,54.832104],[-5.091746,54.831963],[-5.09165,54.831775],[-5.091571,54.831538],[-5.091382,54.831369],[-5.091085,54.831268],[-5.090873,54.831303],[-5.090748,54.831473],[-5.090554,54.831648],[-5.090293,54.831829],[-5.089974,54.831948],[-5.089597,54.832006],[-5.089466,54.83191],[-5.089582,54.831661],[-5.089469,54.831469],[-5.089129,54.831333],[-5.088825,54.83127],[-5.08856,54.831279],[-5.088383,54.831407],[-5.088296,54.831653],[-5.088306,54.831878]]]}}