{"type":"Feature","properties":{"id":"268923","COMMUNE":"Calderdale","PROVINCE":"Calderdale and Kirklees","COUNTRY":"UK","FIREDATE":"2025-05-01 11:38:00","FINALDATE":"2025-05-01 14:08:00","CLASS":"FireSeason","areaHA_geo":240.842},"geometry":{"type":"Polygon","coordinates":[[[-1.983897,53.652712],[-1.984201,53.652731],[-1.984588,53.652734],[-1.984972,53.652715],[-1.985353,53.652674],[-1.985732,53.652611],[-1.98609,53.652539],[-1.986428,53.652457],[-1.986745,53.652366],[-1.987042,53.652265],[-1.987305,53.652161],[-1.987534,53.652054],[-1.987709,53.652119],[-1.987829,53.652357],[-1.988108,53.652488],[-1.988545,53.652512],[-1.988926,53.65239],[-1.989251,53.65212],[-1.989541,53.651879],[-1.989796,53.651667],[-1.989992,53.651404],[-1.990131,53.65109],[-1.990271,53.650912],[-1.990412,53.65087],[-1.990766,53.650777],[-1.991334,53.650633],[-1.991858,53.650488],[-1.992339,53.650343],[-1.992776,53.650198],[-1.99317,53.650052],[-1.993456,53.649936],[-1.993635,53.64985],[-1.993943,53.649816],[-1.994378,53.649832],[-1.994791,53.649821],[-1.995182,53.649783],[-1.995439,53.649681],[-1.995564,53.649516],[-1.995658,53.649192],[-1.995722,53.64871],[-1.995755,53.648376],[-1.995759,53.648189],[-1.995658,53.647987],[-1.995453,53.647769],[-1.995238,53.647547],[-1.995014,53.647319],[-1.994832,53.647133],[-1.994692,53.64699],[-1.994414,53.646743],[-1.993998,53.646394],[-1.993709,53.646083],[-1.993545,53.645811],[-1.993409,53.645485],[-1.9933,53.645105],[-1.993264,53.644777],[-1.9933,53.644502],[-1.993486,53.644348],[-1.993821,53.644315],[-1.994048,53.644355],[-1.994169,53.64447],[-1.994241,53.644527],[-1.994265,53.644527],[-1.99444,53.644565],[-1.994766,53.644641],[-1.995097,53.644729],[-1.995433,53.644826],[-1.995774,53.644934],[-1.996119,53.645053],[-1.996466,53.645181],[-1.996815,53.645318],[-1.99711,53.645402],[-1.997351,53.645432],[-1.99766,53.645504],[-1.998037,53.64562],[-1.998423,53.645717],[-1.998819,53.645797],[-1.999128,53.645826],[-1.999352,53.645803],[-1.999577,53.645789],[-1.999805,53.645784],[-2.000324,53.645741],[-2.001133,53.645661],[-2.001593,53.645615],[-2.001704,53.645604],[-2.001943,53.645487],[-2.00231,53.645264],[-2.002574,53.645034],[-2.002736,53.644797],[-2.002902,53.644627],[-2.003074,53.644526],[-2.003692,53.64443],[-2.004757,53.644341],[-2.00557,53.644278],[-2.006133,53.644239],[-2.006698,53.644157],[-2.007264,53.644033],[-2.00767,53.643797],[-2.007915,53.64345],[-2.008035,53.643261],[-2.008029,53.643229],[-2.008042,53.643201],[-2.008076,53.643176],[-2.008208,53.64302],[-2.008439,53.642733],[-2.008644,53.642409],[-2.008824,53.642047],[-2.008999,53.64171],[-2.00917,53.641396],[-2.009336,53.641107],[-2.009497,53.640842],[-2.009654,53.6406],[-2.009806,53.640383],[-2.009953,53.64019],[-2.010096,53.640021],[-2.010159,53.639898],[-2.010142,53.639821],[-2.010194,53.639741],[-2.010315,53.639657],[-2.010454,53.639437],[-2.01061,53.639082],[-2.010604,53.638811],[-2.010436,53.638624],[-2.010146,53.638262],[-2.009735,53.637726],[-2.009366,53.637338],[-2.009039,53.637099],[-2.008557,53.636816],[-2.007918,53.636489],[-2.007417,53.63619],[-2.007053,53.635921],[-2.006641,53.635784],[-2.006181,53.635778],[-2.005819,53.635865],[-2.005554,53.636044],[-2.00532,53.636178],[-2.005116,53.636266],[-2.00476,53.636327],[-2.004254,53.63636],[-2.003812,53.63637],[-2.003435,53.636357],[-2.003022,53.636364],[-2.002571,53.636391],[-2.002103,53.636412],[-2.00162,53.636426],[-2.000821,53.636642],[-1.999707,53.637058],[-1.998988,53.637452],[-1.998664,53.637824],[-1.998336,53.638177],[-1.998006,53.638513],[-1.997421,53.638826],[-1.996582,53.639115],[-1.995638,53.63938],[-1.994588,53.63962],[-1.993924,53.639754],[-1.993645,53.639782],[-1.993008,53.639913],[-1.992014,53.640147],[-1.991134,53.64043],[-1.990368,53.640761],[-1.989553,53.64102],[-1.988688,53.641207],[-1.987603,53.641323],[-1.986296,53.641368],[-1.985043,53.641399],[-1.983843,53.641416],[-1.982539,53.641418],[-1.98113,53.641405],[-1.980187,53.641355],[-1.97971,53.641268],[-1.979317,53.641197],[-1.979007,53.641141],[-1.978406,53.641157],[-1.977514,53.641245],[-1.976965,53.641333],[-1.976761,53.641422],[-1.976727,53.641552],[-1.976862,53.641726],[-1.976928,53.641957],[-1.976924,53.642246],[-1.976753,53.64245],[-1.976414,53.642568],[-1.976135,53.642647],[-1.975917,53.642685],[-1.975801,53.642782],[-1.975787,53.642936],[-1.975825,53.643017],[-1.975913,53.643025],[-1.976123,53.643004],[-1.976453,53.642955],[-1.976836,53.642942],[-1.977273,53.642967],[-1.97755,53.642982],[-1.977666,53.642987],[-1.977781,53.642998],[-1.977893,53.643014],[-1.977953,53.643111],[-1.97796,53.643289],[-1.978008,53.64347],[-1.978096,53.643654],[-1.978148,53.643822],[-1.978165,53.643973],[-1.978146,53.644108],[-1.978091,53.644226],[-1.978001,53.644329],[-1.977875,53.644414],[-1.977713,53.644484],[-1.977516,53.644537],[-1.97729,53.644592],[-1.977036,53.64465],[-1.976753,53.64471],[-1.976442,53.644772],[-1.976102,53.644837],[-1.975733,53.644904],[-1.975336,53.644973],[-1.974911,53.645044],[-1.974509,53.645125],[-1.974132,53.645214],[-1.97394,53.645287],[-1.973932,53.645342],[-1.973969,53.645459],[-1.974048,53.645638],[-1.974102,53.645777],[-1.97413,53.645876],[-1.974196,53.646005],[-1.974299,53.646165],[-1.974367,53.646249],[-1.974402,53.646258],[-1.974611,53.646221],[-1.974994,53.646138],[-1.975487,53.646039],[-1.97609,53.645925],[-1.976658,53.645827],[-1.97719,53.645745],[-1.977687,53.645679],[-1.978149,53.645629],[-1.978575,53.645595],[-1.978967,53.645577],[-1.979284,53.64558],[-1.979528,53.645603],[-1.979698,53.645646],[-1.979794,53.64571],[-1.979816,53.645794],[-1.979765,53.645899],[-1.979639,53.646024],[-1.97944,53.646169],[-1.979218,53.646302],[-1.978972,53.646421],[-1.978704,53.646528],[-1.978412,53.646622],[-1.978097,53.646703],[-1.977759,53.646771],[-1.977397,53.646826],[-1.977013,53.646869],[-1.97659,53.646939],[-1.976127,53.647037],[-1.975626,53.647163],[-1.975086,53.647317],[-1.974507,53.647499],[-1.973889,53.647709],[-1.973232,53.647947],[-1.972536,53.648213],[-1.971928,53.648474],[-1.971406,53.648731],[-1.970972,53.648984],[-1.970625,53.649232],[-1.970446,53.649364],[-1.970434,53.64938],[-1.970219,53.649458],[-1.9698,53.649599],[-1.969546,53.649768],[-1.969458,53.649963],[-1.96952,53.650229],[-1.96973,53.650564],[-1.969931,53.650816],[-1.970122,53.650984],[-1.970455,53.651095],[-1.97093,53.65115],[-1.971683,53.651127],[-1.972716,53.651024],[-1.973541,53.651002],[-1.97416,53.65106],[-1.97482,53.651075],[-1.975522,53.651049],[-1.975883,53.651045],[-1.975901,53.651061],[-1.976022,53.651115],[-1.976244,53.651206],[-1.976525,53.651296],[-1.976865,53.651384],[-1.977264,53.65147],[-1.97736,53.651488],[-1.978007,53.651825],[-1.97892,53.65221],[-1.980773,53.652671],[-1.982049,53.652918],[-1.983212,53.652973],[-1.983897,53.652712]]]}}