{"type":"Feature","properties":{"id":"268916","COMMUNE":"Gwynedd","PROVINCE":"Gwynedd","COUNTRY":"UK","FIREDATE":"2025-04-11 12:53:00","CLASS":"FireSeason","areaHA_geo":1.534},"geometry":{"type":"Polygon","coordinates":[[[-4.062468,52.808034],[-4.062529,52.808038],[-4.062586,52.808047],[-4.06264,52.808062],[-4.062691,52.808082],[-4.062738,52.808107],[-4.062795,52.808126],[-4.062861,52.808139],[-4.062936,52.808145],[-4.06302,52.808145],[-4.063095,52.808146],[-4.06316,52.808148],[-4.063216,52.808152],[-4.063263,52.808156],[-4.063296,52.80817],[-4.063315,52.808193],[-4.06332,52.808225],[-4.063311,52.808267],[-4.063293,52.808306],[-4.063268,52.80834],[-4.063234,52.808371],[-4.063191,52.808399],[-4.063168,52.808442],[-4.063164,52.808501],[-4.063179,52.808576],[-4.063213,52.808668],[-4.063251,52.808726],[-4.063295,52.808752],[-4.063343,52.808745],[-4.063395,52.808706],[-4.063468,52.808674],[-4.06356,52.808651],[-4.063672,52.808636],[-4.063803,52.808629],[-4.063908,52.808615],[-4.063986,52.808594],[-4.064038,52.808566],[-4.064064,52.80853],[-4.064077,52.808488],[-4.064078,52.808439],[-4.064068,52.808383],[-4.064045,52.80832],[-4.064011,52.808254],[-4.063966,52.808185],[-4.06391,52.808113],[-4.063842,52.808038],[-4.063808,52.807982],[-4.063807,52.807945],[-4.06384,52.807927],[-4.063906,52.807928],[-4.063967,52.807937],[-4.064024,52.807954],[-4.064077,52.80798],[-4.064125,52.808014],[-4.064173,52.808053],[-4.064222,52.808098],[-4.06427,52.808147],[-4.064319,52.808202],[-4.064366,52.808235],[-4.064412,52.808246],[-4.064456,52.808234],[-4.064498,52.808201],[-4.064535,52.808166],[-4.064565,52.808129],[-4.064589,52.808092],[-4.064607,52.808052],[-4.064637,52.808026],[-4.064679,52.808012],[-4.064732,52.808011],[-4.064798,52.808023],[-4.064862,52.80803],[-4.064924,52.80803],[-4.064984,52.808026],[-4.065042,52.808015],[-4.065083,52.808],[-4.065107,52.80798],[-4.065115,52.807956],[-4.065106,52.807927],[-4.065084,52.807895],[-4.065051,52.80786],[-4.065006,52.80782],[-4.064949,52.807778],[-4.064892,52.807737],[-4.064835,52.807699],[-4.064778,52.807662],[-4.064722,52.807628],[-4.064672,52.807594],[-4.064628,52.807559],[-4.06459,52.807525],[-4.064558,52.80749],[-4.064503,52.807459],[-4.064426,52.807431],[-4.064327,52.807406],[-4.064205,52.807385],[-4.064081,52.807361],[-4.063957,52.807336],[-4.063831,52.807308],[-4.063704,52.807279],[-4.063584,52.807262],[-4.063471,52.807258],[-4.063365,52.807267],[-4.063265,52.807289],[-4.06317,52.807312],[-4.06308,52.807335],[-4.062995,52.80736],[-4.062915,52.807385],[-4.062837,52.807407],[-4.062762,52.807424],[-4.062688,52.807437],[-4.062617,52.807445],[-4.062585,52.807461],[-4.062591,52.807483],[-4.062636,52.807513],[-4.062721,52.80755],[-4.062792,52.807586],[-4.06285,52.807621],[-4.062896,52.807654],[-4.062929,52.807686],[-4.062938,52.807717],[-4.062922,52.807747],[-4.062881,52.807775],[-4.062816,52.807803],[-4.062753,52.807824],[-4.062693,52.807838],[-4.062634,52.807847],[-4.062577,52.807849],[-4.062527,52.807861],[-4.062484,52.807884],[-4.062448,52.807918],[-4.062419,52.807962],[-4.062413,52.807996],[-4.062429,52.80802],[-4.062468,52.808034]]]}}