{"type":"Feature","properties":{"id":"268953","COMMUNE":"Badenoch and Strathspey","PROVINCE":"Inverness & Nairn and Moray, Badenoch & Strathspey","COUNTRY":"UK","FIREDATE":"2025-03-20 12:17:00","CLASS":"FireSeason","areaHA_geo":8.51},"geometry":{"type":"Polygon","coordinates":[[[-4.1918,57.085123],[-4.191736,57.085355],[-4.191666,57.085571],[-4.191589,57.085769],[-4.191583,57.085983],[-4.191649,57.086214],[-4.191795,57.086394],[-4.19202,57.086523],[-4.192476,57.086545],[-4.193165,57.086457],[-4.193698,57.086363],[-4.194075,57.086263],[-4.194457,57.086203],[-4.194843,57.086185],[-4.195182,57.086041],[-4.195472,57.085771],[-4.195693,57.085492],[-4.195845,57.085202],[-4.196017,57.084881],[-4.19621,57.084527],[-4.196195,57.084232],[-4.195973,57.083995],[-4.195863,57.083621],[-4.195864,57.08311],[-4.195817,57.08273],[-4.195721,57.082479],[-4.195589,57.08222],[-4.195421,57.081954],[-4.195298,57.081718],[-4.195219,57.081513],[-4.195146,57.081378],[-4.195078,57.081315],[-4.194964,57.081274],[-4.194803,57.081255],[-4.194663,57.081259],[-4.194541,57.081284],[-4.19445,57.08136],[-4.194388,57.081485],[-4.194359,57.081637],[-4.194361,57.081814],[-4.194429,57.082021],[-4.194563,57.082255],[-4.194619,57.082487],[-4.194597,57.082715],[-4.194536,57.0829],[-4.194437,57.083041],[-4.194337,57.083236],[-4.194235,57.083485],[-4.193859,57.083757],[-4.193207,57.084054],[-4.192703,57.084252],[-4.192347,57.08435],[-4.192085,57.084551],[-4.191916,57.084855],[-4.1918,57.085123]]]}}