{"type":"Feature","properties":{"id":"268908","COMMUNE":"Gwynedd","PROVINCE":"Gwynedd","COUNTRY":"UK","FIREDATE":"2025-04-11 16:21:48.896","CLASS":"FireSeason","areaHA_geo":0.582},"geometry":{"type":"Polygon","coordinates":[[[-3.97109,52.958279],[-3.971086,52.958338],[-3.971153,52.958373],[-3.97129,52.958385],[-3.971497,52.958374],[-3.971656,52.958342],[-3.971766,52.958289],[-3.971828,52.958216],[-3.971841,52.958121],[-3.971864,52.95803],[-3.971897,52.957943],[-3.971939,52.95786],[-3.97199,52.957781],[-3.972021,52.957705],[-3.972031,52.957634],[-3.97202,52.957568],[-3.971989,52.957505],[-3.971924,52.957451],[-3.971826,52.957406],[-3.971695,52.95737],[-3.971531,52.957342],[-3.97139,52.957341],[-3.97127,52.957365],[-3.971173,52.957414],[-3.971098,52.95749],[-3.971059,52.957576],[-3.971058,52.957672],[-3.971093,52.95778],[-3.971164,52.957898],[-3.9712,52.958007],[-3.971199,52.958106],[-3.971163,52.958197],[-3.97109,52.958279]]]}}