{"type":"Feature","properties":{"id":"268955","COMMUNE":"Dumfries and Galloway","PROVINCE":"Dumfries & Galloway","COUNTRY":"UK","FIREDATE":"2025-04-08 12:57:00","CLASS":"FireSeason","areaHA_geo":12.872},"geometry":{"type":"Polygon","coordinates":[[[-4.81594,54.948876],[-4.816445,54.949039],[-4.816897,54.949147],[-4.817294,54.9492],[-4.817629,54.949214],[-4.817903,54.949189],[-4.818262,54.949084],[-4.818706,54.948899],[-4.819085,54.948669],[-4.8194,54.948391],[-4.819949,54.948144],[-4.820731,54.947927],[-4.821392,54.947747],[-4.821933,54.947605],[-4.822231,54.9475],[-4.822286,54.947432],[-4.822268,54.94731],[-4.822177,54.947136],[-4.821857,54.947039],[-4.821311,54.94702],[-4.820937,54.946976],[-4.820737,54.946907],[-4.820342,54.946916],[-4.819754,54.947002],[-4.819258,54.947046],[-4.818854,54.947048],[-4.818426,54.947003],[-4.817974,54.94691],[-4.817649,54.946834],[-4.817451,54.946772],[-4.81731,54.946631],[-4.817228,54.946409],[-4.817016,54.946219],[-4.816673,54.946059],[-4.816486,54.9459],[-4.816454,54.945742],[-4.816369,54.945493],[-4.81623,54.945155],[-4.815956,54.944836],[-4.815549,54.944538],[-4.815315,54.944326],[-4.815256,54.944202],[-4.815323,54.944055],[-4.815516,54.943886],[-4.8155,54.943733],[-4.815274,54.943598],[-4.81508,54.943475],[-4.814917,54.943363],[-4.814741,54.943288],[-4.814551,54.943249],[-4.814302,54.943248],[-4.813992,54.943285],[-4.813787,54.943406],[-4.813688,54.943611],[-4.813586,54.943754],[-4.813482,54.943836],[-4.813318,54.943902],[-4.813094,54.943952],[-4.813006,54.944044],[-4.813056,54.944177],[-4.813157,54.944269],[-4.813311,54.94432],[-4.813589,54.944452],[-4.813992,54.944666],[-4.814191,54.944894],[-4.814186,54.945133],[-4.814266,54.945475],[-4.81443,54.945919],[-4.81471,54.946217],[-4.815104,54.946371],[-4.815264,54.946548],[-4.815191,54.94675],[-4.815126,54.94692],[-4.815069,54.947058],[-4.815202,54.947544],[-4.815525,54.948377],[-4.81594,54.948876]]]}}