{"type":"Feature","properties":{"id":"268922","COMMUNE":"Kirklees","PROVINCE":"Calderdale and Kirklees","COUNTRY":"UK","FIREDATE":"2025-04-11 01:24:00","FINALDATE":"2025-04-11 03:30:00","CLASS":"FireSeason","areaHA_geo":150.268},"geometry":{"type":"Polygon","coordinates":[[[-1.980176,53.613155],[-1.980658,53.613207],[-1.981237,53.6131],[-1.981916,53.612833],[-1.982692,53.612407],[-1.983392,53.61202],[-1.984016,53.611671],[-1.984562,53.611361],[-1.985032,53.61109],[-1.985463,53.610842],[-1.985855,53.610616],[-1.986207,53.610413],[-1.986521,53.610232],[-1.986799,53.610052],[-1.987043,53.609874],[-1.987252,53.609698],[-1.987427,53.609523],[-1.987523,53.609355],[-1.987541,53.609195],[-1.98748,53.609044],[-1.987341,53.608899],[-1.987288,53.60879],[-1.987323,53.608716],[-1.987446,53.608677],[-1.987655,53.608673],[-1.987814,53.60864],[-1.987923,53.60858],[-1.987982,53.608491],[-1.98799,53.608374],[-1.988111,53.608243],[-1.988344,53.608099],[-1.988688,53.607943],[-1.989145,53.607773],[-1.989416,53.607627],[-1.989501,53.607507],[-1.9894,53.607411],[-1.989113,53.607339],[-1.988949,53.607268],[-1.988908,53.607198],[-1.988989,53.607127],[-1.989194,53.607057],[-1.989319,53.606968],[-1.989365,53.606859],[-1.989332,53.606732],[-1.98922,53.606585],[-1.989004,53.60644],[-1.988682,53.606297],[-1.988256,53.606157],[-1.987726,53.606018],[-1.987198,53.605913],[-1.986672,53.60584],[-1.986148,53.605801],[-1.985627,53.605794],[-1.985039,53.605784],[-1.984382,53.60577],[-1.983658,53.605752],[-1.982867,53.605731],[-1.982318,53.605688],[-1.982011,53.605623],[-1.981948,53.605536],[-1.982127,53.605426],[-1.982289,53.605317],[-1.982433,53.605207],[-1.982559,53.605097],[-1.982668,53.604986],[-1.982712,53.604845],[-1.982691,53.604672],[-1.982605,53.604469],[-1.982454,53.604234],[-1.982257,53.604048],[-1.982014,53.60391],[-1.981726,53.60382],[-1.981391,53.603778],[-1.981027,53.603719],[-1.980633,53.603642],[-1.98021,53.603547],[-1.979757,53.603434],[-1.97928,53.603337],[-1.978781,53.603258],[-1.978258,53.603196],[-1.977712,53.60315],[-1.977242,53.60314],[-1.97685,53.603167],[-1.976535,53.603229],[-1.976296,53.603328],[-1.976085,53.603411],[-1.975901,53.603479],[-1.975744,53.603532],[-1.975615,53.60357],[-1.975432,53.603594],[-1.975197,53.603605],[-1.974908,53.603602],[-1.974567,53.603586],[-1.974241,53.603588],[-1.973931,53.603606],[-1.973636,53.603641],[-1.973356,53.603694],[-1.97302,53.603744],[-1.972626,53.603791],[-1.972176,53.603836],[-1.971669,53.603878],[-1.971234,53.603892],[-1.970872,53.603878],[-1.970583,53.603836],[-1.970367,53.603766],[-1.970214,53.603698],[-1.970126,53.603632],[-1.9701,53.603568],[-1.970139,53.603506],[-1.970139,53.603443],[-1.9701,53.603381],[-1.970022,53.603318],[-1.969906,53.603254],[-1.969687,53.603214],[-1.969367,53.603196],[-1.968943,53.6032],[-1.968418,53.603227],[-1.967905,53.603261],[-1.967405,53.603303],[-1.966917,53.603351],[-1.966442,53.603406],[-1.966031,53.603453],[-1.965684,53.603492],[-1.965401,53.603522],[-1.965183,53.603544],[-1.964941,53.603557],[-1.964676,53.603563],[-1.964388,53.60356],[-1.964076,53.603549],[-1.963743,53.603522],[-1.963386,53.603478],[-1.963008,53.603418],[-1.962607,53.603341],[-1.962229,53.603294],[-1.961873,53.603275],[-1.961539,53.603285],[-1.961228,53.603324],[-1.960887,53.60342],[-1.960516,53.603573],[-1.960117,53.603783],[-1.959687,53.60405],[-1.959383,53.604276],[-1.959204,53.60446],[-1.95915,53.604602],[-1.959221,53.604703],[-1.959344,53.604768],[-1.959521,53.604796],[-1.95975,53.604788],[-1.960032,53.604744],[-1.960197,53.604744],[-1.960245,53.604789],[-1.960176,53.604879],[-1.95999,53.605014],[-1.959834,53.605158],[-1.959709,53.605312],[-1.959616,53.605475],[-1.959552,53.605647],[-1.959574,53.605822],[-1.95968,53.605998],[-1.959871,53.606177],[-1.960147,53.606357],[-1.960377,53.606536],[-1.960561,53.606713],[-1.960698,53.606889],[-1.96079,53.607063],[-1.960974,53.60729],[-1.96125,53.60757],[-1.961618,53.607903],[-1.962079,53.60829],[-1.962569,53.608642],[-1.963087,53.608961],[-1.963635,53.609246],[-1.964211,53.609496],[-1.964683,53.609736],[-1.96505,53.609966],[-1.965312,53.610185],[-1.96547,53.610394],[-1.965665,53.610564],[-1.965899,53.610694],[-1.966171,53.610786],[-1.96648,53.610838],[-1.96672,53.610918],[-1.966891,53.611026],[-1.966993,53.611162],[-1.967026,53.611325],[-1.967091,53.611455],[-1.967189,53.611554],[-1.96732,53.61162],[-1.967484,53.611653],[-1.967691,53.611689],[-1.96794,53.611727],[-1.968232,53.611766],[-1.968566,53.611808],[-1.968892,53.611857],[-1.96921,53.611913],[-1.969519,53.611975],[-1.96982,53.612045],[-1.97009,53.612108],[-1.97033,53.612163],[-1.97054,53.612211],[-1.97072,53.612251],[-1.970939,53.612267],[-1.971196,53.612258],[-1.971491,53.612225],[-1.971826,53.612167],[-1.97219,53.612114],[-1.972583,53.612067],[-1.973006,53.612025],[-1.973459,53.611988],[-1.973907,53.61196],[-1.974351,53.611941],[-1.97479,53.611931],[-1.975224,53.61193],[-1.975589,53.611879],[-1.975883,53.611779],[-1.976107,53.61163],[-1.976261,53.611432],[-1.976477,53.611363],[-1.976753,53.611423],[-1.977091,53.611612],[-1.97749,53.61193],[-1.97786,53.612182],[-1.978201,53.612368],[-1.978513,53.612489],[-1.978795,53.612544],[-1.979103,53.612638],[-1.979435,53.612772],[-1.979793,53.612944],[-1.980176,53.613155]]]}}