{"type":"Feature","properties":{"id":"269028","COMMUNE":"West Moray","PROVINCE":"Inverness & Nairn and Moray, Badenoch & Strathspey","COUNTRY":"UK","FIREDATE":"2025-03-20 12:17:00","FINALDATE":"2025-03-20 12:17:00","CLASS":"FireSeason","areaHA_geo":6.625},"geometry":{"type":"Polygon","coordinates":[[[-3.398826,57.245264],[-3.399,57.245258],[-3.399155,57.245187],[-3.399289,57.245053],[-3.399405,57.244854],[-3.399526,57.244684],[-3.399655,57.244542],[-3.39979,57.244429],[-3.399932,57.244344],[-3.400068,57.244313],[-3.400199,57.244334],[-3.400323,57.244409],[-3.400441,57.244537],[-3.400564,57.244618],[-3.400692,57.244652],[-3.400824,57.244638],[-3.40096,57.244577],[-3.401104,57.244469],[-3.401256,57.244313],[-3.401417,57.24411],[-3.401585,57.243859],[-3.401714,57.243661],[-3.401805,57.243515],[-3.401858,57.243422],[-3.401872,57.243381],[-3.401903,57.243318],[-3.401951,57.243231],[-3.402015,57.243121],[-3.402097,57.242988],[-3.402084,57.242865],[-3.401978,57.242751],[-3.401778,57.242647],[-3.401485,57.242553],[-3.401219,57.242465],[-3.400981,57.242385],[-3.400771,57.242311],[-3.400588,57.242244],[-3.40041,57.242171],[-3.400238,57.242091],[-3.40007,57.242006],[-3.399907,57.241913],[-3.399741,57.241845],[-3.399574,57.2418],[-3.399404,57.241778],[-3.399232,57.24178],[-3.399065,57.241807],[-3.398904,57.241859],[-3.398748,57.241935],[-3.398598,57.242036],[-3.398478,57.242082],[-3.398387,57.242071],[-3.398328,57.242006],[-3.398298,57.241884],[-3.398246,57.241792],[-3.398173,57.241729],[-3.398079,57.241696],[-3.397962,57.241693],[-3.397869,57.241774],[-3.3978,57.241941],[-3.397755,57.242193],[-3.397733,57.24253],[-3.397773,57.242808],[-3.397874,57.243028],[-3.398037,57.243188],[-3.398261,57.24329],[-3.398406,57.243391],[-3.398472,57.243494],[-3.398458,57.243596],[-3.398366,57.243699],[-3.398268,57.243785],[-3.398163,57.243854],[-3.398053,57.243907],[-3.397936,57.243942],[-3.397862,57.244006],[-3.397831,57.244099],[-3.397843,57.24422],[-3.397897,57.24437],[-3.397969,57.24449],[-3.398059,57.244578],[-3.398166,57.244635],[-3.398291,57.244661],[-3.398376,57.244707],[-3.398421,57.244772],[-3.398427,57.244857],[-3.398393,57.244962],[-3.398416,57.245055],[-3.398495,57.245136],[-3.398632,57.245206],[-3.398826,57.245264]]]}}