{"type":"Feature","properties":{"id":"269046","COMMUNE":"Inverness and Nairn","PROVINCE":"Inverness & Nairn and Moray, Badenoch & Strathspey","COUNTRY":"UK","FIREDATE":"2025-03-19 14:16:00","CLASS":"FireSeason","areaHA_geo":4.383},"geometry":{"type":"Polygon","coordinates":[[[-4.3581,57.275314],[-4.358241,57.275259],[-4.358403,57.275146],[-4.358586,57.274976],[-4.358788,57.274748],[-4.35894,57.274565],[-4.359041,57.274427],[-4.359091,57.274333],[-4.35909,57.274283],[-4.359055,57.274236],[-4.358985,57.274192],[-4.35888,57.274152],[-4.35874,57.274115],[-4.358662,57.274075],[-4.358645,57.274032],[-4.35869,57.273986],[-4.358796,57.273936],[-4.358924,57.273905],[-4.359074,57.273893],[-4.359246,57.273898],[-4.35944,57.273922],[-4.359608,57.273931],[-4.35975,57.273927],[-4.359865,57.273908],[-4.359955,57.273876],[-4.359939,57.273823],[-4.359817,57.273749],[-4.35959,57.273654],[-4.359258,57.273538],[-4.358964,57.273433],[-4.358707,57.273339],[-4.358488,57.273255],[-4.358307,57.273183],[-4.358177,57.273125],[-4.358097,57.273081],[-4.358068,57.273052],[-4.35809,57.273037],[-4.358135,57.273014],[-4.358202,57.272985],[-4.358291,57.272947],[-4.358404,57.272902],[-4.358528,57.272862],[-4.358664,57.272825],[-4.358812,57.272793],[-4.358973,57.272766],[-4.359114,57.272748],[-4.359236,57.272741],[-4.359339,57.272744],[-4.359423,57.272757],[-4.359465,57.272773],[-4.359465,57.27279],[-4.359423,57.27281],[-4.359339,57.272832],[-4.359257,57.272856],[-4.359177,57.272882],[-4.359099,57.272911],[-4.359023,57.272941],[-4.358978,57.272981],[-4.358965,57.27303],[-4.358983,57.273088],[-4.359032,57.273155],[-4.359094,57.273201],[-4.359168,57.273225],[-4.359255,57.273228],[-4.359354,57.27321],[-4.359447,57.273184],[-4.359534,57.273151],[-4.359614,57.27311],[-4.359688,57.273062],[-4.359743,57.27301],[-4.359778,57.272953],[-4.359795,57.272893],[-4.359793,57.272828],[-4.35977,57.272768],[-4.359725,57.272713],[-4.359659,57.272663],[-4.359572,57.272617],[-4.35945,57.272593],[-4.359294,57.272589],[-4.359102,57.272605],[-4.358876,57.272643],[-4.358691,57.272654],[-4.358547,57.27264],[-4.358443,57.272601],[-4.358381,57.272535],[-4.358302,57.272482],[-4.358208,57.272443],[-4.358098,57.272416],[-4.357972,57.272402],[-4.357841,57.272426],[-4.357703,57.272488],[-4.357558,57.272587],[-4.357408,57.272723],[-4.357277,57.272852],[-4.357164,57.272973],[-4.357071,57.273087],[-4.356996,57.273193],[-4.356973,57.273267],[-4.357002,57.27331],[-4.357082,57.273322],[-4.357213,57.273302],[-4.357313,57.273302],[-4.357383,57.273321],[-4.357422,57.273358],[-4.35743,57.273415],[-4.357426,57.273466],[-4.357409,57.273511],[-4.357379,57.273552],[-4.357337,57.273586],[-4.357263,57.273609],[-4.357156,57.273619],[-4.357016,57.273618],[-4.356845,57.273604],[-4.356666,57.27365],[-4.356479,57.273754],[-4.356286,57.273917],[-4.356086,57.274139],[-4.355946,57.274318],[-4.355867,57.274453],[-4.355848,57.274544],[-4.35589,57.274592],[-4.355901,57.274641],[-4.355882,57.274692],[-4.355832,57.274745],[-4.355751,57.274799],[-4.355705,57.274852],[-4.355693,57.274906],[-4.355716,57.27496],[-4.355774,57.275013],[-4.355838,57.275062],[-4.355909,57.275105],[-4.355985,57.275144],[-4.356067,57.275177],[-4.35615,57.275194],[-4.356233,57.275193],[-4.356317,57.275176],[-4.356401,57.275142],[-4.356512,57.275116],[-4.356652,57.2751],[-4.356819,57.275092],[-4.357014,57.275093],[-4.35719,57.275107],[-4.357349,57.275135],[-4.35749,57.275175],[-4.357613,57.275229],[-4.357735,57.27527],[-4.357857,57.275298],[-4.357979,57.275313],[-4.3581,57.275314]]]}}