{"type":"Feature","properties":{"id":"269037","COMMUNE":"Badenoch and Strathspey","PROVINCE":"Inverness & Nairn and Moray, Badenoch & Strathspey","COUNTRY":"UK","FIREDATE":"2025-03-20 13:08:00","CLASS":"FireSeason","areaHA_geo":3.037},"geometry":{"type":"Polygon","coordinates":[[[-4.305314,57.029936],[-4.3054,57.029984],[-4.305515,57.030007],[-4.305661,57.030006],[-4.305836,57.029981],[-4.305971,57.029948],[-4.306065,57.029907],[-4.306117,57.029859],[-4.306129,57.029804],[-4.306151,57.029755],[-4.306183,57.029712],[-4.306225,57.029676],[-4.306277,57.029646],[-4.306325,57.029614],[-4.306369,57.02958],[-4.306408,57.029544],[-4.306443,57.029505],[-4.306496,57.029473],[-4.306566,57.029447],[-4.306654,57.029428],[-4.30676,57.029415],[-4.306835,57.029415],[-4.306881,57.02943],[-4.306897,57.029458],[-4.306883,57.0295],[-4.306863,57.029545],[-4.306836,57.029592],[-4.306804,57.029642],[-4.306766,57.029694],[-4.306763,57.029733],[-4.306795,57.029757],[-4.306861,57.029767],[-4.306962,57.029764],[-4.307064,57.02976],[-4.307166,57.029757],[-4.30727,57.029755],[-4.307374,57.029752],[-4.307466,57.029742],[-4.307547,57.029725],[-4.307616,57.029701],[-4.307673,57.029669],[-4.307732,57.029636],[-4.307793,57.029601],[-4.307857,57.029565],[-4.307923,57.029528],[-4.308037,57.029484],[-4.3082,57.029433],[-4.308412,57.029376],[-4.308673,57.029313],[-4.308913,57.029249],[-4.309131,57.029185],[-4.309329,57.029121],[-4.309506,57.029056],[-4.309649,57.028984],[-4.309756,57.028903],[-4.309829,57.028815],[-4.309866,57.028719],[-4.309866,57.0286],[-4.309828,57.028459],[-4.309752,57.028294],[-4.309639,57.028107],[-4.309529,57.027973],[-4.309423,57.027893],[-4.309322,57.027866],[-4.309224,57.027894],[-4.309129,57.027919],[-4.309036,57.027943],[-4.308945,57.027965],[-4.308856,57.027986],[-4.308748,57.028016],[-4.308623,57.028056],[-4.308479,57.028106],[-4.308317,57.028166],[-4.308172,57.028217],[-4.308045,57.028257],[-4.307936,57.028287],[-4.307844,57.028308],[-4.307764,57.028328],[-4.307695,57.028347],[-4.307638,57.028365],[-4.307592,57.028382],[-4.307541,57.028415],[-4.307487,57.028463],[-4.307427,57.028526],[-4.307364,57.028606],[-4.30728,57.02866],[-4.307175,57.02869],[-4.307049,57.028695],[-4.306903,57.028675],[-4.306783,57.028677],[-4.306687,57.028702],[-4.306617,57.028749],[-4.306572,57.028819],[-4.306522,57.02888],[-4.306469,57.028932],[-4.306412,57.028976],[-4.306351,57.029012],[-4.306262,57.02906],[-4.306144,57.029121],[-4.305998,57.029195],[-4.305824,57.029282],[-4.30567,57.029369],[-4.305534,57.029455],[-4.305418,57.029541],[-4.305321,57.029627],[-4.305262,57.02971],[-4.305241,57.029789],[-4.305259,57.029864],[-4.305314,57.029936]]]}}