{"type":"Feature","properties":{"id":"269029","COMMUNE":"West Moray","PROVINCE":"Inverness & Nairn and Moray, Badenoch & Strathspey","COUNTRY":"UK","FIREDATE":"2025-04-04 13:25:00","CLASS":"FireSeason","areaHA_geo":4.171},"geometry":{"type":"Polygon","coordinates":[[[-3.439738,57.244951],[-3.440939,57.244859],[-3.441871,57.244669],[-3.442533,57.244383],[-3.442926,57.243999],[-3.443142,57.243701],[-3.443179,57.243487],[-3.443038,57.243357],[-3.442719,57.243312],[-3.442456,57.24329],[-3.442248,57.243292],[-3.442095,57.243318],[-3.441998,57.243367],[-3.441857,57.243395],[-3.441672,57.243403],[-3.441444,57.243389],[-3.441172,57.243355],[-3.440901,57.243322],[-3.440631,57.243292],[-3.440361,57.243263],[-3.440092,57.243236],[-3.439846,57.243223],[-3.439623,57.243223],[-3.439422,57.243235],[-3.439245,57.243262],[-3.439048,57.243276],[-3.438833,57.243279],[-3.4386,57.24327],[-3.438347,57.243249],[-3.438146,57.243258],[-3.437994,57.243297],[-3.437893,57.243366],[-3.437843,57.243465],[-3.437882,57.243554],[-3.438012,57.243634],[-3.438233,57.243705],[-3.438543,57.243766],[-3.438788,57.243796],[-3.438967,57.243793],[-3.43908,57.243758],[-3.439127,57.24369],[-3.439238,57.243648],[-3.439411,57.24363],[-3.439648,57.243637],[-3.439947,57.243668],[-3.440172,57.243742],[-3.440323,57.243859],[-3.440399,57.244019],[-3.440401,57.244221],[-3.440123,57.244378],[-3.439566,57.24449],[-3.43873,57.244557],[-3.437615,57.244579],[-3.436786,57.244615],[-3.436243,57.244667],[-3.435987,57.244735],[-3.436017,57.244817],[-3.436407,57.24488],[-3.437157,57.244924],[-3.438267,57.244947],[-3.439738,57.244951]]]}}