{"type":"Feature","properties":{"id":"269034","COMMUNE":"West Moray","PROVINCE":"Inverness & Nairn and Moray, Badenoch & Strathspey","COUNTRY":"UK","FIREDATE":"2025-04-01 14:22:00","CLASS":"FireSeason","areaHA_geo":1.99},"geometry":{"type":"Polygon","coordinates":[[[-3.211703,57.415664],[-3.2117,57.415628],[-3.21169,57.415597],[-3.211674,57.415571],[-3.211651,57.41555],[-3.211622,57.415533],[-3.211599,57.415507],[-3.211583,57.41547],[-3.211573,57.415425],[-3.21157,57.415369],[-3.211549,57.415328],[-3.211511,57.4153],[-3.211455,57.415287],[-3.211382,57.415287],[-3.211312,57.415277],[-3.211246,57.415257],[-3.211185,57.415226],[-3.211127,57.415185],[-3.211092,57.415146],[-3.21108,57.415109],[-3.211091,57.415073],[-3.211126,57.415039],[-3.211161,57.415001],[-3.211198,57.41496],[-3.211236,57.414915],[-3.211275,57.414866],[-3.211282,57.414821],[-3.211256,57.414782],[-3.211197,57.414747],[-3.211106,57.414717],[-3.211062,57.414685],[-3.211063,57.414651],[-3.21111,57.414617],[-3.211204,57.41458],[-3.211285,57.414565],[-3.211354,57.414572],[-3.211411,57.4146],[-3.211456,57.414649],[-3.211524,57.414678],[-3.211615,57.414687],[-3.21173,57.414675],[-3.211869,57.414643],[-3.211991,57.414618],[-3.212098,57.414599],[-3.212189,57.414587],[-3.212263,57.414581],[-3.21231,57.414562],[-3.212328,57.414529],[-3.212318,57.414484],[-3.21228,57.414425],[-3.212282,57.414381],[-3.212322,57.414354],[-3.212401,57.414342],[-3.212519,57.414347],[-3.212617,57.414341],[-3.212693,57.414326],[-3.212748,57.414302],[-3.212783,57.414268],[-3.212788,57.414231],[-3.212763,57.414191],[-3.21271,57.414149],[-3.212627,57.414103],[-3.212537,57.41407],[-3.212441,57.414048],[-3.212338,57.414038],[-3.212229,57.41404],[-3.212143,57.414021],[-3.21208,57.413982],[-3.212041,57.413922],[-3.212025,57.413841],[-3.211987,57.413773],[-3.211925,57.413718],[-3.211841,57.413676],[-3.211734,57.413647],[-3.211622,57.413627],[-3.211506,57.413614],[-3.211385,57.41361],[-3.21126,57.413614],[-3.211161,57.413611],[-3.21109,57.413603],[-3.211046,57.413589],[-3.211029,57.41357],[-3.210999,57.413553],[-3.210958,57.413539],[-3.210904,57.413528],[-3.210838,57.413521],[-3.210773,57.413506],[-3.21071,57.413484],[-3.210649,57.413456],[-3.21059,57.413421],[-3.210515,57.413382],[-3.210424,57.413339],[-3.210318,57.413292],[-3.210197,57.413241],[-3.210081,57.413193],[-3.209971,57.413146],[-3.209867,57.413102],[-3.209768,57.41306],[-3.209678,57.41303],[-3.209597,57.413012],[-3.209524,57.413007],[-3.209459,57.413013],[-3.209441,57.413033],[-3.209468,57.413066],[-3.20954,57.413113],[-3.209658,57.413173],[-3.209743,57.413232],[-3.209795,57.413292],[-3.209813,57.413351],[-3.209797,57.41341],[-3.209799,57.413461],[-3.209818,57.413504],[-3.209854,57.413539],[-3.209907,57.413566],[-3.20995,57.413596],[-3.209983,57.413628],[-3.210007,57.413664],[-3.210021,57.413702],[-3.210053,57.413742],[-3.210103,57.413783],[-3.210171,57.413827],[-3.210257,57.413872],[-3.210334,57.413945],[-3.210403,57.414047],[-3.210462,57.414177],[-3.210512,57.414336],[-3.210546,57.414466],[-3.210563,57.414569],[-3.210563,57.414643],[-3.210546,57.41469],[-3.210539,57.414748],[-3.210541,57.414818],[-3.210552,57.414899],[-3.210572,57.414992],[-3.210592,57.415075],[-3.210611,57.415148],[-3.21063,57.41521],[-3.210649,57.415262],[-3.210677,57.4153],[-3.210713,57.415323],[-3.210759,57.415332],[-3.210814,57.415326],[-3.210872,57.415351],[-3.210934,57.415407],[-3.210999,57.415494],[-3.211068,57.41561],[-3.21113,57.415691],[-3.211186,57.415735],[-3.211235,57.415742],[-3.211278,57.415712],[-3.211333,57.415693],[-3.2114,57.415685],[-3.211479,57.415687],[-3.21157,57.415699],[-3.211638,57.415699],[-3.211682,57.415688],[-3.211703,57.415664]]]}}