{"type":"Feature","properties":{"id":"269041","COMMUNE":"Badenoch and Strathspey","PROVINCE":"Inverness & Nairn and Moray, Badenoch & Strathspey","COUNTRY":"UK","FIREDATE":"2025-03-17 14:03:00","FINALDATE":"2025-03-18 13:46:00","CLASS":"FireSeason","areaHA_geo":0.308},"geometry":{"type":"Polygon","coordinates":[[[-4.136665,57.09306],[-4.136753,57.093166],[-4.136839,57.093207],[-4.136923,57.093183],[-4.137005,57.093094],[-4.137092,57.093033],[-4.137185,57.093001],[-4.137285,57.092996],[-4.13739,57.093019],[-4.137487,57.093028],[-4.137578,57.093021],[-4.137661,57.093],[-4.137737,57.092964],[-4.137761,57.092917],[-4.137733,57.092859],[-4.137652,57.09279],[-4.137519,57.092711],[-4.137364,57.092654],[-4.137187,57.092619],[-4.136989,57.092607],[-4.136768,57.092617],[-4.136625,57.092667],[-4.136561,57.092758],[-4.136574,57.092889],[-4.136665,57.09306]]]}}