{"type":"Feature","properties":{"id":"269049","COMMUNE":"Inverness and Nairn","PROVINCE":"Inverness & Nairn and Moray, Badenoch & Strathspey","COUNTRY":"UK","FIREDATE":"2025-03-19 12:34:00","CLASS":"FireSeason","areaHA_geo":1.139},"geometry":{"type":"Polygon","coordinates":[[[-4.325833,57.25737],[-4.325905,57.257485],[-4.326051,57.257566],[-4.326271,57.257615],[-4.326565,57.25763],[-4.326828,57.257623],[-4.32706,57.257594],[-4.327262,57.257542],[-4.327432,57.257467],[-4.327548,57.257437],[-4.327609,57.257453],[-4.327616,57.257513],[-4.327568,57.257618],[-4.32759,57.257697],[-4.327681,57.257751],[-4.327841,57.257779],[-4.328071,57.257782],[-4.328249,57.257746],[-4.328375,57.257672],[-4.32845,57.25756],[-4.328473,57.25741],[-4.328433,57.257284],[-4.32833,57.257182],[-4.328165,57.257103],[-4.327937,57.257048],[-4.327734,57.257015],[-4.327556,57.257003],[-4.327402,57.257012],[-4.327274,57.257042],[-4.327168,57.257045],[-4.327085,57.257023],[-4.327026,57.256973],[-4.326989,57.256898],[-4.326922,57.256844],[-4.326825,57.256813],[-4.326698,57.256804],[-4.32654,57.256817],[-4.326393,57.256838],[-4.326256,57.256865],[-4.326129,57.256899],[-4.326012,57.256939],[-4.325924,57.257007],[-4.325865,57.257101],[-4.325834,57.257222],[-4.325833,57.25737]]]}}