{"type":"Feature","properties":{"id":"269017","COMMUNE":"West Moray","PROVINCE":"Inverness & Nairn and Moray, Badenoch & Strathspey","COUNTRY":"UK","FIREDATE":"2025-03-19 14:16:00","CLASS":"FireSeason","areaHA_geo":9.143},"geometry":{"type":"Polygon","coordinates":[[[-3.469891,57.143468],[-3.470061,57.143605],[-3.470311,57.143635],[-3.470642,57.143559],[-3.471053,57.143376],[-3.471525,57.143197],[-3.472056,57.143023],[-3.472647,57.142853],[-3.473298,57.142688],[-3.473789,57.142545],[-3.474121,57.142427],[-3.474293,57.142332],[-3.474306,57.142261],[-3.474336,57.142173],[-3.474382,57.14207],[-3.474446,57.141952],[-3.474526,57.141817],[-3.474573,57.14169],[-3.474588,57.141569],[-3.474569,57.141455],[-3.474517,57.141348],[-3.474498,57.141252],[-3.474512,57.141167],[-3.474559,57.141092],[-3.474639,57.141027],[-3.474707,57.140912],[-3.474763,57.140745],[-3.474806,57.140526],[-3.474837,57.140257],[-3.474842,57.14003],[-3.474821,57.139847],[-3.474773,57.139706],[-3.474699,57.139609],[-3.474423,57.139569],[-3.473944,57.139587],[-3.473264,57.139663],[-3.472382,57.139796],[-3.471672,57.139986],[-3.471134,57.140231],[-3.470769,57.140531],[-3.470575,57.140888],[-3.470454,57.141167],[-3.470404,57.141368],[-3.470427,57.141492],[-3.470521,57.141538],[-3.470548,57.141595],[-3.470508,57.141662],[-3.4704,57.14174],[-3.470226,57.141828],[-3.470098,57.141931],[-3.470018,57.142048],[-3.469985,57.142179],[-3.469999,57.142325],[-3.469988,57.142454],[-3.469951,57.142567],[-3.469889,57.142662],[-3.469802,57.142742],[-3.469758,57.142862],[-3.469758,57.143023],[-3.469803,57.143225],[-3.469891,57.143468]]]}}