{"type":"Feature","properties":{"id":"269043","COMMUNE":"Badenoch and Strathspey","PROVINCE":"Inverness & Nairn and Moray, Badenoch & Strathspey","COUNTRY":"UK","FIREDATE":"2025-03-17 14:03:00","FINALDATE":"2025-03-18 13:46:00","CLASS":"FireSeason","areaHA_geo":0.236},"geometry":{"type":"Polygon","coordinates":[[[-4.134792,57.091639],[-4.134877,57.091601],[-4.134895,57.091548],[-4.134847,57.091481],[-4.134733,57.0914],[-4.134647,57.091303],[-4.134592,57.091191],[-4.134566,57.091063],[-4.134569,57.09092],[-4.134547,57.090818],[-4.134502,57.090757],[-4.134431,57.090737],[-4.134337,57.090757],[-4.134272,57.090818],[-4.134237,57.09092],[-4.134231,57.091061],[-4.134256,57.091243],[-4.134282,57.091391],[-4.134309,57.091504],[-4.134338,57.091584],[-4.134368,57.091629],[-4.134428,57.091657],[-4.134519,57.091668],[-4.13464,57.091662],[-4.134792,57.091639]]]}}