{"type":"Feature","properties":{"id":"269054","COMMUNE":"Ross and Cromarty","PROVINCE":"Caithness & Sutherland and Ross & Cromarty","COUNTRY":"UK","FIREDATE":"2025-03-30 15:50:57.578","FINALDATE":"2025-03-31 15:51:00.639","CLASS":"FireSeason","areaHA_geo":15.23},"geometry":{"type":"Polygon","coordinates":[[[-5.713327,57.624678],[-5.71355,57.624596],[-5.713735,57.62456],[-5.713882,57.62457],[-5.71399,57.624626],[-5.714061,57.624728],[-5.714148,57.624796],[-5.714253,57.624828],[-5.714375,57.624826],[-5.714514,57.624788],[-5.714602,57.624729],[-5.714638,57.624649],[-5.714623,57.624547],[-5.714556,57.624423],[-5.714658,57.624316],[-5.714929,57.624224],[-5.715369,57.624149],[-5.715978,57.62409],[-5.716448,57.624025],[-5.71678,57.623954],[-5.716973,57.623877],[-5.717028,57.623794],[-5.717119,57.623712],[-5.717246,57.623631],[-5.717408,57.623551],[-5.717607,57.623472],[-5.717807,57.62341],[-5.718007,57.623365],[-5.718209,57.623337],[-5.718411,57.623327],[-5.718673,57.623295],[-5.718993,57.623243],[-5.719373,57.62317],[-5.719811,57.623076],[-5.720207,57.622959],[-5.720561,57.622819],[-5.720872,57.622657],[-5.721142,57.622473],[-5.72126,57.622356],[-5.721226,57.622309],[-5.721041,57.622329],[-5.720704,57.622418],[-5.720419,57.622456],[-5.720186,57.622442],[-5.720006,57.622377],[-5.719878,57.622261],[-5.719668,57.62221],[-5.719377,57.622225],[-5.719003,57.622304],[-5.718548,57.622449],[-5.718208,57.622524],[-5.717985,57.62253],[-5.717876,57.622467],[-5.717883,57.622335],[-5.717935,57.62223],[-5.718031,57.622153],[-5.718171,57.622103],[-5.718356,57.622081],[-5.718501,57.622049],[-5.718606,57.622009],[-5.718672,57.62196],[-5.718699,57.621901],[-5.718662,57.621833],[-5.718564,57.621755],[-5.718403,57.621667],[-5.718179,57.621569],[-5.718054,57.621491],[-5.718028,57.621431],[-5.718102,57.621391],[-5.718274,57.621371],[-5.718401,57.621312],[-5.718482,57.621216],[-5.718518,57.621082],[-5.718508,57.62091],[-5.718448,57.620801],[-5.718337,57.620756],[-5.718176,57.620773],[-5.717966,57.620854],[-5.717799,57.620895],[-5.717676,57.620896],[-5.717598,57.620857],[-5.717563,57.620778],[-5.717555,57.620706],[-5.717572,57.620642],[-5.717615,57.620585],[-5.717684,57.620535],[-5.717698,57.620485],[-5.717657,57.620434],[-5.71756,57.620384],[-5.717409,57.620333],[-5.717276,57.620331],[-5.717161,57.62038],[-5.717064,57.620478],[-5.716986,57.620626],[-5.7169,57.620742],[-5.716807,57.620825],[-5.716707,57.620877],[-5.716599,57.620897],[-5.716477,57.620848],[-5.716341,57.620729],[-5.716192,57.620541],[-5.716028,57.620284],[-5.715876,57.620091],[-5.715736,57.619963],[-5.715608,57.619898],[-5.715492,57.619899],[-5.715399,57.619885],[-5.715329,57.619859],[-5.715283,57.61982],[-5.71526,57.619767],[-5.71527,57.619707],[-5.715311,57.61964],[-5.715386,57.619565],[-5.715493,57.619483],[-5.715504,57.619406],[-5.715421,57.619333],[-5.715242,57.619264],[-5.714968,57.6192],[-5.714768,57.619193],[-5.714641,57.619243],[-5.714587,57.61935],[-5.714606,57.619514],[-5.714654,57.619698],[-5.71473,57.619904],[-5.714835,57.62013],[-5.714968,57.620377],[-5.714999,57.62056],[-5.714928,57.620679],[-5.714754,57.620735],[-5.714479,57.620726],[-5.714157,57.62076],[-5.713788,57.620835],[-5.713373,57.620952],[-5.712911,57.621112],[-5.712568,57.621239],[-5.712345,57.621335],[-5.71224,57.6214],[-5.712254,57.621433],[-5.712254,57.621471],[-5.712241,57.621514],[-5.712213,57.621562],[-5.712172,57.621616],[-5.712147,57.621686],[-5.71214,57.621774],[-5.71215,57.621878],[-5.712176,57.621999],[-5.712202,57.622104],[-5.712227,57.62219],[-5.712251,57.62226],[-5.712274,57.622313],[-5.712313,57.62241],[-5.712368,57.622552],[-5.712439,57.622739],[-5.712527,57.622971],[-5.712602,57.623159],[-5.712665,57.623304],[-5.712716,57.623405],[-5.712754,57.623463],[-5.712768,57.623548],[-5.712758,57.62366],[-5.712725,57.623799],[-5.712667,57.623965],[-5.712672,57.624087],[-5.712738,57.624166],[-5.712867,57.6242],[-5.713057,57.624191],[-5.713178,57.624224],[-5.713229,57.624297],[-5.713211,57.624412],[-5.713123,57.624568],[-5.713113,57.624664],[-5.713181,57.624701],[-5.713327,57.624678]]]}}