{"type":"Feature","properties":{"id":"269032","COMMUNE":"West Moray","PROVINCE":"Inverness & Nairn and Moray, Badenoch & Strathspey","COUNTRY":"UK","FIREDATE":"2025-04-01 13:29:00","FINALDATE":"2025-04-01 13:29:00","CLASS":"FireSeason","areaHA_geo":2.032},"geometry":{"type":"Polygon","coordinates":[[[-3.427419,57.246043],[-3.427248,57.245889],[-3.42713,57.245753],[-3.427066,57.245635],[-3.427054,57.245535],[-3.427096,57.245453],[-3.427111,57.245385],[-3.427099,57.245332],[-3.42706,57.245293],[-3.426993,57.245269],[-3.42694,57.245239],[-3.426898,57.245205],[-3.426869,57.245165],[-3.426853,57.24512],[-3.42679,57.245066],[-3.426681,57.245003],[-3.426525,57.244931],[-3.426323,57.244851],[-3.426164,57.24477],[-3.426048,57.244689],[-3.425975,57.244607],[-3.425945,57.244524],[-3.425916,57.244443],[-3.425887,57.244364],[-3.425859,57.244288],[-3.425832,57.244212],[-3.425793,57.244144],[-3.425742,57.244084],[-3.425679,57.24403],[-3.425604,57.243983],[-3.425516,57.243939],[-3.425415,57.243899],[-3.425301,57.243862],[-3.425174,57.243829],[-3.425067,57.243783],[-3.424982,57.243726],[-3.424917,57.243656],[-3.424873,57.243575],[-3.424792,57.243531],[-3.424674,57.243524],[-3.424519,57.243553],[-3.424327,57.24362],[-3.424188,57.243681],[-3.4241,57.243737],[-3.424064,57.243787],[-3.424081,57.243832],[-3.424107,57.243874],[-3.424143,57.243913],[-3.424188,57.24395],[-3.424243,57.243983],[-3.424358,57.2441],[-3.424531,57.2443],[-3.424764,57.244583],[-3.425056,57.24495],[-3.42532,57.245221],[-3.425556,57.245395],[-3.425765,57.245473],[-3.425945,57.245455],[-3.426111,57.245476],[-3.426264,57.245539],[-3.426402,57.245641],[-3.426526,57.245784],[-3.426648,57.245912],[-3.426768,57.246024],[-3.426886,57.246121],[-3.427002,57.246202],[-3.42712,57.24626],[-3.427241,57.246295],[-3.427363,57.246305],[-3.427488,57.246292],[-3.427539,57.246244],[-3.427516,57.246161],[-3.427419,57.246043]]]}}