{"type":"Feature","properties":{"id":"269066","COMMUNE":"Mid Ulster","PROVINCE":"Mid Ulster","COUNTRY":"UK","FIREDATE":"2025-04-05 16:30:23.733","FINALDATE":"2025-04-06 16:30:27.055","CLASS":"FireSeason","areaHA_geo":7.034},"geometry":{"type":"Polygon","coordinates":[[[-7.272977,54.421149],[-7.273031,54.421191],[-7.273107,54.421189],[-7.273204,54.421142],[-7.273323,54.421051],[-7.273428,54.420991],[-7.273521,54.420961],[-7.273601,54.420961],[-7.273669,54.420991],[-7.273757,54.421009],[-7.273865,54.421015],[-7.273994,54.421009],[-7.274144,54.42099],[-7.274271,54.420993],[-7.274375,54.421017],[-7.274455,54.421062],[-7.274513,54.421128],[-7.274581,54.421174],[-7.274659,54.4212],[-7.274746,54.421206],[-7.274844,54.421192],[-7.274945,54.421155],[-7.27505,54.421094],[-7.275158,54.42101],[-7.27527,54.420903],[-7.275341,54.420793],[-7.275372,54.420681],[-7.275361,54.420565],[-7.275311,54.420447],[-7.275247,54.420355],[-7.275169,54.420289],[-7.275078,54.420249],[-7.274974,54.420235],[-7.274893,54.4202],[-7.274837,54.420142],[-7.274804,54.420063],[-7.274795,54.419961],[-7.274767,54.419846],[-7.274719,54.419718],[-7.274652,54.419575],[-7.274565,54.419419],[-7.274419,54.419239],[-7.274212,54.419033],[-7.273946,54.418802],[-7.27362,54.418546],[-7.273351,54.418323],[-7.273139,54.418134],[-7.272984,54.417977],[-7.272887,54.417854],[-7.272799,54.417765],[-7.272718,54.417709],[-7.272646,54.417688],[-7.272582,54.4177],[-7.272529,54.417738],[-7.272488,54.417802],[-7.272458,54.417893],[-7.272439,54.418009],[-7.272395,54.418102],[-7.272325,54.41817],[-7.272231,54.418214],[-7.272111,54.418234],[-7.272002,54.418236],[-7.271904,54.41822],[-7.271817,54.418186],[-7.271741,54.418134],[-7.271647,54.418096],[-7.271536,54.418072],[-7.271407,54.418062],[-7.27126,54.418065],[-7.271123,54.418085],[-7.270996,54.41812],[-7.270877,54.418171],[-7.270768,54.418238],[-7.270667,54.418284],[-7.270574,54.41831],[-7.270491,54.418316],[-7.270415,54.418301],[-7.270345,54.418264],[-7.270281,54.418207],[-7.270223,54.418127],[-7.27017,54.418026],[-7.270159,54.417938],[-7.270191,54.417862],[-7.270264,54.417799],[-7.270381,54.417748],[-7.270411,54.417713],[-7.270355,54.417692],[-7.270214,54.417687],[-7.269986,54.417696],[-7.269838,54.417738],[-7.269769,54.417814],[-7.26978,54.417922],[-7.26987,54.418063],[-7.269993,54.41823],[-7.270149,54.418421],[-7.270338,54.418638],[-7.27056,54.41888],[-7.270751,54.419074],[-7.270912,54.41922],[-7.271042,54.419317],[-7.271142,54.419365],[-7.271222,54.419415],[-7.271284,54.419466],[-7.271326,54.419519],[-7.271349,54.419573],[-7.271348,54.41961],[-7.271322,54.41963],[-7.271272,54.419635],[-7.271198,54.419622],[-7.271109,54.419603],[-7.271007,54.419576],[-7.27089,54.419542],[-7.270759,54.419501],[-7.270683,54.419488],[-7.270663,54.419504],[-7.270698,54.419548],[-7.270788,54.419621],[-7.270866,54.419685],[-7.270932,54.419741],[-7.270986,54.419789],[-7.271028,54.419829],[-7.271077,54.419881],[-7.271133,54.419944],[-7.271198,54.420019],[-7.271269,54.420106],[-7.271316,54.420149],[-7.271338,54.420149],[-7.271335,54.420105],[-7.271308,54.420017],[-7.271312,54.41995],[-7.271349,54.419904],[-7.271418,54.419878],[-7.271519,54.419872],[-7.271625,54.419896],[-7.271737,54.41995],[-7.271854,54.420034],[-7.271977,54.420148],[-7.272093,54.420257],[-7.272202,54.420363],[-7.272305,54.420465],[-7.272401,54.420562],[-7.272495,54.420649],[-7.272587,54.420726],[-7.272677,54.420792],[-7.272765,54.420848],[-7.272839,54.420912],[-7.272899,54.420983],[-7.272945,54.421062],[-7.272977,54.421149]]]}}