{"type":"Feature","properties":{"id":"269025","COMMUNE":"West Moray","PROVINCE":"Inverness & Nairn and Moray, Badenoch & Strathspey","COUNTRY":"UK","FIREDATE":"2025-04-01 13:29:00","CLASS":"FireSeason","areaHA_geo":1.575},"geometry":{"type":"Polygon","coordinates":[[[-3.33492,57.124451],[-3.335114,57.124658],[-3.335344,57.124797],[-3.335609,57.124867],[-3.335909,57.124869],[-3.336114,57.124826],[-3.336224,57.124737],[-3.33624,57.124604],[-3.33616,57.124425],[-3.336134,57.12428],[-3.336161,57.124167],[-3.336241,57.124088],[-3.336374,57.124042],[-3.336452,57.123916],[-3.336476,57.123711],[-3.336444,57.123426],[-3.336358,57.123061],[-3.336255,57.122785],[-3.336136,57.122599],[-3.336,57.122501],[-3.335847,57.122492],[-3.335727,57.122533],[-3.33564,57.122623],[-3.335585,57.122763],[-3.335563,57.122952],[-3.335555,57.123137],[-3.335561,57.123319],[-3.33558,57.123498],[-3.335613,57.123673],[-3.335567,57.123794],[-3.335441,57.12386],[-3.335235,57.12387],[-3.33495,57.123827],[-3.334776,57.123863],[-3.334713,57.123979],[-3.334761,57.124175],[-3.33492,57.124451]]]}}