{"type":"Feature","properties":{"id":"269055","COMMUNE":"Ross and Cromarty","PROVINCE":"Caithness & Sutherland and Ross & Cromarty","COUNTRY":"UK","FIREDATE":"2025-03-30 15:50:47.4","CLASS":"FireSeason","areaHA_geo":27.057},"geometry":{"type":"Polygon","coordinates":[[[-5.707557,57.626527],[-5.708073,57.626312],[-5.708447,57.626115],[-5.708679,57.625935],[-5.708771,57.625772],[-5.70872,57.625626],[-5.708714,57.625486],[-5.708754,57.625353],[-5.708838,57.625227],[-5.708968,57.625108],[-5.709063,57.625],[-5.709125,57.624902],[-5.709152,57.624816],[-5.709145,57.624741],[-5.709164,57.624666],[-5.70921,57.624591],[-5.709281,57.624517],[-5.709378,57.624443],[-5.70947,57.624371],[-5.709557,57.624302],[-5.709638,57.624235],[-5.709713,57.624171],[-5.709804,57.624111],[-5.70991,57.624057],[-5.710031,57.624008],[-5.710168,57.623964],[-5.710277,57.623918],[-5.71036,57.62387],[-5.710416,57.62382],[-5.710445,57.623768],[-5.710498,57.623725],[-5.710574,57.623692],[-5.710674,57.623668],[-5.710797,57.623653],[-5.710932,57.623607],[-5.71108,57.623531],[-5.711241,57.623423],[-5.711414,57.623285],[-5.711525,57.623168],[-5.711574,57.623072],[-5.711561,57.622997],[-5.711486,57.622944],[-5.711421,57.622876],[-5.711365,57.622792],[-5.711319,57.622694],[-5.711283,57.622581],[-5.711208,57.62252],[-5.711095,57.622513],[-5.710943,57.622559],[-5.710753,57.622658],[-5.71059,57.622766],[-5.710453,57.622883],[-5.710342,57.623009],[-5.710258,57.623143],[-5.710178,57.623264],[-5.710101,57.62337],[-5.710027,57.623462],[-5.709957,57.623539],[-5.709869,57.623612],[-5.709763,57.62368],[-5.709638,57.623744],[-5.709495,57.623802],[-5.709347,57.623872],[-5.709195,57.623953],[-5.709037,57.624044],[-5.708874,57.624147],[-5.708715,57.624235],[-5.70856,57.624309],[-5.708408,57.624369],[-5.708259,57.624415],[-5.708046,57.624424],[-5.70777,57.624399],[-5.707429,57.624338],[-5.707025,57.624241],[-5.706715,57.624147],[-5.7065,57.624055],[-5.706381,57.623965],[-5.706356,57.623878],[-5.70631,57.623787],[-5.706242,57.623691],[-5.706153,57.623591],[-5.706043,57.623487],[-5.705998,57.623383],[-5.706019,57.62328],[-5.706104,57.623178],[-5.706254,57.623077],[-5.706421,57.623022],[-5.706606,57.623014],[-5.706807,57.623052],[-5.707025,57.623137],[-5.707244,57.623225],[-5.707465,57.623316],[-5.707687,57.62341],[-5.707911,57.623508],[-5.70814,57.623558],[-5.708374,57.623561],[-5.708614,57.623517],[-5.708859,57.623425],[-5.708951,57.623338],[-5.708889,57.623256],[-5.708674,57.623178],[-5.708305,57.623104],[-5.70797,57.623034],[-5.707669,57.622966],[-5.707401,57.622901],[-5.707167,57.62284],[-5.706951,57.622767],[-5.706753,57.622683],[-5.706573,57.622589],[-5.706411,57.622484],[-5.706277,57.622377],[-5.706172,57.622269],[-5.706095,57.622158],[-5.706046,57.622047],[-5.705956,57.621912],[-5.705823,57.621755],[-5.705648,57.621575],[-5.70543,57.621373],[-5.70527,57.621205],[-5.705167,57.621073],[-5.705121,57.620974],[-5.705133,57.620911],[-5.705195,57.620837],[-5.705308,57.620755],[-5.705472,57.620662],[-5.705686,57.62056],[-5.705839,57.620464],[-5.705929,57.620374],[-5.705957,57.620289],[-5.705923,57.62021],[-5.705865,57.62016],[-5.705785,57.620138],[-5.705681,57.620146],[-5.705554,57.620182],[-5.705439,57.620177],[-5.705335,57.62013],[-5.705242,57.620043],[-5.70516,57.619914],[-5.70512,57.619808],[-5.705123,57.619725],[-5.705168,57.619664],[-5.705255,57.619626],[-5.705357,57.619608],[-5.705475,57.619612],[-5.705609,57.619635],[-5.705757,57.61968],[-5.705869,57.619684],[-5.705944,57.619647],[-5.705981,57.61957],[-5.705982,57.619452],[-5.705976,57.61932],[-5.705964,57.619172],[-5.705946,57.61901],[-5.705921,57.618833],[-5.705889,57.618685],[-5.70585,57.618565],[-5.705804,57.618473],[-5.70575,57.618411],[-5.705721,57.61835],[-5.705715,57.618292],[-5.705733,57.618236],[-5.705774,57.618183],[-5.705788,57.618102],[-5.705773,57.617993],[-5.70573,57.617856],[-5.705658,57.617691],[-5.705684,57.617534],[-5.705807,57.617385],[-5.706027,57.617242],[-5.706344,57.617107],[-5.706584,57.616938],[-5.706749,57.616735],[-5.706837,57.616498],[-5.706848,57.616227],[-5.706822,57.61601],[-5.706758,57.615848],[-5.706657,57.615741],[-5.706518,57.615689],[-5.706365,57.615679],[-5.706198,57.615713],[-5.706018,57.61579],[-5.705824,57.61591],[-5.705651,57.615997],[-5.705499,57.61605],[-5.705369,57.616069],[-5.705259,57.616054],[-5.705108,57.616124],[-5.704916,57.616279],[-5.704683,57.616518],[-5.704409,57.616841],[-5.704226,57.617106],[-5.704134,57.61731],[-5.704132,57.617456],[-5.704221,57.617542],[-5.704273,57.617624],[-5.704287,57.617702],[-5.704264,57.617776],[-5.704204,57.617845],[-5.70416,57.617923],[-5.704133,57.61801],[-5.704122,57.618104],[-5.704128,57.618207],[-5.70414,57.61831],[-5.704158,57.618411],[-5.704183,57.618512],[-5.704213,57.618612],[-5.70419,57.618716],[-5.704113,57.618822],[-5.703982,57.618931],[-5.703798,57.619043],[-5.703633,57.61908],[-5.703487,57.619042],[-5.70336,57.618929],[-5.703253,57.618742],[-5.703147,57.618624],[-5.703043,57.618578],[-5.70294,57.618603],[-5.702839,57.618698],[-5.702707,57.618759],[-5.702543,57.618785],[-5.702349,57.618777],[-5.702124,57.618735],[-5.701947,57.618717],[-5.70182,57.618721],[-5.701742,57.61875],[-5.701712,57.618802],[-5.70172,57.618886],[-5.701763,57.619002],[-5.701844,57.619149],[-5.701961,57.619329],[-5.702006,57.619478],[-5.701979,57.619595],[-5.70188,57.619681],[-5.70171,57.619736],[-5.701612,57.619809],[-5.701586,57.619898],[-5.701632,57.620005],[-5.701751,57.62013],[-5.701821,57.62023],[-5.701841,57.620307],[-5.701813,57.620361],[-5.701735,57.620391],[-5.701688,57.62044],[-5.701672,57.620507],[-5.701687,57.620594],[-5.701733,57.620699],[-5.701754,57.620823],[-5.701751,57.620965],[-5.701724,57.621126],[-5.701672,57.621305],[-5.70164,57.621454],[-5.701627,57.621574],[-5.701633,57.621663],[-5.701659,57.621722],[-5.701673,57.6218],[-5.701676,57.621896],[-5.701668,57.622012],[-5.701648,57.622145],[-5.701672,57.622224],[-5.701741,57.622247],[-5.701853,57.622214],[-5.702009,57.622126],[-5.702158,57.622053],[-5.702301,57.621994],[-5.702437,57.62195],[-5.702567,57.621921],[-5.702683,57.621867],[-5.702785,57.621789],[-5.702873,57.621687],[-5.702948,57.62156],[-5.703036,57.621436],[-5.703138,57.621313],[-5.703254,57.621191],[-5.703383,57.621072],[-5.703517,57.62103],[-5.703656,57.621065],[-5.703798,57.621178],[-5.703946,57.621368],[-5.704038,57.621528],[-5.704075,57.621659],[-5.704057,57.621759],[-5.703984,57.62183],[-5.703903,57.621889],[-5.703813,57.621934],[-5.703713,57.621967],[-5.703606,57.621987],[-5.703494,57.622035],[-5.703378,57.622111],[-5.703258,57.622215],[-5.703134,57.622348],[-5.702999,57.62244],[-5.702854,57.622492],[-5.702697,57.622504],[-5.702529,57.622476],[-5.702375,57.622463],[-5.702234,57.622466],[-5.702106,57.622485],[-5.701992,57.622519],[-5.701929,57.622584],[-5.701918,57.622679],[-5.70196,57.622804],[-5.702053,57.622959],[-5.702127,57.6231],[-5.702183,57.623228],[-5.70222,57.623343],[-5.702238,57.623445],[-5.702229,57.623536],[-5.702192,57.623617],[-5.702129,57.623686],[-5.702038,57.623746],[-5.702002,57.623811],[-5.702019,57.623881],[-5.702091,57.623957],[-5.702217,57.624039],[-5.702261,57.62411],[-5.702222,57.62417],[-5.702101,57.624219],[-5.701898,57.624258],[-5.701732,57.624309],[-5.701604,57.624372],[-5.701514,57.624449],[-5.701463,57.624538],[-5.701498,57.624627],[-5.701621,57.624716],[-5.701831,57.624805],[-5.702129,57.624894],[-5.702359,57.624984],[-5.702521,57.625075],[-5.702616,57.625168],[-5.702644,57.625261],[-5.702685,57.625334],[-5.70274,57.625387],[-5.702809,57.625418],[-5.702892,57.625429],[-5.702993,57.625439],[-5.703114,57.625449],[-5.703254,57.625458],[-5.703413,57.625467],[-5.703667,57.625537],[-5.704015,57.625668],[-5.704458,57.62586],[-5.704995,57.626114],[-5.705452,57.6263],[-5.705826,57.626418],[-5.70612,57.626467],[-5.706332,57.626449],[-5.706499,57.626462],[-5.706622,57.626506],[-5.7067,57.626581],[-5.706734,57.626688],[-5.706887,57.626714],[-5.707162,57.626661],[-5.707557,57.626527]]]}}