{"type":"Feature","properties":{"id":"269018","COMMUNE":"West Moray","PROVINCE":"Inverness & Nairn and Moray, Badenoch & Strathspey","COUNTRY":"UK","FIREDATE":"2025-03-19 15:03:31.732","FINALDATE":"2025-03-20 15:03:34.752","CLASS":"FireSeason","areaHA_geo":3.419},"geometry":{"type":"Polygon","coordinates":[[[-3.4863,57.139467],[-3.486411,57.139445],[-3.486555,57.139325],[-3.486731,57.139107],[-3.486939,57.138791],[-3.487107,57.138588],[-3.487236,57.138497],[-3.487325,57.13852],[-3.487374,57.138655],[-3.487433,57.138782],[-3.487503,57.138901],[-3.487582,57.139012],[-3.487671,57.139115],[-3.487733,57.139215],[-3.487769,57.139313],[-3.487778,57.139409],[-3.48776,57.139502],[-3.487771,57.139585],[-3.48781,57.139658],[-3.487878,57.139721],[-3.487975,57.139774],[-3.488061,57.139786],[-3.488134,57.139757],[-3.488196,57.139688],[-3.488246,57.139577],[-3.488323,57.139503],[-3.488425,57.139464],[-3.488553,57.139461],[-3.488707,57.139494],[-3.488845,57.139499],[-3.488966,57.139476],[-3.48907,57.139425],[-3.489157,57.139346],[-3.489272,57.139271],[-3.489415,57.1392],[-3.489584,57.139133],[-3.489781,57.139071],[-3.489918,57.13895],[-3.489995,57.13877],[-3.490011,57.138532],[-3.489968,57.138235],[-3.489781,57.138014],[-3.489451,57.13787],[-3.488977,57.137802],[-3.488359,57.13781],[-3.487887,57.137825],[-3.487559,57.137849],[-3.487376,57.13788],[-3.487339,57.137919],[-3.487279,57.137932],[-3.487197,57.13792],[-3.487093,57.137881],[-3.486966,57.137818],[-3.486829,57.137823],[-3.486682,57.137898],[-3.486524,57.138042],[-3.486356,57.138256],[-3.486224,57.138441],[-3.486126,57.138599],[-3.486063,57.138728],[-3.486035,57.138829],[-3.486042,57.138902],[-3.486084,57.138946],[-3.486161,57.138963],[-3.486274,57.138951],[-3.486336,57.138964],[-3.48635,57.139001],[-3.486314,57.139063],[-3.486229,57.139149],[-3.486185,57.139232],[-3.486182,57.139313],[-3.48622,57.139391],[-3.4863,57.139467]]]}}