{"type":"Feature","properties":{"id":"269021","COMMUNE":"West Moray","PROVINCE":"Inverness & Nairn and Moray, Badenoch & Strathspey","COUNTRY":"UK","FIREDATE":"2025-04-01 12:42:00","CLASS":"FireSeason","areaHA_geo":2.212},"geometry":{"type":"Polygon","coordinates":[[[-3.357785,57.130697],[-3.357774,57.130741],[-3.357811,57.130782],[-3.357896,57.130819],[-3.358029,57.130855],[-3.358164,57.130835],[-3.358301,57.13076],[-3.358441,57.130629],[-3.358584,57.130444],[-3.358691,57.130273],[-3.358761,57.130115],[-3.358796,57.129972],[-3.358794,57.129842],[-3.358819,57.129704],[-3.35887,57.129556],[-3.358949,57.1294],[-3.359054,57.129235],[-3.359048,57.12899],[-3.358931,57.128665],[-3.358703,57.12826],[-3.358363,57.127775],[-3.358069,57.127414],[-3.357818,57.127176],[-3.357612,57.127061],[-3.357451,57.127069],[-3.357348,57.127127],[-3.357304,57.127233],[-3.357318,57.127387],[-3.357392,57.127591],[-3.357448,57.12778],[-3.357489,57.127954],[-3.357513,57.128114],[-3.35752,57.12826],[-3.35754,57.128378],[-3.357573,57.128468],[-3.357618,57.12853],[-3.357675,57.128565],[-3.357733,57.128644],[-3.357793,57.128768],[-3.357854,57.128936],[-3.357915,57.129149],[-3.357972,57.129336],[-3.358022,57.129497],[-3.358067,57.129633],[-3.358107,57.129742],[-3.358122,57.129867],[-3.358112,57.130006],[-3.358077,57.130159],[-3.358018,57.130328],[-3.35796,57.130466],[-3.357901,57.130573],[-3.357843,57.13065],[-3.357785,57.130697]]]}}