{"type":"Feature","properties":{"id":"269499","COMMUNE":"South Lanarkshire","PROVINCE":"South Lanarkshire","COUNTRY":"UK","FIREDATE":"2025-04-10 13:14:00","CLASS":"FireSeason","areaHA_geo":6.969},"geometry":{"type":"Polygon","coordinates":[[[-3.586679,55.533072],[-3.586691,55.53311],[-3.586785,55.533142],[-3.586961,55.533166],[-3.587221,55.533183],[-3.587434,55.533187],[-3.587601,55.533179],[-3.587722,55.533157],[-3.587796,55.533122],[-3.587894,55.533092],[-3.588015,55.533066],[-3.588159,55.533044],[-3.588326,55.533026],[-3.588443,55.533026],[-3.58851,55.533045],[-3.588526,55.533083],[-3.588492,55.533139],[-3.58852,55.533189],[-3.588608,55.533232],[-3.588757,55.533269],[-3.588968,55.533299],[-3.58918,55.533314],[-3.589394,55.533316],[-3.589609,55.533303],[-3.589826,55.533275],[-3.589992,55.533267],[-3.590105,55.533277],[-3.590167,55.533306],[-3.590177,55.533354],[-3.590157,55.533417],[-3.590107,55.533494],[-3.590027,55.533585],[-3.589917,55.533691],[-3.589797,55.533792],[-3.589667,55.533887],[-3.589526,55.533977],[-3.589375,55.534061],[-3.589296,55.53413],[-3.589288,55.534186],[-3.589353,55.534227],[-3.589489,55.534254],[-3.589618,55.534261],[-3.589741,55.53425],[-3.589857,55.534219],[-3.589966,55.53417],[-3.590065,55.534112],[-3.590152,55.534046],[-3.590228,55.533972],[-3.590293,55.53389],[-3.590373,55.533852],[-3.590468,55.533858],[-3.59058,55.533909],[-3.590706,55.534005],[-3.590822,55.534067],[-3.590929,55.534095],[-3.591025,55.534089],[-3.591111,55.53405],[-3.591175,55.534001],[-3.591215,55.533944],[-3.591232,55.533878],[-3.591226,55.533804],[-3.591256,55.533734],[-3.59132,55.533671],[-3.59142,55.533613],[-3.591555,55.533561],[-3.591656,55.533506],[-3.591723,55.533447],[-3.591755,55.533387],[-3.591753,55.533323],[-3.591802,55.533277],[-3.591903,55.533249],[-3.592054,55.533239],[-3.592257,55.533247],[-3.592411,55.533241],[-3.592518,55.53322],[-3.592575,55.533185],[-3.592585,55.533135],[-3.59263,55.533099],[-3.592713,55.533077],[-3.592832,55.533068],[-3.592987,55.533074],[-3.593099,55.533052],[-3.593168,55.533001],[-3.593194,55.532922],[-3.593177,55.532814],[-3.593154,55.532719],[-3.593125,55.532635],[-3.59309,55.532564],[-3.59305,55.532504],[-3.593019,55.532444],[-3.592998,55.532385],[-3.592987,55.532325],[-3.592986,55.532264],[-3.592953,55.532192],[-3.592887,55.532107],[-3.592788,55.532009],[-3.592656,55.531899],[-3.592519,55.53182],[-3.592375,55.531771],[-3.592226,55.531754],[-3.59207,55.531767],[-3.591967,55.53179],[-3.591915,55.531824],[-3.591916,55.531868],[-3.591968,55.531923],[-3.591995,55.531973],[-3.591997,55.532017],[-3.591975,55.532058],[-3.591927,55.532093],[-3.591862,55.532107],[-3.591779,55.532099],[-3.591679,55.532069],[-3.591561,55.532018],[-3.59143,55.531988],[-3.591287,55.531979],[-3.591131,55.531991],[-3.590963,55.532024],[-3.590798,55.532049],[-3.590638,55.532067],[-3.590481,55.532076],[-3.590328,55.532078],[-3.590196,55.532092],[-3.590086,55.532119],[-3.589996,55.532159],[-3.589928,55.532212],[-3.589762,55.532242],[-3.589498,55.53225],[-3.589136,55.532235],[-3.588676,55.532198],[-3.588308,55.53218],[-3.588032,55.53218],[-3.587846,55.532198],[-3.587752,55.532235],[-3.587656,55.532256],[-3.587559,55.532263],[-3.587459,55.532255],[-3.587358,55.532232],[-3.587308,55.532204],[-3.58731,55.53217],[-3.587363,55.53213],[-3.587467,55.532085],[-3.587491,55.532029],[-3.587435,55.531964],[-3.587299,55.531888],[-3.587082,55.531802],[-3.586876,55.531735],[-3.586679,55.531687],[-3.586492,55.531657],[-3.586315,55.531646],[-3.586138,55.531656],[-3.585962,55.531687],[-3.585787,55.531738],[-3.585611,55.531809],[-3.585482,55.531897],[-3.585397,55.532],[-3.585359,55.532119],[-3.585365,55.532254],[-3.585409,55.53236],[-3.585489,55.532438],[-3.585606,55.532488],[-3.58576,55.532509],[-3.585853,55.532536],[-3.585885,55.532571],[-3.585856,55.532611],[-3.585766,55.532659],[-3.585725,55.532705],[-3.585734,55.532749],[-3.585792,55.532792],[-3.585899,55.532833],[-3.586013,55.532858],[-3.586133,55.532868],[-3.586259,55.532862],[-3.586392,55.53284],[-3.586508,55.532833],[-3.586607,55.532841],[-3.58669,55.532864],[-3.586757,55.532902],[-3.586789,55.532942],[-3.586786,55.532983],[-3.58675,55.533027],[-3.586679,55.533072]]]}}