{"type":"Feature","properties":{"id":"269496","COMMUNE":"South Lanarkshire","PROVINCE":"South Lanarkshire","COUNTRY":"UK","FIREDATE":"2025-04-11 01:49:00","CLASS":"FireSeason","areaHA_geo":17.123},"geometry":{"type":"Polygon","coordinates":[[[-3.651063,55.586341],[-3.651469,55.58649],[-3.651827,55.586606],[-3.652135,55.586689],[-3.652395,55.586738],[-3.652615,55.586747],[-3.652794,55.586716],[-3.652933,55.586644],[-3.653031,55.586532],[-3.65313,55.586459],[-3.653229,55.586424],[-3.653328,55.586428],[-3.653427,55.586471],[-3.653589,55.586495],[-3.653812,55.586501],[-3.654098,55.586488],[-3.654446,55.586456],[-3.654757,55.586379],[-3.655032,55.586256],[-3.655269,55.586089],[-3.655469,55.585877],[-3.655655,55.585706],[-3.655827,55.585577],[-3.655984,55.58549],[-3.656127,55.585445],[-3.656257,55.585402],[-3.656375,55.585362],[-3.656481,55.585326],[-3.656575,55.585292],[-3.656598,55.585229],[-3.656551,55.585139],[-3.656433,55.585021],[-3.656245,55.584875],[-3.656111,55.584734],[-3.656033,55.5846],[-3.656009,55.584471],[-3.65604,55.584349],[-3.656052,55.584246],[-3.656044,55.584164],[-3.656017,55.584101],[-3.65597,55.584058],[-3.655942,55.584008],[-3.655932,55.583949],[-3.655941,55.583883],[-3.655968,55.583808],[-3.65597,55.583731],[-3.655947,55.58365],[-3.655899,55.583566],[-3.655826,55.583478],[-3.655713,55.583428],[-3.655561,55.583415],[-3.655369,55.583439],[-3.655137,55.5835],[-3.654952,55.583532],[-3.654816,55.583534],[-3.654728,55.583508],[-3.654687,55.583453],[-3.654613,55.583408],[-3.654506,55.583372],[-3.654365,55.583345],[-3.65419,55.583329],[-3.654037,55.583285],[-3.653908,55.583216],[-3.6538,55.583121],[-3.653716,55.582999],[-3.653574,55.582919],[-3.653376,55.582881],[-3.653121,55.582885],[-3.65281,55.58293],[-3.652498,55.582991],[-3.652187,55.583067],[-3.651875,55.583157],[-3.651563,55.583263],[-3.651268,55.583339],[-3.650989,55.583388],[-3.650727,55.583407],[-3.650481,55.583398],[-3.650245,55.58341],[-3.650019,55.583444],[-3.649803,55.583499],[-3.649597,55.583575],[-3.649433,55.583618],[-3.649309,55.583628],[-3.649228,55.583606],[-3.649187,55.583551],[-3.649123,55.583501],[-3.649033,55.583457],[-3.64892,55.583419],[-3.648781,55.583386],[-3.6485,55.583405],[-3.648076,55.583475],[-3.647508,55.583596],[-3.646797,55.583769],[-3.646296,55.583905],[-3.646003,55.584006],[-3.64592,55.58407],[-3.646046,55.584098],[-3.646218,55.584166],[-3.646435,55.584273],[-3.646697,55.58442],[-3.647005,55.584607],[-3.647293,55.584774],[-3.647561,55.584921],[-3.647808,55.585047],[-3.648035,55.585154],[-3.648247,55.585247],[-3.648444,55.585327],[-3.648626,55.585393],[-3.648792,55.585447],[-3.648988,55.585454],[-3.649212,55.585415],[-3.649464,55.585329],[-3.649746,55.585197],[-3.64996,55.585099],[-3.650107,55.585036],[-3.650186,55.585006],[-3.650198,55.585011],[-3.650162,55.585051],[-3.650077,55.585125],[-3.649944,55.585235],[-3.649762,55.58538],[-3.649653,55.585507],[-3.649617,55.585615],[-3.649653,55.585705],[-3.649763,55.585776],[-3.649958,55.585876],[-3.65024,55.586003],[-3.650609,55.586158],[-3.651063,55.586341]]]}}