{"type":"Feature","properties":{"id":"269462","COMMUNE":"West Devon","PROVINCE":"Devon CC","COUNTRY":"UK","FIREDATE":"2025-05-04 14:05:00","FINALDATE":"2025-05-05 02:41:00","CLASS":"FireSeason","areaHA_geo":382.552},"geometry":{"type":"Polygon","coordinates":[[[-4.014231,50.613653],[-4.014726,50.613223],[-4.014676,50.612749],[-4.014082,50.61223],[-4.013858,50.611903],[-4.014004,50.611766],[-4.014546,50.611601],[-4.015484,50.611407],[-4.016281,50.611052],[-4.016935,50.610538],[-4.017511,50.610072],[-4.018008,50.609656],[-4.018436,50.609012],[-4.018795,50.608139],[-4.018719,50.607478],[-4.018208,50.607028],[-4.017638,50.606586],[-4.017007,50.606151],[-4.016309,50.605803],[-4.015544,50.605542],[-4.014886,50.605327],[-4.014336,50.605158],[-4.013513,50.604806],[-4.012415,50.604271],[-4.011361,50.604085],[-4.010351,50.604249],[-4.009388,50.604466],[-4.008473,50.604736],[-4.007512,50.605269],[-4.006506,50.606063],[-4.005461,50.606625],[-4.004376,50.606956],[-4.003442,50.607268],[-4.002659,50.607562],[-4.002132,50.607883],[-4.001864,50.608232],[-4.001676,50.608637],[-4.00157,50.609099],[-4.001395,50.609308],[-4.001153,50.609264],[-4.000936,50.609236],[-4.000744,50.609224],[-4.000523,50.609266],[-4.000272,50.609362],[-3.999992,50.609513],[-3.999683,50.609717],[-3.999344,50.609976],[-3.998976,50.610289],[-3.998578,50.610656],[-3.998151,50.611077],[-3.997756,50.611476],[-3.997393,50.611852],[-3.997062,50.612206],[-3.996763,50.612537],[-3.996496,50.612846],[-3.99626,50.613132],[-3.996057,50.613396],[-3.995886,50.613637],[-3.995653,50.613882],[-3.99536,50.614132],[-3.995006,50.614387],[-3.994591,50.614646],[-3.994115,50.61491],[-3.993578,50.615178],[-3.99298,50.615451],[-3.992321,50.615728],[-3.991707,50.615994],[-3.991138,50.616248],[-3.990613,50.616491],[-3.990133,50.616723],[-3.989698,50.616943],[-3.989308,50.617151],[-3.988962,50.617349],[-3.988661,50.617534],[-3.988359,50.617695],[-3.988057,50.61783],[-3.987754,50.61794],[-3.987451,50.618025],[-3.987147,50.618085],[-3.986842,50.618119],[-3.986537,50.618128],[-3.986231,50.618112],[-3.985915,50.618097],[-3.985588,50.618082],[-3.985252,50.618068],[-3.984904,50.618054],[-3.984546,50.618041],[-3.984178,50.618028],[-3.983799,50.618016],[-3.98341,50.618004],[-3.983065,50.618005],[-3.982763,50.618018],[-3.982506,50.618044],[-3.982292,50.618082],[-3.982121,50.618132],[-3.981995,50.618196],[-3.981912,50.618271],[-3.981872,50.618359],[-3.981837,50.618448],[-3.981806,50.618538],[-3.981778,50.61863],[-3.981754,50.618722],[-3.981734,50.618815],[-3.981718,50.618909],[-3.981706,50.619004],[-3.981697,50.6191],[-3.98165,50.619184],[-3.981563,50.619256],[-3.981438,50.619315],[-3.981273,50.619362],[-3.98107,50.619397],[-3.980828,50.619419],[-3.980546,50.619429],[-3.980226,50.619427],[-3.97993,50.61942],[-3.979659,50.619409],[-3.979412,50.619393],[-3.979189,50.619373],[-3.978991,50.619348],[-3.978818,50.619319],[-3.978669,50.619285],[-3.978545,50.619247],[-3.978414,50.619214],[-3.978276,50.619186],[-3.978132,50.619164],[-3.977981,50.619147],[-3.977823,50.619135],[-3.977659,50.619128],[-3.977488,50.619127],[-3.977311,50.619131],[-3.977155,50.619148],[-3.97702,50.619177],[-3.976907,50.61922],[-3.976816,50.619276],[-3.976747,50.619345],[-3.976698,50.619427],[-3.976672,50.619521],[-3.976667,50.619629],[-3.976665,50.61974],[-3.976667,50.619854],[-3.976672,50.619972],[-3.97668,50.620093],[-3.976692,50.620217],[-3.976707,50.620344],[-3.976726,50.620475],[-3.976747,50.620609],[-3.976734,50.620725],[-3.976686,50.620821],[-3.976602,50.620899],[-3.976484,50.620958],[-3.97633,50.620999],[-3.976142,50.62102],[-3.975918,50.621023],[-3.97566,50.621007],[-3.975406,50.620996],[-3.975156,50.620987],[-3.974912,50.620983],[-3.974672,50.620983],[-3.974437,50.620987],[-3.974206,50.620994],[-3.97398,50.621005],[-3.973759,50.621021],[-3.97358,50.621052],[-3.973442,50.621101],[-3.973345,50.621165],[-3.973289,50.621246],[-3.973275,50.621344],[-3.973303,50.621458],[-3.973372,50.621589],[-3.973482,50.621736],[-3.973571,50.621882],[-3.973638,50.622027],[-3.973684,50.62217],[-3.973709,50.622313],[-3.973711,50.622455],[-3.973693,50.622595],[-3.973653,50.622735],[-3.973591,50.622873],[-3.973531,50.623009],[-3.973473,50.623143],[-3.973416,50.623274],[-3.973361,50.623402],[-3.973308,50.623529],[-3.973256,50.623652],[-3.973206,50.623774],[-3.973157,50.623893],[-3.973115,50.624025],[-3.973079,50.624171],[-3.97305,50.62433],[-3.973026,50.624502],[-3.97301,50.624688],[-3.972999,50.624887],[-3.972996,50.625099],[-3.972998,50.625325],[-3.973005,50.625539],[-3.973018,50.625743],[-3.973035,50.625936],[-3.973057,50.626117],[-3.973084,50.626288],[-3.973116,50.626448],[-3.973153,50.626596],[-3.973194,50.626734],[-3.973236,50.626868],[-3.973278,50.626998],[-3.973319,50.627124],[-3.973361,50.627247],[-3.973403,50.627366],[-3.973445,50.627481],[-3.973487,50.627593],[-3.973529,50.627701],[-3.973588,50.627814],[-3.973664,50.627933],[-3.973757,50.628057],[-3.973867,50.628186],[-3.973993,50.62832],[-3.974137,50.62846],[-3.974297,50.628606],[-3.974474,50.628757],[-3.974674,50.628922],[-3.974895,50.629103],[-3.975139,50.629299],[-3.975406,50.62951],[-3.975694,50.629737],[-3.976005,50.629978],[-3.976337,50.630235],[-3.976692,50.630506],[-3.977064,50.630743],[-3.977452,50.630945],[-3.977856,50.631113],[-3.978278,50.631245],[-3.978715,50.631343],[-3.979169,50.631407],[-3.97964,50.631435],[-3.980127,50.631429],[-3.980603,50.63142],[-3.981068,50.631409],[-3.981521,50.631396],[-3.981963,50.63138],[-3.982394,50.631362],[-3.982813,50.631342],[-3.983221,50.631319],[-3.983618,50.631294],[-3.983983,50.631261],[-3.984317,50.631221],[-3.984618,50.631172],[-3.984888,50.631115],[-3.985126,50.63105],[-3.985332,50.630977],[-3.985506,50.630896],[-3.985648,50.630807],[-3.985787,50.630727],[-3.985923,50.630655],[-3.986056,50.630592],[-3.986185,50.630538],[-3.986311,50.630492],[-3.986433,50.630454],[-3.986553,50.630425],[-3.986669,50.630405],[-3.986795,50.630393],[-3.98693,50.630388],[-3.987074,50.630391],[-3.987228,50.630402],[-3.987391,50.630421],[-3.987563,50.630447],[-3.987745,50.630481],[-3.987937,50.630523],[-3.988123,50.630558],[-3.988303,50.630587],[-3.988478,50.630608],[-3.988647,50.630623],[-3.98881,50.630631],[-3.988968,50.630633],[-3.989121,50.630627],[-3.989268,50.630615],[-3.989422,50.630581],[-3.989584,50.630526],[-3.989753,50.630449],[-3.98993,50.63035],[-3.990114,50.630229],[-3.990306,50.630086],[-3.990506,50.629922],[-3.990713,50.629736],[-3.990907,50.629557],[-3.991088,50.629387],[-3.991256,50.629223],[-3.991411,50.629067],[-3.991553,50.628919],[-3.991682,50.628778],[-3.991798,50.628645],[-3.991901,50.628519],[-3.992004,50.628392],[-3.992109,50.628263],[-3.992214,50.628133],[-3.99232,50.628001],[-3.992426,50.627868],[-3.992533,50.627732],[-3.992641,50.627596],[-3.99275,50.627458],[-3.992844,50.627322],[-3.992923,50.627189],[-3.992988,50.627058],[-3.993039,50.62693],[-3.993075,50.626804],[-3.993096,50.626681],[-3.993103,50.626561],[-3.993096,50.626443],[-3.993074,50.62632],[-3.993038,50.626194],[-3.992988,50.626063],[-3.992923,50.625929],[-3.992845,50.625789],[-3.992752,50.625646],[-3.992645,50.625499],[-3.992524,50.625347],[-3.992448,50.625199],[-3.992418,50.625054],[-3.992434,50.624912],[-3.992496,50.624774],[-3.992603,50.624639],[-3.992756,50.624507],[-3.992954,50.624378],[-3.993198,50.624253],[-3.993432,50.624132],[-3.993655,50.624016],[-3.993868,50.623903],[-3.99407,50.623795],[-3.994262,50.623691],[-3.994444,50.623592],[-3.994615,50.623496],[-3.994775,50.623405],[-3.994936,50.623308],[-3.995098,50.623205],[-3.99526,50.623096],[-3.995422,50.622981],[-3.995585,50.622859],[-3.995749,50.622732],[-3.995913,50.622599],[-3.996078,50.62246],[-3.996238,50.622318],[-3.996394,50.622172],[-3.996545,50.622023],[-3.996692,50.621871],[-3.996834,50.621716],[-3.996972,50.621558],[-3.997105,50.621397],[-3.997234,50.621232],[-3.997357,50.621081],[-3.997475,50.620943],[-3.997588,50.620819],[-3.997695,50.620707],[-3.997797,50.620609],[-3.997894,50.620525],[-3.997985,50.620453],[-3.998071,50.620395],[-3.998176,50.620332],[-3.998302,50.620265],[-3.998447,50.620193],[-3.998612,50.620116],[-3.998796,50.620034],[-3.999,50.619948],[-3.999224,50.619858],[-3.999468,50.619762],[-3.999717,50.619668],[-3.999971,50.619574],[-4.000229,50.619481],[-4.000493,50.619389],[-4.000762,50.619298],[-4.001035,50.619208],[-4.001314,50.619119],[-4.001597,50.61903],[-4.001894,50.618946],[-4.002203,50.618867],[-4.002526,50.618791],[-4.002862,50.61872],[-4.003211,50.618654],[-4.003573,50.618591],[-4.003948,50.618533],[-4.004336,50.618479],[-4.004705,50.618432],[-4.005054,50.61839],[-4.005384,50.618355],[-4.005695,50.618326],[-4.005986,50.618302],[-4.006259,50.618285],[-4.006512,50.618274],[-4.006745,50.618269],[-4.006967,50.618244],[-4.007176,50.618197],[-4.007373,50.61813],[-4.007558,50.618041],[-4.00773,50.617932],[-4.007891,50.617803],[-4.008039,50.617652],[-4.008175,50.617481],[-4.008326,50.617334],[-4.008491,50.617213],[-4.008671,50.617116],[-4.008866,50.617045],[-4.009075,50.616998],[-4.009299,50.616977],[-4.009537,50.61698],[-4.00979,50.617008],[-4.010034,50.617029],[-4.010268,50.617042],[-4.010493,50.617047],[-4.010708,50.617044],[-4.010915,50.617034],[-4.011111,50.617015],[-4.011298,50.616989],[-4.011476,50.616955],[-4.011667,50.616902],[-4.01187,50.616827],[-4.012086,50.616733],[-4.012314,50.616619],[-4.012556,50.616484],[-4.01281,50.61633],[-4.013076,50.616155],[-4.013356,50.61596],[-4.013609,50.615769],[-4.013837,50.615582],[-4.014039,50.615398],[-4.014215,50.615219],[-4.014365,50.615044],[-4.014489,50.614872],[-4.014587,50.614705],[-4.01466,50.614541],[-4.014652,50.614384],[-4.014564,50.614233],[-4.014395,50.614088],[-4.014146,50.613949],[-4.014012,50.613876],[-4.013993,50.613871],[-4.014231,50.613653]]]}}