{"type":"Feature","properties":{"id":"269508","COMMUNE":"Scottish Borders","PROVINCE":"Scottish Borders","COUNTRY":"UK","FIREDATE":"2025-04-03 11:10:00","FINALDATE":"2025-04-04 11:10:00","CLASS":"FireSeason","areaHA_geo":11.156},"geometry":{"type":"Polygon","coordinates":[[[-3.379015,55.524771],[-3.379014,55.524861],[-3.379223,55.52497],[-3.379642,55.525098],[-3.380271,55.525244],[-3.380788,55.525369],[-3.381194,55.525472],[-3.381488,55.525554],[-3.38167,55.525614],[-3.381826,55.525671],[-3.381955,55.525724],[-3.382058,55.525773],[-3.382134,55.525818],[-3.38221,55.525859],[-3.382287,55.525897],[-3.382364,55.525931],[-3.382442,55.52596],[-3.382567,55.525982],[-3.38274,55.525996],[-3.382961,55.526002],[-3.38323,55.526],[-3.383448,55.526002],[-3.383615,55.526009],[-3.383732,55.526021],[-3.383798,55.526036],[-3.383865,55.526056],[-3.383934,55.526079],[-3.384004,55.526106],[-3.384075,55.526136],[-3.384165,55.52617],[-3.384276,55.526208],[-3.384406,55.526249],[-3.384556,55.526294],[-3.384708,55.526338],[-3.38486,55.526381],[-3.385014,55.526422],[-3.385169,55.526463],[-3.385292,55.526486],[-3.385381,55.526492],[-3.385438,55.52648],[-3.385462,55.526451],[-3.385447,55.526408],[-3.385394,55.526351],[-3.385302,55.526279],[-3.385172,55.526194],[-3.385057,55.526125],[-3.384958,55.526071],[-3.384874,55.526032],[-3.384806,55.526009],[-3.384754,55.525971],[-3.384719,55.525917],[-3.384701,55.525849],[-3.384699,55.525765],[-3.384708,55.525688],[-3.384728,55.525617],[-3.384758,55.525553],[-3.384799,55.525496],[-3.384841,55.52545],[-3.384884,55.525417],[-3.384927,55.525396],[-3.384971,55.525388],[-3.385038,55.525407],[-3.385129,55.525455],[-3.385242,55.52553],[-3.385378,55.525634],[-3.385518,55.525738],[-3.385662,55.525842],[-3.385809,55.525947],[-3.385959,55.526053],[-3.386107,55.52612],[-3.386251,55.526149],[-3.386392,55.526138],[-3.386531,55.526089],[-3.386614,55.526043],[-3.386643,55.526],[-3.386618,55.52596],[-3.386538,55.525923],[-3.386449,55.525878],[-3.38635,55.525826],[-3.386242,55.525766],[-3.386125,55.525699],[-3.386021,55.525631],[-3.38593,55.525562],[-3.385853,55.525494],[-3.385789,55.525424],[-3.385715,55.525353],[-3.385633,55.52528],[-3.385542,55.525205],[-3.385442,55.525128],[-3.385328,55.525052],[-3.385201,55.524976],[-3.385061,55.5249],[-3.384907,55.524826],[-3.384753,55.524773],[-3.384598,55.524742],[-3.384441,55.524733],[-3.384284,55.524745],[-3.384123,55.524768],[-3.383959,55.524801],[-3.383792,55.524844],[-3.383621,55.524896],[-3.383487,55.52495],[-3.383388,55.525007],[-3.383325,55.525065],[-3.383299,55.525125],[-3.383331,55.525184],[-3.383421,55.525243],[-3.383571,55.525301],[-3.383779,55.525359],[-3.383956,55.525414],[-3.384102,55.525467],[-3.384217,55.525518],[-3.384301,55.525566],[-3.384347,55.525611],[-3.384355,55.525654],[-3.384325,55.525695],[-3.384257,55.525732],[-3.384174,55.52576],[-3.384075,55.525778],[-3.383962,55.525787],[-3.383834,55.525785],[-3.383712,55.525766],[-3.383599,55.525728],[-3.383492,55.525673],[-3.383393,55.5256],[-3.383277,55.52551],[-3.383142,55.525402],[-3.38299,55.525278],[-3.382821,55.525136],[-3.382718,55.525023],[-3.382683,55.524939],[-3.382715,55.524884],[-3.382814,55.524859],[-3.382877,55.524818],[-3.382906,55.524764],[-3.382899,55.524695],[-3.382858,55.524612],[-3.382855,55.52455],[-3.382891,55.524508],[-3.382966,55.524486],[-3.383081,55.524486],[-3.383262,55.524489],[-3.38351,55.524497],[-3.383826,55.524509],[-3.384209,55.524525],[-3.384566,55.524521],[-3.384898,55.524497],[-3.385205,55.524453],[-3.385486,55.524389],[-3.385754,55.524306],[-3.386009,55.524205],[-3.386251,55.524084],[-3.38648,55.523946],[-3.386628,55.523838],[-3.386696,55.52376],[-3.386683,55.523713],[-3.38659,55.523696],[-3.386485,55.523685],[-3.386369,55.523681],[-3.386242,55.523682],[-3.386103,55.523689],[-3.386035,55.523679],[-3.38604,55.523652],[-3.386115,55.523608],[-3.386263,55.523546],[-3.386355,55.523481],[-3.386392,55.523413],[-3.386374,55.52334],[-3.386301,55.523264],[-3.386068,55.523182],[-3.385674,55.523093],[-3.385119,55.522997],[-3.384404,55.522894],[-3.383803,55.522816],[-3.383316,55.522761],[-3.382943,55.52273],[-3.382685,55.522723],[-3.382452,55.522741],[-3.382244,55.522782],[-3.382061,55.522847],[-3.381902,55.522936],[-3.381756,55.523015],[-3.38162,55.523083],[-3.381497,55.52314],[-3.381385,55.523186],[-3.381261,55.523212],[-3.381125,55.523219],[-3.380977,55.523206],[-3.380818,55.523174],[-3.380701,55.52313],[-3.380625,55.523076],[-3.38059,55.52301],[-3.380598,55.522933],[-3.380627,55.522859],[-3.380677,55.522789],[-3.380748,55.522723],[-3.380841,55.522659],[-3.38093,55.522592],[-3.381013,55.52252],[-3.381091,55.522444],[-3.381165,55.522364],[-3.381146,55.522328],[-3.381034,55.522336],[-3.38083,55.522389],[-3.380533,55.522485],[-3.380295,55.522567],[-3.380116,55.522636],[-3.379997,55.522691],[-3.379936,55.522731],[-3.379899,55.52279],[-3.379885,55.522868],[-3.379895,55.522964],[-3.379927,55.523079],[-3.379995,55.523184],[-3.380098,55.523279],[-3.380237,55.523365],[-3.380411,55.523442],[-3.380584,55.523505],[-3.380756,55.523555],[-3.380927,55.523592],[-3.381097,55.523616],[-3.38123,55.523648],[-3.381328,55.523687],[-3.381389,55.523733],[-3.381415,55.523788],[-3.381476,55.523823],[-3.381572,55.52384],[-3.381704,55.523837],[-3.381872,55.523815],[-3.381996,55.523814],[-3.382077,55.523834],[-3.382115,55.523875],[-3.382109,55.523936],[-3.382047,55.523988],[-3.38193,55.524029],[-3.381757,55.52406],[-3.381528,55.52408],[-3.381411,55.524123],[-3.381406,55.524188],[-3.381514,55.524276],[-3.381733,55.524386],[-3.38188,55.524477],[-3.381955,55.524549],[-3.381958,55.524602],[-3.381889,55.524636],[-3.381764,55.52463],[-3.381584,55.524584],[-3.381347,55.524499],[-3.381056,55.524374],[-3.380816,55.524285],[-3.380629,55.52423],[-3.380495,55.524211],[-3.380413,55.524228],[-3.380251,55.524207],[-3.380009,55.524149],[-3.379687,55.524054],[-3.379285,55.523922],[-3.378951,55.523831],[-3.378685,55.523781],[-3.378486,55.523773],[-3.378356,55.523806],[-3.378292,55.523866],[-3.378295,55.523953],[-3.378364,55.524068],[-3.3785,55.524209],[-3.378655,55.524326],[-3.378827,55.524418],[-3.379019,55.524485],[-3.379228,55.524527],[-3.379333,55.524577],[-3.379332,55.524634],[-3.379226,55.524699],[-3.379015,55.524771]]]}}