{"type":"Feature","properties":{"id":"269513","COMMUNE":"East Ayrshire","PROVINCE":"East Ayrshire and North Ayrshire mainland","COUNTRY":"UK","FIREDATE":"2025-03-21 01:43:00","FINALDATE":"2025-03-21 01:43:00","CLASS":"FireSeason","areaHA_geo":4.102},"geometry":{"type":"Polygon","coordinates":[[[-4.117371,55.52539],[-4.117683,55.525346],[-4.117949,55.52525],[-4.118169,55.525102],[-4.118342,55.524903],[-4.118397,55.524741],[-4.118334,55.524616],[-4.118152,55.524529],[-4.117852,55.52448],[-4.117621,55.524409],[-4.117459,55.524316],[-4.117366,55.524202],[-4.117342,55.524066],[-4.117379,55.523965],[-4.117477,55.523898],[-4.117638,55.523867],[-4.117859,55.523869],[-4.118,55.523843],[-4.11806,55.523788],[-4.118039,55.523704],[-4.117937,55.52359],[-4.11775,55.523481],[-4.11748,55.523377],[-4.117124,55.523277],[-4.116685,55.523181],[-4.116269,55.523174],[-4.115875,55.523256],[-4.115505,55.523428],[-4.115157,55.523689],[-4.114892,55.523932],[-4.114709,55.524157],[-4.114609,55.524364],[-4.114591,55.524553],[-4.114697,55.524728],[-4.114927,55.524889],[-4.115281,55.525036],[-4.115758,55.52517],[-4.116206,55.525272],[-4.116624,55.525342],[-4.117012,55.525382],[-4.117371,55.52539]]]}}