{"type":"Feature","properties":{"id":"269506","COMMUNE":"Scottish Borders","PROVINCE":"Scottish Borders","COUNTRY":"UK","FIREDATE":"2025-04-01 12:42:00","FINALDATE":"2025-04-01 13:08:00","CLASS":"FireSeason","areaHA_geo":1.32},"geometry":{"type":"Polygon","coordinates":[[[-3.344391,55.581948],[-3.344603,55.581976],[-3.34473,55.58198],[-3.344773,55.58196],[-3.344732,55.581915],[-3.344624,55.581855],[-3.34445,55.581781],[-3.344209,55.581692],[-3.343901,55.581588],[-3.343653,55.581486],[-3.343465,55.581386],[-3.343336,55.581287],[-3.343267,55.58119],[-3.343158,55.581095],[-3.343008,55.581002],[-3.342818,55.580912],[-3.342587,55.580823],[-3.342397,55.580711],[-3.342248,55.580574],[-3.34214,55.580414],[-3.342072,55.58023],[-3.341994,55.580089],[-3.341908,55.579993],[-3.341811,55.57994],[-3.341705,55.579931],[-3.341606,55.579938],[-3.341515,55.579963],[-3.34143,55.580004],[-3.341352,55.580061],[-3.341291,55.580152],[-3.341248,55.580275],[-3.341223,55.580432],[-3.341216,55.580621],[-3.341241,55.580778],[-3.341299,55.580902],[-3.341389,55.580994],[-3.341512,55.581053],[-3.341678,55.581111],[-3.341887,55.581167],[-3.34214,55.581222],[-3.342435,55.581274],[-3.342705,55.581343],[-3.34295,55.581427],[-3.343169,55.581527],[-3.343362,55.581643],[-3.343581,55.581743],[-3.343826,55.581827],[-3.344096,55.581895],[-3.344391,55.581948]]]}}