{"type":"Feature","properties":{"id":"269500","COMMUNE":"South Lanarkshire","PROVINCE":"South Lanarkshire","COUNTRY":"UK","FIREDATE":"2025-04-10 13:14:00","FINALDATE":"2025-04-10 14:01:00","CLASS":"FireSeason","areaHA_geo":8.212},"geometry":{"type":"Polygon","coordinates":[[[-3.584125,55.527296],[-3.58415,55.527344],[-3.584245,55.52736],[-3.584411,55.527344],[-3.584648,55.527296],[-3.584858,55.527266],[-3.58504,55.527253],[-3.585195,55.527259],[-3.585324,55.527283],[-3.585425,55.527291],[-3.585499,55.527283],[-3.585545,55.527259],[-3.585565,55.527219],[-3.585607,55.527182],[-3.585672,55.527149],[-3.58576,55.527119],[-3.585871,55.527092],[-3.58596,55.527084],[-3.586027,55.527096],[-3.586073,55.527126],[-3.586097,55.527177],[-3.586129,55.527222],[-3.58617,55.527263],[-3.586219,55.527299],[-3.586277,55.52733],[-3.586351,55.527356],[-3.586441,55.527376],[-3.586548,55.527391],[-3.586671,55.527401],[-3.586791,55.527397],[-3.586909,55.52738],[-3.587024,55.527351],[-3.587136,55.527309],[-3.587235,55.527287],[-3.587321,55.527285],[-3.587394,55.527303],[-3.587454,55.527342],[-3.587547,55.527374],[-3.587672,55.5274],[-3.587831,55.52742],[-3.588022,55.527433],[-3.588202,55.527442],[-3.58837,55.527446],[-3.588527,55.527446],[-3.588672,55.527442],[-3.588799,55.527419],[-3.588908,55.527377],[-3.588998,55.527316],[-3.589071,55.527237],[-3.589132,55.527176],[-3.589181,55.527135],[-3.589218,55.527113],[-3.589244,55.52711],[-3.589285,55.527125],[-3.589343,55.527156],[-3.589416,55.527205],[-3.589506,55.52727],[-3.589571,55.527339],[-3.589612,55.527409],[-3.589629,55.527483],[-3.589622,55.527559],[-3.589633,55.527619],[-3.589662,55.527663],[-3.589708,55.527691],[-3.589772,55.527703],[-3.589823,55.527696],[-3.589861,55.527672],[-3.589886,55.527628],[-3.589898,55.527567],[-3.589925,55.527523],[-3.589965,55.527496],[-3.59002,55.527486],[-3.59009,55.527493],[-3.590161,55.527505],[-3.590233,55.527522],[-3.590307,55.527543],[-3.590383,55.527569],[-3.590461,55.527589],[-3.590542,55.527602],[-3.590627,55.52761],[-3.590714,55.527612],[-3.5908,55.527619],[-3.590884,55.52763],[-3.590966,55.527647],[-3.591047,55.527668],[-3.591077,55.527703],[-3.591057,55.52775],[-3.590986,55.527811],[-3.590865,55.527884],[-3.590804,55.527935],[-3.590804,55.527963],[-3.590864,55.527969],[-3.590985,55.527952],[-3.591072,55.527946],[-3.591124,55.527952],[-3.591141,55.527969],[-3.591124,55.527997],[-3.591083,55.528036],[-3.591017,55.528087],[-3.590927,55.528148],[-3.590812,55.528221],[-3.590701,55.528302],[-3.590596,55.528391],[-3.590494,55.528487],[-3.590397,55.528592],[-3.590328,55.52868],[-3.590286,55.528753],[-3.590272,55.528809],[-3.590286,55.528849],[-3.590329,55.528887],[-3.590402,55.528925],[-3.590505,55.528961],[-3.590637,55.528995],[-3.590748,55.528998],[-3.590838,55.52897],[-3.590907,55.52891],[-3.590955,55.528818],[-3.591002,55.52875],[-3.591047,55.528708],[-3.591091,55.52869],[-3.591133,55.528697],[-3.59119,55.528696],[-3.59126,55.528689],[-3.591345,55.528674],[-3.591444,55.528652],[-3.591526,55.528624],[-3.591592,55.528591],[-3.59164,55.528551],[-3.591671,55.528507],[-3.59173,55.528461],[-3.591817,55.528414],[-3.591932,55.528365],[-3.592075,55.528316],[-3.592209,55.528282],[-3.592336,55.528262],[-3.592455,55.528258],[-3.592565,55.528268],[-3.592674,55.52828],[-3.592782,55.528293],[-3.592888,55.528307],[-3.592993,55.528322],[-3.593071,55.528344],[-3.593122,55.528375],[-3.593145,55.528413],[-3.593141,55.528458],[-3.593142,55.528504],[-3.593148,55.528551],[-3.593159,55.528598],[-3.593175,55.528645],[-3.593203,55.528695],[-3.593241,55.528747],[-3.59329,55.528802],[-3.59335,55.528859],[-3.59341,55.528888],[-3.593469,55.528887],[-3.593529,55.528857],[-3.593588,55.528798],[-3.593641,55.528727],[-3.593685,55.528645],[-3.593723,55.528552],[-3.593753,55.528447],[-3.593748,55.528353],[-3.593706,55.528271],[-3.593628,55.5282],[-3.593514,55.528141],[-3.593432,55.528077],[-3.593381,55.528007],[-3.593362,55.527932],[-3.593374,55.527851],[-3.593355,55.527782],[-3.593304,55.527723],[-3.593223,55.527675],[-3.59311,55.527639],[-3.592986,55.527622],[-3.59285,55.527625],[-3.592704,55.527649],[-3.592545,55.527692],[-3.592423,55.527713],[-3.592335,55.527711],[-3.592283,55.527687],[-3.592267,55.52764],[-3.592257,55.527581],[-3.592253,55.527512],[-3.592255,55.527432],[-3.592263,55.527341],[-3.592216,55.527261],[-3.592112,55.527193],[-3.591953,55.527137],[-3.591737,55.527093],[-3.591525,55.527042],[-3.591315,55.526986],[-3.591109,55.526923],[-3.590905,55.526855],[-3.59071,55.526807],[-3.590524,55.52678],[-3.590347,55.526774],[-3.590179,55.526789],[-3.590072,55.52678],[-3.590028,55.526747],[-3.590045,55.52669],[-3.590124,55.52661],[-3.590143,55.526522],[-3.590103,55.526427],[-3.590004,55.526324],[-3.589846,55.526213],[-3.589699,55.526119],[-3.589562,55.526044],[-3.589437,55.525986],[-3.589323,55.525945],[-3.589191,55.525915],[-3.589041,55.525896],[-3.588873,55.525887],[-3.588687,55.525888],[-3.588464,55.525883],[-3.588203,55.525872],[-3.587905,55.525854],[-3.58757,55.52583],[-3.587304,55.525836],[-3.587106,55.52587],[-3.586976,55.525934],[-3.586915,55.526028],[-3.58684,55.526085],[-3.586751,55.526106],[-3.586647,55.52609],[-3.586529,55.526039],[-3.586403,55.525981],[-3.586267,55.525917],[-3.586123,55.525846],[-3.585969,55.525768],[-3.585804,55.52574],[-3.585628,55.525761],[-3.585441,55.525831],[-3.585242,55.525951],[-3.58508,55.526061],[-3.584955,55.526161],[-3.584866,55.526251],[-3.584814,55.526332],[-3.584764,55.526417],[-3.584714,55.526505],[-3.584666,55.526597],[-3.584619,55.526693],[-3.584565,55.52678],[-3.584502,55.526861],[-3.584432,55.526933],[-3.584355,55.526998],[-3.584285,55.527067],[-3.584224,55.527139],[-3.58417,55.527216],[-3.584125,55.527296]]]}}