{"type":"Feature","properties":{"id":"269510","COMMUNE":"East Ayrshire","PROVINCE":"East Ayrshire and North Ayrshire mainland","COUNTRY":"UK","FIREDATE":"2025-04-30 02:34:00","FINALDATE":"2025-04-30 02:34:00","CLASS":"FireSeason","areaHA_geo":46.672},"geometry":{"type":"Polygon","coordinates":[[[-4.124467,55.444261],[-4.12516,55.443941],[-4.12561,55.44364],[-4.125815,55.443358],[-4.125775,55.443095],[-4.125492,55.44285],[-4.125256,55.442676],[-4.125068,55.442571],[-4.124926,55.442537],[-4.124833,55.442573],[-4.124739,55.442589],[-4.124645,55.442588],[-4.124551,55.442567],[-4.124456,55.442527],[-4.124352,55.442484],[-4.124237,55.442436],[-4.124112,55.442385],[-4.123977,55.44233],[-4.123865,55.442271],[-4.123775,55.442208],[-4.123709,55.442141],[-4.123666,55.442071],[-4.123506,55.441977],[-4.123228,55.44186],[-4.122833,55.44172],[-4.122322,55.441556],[-4.121926,55.441377],[-4.121647,55.441182],[-4.121485,55.440972],[-4.121439,55.440746],[-4.121359,55.440558],[-4.121242,55.440407],[-4.121091,55.440295],[-4.120904,55.44022],[-4.120511,55.439998],[-4.119912,55.439629],[-4.119106,55.439111],[-4.118094,55.438446],[-4.117304,55.437947],[-4.116736,55.437614],[-4.11639,55.437447],[-4.116265,55.437446],[-4.116155,55.437429],[-4.116059,55.437397],[-4.115977,55.43735],[-4.11591,55.437287],[-4.115825,55.437243],[-4.115723,55.437217],[-4.115602,55.437209],[-4.115464,55.437219],[-4.115363,55.437242],[-4.1153,55.437277],[-4.115275,55.437324],[-4.115287,55.437383],[-4.115217,55.437452],[-4.115063,55.437532],[-4.114827,55.437623],[-4.114508,55.437724],[-4.114269,55.437826],[-4.11411,55.437927],[-4.114031,55.438027],[-4.114031,55.438128],[-4.113974,55.438196],[-4.113858,55.438232],[-4.113683,55.438235],[-4.113451,55.438206],[-4.113264,55.438154],[-4.113121,55.43808],[-4.113024,55.437983],[-4.112972,55.437863],[-4.112892,55.43778],[-4.112782,55.437735],[-4.112644,55.437726],[-4.112476,55.437755],[-4.112312,55.437806],[-4.112152,55.43788],[-4.111996,55.437975],[-4.111843,55.438093],[-4.11173,55.438218],[-4.111657,55.438349],[-4.111624,55.438487],[-4.111632,55.438632],[-4.111657,55.438759],[-4.111701,55.438867],[-4.111762,55.438957],[-4.111841,55.439029],[-4.111903,55.439097],[-4.111949,55.439162],[-4.111978,55.439224],[-4.11199,55.439283],[-4.111982,55.439342],[-4.111954,55.439401],[-4.111907,55.439459],[-4.111838,55.439517],[-4.111736,55.439553],[-4.1116,55.439569],[-4.111429,55.439563],[-4.111223,55.439536],[-4.111012,55.439516],[-4.110794,55.439503],[-4.11057,55.439496],[-4.110339,55.439497],[-4.11014,55.439492],[-4.109971,55.439481],[-4.109834,55.439464],[-4.109728,55.439441],[-4.109599,55.43946],[-4.109449,55.439522],[-4.109275,55.439627],[-4.10908,55.439775],[-4.108982,55.439886],[-4.108981,55.439959],[-4.109078,55.439994],[-4.109273,55.439992],[-4.109455,55.440004],[-4.109624,55.440031],[-4.109781,55.440071],[-4.109925,55.440125],[-4.110033,55.440184],[-4.110105,55.440249],[-4.110141,55.440319],[-4.110142,55.440395],[-4.110171,55.44047],[-4.11023,55.440547],[-4.110317,55.440624],[-4.110434,55.440701],[-4.110465,55.440752],[-4.110411,55.440775],[-4.110273,55.440772],[-4.110049,55.440742],[-4.109839,55.440734],[-4.109645,55.440749],[-4.109465,55.440785],[-4.109299,55.440844],[-4.109184,55.440912],[-4.109118,55.44099],[-4.109103,55.441077],[-4.109138,55.441174],[-4.109219,55.441239],[-4.109346,55.441272],[-4.10952,55.441274],[-4.10974,55.441244],[-4.109909,55.44123],[-4.110025,55.441232],[-4.110089,55.44125],[-4.110101,55.441284],[-4.110074,55.441332],[-4.110008,55.441395],[-4.109902,55.441472],[-4.109758,55.441564],[-4.1097,55.44165],[-4.109728,55.44173],[-4.109843,55.441803],[-4.110045,55.441871],[-4.110294,55.441932],[-4.110589,55.441987],[-4.110931,55.442035],[-4.111319,55.442077],[-4.111575,55.442123],[-4.1117,55.442175],[-4.111694,55.442231],[-4.111556,55.442292],[-4.111484,55.44237],[-4.111479,55.442466],[-4.111539,55.44258],[-4.111667,55.442711],[-4.111809,55.442819],[-4.111968,55.442901],[-4.112142,55.44296],[-4.112332,55.442993],[-4.112519,55.44302],[-4.112704,55.443039],[-4.112886,55.443052],[-4.113065,55.443056],[-4.113227,55.443081],[-4.113372,55.443125],[-4.113499,55.443188],[-4.113609,55.443272],[-4.113756,55.443346],[-4.113939,55.44341],[-4.114159,55.443466],[-4.114415,55.443513],[-4.114673,55.443549],[-4.114931,55.443575],[-4.11519,55.443591],[-4.11545,55.443597],[-4.115974,55.443647],[-4.116763,55.443742],[-4.117817,55.44388],[-4.119136,55.444063],[-4.120142,55.444199],[-4.120835,55.444286],[-4.121216,55.444326],[-4.121284,55.444318],[-4.121363,55.444289],[-4.121451,55.444239],[-4.12155,55.444168],[-4.121659,55.444075],[-4.121758,55.444036],[-4.121848,55.444051],[-4.121928,55.44412],[-4.121999,55.444243],[-4.122135,55.444354],[-4.122335,55.444455],[-4.122601,55.444544],[-4.122931,55.444623],[-4.123352,55.444602],[-4.123864,55.444481],[-4.124467,55.444261]]]}}