{"type":"Feature","properties":{"id":"269509","COMMUNE":"Scottish Borders","PROVINCE":"Scottish Borders","COUNTRY":"UK","FIREDATE":"2025-04-03 12:29:00","FINALDATE":"2025-04-03 12:29:00","CLASS":"FireSeason","areaHA_geo":3.642},"geometry":{"type":"Polygon","coordinates":[[[-3.386082,55.52501],[-3.386098,55.525088],[-3.38615,55.525122],[-3.386238,55.525114],[-3.386362,55.525062],[-3.386487,55.525024],[-3.386614,55.524999],[-3.386741,55.524988],[-3.386869,55.524989],[-3.386996,55.524979],[-3.38712,55.524959],[-3.387242,55.524927],[-3.387362,55.524883],[-3.387454,55.524828],[-3.387519,55.52476],[-3.387555,55.52468],[-3.387564,55.524588],[-3.387608,55.524519],[-3.387688,55.524475],[-3.387802,55.524454],[-3.387951,55.524457],[-3.388083,55.524465],[-3.388199,55.524477],[-3.388297,55.524494],[-3.388379,55.524516],[-3.388496,55.524534],[-3.388649,55.524548],[-3.388838,55.524558],[-3.389062,55.524565],[-3.389248,55.524575],[-3.389394,55.52459],[-3.389502,55.524609],[-3.38957,55.524632],[-3.389607,55.524662],[-3.389613,55.524697],[-3.389586,55.524739],[-3.389529,55.524787],[-3.38949,55.524838],[-3.389472,55.524891],[-3.389472,55.524947],[-3.389492,55.525006],[-3.389491,55.525061],[-3.389468,55.525113],[-3.389424,55.525162],[-3.389359,55.525207],[-3.389288,55.525235],[-3.389211,55.525247],[-3.389128,55.525243],[-3.38904,55.525222],[-3.388944,55.52521],[-3.388839,55.525208],[-3.388725,55.525216],[-3.388603,55.525232],[-3.38849,55.525242],[-3.388386,55.525243],[-3.388291,55.525237],[-3.388206,55.525223],[-3.388113,55.525213],[-3.388013,55.525207],[-3.387906,55.525204],[-3.387792,55.525205],[-3.387712,55.525223],[-3.387667,55.525258],[-3.387656,55.525311],[-3.38768,55.52538],[-3.387729,55.525446],[-3.387804,55.525506],[-3.387904,55.525562],[-3.388029,55.525613],[-3.388171,55.525645],[-3.38833,55.525656],[-3.388505,55.525648],[-3.388698,55.52562],[-3.388851,55.525609],[-3.388964,55.525616],[-3.389038,55.525641],[-3.389073,55.525683],[-3.389121,55.525714],[-3.389181,55.525734],[-3.389255,55.525743],[-3.389342,55.525742],[-3.389404,55.52575],[-3.389441,55.525769],[-3.389453,55.525798],[-3.389439,55.525838],[-3.389412,55.525882],[-3.389371,55.52593],[-3.389317,55.525982],[-3.389248,55.526039],[-3.389198,55.526099],[-3.389165,55.526161],[-3.389151,55.526226],[-3.389154,55.526295],[-3.389168,55.526365],[-3.389193,55.526439],[-3.389229,55.526515],[-3.389276,55.526594],[-3.389348,55.526651],[-3.389444,55.526686],[-3.389565,55.5267],[-3.38971,55.526692],[-3.389846,55.52668],[-3.389972,55.526665],[-3.390089,55.526646],[-3.390195,55.526623],[-3.390311,55.526583],[-3.390437,55.526526],[-3.390571,55.526452],[-3.390715,55.52636],[-3.390777,55.52629],[-3.390757,55.526241],[-3.390655,55.526212],[-3.390471,55.526205],[-3.390331,55.526186],[-3.390236,55.526154],[-3.390186,55.52611],[-3.39018,55.526054],[-3.390206,55.526013],[-3.390265,55.525988],[-3.390356,55.525978],[-3.390479,55.525984],[-3.390559,55.525972],[-3.390597,55.525944],[-3.390591,55.525898],[-3.390543,55.525834],[-3.390525,55.525776],[-3.390537,55.525724],[-3.39058,55.525676],[-3.390653,55.525634],[-3.390695,55.525593],[-3.390705,55.525554],[-3.390684,55.525517],[-3.390631,55.52548],[-3.390587,55.525436],[-3.390553,55.525385],[-3.390527,55.525326],[-3.390511,55.525259],[-3.390534,55.525207],[-3.390596,55.52517],[-3.390696,55.525148],[-3.390835,55.525141],[-3.390917,55.525119],[-3.390941,55.525082],[-3.390908,55.52503],[-3.390818,55.524964],[-3.390724,55.524914],[-3.390625,55.52488],[-3.390521,55.524864],[-3.390414,55.524864],[-3.390338,55.52485],[-3.390295,55.524822],[-3.390284,55.524781],[-3.390306,55.524725],[-3.390312,55.524674],[-3.390303,55.524627],[-3.390278,55.524585],[-3.390238,55.524548],[-3.390183,55.524518],[-3.390112,55.524497],[-3.390025,55.524485],[-3.389923,55.524481],[-3.389844,55.524454],[-3.38979,55.524404],[-3.389761,55.524332],[-3.389755,55.524238],[-3.389697,55.524146],[-3.389586,55.524057],[-3.389422,55.523971],[-3.389205,55.523887],[-3.389028,55.523858],[-3.388891,55.523882],[-3.388795,55.523959],[-3.388739,55.524091],[-3.388676,55.524192],[-3.388605,55.524262],[-3.388528,55.524302],[-3.388443,55.524311],[-3.388365,55.524295],[-3.388294,55.524253],[-3.388229,55.524186],[-3.38817,55.524093],[-3.388076,55.524013],[-3.387946,55.523947],[-3.387779,55.523895],[-3.387577,55.523855],[-3.387413,55.523852],[-3.387286,55.523885],[-3.387196,55.523953],[-3.387145,55.524058],[-3.387119,55.524151],[-3.38712,55.524233],[-3.387147,55.524303],[-3.387201,55.524362],[-3.387203,55.524408],[-3.387154,55.524442],[-3.387054,55.524463],[-3.386902,55.524472],[-3.386754,55.524492],[-3.38661,55.524525],[-3.38647,55.524569],[-3.386335,55.524626],[-3.386228,55.524698],[-3.38615,55.524786],[-3.386102,55.52489],[-3.386082,55.52501]]]}}