{"type":"Feature","properties":{"id":"269534","COMMUNE":"Lochaber","PROVINCE":"Lochaber, Skye & Lochalsh, Arran & Cumbrae and Argyll & Bute","COUNTRY":"UK","FIREDATE":"2025-04-08 02:19:00","FINALDATE":"2025-04-08 03:08:00","CLASS":"FireSeason","areaHA_geo":0.873},"geometry":{"type":"Polygon","coordinates":[[[-4.952226,56.714893],[-4.952292,56.714837],[-4.952348,56.714784],[-4.952395,56.714733],[-4.952432,56.714684],[-4.952439,56.714622],[-4.952413,56.714549],[-4.952357,56.714464],[-4.952269,56.714367],[-4.952226,56.714285],[-4.952228,56.714218],[-4.952275,56.714165],[-4.952366,56.714128],[-4.952412,56.714091],[-4.952414,56.714055],[-4.952372,56.71402],[-4.952284,56.713985],[-4.952196,56.713969],[-4.952107,56.71397],[-4.952017,56.71399],[-4.951925,56.714027],[-4.951833,56.714046],[-4.951739,56.714045],[-4.951644,56.714026],[-4.951547,56.713988],[-4.951437,56.713959],[-4.951314,56.713937],[-4.951178,56.713924],[-4.951029,56.713919],[-4.950919,56.71394],[-4.950848,56.713986],[-4.950815,56.714058],[-4.950821,56.714156],[-4.950845,56.714251],[-4.950887,56.714345],[-4.950946,56.714436],[-4.951022,56.714526],[-4.951073,56.714602],[-4.951098,56.714663],[-4.951096,56.714712],[-4.951069,56.714746],[-4.95107,56.714774],[-4.951099,56.714795],[-4.951156,56.71481],[-4.951241,56.714818],[-4.951346,56.714837],[-4.951473,56.714867],[-4.95162,56.714908],[-4.951787,56.71496],[-4.951932,56.714984],[-4.952053,56.714981],[-4.952151,56.714951],[-4.952226,56.714893]]]}}