{"type":"Feature","properties":{"id":"269501","COMMUNE":"South Lanarkshire","PROVINCE":"South Lanarkshire","COUNTRY":"UK","FIREDATE":"2025-04-09 13:57:00","FINALDATE":"2025-04-09 14:22:00","CLASS":"FireSeason","areaHA_geo":8.646},"geometry":{"type":"Polygon","coordinates":[[[-3.60848,55.542456],[-3.608476,55.542504],[-3.608501,55.542547],[-3.608557,55.542587],[-3.608643,55.542622],[-3.608728,55.542641],[-3.608811,55.542644],[-3.608892,55.542631],[-3.608972,55.542601],[-3.609046,55.542587],[-3.609116,55.542589],[-3.60918,55.542606],[-3.609238,55.542638],[-3.609309,55.542651],[-3.609391,55.542643],[-3.609484,55.542616],[-3.60959,55.542569],[-3.609667,55.542503],[-3.609717,55.542418],[-3.60974,55.542315],[-3.609734,55.542193],[-3.609774,55.542115],[-3.60986,55.54208],[-3.609991,55.542089],[-3.610168,55.542142],[-3.610304,55.542166],[-3.610397,55.542162],[-3.610449,55.542129],[-3.61046,55.542068],[-3.610485,55.54201],[-3.610524,55.541955],[-3.610577,55.541903],[-3.610645,55.541854],[-3.610681,55.541742],[-3.610686,55.541567],[-3.61066,55.541328],[-3.610603,55.541027],[-3.610563,55.540785],[-3.610539,55.540603],[-3.610532,55.540479],[-3.610542,55.540416],[-3.610559,55.540363],[-3.610584,55.540322],[-3.610617,55.540291],[-3.610658,55.540272],[-3.610685,55.540239],[-3.610698,55.540193],[-3.610697,55.540133],[-3.610683,55.54006],[-3.610688,55.539991],[-3.610712,55.539926],[-3.610757,55.539864],[-3.610822,55.539806],[-3.610876,55.539775],[-3.610919,55.53977],[-3.610952,55.539792],[-3.610974,55.53984],[-3.611005,55.539883],[-3.611047,55.539918],[-3.611098,55.539948],[-3.611159,55.539971],[-3.611216,55.539966],[-3.611268,55.539934],[-3.611316,55.539873],[-3.611359,55.539785],[-3.611394,55.539711],[-3.61142,55.539649],[-3.611438,55.539602],[-3.611447,55.539568],[-3.611464,55.539525],[-3.611488,55.539473],[-3.61152,55.539412],[-3.611559,55.539342],[-3.611557,55.539293],[-3.611512,55.539263],[-3.611426,55.539254],[-3.611297,55.539265],[-3.611201,55.539259],[-3.611138,55.539236],[-3.611107,55.539196],[-3.611108,55.539139],[-3.611118,55.539091],[-3.611136,55.539052],[-3.611162,55.539021],[-3.611197,55.539],[-3.611245,55.538985],[-3.611306,55.538979],[-3.611381,55.53898],[-3.611468,55.538988],[-3.611536,55.538987],[-3.611585,55.538975],[-3.611615,55.538954],[-3.611625,55.538923],[-3.611651,55.538891],[-3.611692,55.538856],[-3.611748,55.53882],[-3.61182,55.538783],[-3.611912,55.538745],[-3.612026,55.538707],[-3.612161,55.53867],[-3.612317,55.538632],[-3.612416,55.538582],[-3.612458,55.538521],[-3.612443,55.538448],[-3.612372,55.538363],[-3.612303,55.538294],[-3.612236,55.53824],[-3.612173,55.538201],[-3.612112,55.538178],[-3.612064,55.538143],[-3.612029,55.538096],[-3.612007,55.538037],[-3.611999,55.537966],[-3.612013,55.537906],[-3.612052,55.537857],[-3.612114,55.537819],[-3.6122,55.537792],[-3.612284,55.537761],[-3.612367,55.537725],[-3.612448,55.537685],[-3.612528,55.53764],[-3.612581,55.537596],[-3.612608,55.537551],[-3.612608,55.537506],[-3.612582,55.537461],[-3.612538,55.537438],[-3.612477,55.537437],[-3.612398,55.537459],[-3.612302,55.537502],[-3.612229,55.537533],[-3.612177,55.537552],[-3.612148,55.537559],[-3.612141,55.537554],[-3.612135,55.53753],[-3.612132,55.537489],[-3.612129,55.53743],[-3.612129,55.537352],[-3.612137,55.537283],[-3.612153,55.537223],[-3.612177,55.537172],[-3.61221,55.53713],[-3.61226,55.537078],[-3.612326,55.537017],[-3.612408,55.536947],[-3.612508,55.536867],[-3.612622,55.536797],[-3.612751,55.536735],[-3.612895,55.536682],[-3.613054,55.536638],[-3.613155,55.536567],[-3.613198,55.536468],[-3.613182,55.536342],[-3.613107,55.536189],[-3.613028,55.536094],[-3.612944,55.536059],[-3.612856,55.536082],[-3.612763,55.536164],[-3.612681,55.536222],[-3.612611,55.536256],[-3.612553,55.536267],[-3.612506,55.536254],[-3.612446,55.536268],[-3.612373,55.536309],[-3.612287,55.536376],[-3.612188,55.536471],[-3.612104,55.536553],[-3.612036,55.536623],[-3.611983,55.536681],[-3.611946,55.536727],[-3.61188,55.536769],[-3.611785,55.536808],[-3.611661,55.536843],[-3.611509,55.536874],[-3.611382,55.536907],[-3.611283,55.53694],[-3.61121,55.536974],[-3.611164,55.537009],[-3.611102,55.537027],[-3.611023,55.537028],[-3.610927,55.537012],[-3.610816,55.53698],[-3.610738,55.536976],[-3.610694,55.537002],[-3.610684,55.537057],[-3.610708,55.53714],[-3.610743,55.537201],[-3.61079,55.537238],[-3.610849,55.537251],[-3.610919,55.53724],[-3.610979,55.537241],[-3.611028,55.537253],[-3.611067,55.537278],[-3.611095,55.537313],[-3.611094,55.537347],[-3.611063,55.537379],[-3.611002,55.537409],[-3.610911,55.537436],[-3.610832,55.537461],[-3.610766,55.537483],[-3.610712,55.537503],[-3.61067,55.537519],[-3.610633,55.537549],[-3.6106,55.537591],[-3.610571,55.537646],[-3.610548,55.537715],[-3.61052,55.53778],[-3.610488,55.537841],[-3.610453,55.5379],[-3.610414,55.537955],[-3.610402,55.538006],[-3.610416,55.538054],[-3.610456,55.538098],[-3.610523,55.538138],[-3.610576,55.538178],[-3.610616,55.538217],[-3.610643,55.538255],[-3.610656,55.538293],[-3.610627,55.538325],[-3.610557,55.538352],[-3.610446,55.538374],[-3.610293,55.53839],[-3.610185,55.538413],[-3.610121,55.538442],[-3.610102,55.538478],[-3.610127,55.53852],[-3.610154,55.538567],[-3.610182,55.538617],[-3.610211,55.538672],[-3.610242,55.538732],[-3.610281,55.538779],[-3.610328,55.538814],[-3.610382,55.538837],[-3.610444,55.538848],[-3.610497,55.538868],[-3.610541,55.538896],[-3.610577,55.538933],[-3.610603,55.538978],[-3.610638,55.539025],[-3.610682,55.539076],[-3.610735,55.539129],[-3.610796,55.539185],[-3.61084,55.539233],[-3.610864,55.539274],[-3.61087,55.539307],[-3.610858,55.539332],[-3.610798,55.53935],[-3.610691,55.539362],[-3.610537,55.539367],[-3.610335,55.539365],[-3.61017,55.539354],[-3.610042,55.539333],[-3.60995,55.539304],[-3.609894,55.539265],[-3.609839,55.539215],[-3.609786,55.539153],[-3.609735,55.539081],[-3.609684,55.538997],[-3.609634,55.538933],[-3.609585,55.538889],[-3.609536,55.538865],[-3.609487,55.538861],[-3.609434,55.538869],[-3.609377,55.538889],[-3.609317,55.53892],[-3.609252,55.538963],[-3.609192,55.539005],[-3.609135,55.539047],[-3.609082,55.539089],[-3.609033,55.53913],[-3.609001,55.539176],[-3.608987,55.539227],[-3.608991,55.539282],[-3.609012,55.539343],[-3.608967,55.539404],[-3.608856,55.539465],[-3.608679,55.539527],[-3.608436,55.539589],[-3.608255,55.539656],[-3.608134,55.539727],[-3.608075,55.539803],[-3.608076,55.539883],[-3.608077,55.539961],[-3.608076,55.540035],[-3.608075,55.540107],[-3.608072,55.540176],[-3.60808,55.540248],[-3.608097,55.540322],[-3.608125,55.540399],[-3.608164,55.540478],[-3.608185,55.540548],[-3.60819,55.540609],[-3.608179,55.54066],[-3.608151,55.540702],[-3.608129,55.540748],[-3.608113,55.5408],[-3.608102,55.540855],[-3.608096,55.540915],[-3.608082,55.540977],[-3.608058,55.541039],[-3.608026,55.541102],[-3.607985,55.541166],[-3.607946,55.541225],[-3.607909,55.541278],[-3.607874,55.541326],[-3.607841,55.541369],[-3.607839,55.541406],[-3.607869,55.541439],[-3.60793,55.541466],[-3.608023,55.541489],[-3.608093,55.541524],[-3.608141,55.541571],[-3.608167,55.54163],[-3.608171,55.541702],[-3.608198,55.541787],[-3.608249,55.541888],[-3.608323,55.542003],[-3.608421,55.542133],[-3.608485,55.542243],[-3.608517,55.542334],[-3.608515,55.542405],[-3.60848,55.542456]]]}}