{"type":"Feature","properties":{"id":"269503","COMMUNE":"South Lanarkshire","PROVINCE":"South Lanarkshire","COUNTRY":"UK","FIREDATE":"2025-04-09 16:09:48.099","FINALDATE":"2025-04-10 16:09:50.968","CLASS":"FireSeason","areaHA_geo":4.845},"geometry":{"type":"Polygon","coordinates":[[[-3.6208,55.551164],[-3.620833,55.551268],[-3.620879,55.551333],[-3.620937,55.551358],[-3.621008,55.551345],[-3.621068,55.551326],[-3.621119,55.5513],[-3.621158,55.551268],[-3.621188,55.551229],[-3.62122,55.551196],[-3.621254,55.551167],[-3.621291,55.551143],[-3.62133,55.551124],[-3.621369,55.551116],[-3.621406,55.551121],[-3.621443,55.551136],[-3.621479,55.551164],[-3.621491,55.551201],[-3.621479,55.551248],[-3.621444,55.551304],[-3.621385,55.55137],[-3.621362,55.551436],[-3.621377,55.551501],[-3.621428,55.551566],[-3.621516,55.55163],[-3.621594,55.551688],[-3.621661,55.55174],[-3.621717,55.551784],[-3.621763,55.551822],[-3.621814,55.551844],[-3.621869,55.551852],[-3.621929,55.551845],[-3.621994,55.551823],[-3.622045,55.55179],[-3.622084,55.551744],[-3.622109,55.551686],[-3.622121,55.551616],[-3.62214,55.551545],[-3.622168,55.551472],[-3.622203,55.551398],[-3.622246,55.551323],[-3.622283,55.551279],[-3.622314,55.551265],[-3.62234,55.551282],[-3.62236,55.55133],[-3.622397,55.551369],[-3.622452,55.551399],[-3.622524,55.551421],[-3.622614,55.551433],[-3.622679,55.551453],[-3.62272,55.551479],[-3.622735,55.551512],[-3.622726,55.551552],[-3.622697,55.55159],[-3.622649,55.551626],[-3.622581,55.55166],[-3.622494,55.551691],[-3.62244,55.551731],[-3.62242,55.551777],[-3.622434,55.551831],[-3.622482,55.551893],[-3.622521,55.551931],[-3.622552,55.551944],[-3.622574,55.551933],[-3.622588,55.551898],[-3.622631,55.55186],[-3.622702,55.551819],[-3.622802,55.551775],[-3.62293,55.551727],[-3.623037,55.551677],[-3.623124,55.551624],[-3.62319,55.551568],[-3.623236,55.55151],[-3.623273,55.55146],[-3.623304,55.551421],[-3.623327,55.551391],[-3.623343,55.551371],[-3.623363,55.55135],[-3.623387,55.551329],[-3.623415,55.551307],[-3.623447,55.551285],[-3.623495,55.551269],[-3.623561,55.551258],[-3.623642,55.551253],[-3.623741,55.551253],[-3.623817,55.551246],[-3.623869,55.551231],[-3.623898,55.551208],[-3.623904,55.551178],[-3.623926,55.551151],[-3.623963,55.551126],[-3.624017,55.551105],[-3.624086,55.551086],[-3.624144,55.551085],[-3.62419,55.551101],[-3.624226,55.551135],[-3.62425,55.551186],[-3.624281,55.551236],[-3.624319,55.551283],[-3.624364,55.55133],[-3.624416,55.551374],[-3.624465,55.551414],[-3.624512,55.55145],[-3.624557,55.551481],[-3.624599,55.551508],[-3.624644,55.55155],[-3.624691,55.551606],[-3.624741,55.551676],[-3.624794,55.551762],[-3.624866,55.551834],[-3.624957,55.551892],[-3.625067,55.551938],[-3.625197,55.55197],[-3.625307,55.551987],[-3.6254,55.551988],[-3.625474,55.551974],[-3.625529,55.551943],[-3.62555,55.551919],[-3.625537,55.551901],[-3.62549,55.551889],[-3.625409,55.551883],[-3.62534,55.551874],[-3.625281,55.551862],[-3.625234,55.551846],[-3.625198,55.551828],[-3.625184,55.551807],[-3.625192,55.551783],[-3.625222,55.551756],[-3.625274,55.551726],[-3.625296,55.5517],[-3.625286,55.551677],[-3.625245,55.551657],[-3.625174,55.551641],[-3.625116,55.55162],[-3.625071,55.551595],[-3.62504,55.551566],[-3.625021,55.551533],[-3.625005,55.551482],[-3.624991,55.551413],[-3.624979,55.551326],[-3.624969,55.551221],[-3.624942,55.551138],[-3.624898,55.551077],[-3.624836,55.551038],[-3.624758,55.55102],[-3.6247,55.550991],[-3.624662,55.550948],[-3.624645,55.550894],[-3.624648,55.550826],[-3.62469,55.55077],[-3.62477,55.550723],[-3.62489,55.550686],[-3.625048,55.55066],[-3.625181,55.550613],[-3.625289,55.550545],[-3.625372,55.550457],[-3.62543,55.550349],[-3.625525,55.550276],[-3.625658,55.550237],[-3.625828,55.550233],[-3.626036,55.550265],[-3.626192,55.550273],[-3.626296,55.550259],[-3.626347,55.550223],[-3.626346,55.550163],[-3.626328,55.550106],[-3.626293,55.550052],[-3.62624,55.549999],[-3.62617,55.54995],[-3.62607,55.549923],[-3.625941,55.549921],[-3.625783,55.549941],[-3.625594,55.549986],[-3.625441,55.550033],[-3.625322,55.550083],[-3.625237,55.550136],[-3.625188,55.550192],[-3.625122,55.550213],[-3.625041,55.550201],[-3.624943,55.550154],[-3.62483,55.550074],[-3.624734,55.550029],[-3.624655,55.550021],[-3.624594,55.550049],[-3.624551,55.550113],[-3.624501,55.550171],[-3.624445,55.550223],[-3.624383,55.550268],[-3.624314,55.550307],[-3.624266,55.550353],[-3.624238,55.550405],[-3.624231,55.550464],[-3.624244,55.550529],[-3.624238,55.550588],[-3.624213,55.550641],[-3.62417,55.550687],[-3.624109,55.550727],[-3.62403,55.550762],[-3.623933,55.550791],[-3.623819,55.550814],[-3.623687,55.550832],[-3.623565,55.550829],[-3.623453,55.550804],[-3.62335,55.550758],[-3.623258,55.55069],[-3.623189,55.550623],[-3.623145,55.550557],[-3.623125,55.550493],[-3.623129,55.550429],[-3.623179,55.550389],[-3.623273,55.550372],[-3.623413,55.550379],[-3.623597,55.550409],[-3.623739,55.550414],[-3.623837,55.550394],[-3.623892,55.550349],[-3.623904,55.550279],[-3.623899,55.550218],[-3.623878,55.550167],[-3.62384,55.550125],[-3.623786,55.550092],[-3.623749,55.550044],[-3.623731,55.549981],[-3.62373,55.549903],[-3.623747,55.54981],[-3.623725,55.549729],[-3.623663,55.549661],[-3.623562,55.549605],[-3.623422,55.54956],[-3.62331,55.54955],[-3.623227,55.549574],[-3.623171,55.549632],[-3.623144,55.549724],[-3.623112,55.549799],[-3.623074,55.549857],[-3.623032,55.549898],[-3.622984,55.549922],[-3.622925,55.549927],[-3.622855,55.549914],[-3.622774,55.549883],[-3.622681,55.549834],[-3.622576,55.549798],[-3.622458,55.549776],[-3.622327,55.549767],[-3.622184,55.549771],[-3.622082,55.549791],[-3.622021,55.549828],[-3.622,55.54988],[-3.622021,55.549948],[-3.622011,55.549991],[-3.621971,55.550007],[-3.6219,55.549998],[-3.621799,55.549962],[-3.621736,55.549926],[-3.621712,55.549889],[-3.621726,55.54985],[-3.621778,55.549811],[-3.621806,55.549774],[-3.62181,55.549738],[-3.62179,55.549704],[-3.621746,55.549672],[-3.621733,55.54962],[-3.621752,55.549547],[-3.621803,55.549454],[-3.621885,55.549341],[-3.621888,55.549234],[-3.621812,55.549133],[-3.621657,55.549038],[-3.621422,55.548948],[-3.621237,55.548898],[-3.621101,55.548887],[-3.621016,55.548914],[-3.62098,55.548981],[-3.620954,55.549052],[-3.620937,55.549128],[-3.62093,55.549207],[-3.620933,55.54929],[-3.620959,55.549353],[-3.621008,55.549396],[-3.621081,55.549419],[-3.621177,55.549421],[-3.621239,55.549434],[-3.621267,55.549458],[-3.621261,55.549493],[-3.621221,55.549538],[-3.62118,55.549589],[-3.621139,55.549645],[-3.621097,55.549707],[-3.621055,55.549775],[-3.621052,55.549814],[-3.621089,55.549825],[-3.621165,55.549807],[-3.621281,55.549761],[-3.621371,55.549735],[-3.621435,55.549727],[-3.621474,55.549738],[-3.621488,55.549768],[-3.621479,55.549802],[-3.621446,55.549841],[-3.621391,55.549884],[-3.621312,55.549932],[-3.621258,55.549982],[-3.621229,55.550037],[-3.621225,55.550094],[-3.621246,55.550155],[-3.621241,55.550211],[-3.62121,55.550263],[-3.621152,55.55031],[-3.621069,55.550352],[-3.621002,55.550395],[-3.620953,55.550439],[-3.620922,55.550482],[-3.620907,55.550527],[-3.620906,55.550567],[-3.620917,55.550604],[-3.620941,55.550637],[-3.620977,55.550667],[-3.620987,55.550695],[-3.62097,55.550722],[-3.620926,55.550747],[-3.620856,55.550772],[-3.620808,55.550825],[-3.620783,55.550909],[-3.62078,55.551022],[-3.6208,55.551164]]]}}