{"type":"Feature","properties":{"id":"269502","COMMUNE":"South Lanarkshire","PROVINCE":"South Lanarkshire","COUNTRY":"UK","FIREDATE":"2025-04-07 16:08:00.306","FINALDATE":"2025-04-08 16:08:03.414","CLASS":"FireSeason","areaHA_geo":2.265},"geometry":{"type":"Polygon","coordinates":[[[-3.586701,55.552146],[-3.586754,55.552196],[-3.586866,55.552255],[-3.587037,55.552323],[-3.587268,55.552401],[-3.587492,55.552466],[-3.587707,55.55252],[-3.587916,55.552563],[-3.588116,55.552593],[-3.588307,55.552609],[-3.588488,55.552611],[-3.58866,55.552599],[-3.588822,55.552573],[-3.588985,55.552538],[-3.589151,55.552496],[-3.589319,55.552445],[-3.589489,55.552386],[-3.589617,55.552327],[-3.589704,55.552268],[-3.589749,55.552209],[-3.589753,55.552149],[-3.589742,55.552101],[-3.589717,55.552065],[-3.589678,55.552039],[-3.589624,55.552025],[-3.589581,55.552008],[-3.589549,55.551988],[-3.589527,55.551965],[-3.589516,55.551939],[-3.589528,55.551915],[-3.589561,55.551893],[-3.589617,55.551875],[-3.589695,55.551858],[-3.589753,55.551831],[-3.589791,55.551792],[-3.589809,55.551742],[-3.589807,55.551682],[-3.58979,55.55163],[-3.589757,55.551589],[-3.589709,55.551556],[-3.589645,55.551534],[-3.589585,55.551515],[-3.589529,55.551501],[-3.589476,55.551492],[-3.589427,55.551486],[-3.589382,55.551475],[-3.58934,55.551457],[-3.589302,55.551435],[-3.589268,55.551406],[-3.589228,55.551377],[-3.589183,55.551348],[-3.589133,55.551318],[-3.589078,55.551289],[-3.589023,55.55125],[-3.588969,55.551203],[-3.588915,55.551146],[-3.588863,55.551079],[-3.588811,55.551028],[-3.588759,55.550992],[-3.588707,55.550971],[-3.588656,55.550964],[-3.588612,55.550955],[-3.588576,55.550941],[-3.588546,55.550925],[-3.588523,55.550904],[-3.588512,55.550882],[-3.588512,55.550857],[-3.588523,55.550829],[-3.588546,55.550799],[-3.588541,55.550769],[-3.58851,55.550738],[-3.588451,55.550706],[-3.588365,55.550674],[-3.588293,55.550662],[-3.588236,55.550669],[-3.588194,55.550695],[-3.588167,55.550742],[-3.588161,55.550781],[-3.588176,55.550813],[-3.588213,55.550839],[-3.588272,55.550857],[-3.588321,55.550876],[-3.588359,55.550897],[-3.588387,55.550918],[-3.588406,55.550941],[-3.588404,55.550965],[-3.588382,55.55099],[-3.588341,55.551017],[-3.588279,55.551046],[-3.588243,55.551079],[-3.588232,55.551116],[-3.588247,55.551158],[-3.588288,55.551205],[-3.588314,55.551248],[-3.588324,55.551286],[-3.58832,55.55132],[-3.588301,55.55135],[-3.588272,55.551382],[-3.588234,55.551419],[-3.588187,55.551458],[-3.58813,55.5515],[-3.588078,55.551536],[-3.588033,55.551565],[-3.587992,55.551586],[-3.587957,55.551601],[-3.587916,55.551619],[-3.587869,55.551639],[-3.587817,55.551663],[-3.587758,55.55169],[-3.587691,55.551716],[-3.587614,55.551741],[-3.58753,55.551764],[-3.587436,55.551786],[-3.58736,55.551796],[-3.587302,55.551795],[-3.587262,55.551783],[-3.58724,55.551758],[-3.587234,55.551735],[-3.587243,55.551712],[-3.587269,55.55169],[-3.58731,55.551669],[-3.587356,55.551644],[-3.587406,55.551614],[-3.58746,55.55158],[-3.587518,55.551543],[-3.58757,55.551506],[-3.587616,55.551471],[-3.587655,55.551438],[-3.587687,55.551406],[-3.58771,55.551371],[-3.587723,55.551334],[-3.587727,55.551294],[-3.587721,55.551251],[-3.587703,55.551206],[-3.587673,55.551158],[-3.587632,55.551108],[-3.587579,55.551056],[-3.587528,55.551032],[-3.58748,55.551035],[-3.587434,55.551067],[-3.58739,55.551127],[-3.587363,55.551186],[-3.587354,55.551244],[-3.587361,55.551302],[-3.587386,55.551358],[-3.587388,55.551413],[-3.587366,55.551468],[-3.58732,55.551522],[-3.587251,55.551574],[-3.587191,55.551616],[-3.587138,55.551646],[-3.587094,55.551665],[-3.587059,55.551673],[-3.587006,55.551676],[-3.586935,55.551674],[-3.586848,55.551668],[-3.586743,55.551657],[-3.586651,55.551656],[-3.586574,55.551667],[-3.58651,55.551688],[-3.58646,55.55172],[-3.586455,55.551745],[-3.586496,55.551765],[-3.586582,55.551777],[-3.586713,55.551784],[-3.586817,55.551796],[-3.586894,55.551812],[-3.586943,55.551834],[-3.586964,55.551862],[-3.586995,55.551884],[-3.587034,55.551902],[-3.587082,55.551915],[-3.587139,55.551924],[-3.587176,55.551941],[-3.587193,55.551966],[-3.587189,55.552],[-3.587166,55.552042],[-3.587133,55.552075],[-3.587091,55.5521],[-3.58704,55.552117],[-3.58698,55.552126],[-3.586924,55.552126],[-3.586873,55.552118],[-3.586826,55.552103],[-3.586782,55.552079],[-3.586748,55.552071],[-3.586724,55.55208],[-3.586708,55.552105],[-3.586701,55.552146]]]}}