{"type":"Feature","properties":{"id":"269511","COMMUNE":"North Lanarkshire","PROVINCE":"North Lanarkshire","COUNTRY":"UK","FIREDATE":"2025-04-10 13:14:00","FINALDATE":"2025-04-10 14:01:00","CLASS":"FireSeason","areaHA_geo":18.554},"geometry":{"type":"Polygon","coordinates":[[[-3.864407,55.844905],[-3.864581,55.844915],[-3.864943,55.844843],[-3.865492,55.844688],[-3.866228,55.844452],[-3.86674,55.844252],[-3.867028,55.844087],[-3.867092,55.843959],[-3.866931,55.843866],[-3.866796,55.843777],[-3.866684,55.843692],[-3.866597,55.843611],[-3.866535,55.843534],[-3.866449,55.843462],[-3.866339,55.843397],[-3.866205,55.843337],[-3.866047,55.843283],[-3.865891,55.843227],[-3.865737,55.84317],[-3.865586,55.84311],[-3.865437,55.843049],[-3.865301,55.842951],[-3.865177,55.842815],[-3.865066,55.842643],[-3.864968,55.842433],[-3.864887,55.842246],[-3.864822,55.842082],[-3.864774,55.841939],[-3.864743,55.84182],[-3.864776,55.841703],[-3.864874,55.841588],[-3.865036,55.841477],[-3.865263,55.841367],[-3.865557,55.841261],[-3.865919,55.841156],[-3.866347,55.841054],[-3.866843,55.840954],[-3.867119,55.840934],[-3.867175,55.840992],[-3.86701,55.84113],[-3.866626,55.841347],[-3.866412,55.841541],[-3.866368,55.841711],[-3.866496,55.841857],[-3.866794,55.84198],[-3.867059,55.842066],[-3.86729,55.842115],[-3.867488,55.842127],[-3.867653,55.842103],[-3.867814,55.842043],[-3.86797,55.841948],[-3.868123,55.841818],[-3.868272,55.841652],[-3.868434,55.841524],[-3.86861,55.841434],[-3.868799,55.841381],[-3.869001,55.841365],[-3.869188,55.841322],[-3.869359,55.841251],[-3.869515,55.841153],[-3.869655,55.841027],[-3.869815,55.840948],[-3.869994,55.840916],[-3.870192,55.840929],[-3.87041,55.84099],[-3.870579,55.840976],[-3.870698,55.840888],[-3.870767,55.840727],[-3.870787,55.840492],[-3.870635,55.840351],[-3.870313,55.840306],[-3.869819,55.840355],[-3.869154,55.840499],[-3.868641,55.840567],[-3.868279,55.840558],[-3.86807,55.840473],[-3.868012,55.840311],[-3.868007,55.840185],[-3.868056,55.840095],[-3.868158,55.840042],[-3.868314,55.840025],[-3.868477,55.839997],[-3.868649,55.839959],[-3.868828,55.83991],[-3.869015,55.839851],[-3.869174,55.839778],[-3.869305,55.839692],[-3.869408,55.839594],[-3.869484,55.839482],[-3.869622,55.839368],[-3.869823,55.839252],[-3.870087,55.839134],[-3.870414,55.839013],[-3.870637,55.838879],[-3.870757,55.838729],[-3.870774,55.838566],[-3.870687,55.838387],[-3.870447,55.83833],[-3.870053,55.838392],[-3.869506,55.838575],[-3.868806,55.838879],[-3.868234,55.839106],[-3.86779,55.839255],[-3.867475,55.839327],[-3.867288,55.839321],[-3.867068,55.839354],[-3.866816,55.839423],[-3.866531,55.839531],[-3.866213,55.839676],[-3.865983,55.839808],[-3.86584,55.839927],[-3.865786,55.840034],[-3.865819,55.840127],[-3.865917,55.840183],[-3.86608,55.840201],[-3.866307,55.840181],[-3.866598,55.840123],[-3.866749,55.840109],[-3.86676,55.840141],[-3.866631,55.840216],[-3.866362,55.840337],[-3.866107,55.840415],[-3.865866,55.840451],[-3.865638,55.840445],[-3.865425,55.840397],[-3.865241,55.840408],[-3.865086,55.840477],[-3.864961,55.840604],[-3.864866,55.840789],[-3.864767,55.840941],[-3.864665,55.841059],[-3.864559,55.841144],[-3.86445,55.841194],[-3.864341,55.841221],[-3.864232,55.841223],[-3.864123,55.841201],[-3.864014,55.841155],[-3.863807,55.841191],[-3.863503,55.841308],[-3.8631,55.841508],[-3.8626,55.84179],[-3.862105,55.842014],[-3.861616,55.842181],[-3.861132,55.842291],[-3.860654,55.842344],[-3.860222,55.842444],[-3.859836,55.842594],[-3.859496,55.842791],[-3.859203,55.843037],[-3.859064,55.843215],[-3.859079,55.843323],[-3.85925,55.843363],[-3.859574,55.843333],[-3.859879,55.843297],[-3.860164,55.843253],[-3.860428,55.843201],[-3.860673,55.843142],[-3.860923,55.843106],[-3.861179,55.843094],[-3.861441,55.843106],[-3.861708,55.843141],[-3.861721,55.843196],[-3.861482,55.843271],[-3.86099,55.843366],[-3.860245,55.84348],[-3.859652,55.843592],[-3.859212,55.843702],[-3.858924,55.84381],[-3.858788,55.843915],[-3.858802,55.843995],[-3.858966,55.844048],[-3.859279,55.844075],[-3.859742,55.844076],[-3.86011,55.844089],[-3.860385,55.844114],[-3.860566,55.844151],[-3.860653,55.8442],[-3.86076,55.844249],[-3.860888,55.8443],[-3.861037,55.844352],[-3.861206,55.844405],[-3.861401,55.844441],[-3.861622,55.844462],[-3.86187,55.844468],[-3.862143,55.844457],[-3.862373,55.844461],[-3.862559,55.844479],[-3.862701,55.844512],[-3.862799,55.84456],[-3.862886,55.844594],[-3.862963,55.844615],[-3.863029,55.844622],[-3.863084,55.844616],[-3.863206,55.844616],[-3.863393,55.844621],[-3.863645,55.844632],[-3.863963,55.844649],[-3.864199,55.844685],[-3.864351,55.844739],[-3.864421,55.844813],[-3.864407,55.844905]]]}}