{"type":"Feature","properties":{"id":"269583","COMMUNE":"Ross and Cromarty","PROVINCE":"Caithness & Sutherland and Ross & Cromarty","COUNTRY":"UK","FIREDATE":"2025-04-09 13:59:00","CLASS":"FireSeason","areaHA_geo":12.254},"geometry":{"type":"Polygon","coordinates":[[[-5.169415,57.957721],[-5.16952,57.957731],[-5.1696,57.957716],[-5.169656,57.957678],[-5.169687,57.957616],[-5.169727,57.957559],[-5.169775,57.957508],[-5.169831,57.957462],[-5.169895,57.957422],[-5.169981,57.957387],[-5.170089,57.957358],[-5.170218,57.957335],[-5.170369,57.957318],[-5.1705,57.957317],[-5.170609,57.957332],[-5.170699,57.957364],[-5.170767,57.957412],[-5.170827,57.95744],[-5.170878,57.957448],[-5.170921,57.957436],[-5.170956,57.957404],[-5.170973,57.957367],[-5.170974,57.957323],[-5.170958,57.957274],[-5.170925,57.957219],[-5.17092,57.957169],[-5.170941,57.957124],[-5.17099,57.957082],[-5.171065,57.957046],[-5.171134,57.95703],[-5.171196,57.957036],[-5.171252,57.957062],[-5.171301,57.95711],[-5.17138,57.957116],[-5.17149,57.957079],[-5.171629,57.957],[-5.171798,57.956879],[-5.171912,57.956782],[-5.17197,57.956709],[-5.171972,57.95666],[-5.171918,57.956636],[-5.171873,57.956601],[-5.171837,57.956554],[-5.171809,57.956496],[-5.171789,57.956427],[-5.171786,57.956372],[-5.171799,57.956329],[-5.171829,57.956301],[-5.171875,57.956285],[-5.171922,57.956285],[-5.171969,57.9563],[-5.172017,57.95633],[-5.172065,57.956375],[-5.172119,57.956408],[-5.17218,57.956427],[-5.172248,57.956434],[-5.172322,57.956428],[-5.172384,57.956438],[-5.172434,57.956464],[-5.172471,57.956507],[-5.172495,57.956565],[-5.172542,57.956595],[-5.17261,57.956597],[-5.1727,57.956572],[-5.172811,57.956518],[-5.172899,57.956453],[-5.172962,57.956376],[-5.173001,57.956287],[-5.173016,57.956186],[-5.173039,57.956099],[-5.173071,57.956027],[-5.173111,57.955969],[-5.17316,57.955925],[-5.173217,57.955886],[-5.173281,57.955852],[-5.173354,57.955823],[-5.173435,57.955798],[-5.173493,57.955768],[-5.173529,57.955734],[-5.173542,57.955694],[-5.173533,57.95565],[-5.17356,57.955613],[-5.173625,57.955584],[-5.173726,57.955562],[-5.173864,57.955549],[-5.17399,57.95551],[-5.174104,57.955445],[-5.174206,57.955353],[-5.174295,57.955236],[-5.174389,57.95514],[-5.174487,57.955065],[-5.174589,57.955012],[-5.174695,57.954979],[-5.174842,57.954943],[-5.175029,57.954904],[-5.175257,57.954861],[-5.175525,57.954815],[-5.175743,57.954769],[-5.17591,57.954721],[-5.176027,57.954674],[-5.176093,57.954625],[-5.176116,57.954584],[-5.176097,57.954551],[-5.176036,57.954525],[-5.175932,57.954506],[-5.175838,57.954478],[-5.175755,57.954439],[-5.175681,57.95439],[-5.175618,57.954331],[-5.175546,57.954267],[-5.175466,57.954198],[-5.175378,57.954123],[-5.175282,57.954042],[-5.175186,57.953953],[-5.175092,57.953856],[-5.175,57.95375],[-5.174908,57.953636],[-5.174821,57.953544],[-5.174738,57.953473],[-5.17466,57.953424],[-5.174586,57.953397],[-5.174542,57.953359],[-5.174529,57.95331],[-5.174545,57.953249],[-5.174591,57.953178],[-5.174611,57.953114],[-5.174604,57.953058],[-5.17457,57.953009],[-5.174509,57.952967],[-5.174462,57.95292],[-5.174427,57.952867],[-5.174406,57.952808],[-5.174397,57.952742],[-5.174386,57.952667],[-5.174371,57.952581],[-5.174353,57.952484],[-5.174331,57.952377],[-5.174301,57.952279],[-5.174263,57.952188],[-5.174216,57.952105],[-5.17416,57.95203],[-5.174052,57.951994],[-5.17389,57.951999],[-5.173676,57.952043],[-5.17341,57.952127],[-5.173208,57.952203],[-5.173071,57.952269],[-5.172998,57.952327],[-5.17299,57.952377],[-5.172958,57.952411],[-5.172902,57.952432],[-5.172822,57.952438],[-5.172717,57.95243],[-5.172609,57.952437],[-5.172497,57.952462],[-5.172381,57.952502],[-5.172261,57.952559],[-5.172151,57.952654],[-5.172051,57.952785],[-5.17196,57.952953],[-5.171879,57.953158],[-5.171798,57.95332],[-5.171716,57.953438],[-5.171634,57.953514],[-5.171552,57.953546],[-5.171469,57.953573],[-5.171384,57.953594],[-5.171298,57.95361],[-5.171211,57.95362],[-5.17107,57.953678],[-5.170876,57.953784],[-5.170627,57.953939],[-5.170324,57.954141],[-5.170057,57.954341],[-5.169826,57.954536],[-5.16963,57.954729],[-5.16947,57.954917],[-5.16938,57.955066],[-5.169361,57.955173],[-5.169413,57.955241],[-5.169534,57.955267],[-5.169607,57.955304],[-5.169632,57.955351],[-5.169608,57.955408],[-5.169536,57.955474],[-5.169432,57.95555],[-5.169297,57.955634],[-5.169132,57.955727],[-5.168935,57.955828],[-5.168823,57.95591],[-5.168796,57.955971],[-5.168855,57.956013],[-5.168998,57.956035],[-5.169149,57.956033],[-5.169306,57.956009],[-5.169471,57.955961],[-5.169642,57.955891],[-5.169774,57.955858],[-5.169865,57.955864],[-5.169916,57.955909],[-5.169927,57.955991],[-5.169948,57.956057],[-5.169978,57.956106],[-5.170018,57.956137],[-5.170067,57.956152],[-5.170084,57.956176],[-5.170067,57.95621],[-5.170017,57.956253],[-5.169934,57.956306],[-5.169856,57.956368],[-5.169783,57.95644],[-5.169716,57.956522],[-5.169653,57.956613],[-5.169661,57.956681],[-5.169738,57.956727],[-5.169884,57.95675],[-5.170101,57.956751],[-5.17021,57.956771],[-5.170212,57.95681],[-5.170107,57.956868],[-5.169895,57.956946],[-5.169708,57.957027],[-5.169544,57.957111],[-5.169404,57.957197],[-5.169289,57.957287],[-5.169201,57.957367],[-5.16914,57.957439],[-5.169106,57.957502],[-5.169101,57.957556],[-5.169129,57.957605],[-5.16919,57.957649],[-5.169286,57.957688],[-5.169415,57.957721]]]}}