{"type":"Feature","properties":{"id":"269504","COMMUNE":"South Lanarkshire","PROVINCE":"South Lanarkshire","COUNTRY":"UK","FIREDATE":"2025-04-10 13:14:00","CLASS":"FireSeason","areaHA_geo":10.492},"geometry":{"type":"Polygon","coordinates":[[[-3.654145,55.658011],[-3.654174,55.658086],[-3.654253,55.658175],[-3.654382,55.658279],[-3.654561,55.658396],[-3.654728,55.658486],[-3.654883,55.658548],[-3.655026,55.658582],[-3.655157,55.65859],[-3.655291,55.658597],[-3.655429,55.658603],[-3.65557,55.658609],[-3.655715,55.658615],[-3.655866,55.658606],[-3.656025,55.658584],[-3.656191,55.658547],[-3.656363,55.658496],[-3.65649,55.658468],[-3.656571,55.658461],[-3.656606,55.658478],[-3.656596,55.658516],[-3.656598,55.658551],[-3.656611,55.658582],[-3.656636,55.658609],[-3.656672,55.658631],[-3.656799,55.658626],[-3.657015,55.658591],[-3.657321,55.658529],[-3.657717,55.658437],[-3.658037,55.658343],[-3.658278,55.658246],[-3.658443,55.658146],[-3.658531,55.658042],[-3.658587,55.657936],[-3.658613,55.657826],[-3.658608,55.657712],[-3.658572,55.657596],[-3.658571,55.657487],[-3.658604,55.657385],[-3.658672,55.657292],[-3.658775,55.657205],[-3.658795,55.657063],[-3.65873,55.656865],[-3.658582,55.656611],[-3.65835,55.656302],[-3.658182,55.656033],[-3.658078,55.655804],[-3.658039,55.655616],[-3.658063,55.655469],[-3.658086,55.655338],[-3.658108,55.655223],[-3.658128,55.655124],[-3.658147,55.655042],[-3.658151,55.654969],[-3.658141,55.654906],[-3.658116,55.654852],[-3.658077,55.654808],[-3.658042,55.654763],[-3.658012,55.654717],[-3.657986,55.65467],[-3.657964,55.654621],[-3.657956,55.654569],[-3.65796,55.654514],[-3.657977,55.654455],[-3.658008,55.654393],[-3.658026,55.654333],[-3.658033,55.654276],[-3.658027,55.654222],[-3.658009,55.65417],[-3.658009,55.654124],[-3.658028,55.654083],[-3.658066,55.654047],[-3.658122,55.654017],[-3.658163,55.653959],[-3.65819,55.653873],[-3.658203,55.653759],[-3.658201,55.653618],[-3.658176,55.653516],[-3.658128,55.653454],[-3.658057,55.653432],[-3.657964,55.65345],[-3.657897,55.653474],[-3.657857,55.653502],[-3.657844,55.653536],[-3.657857,55.653574],[-3.657821,55.653616],[-3.657734,55.65366],[-3.657597,55.653707],[-3.65741,55.653757],[-3.657244,55.653786],[-3.657099,55.653793],[-3.656976,55.65378],[-3.656873,55.653746],[-3.656765,55.653725],[-3.656651,55.653719],[-3.656531,55.653727],[-3.656405,55.653748],[-3.656282,55.653772],[-3.65616,55.653799],[-3.656041,55.653828],[-3.655923,55.65386],[-3.655843,55.653911],[-3.655799,55.653983],[-3.655792,55.654075],[-3.655821,55.654187],[-3.655864,55.65429],[-3.655918,55.654385],[-3.655985,55.65447],[-3.656064,55.654548],[-3.656,55.654805],[-3.655791,55.655243],[-3.655439,55.655861],[-3.654943,55.65666],[-3.654566,55.657274],[-3.654307,55.657704],[-3.654167,55.65795],[-3.654145,55.658011]]]}}