{"type":"Feature","properties":{"id":"269533","COMMUNE":"Lochaber","PROVINCE":"Lochaber, Skye & Lochalsh, Arran & Cumbrae and Argyll & Bute","COUNTRY":"UK","FIREDATE":"2025-04-04 02:43:00","FINALDATE":"2025-04-04 02:43:00","CLASS":"FireSeason","areaHA_geo":0.55},"geometry":{"type":"Polygon","coordinates":[[[-4.980032,56.717036],[-4.980243,56.717078],[-4.980635,56.717108],[-4.981208,56.717126],[-4.981961,56.717132],[-4.98239,56.717097],[-4.982494,56.71702],[-4.982273,56.716901],[-4.981727,56.716742],[-4.981292,56.716648],[-4.980967,56.716621],[-4.980752,56.716661],[-4.980647,56.716767],[-4.980536,56.716845],[-4.980417,56.716895],[-4.98029,56.716916],[-4.980157,56.716909],[-4.980065,56.716918],[-4.980013,56.716942],[-4.980002,56.716981],[-4.980032,56.717036]]]}}