{"type":"Feature","properties":{"id":"269611","COMMUNE":"Perth and Kinross","PROVINCE":"Perth & Kinross and Stirling","COUNTRY":"UK","FIREDATE":"2025-04-01 00:00:00","CLASS":"FireSeason","areaHA_geo":40.193},"geometry":{"type":"Polygon","coordinates":[[[-3.369722,56.722609],[-3.369753,56.722751],[-3.369833,56.722831],[-3.369961,56.722847],[-3.370139,56.7228],[-3.370365,56.722691],[-3.370591,56.72253],[-3.370815,56.722318],[-3.371038,56.722055],[-3.371261,56.721741],[-3.371438,56.721432],[-3.371571,56.721127],[-3.371658,56.720827],[-3.371701,56.720531],[-3.371701,56.720312],[-3.37166,56.720168],[-3.371577,56.7201],[-3.371452,56.720107],[-3.37132,56.720089],[-3.371181,56.720044],[-3.371035,56.719973],[-3.370883,56.719876],[-3.370805,56.719794],[-3.370801,56.719727],[-3.370871,56.719675],[-3.371015,56.719638],[-3.37113,56.719589],[-3.371216,56.719526],[-3.371272,56.71945],[-3.371299,56.719361],[-3.371375,56.719303],[-3.371498,56.719277],[-3.371669,56.719282],[-3.371889,56.719319],[-3.372081,56.7193],[-3.372246,56.719226],[-3.372385,56.719097],[-3.372496,56.718913],[-3.372644,56.718782],[-3.372827,56.718704],[-3.373047,56.718678],[-3.373302,56.718706],[-3.373504,56.718708],[-3.373653,56.718684],[-3.373749,56.718635],[-3.373791,56.718561],[-3.373793,56.718559],[-3.373714,56.718548],[-3.373465,56.718496],[-3.373394,56.718402],[-3.373501,56.718267],[-3.373786,56.71809],[-3.37425,56.717871],[-3.374698,56.717708],[-3.37513,56.7176],[-3.375546,56.717547],[-3.375946,56.717549],[-3.376329,56.717591],[-3.376695,56.717672],[-3.377044,56.717793],[-3.377377,56.717953],[-3.37763,56.718091],[-3.377804,56.718207],[-3.377871,56.718273],[-3.377913,56.718256],[-3.378094,56.718103],[-3.37817,56.717971],[-3.378141,56.717861],[-3.378006,56.717773],[-3.377766,56.717706],[-3.377651,56.717644],[-3.37766,56.717586],[-3.377793,56.717533],[-3.378051,56.717485],[-3.378185,56.717405],[-3.378194,56.717294],[-3.37808,56.717151],[-3.377841,56.716976],[-3.37771,56.716842],[-3.377686,56.716747],[-3.37777,56.716693],[-3.377961,56.716678],[-3.378151,56.716638],[-3.378339,56.716573],[-3.378525,56.716482],[-3.37871,56.716366],[-3.378832,56.716227],[-3.378892,56.716064],[-3.37889,56.715879],[-3.378826,56.71567],[-3.378726,56.715514],[-3.378592,56.715413],[-3.378422,56.715364],[-3.378218,56.715369],[-3.37801,56.71535],[-3.377798,56.715308],[-3.377583,56.715241],[-3.377364,56.715151],[-3.377108,56.715094],[-3.376815,56.715071],[-3.376484,56.715081],[-3.376116,56.715124],[-3.375868,56.715185],[-3.375738,56.715263],[-3.375728,56.715359],[-3.375837,56.715471],[-3.375905,56.715572],[-3.375931,56.715661],[-3.375917,56.715738],[-3.375861,56.715803],[-3.375789,56.715834],[-3.3757,56.715833],[-3.375594,56.715798],[-3.375472,56.71573],[-3.375331,56.715672],[-3.375171,56.715624],[-3.374993,56.715586],[-3.374797,56.715558],[-3.374617,56.715521],[-3.374453,56.715476],[-3.374307,56.715423],[-3.374177,56.715361],[-3.37409,56.715296],[-3.374046,56.715228],[-3.374045,56.715156],[-3.374087,56.715082],[-3.374052,56.715025],[-3.37394,56.714985],[-3.37375,56.714963],[-3.373483,56.714959],[-3.373216,56.714912],[-3.372949,56.714824],[-3.372682,56.714694],[-3.372415,56.714523],[-3.372291,56.714382],[-3.372311,56.714272],[-3.372475,56.714193],[-3.372782,56.714145],[-3.372966,56.714097],[-3.373027,56.714047],[-3.372965,56.713997],[-3.37278,56.713946],[-3.37268,56.713901],[-3.372666,56.713862],[-3.372738,56.713829],[-3.372896,56.713802],[-3.37297,56.713755],[-3.372961,56.713689],[-3.372869,56.713603],[-3.372694,56.713497],[-3.3725,56.713414],[-3.372286,56.713352],[-3.372054,56.713313],[-3.371802,56.713296],[-3.371598,56.713295],[-3.37144,56.713308],[-3.37133,56.713337],[-3.371267,56.713381],[-3.371134,56.713394],[-3.370931,56.713375],[-3.370657,56.713324],[-3.370314,56.713241],[-3.370047,56.713217],[-3.369859,56.713253],[-3.369747,56.713348],[-3.369714,56.713502],[-3.369669,56.713631],[-3.369612,56.713734],[-3.369544,56.713811],[-3.369464,56.713862],[-3.369414,56.713917],[-3.369396,56.713976],[-3.369408,56.714038],[-3.369451,56.714103],[-3.369417,56.714186],[-3.369305,56.714287],[-3.369116,56.714405],[-3.36885,56.71454],[-3.3687,56.714653],[-3.368668,56.714742],[-3.368753,56.714809],[-3.368956,56.714853],[-3.369119,56.714912],[-3.369245,56.714988],[-3.369331,56.71508],[-3.36938,56.715188],[-3.369347,56.715297],[-3.369233,56.715406],[-3.369039,56.715515],[-3.368763,56.715624],[-3.368589,56.715735],[-3.368516,56.715848],[-3.368544,56.715962],[-3.368674,56.716078],[-3.368769,56.716188],[-3.368831,56.716292],[-3.368858,56.71639],[-3.368852,56.716482],[-3.368914,56.716566],[-3.369043,56.716642],[-3.369242,56.716708],[-3.369508,56.716767],[-3.369688,56.71683],[-3.369781,56.716899],[-3.369787,56.716972],[-3.369707,56.717051],[-3.369657,56.717123],[-3.369636,56.71719],[-3.369646,56.717251],[-3.369685,56.717306],[-3.36963,56.717358],[-3.36948,56.717406],[-3.369235,56.71745],[-3.368896,56.717491],[-3.368619,56.717542],[-3.368406,56.717605],[-3.368255,56.717678],[-3.368167,56.717763],[-3.368078,56.717831],[-3.367989,56.717884],[-3.367899,56.71792],[-3.367808,56.71794],[-3.367693,56.717998],[-3.367555,56.718093],[-3.367393,56.718226],[-3.367208,56.718396],[-3.367042,56.71855],[-3.366895,56.71869],[-3.366767,56.718813],[-3.366658,56.718922],[-3.366525,56.719031],[-3.366368,56.719142],[-3.366186,56.719253],[-3.365981,56.719366],[-3.3658,56.719509],[-3.365645,56.719681],[-3.365516,56.719883],[-3.365411,56.720115],[-3.365298,56.720328],[-3.365175,56.720521],[-3.365042,56.720695],[-3.364901,56.72085],[-3.364767,56.720985],[-3.364641,56.7211],[-3.364523,56.721196],[-3.364412,56.721272],[-3.364316,56.721367],[-3.364233,56.721481],[-3.364165,56.721613],[-3.36411,56.721764],[-3.36415,56.721861],[-3.364283,56.721904],[-3.36451,56.721892],[-3.36483,56.721827],[-3.365081,56.721813],[-3.365261,56.721851],[-3.365372,56.72194],[-3.365412,56.722081],[-3.365514,56.722188],[-3.365677,56.72226],[-3.365902,56.722297],[-3.366188,56.7223],[-3.366412,56.722262],[-3.366576,56.722183],[-3.366678,56.722063],[-3.36672,56.721903],[-3.366782,56.721787],[-3.366865,56.721717],[-3.366969,56.721691],[-3.367093,56.72171],[-3.367201,56.721765],[-3.367292,56.721855],[-3.367366,56.721981],[-3.367424,56.722142],[-3.36755,56.722303],[-3.367744,56.722463],[-3.368007,56.722623],[-3.368339,56.722782],[-3.36864,56.722863],[-3.368911,56.722864],[-3.369151,56.722787],[-3.369361,56.72263],[-3.369526,56.722549],[-3.369646,56.722542],[-3.369722,56.722609]]]}}