{"type":"Feature","properties":{"id":"269650","COMMUNE":"Na h-Eileanan Siar (Western Isles)","PROVINCE":"Na h-Eileanan Siar (Western Isles)","COUNTRY":"UK","FIREDATE":"2025-04-12 13:23:00","CLASS":"FireSeason","areaHA_geo":8.835},"geometry":{"type":"Polygon","coordinates":[[[-7.23139,57.43666],[-7.231392,57.436704],[-7.231421,57.436728],[-7.231476,57.436732],[-7.231557,57.436716],[-7.231629,57.436687],[-7.23169,57.436646],[-7.231742,57.436592],[-7.231785,57.436526],[-7.231839,57.436474],[-7.231906,57.436438],[-7.231984,57.436416],[-7.232075,57.436409],[-7.232202,57.436424],[-7.232368,57.43646],[-7.23257,57.436518],[-7.23281,57.436597],[-7.23303,57.436655],[-7.23323,57.436692],[-7.23341,57.436708],[-7.23357,57.436703],[-7.233726,57.436681],[-7.233878,57.436642],[-7.234025,57.436587],[-7.234169,57.436515],[-7.23438,57.436462],[-7.234659,57.436427],[-7.235007,57.436411],[-7.235423,57.436414],[-7.235774,57.436392],[-7.236062,57.436343],[-7.236285,57.436268],[-7.236444,57.436168],[-7.236577,57.436075],[-7.236682,57.435991],[-7.236761,57.435915],[-7.236813,57.435848],[-7.236891,57.435828],[-7.236995,57.435857],[-7.237127,57.435933],[-7.237285,57.436058],[-7.237436,57.43615],[-7.23758,57.43621],[-7.237718,57.436238],[-7.237849,57.436234],[-7.237973,57.436233],[-7.238091,57.436236],[-7.238201,57.436243],[-7.238304,57.436253],[-7.238417,57.436264],[-7.238538,57.436275],[-7.238669,57.436288],[-7.238808,57.436301],[-7.238947,57.436313],[-7.239085,57.436324],[-7.239223,57.436333],[-7.23936,57.436341],[-7.239517,57.436346],[-7.239695,57.436346],[-7.239893,57.436342],[-7.240111,57.436334],[-7.240274,57.436313],[-7.240383,57.436277],[-7.240437,57.436228],[-7.240437,57.436164],[-7.240404,57.436099],[-7.240341,57.436032],[-7.240245,57.435963],[-7.240118,57.435893],[-7.239992,57.435846],[-7.239867,57.435821],[-7.239743,57.43582],[-7.23962,57.435841],[-7.23952,57.435851],[-7.239442,57.435848],[-7.239387,57.435833],[-7.239354,57.435805],[-7.239326,57.435769],[-7.239302,57.435725],[-7.239283,57.435672],[-7.239269,57.43561],[-7.239244,57.435548],[-7.239209,57.435485],[-7.239164,57.435422],[-7.239109,57.435358],[-7.239045,57.435303],[-7.238971,57.435257],[-7.238889,57.43522],[-7.238797,57.435193],[-7.238705,57.435199],[-7.238613,57.435239],[-7.238521,57.435313],[-7.238429,57.43542],[-7.238335,57.435459],[-7.23824,57.43543],[-7.238142,57.435331],[-7.238044,57.435165],[-7.237993,57.435038],[-7.237991,57.434951],[-7.238038,57.434904],[-7.238133,57.434896],[-7.238217,57.434883],[-7.238289,57.434864],[-7.23835,57.43484],[-7.2384,57.434809],[-7.238398,57.434768],[-7.238346,57.434715],[-7.238243,57.434651],[-7.238089,57.434577],[-7.238004,57.434521],[-7.237987,57.434485],[-7.238038,57.434468],[-7.238158,57.434471],[-7.23826,57.43446],[-7.238344,57.434436],[-7.238411,57.434398],[-7.238461,57.434346],[-7.238479,57.434299],[-7.238467,57.434257],[-7.238423,57.43422],[-7.238348,57.434188],[-7.238249,57.434163],[-7.238125,57.434145],[-7.237975,57.434134],[-7.237801,57.434131],[-7.237649,57.434148],[-7.23752,57.434187],[-7.237412,57.434246],[-7.237327,57.434326],[-7.237245,57.434404],[-7.237165,57.434481],[-7.237089,57.434556],[-7.237015,57.434629],[-7.236956,57.434664],[-7.236913,57.434661],[-7.236884,57.434619],[-7.236871,57.434539],[-7.236838,57.434445],[-7.236784,57.434339],[-7.236711,57.434219],[-7.236619,57.434086],[-7.236509,57.433982],[-7.236383,57.433909],[-7.236241,57.433866],[-7.236081,57.433853],[-7.235931,57.433861],[-7.23579,57.43389],[-7.235657,57.433941],[-7.235534,57.434013],[-7.235435,57.43408],[-7.235361,57.434143],[-7.235312,57.434201],[-7.235288,57.434254],[-7.235237,57.434312],[-7.235159,57.434376],[-7.235053,57.434444],[-7.23492,57.434517],[-7.234734,57.434619],[-7.234495,57.434748],[-7.234203,57.434906],[-7.233857,57.435092],[-7.233561,57.435249],[-7.233314,57.435377],[-7.233115,57.435476],[-7.232966,57.435546],[-7.23281,57.435614],[-7.232646,57.435679],[-7.232475,57.435742],[-7.232297,57.435803],[-7.232071,57.435832],[-7.231796,57.435831],[-7.231473,57.435797],[-7.231102,57.435733],[-7.230824,57.435691],[-7.230637,57.435672],[-7.230543,57.435676],[-7.230541,57.435703],[-7.230509,57.435727],[-7.230448,57.435748],[-7.230357,57.435767],[-7.230236,57.435783],[-7.230145,57.435803],[-7.230082,57.435827],[-7.230049,57.435855],[-7.230044,57.435888],[-7.230074,57.435914],[-7.230138,57.435935],[-7.230236,57.43595],[-7.230369,57.435958],[-7.230478,57.43598],[-7.230563,57.436013],[-7.230624,57.436059],[-7.230662,57.436118],[-7.230703,57.436187],[-7.230748,57.436267],[-7.230798,57.436358],[-7.230851,57.436459],[-7.230923,57.436528],[-7.231015,57.436565],[-7.231125,57.43657],[-7.231255,57.436542],[-7.231346,57.436537],[-7.231399,57.436555],[-7.231414,57.436596],[-7.23139,57.43666]]]}}