{"type":"Feature","properties":{"id":"269640","COMMUNE":"Badenoch and Strathspey","PROVINCE":"Inverness & Nairn and Moray, Badenoch & Strathspey","COUNTRY":"UK","FIREDATE":"2025-04-01 11:04:00","FINALDATE":"2025-04-01 11:04:00","CLASS":"FireSeason","areaHA_geo":1.619},"geometry":{"type":"Polygon","coordinates":[[[-4.075402,57.179335],[-4.075295,57.179853],[-4.075281,57.180247],[-4.075361,57.180517],[-4.075471,57.180714],[-4.075612,57.180838],[-4.075844,57.180895],[-4.076168,57.180886],[-4.076438,57.180736],[-4.076655,57.180447],[-4.076724,57.180104],[-4.076643,57.179707],[-4.076627,57.179329],[-4.076677,57.178969],[-4.076615,57.178805],[-4.076439,57.178836],[-4.076341,57.178853],[-4.076318,57.178856],[-4.076094,57.178912],[-4.075668,57.179021],[-4.075402,57.179335]]]}}