{"type":"Feature","properties":{"id":"269642","COMMUNE":"Skye and Lochalsh","PROVINCE":"Lochaber, Skye & Lochalsh, Arran & Cumbrae and Argyll & Bute","COUNTRY":"UK","FIREDATE":"2025-04-10 13:14:00","FINALDATE":"2025-04-10 13:14:00","CLASS":"FireSeason","areaHA_geo":5.163},"geometry":{"type":"Polygon","coordinates":[[[-6.208266,57.454221],[-6.20912,57.453879],[-6.209671,57.453584],[-6.209917,57.453335],[-6.210211,57.453046],[-6.210551,57.452716],[-6.210879,57.452305],[-6.211196,57.451812],[-6.211482,57.451397],[-6.211737,57.45106],[-6.212059,57.450706],[-6.212446,57.450336],[-6.212749,57.449905],[-6.21297,57.449416],[-6.213029,57.44913],[-6.212927,57.449047],[-6.212761,57.449002],[-6.212531,57.448996],[-6.212359,57.449013],[-6.212247,57.449053],[-6.212078,57.4492],[-6.21185,57.449455],[-6.211479,57.449789],[-6.210965,57.450202],[-6.210561,57.450553],[-6.210268,57.450842],[-6.21002,57.451143],[-6.209819,57.451456],[-6.209537,57.451844],[-6.209175,57.452308],[-6.20893,57.452669],[-6.208802,57.452929],[-6.208551,57.453222],[-6.208177,57.453548],[-6.207854,57.453845],[-6.207584,57.454114],[-6.207547,57.454284],[-6.207741,57.454356],[-6.208266,57.454221]]]}}