{"type":"Feature","properties":{"id":"269636","COMMUNE":"Mid Ulster","PROVINCE":"Mid Ulster","COUNTRY":"UK","FIREDATE":"2025-05-07 11:28:00","CLASS":"FireSeason","areaHA_geo":1694.555},"geometry":{"type":"Polygon","coordinates":[[[-7.156909,54.335926],[-7.156854,54.335949],[-7.15663,54.336147],[-7.156555,54.336378],[-7.156533,54.33657],[-7.156562,54.336721],[-7.156644,54.336833],[-7.156778,54.336904],[-7.156903,54.336974],[-7.157019,54.337043],[-7.157126,54.337111],[-7.157223,54.337177],[-7.157316,54.337232],[-7.157403,54.337275],[-7.157486,54.337306],[-7.157563,54.337325],[-7.157658,54.337314],[-7.15777,54.337273],[-7.1579,54.337202],[-7.158048,54.337101],[-7.158197,54.337055],[-7.158348,54.337064],[-7.158501,54.337128],[-7.158655,54.337246],[-7.158737,54.337368],[-7.158746,54.337492],[-7.158683,54.337619],[-7.158548,54.337748],[-7.158375,54.337964],[-7.158165,54.338264],[-7.157917,54.338651],[-7.157632,54.339123],[-7.157349,54.339557],[-7.157067,54.339953],[-7.156786,54.340311],[-7.156506,54.340632],[-7.156315,54.340938],[-7.156213,54.341228],[-7.1562,54.341504],[-7.156276,54.341764],[-7.156308,54.341983],[-7.156297,54.34216],[-7.156242,54.342296],[-7.156143,54.34239],[-7.156078,54.342482],[-7.156047,54.342572],[-7.156049,54.342659],[-7.156086,54.342745],[-7.156125,54.342877],[-7.156166,54.343057],[-7.156211,54.343284],[-7.156258,54.343559],[-7.156281,54.343786],[-7.156279,54.343967],[-7.156254,54.344101],[-7.156204,54.344189],[-7.156162,54.344272],[-7.156127,54.344353],[-7.156099,54.34443],[-7.156078,54.344503],[-7.156086,54.344594],[-7.156124,54.344704],[-7.156192,54.344833],[-7.156289,54.34498],[-7.156333,54.345124],[-7.156324,54.345266],[-7.156261,54.345406],[-7.156146,54.345542],[-7.156142,54.345686],[-7.156249,54.345836],[-7.156468,54.345994],[-7.156797,54.346158],[-7.157144,54.346272],[-7.157509,54.346336],[-7.157892,54.34635],[-7.158292,54.346314],[-7.158645,54.346309],[-7.158951,54.346336],[-7.15921,54.346395],[-7.159421,54.346485],[-7.15951,54.346583],[-7.159477,54.346688],[-7.159321,54.346801],[-7.159043,54.34692],[-7.158732,54.347035],[-7.158388,54.347143],[-7.158012,54.347247],[-7.157603,54.347345],[-7.157243,54.347373],[-7.156931,54.347332],[-7.156667,54.347221],[-7.156452,54.34704],[-7.156244,54.346906],[-7.156043,54.346819],[-7.155848,54.346779],[-7.15566,54.346786],[-7.15551,54.346829],[-7.155397,54.346911],[-7.155322,54.347029],[-7.155284,54.347185],[-7.155216,54.34731],[-7.155117,54.347404],[-7.154988,54.347468],[-7.154829,54.3475],[-7.154655,54.34751],[-7.154468,54.347496],[-7.154266,54.347459],[-7.15405,54.347399],[-7.153877,54.347328],[-7.153747,54.347246],[-7.15366,54.347153],[-7.153616,54.347049],[-7.15352,54.346977],[-7.153374,54.346938],[-7.153176,54.346931],[-7.152927,54.346956],[-7.152648,54.347013],[-7.152339,54.347101],[-7.152,54.347222],[-7.151632,54.347374],[-7.151361,54.347523],[-7.151189,54.347668],[-7.151115,54.347809],[-7.151138,54.347946],[-7.151134,54.34807],[-7.151103,54.348179],[-7.151044,54.348276],[-7.150958,54.348358],[-7.150896,54.348467],[-7.150858,54.348603],[-7.150845,54.348766],[-7.150856,54.348955],[-7.150779,54.349121],[-7.150615,54.349265],[-7.150363,54.349386],[-7.150023,54.349484],[-7.149772,54.349585],[-7.149608,54.349688],[-7.149531,54.349794],[-7.149543,54.349903],[-7.149592,54.349969],[-7.14968,54.349992],[-7.149806,54.349971],[-7.149969,54.349908],[-7.15017,54.34986],[-7.150407,54.349826],[-7.15068,54.349808],[-7.150991,54.349804],[-7.151284,54.349823],[-7.151562,54.349864],[-7.151822,54.349928],[-7.152067,54.350014],[-7.152271,54.350035],[-7.152434,54.349992],[-7.152557,54.349884],[-7.15264,54.349712],[-7.152734,54.349576],[-7.152839,54.349475],[-7.152955,54.349411],[-7.153081,54.349384],[-7.153184,54.349402],[-7.153263,54.349466],[-7.153319,54.349576],[-7.15335,54.349732],[-7.153301,54.349912],[-7.153171,54.350116],[-7.15296,54.350344],[-7.152669,54.350596],[-7.152432,54.350846],[-7.152251,54.351092],[-7.152125,54.351336],[-7.152054,54.351577],[-7.151954,54.351769],[-7.151824,54.351913],[-7.151665,54.352008],[-7.151477,54.352055],[-7.151327,54.352149],[-7.151213,54.35229],[-7.151137,54.352479],[-7.151099,54.352715],[-7.151041,54.352894],[-7.150962,54.353016],[-7.150864,54.35308],[-7.150745,54.353087],[-7.150609,54.353133],[-7.150456,54.35322],[-7.150284,54.353347],[-7.150096,54.353515],[-7.149915,54.353651],[-7.149743,54.353755],[-7.149579,54.353829],[-7.149424,54.353871],[-7.149304,54.353925],[-7.14922,54.353992],[-7.149171,54.354072],[-7.149158,54.354164],[-7.149044,54.354293],[-7.148829,54.354459],[-7.148512,54.354662],[-7.148094,54.354902],[-7.147848,54.355067],[-7.147774,54.355158],[-7.147871,54.355174],[-7.148141,54.355116],[-7.148394,54.355078],[-7.148629,54.35506],[-7.148846,54.355061],[-7.149046,54.355083],[-7.149194,54.355158],[-7.149291,54.355285],[-7.149337,54.355464],[-7.149331,54.355696],[-7.149357,54.355941],[-7.149415,54.356199],[-7.149504,54.35647],[-7.149624,54.356754],[-7.149855,54.356982],[-7.150197,54.357155],[-7.150649,54.357272],[-7.151212,54.357333],[-7.151688,54.357371],[-7.152075,54.357387],[-7.152375,54.35738],[-7.152588,54.35735],[-7.152734,54.357286],[-7.152815,54.35719],[-7.152829,54.35706],[-7.152777,54.356896],[-7.152764,54.356742],[-7.152789,54.356598],[-7.152853,54.356464],[-7.152956,54.356339],[-7.153089,54.356232],[-7.15325,54.356144],[-7.153442,54.356074],[-7.153663,54.356023],[-7.153841,54.355975],[-7.153979,54.355931],[-7.154074,54.35589],[-7.154127,54.355852],[-7.154237,54.355827],[-7.154405,54.355813],[-7.154629,54.355811],[-7.154911,54.355822],[-7.155216,54.355827],[-7.155545,54.355825],[-7.155897,54.355818],[-7.156273,54.355805],[-7.156582,54.35583],[-7.156824,54.355891],[-7.157,54.355989],[-7.157109,54.356124],[-7.157152,54.356326],[-7.157128,54.356596],[-7.157037,54.356932],[-7.156879,54.357336],[-7.156952,54.357682],[-7.157256,54.357971],[-7.157792,54.358201],[-7.158558,54.358374],[-7.159123,54.358533],[-7.159488,54.358677],[-7.159651,54.358807],[-7.159614,54.358923],[-7.159609,54.359034],[-7.159637,54.359141],[-7.159697,54.359243],[-7.159791,54.35934],[-7.15996,54.359424],[-7.160207,54.359494],[-7.16053,54.359552],[-7.16093,54.359596],[-7.161315,54.359624],[-7.161684,54.359637],[-7.162038,54.359635],[-7.162377,54.359617],[-7.162697,54.359595],[-7.162997,54.359567],[-7.163278,54.359535],[-7.16354,54.359498],[-7.16377,54.359448],[-7.163968,54.359385],[-7.164135,54.359309],[-7.16427,54.359219],[-7.164363,54.359051],[-7.164414,54.358802],[-7.164422,54.358475],[-7.164388,54.358068],[-7.164437,54.357785],[-7.164568,54.357626],[-7.164783,54.357591],[-7.16508,54.357679],[-7.165293,54.357772],[-7.165421,54.357869],[-7.165464,54.357971],[-7.165423,54.358078],[-7.165435,54.358136],[-7.1655,54.358147],[-7.165619,54.35811],[-7.165791,54.358026],[-7.165964,54.357976],[-7.16614,54.357961],[-7.166317,54.357981],[-7.166497,54.358036],[-7.166641,54.358131],[-7.16675,54.358267],[-7.166825,54.358442],[-7.166864,54.358657],[-7.16694,54.358815],[-7.167051,54.358914],[-7.167199,54.358956],[-7.167383,54.35894],[-7.167537,54.358956],[-7.167661,54.359004],[-7.167756,54.359083],[-7.16782,54.359195],[-7.167812,54.359319],[-7.167732,54.359456],[-7.167579,54.359605],[-7.167353,54.359768],[-7.16719,54.359914],[-7.167089,54.360044],[-7.167051,54.360157],[-7.167074,54.360254],[-7.167032,54.360348],[-7.166923,54.360438],[-7.166748,54.360526],[-7.166507,54.36061],[-7.166332,54.360688],[-7.166223,54.360758],[-7.166181,54.360822],[-7.166205,54.360879],[-7.166178,54.360928],[-7.1661,54.360969],[-7.165971,54.361002],[-7.165791,54.361028],[-7.165638,54.361034],[-7.165512,54.361022],[-7.165412,54.360991],[-7.165339,54.360941],[-7.16523,54.360909],[-7.165085,54.360894],[-7.164904,54.360897],[-7.164688,54.360917],[-7.164518,54.360977],[-7.164395,54.361074],[-7.164318,54.361211],[-7.164289,54.361385],[-7.164278,54.361545],[-7.164288,54.361689],[-7.164316,54.361818],[-7.164365,54.361932],[-7.164389,54.362071],[-7.16439,54.362237],[-7.164368,54.362428],[-7.164321,54.362646],[-7.164329,54.362818],[-7.164392,54.362945],[-7.164509,54.363026],[-7.16468,54.363062],[-7.164851,54.363128],[-7.165022,54.363225],[-7.165192,54.363351],[-7.165363,54.363508],[-7.165525,54.363622],[-7.165679,54.363693],[-7.165824,54.363721],[-7.165961,54.363707],[-7.166066,54.363674],[-7.166139,54.363622],[-7.166181,54.363552],[-7.166191,54.363462],[-7.166266,54.363388],[-7.166407,54.363328],[-7.166614,54.363282],[-7.166887,54.363251],[-7.167128,54.363207],[-7.167338,54.36315],[-7.167516,54.363079],[-7.167662,54.362996],[-7.167772,54.362923],[-7.167845,54.36286],[-7.167881,54.362807],[-7.16788,54.362764],[-7.167894,54.362717],[-7.167922,54.362666],[-7.167964,54.36261],[-7.168021,54.362549],[-7.168075,54.362508],[-7.168126,54.362487],[-7.168176,54.362486],[-7.168222,54.362504],[-7.168276,54.362508],[-7.168337,54.362498],[-7.168405,54.362474],[-7.16848,54.362436],[-7.16855,54.362389],[-7.168615,54.362334],[-7.168675,54.362269],[-7.168731,54.362196],[-7.168784,54.362128],[-7.168835,54.362064],[-7.168884,54.362005],[-7.16893,54.361951],[-7.169004,54.361902],[-7.169107,54.361859],[-7.169238,54.361821],[-7.169398,54.361788],[-7.169532,54.361732],[-7.169641,54.361653],[-7.169726,54.36155],[-7.169785,54.361424],[-7.169848,54.361302],[-7.169915,54.361184],[-7.169986,54.361071],[-7.170061,54.360963],[-7.170132,54.360857],[-7.170198,54.360753],[-7.170261,54.360652],[-7.170318,54.360554],[-7.170398,54.360468],[-7.170499,54.360396],[-7.170623,54.360338],[-7.170768,54.360292],[-7.170887,54.360218],[-7.17098,54.360116],[-7.171047,54.359985],[-7.171088,54.359826],[-7.171108,54.359702],[-7.171106,54.359612],[-7.171084,54.359556],[-7.17104,54.359534],[-7.171002,54.359508],[-7.170969,54.359478],[-7.170942,54.359443],[-7.170921,54.359403],[-7.170927,54.359371],[-7.170961,54.359348],[-7.171021,54.359332],[-7.171109,54.359325],[-7.171202,54.359295],[-7.171301,54.359242],[-7.171406,54.359166],[-7.171515,54.359068],[-7.171616,54.358977],[-7.171708,54.358892],[-7.171791,54.358815],[-7.171865,54.358744],[-7.171928,54.358681],[-7.171981,54.358626],[-7.172022,54.358579],[-7.172053,54.358539],[-7.172096,54.358504],[-7.17215,54.358474],[-7.172216,54.358448],[-7.172294,54.358427],[-7.17236,54.358403],[-7.172416,54.358377],[-7.172461,54.358347],[-7.172495,54.358315],[-7.172572,54.358261],[-7.172692,54.358186],[-7.172855,54.358091],[-7.17306,54.357974],[-7.173267,54.357849],[-7.173475,54.357717],[-7.173685,54.357577],[-7.173895,54.357429],[-7.174109,54.357308],[-7.174326,54.357213],[-7.174547,54.357145],[-7.174772,54.357103],[-7.174957,54.357057],[-7.175102,54.357006],[-7.175208,54.356951],[-7.175273,54.356892],[-7.175389,54.356834],[-7.175553,54.356778],[-7.175767,54.356724],[-7.176031,54.356672],[-7.176237,54.356621],[-7.176385,54.356573],[-7.176476,54.356526],[-7.176509,54.356481],[-7.176569,54.356444],[-7.176657,54.356416],[-7.176771,54.356395],[-7.176913,54.356382],[-7.177004,54.3564],[-7.177044,54.356449],[-7.177033,54.356527],[-7.176971,54.356637],[-7.176932,54.356734],[-7.176917,54.356819],[-7.176924,54.356892],[-7.176954,54.356953],[-7.177019,54.356998],[-7.177118,54.357028],[-7.177252,54.357042],[-7.17742,54.357041],[-7.177553,54.357048],[-7.177651,54.357063],[-7.177712,54.357087],[-7.177739,54.357118],[-7.177794,54.357142],[-7.177877,54.357159],[-7.177988,54.357169],[-7.178128,54.357172],[-7.178249,54.357157],[-7.178352,54.357124],[-7.178436,54.357072],[-7.178502,54.357003],[-7.17858,54.356953],[-7.178671,54.356922],[-7.178775,54.356911],[-7.178891,54.35692],[-7.179,54.35691],[-7.1791,54.35688],[-7.179192,54.356832],[-7.179276,54.356765],[-7.179422,54.356724],[-7.179631,54.35671],[-7.179901,54.356722],[-7.180233,54.35676],[-7.180514,54.35676],[-7.180741,54.35672],[-7.180917,54.356641],[-7.18104,54.356523],[-7.181134,54.356419],[-7.1812,54.356328],[-7.181236,54.356251],[-7.181244,54.356187],[-7.181195,54.356136],[-7.181089,54.356096],[-7.180928,54.35607],[-7.180709,54.356055],[-7.180561,54.356034],[-7.180482,54.356007],[-7.180473,54.355972],[-7.180533,54.355931],[-7.180631,54.355893],[-7.180766,54.355859],[-7.180938,54.355829],[-7.181147,54.355802],[-7.181304,54.355771],[-7.181409,54.355737],[-7.181462,54.355701],[-7.181462,54.35566],[-7.181437,54.355622],[-7.181387,54.355587],[-7.181312,54.355553],[-7.181213,54.355522],[-7.181126,54.355491],[-7.181051,54.355459],[-7.18099,54.355426],[-7.180941,54.355393],[-7.180853,54.355367],[-7.180726,54.355348],[-7.18056,54.355337],[-7.180355,54.355334],[-7.180194,54.35532],[-7.180078,54.355296],[-7.180006,54.355262],[-7.179979,54.355219],[-7.180001,54.35519],[-7.180074,54.355176],[-7.180195,54.355177],[-7.180367,54.355193],[-7.180548,54.355213],[-7.180741,54.355237],[-7.180943,54.355266],[-7.181156,54.355298],[-7.181355,54.355337],[-7.181538,54.355381],[-7.181707,54.355431],[-7.18186,54.355487],[-7.182007,54.355532],[-7.182148,54.355567],[-7.182281,54.35559],[-7.182407,54.355602],[-7.182529,54.355606],[-7.182647,54.355602],[-7.182759,54.35559],[-7.182868,54.35557],[-7.182963,54.355533],[-7.183044,54.35548],[-7.183112,54.355411],[-7.183167,54.355325],[-7.183212,54.35525],[-7.183247,54.355186],[-7.183274,54.355133],[-7.18329,54.355091],[-7.183314,54.355058],[-7.183345,54.355034],[-7.183384,54.355021],[-7.18343,54.355017],[-7.183486,54.355021],[-7.183552,54.355035],[-7.183629,54.355057],[-7.183715,54.355087],[-7.18379,54.355093],[-7.183854,54.355074],[-7.183905,54.35503],[-7.183946,54.354962],[-7.183969,54.354901],[-7.183975,54.354849],[-7.183963,54.354805],[-7.183935,54.354768],[-7.183917,54.354727],[-7.183911,54.35468],[-7.183915,54.354628],[-7.183929,54.354571],[-7.183962,54.354526],[-7.184013,54.354492],[-7.184081,54.35447],[-7.184168,54.354461],[-7.184224,54.354438],[-7.18425,54.354401],[-7.184245,54.354352],[-7.18421,54.354289],[-7.18422,54.354236],[-7.184275,54.354191],[-7.184375,54.354157],[-7.18452,54.354131],[-7.184605,54.35409],[-7.184631,54.354034],[-7.184597,54.353962],[-7.184504,54.353875],[-7.184479,54.353813],[-7.184522,54.353777],[-7.184633,54.353766],[-7.184813,54.353781],[-7.184951,54.353801],[-7.185049,54.353828],[-7.185106,54.35386],[-7.185122,54.353898],[-7.185153,54.353927],[-7.185198,54.353947],[-7.185258,54.353958],[-7.185333,54.35396],[-7.185386,54.353971],[-7.185419,54.353993],[-7.185432,54.354025],[-7.185423,54.354066],[-7.185466,54.354099],[-7.185561,54.354123],[-7.185708,54.354139],[-7.185906,54.354146],[-7.186068,54.354156],[-7.186195,54.35417],[-7.186286,54.354186],[-7.186342,54.354206],[-7.186417,54.354216],[-7.186511,54.354217],[-7.186623,54.354208],[-7.186753,54.354189],[-7.186866,54.35418],[-7.186962,54.35418],[-7.18704,54.35419],[-7.1871,54.354209],[-7.187164,54.354222],[-7.187231,54.354229],[-7.187303,54.354229],[-7.187379,54.354224],[-7.187453,54.354197],[-7.187526,54.354151],[-7.187598,54.354083],[-7.187669,54.353996],[-7.187759,54.353931],[-7.187868,54.353891],[-7.187995,54.353874],[-7.188141,54.353881],[-7.188233,54.353906],[-7.188271,54.35395],[-7.188255,54.354012],[-7.188185,54.354092],[-7.188179,54.354186],[-7.188238,54.354293],[-7.18836,54.354414],[-7.188547,54.354548],[-7.188699,54.354646],[-7.188816,54.354707],[-7.188898,54.354732],[-7.188945,54.35472],[-7.188992,54.354699],[-7.189037,54.354669],[-7.189082,54.354629],[-7.189126,54.35458],[-7.189177,54.354542],[-7.189234,54.354513],[-7.189298,54.354496],[-7.189369,54.354488],[-7.189429,54.354498],[-7.18948,54.354525],[-7.18952,54.354568],[-7.18955,54.354629],[-7.189579,54.354682],[-7.189607,54.354727],[-7.189634,54.354765],[-7.189659,54.354794],[-7.189693,54.35481],[-7.189736,54.354814],[-7.189787,54.354806],[-7.189848,54.354784],[-7.189897,54.35476],[-7.189936,54.354734],[-7.189963,54.354704],[-7.18998,54.354672],[-7.190006,54.354648],[-7.190044,54.354634],[-7.190092,54.354629],[-7.19015,54.354634],[-7.1902,54.354645],[-7.190243,54.354665],[-7.190278,54.354691],[-7.190305,54.354725],[-7.190356,54.354752],[-7.19043,54.354773],[-7.190527,54.354787],[-7.190647,54.354796],[-7.190742,54.354795],[-7.190812,54.354785],[-7.190856,54.354766],[-7.190874,54.354738],[-7.190921,54.354715],[-7.190995,54.354696],[-7.191097,54.354681],[-7.191226,54.35467],[-7.191319,54.354682],[-7.191376,54.354718],[-7.191395,54.354778],[-7.191379,54.35486],[-7.191367,54.354932],[-7.191361,54.354993],[-7.191359,54.355044],[-7.191363,54.355083],[-7.191389,54.355117],[-7.191438,54.355146],[-7.19151,54.355168],[-7.191603,54.355185],[-7.191665,54.355219],[-7.191696,54.35527],[-7.191694,54.355338],[-7.191661,54.355423],[-7.191653,54.355491],[-7.191671,54.355543],[-7.191714,54.355577],[-7.191782,54.355595],[-7.191826,54.35562],[-7.191847,54.355653],[-7.191843,54.355692],[-7.191815,54.355739],[-7.191839,54.355777],[-7.191914,54.355806],[-7.192041,54.355827],[-7.192219,54.35584],[-7.192354,54.355865],[-7.192443,54.355902],[-7.192488,54.355952],[-7.192489,54.356015],[-7.192456,54.356057],[-7.19239,54.356079],[-7.192289,54.356081],[-7.192156,54.356062],[-7.192056,54.356067],[-7.19199,54.356095],[-7.191958,54.356146],[-7.19196,54.356222],[-7.191983,54.356282],[-7.192029,54.356328],[-7.192096,54.35636],[-7.192186,54.356378],[-7.192263,54.356411],[-7.192327,54.356459],[-7.192378,54.356524],[-7.192417,54.356604],[-7.192433,54.356677],[-7.192429,54.356742],[-7.192403,54.356801],[-7.192356,54.356853],[-7.192333,54.356897],[-7.192336,54.356933],[-7.192363,54.356961],[-7.192415,54.356982],[-7.192455,54.357012],[-7.192483,54.357052],[-7.192498,54.357102],[-7.192502,54.357161],[-7.192476,54.357206],[-7.192419,54.357235],[-7.192332,54.35725],[-7.192214,54.357249],[-7.192123,54.357261],[-7.192058,54.357286],[-7.192019,54.357325],[-7.192007,54.357377],[-7.192011,54.357417],[-7.192032,54.357446],[-7.192069,54.357462],[-7.192123,54.357467],[-7.19216,54.357495],[-7.192179,54.357545],[-7.19218,54.357617],[-7.192165,54.357712],[-7.192172,54.357786],[-7.192203,54.357838],[-7.192257,54.357869],[-7.192335,54.357878],[-7.192401,54.357863],[-7.192456,54.357824],[-7.192499,54.357761],[-7.192531,54.357673],[-7.192594,54.357619],[-7.192686,54.357597],[-7.192809,54.357608],[-7.192962,54.357651],[-7.193106,54.357751],[-7.193242,54.357908],[-7.193369,54.358121],[-7.193488,54.35839],[-7.193586,54.358602],[-7.193662,54.358755],[-7.193716,54.358851],[-7.19375,54.358889],[-7.193779,54.358928],[-7.193802,54.358969],[-7.193821,54.359011],[-7.193835,54.359054],[-7.193847,54.359099],[-7.193856,54.359147],[-7.193863,54.359197],[-7.193868,54.359249],[-7.193826,54.359289],[-7.193736,54.359318],[-7.1936,54.359336],[-7.193416,54.359342],[-7.193251,54.359352],[-7.193104,54.359368],[-7.192975,54.359389],[-7.192864,54.359415],[-7.192739,54.359469],[-7.192599,54.359551],[-7.192444,54.359662],[-7.192273,54.359802],[-7.192132,54.359919],[-7.19202,54.360012],[-7.191938,54.360083],[-7.191884,54.360131],[-7.191783,54.360185],[-7.191633,54.360245],[-7.191435,54.360311],[-7.191188,54.360383],[-7.191,54.360453],[-7.190871,54.360521],[-7.1908,54.360585],[-7.190787,54.360647],[-7.190763,54.360695],[-7.190728,54.360729],[-7.190681,54.360749],[-7.190623,54.360755],[-7.190561,54.360745],[-7.190496,54.360719],[-7.190427,54.360677],[-7.190355,54.360619],[-7.190274,54.360586],[-7.190184,54.360578],[-7.190084,54.360594],[-7.189976,54.360634],[-7.189878,54.360664],[-7.189791,54.360684],[-7.189715,54.360693],[-7.18965,54.360693],[-7.189544,54.360729],[-7.189398,54.360802],[-7.189211,54.360913],[-7.188983,54.361061],[-7.188813,54.361183],[-7.188701,54.361281],[-7.188646,54.361353],[-7.188649,54.3614],[-7.188639,54.361441],[-7.188616,54.361474],[-7.188581,54.3615],[-7.188533,54.36152],[-7.188494,54.361577],[-7.188463,54.361673],[-7.188441,54.361808],[-7.188428,54.36198],[-7.188434,54.362122],[-7.188459,54.362232],[-7.188504,54.362312],[-7.188568,54.362361],[-7.188599,54.362415],[-7.188596,54.362476],[-7.188561,54.362542],[-7.188492,54.362615],[-7.188433,54.362699],[-7.188385,54.362795],[-7.188348,54.362903],[-7.18832,54.363022],[-7.18833,54.363103],[-7.188376,54.363145],[-7.188459,54.363149],[-7.188579,54.363115],[-7.188665,54.363103],[-7.188717,54.363115],[-7.188736,54.363149],[-7.188721,54.363206],[-7.188711,54.363263],[-7.188704,54.363319],[-7.188702,54.363375],[-7.188704,54.36343],[-7.188671,54.363473],[-7.188604,54.363503],[-7.188503,54.363522],[-7.188367,54.363529],[-7.188242,54.363547],[-7.188129,54.363577],[-7.188028,54.363618],[-7.187938,54.363671],[-7.187877,54.363752],[-7.187846,54.363862],[-7.187844,54.364001],[-7.187872,54.364167],[-7.187885,54.364301],[-7.187884,54.364402],[-7.18787,54.364469],[-7.187841,54.364503],[-7.18782,54.364549],[-7.187808,54.364606],[-7.187803,54.364674],[-7.187807,54.364754],[-7.187813,54.364844],[-7.187821,54.364945],[-7.187831,54.365055],[-7.187844,54.365177],[-7.187889,54.365266],[-7.187967,54.365322],[-7.188078,54.365347],[-7.188222,54.365339],[-7.188357,54.365327],[-7.188483,54.365312],[-7.188599,54.365293],[-7.188707,54.365271],[-7.18882,54.365258],[-7.188938,54.365257],[-7.189062,54.365265],[-7.189191,54.365285],[-7.189314,54.365287],[-7.189429,54.365272],[-7.189536,54.36524],[-7.189637,54.36519],[-7.189727,54.365168],[-7.189807,54.365173],[-7.189877,54.365205],[-7.189937,54.365265],[-7.189951,54.365315],[-7.189919,54.365358],[-7.189841,54.365391],[-7.189717,54.365416],[-7.189605,54.36546],[-7.189504,54.365524],[-7.189415,54.365606],[-7.189336,54.365707],[-7.189305,54.365781],[-7.18932,54.365826],[-7.189382,54.365844],[-7.18949,54.365834],[-7.189575,54.365835],[-7.189637,54.365848],[-7.189675,54.365872],[-7.18969,54.365907],[-7.189677,54.36595],[-7.189635,54.366],[-7.189565,54.366057],[-7.189467,54.366121],[-7.189405,54.366178],[-7.189379,54.36623],[-7.189389,54.366275],[-7.189436,54.366313],[-7.189459,54.366357],[-7.189458,54.366406],[-7.189434,54.366461],[-7.189385,54.36652],[-7.189376,54.366565],[-7.189406,54.366594],[-7.189475,54.366609],[-7.189583,54.366609],[-7.189711,54.366612],[-7.189859,54.366619],[-7.190027,54.366629],[-7.190215,54.366642],[-7.190349,54.366625],[-7.19043,54.366576],[-7.190458,54.366495],[-7.190432,54.366383],[-7.190485,54.366292],[-7.190618,54.366222],[-7.19083,54.366173],[-7.191121,54.366144],[-7.191393,54.366139],[-7.191646,54.366159],[-7.19188,54.366202],[-7.192095,54.36627],[-7.192295,54.366297],[-7.19248,54.366283],[-7.19265,54.366229],[-7.192804,54.366134],[-7.192905,54.366057],[-7.192951,54.365998],[-7.192943,54.365957],[-7.192881,54.365933],[-7.192825,54.365905],[-7.192774,54.365873],[-7.19273,54.365837],[-7.192691,54.365798],[-7.192713,54.365768],[-7.192793,54.365749],[-7.192934,54.365741],[-7.193134,54.365743],[-7.193267,54.365712],[-7.193333,54.365648],[-7.193332,54.365553],[-7.193265,54.365424],[-7.193237,54.365325],[-7.193248,54.365256],[-7.1933,54.365216],[-7.193391,54.365205],[-7.193481,54.36524],[-7.193571,54.365319],[-7.19366,54.365442],[-7.193749,54.36561],[-7.193847,54.365747],[-7.193955,54.365852],[-7.194072,54.365926],[-7.194198,54.365969],[-7.194292,54.36598],[-7.194353,54.36596],[-7.194381,54.365909],[-7.194376,54.365827],[-7.194386,54.365774],[-7.194412,54.365752],[-7.194452,54.365759],[-7.194507,54.365797],[-7.194607,54.365824],[-7.194752,54.365839],[-7.194943,54.365844],[-7.195179,54.365839],[-7.195383,54.365816],[-7.195557,54.365776],[-7.1957,54.36572],[-7.195812,54.365646],[-7.195937,54.3656],[-7.196076,54.36558],[-7.196228,54.365587],[-7.196395,54.365621],[-7.196559,54.365627],[-7.196723,54.365604],[-7.196885,54.365552],[-7.197046,54.365472],[-7.197179,54.365424],[-7.197286,54.365411],[-7.197366,54.36543],[-7.197419,54.365483],[-7.197508,54.365515],[-7.197634,54.365526],[-7.197797,54.365516],[-7.197996,54.365485],[-7.198192,54.36546],[-7.198385,54.36544],[-7.198575,54.365426],[-7.198762,54.365417],[-7.198897,54.365383],[-7.19898,54.365323],[-7.199011,54.365239],[-7.19899,54.365129],[-7.19906,54.365049],[-7.199222,54.365],[-7.199474,54.364981],[-7.199816,54.364993],[-7.200103,54.36502],[-7.200334,54.365063],[-7.200508,54.365121],[-7.200626,54.365195],[-7.200739,54.365248],[-7.200848,54.36528],[-7.200953,54.365291],[-7.201053,54.365282],[-7.201161,54.365281],[-7.201276,54.365287],[-7.201399,54.365301],[-7.20153,54.365323],[-7.201604,54.365322],[-7.201623,54.3653],[-7.201585,54.365255],[-7.201492,54.365188],[-7.201402,54.365141],[-7.201317,54.365114],[-7.201236,54.365107],[-7.20116,54.36512],[-7.201077,54.365122],[-7.200988,54.365112],[-7.200893,54.36509],[-7.200793,54.365057],[-7.200732,54.365018],[-7.20071,54.364973],[-7.200729,54.364923],[-7.200787,54.364867],[-7.200868,54.364829],[-7.20097,54.36481],[-7.201094,54.364808],[-7.20124,54.364825],[-7.201385,54.364802],[-7.201529,54.364739],[-7.201673,54.364636],[-7.201816,54.364493],[-7.201924,54.364374],[-7.201999,54.364279],[-7.202039,54.364209],[-7.202046,54.364163],[-7.202069,54.364121],[-7.20211,54.364084],[-7.202167,54.364051],[-7.202242,54.364023],[-7.202313,54.364016],[-7.202382,54.364029],[-7.202447,54.364062],[-7.202509,54.364116],[-7.202601,54.364149],[-7.202723,54.364162],[-7.202876,54.364154],[-7.203059,54.364126],[-7.203228,54.364147],[-7.203383,54.364216],[-7.203525,54.364335],[-7.203652,54.364503],[-7.20377,54.364633],[-7.203876,54.364726],[-7.203972,54.364781],[-7.204058,54.364799],[-7.204136,54.364801],[-7.204206,54.364788],[-7.204268,54.364758],[-7.204322,54.364713],[-7.204348,54.364672],[-7.204345,54.364634],[-7.204314,54.364601],[-7.204254,54.364572],[-7.204197,54.364539],[-7.204142,54.364503],[-7.204091,54.364463],[-7.204042,54.36442],[-7.204048,54.364371],[-7.204109,54.364316],[-7.204225,54.364255],[-7.204396,54.364188],[-7.204508,54.364109],[-7.204562,54.364017],[-7.204558,54.363913],[-7.204495,54.363796],[-7.204476,54.363694],[-7.204499,54.363606],[-7.204566,54.363534],[-7.204675,54.363475],[-7.204745,54.363416],[-7.204776,54.363355],[-7.204767,54.363293],[-7.204718,54.36323],[-7.204718,54.363178],[-7.204766,54.363139],[-7.204863,54.363111],[-7.205008,54.363096],[-7.205155,54.363101],[-7.205304,54.363126],[-7.205456,54.363172],[-7.20561,54.363238],[-7.205767,54.363272],[-7.205929,54.363274],[-7.206094,54.363245],[-7.206262,54.363183],[-7.206451,54.363143],[-7.206659,54.363123],[-7.206887,54.363125],[-7.207135,54.363147],[-7.20733,54.363134],[-7.207472,54.363085],[-7.20756,54.363001],[-7.207596,54.36288],[-7.207612,54.362767],[-7.20761,54.36266],[-7.20759,54.362561],[-7.20755,54.362468],[-7.207481,54.362346],[-7.207381,54.362193],[-7.207251,54.36201],[-7.207091,54.361797],[-7.20693,54.361624],[-7.206767,54.361491],[-7.206603,54.361399],[-7.206438,54.361347],[-7.206276,54.361298],[-7.206115,54.361251],[-7.205957,54.361208],[-7.205801,54.361167],[-7.205692,54.361114],[-7.205629,54.361049],[-7.205614,54.360972],[-7.205645,54.360882],[-7.205734,54.360816],[-7.205881,54.360776],[-7.206086,54.360759],[-7.20635,54.360767],[-7.206562,54.360782],[-7.206723,54.360804],[-7.206833,54.360834],[-7.206892,54.360871],[-7.20696,54.360893],[-7.207036,54.360899],[-7.207122,54.360891],[-7.207216,54.360868],[-7.20723,54.36079],[-7.207166,54.360659],[-7.207022,54.360473],[-7.206799,54.360234],[-7.206565,54.360062],[-7.206322,54.359959],[-7.206068,54.359923],[-7.205805,54.359955],[-7.20563,54.359942],[-7.205545,54.359884],[-7.205549,54.359781],[-7.205641,54.359632],[-7.205633,54.3595],[-7.205523,54.359385],[-7.205313,54.359287],[-7.205001,54.359206],[-7.204707,54.3591],[-7.204431,54.358971],[-7.204173,54.358818],[-7.203933,54.358641],[-7.203702,54.358475],[-7.203479,54.358318],[-7.203265,54.358171],[-7.20306,54.358034],[-7.202983,54.357931],[-7.203036,54.357861],[-7.203217,54.357824],[-7.203527,54.35782],[-7.20373,54.357793],[-7.203825,54.357742],[-7.203813,54.357667],[-7.203693,54.357568],[-7.203612,54.357484],[-7.20357,54.357415],[-7.203566,54.35736],[-7.203601,54.35732],[-7.20364,54.357271],[-7.203684,54.357212],[-7.203733,54.357143],[-7.203787,54.357065],[-7.203832,54.357009],[-7.203869,54.356974],[-7.203898,54.356959],[-7.203918,54.356967],[-7.203979,54.357007],[-7.204079,54.357081],[-7.20422,54.357187],[-7.204401,54.357328],[-7.204565,54.35745],[-7.204714,54.357554],[-7.204846,54.357641],[-7.204962,54.35771],[-7.205106,54.357772],[-7.205277,54.357829],[-7.205476,54.357878],[-7.205702,54.357922],[-7.205861,54.357938],[-7.205951,54.357928],[-7.205975,54.35789],[-7.20593,54.357826],[-7.205866,54.357758],[-7.205783,54.357684],[-7.20568,54.357606],[-7.205558,54.357523],[-7.205416,54.357427],[-7.205253,54.35732],[-7.20507,54.3572],[-7.204867,54.357068],[-7.204701,54.356944],[-7.204573,54.356826],[-7.204483,54.356716],[-7.20443,54.356613],[-7.204356,54.35652],[-7.204261,54.356439],[-7.204144,54.356367],[-7.204005,54.356307],[-7.203885,54.356242],[-7.203782,54.356174],[-7.203697,54.356102],[-7.20363,54.356026],[-7.203626,54.355955],[-7.203685,54.355889],[-7.203806,54.355828],[-7.20399,54.355772],[-7.204107,54.355706],[-7.204158,54.355631],[-7.204141,54.355547],[-7.204058,54.355453],[-7.203941,54.355355],[-7.203789,54.355254],[-7.203604,54.355148],[-7.203384,54.355039],[-7.203161,54.354968],[-7.202934,54.354934],[-7.202705,54.354939],[-7.202472,54.354982],[-7.202246,54.355028],[-7.202029,54.355076],[-7.201819,54.355127],[-7.201616,54.355181],[-7.201429,54.35521],[-7.201258,54.355214],[-7.201102,54.355194],[-7.200961,54.355148],[-7.200877,54.355109],[-7.20085,54.355075],[-7.200879,54.355047],[-7.200965,54.355025],[-7.20102,54.354959],[-7.201043,54.354851],[-7.201034,54.354699],[-7.200995,54.354504],[-7.200898,54.354338],[-7.200745,54.354201],[-7.200535,54.354094],[-7.200268,54.354017],[-7.200076,54.353902],[-7.199959,54.35375],[-7.199918,54.353561],[-7.199952,54.353336],[-7.200034,54.353167],[-7.200164,54.353056],[-7.200343,54.353002],[-7.200569,54.353005],[-7.200775,54.352979],[-7.20096,54.352926],[-7.201124,54.352843],[-7.201268,54.352733],[-7.201463,54.352657],[-7.20171,54.352617],[-7.20201,54.352613],[-7.20236,54.352643],[-7.20266,54.35269],[-7.202907,54.352753],[-7.203103,54.352832],[-7.203248,54.352927],[-7.20342,54.352995],[-7.20362,54.353037],[-7.203847,54.353053],[-7.204102,54.353042],[-7.204306,54.353052],[-7.204458,54.353083],[-7.204558,54.353136],[-7.204607,54.353209],[-7.204762,54.353274],[-7.205024,54.353329],[-7.205392,54.353376],[-7.205868,54.353414],[-7.206253,54.35343],[-7.206549,54.353423],[-7.206756,54.353394],[-7.206872,54.353343],[-7.206978,54.35329],[-7.207072,54.353236],[-7.207155,54.353182],[-7.207227,54.353127],[-7.207303,54.353052],[-7.207384,54.352957],[-7.20747,54.352844],[-7.207561,54.35271],[-7.207688,54.352593],[-7.207853,54.352492],[-7.208055,54.352407],[-7.208294,54.352338],[-7.208513,54.352281],[-7.20871,54.352235],[-7.208886,54.352201],[-7.209041,54.352179],[-7.20924,54.352184],[-7.209483,54.352215],[-7.209769,54.352272],[-7.2101,54.352356],[-7.21039,54.352436],[-7.210639,54.352514],[-7.210848,54.352589],[-7.211018,54.35266],[-7.211168,54.352718],[-7.211299,54.352762],[-7.211412,54.352792],[-7.211506,54.352809],[-7.211613,54.352797],[-7.211733,54.352754],[-7.211867,54.352683],[-7.212015,54.352582],[-7.212138,54.352519],[-7.212236,54.352495],[-7.212309,54.35251],[-7.212358,54.352563],[-7.212403,54.352622],[-7.212443,54.352687],[-7.212479,54.352757],[-7.212512,54.352832],[-7.2126,54.352902],[-7.212743,54.352964],[-7.212942,54.35302],[-7.213197,54.353069],[-7.213423,54.353131],[-7.213619,54.353207],[-7.213787,54.353294],[-7.213925,54.353395],[-7.214086,54.353467],[-7.214268,54.353509],[-7.214473,54.353521],[-7.214699,54.353504],[-7.214872,54.353507],[-7.21499,54.353531],[-7.215054,54.353574],[-7.215064,54.353638],[-7.21511,54.353691],[-7.215192,54.353732],[-7.215311,54.353761],[-7.215466,54.35378],[-7.215598,54.353805],[-7.215707,54.353837],[-7.215793,54.353876],[-7.215856,54.353923],[-7.215922,54.35395],[-7.21599,54.353958],[-7.216061,54.353946],[-7.216135,54.353916],[-7.216228,54.35389],[-7.21634,54.353869],[-7.216472,54.353853],[-7.216623,54.353842],[-7.216751,54.353862],[-7.216856,54.353915],[-7.216938,54.354],[-7.216996,54.354118],[-7.217064,54.354216],[-7.217141,54.354295],[-7.217228,54.354356],[-7.217323,54.354398],[-7.217388,54.354449],[-7.217423,54.354509],[-7.217427,54.354579],[-7.2174,54.354658],[-7.217402,54.35472],[-7.217435,54.354766],[-7.217497,54.354795],[-7.217589,54.354807],[-7.217658,54.354832],[-7.217705,54.354871],[-7.217729,54.354923],[-7.217731,54.354988],[-7.217782,54.355028],[-7.217884,54.355044],[-7.218037,54.355035],[-7.218239,54.355001],[-7.218398,54.354992],[-7.218513,54.355009],[-7.218585,54.35505],[-7.218613,54.355116],[-7.218601,54.355179],[-7.218548,54.35524],[-7.218456,54.355297],[-7.218323,54.355351],[-7.218186,54.355381],[-7.218046,54.355388],[-7.217903,54.355372],[-7.217756,54.355333],[-7.217604,54.355316],[-7.217446,54.35532],[-7.217282,54.355347],[-7.217112,54.355397],[-7.216947,54.355406],[-7.216787,54.355376],[-7.216632,54.355306],[-7.216481,54.355197],[-7.216311,54.355139],[-7.216121,54.35513],[-7.215912,54.355172],[-7.215683,54.355265],[-7.215482,54.355368],[-7.215309,54.35548],[-7.215164,54.355602],[-7.215047,54.355734],[-7.214956,54.355858],[-7.214892,54.355972],[-7.214855,54.356078],[-7.214844,54.356175],[-7.214798,54.356291],[-7.214717,54.356425],[-7.2146,54.356578],[-7.214448,54.356751],[-7.214286,54.35693],[-7.214115,54.357118],[-7.213934,54.357313],[-7.213743,54.357516],[-7.213537,54.357689],[-7.213317,54.357833],[-7.213082,54.357948],[-7.212833,54.358034],[-7.21264,54.358121],[-7.212505,54.358211],[-7.212427,54.358302],[-7.212406,54.358395],[-7.212426,54.358473],[-7.212487,54.358535],[-7.212589,54.35858],[-7.212732,54.35861],[-7.212867,54.358598],[-7.212995,54.358542],[-7.213115,54.358443],[-7.213228,54.358302],[-7.213354,54.358211],[-7.213493,54.358171],[-7.213645,54.358182],[-7.21381,54.358244],[-7.213924,54.358307],[-7.213986,54.358371],[-7.213996,54.358436],[-7.213955,54.358502],[-7.213999,54.358554],[-7.214127,54.358591],[-7.21434,54.358614],[-7.214638,54.358622],[-7.214876,54.358641],[-7.215053,54.358671],[-7.215171,54.358712],[-7.215227,54.358764],[-7.215301,54.358835],[-7.215391,54.358925],[-7.215498,54.359034],[-7.215622,54.359162],[-7.21578,54.359294],[-7.215973,54.35943],[-7.216199,54.35957],[-7.216459,54.359714],[-7.216631,54.359847],[-7.216713,54.359968],[-7.216706,54.360078],[-7.216609,54.360177],[-7.216498,54.360272],[-7.216372,54.360363],[-7.216231,54.360449],[-7.216075,54.360532],[-7.215936,54.360611],[-7.215812,54.360686],[-7.215704,54.360758],[-7.215611,54.360826],[-7.215582,54.360889],[-7.215615,54.360947],[-7.215712,54.361],[-7.215871,54.361048],[-7.215957,54.361123],[-7.215971,54.361227],[-7.215912,54.361358],[-7.21578,54.361517],[-7.215666,54.361662],[-7.21557,54.361791],[-7.21549,54.361905],[-7.215429,54.362004],[-7.215361,54.362075],[-7.215289,54.362118],[-7.215211,54.362133],[-7.215127,54.36212],[-7.215016,54.362143],[-7.214876,54.362203],[-7.214709,54.362299],[-7.214515,54.362432],[-7.214404,54.36258],[-7.214378,54.362742],[-7.214436,54.362918],[-7.214578,54.363109],[-7.214679,54.363271],[-7.214741,54.363406],[-7.214762,54.363512],[-7.214743,54.36359],[-7.214813,54.363673],[-7.214972,54.363761],[-7.21522,54.363854],[-7.215556,54.363952],[-7.215797,54.364043],[-7.215941,54.364128],[-7.21599,54.364207],[-7.215942,54.364279],[-7.215933,54.364354],[-7.215962,54.364433],[-7.21603,54.364515],[-7.216136,54.3646],[-7.216175,54.364683],[-7.216148,54.364762],[-7.216055,54.364838],[-7.215895,54.36491],[-7.215756,54.365016],[-7.215637,54.365153],[-7.215538,54.365323],[-7.215459,54.365525],[-7.215413,54.36569],[-7.215399,54.36582],[-7.215417,54.365915],[-7.215468,54.365973],[-7.215568,54.36603],[-7.215718,54.366087],[-7.215917,54.366142],[-7.216166,54.366198],[-7.216411,54.366238],[-7.216652,54.366264],[-7.216888,54.366276],[-7.217121,54.366273],[-7.217343,54.366256],[-7.217555,54.366223],[-7.217756,54.366176],[-7.217946,54.366114],[-7.218165,54.36609],[-7.218414,54.366105],[-7.218693,54.366158],[-7.219001,54.36625],[-7.2192,54.366424],[-7.219292,54.36668],[-7.219275,54.367017],[-7.219151,54.367437],[-7.219028,54.367763],[-7.218906,54.367996],[-7.218786,54.368136],[-7.218667,54.368183],[-7.218505,54.36821],[-7.2183,54.368216],[-7.218051,54.368202],[-7.21776,54.368169],[-7.217483,54.368171],[-7.217223,54.368211],[-7.216978,54.368287],[-7.216749,54.3684],[-7.216635,54.368509],[-7.216636,54.368614],[-7.216753,54.368715],[-7.216985,54.368813],[-7.217291,54.36892],[-7.21767,54.369037],[-7.218123,54.369164],[-7.218649,54.3693],[-7.219054,54.369426],[-7.219337,54.369542],[-7.219499,54.369647],[-7.219539,54.369742],[-7.219606,54.369787],[-7.2197,54.369784],[-7.219821,54.369732],[-7.219968,54.369631],[-7.22013,54.369552],[-7.220306,54.369497],[-7.220496,54.369465],[-7.2207,54.369457],[-7.220841,54.369472],[-7.220919,54.369511],[-7.220933,54.369574],[-7.220883,54.369662],[-7.220852,54.369751],[-7.220839,54.369844],[-7.220845,54.369938],[-7.220869,54.370035],[-7.220948,54.370109],[-7.221083,54.370161],[-7.221272,54.370189],[-7.221517,54.370194],[-7.221707,54.370213],[-7.221842,54.370244],[-7.221921,54.370288],[-7.221945,54.370345],[-7.222033,54.370397],[-7.222184,54.370446],[-7.222398,54.370491],[-7.222676,54.370532],[-7.222888,54.370542],[-7.223035,54.370522],[-7.223117,54.37047],[-7.223134,54.370387],[-7.223129,54.370295],[-7.223103,54.370193],[-7.223056,54.370082],[-7.222987,54.369961],[-7.222947,54.369859],[-7.222938,54.369775],[-7.222957,54.369709],[-7.223007,54.369662],[-7.223002,54.36961],[-7.222943,54.369553],[-7.22283,54.369491],[-7.222663,54.369424],[-7.222535,54.369347],[-7.222445,54.36926],[-7.222395,54.369161],[-7.222383,54.369052],[-7.222407,54.368956],[-7.222467,54.368872],[-7.222562,54.368801],[-7.222693,54.368742],[-7.222842,54.368656],[-7.22301,54.368542],[-7.223197,54.3684],[-7.223402,54.36823],[-7.223605,54.368036],[-7.223806,54.367816],[-7.224006,54.367572],[-7.224203,54.367303],[-7.22438,54.367057],[-7.224536,54.366834],[-7.224672,54.366634],[-7.224787,54.366457],[-7.224882,54.366293],[-7.224956,54.366142],[-7.22501,54.366004],[-7.225043,54.365879],[-7.225102,54.365783],[-7.225186,54.365715],[-7.225295,54.365677],[-7.22543,54.365668],[-7.225547,54.365617],[-7.225645,54.365522],[-7.225726,54.365385],[-7.225788,54.365206],[-7.225898,54.36511],[-7.226058,54.365097],[-7.226266,54.365168],[-7.226522,54.365323],[-7.226747,54.365434],[-7.226941,54.365502],[-7.227103,54.365526],[-7.227234,54.365508],[-7.227424,54.365496],[-7.227673,54.365491],[-7.227981,54.365492],[-7.228349,54.365501],[-7.228651,54.365528],[-7.228887,54.365575],[-7.229058,54.365641],[-7.229164,54.365726],[-7.229266,54.365772],[-7.229364,54.365778],[-7.229458,54.365745],[-7.229548,54.365672],[-7.229693,54.365626],[-7.229894,54.365608],[-7.230149,54.365617],[-7.230459,54.365653],[-7.230642,54.365738],[-7.230699,54.36587],[-7.230628,54.366051],[-7.230431,54.36628],[-7.230234,54.366478],[-7.230038,54.366647],[-7.229841,54.366785],[-7.229644,54.366893],[-7.229523,54.366996],[-7.229478,54.367093],[-7.229508,54.367184],[-7.229614,54.367269],[-7.229705,54.367362],[-7.229782,54.367461],[-7.229845,54.367568],[-7.229894,54.367682],[-7.229857,54.367737],[-7.229734,54.367734],[-7.229526,54.367673],[-7.229233,54.367554],[-7.22891,54.36749],[-7.228559,54.367479],[-7.228179,54.367523],[-7.22777,54.367621],[-7.227477,54.367725],[-7.227299,54.367836],[-7.227236,54.367953],[-7.227288,54.368076],[-7.227272,54.368201],[-7.227188,54.368329],[-7.227035,54.368458],[-7.226814,54.36859],[-7.226653,54.368721],[-7.226552,54.368851],[-7.226512,54.368979],[-7.226532,54.369107],[-7.2266,54.369248],[-7.226718,54.369402],[-7.226885,54.369569],[-7.2271,54.36975],[-7.227386,54.369892],[-7.227743,54.369997],[-7.228171,54.370065],[-7.228669,54.370095],[-7.22911,54.370153],[-7.229493,54.370239],[-7.229819,54.370353],[-7.230088,54.370496],[-7.230375,54.370601],[-7.230681,54.370668],[-7.231006,54.370697],[-7.231349,54.370689],[-7.231636,54.370651],[-7.231867,54.370583],[-7.232042,54.370485],[-7.232161,54.370358],[-7.232315,54.370251],[-7.232503,54.370164],[-7.232726,54.370097],[-7.232984,54.37005],[-7.233195,54.369988],[-7.233361,54.369909],[-7.233481,54.369814],[-7.233555,54.369703],[-7.233557,54.369628],[-7.233488,54.369587],[-7.233347,54.369582],[-7.233135,54.369612],[-7.232973,54.369598],[-7.232861,54.369538],[-7.232799,54.369434],[-7.232787,54.369285],[-7.232855,54.36918],[-7.233002,54.369119],[-7.233229,54.369102],[-7.233535,54.369129],[-7.233856,54.369118],[-7.234191,54.369071],[-7.234541,54.368986],[-7.234905,54.368864],[-7.235295,54.368753],[-7.235712,54.368654],[-7.236156,54.368566],[-7.236626,54.368489],[-7.23699,54.36844],[-7.23725,54.368419],[-7.237404,54.368424],[-7.237453,54.368458],[-7.23752,54.368473],[-7.237606,54.368471],[-7.23771,54.368451],[-7.237833,54.368414],[-7.237955,54.368334],[-7.238076,54.368211],[-7.238196,54.368046],[-7.238315,54.367838],[-7.238442,54.367677],[-7.238575,54.367563],[-7.238715,54.367495],[-7.238862,54.367474],[-7.238998,54.367437],[-7.239123,54.367385],[-7.239237,54.367316],[-7.239339,54.367231],[-7.239389,54.367154],[-7.239385,54.367084],[-7.239328,54.367022],[-7.239218,54.366967],[-7.239179,54.366897],[-7.239213,54.366812],[-7.239317,54.366712],[-7.239493,54.366596],[-7.239683,54.366524],[-7.239888,54.366495],[-7.240106,54.36651],[-7.240339,54.366567],[-7.24054,54.366561],[-7.24071,54.366492],[-7.240848,54.366359],[-7.240955,54.366163],[-7.241013,54.365994],[-7.241022,54.365852],[-7.240982,54.365738],[-7.240892,54.36565],[-7.240844,54.365566],[-7.240836,54.365487],[-7.240869,54.365412],[-7.240943,54.365341],[-7.241025,54.365249],[-7.241115,54.365136],[-7.241214,54.365002],[-7.241321,54.364846],[-7.24145,54.364732],[-7.241601,54.36466],[-7.241775,54.364631],[-7.241971,54.364643],[-7.242179,54.364604],[-7.2424,54.364512],[-7.242634,54.364368],[-7.24288,54.364173],[-7.243038,54.363995],[-7.243108,54.363834],[-7.24309,54.363691],[-7.242984,54.363565],[-7.242926,54.363458],[-7.242914,54.36337],[-7.242949,54.363299],[-7.243031,54.363248],[-7.243058,54.363158],[-7.24303,54.363032],[-7.242947,54.362868],[-7.242809,54.362666],[-7.242613,54.362501],[-7.242358,54.362371],[-7.242045,54.362278],[-7.241674,54.36222],[-7.241386,54.362115],[-7.241183,54.361963],[-7.241063,54.361764],[-7.241028,54.361518],[-7.240914,54.361281],[-7.240721,54.361052],[-7.240449,54.360832],[-7.240099,54.360621],[-7.239777,54.360455],[-7.239484,54.360336],[-7.239219,54.360263],[-7.238982,54.360237],[-7.238792,54.360196],[-7.238647,54.360141],[-7.238548,54.360072],[-7.238495,54.359989],[-7.238472,54.359915],[-7.238479,54.359849],[-7.238515,54.359791],[-7.23858,54.359741],[-7.238648,54.359677],[-7.238718,54.359596],[-7.23879,54.359501],[-7.238864,54.35939],[-7.238912,54.35929],[-7.238935,54.359201],[-7.238932,54.359124],[-7.238904,54.359058],[-7.238852,54.359017],[-7.238777,54.359003],[-7.238678,54.359015],[-7.238555,54.359052],[-7.238433,54.359059],[-7.23831,54.359037],[-7.238188,54.358984],[-7.238066,54.358901],[-7.238045,54.358831],[-7.238125,54.358774],[-7.238305,54.358731],[-7.238587,54.358701],[-7.238845,54.358705],[-7.239077,54.358742],[-7.239285,54.358813],[-7.239468,54.358917],[-7.239672,54.358979],[-7.239896,54.358997],[-7.240142,54.358973],[-7.240407,54.358905],[-7.240527,54.35881],[-7.240501,54.358688],[-7.240329,54.358539],[-7.240012,54.358363],[-7.239748,54.358192],[-7.239539,54.358026],[-7.239383,54.357865],[-7.239282,54.357709],[-7.239217,54.357567],[-7.239189,54.357441],[-7.239198,54.357329],[-7.239243,54.357232],[-7.239219,54.357145],[-7.239126,54.357068],[-7.238963,54.357001],[-7.23873,54.356943],[-7.238522,54.356933],[-7.238338,54.356969],[-7.238179,54.357052],[-7.238043,54.357181],[-7.237899,54.35729],[-7.237745,54.357377],[-7.237583,54.357443],[-7.237411,54.357487],[-7.237188,54.357471],[-7.236912,54.357395],[-7.236586,54.357258],[-7.236207,54.35706],[-7.235852,54.3569],[-7.235522,54.356776],[-7.235216,54.356689],[-7.234935,54.356638],[-7.234638,54.356582],[-7.234326,54.356521],[-7.233999,54.356455],[-7.233656,54.356383],[-7.233252,54.356307],[-7.232785,54.356228],[-7.232255,54.356145],[-7.231664,54.356058],[-7.231185,54.35594],[-7.230818,54.355791],[-7.230564,54.355611],[-7.230422,54.3554],[-7.23042,54.355222],[-7.230557,54.355077],[-7.230834,54.354965],[-7.231251,54.354886],[-7.231724,54.354716],[-7.232254,54.354455],[-7.232841,54.354103],[-7.233484,54.353661],[-7.234061,54.353235],[-7.234571,54.352826],[-7.235015,54.352434],[-7.235392,54.352059],[-7.235655,54.351721],[-7.235803,54.351418],[-7.235837,54.351153],[-7.235757,54.350923],[-7.235785,54.350766],[-7.235922,54.350681],[-7.236168,54.350669],[-7.236523,54.350729],[-7.237209,54.350662],[-7.238226,54.350467],[-7.239575,54.350145],[-7.241255,54.349696],[-7.242566,54.349367],[-7.243508,54.349158],[-7.24408,54.349069],[-7.244284,54.3491],[-7.244504,54.349107],[-7.244739,54.349089],[-7.244989,54.349045],[-7.245254,54.348978],[-7.245468,54.34891],[-7.24563,54.348842],[-7.245739,54.348773],[-7.245796,54.348705],[-7.245882,54.348652],[-7.245997,54.348616],[-7.24614,54.348596],[-7.246311,54.348592],[-7.246443,54.348596],[-7.246535,54.348608],[-7.246587,54.348628],[-7.246599,54.348656],[-7.246832,54.348633],[-7.247285,54.348559],[-7.247959,54.348433],[-7.248854,54.348256],[-7.249433,54.348091],[-7.249697,54.347938],[-7.249646,54.347797],[-7.249279,54.347668],[-7.248977,54.34757],[-7.248741,54.347504],[-7.24857,54.347468],[-7.248463,54.347463],[-7.248353,54.347428],[-7.248239,54.347364],[-7.248121,54.34727],[-7.248,54.347147],[-7.247876,54.347081],[-7.247752,54.347074],[-7.247626,54.347124],[-7.247499,54.347233],[-7.247349,54.347327],[-7.247175,54.347407],[-7.246978,54.347473],[-7.246757,54.347524],[-7.246603,54.347589],[-7.246515,54.347666],[-7.246493,54.347757],[-7.246537,54.347862],[-7.246388,54.347938],[-7.246045,54.347987],[-7.245508,54.348008],[-7.244777,54.348001],[-7.244227,54.347961],[-7.243858,54.347888],[-7.24367,54.347782],[-7.243663,54.347642],[-7.243605,54.347507],[-7.243497,54.347377],[-7.24334,54.347251],[-7.243132,54.34713],[-7.242907,54.347029],[-7.242665,54.346948],[-7.242405,54.346887],[-7.242128,54.346846],[-7.241966,54.346771],[-7.241919,54.346662],[-7.241988,54.346519],[-7.242173,54.346342],[-7.242297,54.346196],[-7.242361,54.346082],[-7.242364,54.345999],[-7.242307,54.345946],[-7.242172,54.345953],[-7.241957,54.346019],[-7.241663,54.346143],[-7.241291,54.346327],[-7.240993,54.346512],[-7.24077,54.346699],[-7.240621,54.346889],[-7.240547,54.34708],[-7.240423,54.347216],[-7.240249,54.347295],[-7.240025,54.34732],[-7.239752,54.347288],[-7.239594,54.347223],[-7.239552,54.347123],[-7.239625,54.34699],[-7.239813,54.346823],[-7.239953,54.346642],[-7.240044,54.346448],[-7.240085,54.346242],[-7.240078,54.346022],[-7.240104,54.345857],[-7.240161,54.345749],[-7.240251,54.345696],[-7.240374,54.345699],[-7.24045,54.345653],[-7.240479,54.345558],[-7.240461,54.345415],[-7.240396,54.345223],[-7.240297,54.345052],[-7.240163,54.3449],[-7.239995,54.344768],[-7.239791,54.344657],[-7.23963,54.344534],[-7.239513,54.3444],[-7.239438,54.344255],[-7.239406,54.344099],[-7.23927,54.343962],[-7.23903,54.343846],[-7.238685,54.343749],[-7.238237,54.343672],[-7.237885,54.343569],[-7.237631,54.343439],[-7.237473,54.343283],[-7.237413,54.343101],[-7.23732,54.342903],[-7.237195,54.34269],[-7.237036,54.342461],[-7.236846,54.342217],[-7.236565,54.342026],[-7.236194,54.341888],[-7.235734,54.341803],[-7.235183,54.34177],[-7.234751,54.341764],[-7.234439,54.341783],[-7.234246,54.341828],[-7.234172,54.341899],[-7.234096,54.341932],[-7.234016,54.341928],[-7.233934,54.341887],[-7.233848,54.341809],[-7.233398,54.34179],[-7.232584,54.34183],[-7.231405,54.34193],[-7.229862,54.342089],[-7.228644,54.342249],[-7.227751,54.34241],[-7.227184,54.342574],[-7.226942,54.342739],[-7.226726,54.342892],[-7.226536,54.343035],[-7.226371,54.343166],[-7.226231,54.343286],[-7.226059,54.343328],[-7.225853,54.343292],[-7.225614,54.343178],[-7.225341,54.342986],[-7.22508,54.342789],[-7.22483,54.342589],[-7.224591,54.342384],[-7.224364,54.342175],[-7.224294,54.342002],[-7.224383,54.341864],[-7.224629,54.341761],[-7.225034,54.341694],[-7.225317,54.341606],[-7.225478,54.341498],[-7.225519,54.341369],[-7.225438,54.34122],[-7.225303,54.341136],[-7.225113,54.341118],[-7.224869,54.341165],[-7.224571,54.341277],[-7.22432,54.34133],[-7.224118,54.341324],[-7.223965,54.341258],[-7.223859,54.341132],[-7.223662,54.341055],[-7.223372,54.341026],[-7.22299,54.341045],[-7.222517,54.341112],[-7.222075,54.341162],[-7.221664,54.341195],[-7.221286,54.341211],[-7.220939,54.34121],[-7.220649,54.341231],[-7.220416,54.341274],[-7.22024,54.341339],[-7.220121,54.341426],[-7.219895,54.341516],[-7.219562,54.341608],[-7.219122,54.341703],[-7.218575,54.341801],[-7.217895,54.341933],[-7.217082,54.342098],[-7.216136,54.342297],[-7.215057,54.342531],[-7.214197,54.342738],[-7.213555,54.342919],[-7.213132,54.343074],[-7.212927,54.343204],[-7.212715,54.343277],[-7.212497,54.343292],[-7.212272,54.343252],[-7.21204,54.343154],[-7.211862,54.343021],[-7.211738,54.342853],[-7.211669,54.342649],[-7.211654,54.34241],[-7.211722,54.342235],[-7.211874,54.342123],[-7.212109,54.342075],[-7.212427,54.34209],[-7.212638,54.342057],[-7.212743,54.341977],[-7.212741,54.34185],[-7.212631,54.341674],[-7.212602,54.341535],[-7.212654,54.341433],[-7.212786,54.341366],[-7.212998,54.341336],[-7.213149,54.341292],[-7.213237,54.341235],[-7.213263,54.341163],[-7.213226,54.341078],[-7.213166,54.340986],[-7.21308,54.340888],[-7.212971,54.340783],[-7.212837,54.340671],[-7.212871,54.340568],[-7.213074,54.340474],[-7.213444,54.340389],[-7.213983,54.340313],[-7.214402,54.340228],[-7.214701,54.340136],[-7.214879,54.340035],[-7.214936,54.339927],[-7.215058,54.339907],[-7.215243,54.339976],[-7.215492,54.340134],[-7.215805,54.340381],[-7.216224,54.340583],[-7.21675,54.340739],[-7.217382,54.34085],[-7.21812,54.340916],[-7.218738,54.340954],[-7.219236,54.340964],[-7.219614,54.340946],[-7.219871,54.340899],[-7.22011,54.34087],[-7.22033,54.340859],[-7.220532,54.340866],[-7.220716,54.34089],[-7.220907,54.340891],[-7.221105,54.340867],[-7.22131,54.340821],[-7.221523,54.34075],[-7.221659,54.340673],[-7.221718,54.34059],[-7.221702,54.340499],[-7.221608,54.340402],[-7.221443,54.34031],[-7.221207,54.340223],[-7.220899,54.340141],[-7.22052,54.340064],[-7.220358,54.340009],[-7.220414,54.339976],[-7.220686,54.339965],[-7.221176,54.339976],[-7.221597,54.339969],[-7.22195,54.339944],[-7.222235,54.339901],[-7.222452,54.339841],[-7.222625,54.339821],[-7.222756,54.339843],[-7.222843,54.339906],[-7.222888,54.34001],[-7.223014,54.340092],[-7.223221,54.340153],[-7.223511,54.340192],[-7.223882,54.34021],[-7.224205,54.340205],[-7.224478,54.340176],[-7.224703,54.340124],[-7.224879,54.340049],[-7.225093,54.33993],[-7.225344,54.339769],[-7.225634,54.339565],[-7.225962,54.339318],[-7.226174,54.339114],[-7.226271,54.338955],[-7.226252,54.33884],[-7.226118,54.338768],[-7.226066,54.338698],[-7.226097,54.338628],[-7.226211,54.338559],[-7.226407,54.338491],[-7.226562,54.338387],[-7.226674,54.338245],[-7.226746,54.338067],[-7.226775,54.337852],[-7.226783,54.337677],[-7.22677,54.337544],[-7.226735,54.337451],[-7.226678,54.337399],[-7.226653,54.337339],[-7.226659,54.337273],[-7.226697,54.3372],[-7.226767,54.33712],[-7.226731,54.337014],[-7.226589,54.336884],[-7.226341,54.336728],[-7.225986,54.336548],[-7.225685,54.33643],[-7.225436,54.336375],[-7.225241,54.336382],[-7.225097,54.336453],[-7.224935,54.336508],[-7.224753,54.336549],[-7.224552,54.336575],[-7.224332,54.336586],[-7.224195,54.336561],[-7.224142,54.336498],[-7.224173,54.336398],[-7.224288,54.336261],[-7.224337,54.336151],[-7.224319,54.336069],[-7.224235,54.336013],[-7.224084,54.335984],[-7.22396,54.335936],[-7.223862,54.33587],[-7.223791,54.335784],[-7.223747,54.33568],[-7.223677,54.335517],[-7.223582,54.335294],[-7.223462,54.335013],[-7.223317,54.334672],[-7.223177,54.334403],[-7.223041,54.334206],[-7.22291,54.334082],[-7.222784,54.334029],[-7.222642,54.334022],[-7.222485,54.334059],[-7.222312,54.334141],[-7.222124,54.334269],[-7.221934,54.334351],[-7.221742,54.334388],[-7.221548,54.33438],[-7.221352,54.334328],[-7.221155,54.334333],[-7.220957,54.334396],[-7.220758,54.334518],[-7.220557,54.334697],[-7.22032,54.334863],[-7.220048,54.335017],[-7.21974,54.335159],[-7.219397,54.335288],[-7.219083,54.335365],[-7.2188,54.33539],[-7.218546,54.335363],[-7.218322,54.335285],[-7.218144,54.335192],[-7.218012,54.335085],[-7.217926,54.334964],[-7.217885,54.334829],[-7.217722,54.33473],[-7.217434,54.334665],[-7.217023,54.334635],[-7.216489,54.334641],[-7.216034,54.33467],[-7.215658,54.334723],[-7.215362,54.3348],[-7.215145,54.334901],[-7.214953,54.334959],[-7.214786,54.334972],[-7.214643,54.334942],[-7.214525,54.334869],[-7.21436,54.334807],[-7.214148,54.334757],[-7.213889,54.334718],[-7.213583,54.334691],[-7.21326,54.334684],[-7.212919,54.334697],[-7.212561,54.33473],[-7.212185,54.334784],[-7.211989,54.334759],[-7.211971,54.334656],[-7.212132,54.334475],[-7.212472,54.334216],[-7.212621,54.334037],[-7.212579,54.333937],[-7.212345,54.333918],[-7.211921,54.333978],[-7.211472,54.333911],[-7.211,54.333717],[-7.210504,54.333395],[-7.209984,54.332947],[-7.20965,54.33258],[-7.209503,54.332294],[-7.209542,54.332091],[-7.209767,54.331968],[-7.209825,54.33185],[-7.209715,54.331735],[-7.209438,54.331623],[-7.208994,54.331515],[-7.208588,54.331375],[-7.20822,54.331201],[-7.20789,54.330994],[-7.207597,54.330754],[-7.20729,54.330592],[-7.206968,54.330507],[-7.206632,54.3305],[-7.20628,54.330569],[-7.20593,54.330581],[-7.205582,54.330535],[-7.205235,54.330431],[-7.204889,54.33027],[-7.204566,54.330192],[-7.204266,54.3302],[-7.203989,54.330292],[-7.203735,54.330468],[-7.203526,54.330669],[-7.203361,54.330893],[-7.203242,54.331141],[-7.203167,54.331412],[-7.203069,54.331619],[-7.202947,54.331762],[-7.202803,54.33184],[-7.202636,54.331854],[-7.202522,54.33181],[-7.202461,54.331708],[-7.202454,54.331548],[-7.2025,54.331331],[-7.202527,54.331149],[-7.202533,54.331002],[-7.202521,54.330891],[-7.202489,54.330815],[-7.202515,54.330714],[-7.202599,54.330586],[-7.202742,54.330433],[-7.202943,54.330254],[-7.203076,54.3301],[-7.203142,54.32997],[-7.203141,54.329865],[-7.203072,54.329784],[-7.203077,54.329705],[-7.203157,54.329629],[-7.203312,54.329554],[-7.203541,54.329482],[-7.20365,54.329413],[-7.20364,54.329349],[-7.203511,54.32929],[-7.203263,54.329235],[-7.203064,54.329155],[-7.202916,54.32905],[-7.202818,54.328921],[-7.20277,54.328767],[-7.202692,54.328655],[-7.202584,54.328585],[-7.202447,54.328557],[-7.202279,54.328571],[-7.202138,54.328556],[-7.202025,54.328511],[-7.201937,54.328438],[-7.201877,54.328337],[-7.201818,54.328229],[-7.201762,54.328117],[-7.201707,54.327999],[-7.201655,54.327876],[-7.201683,54.327779],[-7.201791,54.327708],[-7.20198,54.327664],[-7.20225,54.327646],[-7.202452,54.327612],[-7.202587,54.327563],[-7.202655,54.327498],[-7.202655,54.327418],[-7.202589,54.327355],[-7.202457,54.327308],[-7.202258,54.327278],[-7.201993,54.327266],[-7.20179,54.327247],[-7.201649,54.327222],[-7.201571,54.32719],[-7.201555,54.327152],[-7.201506,54.327109],[-7.201425,54.32706],[-7.201311,54.327006],[-7.201165,54.326946],[-7.201029,54.326883],[-7.200905,54.326815],[-7.200792,54.326743],[-7.200691,54.326667],[-7.200646,54.326593],[-7.200659,54.326521],[-7.200729,54.326451],[-7.200856,54.326383],[-7.200924,54.32631],[-7.200935,54.326233],[-7.200888,54.326152],[-7.200782,54.326067],[-7.200739,54.325985],[-7.200758,54.325907],[-7.200839,54.325833],[-7.200982,54.325762],[-7.201035,54.325674],[-7.200999,54.325569],[-7.200873,54.325446],[-7.200658,54.325306],[-7.200448,54.32523],[-7.200244,54.325219],[-7.200046,54.325272],[-7.199854,54.32539],[-7.199716,54.325502],[-7.199631,54.32561],[-7.199601,54.325712],[-7.199625,54.325809],[-7.199561,54.325883],[-7.19941,54.325935],[-7.199171,54.325963],[-7.198845,54.325969],[-7.198655,54.325888],[-7.198601,54.32572],[-7.198683,54.325465],[-7.198901,54.325123],[-7.199097,54.324862],[-7.199272,54.324682],[-7.199424,54.324582],[-7.199555,54.324564],[-7.199743,54.324527],[-7.199988,54.324472],[-7.20029,54.324399],[-7.20065,54.324308],[-7.20102,54.324223],[-7.201402,54.324144],[-7.201795,54.324071],[-7.202199,54.324003],[-7.20237,54.323906],[-7.202308,54.32378],[-7.202012,54.323623],[-7.201483,54.323437],[-7.201129,54.323216],[-7.200951,54.32296],[-7.200949,54.322669],[-7.201122,54.322343],[-7.201342,54.322076],[-7.201608,54.321868],[-7.201921,54.321718],[-7.20228,54.321627],[-7.202554,54.321538],[-7.202742,54.321451],[-7.202845,54.321366],[-7.202862,54.321284],[-7.202932,54.321226],[-7.203057,54.321193],[-7.203235,54.321185],[-7.203468,54.321203],[-7.203586,54.321309],[-7.203591,54.321504],[-7.203483,54.321788],[-7.20326,54.322161],[-7.203247,54.322456],[-7.203444,54.322675],[-7.20385,54.322815],[-7.204466,54.322879],[-7.204911,54.322889],[-7.205187,54.322844],[-7.205293,54.322747],[-7.205228,54.322595],[-7.205198,54.322434],[-7.205204,54.322262],[-7.205243,54.322081],[-7.205318,54.32189],[-7.205524,54.321762],[-7.20586,54.3217],[-7.206328,54.321701],[-7.206928,54.321767],[-7.207366,54.3218],[-7.207643,54.321801],[-7.20776,54.321769],[-7.207715,54.321705],[-7.207649,54.321499],[-7.207561,54.32115],[-7.207452,54.320658],[-7.207321,54.320024],[-7.20707,54.319505],[-7.206699,54.319101],[-7.206208,54.318811],[-7.205597,54.318637],[-7.205083,54.318444],[-7.204664,54.318232],[-7.204341,54.318001],[-7.204114,54.317752],[-7.203849,54.317546],[-7.203546,54.317384],[-7.203205,54.317264],[-7.202826,54.317187],[-7.202516,54.317098],[-7.202274,54.316996],[-7.2021,54.316883],[-7.201994,54.316757],[-7.201901,54.31663],[-7.201821,54.316501],[-7.201752,54.31637],[-7.201696,54.316237],[-7.201598,54.316098],[-7.201458,54.315952],[-7.201276,54.3158],[-7.201053,54.315641],[-7.200859,54.31553],[-7.200694,54.315468],[-7.200558,54.315455],[-7.200452,54.31549],[-7.200382,54.315477],[-7.200347,54.315417],[-7.200349,54.315309],[-7.200387,54.315153],[-7.200322,54.315021],[-7.200156,54.314914],[-7.199887,54.314832],[-7.199516,54.314774],[-7.199205,54.314775],[-7.198954,54.314836],[-7.198763,54.314956],[-7.198631,54.315135],[-7.198457,54.315285],[-7.19824,54.315407],[-7.19798,54.315499],[-7.197678,54.315561],[-7.197444,54.315703],[-7.197277,54.315922],[-7.197179,54.31622],[-7.197148,54.316595],[-7.197259,54.316876],[-7.19751,54.317061],[-7.197903,54.317151],[-7.198438,54.317146],[-7.198831,54.317256],[-7.199082,54.317481],[-7.199192,54.317822],[-7.199161,54.318278],[-7.199012,54.318621],[-7.198746,54.318849],[-7.198362,54.318964],[-7.19786,54.318965],[-7.19746,54.318929],[-7.19716,54.318855],[-7.196962,54.318745],[-7.196865,54.318599],[-7.19667,54.318476],[-7.196377,54.318376],[-7.195986,54.318301],[-7.195497,54.31825],[-7.195035,54.318223],[-7.1946,54.318219],[-7.194193,54.318239],[-7.193814,54.318283],[-7.193428,54.318372],[-7.193036,54.318508],[-7.192637,54.31869],[-7.192232,54.318918],[-7.192035,54.319087],[-7.192046,54.319196],[-7.192266,54.319245],[-7.192695,54.319234],[-7.193029,54.319277],[-7.193269,54.319374],[-7.193415,54.319524],[-7.193467,54.319727],[-7.193579,54.31992],[-7.193751,54.320101],[-7.193984,54.320272],[-7.194276,54.320431],[-7.194488,54.320594],[-7.19462,54.320762],[-7.194671,54.320933],[-7.194641,54.321107],[-7.194659,54.32124],[-7.194724,54.321332],[-7.194836,54.321381],[-7.194995,54.321389],[-7.195108,54.32142],[-7.195175,54.321476],[-7.195195,54.321556],[-7.19517,54.32166],[-7.195177,54.321757],[-7.195215,54.321847],[-7.195285,54.32193],[-7.195387,54.322006],[-7.195472,54.322084],[-7.195541,54.322165],[-7.195593,54.322248],[-7.195629,54.322333],[-7.195621,54.322415],[-7.195567,54.322492],[-7.195469,54.322567],[-7.195326,54.322637],[-7.195176,54.322651],[-7.195019,54.322608],[-7.194855,54.322508],[-7.194685,54.322351],[-7.194516,54.32224],[-7.194349,54.322173],[-7.194184,54.322151],[-7.194021,54.322174],[-7.193899,54.322234],[-7.193819,54.322331],[-7.193781,54.322464],[-7.193784,54.322635],[-7.19375,54.32278],[-7.19368,54.3229],[-7.193574,54.322996],[-7.19343,54.323066],[-7.193258,54.323171],[-7.193058,54.32331],[-7.192828,54.323483],[-7.19257,54.32369],[-7.192287,54.323848],[-7.191978,54.323957],[-7.191644,54.324017],[-7.191285,54.324028],[-7.191019,54.323982],[-7.190846,54.323881],[-7.190767,54.323724],[-7.19078,54.323512],[-7.19075,54.323348],[-7.190675,54.323233],[-7.190556,54.323167],[-7.190393,54.32315],[-7.190253,54.323167],[-7.190137,54.323219],[-7.190043,54.323305],[-7.189973,54.323425],[-7.189904,54.323518],[-7.189837,54.323582],[-7.18977,54.323619],[-7.189705,54.323629],[-7.189627,54.32363],[-7.189538,54.323622],[-7.189436,54.323607],[-7.189322,54.323583],[-7.18921,54.323586],[-7.189102,54.323616],[-7.188997,54.323674],[-7.188894,54.323759],[-7.188783,54.323832],[-7.188662,54.323894],[-7.188532,54.323945],[-7.188393,54.323985],[-7.188302,54.324056],[-7.188258,54.324157],[-7.188263,54.32429],[-7.188315,54.324453],[-7.188267,54.324605],[-7.188119,54.324747],[-7.187872,54.324877],[-7.187524,54.324997],[-7.187253,54.325133],[-7.187058,54.325286],[-7.18694,54.325456],[-7.186898,54.325643],[-7.186886,54.325807],[-7.186903,54.325951],[-7.186951,54.326072],[-7.187027,54.326171],[-7.186995,54.326239],[-7.186854,54.326274],[-7.186605,54.326277],[-7.186246,54.326247],[-7.185811,54.326213],[-7.185302,54.326175],[-7.184717,54.326132],[-7.184056,54.326085],[-7.183437,54.326002],[-7.182858,54.325883],[-7.18232,54.325728],[-7.181824,54.325537],[-7.181407,54.32534],[-7.18107,54.325137],[-7.180812,54.324927],[-7.180634,54.324712],[-7.180471,54.324398],[-7.180322,54.323988],[-7.180189,54.323479],[-7.18007,54.322874],[-7.179953,54.322323],[-7.179838,54.321827],[-7.179725,54.321386],[-7.179613,54.321],[-7.179773,54.324527],[-7.181464,54.328587],[-7.180672,54.331818],[-7.183505,54.335033],[-7.185674,54.335811],[-7.18851,54.337681],[-7.183014,54.339966],[-7.173517,54.337993],[-7.170673,54.337883],[-7.1672,54.336556],[-7.162421,54.337105],[-7.156909,54.335926]],[[-7.209259,54.347513],[-7.20844,54.347248],[-7.208405,54.347165],[-7.208075,54.346627],[-7.208052,54.346455],[-7.208743,54.346181],[-7.209302,54.34619],[-7.209599,54.346177],[-7.209816,54.345737],[-7.209855,54.345117],[-7.209798,54.344745],[-7.210026,54.344332],[-7.210467,54.344065],[-7.211561,54.344027],[-7.212061,54.344014],[-7.212999,54.344203],[-7.213938,54.344392],[-7.214507,54.344663],[-7.214267,54.345048],[-7.213576,54.345321],[-7.211719,54.345584],[-7.210707,54.345815],[-7.210655,54.346642],[-7.210106,54.347012],[-7.209259,54.347513]],[[-7.205261,54.34998],[-7.204802,54.349138],[-7.20516,54.349029],[-7.205374,54.34894],[-7.205055,54.348664],[-7.204676,54.348366],[-7.204712,54.348215],[-7.205059,54.347961],[-7.205489,54.347549],[-7.20511,54.347252],[-7.205207,54.346887],[-7.205588,54.346833],[-7.206063,54.347],[-7.206157,54.347221],[-7.206464,54.347587],[-7.206628,54.347973],[-7.207221,54.348416],[-7.20722,54.348533],[-7.207003,54.34909],[-7.206656,54.349461],[-7.206011,54.349845],[-7.205261,54.34998]]]}}