{"type":"Feature","properties":{"id":"269610","COMMUNE":"Perth and Kinross","PROVINCE":"Perth & Kinross and Stirling","COUNTRY":"UK","FIREDATE":"2025-04-01 00:00:00","FINALDATE":"2025-04-02 00:00:00","CLASS":"FireSeason","areaHA_geo":1.35},"geometry":{"type":"Polygon","coordinates":[[[-3.378812,56.715119],[-3.378928,56.715157],[-3.379039,56.715164],[-3.379144,56.715141],[-3.379243,56.715088],[-3.37936,56.715053],[-3.379497,56.715036],[-3.379652,56.715037],[-3.379826,56.715057],[-3.37993,56.71501],[-3.379963,56.714896],[-3.379926,56.714715],[-3.379818,56.714468],[-3.379704,56.714272],[-3.379584,56.714128],[-3.379458,56.714036],[-3.379326,56.713996],[-3.379205,56.713972],[-3.379094,56.713965],[-3.378994,56.713974],[-3.378905,56.713999],[-3.378759,56.714011],[-3.378556,56.714007],[-3.378297,56.71399],[-3.377981,56.713958],[-3.377753,56.71398],[-3.377614,56.714057],[-3.377562,56.714187],[-3.377598,56.714372],[-3.377671,56.714509],[-3.377781,56.714597],[-3.377928,56.714637],[-3.378112,56.714629],[-3.378257,56.714643],[-3.378363,56.714681],[-3.378432,56.714741],[-3.378461,56.714824],[-3.378514,56.714903],[-3.37859,56.714979],[-3.378689,56.715051],[-3.378812,56.715119]]]}}