{"type":"Feature","properties":{"id":"269645","COMMUNE":"Fermanagh and Omagh","PROVINCE":"Fermanagh and Omagh","COUNTRY":"UK","FIREDATE":"2025-05-11 12:40:00","FINALDATE":"2025-05-11 12:40:00","CLASS":"FireSeason","areaHA_geo":0.449},"geometry":{"type":"Polygon","coordinates":[[[-7.503062,54.409078],[-7.503138,54.409106],[-7.503193,54.40911],[-7.503227,54.409089],[-7.50324,54.409043],[-7.503262,54.409003],[-7.503293,54.408969],[-7.503333,54.408941],[-7.503382,54.408919],[-7.503407,54.408898],[-7.503407,54.408878],[-7.503382,54.408859],[-7.503333,54.408841],[-7.503291,54.408824],[-7.503258,54.408808],[-7.503232,54.408793],[-7.503213,54.408778],[-7.50321,54.408764],[-7.503222,54.408749],[-7.503248,54.408734],[-7.50329,54.408719],[-7.503316,54.4087],[-7.503327,54.408676],[-7.503321,54.408647],[-7.5033,54.408614],[-7.503289,54.408581],[-7.503289,54.408548],[-7.503299,54.408516],[-7.503319,54.408483],[-7.503317,54.40845],[-7.503292,54.408417],[-7.503245,54.408384],[-7.503175,54.408351],[-7.503118,54.40832],[-7.503071,54.408291],[-7.503037,54.408264],[-7.503014,54.40824],[-7.50301,54.408212],[-7.503026,54.40818],[-7.503061,54.408146],[-7.503116,54.408108],[-7.503148,54.408072],[-7.503158,54.408037],[-7.503145,54.408003],[-7.503111,54.407971],[-7.503073,54.407956],[-7.503031,54.407958],[-7.502986,54.407977],[-7.502938,54.408013],[-7.502876,54.408043],[-7.502799,54.408068],[-7.502708,54.408087],[-7.502604,54.4081],[-7.502519,54.408121],[-7.502455,54.408151],[-7.502412,54.408189],[-7.502388,54.408235],[-7.502389,54.408281],[-7.502414,54.408325],[-7.502462,54.408369],[-7.502534,54.408411],[-7.502584,54.408458],[-7.502613,54.408509],[-7.502621,54.408564],[-7.502607,54.408623],[-7.502611,54.408672],[-7.502634,54.408713],[-7.502675,54.408743],[-7.502734,54.408765],[-7.502778,54.40879],[-7.502807,54.408819],[-7.502821,54.408853],[-7.50282,54.40889],[-7.502844,54.408931],[-7.502892,54.408976],[-7.502964,54.409025],[-7.503062,54.409078]]]}}