{"type":"Feature","properties":{"id":"269613","COMMUNE":"Clackmannanshire","PROVINCE":"Clackmannanshire and Fife","COUNTRY":"UK","FIREDATE":"2025-04-21 12:41:26.385","FINALDATE":"2025-04-22 12:41:32.232","CLASS":"FireSeason","areaHA_geo":2.185},"geometry":{"type":"Polygon","coordinates":[[[-3.763832,56.161376],[-3.763853,56.161274],[-3.763858,56.161177],[-3.763848,56.161082],[-3.763822,56.16099],[-3.763779,56.160902],[-3.763759,56.160806],[-3.763761,56.160702],[-3.763786,56.160592],[-3.763832,56.160473],[-3.763837,56.16038],[-3.763799,56.160313],[-3.76372,56.160272],[-3.7636,56.160256],[-3.763476,56.160249],[-3.763349,56.160253],[-3.763219,56.160266],[-3.763087,56.160289],[-3.762994,56.160294],[-3.762942,56.160279],[-3.76293,56.160245],[-3.762958,56.160193],[-3.762973,56.160138],[-3.762976,56.160079],[-3.762965,56.160018],[-3.762942,56.159953],[-3.762959,56.159886],[-3.763015,56.159816],[-3.76311,56.159743],[-3.763245,56.159668],[-3.763318,56.159587],[-3.763329,56.159502],[-3.763278,56.159411],[-3.763166,56.159316],[-3.763071,56.159232],[-3.762996,56.159159],[-3.762938,56.159097],[-3.762899,56.159046],[-3.762865,56.158996],[-3.762838,56.158948],[-3.762816,56.158902],[-3.7628,56.158857],[-3.762703,56.158836],[-3.762526,56.158838],[-3.762269,56.158863],[-3.761931,56.158911],[-3.761728,56.158962],[-3.761662,56.159018],[-3.761731,56.159076],[-3.761936,56.159138],[-3.762096,56.1592],[-3.762209,56.159262],[-3.762277,56.159324],[-3.762299,56.159385],[-3.762287,56.159434],[-3.76224,56.159472],[-3.762159,56.159496],[-3.762043,56.159509],[-3.761921,56.159524],[-3.761791,56.159543],[-3.761655,56.159564],[-3.761513,56.159588],[-3.761408,56.159623],[-3.761341,56.15967],[-3.761312,56.159728],[-3.761321,56.159796],[-3.761355,56.15984],[-3.761413,56.159858],[-3.761497,56.159851],[-3.761606,56.159819],[-3.761689,56.15981],[-3.761745,56.159822],[-3.761776,56.159857],[-3.761781,56.159915],[-3.761806,56.159966],[-3.761851,56.160011],[-3.761916,56.160049],[-3.762,56.16008],[-3.762089,56.160125],[-3.762183,56.160183],[-3.762282,56.160255],[-3.762386,56.160339],[-3.762432,56.160413],[-3.76242,56.160475],[-3.762351,56.160526],[-3.762224,56.160566],[-3.762141,56.160629],[-3.762102,56.160717],[-3.762106,56.160827],[-3.762154,56.160961],[-3.762209,56.161064],[-3.762271,56.161134],[-3.76234,56.161172],[-3.762415,56.161179],[-3.762487,56.161175],[-3.762556,56.161162],[-3.762621,56.161139],[-3.762682,56.161106],[-3.762773,56.161093],[-3.762892,56.161099],[-3.763041,56.161124],[-3.763219,56.161169],[-3.763357,56.161217],[-3.763454,56.161269],[-3.76351,56.161325],[-3.763526,56.161384],[-3.763554,56.161432],[-3.763593,56.161468],[-3.763644,56.161493],[-3.763706,56.161507],[-3.763759,56.161492],[-3.7638,56.161448],[-3.763832,56.161376]]]}}