{"type":"Feature","properties":{"id":"269798","COMMUNE":"Lochaber","PROVINCE":"Lochaber, Skye & Lochalsh, Arran & Cumbrae and Argyll & Bute","COUNTRY":"UK","FIREDATE":"2025-04-22 12:46:00","CLASS":"FireSeason","areaHA_geo":392.659},"geometry":{"type":"Polygon","coordinates":[[[-5.644626,56.898533],[-5.644594,56.898846],[-5.644625,56.899043],[-5.644719,56.899125],[-5.644876,56.899092],[-5.645097,56.898943],[-5.64529,56.898771],[-5.645454,56.898577],[-5.64559,56.898359],[-5.645698,56.898118],[-5.645811,56.897954],[-5.645931,56.897866],[-5.646057,56.897855],[-5.646189,56.89792],[-5.646266,56.898006],[-5.646289,56.898113],[-5.646257,56.898241],[-5.64617,56.89839],[-5.646127,56.898544],[-5.646126,56.898702],[-5.646169,56.898866],[-5.646255,56.899034],[-5.646284,56.899218],[-5.646255,56.899416],[-5.64617,56.89963],[-5.646027,56.899858],[-5.64596,56.900017],[-5.645967,56.900106],[-5.64605,56.900124],[-5.646207,56.900072],[-5.646364,56.899984],[-5.64652,56.899859],[-5.646676,56.899698],[-5.646832,56.8995],[-5.646977,56.899314],[-5.647112,56.899139],[-5.647237,56.898976],[-5.647352,56.898823],[-5.647473,56.898685],[-5.6476,56.89856],[-5.647732,56.898448],[-5.647869,56.89835],[-5.647991,56.898248],[-5.648095,56.898142],[-5.648183,56.898031],[-5.648254,56.897917],[-5.648342,56.897797],[-5.648445,56.89767],[-5.648565,56.897538],[-5.6487,56.897399],[-5.648769,56.897235],[-5.64877,56.897043],[-5.648705,56.896826],[-5.648572,56.896582],[-5.648533,56.896418],[-5.648587,56.896334],[-5.648735,56.89633],[-5.648976,56.896407],[-5.649263,56.896477],[-5.649597,56.896542],[-5.649976,56.896602],[-5.650402,56.896656],[-5.650849,56.896691],[-5.651319,56.896707],[-5.65181,56.896704],[-5.652323,56.896682],[-5.652706,56.896679],[-5.652958,56.896693],[-5.653079,56.896725],[-5.653071,56.896775],[-5.653098,56.896848],[-5.653162,56.896946],[-5.653261,56.897068],[-5.653398,56.897214],[-5.653523,56.897272],[-5.653637,56.897242],[-5.65374,56.897124],[-5.653832,56.896918],[-5.653976,56.896754],[-5.654171,56.896633],[-5.654418,56.896554],[-5.654716,56.896518],[-5.655073,56.896498],[-5.65549,56.896496],[-5.655967,56.896512],[-5.656503,56.896544],[-5.656912,56.896541],[-5.657194,56.896503],[-5.657349,56.896429],[-5.657378,56.89632],[-5.65749,56.896231],[-5.657685,56.896162],[-5.657963,56.896114],[-5.658324,56.896087],[-5.658631,56.896053],[-5.658884,56.896015],[-5.659081,56.89597],[-5.659224,56.89592],[-5.659377,56.895867],[-5.65954,56.895811],[-5.659713,56.895751],[-5.659895,56.895688],[-5.66008,56.895615],[-5.660269,56.895531],[-5.66046,56.895437],[-5.660655,56.895332],[-5.660798,56.895221],[-5.660891,56.895104],[-5.660932,56.894981],[-5.660923,56.894852],[-5.660945,56.894737],[-5.661,56.894637],[-5.661087,56.894551],[-5.661206,56.89448],[-5.661339,56.894468],[-5.661486,56.894515],[-5.661647,56.894621],[-5.661821,56.894787],[-5.661948,56.894947],[-5.662027,56.8951],[-5.662059,56.895246],[-5.662043,56.895386],[-5.661975,56.895516],[-5.661854,56.895637],[-5.661681,56.895747],[-5.661455,56.895848],[-5.66127,56.895958],[-5.661126,56.896077],[-5.661023,56.896205],[-5.660962,56.896343],[-5.660978,56.896453],[-5.661073,56.896535],[-5.661245,56.896589],[-5.661495,56.896616],[-5.661743,56.896656],[-5.66199,56.896712],[-5.662236,56.896781],[-5.66248,56.896866],[-5.662698,56.896939],[-5.662888,56.897001],[-5.663051,56.897052],[-5.663188,56.897092],[-5.663272,56.897149],[-5.663303,56.897223],[-5.663281,56.897313],[-5.663206,56.897419],[-5.663177,56.897545],[-5.663193,56.897689],[-5.663255,56.897853],[-5.663361,56.898035],[-5.66346,56.898198],[-5.66355,56.898341],[-5.663632,56.898465],[-5.663706,56.89857],[-5.663812,56.898661],[-5.663949,56.898738],[-5.664117,56.898801],[-5.664317,56.898849],[-5.664452,56.898835],[-5.664524,56.898757],[-5.664531,56.898616],[-5.664475,56.898411],[-5.66445,56.898236],[-5.664455,56.898089],[-5.664491,56.897971],[-5.664557,56.897881],[-5.664624,56.8978],[-5.66469,56.897727],[-5.664756,56.897662],[-5.664822,56.897605],[-5.664899,56.897559],[-5.664989,56.897524],[-5.66509,56.897499],[-5.665204,56.897485],[-5.665421,56.897477],[-5.665741,56.897475],[-5.666164,56.897478],[-5.66669,56.897487],[-5.667186,56.897488],[-5.667653,56.89748],[-5.66809,56.897463],[-5.668497,56.897438],[-5.668856,56.89737],[-5.669168,56.897259],[-5.669431,56.897105],[-5.669647,56.896908],[-5.669806,56.89673],[-5.669911,56.896571],[-5.66996,56.896431],[-5.669954,56.89631],[-5.670003,56.896169],[-5.670107,56.89601],[-5.670267,56.895832],[-5.670483,56.895635],[-5.670674,56.895531],[-5.67084,56.895519],[-5.670982,56.895599],[-5.6711,56.895772],[-5.671165,56.895943],[-5.671176,56.896112],[-5.671135,56.89628],[-5.671041,56.896445],[-5.670952,56.896597],[-5.670867,56.896733],[-5.670788,56.896854],[-5.670714,56.896961],[-5.67067,56.897062],[-5.670658,56.897157],[-5.670677,56.897246],[-5.670727,56.897329],[-5.670823,56.897381],[-5.670966,56.8974],[-5.671154,56.897387],[-5.671389,56.897342],[-5.671594,56.897279],[-5.671768,56.897196],[-5.671912,56.897096],[-5.672026,56.896976],[-5.672103,56.896859],[-5.672144,56.896744],[-5.672149,56.896632],[-5.672118,56.896522],[-5.672138,56.89642],[-5.67221,56.896325],[-5.672334,56.896239],[-5.67251,56.896161],[-5.672663,56.896116],[-5.672792,56.896104],[-5.672898,56.896126],[-5.672981,56.896181],[-5.673054,56.896274],[-5.673116,56.896404],[-5.673169,56.896573],[-5.673211,56.896779],[-5.673232,56.896979],[-5.673232,56.897175],[-5.673212,56.897364],[-5.67317,56.897548],[-5.673205,56.897684],[-5.673317,56.897772],[-5.673505,56.897812],[-5.67377,56.897804],[-5.674084,56.897797],[-5.674447,56.897789],[-5.674858,56.897782],[-5.675317,56.897774],[-5.67569,56.897782],[-5.675975,56.897804],[-5.676174,56.897841],[-5.676285,56.897892],[-5.676363,56.897962],[-5.676408,56.89805],[-5.676419,56.898157],[-5.676397,56.898281],[-5.676405,56.89838],[-5.676443,56.898452],[-5.676511,56.898499],[-5.676609,56.89852],[-5.676755,56.898512],[-5.676949,56.898476],[-5.677191,56.898412],[-5.67748,56.89832],[-5.677757,56.89826],[-5.678021,56.898232],[-5.678273,56.898236],[-5.678512,56.898272],[-5.67875,56.898297],[-5.678988,56.898313],[-5.679226,56.898319],[-5.679463,56.898314],[-5.679717,56.898316],[-5.679989,56.898323],[-5.680278,56.898337],[-5.680585,56.898356],[-5.680939,56.898356],[-5.681341,56.898335],[-5.68179,56.898295],[-5.682287,56.898234],[-5.682666,56.898152],[-5.682928,56.898047],[-5.683072,56.897919],[-5.683098,56.89777],[-5.683106,56.897639],[-5.683096,56.897526],[-5.683068,56.897432],[-5.683021,56.897356],[-5.682949,56.897247],[-5.682851,56.897105],[-5.682728,56.896928],[-5.68258,56.896719],[-5.68249,56.896541],[-5.682458,56.896394],[-5.682484,56.896279],[-5.682568,56.896196],[-5.682686,56.896131],[-5.682838,56.896084],[-5.683024,56.896055],[-5.683243,56.896045],[-5.683549,56.896036],[-5.683942,56.896029],[-5.684151,56.896026],[-5.684142,56.895882],[-5.684107,56.895636],[-5.68407,56.895425],[-5.68403,56.895249],[-5.683987,56.895108],[-5.683942,56.895001],[-5.683875,56.894897],[-5.683786,56.894795],[-5.683676,56.894696],[-5.683543,56.8946],[-5.683482,56.894523],[-5.683493,56.894465],[-5.683574,56.894427],[-5.683727,56.894409],[-5.683833,56.894349],[-5.683894,56.894248],[-5.683908,56.894106],[-5.683876,56.893922],[-5.683827,56.893778],[-5.68376,56.893674],[-5.683676,56.893609],[-5.683573,56.893584],[-5.683489,56.893548],[-5.683423,56.8935],[-5.683375,56.89344],[-5.683345,56.893369],[-5.683383,56.893283],[-5.68349,56.893183],[-5.683665,56.893068],[-5.683908,56.892938],[-5.684072,56.892796],[-5.684156,56.892642],[-5.68416,56.892476],[-5.684085,56.892298],[-5.684048,56.892115],[-5.684049,56.891928],[-5.684088,56.891736],[-5.684166,56.891539],[-5.684221,56.891329],[-5.684253,56.891107],[-5.684262,56.890872],[-5.684249,56.890623],[-5.6842,56.890426],[-5.684116,56.890281],[-5.683996,56.890186],[-5.68384,56.890143],[-5.683641,56.890064],[-5.683398,56.88995],[-5.683111,56.8898],[-5.682781,56.889616],[-5.682533,56.889449],[-5.682368,56.889301],[-5.682284,56.889171],[-5.682282,56.889058],[-5.682357,56.888896],[-5.682509,56.888684],[-5.682736,56.888422],[-5.68304,56.888111],[-5.683299,56.887854],[-5.683512,56.887654],[-5.68355,56.88762],[-5.683527,56.887576],[-5.683428,56.887341],[-5.68339,56.887181],[-5.683414,56.887096],[-5.683433,56.887009],[-5.683447,56.886918],[-5.683455,56.886823],[-5.683459,56.886725],[-5.683453,56.886632],[-5.683439,56.886545],[-5.683415,56.886462],[-5.683382,56.886385],[-5.68336,56.886296],[-5.683348,56.886196],[-5.683345,56.886084],[-5.683353,56.885961],[-5.683303,56.885815],[-5.683194,56.885645],[-5.683026,56.885452],[-5.682801,56.885236],[-5.682584,56.885057],[-5.682375,56.884916],[-5.682175,56.884812],[-5.681983,56.884746],[-5.681786,56.884581],[-5.681585,56.884317],[-5.68138,56.883954],[-5.68117,56.883492],[-5.681003,56.883122],[-5.680878,56.882844],[-5.680796,56.882659],[-5.680757,56.882566],[-5.680689,56.882459],[-5.680593,56.882336],[-5.680468,56.882199],[-5.680314,56.882047],[-5.680158,56.881905],[-5.679998,56.881775],[-5.679835,56.881654],[-5.67967,56.881544],[-5.679492,56.881458],[-5.679301,56.881396],[-5.679099,56.881358],[-5.678884,56.881343],[-5.678607,56.881342],[-5.67827,56.881355],[-5.677871,56.881381],[-5.67741,56.881421],[-5.676986,56.881432],[-5.676598,56.881414],[-5.676246,56.881368],[-5.675931,56.881292],[-5.675664,56.881217],[-5.675446,56.881142],[-5.675277,56.881067],[-5.675156,56.880993],[-5.675055,56.880903],[-5.674974,56.880799],[-5.674912,56.880681],[-5.674871,56.880548],[-5.674717,56.880385],[-5.67445,56.880194],[-5.67407,56.879974],[-5.673577,56.879725],[-5.67312,56.87957],[-5.672699,56.879507],[-5.672312,56.879538],[-5.671962,56.879662],[-5.671697,56.879794],[-5.671517,56.879934],[-5.671423,56.880081],[-5.671414,56.880237],[-5.671308,56.880366],[-5.671104,56.880468],[-5.670804,56.880543],[-5.670407,56.880591],[-5.670065,56.88055],[-5.669778,56.880418],[-5.669547,56.880196],[-5.669371,56.879884],[-5.669221,56.87961],[-5.669099,56.879373],[-5.669004,56.879173],[-5.668935,56.87901],[-5.668835,56.878905],[-5.668702,56.878856],[-5.668538,56.878864],[-5.668341,56.878928],[-5.668174,56.878957],[-5.668037,56.878949],[-5.667929,56.878905],[-5.66785,56.878825],[-5.667767,56.878769],[-5.667678,56.878735],[-5.667584,56.878724],[-5.667485,56.878736],[-5.667411,56.878773],[-5.667363,56.878836],[-5.66734,56.878924],[-5.667343,56.879038],[-5.667283,56.879177],[-5.667158,56.879343],[-5.666971,56.879534],[-5.666719,56.879752],[-5.666525,56.879954],[-5.666388,56.880142],[-5.666307,56.880314],[-5.666284,56.880471],[-5.666244,56.880615],[-5.666186,56.880744],[-5.666112,56.880858],[-5.66602,56.880959],[-5.665961,56.881068],[-5.665936,56.881185],[-5.665944,56.88131],[-5.665985,56.881443],[-5.666007,56.881574],[-5.666009,56.881704],[-5.665992,56.881832],[-5.665956,56.881959],[-5.665916,56.882085],[-5.665873,56.882213],[-5.665826,56.88234],[-5.665776,56.882468],[-5.665634,56.88262],[-5.665402,56.882794],[-5.665079,56.882992],[-5.664665,56.883213],[-5.66432,56.883404],[-5.664044,56.883563],[-5.663837,56.883692],[-5.6637,56.88379],[-5.663579,56.883894],[-5.663476,56.884004],[-5.663391,56.88412],[-5.663323,56.884243],[-5.663152,56.884367],[-5.662877,56.884494],[-5.662499,56.884623],[-5.662018,56.884755],[-5.661644,56.88487],[-5.661379,56.884967],[-5.661223,56.885047],[-5.661175,56.88511],[-5.661184,56.885239],[-5.661252,56.885434],[-5.661377,56.885695],[-5.661559,56.886022],[-5.661711,56.886313],[-5.661833,56.886566],[-5.661924,56.886783],[-5.661985,56.886962],[-5.661977,56.887093],[-5.6619,56.887176],[-5.661754,56.88721],[-5.661539,56.887196],[-5.661377,56.88714],[-5.66127,56.887043],[-5.661215,56.886906],[-5.661215,56.886727],[-5.661169,56.886584],[-5.66108,56.886477],[-5.660945,56.886406],[-5.660766,56.886371],[-5.660655,56.886301],[-5.660611,56.886197],[-5.660634,56.886058],[-5.660725,56.885884],[-5.660769,56.885696],[-5.660766,56.885493],[-5.660715,56.885275],[-5.660617,56.885043],[-5.66056,56.884837],[-5.660544,56.884656],[-5.660568,56.884501],[-5.660632,56.884371],[-5.660622,56.884266],[-5.660536,56.884187],[-5.660376,56.884134],[-5.66014,56.884106],[-5.65985,56.884064],[-5.659506,56.884008],[-5.659108,56.883939],[-5.658655,56.883855],[-5.658252,56.883785],[-5.657899,56.883726],[-5.657596,56.883679],[-5.657343,56.883645],[-5.657149,56.883644],[-5.657013,56.883677],[-5.656937,56.883743],[-5.656919,56.883843],[-5.656858,56.883936],[-5.656752,56.884022],[-5.656603,56.884101],[-5.656409,56.884173],[-5.656094,56.884275],[-5.655657,56.884405],[-5.655097,56.884565],[-5.654416,56.884753],[-5.653791,56.884917],[-5.653223,56.885055],[-5.652711,56.885168],[-5.652256,56.885256],[-5.651795,56.88533],[-5.651328,56.885391],[-5.650856,56.885438],[-5.650378,56.885472],[-5.649968,56.885518],[-5.649627,56.885576],[-5.649354,56.885645],[-5.64915,56.885727],[-5.648677,56.885827],[-5.647937,56.885946],[-5.646928,56.886083],[-5.64565,56.886238],[-5.644488,56.886373],[-5.64344,56.886489],[-5.642506,56.886584],[-5.641688,56.886659],[-5.64103,56.886753],[-5.640533,56.886866],[-5.640197,56.886999],[-5.640022,56.88715],[-5.63992,56.887288],[-5.639891,56.887414],[-5.639934,56.887526],[-5.640051,56.887626],[-5.640141,56.887743],[-5.640205,56.887878],[-5.640243,56.88803],[-5.640254,56.888199],[-5.640218,56.88836],[-5.640133,56.888512],[-5.639999,56.888657],[-5.639818,56.888793],[-5.63971,56.888917],[-5.639676,56.889031],[-5.639716,56.889134],[-5.639829,56.889226],[-5.639986,56.889317],[-5.640188,56.889406],[-5.640434,56.889494],[-5.640724,56.889581],[-5.641001,56.889673],[-5.641266,56.889771],[-5.641519,56.889874],[-5.641759,56.889983],[-5.641957,56.890081],[-5.642112,56.890168],[-5.642226,56.890244],[-5.642298,56.890308],[-5.642439,56.890395],[-5.642649,56.890503],[-5.642928,56.890634],[-5.643275,56.890787],[-5.643568,56.890932],[-5.643805,56.89107],[-5.643987,56.8912],[-5.644113,56.891323],[-5.644265,56.891437],[-5.644443,56.891541],[-5.644647,56.891636],[-5.644878,56.891722],[-5.644961,56.891805],[-5.644898,56.891886],[-5.644689,56.891965],[-5.644333,56.89204],[-5.643938,56.892121],[-5.643504,56.892206],[-5.64303,56.892296],[-5.642518,56.892391],[-5.642104,56.892488],[-5.641788,56.892587],[-5.641569,56.892689],[-5.641449,56.892793],[-5.641371,56.892917],[-5.641334,56.893059],[-5.641338,56.893221],[-5.641385,56.893403],[-5.641488,56.893569],[-5.641649,56.89372],[-5.641867,56.893856],[-5.642141,56.893977],[-5.642354,56.894102],[-5.642505,56.89423],[-5.642594,56.894361],[-5.642621,56.894496],[-5.642588,56.894614],[-5.642497,56.894715],[-5.642345,56.894798],[-5.642134,56.894864],[-5.642002,56.894949],[-5.641949,56.895053],[-5.641975,56.895176],[-5.642079,56.895318],[-5.642171,56.895466],[-5.64225,56.895618],[-5.642317,56.895777],[-5.642371,56.895941],[-5.642467,56.89609],[-5.642606,56.896224],[-5.642786,56.896342],[-5.643009,56.896445],[-5.643211,56.896544],[-5.643393,56.89664],[-5.643555,56.896732],[-5.643696,56.896821],[-5.643822,56.896923],[-5.643931,56.89704],[-5.644023,56.897171],[-5.644099,56.897316],[-5.644185,56.897458],[-5.644281,56.897597],[-5.644386,56.897733],[-5.644502,56.897865],[-5.64458,56.898043],[-5.644622,56.898265],[-5.644626,56.898533]]]}}