{"type":"Feature","properties":{"id":"269757","COMMUNE":"Carmarthenshire","PROVINCE":"South West Wales","COUNTRY":"UK","FIREDATE":"2025-05-03 12:42:00","CLASS":"FireSeason","areaHA_geo":6.194},"geometry":{"type":"Polygon","coordinates":[[[-4.428337,51.988596],[-4.428166,51.988948],[-4.428329,51.989121],[-4.428826,51.989114],[-4.429655,51.988929],[-4.430306,51.988743],[-4.430777,51.988557],[-4.431069,51.988371],[-4.431183,51.988185],[-4.431329,51.98804],[-4.431508,51.987938],[-4.431721,51.987878],[-4.431966,51.987859],[-4.432153,51.987674],[-4.43228,51.987323],[-4.432347,51.986805],[-4.432356,51.986122],[-4.432346,51.985594],[-4.432316,51.985224],[-4.432268,51.98501],[-4.432201,51.984953],[-4.432075,51.984973],[-4.431889,51.98507],[-4.431643,51.985245],[-4.431339,51.985496],[-4.431079,51.985717],[-4.430866,51.985907],[-4.430698,51.986065],[-4.430575,51.986193],[-4.430433,51.986345],[-4.430272,51.986519],[-4.430093,51.986716],[-4.429894,51.986937],[-4.429619,51.987235],[-4.429268,51.987611],[-4.42884,51.988065],[-4.428337,51.988596]]]}}