{"type":"Feature","properties":{"id":"269915","COMMUNE":"Skye and Lochalsh","PROVINCE":"Lochaber, Skye & Lochalsh, Arran & Cumbrae and Argyll & Bute","COUNTRY":"UK","FIREDATE":"2025-04-08 12:38:00","CLASS":"FireSeason","areaHA_geo":11.365},"geometry":{"type":"Polygon","coordinates":[[[-5.319569,57.267143],[-5.319939,57.267755],[-5.319988,57.268191],[-5.319715,57.268449],[-5.319445,57.268757],[-5.319177,57.269117],[-5.319591,57.269335],[-5.320687,57.269411],[-5.32154,57.269177],[-5.322149,57.268633],[-5.322935,57.268376],[-5.323898,57.268406],[-5.324798,57.268331],[-5.325634,57.26815],[-5.326219,57.267958],[-5.326552,57.267755],[-5.326748,57.267403],[-5.326805,57.266904],[-5.326747,57.266491],[-5.326572,57.266163],[-5.326138,57.265988],[-5.325445,57.265967],[-5.324833,57.26605],[-5.324303,57.266235],[-5.323883,57.266459],[-5.323574,57.266721],[-5.323155,57.266945],[-5.322624,57.267131],[-5.322298,57.267169],[-5.322177,57.267061],[-5.322284,57.266863],[-5.322621,57.266577],[-5.322859,57.266283],[-5.322998,57.265979],[-5.322927,57.265762],[-5.322644,57.265631],[-5.322376,57.265581],[-5.322122,57.265611],[-5.321343,57.265928],[-5.320037,57.266534],[-5.319569,57.267143]]]}}