{"type":"Feature","properties":{"id":"269922","COMMUNE":"Copeland","PROVINCE":"West Cumbria","COUNTRY":"UK","FIREDATE":"2025-04-12 02:45:00","CLASS":"FireSeason","areaHA_geo":4.288},"geometry":{"type":"Polygon","coordinates":[[[-3.400645,54.54909],[-3.401292,54.549225],[-3.401755,54.549291],[-3.402032,54.549287],[-3.402456,54.549308],[-3.403027,54.549353],[-3.40349,54.549374],[-3.403845,54.549371],[-3.404144,54.549316],[-3.404386,54.549209],[-3.404538,54.549036],[-3.404598,54.548797],[-3.404646,54.548568],[-3.404682,54.548349],[-3.404399,54.548148],[-3.403797,54.547963],[-3.403252,54.547857],[-3.402764,54.54783],[-3.40224,54.547833],[-3.401679,54.547867],[-3.401219,54.547877],[-3.400858,54.547863],[-3.400522,54.547922],[-3.40021,54.548054],[-3.400027,54.548155],[-3.399973,54.548223],[-3.400039,54.548449],[-3.400227,54.548831],[-3.400645,54.54909]]]}}