{"type":"Feature","properties":{"id":"269921","COMMUNE":"Argyll and Bute Mainland","PROVINCE":"Lochaber, Skye & Lochalsh, Arran & Cumbrae and Argyll & Bute","COUNTRY":"UK","FIREDATE":"2025-04-06 11:34:00","CLASS":"FireSeason","areaHA_geo":1.472},"geometry":{"type":"Polygon","coordinates":[[[-5.443748,56.176549],[-5.444298,56.17651],[-5.444597,56.176379],[-5.444643,56.176154],[-5.444682,56.175954],[-5.444714,56.175779],[-5.444799,56.175607],[-5.444936,56.175438],[-5.444959,56.17524],[-5.444867,56.175013],[-5.4447,56.174877],[-5.444458,56.17483],[-5.444117,56.174876],[-5.443676,56.175016],[-5.443382,56.175094],[-5.443235,56.175112],[-5.443105,56.175152],[-5.442993,56.175213],[-5.44302,56.1753],[-5.443185,56.175413],[-5.443347,56.175494],[-5.443503,56.175541],[-5.443554,56.175816],[-5.4435,56.176317],[-5.443748,56.176549]]]}}