{"type":"Feature","properties":{"id":"269917","COMMUNE":"Skye and Lochalsh","PROVINCE":"Lochaber, Skye & Lochalsh, Arran & Cumbrae and Argyll & Bute","COUNTRY":"UK","FIREDATE":"2025-04-04 17:19:36.284","FINALDATE":"2025-04-05 00:00:00","CLASS":"FireSeason","areaHA_geo":13.709},"geometry":{"type":"Polygon","coordinates":[[[-5.589773,57.228106],[-5.590783,57.227964],[-5.591659,57.227644],[-5.5924,57.227148],[-5.592767,57.226611],[-5.59276,57.226034],[-5.592786,57.225581],[-5.592845,57.225252],[-5.593258,57.225106],[-5.594027,57.225142],[-5.594709,57.225114],[-5.595304,57.225021],[-5.595637,57.224777],[-5.595708,57.224383],[-5.595186,57.224135],[-5.594072,57.224034],[-5.592974,57.223876],[-5.591893,57.223664],[-5.591063,57.223485],[-5.590486,57.22334],[-5.589816,57.223303],[-5.589053,57.223373],[-5.588493,57.223548],[-5.588135,57.223826],[-5.587935,57.22415],[-5.587894,57.224519],[-5.588096,57.224902],[-5.588542,57.225298],[-5.588817,57.225619],[-5.58892,57.225863],[-5.589024,57.226108],[-5.589128,57.226352],[-5.589202,57.226901],[-5.589246,57.227752],[-5.589773,57.228106]]]}}