{"type":"Feature","properties":{"id":"269990","COMMUNE":"Argyll and Bute Mainland","PROVINCE":"Lochaber, Skye & Lochalsh, Arran & Cumbrae and Argyll & Bute","COUNTRY":"UK","FIREDATE":"2025-04-10 13:14:00","CLASS":"FireSeason","areaHA_geo":30.534},"geometry":{"type":"Polygon","coordinates":[[[-5.459484,56.493011],[-5.45965,56.493181],[-5.459856,56.493259],[-5.460305,56.493321],[-5.460482,56.493424],[-5.460563,56.493669],[-5.460653,56.493778],[-5.460841,56.493861],[-5.461064,56.493841],[-5.461545,56.493698],[-5.461801,56.493462],[-5.46209,56.492897],[-5.462257,56.492678],[-5.462471,56.492589],[-5.462569,56.492531],[-5.46265,56.492447],[-5.462537,56.49239],[-5.462116,56.492303],[-5.461939,56.492215],[-5.461827,56.492037],[-5.461942,56.491893],[-5.462395,56.491636],[-5.462778,56.491568],[-5.463475,56.491622],[-5.46391,56.491541],[-5.464521,56.491244],[-5.464934,56.490968],[-5.465564,56.490435],[-5.465833,56.49012],[-5.46601,56.489706],[-5.465945,56.489423],[-5.465575,56.488991],[-5.465365,56.488744],[-5.465104,56.488436],[-5.465057,56.48818],[-5.465177,56.48772],[-5.465312,56.487534],[-5.465599,56.487436],[-5.465972,56.48739],[-5.466805,56.487353],[-5.467216,56.487275],[-5.467617,56.487078],[-5.46789,56.486804],[-5.468309,56.486181],[-5.468694,56.485727],[-5.469432,56.48499],[-5.469865,56.484698],[-5.470423,56.484556],[-5.470903,56.484317],[-5.471785,56.483743],[-5.472192,56.483499],[-5.472532,56.483341],[-5.472758,56.483155],[-5.473094,56.482754],[-5.473174,56.48251],[-5.473078,56.482183],[-5.472699,56.481995],[-5.471659,56.481761],[-5.471116,56.481752],[-5.470528,56.481961],[-5.470092,56.482212],[-5.46937,56.482756],[-5.46905,56.48318],[-5.46881,56.48391],[-5.468572,56.484349],[-5.4681,56.484936],[-5.467684,56.485316],[-5.466908,56.485866],[-5.466328,56.486064],[-5.465363,56.486106],[-5.465271,56.486008],[-5.465961,56.48567],[-5.466152,56.485431],[-5.466035,56.485052],[-5.465653,56.485014],[-5.464624,56.485276],[-5.464107,56.48547],[-5.463582,56.485788],[-5.463367,56.485984],[-5.463246,56.486253],[-5.46298,56.486717],[-5.462303,56.487839],[-5.461601,56.488553],[-5.46017,56.489575],[-5.459587,56.490017],[-5.459268,56.490321],[-5.459121,56.490448],[-5.458999,56.490527],[-5.459053,56.491033],[-5.459335,56.492474],[-5.459484,56.493011]]]}}