{"type":"Feature","properties":{"id":"269919","COMMUNE":"Inverness and Nairn","PROVINCE":"Inverness & Nairn and Moray, Badenoch & Strathspey","COUNTRY":"UK","FIREDATE":"2025-04-08 12:38:00","CLASS":"FireSeason","areaHA_geo":8.338},"geometry":{"type":"Polygon","coordinates":[[[-4.286634,57.257238],[-4.286901,57.257188],[-4.287297,57.257052],[-4.287822,57.256829],[-4.288267,57.256744],[-4.288631,57.256797],[-4.28867,57.257045],[-4.288384,57.25749],[-4.288297,57.257783],[-4.28841,57.257925],[-4.288752,57.257945],[-4.289323,57.257841],[-4.289708,57.2577],[-4.289906,57.257524],[-4.290189,57.257291],[-4.290555,57.257003],[-4.290842,57.256735],[-4.29105,57.256485],[-4.291168,57.256172],[-4.291194,57.255798],[-4.291391,57.255518],[-4.291759,57.255333],[-4.29211,57.255352],[-4.292444,57.255573],[-4.292768,57.255744],[-4.293082,57.255864],[-4.293473,57.255862],[-4.293941,57.255739],[-4.294103,57.255566],[-4.29396,57.255345],[-4.293565,57.255212],[-4.292918,57.25517],[-4.292439,57.255068],[-4.292128,57.254906],[-4.291683,57.254743],[-4.291104,57.25458],[-4.290596,57.254501],[-4.290159,57.254508],[-4.289625,57.25451],[-4.288994,57.254507],[-4.288442,57.254563],[-4.287971,57.254676],[-4.287682,57.254894],[-4.287578,57.255215],[-4.287479,57.255551],[-4.287386,57.255901],[-4.287231,57.256192],[-4.287015,57.256422],[-4.286768,57.256599],[-4.286491,57.256722],[-4.28639,57.256904],[-4.286464,57.257143],[-4.286634,57.257238]]]}}