{"type":"Feature","properties":{"id":"270018","COMMUNE":"Rhondda Cynon Taf","PROVINCE":"Central Valleys","COUNTRY":"UK","FIREDATE":"2025-05-10 01:07:00","CLASS":"FireSeason","areaHA_geo":31.649},"geometry":{"type":"Polygon","coordinates":[[[-3.493341,51.674809],[-3.49341,51.674885],[-3.493596,51.675047],[-3.4939,51.675295],[-3.494204,51.675611],[-3.494508,51.675995],[-3.494812,51.676447],[-3.495115,51.676967],[-3.49535,51.677371],[-3.495515,51.677661],[-3.495612,51.677835],[-3.495639,51.677895],[-3.495694,51.677942],[-3.495778,51.677977],[-3.495891,51.678001],[-3.496032,51.678013],[-3.496163,51.678014],[-3.496283,51.678002],[-3.496393,51.67798],[-3.496492,51.677945],[-3.496601,51.677896],[-3.496719,51.677831],[-3.496846,51.677751],[-3.496982,51.677656],[-3.497077,51.677553],[-3.497131,51.677442],[-3.497143,51.677323],[-3.497114,51.677196],[-3.496984,51.677009],[-3.496753,51.676761],[-3.496422,51.676452],[-3.495989,51.676083],[-3.49563,51.675744],[-3.495344,51.675434],[-3.495132,51.675154],[-3.494992,51.674904],[-3.49487,51.674638],[-3.494766,51.674355],[-3.494681,51.674057],[-3.494613,51.673742],[-3.494512,51.673443],[-3.494376,51.673161],[-3.494207,51.672896],[-3.494003,51.672648],[-3.493796,51.672423],[-3.493583,51.672221],[-3.493367,51.672042],[-3.493146,51.671886],[-3.492941,51.67174],[-3.492753,51.671603],[-3.492582,51.671476],[-3.492427,51.671358],[-3.49232,51.671237],[-3.49226,51.671114],[-3.492247,51.670988],[-3.492281,51.670859],[-3.492315,51.670736],[-3.492348,51.670619],[-3.492381,51.670508],[-3.492413,51.670402],[-3.492442,51.6703],[-3.492467,51.6702],[-3.492488,51.670104],[-3.492506,51.670012],[-3.492471,51.669909],[-3.492382,51.669798],[-3.49224,51.669677],[-3.492045,51.669547],[-3.491871,51.669456],[-3.491719,51.669406],[-3.491587,51.669396],[-3.491477,51.669426],[-3.491367,51.669471],[-3.491257,51.669532],[-3.491148,51.669608],[-3.491038,51.669701],[-3.490943,51.669774],[-3.490864,51.669828],[-3.490799,51.669864],[-3.490749,51.669881],[-3.490674,51.669892],[-3.490575,51.669895],[-3.4905,51.669894],[-3.490451,51.669891],[-3.490381,51.669689],[-3.490291,51.669288],[-3.490117,51.668873],[-3.489861,51.668444],[-3.489533,51.668062],[-3.489135,51.667728],[-3.488609,51.667389],[-3.487954,51.667045],[-3.487484,51.666825],[-3.4872,51.666726],[-3.486875,51.666738],[-3.486508,51.666859],[-3.486451,51.667089],[-3.486701,51.667427],[-3.486964,51.667737],[-3.487241,51.66802],[-3.487247,51.668216],[-3.486983,51.668326],[-3.486591,51.668397],[-3.486071,51.668432],[-3.485691,51.668613],[-3.485451,51.668943],[-3.485359,51.669341],[-3.485415,51.669806],[-3.485381,51.670151],[-3.485258,51.670375],[-3.485173,51.670621],[-3.485127,51.670889],[-3.485229,51.671087],[-3.48548,51.671215],[-3.485899,51.671482],[-3.486488,51.671885],[-3.486905,51.67225],[-3.487152,51.672576],[-3.487436,51.672812],[-3.487755,51.672958],[-3.488003,51.673041],[-3.488179,51.67306],[-3.488307,51.67296],[-3.48839,51.67274],[-3.488448,51.67251],[-3.488481,51.67227],[-3.488776,51.672157],[-3.489332,51.672172],[-3.489812,51.672358],[-3.490218,51.672718],[-3.490874,51.673311],[-3.491781,51.674137],[-3.492366,51.6746],[-3.49263,51.674701],[-3.492898,51.674756],[-3.49317,51.674766],[-3.493341,51.674809]]]}}