{"type":"Feature","properties":{"id":"270147","COMMUNE":"Rhondda Cynon Taf","PROVINCE":"Central Valleys","COUNTRY":"UK","FIREDATE":"2025-05-17 13:46:00","FINALDATE":"2025-05-17 14:20:00","CLASS":"FireSeason","areaHA_geo":8.794},"geometry":{"type":"Polygon","coordinates":[[[-3.4014,51.648418],[-3.401656,51.648728],[-3.401836,51.648905],[-3.401938,51.648949],[-3.402261,51.648962],[-3.402805,51.648945],[-3.403425,51.64886],[-3.404122,51.648706],[-3.404556,51.648545],[-3.404729,51.648378],[-3.404938,51.648184],[-3.405183,51.647963],[-3.405379,51.647747],[-3.405524,51.647538],[-3.405559,51.647258],[-3.405483,51.646909],[-3.405304,51.646658],[-3.405022,51.646507],[-3.404479,51.646505],[-3.403677,51.646653],[-3.403028,51.646815],[-3.402532,51.646992],[-3.402162,51.647021],[-3.401918,51.646902],[-3.401915,51.646719],[-3.402153,51.646471],[-3.402429,51.646278],[-3.402744,51.646141],[-3.402952,51.645942],[-3.403052,51.645683],[-3.403083,51.645486],[-3.403043,51.645353],[-3.402926,51.645261],[-3.402733,51.64521],[-3.402526,51.645238],[-3.402306,51.645346],[-3.402045,51.645491],[-3.401743,51.645673],[-3.401343,51.645774],[-3.400844,51.645795],[-3.400499,51.64583],[-3.400306,51.64588],[-3.400176,51.645941],[-3.400108,51.646013],[-3.400374,51.646603],[-3.400973,51.647709],[-3.4014,51.648418]]]}}