{"type":"Feature","properties":{"id":"270157","COMMUNE":"Gwynedd","PROVINCE":"Gwynedd","COUNTRY":"UK","FIREDATE":"2025-05-14 12:36:00","CLASS":"FireSeason","areaHA_geo":1.121},"geometry":{"type":"Polygon","coordinates":[[[-3.958498,53.22202],[-3.959015,53.222113],[-3.95938,53.222193],[-3.959595,53.222261],[-3.959769,53.222342],[-3.9599,53.222436],[-3.960017,53.222497],[-3.960117,53.222523],[-3.960221,53.222519],[-3.960329,53.222485],[-3.960377,53.222367],[-3.960366,53.222166],[-3.96035,53.221992],[-3.96033,53.221847],[-3.960314,53.221729],[-3.960302,53.221637],[-3.960222,53.221561],[-3.960074,53.221502],[-3.959886,53.221488],[-3.959659,53.22152],[-3.959492,53.221556],[-3.959385,53.221596],[-3.959274,53.221593],[-3.959158,53.221546],[-3.959,53.221513],[-3.958801,53.221492],[-3.958597,53.221486],[-3.958389,53.221494],[-3.958226,53.221515],[-3.95811,53.221551],[-3.958049,53.221591],[-3.958046,53.221635],[-3.958093,53.221736],[-3.958191,53.221894],[-3.958498,53.22202]]]}}