{"type":"Feature","properties":{"id":"270151","COMMUNE":"Rhondda Cynon Taf","PROVINCE":"Central Valleys","COUNTRY":"UK","FIREDATE":"2025-05-10 12:57:00","FINALDATE":"2025-05-10 14:18:00","CLASS":"FireSeason","areaHA_geo":22.427},"geometry":{"type":"Polygon","coordinates":[[[-3.435629,51.651178],[-3.436037,51.651488],[-3.436309,51.651782],[-3.436444,51.652058],[-3.436745,51.652446],[-3.43721,51.652945],[-3.438059,51.653382],[-3.439293,51.653759],[-3.440416,51.654063],[-3.441431,51.654292],[-3.442483,51.654533],[-3.443575,51.654785],[-3.44462,51.654973],[-3.44562,51.655095],[-3.446324,51.655138],[-3.446733,51.655102],[-3.447344,51.65495],[-3.448157,51.654683],[-3.448808,51.654434],[-3.449299,51.654204],[-3.449644,51.654012],[-3.449843,51.653859],[-3.449754,51.65362],[-3.449376,51.653296],[-3.448837,51.653017],[-3.448137,51.652784],[-3.447333,51.652585],[-3.446425,51.652419],[-3.445118,51.652262],[-3.44341,51.652113],[-3.442182,51.652104],[-3.441433,51.652234],[-3.440755,51.652334],[-3.440146,51.652404],[-3.439615,51.652385],[-3.439161,51.652275],[-3.4388,51.652035],[-3.438532,51.651665],[-3.438221,51.651447],[-3.437868,51.651379],[-3.437643,51.651183],[-3.437546,51.650859],[-3.437453,51.65061],[-3.437366,51.650436],[-3.437065,51.650368],[-3.436552,51.650405],[-3.436166,51.650434],[-3.435909,51.650453],[-3.435692,51.650602],[-3.435514,51.650883],[-3.435629,51.651178]]]}}