{"type":"Feature","properties":{"id":"270156","COMMUNE":"Gwynedd","PROVINCE":"Gwynedd","COUNTRY":"UK","FIREDATE":"2025-05-14 12:36:00","CLASS":"FireSeason","areaHA_geo":25.547},"geometry":{"type":"Polygon","coordinates":[[[-3.979487,53.22151],[-3.979556,53.22147],[-3.979266,53.22142],[-3.978985,53.221304],[-3.978959,53.221266],[-3.978818,53.221327],[-3.978575,53.221495],[-3.978029,53.221474],[-3.977281,53.221515],[-3.976626,53.22156],[-3.976064,53.22161],[-3.975664,53.22179],[-3.975424,53.2221],[-3.975211,53.222368],[-3.975022,53.222594],[-3.974781,53.22274],[-3.974488,53.222806],[-3.974217,53.222861],[-3.973969,53.222906],[-3.973782,53.222975],[-3.973655,53.223068],[-3.973452,53.223209],[-3.973173,53.223399],[-3.972777,53.223594],[-3.972265,53.223795],[-3.971569,53.223915],[-3.970689,53.223955],[-3.970146,53.223901],[-3.969939,53.223753],[-3.969685,53.223579],[-3.969383,53.223379],[-3.969098,53.223193],[-3.968831,53.22302],[-3.9686,53.222796],[-3.968404,53.222521],[-3.968066,53.222294],[-3.967587,53.222115],[-3.967115,53.222037],[-3.966649,53.22206],[-3.966159,53.222046],[-3.965643,53.221997],[-3.965218,53.222023],[-3.964884,53.222125],[-3.964535,53.222181],[-3.964171,53.222192],[-3.963711,53.222191],[-3.963155,53.222178],[-3.96277,53.222285],[-3.962556,53.222514],[-3.962444,53.222653],[-3.962434,53.222701],[-3.962534,53.222768],[-3.962746,53.222853],[-3.96289,53.223008],[-3.962964,53.223235],[-3.96287,53.223426],[-3.962606,53.223583],[-3.962311,53.223766],[-3.961987,53.223976],[-3.961629,53.224128],[-3.961239,53.224221],[-3.960784,53.224313],[-3.960262,53.224405],[-3.959916,53.224469],[-3.959744,53.224505],[-3.959499,53.22444],[-3.959181,53.224273],[-3.958977,53.224132],[-3.958887,53.224017],[-3.958671,53.224081],[-3.958331,53.224325],[-3.958327,53.224592],[-3.958659,53.224883],[-3.958919,53.225072],[-3.959105,53.22516],[-3.9595,53.225122],[-3.960103,53.224957],[-3.960713,53.224854],[-3.96133,53.224814],[-3.961957,53.224725],[-3.962595,53.224588],[-3.963079,53.2245],[-3.963407,53.224461],[-3.96383,53.224467],[-3.964345,53.224516],[-3.964858,53.224558],[-3.965369,53.224593],[-3.965788,53.22463],[-3.966117,53.22467],[-3.966669,53.224833],[-3.967447,53.225118],[-3.968392,53.225235],[-3.969504,53.225184],[-3.970782,53.225034],[-3.972225,53.224787],[-3.973351,53.224577],[-3.974161,53.224404],[-3.974811,53.224266],[-3.975302,53.224161],[-3.975836,53.224067],[-3.976413,53.223984],[-3.976922,53.223815],[-3.977364,53.223559],[-3.977702,53.22323],[-3.977936,53.222826],[-3.978274,53.222496],[-3.978716,53.222241],[-3.978987,53.221989],[-3.978988,53.221987],[-3.979004,53.221985],[-3.979291,53.221719],[-3.979487,53.22151]]]}}