{"type":"Feature","properties":{"id":"270221","COMMUNE":"Powys","PROVINCE":"Powys","COUNTRY":"UK","FIREDATE":"2025-05-18 13:25:00","FINALDATE":"2025-05-18 13:50:00","CLASS":"FireSeason","areaHA_geo":17.198},"geometry":{"type":"Polygon","coordinates":[[[-3.22384,51.9326],[-3.223957,51.932594],[-3.224064,51.932577],[-3.224161,51.932549],[-3.224247,51.93251],[-3.224323,51.93246],[-3.224398,51.932408],[-3.224472,51.932354],[-3.224543,51.932299],[-3.224614,51.932243],[-3.224679,51.932176],[-3.22474,51.9321],[-3.224795,51.932013],[-3.224846,51.931917],[-3.224904,51.931824],[-3.224968,51.931732],[-3.225038,51.931643],[-3.225115,51.931556],[-3.225178,51.931473],[-3.225225,51.931393],[-3.225258,51.931317],[-3.225276,51.931244],[-3.225295,51.931175],[-3.225315,51.931109],[-3.225336,51.931047],[-3.225359,51.930988],[-3.225379,51.930928],[-3.225399,51.930868],[-3.225417,51.930806],[-3.225434,51.930743],[-3.225452,51.930677],[-3.225471,51.930607],[-3.225491,51.930535],[-3.225512,51.930459],[-3.225535,51.930381],[-3.225558,51.930299],[-3.225582,51.930214],[-3.225607,51.930125],[-3.22563,51.930045],[-3.22565,51.929973],[-3.225668,51.92991],[-3.225683,51.929854],[-3.22572,51.929808],[-3.225778,51.929771],[-3.225858,51.929743],[-3.22596,51.929724],[-3.226061,51.929718],[-3.226162,51.929723],[-3.226262,51.929741],[-3.226363,51.929771],[-3.226472,51.929802],[-3.22659,51.929832],[-3.226717,51.929863],[-3.226853,51.929894],[-3.226952,51.929871],[-3.227012,51.929795],[-3.227035,51.929665],[-3.22702,51.929481],[-3.227016,51.929319],[-3.227025,51.929181],[-3.227044,51.929064],[-3.227076,51.92897],[-3.22712,51.928867],[-3.227178,51.928753],[-3.227248,51.928629],[-3.227331,51.928495],[-3.227409,51.928396],[-3.227483,51.928331],[-3.227553,51.928301],[-3.227618,51.928306],[-3.22765,51.928344],[-3.227649,51.928415],[-3.227616,51.928519],[-3.22755,51.928656],[-3.227499,51.92878],[-3.227465,51.928891],[-3.227447,51.928989],[-3.227445,51.929075],[-3.227475,51.929142],[-3.22754,51.929191],[-3.227637,51.929222],[-3.227768,51.929234],[-3.227855,51.929254],[-3.2279,51.929283],[-3.227901,51.929321],[-3.227859,51.929367],[-3.227847,51.929412],[-3.227863,51.929455],[-3.22791,51.929497],[-3.227985,51.929537],[-3.228049,51.92955],[-3.2281,51.929536],[-3.228139,51.929494],[-3.228166,51.929425],[-3.228197,51.929366],[-3.228231,51.929315],[-3.22827,51.929274],[-3.228312,51.929243],[-3.228316,51.929201],[-3.228283,51.929149],[-3.228212,51.929086],[-3.228102,51.929013],[-3.228071,51.928957],[-3.228117,51.928919],[-3.228241,51.928898],[-3.228442,51.928895],[-3.228598,51.928907],[-3.228707,51.928935],[-3.228771,51.928979],[-3.228788,51.929038],[-3.228816,51.929076],[-3.228853,51.929094],[-3.228899,51.929091],[-3.228956,51.929067],[-3.229006,51.929033],[-3.22905,51.928988],[-3.229088,51.928932],[-3.22912,51.928865],[-3.229124,51.928812],[-3.229101,51.928775],[-3.22905,51.928752],[-3.228972,51.928743],[-3.228905,51.928725],[-3.22885,51.928698],[-3.228805,51.92866],[-3.228771,51.928612],[-3.228774,51.928567],[-3.228814,51.928523],[-3.228892,51.928482],[-3.229007,51.928442],[-3.229097,51.928398],[-3.229163,51.92835],[-3.229203,51.928299],[-3.229218,51.928243],[-3.229239,51.928185],[-3.229266,51.928123],[-3.2293,51.928058],[-3.229339,51.92799],[-3.22939,51.927926],[-3.229453,51.927865],[-3.229528,51.927808],[-3.229616,51.927754],[-3.229692,51.927731],[-3.229758,51.927738],[-3.229813,51.927776],[-3.229857,51.927844],[-3.229904,51.927893],[-3.229955,51.927924],[-3.230009,51.927936],[-3.230067,51.92793],[-3.230118,51.927908],[-3.230162,51.92787],[-3.2302,51.927816],[-3.23023,51.927747],[-3.230285,51.927688],[-3.230364,51.92764],[-3.230467,51.927603],[-3.230594,51.927576],[-3.230697,51.927537],[-3.230774,51.927486],[-3.230828,51.927421],[-3.230856,51.927345],[-3.230898,51.927281],[-3.230952,51.927228],[-3.231018,51.927188],[-3.231097,51.927159],[-3.231149,51.927122],[-3.231175,51.927075],[-3.231174,51.927019],[-3.231146,51.926953],[-3.231088,51.926908],[-3.230999,51.926883],[-3.23088,51.926877],[-3.230729,51.926892],[-3.230592,51.926918],[-3.230468,51.926955],[-3.230358,51.927004],[-3.230261,51.927064],[-3.230176,51.927106],[-3.230104,51.92713],[-3.230044,51.927136],[-3.229997,51.927124],[-3.229966,51.927094],[-3.229952,51.927047],[-3.229955,51.926982],[-3.229974,51.9269],[-3.229977,51.92684],[-3.229963,51.926802],[-3.229934,51.926787],[-3.229889,51.926795],[-3.229789,51.926825],[-3.229634,51.926878],[-3.229424,51.926953],[-3.22916,51.927052],[-3.228951,51.92714],[-3.228798,51.927218],[-3.2287,51.927287],[-3.228658,51.927345],[-3.228602,51.927393],[-3.228532,51.92743],[-3.228448,51.927457],[-3.228349,51.927473],[-3.228271,51.927476],[-3.228213,51.927467],[-3.228174,51.927445],[-3.228156,51.927411],[-3.228155,51.927373],[-3.22817,51.927332],[-3.228203,51.927288],[-3.228252,51.927241],[-3.228237,51.927204],[-3.228158,51.927176],[-3.228013,51.927158],[-3.227805,51.92715],[-3.227606,51.927152],[-3.227417,51.927164],[-3.227238,51.927185],[-3.227069,51.927217],[-3.226941,51.927229],[-3.226856,51.927223],[-3.226813,51.927198],[-3.226812,51.927154],[-3.226785,51.927119],[-3.226734,51.927092],[-3.226657,51.927073],[-3.226554,51.927063],[-3.226441,51.927069],[-3.226318,51.927093],[-3.226183,51.927134],[-3.226038,51.927192],[-3.225923,51.927224],[-3.225839,51.92723],[-3.225787,51.927209],[-3.225765,51.927163],[-3.225723,51.927127],[-3.225659,51.927101],[-3.225575,51.927086],[-3.225471,51.92708],[-3.225381,51.927092],[-3.225306,51.927122],[-3.225247,51.927168],[-3.225202,51.927232],[-3.225172,51.92729],[-3.225156,51.927343],[-3.225154,51.927391],[-3.225167,51.927433],[-3.225197,51.927474],[-3.225245,51.927514],[-3.22531,51.927553],[-3.225392,51.92759],[-3.225443,51.927626],[-3.225461,51.927662],[-3.225448,51.927697],[-3.225403,51.927731],[-3.225339,51.927747],[-3.225257,51.927744],[-3.225156,51.927722],[-3.225037,51.927682],[-3.224925,51.92763],[-3.224821,51.927565],[-3.224723,51.927487],[-3.224633,51.927397],[-3.224523,51.927296],[-3.224394,51.927182],[-3.224245,51.927057],[-3.224078,51.92692],[-3.223799,51.926818],[-3.223411,51.926752],[-3.222912,51.926722],[-3.222302,51.926728],[-3.221845,51.926752],[-3.221541,51.926795],[-3.221389,51.926857],[-3.221389,51.926938],[-3.221427,51.926999],[-3.221503,51.927042],[-3.221617,51.927065],[-3.22177,51.92707],[-3.22188,51.927088],[-3.221948,51.927118],[-3.221975,51.92716],[-3.22196,51.927216],[-3.221935,51.927264],[-3.2219,51.927306],[-3.221854,51.927341],[-3.221799,51.927369],[-3.22177,51.9274],[-3.221765,51.927432],[-3.221786,51.927466],[-3.221833,51.927502],[-3.221863,51.92754],[-3.221877,51.92758],[-3.221875,51.927622],[-3.221856,51.927666],[-3.221823,51.927691],[-3.221776,51.927699],[-3.221714,51.927689],[-3.221638,51.927661],[-3.22156,51.92761],[-3.221478,51.927536],[-3.221394,51.92744],[-3.221307,51.92732],[-3.221224,51.927232],[-3.221145,51.927175],[-3.221071,51.927149],[-3.221001,51.927155],[-3.220922,51.927186],[-3.220834,51.927244],[-3.220737,51.927327],[-3.220631,51.927437],[-3.220567,51.927541],[-3.220544,51.927638],[-3.220564,51.92773],[-3.220625,51.927816],[-3.220687,51.927877],[-3.220749,51.927912],[-3.220812,51.927923],[-3.220875,51.927908],[-3.220936,51.927896],[-3.220994,51.927884],[-3.221049,51.927874],[-3.221102,51.927866],[-3.22116,51.927865],[-3.221221,51.927873],[-3.221288,51.927889],[-3.221358,51.927912],[-3.221446,51.927965],[-3.221552,51.928045],[-3.221674,51.928155],[-3.221815,51.928293],[-3.221948,51.928382],[-3.222073,51.928423],[-3.22219,51.928415],[-3.222301,51.928358],[-3.222403,51.928332],[-3.222497,51.928334],[-3.222583,51.928367],[-3.222661,51.928429],[-3.222778,51.92848],[-3.222935,51.928521],[-3.223132,51.928551],[-3.223368,51.928571],[-3.223535,51.928569],[-3.223634,51.928547],[-3.223663,51.928504],[-3.223624,51.92844],[-3.223616,51.928391],[-3.223637,51.928357],[-3.223689,51.928338],[-3.223771,51.928333],[-3.223848,51.92835],[-3.223919,51.928389],[-3.223984,51.928448],[-3.224044,51.928529],[-3.224108,51.928598],[-3.224176,51.928654],[-3.224248,51.928697],[-3.224325,51.928727],[-3.22438,51.928762],[-3.224413,51.928801],[-3.224425,51.928844],[-3.224416,51.928891],[-3.224417,51.928935],[-3.224429,51.928975],[-3.224452,51.929012],[-3.224485,51.929044],[-3.224535,51.929067],[-3.224603,51.929079],[-3.224686,51.92908],[-3.224787,51.929071],[-3.224876,51.92909],[-3.224953,51.929136],[-3.225019,51.92921],[-3.225073,51.929311],[-3.225089,51.929398],[-3.225066,51.92947],[-3.225006,51.929527],[-3.224908,51.92957],[-3.224825,51.929593],[-3.224756,51.929597],[-3.224703,51.929582],[-3.224665,51.929547],[-3.224613,51.929523],[-3.224547,51.929508],[-3.224467,51.929504],[-3.224374,51.92951],[-3.224286,51.929501],[-3.224204,51.929479],[-3.224128,51.929442],[-3.224057,51.929392],[-3.223992,51.929353],[-3.223932,51.929325],[-3.223878,51.92931],[-3.223829,51.929305],[-3.223791,51.929326],[-3.223765,51.929372],[-3.223751,51.929442],[-3.223748,51.929538],[-3.223754,51.92963],[-3.223771,51.929718],[-3.223797,51.929803],[-3.223833,51.929885],[-3.223839,51.929956],[-3.223816,51.930017],[-3.223763,51.930068],[-3.22368,51.930109],[-3.223613,51.930157],[-3.223562,51.930212],[-3.223526,51.930273],[-3.223507,51.930341],[-3.223497,51.930409],[-3.223498,51.930476],[-3.223508,51.930542],[-3.223527,51.930609],[-3.223521,51.930661],[-3.223489,51.930698],[-3.22343,51.930722],[-3.223346,51.930732],[-3.223255,51.930764],[-3.223159,51.93082],[-3.223057,51.9309],[-3.222948,51.931002],[-3.22285,51.931084],[-3.222761,51.931146],[-3.222682,51.931186],[-3.222612,51.931206],[-3.222506,51.931207],[-3.222361,51.93119],[-3.22218,51.931153],[-3.221961,51.931097],[-3.221804,51.931075],[-3.22171,51.931085],[-3.221679,51.931129],[-3.22171,51.931206],[-3.221775,51.931268],[-3.221876,51.931313],[-3.222013,51.931344],[-3.222184,51.931359],[-3.222314,51.93139],[-3.222404,51.931439],[-3.222453,51.931504],[-3.222462,51.931586],[-3.222495,51.931651],[-3.222553,51.931699],[-3.222636,51.931731],[-3.222743,51.931745],[-3.222843,51.93177],[-3.222935,51.931805],[-3.223019,51.93185],[-3.223094,51.931905],[-3.223157,51.93196],[-3.223208,51.932015],[-3.223245,51.932071],[-3.22327,51.932126],[-3.223312,51.932165],[-3.223372,51.932186],[-3.223449,51.93219],[-3.223545,51.932177],[-3.223615,51.932195],[-3.223659,51.932245],[-3.223679,51.932327],[-3.223673,51.932439],[-3.223697,51.932523],[-3.223753,51.932576],[-3.22384,51.9326]]]}}