{"type":"Feature","properties":{"id":"270298","COMMUNE":"West Lothian","PROVINCE":"West Lothian","COUNTRY":"UK","FIREDATE":"2025-05-10 12:38:00","CLASS":"FireSeason","areaHA_geo":60.269},"geometry":{"type":"Polygon","coordinates":[[[-3.710332,55.844552],[-3.710126,55.844715],[-3.709466,55.845066],[-3.70945,55.845252],[-3.709102,55.845245],[-3.708327,55.845303],[-3.707709,55.845437],[-3.707329,55.845604],[-3.707187,55.845806],[-3.707371,55.846159],[-3.707881,55.846662],[-3.708468,55.846978],[-3.70913,55.847105],[-3.709564,55.847358],[-3.709769,55.847735],[-3.709934,55.848136],[-3.710061,55.848562],[-3.710442,55.848733],[-3.711078,55.848651],[-3.711604,55.848594],[-3.71202,55.848562],[-3.712543,55.848698],[-3.713173,55.849002],[-3.714069,55.849251],[-3.715229,55.849444],[-3.716187,55.8495],[-3.716942,55.849418],[-3.71761,55.849159],[-3.718192,55.848723],[-3.719139,55.848414],[-3.720452,55.848231],[-3.721435,55.848124],[-3.722089,55.848093],[-3.722794,55.847903],[-3.723549,55.847555],[-3.724032,55.847276],[-3.724243,55.847067],[-3.723918,55.846683],[-3.723055,55.846125],[-3.722224,55.84559],[-3.721426,55.845077],[-3.720236,55.844535],[-3.718656,55.843961],[-3.717679,55.843615],[-3.717305,55.843496],[-3.716836,55.84348],[-3.716273,55.843568],[-3.715678,55.843832],[-3.715051,55.844273],[-3.714531,55.844549],[-3.714119,55.84466],[-3.713513,55.844693],[-3.712713,55.844647],[-3.711957,55.844589],[-3.711244,55.84452],[-3.711034,55.84433],[-3.711328,55.844019],[-3.711694,55.843779],[-3.712134,55.843612],[-3.712406,55.843442],[-3.712512,55.843271],[-3.712412,55.843122],[-3.712106,55.842996],[-3.711715,55.843032],[-3.711239,55.84323],[-3.71085,55.843272],[-3.710549,55.843158],[-3.710513,55.842823],[-3.710744,55.842266],[-3.710889,55.841904],[-3.710949,55.841738],[-3.711226,55.841598],[-3.71172,55.841484],[-3.712241,55.841447],[-3.712789,55.841488],[-3.713267,55.841479],[-3.713674,55.841421],[-3.714278,55.841249],[-3.715079,55.840963],[-3.715708,55.840728],[-3.716166,55.840545],[-3.716424,55.840407],[-3.716484,55.840312],[-3.716644,55.840228],[-3.716905,55.840155],[-3.717102,55.840037],[-3.717235,55.839877],[-3.717247,55.839709],[-3.717138,55.839534],[-3.716855,55.839439],[-3.716398,55.839422],[-3.715948,55.839391],[-3.715504,55.839346],[-3.715052,55.839342],[-3.71459,55.839379],[-3.713796,55.839585],[-3.712671,55.83996],[-3.711758,55.840166],[-3.711059,55.840202],[-3.710447,55.840049],[-3.709922,55.839706],[-3.709309,55.839281],[-3.708606,55.838771],[-3.708006,55.83845],[-3.707508,55.838318],[-3.706871,55.838328],[-3.706093,55.838479],[-3.705756,55.838768],[-3.70586,55.839196],[-3.705749,55.839554],[-3.705424,55.839842],[-3.705311,55.840127],[-3.70541,55.840409],[-3.705835,55.840603],[-3.706584,55.840708],[-3.707361,55.84079],[-3.708165,55.840849],[-3.708686,55.840912],[-3.708924,55.840979],[-3.709088,55.841141],[-3.709178,55.841397],[-3.709298,55.84177],[-3.709448,55.84226],[-3.709611,55.842755],[-3.709787,55.843254],[-3.709953,55.843722],[-3.710107,55.844158],[-3.710332,55.844552]]]}}