{"type":"Feature","properties":{"id":"270224","COMMUNE":"Wiltshire","PROVINCE":"Wiltshire CC","COUNTRY":"UK","FIREDATE":"2025-05-15 12:42:00","FINALDATE":"2025-05-15 13:04:00","CLASS":"FireSeason","areaHA_geo":15.972},"geometry":{"type":"Polygon","coordinates":[[[-1.870941,51.285704],[-1.871012,51.285673],[-1.871073,51.285655],[-1.871123,51.285648],[-1.871164,51.285654],[-1.871193,51.285672],[-1.871225,51.285653],[-1.871258,51.285597],[-1.871294,51.285505],[-1.871331,51.285376],[-1.871356,51.285258],[-1.87137,51.285151],[-1.871372,51.285055],[-1.871363,51.28497],[-1.871332,51.284876],[-1.87128,51.284773],[-1.871207,51.284661],[-1.871113,51.284541],[-1.871019,51.284447],[-1.870926,51.284379],[-1.870834,51.284338],[-1.870743,51.284324],[-1.870678,51.284295],[-1.870639,51.284249],[-1.870626,51.284188],[-1.870639,51.284111],[-1.870618,51.284034],[-1.870563,51.283958],[-1.870473,51.283882],[-1.870349,51.283806],[-1.870229,51.283709],[-1.870115,51.283592],[-1.870006,51.283454],[-1.869902,51.283295],[-1.86979,51.283104],[-1.869671,51.28288],[-1.869545,51.282624],[-1.869411,51.282335],[-1.869289,51.282114],[-1.869177,51.28196],[-1.869077,51.281873],[-1.868989,51.281853],[-1.868937,51.28182],[-1.868922,51.281772],[-1.868945,51.281709],[-1.869004,51.281633],[-1.869059,51.281577],[-1.869111,51.281542],[-1.869158,51.281527],[-1.869201,51.281533],[-1.869231,51.281506],[-1.869246,51.281446],[-1.869248,51.281352],[-1.869236,51.281226],[-1.869223,51.281111],[-1.869208,51.281008],[-1.869193,51.280917],[-1.869176,51.280838],[-1.869162,51.280755],[-1.86915,51.280668],[-1.869139,51.280576],[-1.869131,51.280481],[-1.869026,51.280436],[-1.868826,51.280442],[-1.868528,51.280499],[-1.868135,51.280608],[-1.867779,51.280708],[-1.867461,51.280801],[-1.867181,51.280885],[-1.866938,51.280963],[-1.86676,51.281036],[-1.866647,51.281106],[-1.866599,51.281173],[-1.866615,51.281237],[-1.8666,51.281279],[-1.866554,51.281301],[-1.866476,51.281302],[-1.866366,51.281282],[-1.866272,51.281279],[-1.866194,51.281292],[-1.866132,51.281322],[-1.866086,51.281368],[-1.866033,51.281413],[-1.865973,51.281455],[-1.865907,51.281496],[-1.865833,51.281535],[-1.865775,51.281577],[-1.865733,51.281621],[-1.865706,51.281669],[-1.865694,51.28172],[-1.865652,51.281762],[-1.865579,51.281795],[-1.865476,51.28182],[-1.865342,51.281837],[-1.865198,51.28188],[-1.865043,51.281949],[-1.864877,51.282045],[-1.8647,51.282167],[-1.864567,51.282272],[-1.864477,51.282358],[-1.86443,51.282426],[-1.864426,51.282476],[-1.864408,51.282535],[-1.864376,51.282605],[-1.86433,51.282685],[-1.86427,51.282774],[-1.864208,51.28287],[-1.864142,51.28297],[-1.864074,51.283076],[-1.864003,51.283188],[-1.863938,51.283302],[-1.863878,51.283419],[-1.863825,51.283538],[-1.863778,51.283661],[-1.863813,51.283774],[-1.86393,51.28388],[-1.864129,51.283976],[-1.864411,51.284065],[-1.864667,51.284137],[-1.864897,51.284193],[-1.8651,51.284233],[-1.865277,51.284256],[-1.865431,51.284292],[-1.86556,51.28434],[-1.865666,51.2844],[-1.865747,51.284472],[-1.865832,51.284519],[-1.865921,51.28454],[-1.866014,51.284535],[-1.86611,51.284504],[-1.866197,51.284461],[-1.866274,51.284405],[-1.866342,51.284336],[-1.8664,51.284254],[-1.866467,51.284199],[-1.866543,51.28417],[-1.866628,51.284168],[-1.866722,51.284192],[-1.86679,51.284226],[-1.866832,51.284268],[-1.866849,51.28432],[-1.86684,51.284381],[-1.866852,51.284443],[-1.866885,51.284506],[-1.86694,51.28457],[-1.867015,51.284636],[-1.867094,51.284678],[-1.867177,51.284698],[-1.867263,51.284696],[-1.867352,51.284671],[-1.867419,51.284638],[-1.867462,51.284597],[-1.867483,51.284548],[-1.86748,51.284491],[-1.867493,51.284445],[-1.867522,51.284409],[-1.867565,51.284385],[-1.867624,51.284371],[-1.867663,51.284343],[-1.867681,51.284302],[-1.86768,51.284248],[-1.867658,51.28418],[-1.867655,51.284123],[-1.86767,51.284079],[-1.867704,51.284046],[-1.867757,51.284025],[-1.8678,51.284033],[-1.867833,51.28407],[-1.867855,51.284136],[-1.867867,51.284231],[-1.867906,51.284324],[-1.867972,51.284415],[-1.868064,51.284504],[-1.868183,51.284591],[-1.868286,51.284655],[-1.868374,51.284695],[-1.868446,51.284713],[-1.868503,51.284707],[-1.868546,51.284693],[-1.868573,51.284672],[-1.868587,51.284644],[-1.868586,51.284607],[-1.868596,51.284587],[-1.868618,51.284584],[-1.868652,51.284597],[-1.868697,51.284626],[-1.868727,51.284659],[-1.868741,51.284697],[-1.868739,51.284739],[-1.868722,51.284785],[-1.868697,51.284827],[-1.868666,51.284866],[-1.868627,51.2849],[-1.86858,51.284931],[-1.868556,51.28498],[-1.868553,51.285049],[-1.868571,51.285135],[-1.868611,51.285241],[-1.868658,51.285323],[-1.868711,51.285381],[-1.86877,51.285416],[-1.868835,51.285427],[-1.868895,51.285427],[-1.868948,51.285415],[-1.868995,51.285392],[-1.869036,51.285356],[-1.869085,51.285335],[-1.869141,51.285328],[-1.869206,51.285335],[-1.869278,51.285356],[-1.869335,51.285384],[-1.869378,51.285419],[-1.869405,51.28546],[-1.869418,51.285508],[-1.869466,51.285548],[-1.86955,51.28558],[-1.869668,51.285604],[-1.869823,51.285619],[-1.869938,51.285617],[-1.870014,51.285596],[-1.870051,51.285557],[-1.870048,51.2855],[-1.870076,51.285464],[-1.870133,51.285451],[-1.870219,51.285459],[-1.870335,51.285489],[-1.870436,51.285509],[-1.870521,51.285522],[-1.870589,51.285525],[-1.870642,51.28552],[-1.870689,51.28553],[-1.870729,51.285558],[-1.870764,51.285601],[-1.870792,51.285661],[-1.870831,51.285698],[-1.87088,51.285712],[-1.870941,51.285704]]]}}