{"type":"Feature","properties":{"id":"270238","COMMUNE":"Pembrokeshire","PROVINCE":"South West Wales","COUNTRY":"UK","FIREDATE":"2025-05-05 12:34:29.096","CLASS":"FireSeason","areaHA_geo":1.549},"geometry":{"type":"Polygon","coordinates":[[[-5.012846,51.61836],[-5.013064,51.618428],[-5.01327,51.618455],[-5.013463,51.618441],[-5.013644,51.618386],[-5.01379,51.618334],[-5.013899,51.618286],[-5.013973,51.618241],[-5.014011,51.618201],[-5.014077,51.618169],[-5.014173,51.618147],[-5.014298,51.618134],[-5.014451,51.61813],[-5.014627,51.618116],[-5.014825,51.618092],[-5.015046,51.618058],[-5.015289,51.618015],[-5.015476,51.617967],[-5.015606,51.617914],[-5.01568,51.617857],[-5.015698,51.617794],[-5.015676,51.617748],[-5.015614,51.617719],[-5.015513,51.617705],[-5.015372,51.617707],[-5.015288,51.617696],[-5.01526,51.617672],[-5.01529,51.617634],[-5.015375,51.617583],[-5.015414,51.61752],[-5.015405,51.617446],[-5.015348,51.61736],[-5.015245,51.617261],[-5.015152,51.617189],[-5.015072,51.617141],[-5.015003,51.617119],[-5.014946,51.617123],[-5.014871,51.617144],[-5.014778,51.617182],[-5.014666,51.617237],[-5.014536,51.61731],[-5.014418,51.617391],[-5.014313,51.61748],[-5.01422,51.617578],[-5.01414,51.617684],[-5.014034,51.617752],[-5.013902,51.617783],[-5.013746,51.617777],[-5.013563,51.617733],[-5.013376,51.617716],[-5.013183,51.617727],[-5.012985,51.617766],[-5.012781,51.617832],[-5.012616,51.617891],[-5.012489,51.617944],[-5.012399,51.617989],[-5.012348,51.618028],[-5.012367,51.618084],[-5.012456,51.618158],[-5.012616,51.61825],[-5.012846,51.61836]]]}}