{"type":"Feature","properties":{"id":"270266","COMMUNE":"Fermanagh and Omagh","PROVINCE":"Fermanagh and Omagh","COUNTRY":"UK","FIREDATE":"2025-05-17 13:21:00","FINALDATE":"2025-05-17 13:21:00","CLASS":"FireSeason","areaHA_geo":1.432},"geometry":{"type":"Polygon","coordinates":[[[-7.503965,54.613032],[-7.504503,54.613119],[-7.504803,54.613119],[-7.504866,54.613033],[-7.505103,54.612965],[-7.505515,54.612916],[-7.50581,54.612845],[-7.505986,54.612752],[-7.506101,54.612539],[-7.506155,54.612204],[-7.50588,54.612033],[-7.505275,54.612023],[-7.504824,54.612021],[-7.504526,54.612025],[-7.504306,54.612076],[-7.504165,54.612173],[-7.503995,54.612413],[-7.503795,54.612797],[-7.503965,54.613032]]]}}