{"type":"Feature","properties":{"id":"270236","COMMUNE":"Pembrokeshire","PROVINCE":"South West Wales","COUNTRY":"UK","FIREDATE":"2025-05-06 12:34:00","CLASS":"FireSeason","areaHA_geo":5.222},"geometry":{"type":"Polygon","coordinates":[[[-5.0074,51.615248],[-5.008015,51.615332],[-5.008488,51.615392],[-5.008819,51.615429],[-5.009009,51.615442],[-5.009057,51.615432],[-5.009138,51.615429],[-5.009253,51.615434],[-5.0094,51.615447],[-5.009581,51.615467],[-5.009754,51.615431],[-5.009919,51.615338],[-5.010077,51.615188],[-5.010226,51.614981],[-5.010363,51.614804],[-5.010488,51.614656],[-5.010599,51.614538],[-5.010698,51.61445],[-5.01077,51.614371],[-5.010814,51.614301],[-5.010831,51.614241],[-5.010821,51.614191],[-5.010758,51.614148],[-5.010643,51.614113],[-5.010476,51.614086],[-5.010257,51.614067],[-5.010081,51.614034],[-5.00995,51.613987],[-5.009862,51.613927],[-5.009817,51.613853],[-5.009663,51.61381],[-5.009398,51.613798],[-5.009023,51.613818],[-5.008537,51.613869],[-5.008177,51.613918],[-5.007941,51.613965],[-5.00783,51.614009],[-5.007844,51.614051],[-5.007827,51.614094],[-5.007777,51.614138],[-5.007696,51.614184],[-5.007583,51.61423],[-5.007482,51.614234],[-5.007395,51.614196],[-5.007321,51.614115],[-5.00726,51.613991],[-5.007199,51.61391],[-5.007138,51.613872],[-5.007077,51.613877],[-5.007016,51.613925],[-5.006964,51.613947],[-5.00692,51.613942],[-5.006886,51.613912],[-5.00686,51.613856],[-5.006738,51.613812],[-5.006518,51.61378],[-5.006201,51.613762],[-5.005786,51.613756],[-5.00548,51.613766],[-5.005282,51.613791],[-5.005193,51.613833],[-5.005213,51.61389],[-5.005214,51.613937],[-5.005197,51.613973],[-5.005162,51.613998],[-5.005109,51.614013],[-5.005069,51.614044],[-5.005043,51.614091],[-5.005031,51.614155],[-5.005032,51.614234],[-5.005046,51.614296],[-5.005074,51.61434],[-5.005115,51.614367],[-5.00517,51.614376],[-5.005201,51.614392],[-5.005209,51.614415],[-5.005193,51.614444],[-5.005154,51.614481],[-5.005129,51.614522],[-5.005117,51.614565],[-5.00512,51.614611],[-5.005137,51.614661],[-5.005167,51.614699],[-5.005212,51.614725],[-5.00527,51.614739],[-5.005341,51.614742],[-5.0054,51.614734],[-5.005446,51.614717],[-5.005478,51.614688],[-5.005497,51.61465],[-5.005563,51.614629],[-5.005674,51.614624],[-5.005831,51.614637],[-5.006034,51.614666],[-5.006196,51.614714],[-5.006314,51.61478],[-5.006391,51.614865],[-5.006426,51.614968],[-5.006606,51.615066],[-5.00693,51.61516],[-5.0074,51.615248]]]}}