{"type":"Feature","properties":{"id":"270541","COMMUNE":"South Ayrshire","PROVINCE":"South Ayrshire","COUNTRY":"UK","FIREDATE":"2025-05-16 13:38:00","CLASS":"FireSeason","areaHA_geo":3.136},"geometry":{"type":"Polygon","coordinates":[[[-4.826245,55.223834],[-4.826289,55.22375],[-4.826341,55.223683],[-4.826402,55.223633],[-4.826471,55.2236],[-4.826549,55.223583],[-4.826593,55.223551],[-4.826604,55.223503],[-4.826583,55.22344],[-4.826528,55.223361],[-4.826424,55.223295],[-4.82627,55.223243],[-4.826068,55.223205],[-4.825815,55.22318],[-4.825581,55.223147],[-4.825365,55.223106],[-4.825166,55.223058],[-4.824986,55.223],[-4.824824,55.22296],[-4.824681,55.222935],[-4.824556,55.222927],[-4.82445,55.222935],[-4.824329,55.222926],[-4.824192,55.222901],[-4.824039,55.222859],[-4.82387,55.2228],[-4.823731,55.222747],[-4.823621,55.222698],[-4.823539,55.222654],[-4.823487,55.222615],[-4.823396,55.222583],[-4.823268,55.222558],[-4.823101,55.22254],[-4.822896,55.222528],[-4.822683,55.222482],[-4.822464,55.222399],[-4.822238,55.222282],[-4.822005,55.222129],[-4.821754,55.22201],[-4.821486,55.221927],[-4.821201,55.221878],[-4.820898,55.221864],[-4.820674,55.221874],[-4.820528,55.221908],[-4.82046,55.221966],[-4.820469,55.222048],[-4.8205,55.22212],[-4.820552,55.22218],[-4.820625,55.22223],[-4.820719,55.222269],[-4.820789,55.222307],[-4.820835,55.222344],[-4.820856,55.222381],[-4.820853,55.222417],[-4.820838,55.222446],[-4.820813,55.222468],[-4.820777,55.222483],[-4.82073,55.222491],[-4.820687,55.222486],[-4.820649,55.222468],[-4.820615,55.222437],[-4.820586,55.222393],[-4.820538,55.222353],[-4.82047,55.222319],[-4.820384,55.222288],[-4.820278,55.222263],[-4.820149,55.222207],[-4.819998,55.222122],[-4.819824,55.222006],[-4.819627,55.221861],[-4.819464,55.221754],[-4.819336,55.221686],[-4.819242,55.221657],[-4.819183,55.221666],[-4.819157,55.221696],[-4.819163,55.221746],[-4.819202,55.221817],[-4.819274,55.221909],[-4.819364,55.221995],[-4.819472,55.222076],[-4.819598,55.222152],[-4.819742,55.222223],[-4.81988,55.222289],[-4.820014,55.222349],[-4.820142,55.222404],[-4.820266,55.222454],[-4.820368,55.222512],[-4.820449,55.222578],[-4.82051,55.222653],[-4.82055,55.222737],[-4.820625,55.2228],[-4.820735,55.222844],[-4.820882,55.222868],[-4.821063,55.222873],[-4.82122,55.222882],[-4.821353,55.222894],[-4.821461,55.222911],[-4.821544,55.222932],[-4.821631,55.22297],[-4.821722,55.223023],[-4.821818,55.223093],[-4.821917,55.223178],[-4.822052,55.223238],[-4.822224,55.223273],[-4.822433,55.223281],[-4.822677,55.223264],[-4.822864,55.22324],[-4.822993,55.223211],[-4.823065,55.223175],[-4.823078,55.223133],[-4.823113,55.223104],[-4.82317,55.223087],[-4.823248,55.223084],[-4.823348,55.223093],[-4.823542,55.22313],[-4.823829,55.223193],[-4.824211,55.223283],[-4.824686,55.223401],[-4.825057,55.223506],[-4.825325,55.223601],[-4.825489,55.223683],[-4.825549,55.223755],[-4.825628,55.223814],[-4.825726,55.223862],[-4.825842,55.223898],[-4.825977,55.223923],[-4.826089,55.22392],[-4.826178,55.22389],[-4.826245,55.223834]]]}}