{"type":"Feature","properties":{"id":"270570","COMMUNE":"Dumfries and Galloway","PROVINCE":"Dumfries & Galloway","COUNTRY":"UK","FIREDATE":"2025-05-23 01:34:00","FINALDATE":"2025-05-23 13:08:00","CLASS":"FireSeason","areaHA_geo":38.011},"geometry":{"type":"Polygon","coordinates":[[[-4.665561,55.05048],[-4.665587,55.050537],[-4.665662,55.050581],[-4.665787,55.050612],[-4.665961,55.050631],[-4.666106,55.050629],[-4.666223,55.050609],[-4.66631,55.050568],[-4.666369,55.050508],[-4.666426,55.050459],[-4.666483,55.05042],[-4.66654,55.050392],[-4.666596,55.050375],[-4.666635,55.050344],[-4.666659,55.050298],[-4.666666,55.050239],[-4.666658,55.050166],[-4.666666,55.050107],[-4.66669,55.050063],[-4.666731,55.050035],[-4.666788,55.050021],[-4.666839,55.049995],[-4.666884,55.049958],[-4.666923,55.049909],[-4.666957,55.049849],[-4.666994,55.049794],[-4.667035,55.049747],[-4.667081,55.049706],[-4.66713,55.049672],[-4.667149,55.049642],[-4.667136,55.049615],[-4.667091,55.049592],[-4.667016,55.049572],[-4.666977,55.049534],[-4.666975,55.049478],[-4.667009,55.049403],[-4.66708,55.049309],[-4.667129,55.049228],[-4.667156,55.049157],[-4.667161,55.049098],[-4.667143,55.049051],[-4.667122,55.04899],[-4.667098,55.048917],[-4.667071,55.048831],[-4.667041,55.048731],[-4.667032,55.048629],[-4.667046,55.048523],[-4.667082,55.048413],[-4.667139,55.0483],[-4.667212,55.048215],[-4.667299,55.048159],[-4.667402,55.048131],[-4.66752,55.048131],[-4.66765,55.048116],[-4.667791,55.048087],[-4.667944,55.048043],[-4.668108,55.047985],[-4.668316,55.047917],[-4.668566,55.047839],[-4.66886,55.047752],[-4.669196,55.047656],[-4.669483,55.047595],[-4.669719,55.047571],[-4.669904,55.047583],[-4.67004,55.04763],[-4.670175,55.047673],[-4.67031,55.04771],[-4.670444,55.047742],[-4.670578,55.047769],[-4.670727,55.047829],[-4.670892,55.047923],[-4.671072,55.04805],[-4.671268,55.048211],[-4.671427,55.048327],[-4.671549,55.048398],[-4.671635,55.048423],[-4.671683,55.048403],[-4.6717,55.048348],[-4.671685,55.048258],[-4.671639,55.048132],[-4.671561,55.047971],[-4.671493,55.047821],[-4.671436,55.047683],[-4.671389,55.047556],[-4.671353,55.04744],[-4.671398,55.047365],[-4.671525,55.047332],[-4.671735,55.047341],[-4.672027,55.047392],[-4.672268,55.047437],[-4.672459,55.047476],[-4.6726,55.04751],[-4.672691,55.047538],[-4.672771,55.047549],[-4.67284,55.047542],[-4.672898,55.047519],[-4.672945,55.047478],[-4.673,55.047446],[-4.673063,55.047422],[-4.673133,55.047408],[-4.673212,55.047402],[-4.67324,55.047377],[-4.673218,55.047334],[-4.673145,55.047272],[-4.673022,55.04719],[-4.672905,55.047116],[-4.672793,55.047048],[-4.672686,55.046986],[-4.672585,55.04693],[-4.672524,55.046886],[-4.672502,55.046853],[-4.672521,55.046832],[-4.672579,55.046821],[-4.67261,55.046788],[-4.672615,55.046733],[-4.672592,55.046655],[-4.672543,55.046555],[-4.67253,55.046474],[-4.672554,55.046412],[-4.672614,55.046371],[-4.672712,55.046349],[-4.672782,55.04635],[-4.672825,55.046375],[-4.672842,55.046424],[-4.672831,55.046496],[-4.672844,55.046557],[-4.672882,55.046607],[-4.672943,55.046647],[-4.673028,55.046676],[-4.673103,55.046683],[-4.673169,55.046668],[-4.673225,55.046631],[-4.673272,55.046573],[-4.673339,55.046528],[-4.673427,55.046496],[-4.673535,55.046478],[-4.673663,55.046473],[-4.673727,55.046499],[-4.673726,55.046556],[-4.673661,55.046644],[-4.673531,55.046762],[-4.673477,55.046884],[-4.673499,55.047011],[-4.673597,55.047142],[-4.673771,55.047277],[-4.673915,55.047429],[-4.67403,55.047598],[-4.674116,55.047784],[-4.674172,55.047986],[-4.67419,55.048141],[-4.67417,55.048248],[-4.674113,55.048307],[-4.674018,55.048318],[-4.673998,55.048343],[-4.674053,55.048383],[-4.674183,55.048437],[-4.674388,55.048504],[-4.674554,55.048534],[-4.674681,55.048526],[-4.67477,55.04848],[-4.674819,55.048397],[-4.674884,55.048328],[-4.674963,55.048274],[-4.675058,55.048235],[-4.675167,55.048212],[-4.675273,55.048167],[-4.675375,55.0481],[-4.675474,55.048011],[-4.67557,55.0479],[-4.675633,55.047799],[-4.675664,55.047707],[-4.675663,55.047623],[-4.675629,55.047549],[-4.67561,55.047462],[-4.675604,55.047362],[-4.675611,55.047249],[-4.675633,55.047122],[-4.675647,55.046993],[-4.675654,55.046861],[-4.675654,55.046726],[-4.675647,55.046589],[-4.675695,55.046483],[-4.675798,55.046409],[-4.675956,55.046366],[-4.676169,55.046355],[-4.676346,55.046333],[-4.676489,55.046298],[-4.676596,55.046252],[-4.676667,55.046194],[-4.676746,55.046151],[-4.676833,55.046125],[-4.676927,55.046115],[-4.677028,55.046121],[-4.677111,55.046056],[-4.677176,55.045921],[-4.677223,55.045715],[-4.677251,55.045439],[-4.677266,55.045218],[-4.677267,55.045053],[-4.677254,55.044944],[-4.677228,55.044891],[-4.677177,55.044851],[-4.6771,55.044827],[-4.676997,55.044817],[-4.676868,55.044822],[-4.676757,55.044785],[-4.676663,55.044708],[-4.676587,55.044589],[-4.676528,55.04443],[-4.676504,55.044304],[-4.676513,55.044213],[-4.676557,55.044155],[-4.676635,55.044132],[-4.676719,55.044145],[-4.676809,55.044194],[-4.676904,55.044281],[-4.677005,55.044403],[-4.677112,55.044494],[-4.677224,55.044554],[-4.677341,55.044581],[-4.677463,55.044578],[-4.677562,55.044584],[-4.677637,55.044602],[-4.677688,55.044631],[-4.677715,55.04467],[-4.677751,55.044698],[-4.677797,55.044713],[-4.677853,55.044717],[-4.677918,55.04471],[-4.677977,55.044679],[-4.678028,55.044625],[-4.678073,55.044548],[-4.67811,55.044448],[-4.678155,55.044388],[-4.678207,55.04437],[-4.678266,55.044392],[-4.678333,55.044455],[-4.678431,55.044524],[-4.678561,55.044599],[-4.678723,55.04468],[-4.678916,55.044767],[-4.679127,55.0448],[-4.679355,55.04478],[-4.679601,55.044707],[-4.679864,55.04458],[-4.680023,55.044464],[-4.680077,55.044358],[-4.680027,55.044263],[-4.679871,55.044179],[-4.679727,55.044118],[-4.679592,55.044081],[-4.679467,55.044067],[-4.679353,55.044077],[-4.679254,55.044007],[-4.679171,55.043855],[-4.679102,55.043623],[-4.679049,55.043311],[-4.678985,55.043045],[-4.67891,55.042825],[-4.678824,55.042652],[-4.678728,55.042525],[-4.678634,55.042422],[-4.678543,55.042342],[-4.678454,55.042286],[-4.678367,55.042254],[-4.678277,55.042166],[-4.678184,55.042021],[-4.678086,55.04182],[-4.677985,55.041563],[-4.677886,55.041373],[-4.677788,55.041252],[-4.677693,55.041199],[-4.677599,55.041213],[-4.67753,55.041182],[-4.677486,55.041104],[-4.677466,55.040979],[-4.677471,55.040809],[-4.67746,55.040674],[-4.677434,55.040576],[-4.677391,55.040515],[-4.677332,55.04049],[-4.67728,55.040493],[-4.677236,55.040523],[-4.677198,55.040581],[-4.677167,55.040666],[-4.677137,55.040735],[-4.677107,55.040788],[-4.677077,55.040825],[-4.677048,55.040846],[-4.677027,55.040879],[-4.677016,55.040923],[-4.677013,55.040978],[-4.677019,55.041045],[-4.676999,55.041096],[-4.676953,55.041131],[-4.676881,55.041151],[-4.676784,55.041156],[-4.676714,55.041135],[-4.676672,55.041088],[-4.676658,55.041016],[-4.676672,55.040919],[-4.676663,55.040836],[-4.676631,55.040767],[-4.676577,55.040713],[-4.6765,55.040672],[-4.676416,55.040641],[-4.676324,55.04062],[-4.676226,55.040609],[-4.67612,55.040607],[-4.676024,55.040599],[-4.675938,55.040585],[-4.675862,55.040563],[-4.675796,55.040536],[-4.675725,55.040518],[-4.675651,55.040509],[-4.675572,55.040509],[-4.675489,55.040519],[-4.675376,55.040547],[-4.675235,55.040592],[-4.675064,55.040654],[-4.674864,55.040735],[-4.674693,55.0408],[-4.67455,55.040851],[-4.674437,55.040886],[-4.674351,55.040907],[-4.674278,55.040914],[-4.674216,55.040907],[-4.674167,55.040887],[-4.674129,55.040852],[-4.674031,55.040828],[-4.673871,55.040815],[-4.67365,55.040813],[-4.673368,55.040822],[-4.673119,55.040849],[-4.672904,55.040896],[-4.672722,55.040962],[-4.672573,55.041047],[-4.672489,55.041124],[-4.672468,55.041194],[-4.672511,55.041256],[-4.672618,55.041311],[-4.672707,55.041363],[-4.672778,55.041413],[-4.672831,55.041461],[-4.672867,55.041506],[-4.672962,55.041542],[-4.673117,55.041568],[-4.673333,55.041584],[-4.673608,55.04159],[-4.673788,55.041643],[-4.673874,55.041741],[-4.673865,55.041884],[-4.673761,55.042074],[-4.673676,55.042233],[-4.673609,55.042364],[-4.673561,55.042464],[-4.673531,55.042535],[-4.673525,55.042588],[-4.673541,55.042623],[-4.67358,55.042641],[-4.673642,55.04264],[-4.673689,55.04266],[-4.673722,55.042698],[-4.67374,55.042756],[-4.673744,55.042834],[-4.673734,55.0429],[-4.673711,55.042954],[-4.673674,55.042996],[-4.673623,55.043027],[-4.673574,55.043097],[-4.673527,55.043205],[-4.673482,55.043352],[-4.673439,55.043538],[-4.673413,55.043692],[-4.673402,55.043816],[-4.673408,55.043908],[-4.673431,55.043969],[-4.673423,55.044029],[-4.673386,55.044086],[-4.673318,55.044142],[-4.67322,55.044196],[-4.673163,55.044252],[-4.673147,55.044309],[-4.673171,55.044367],[-4.673237,55.044426],[-4.673166,55.044479],[-4.67296,55.044525],[-4.672618,55.044563],[-4.672139,55.044595],[-4.671731,55.044614],[-4.671392,55.044621],[-4.671123,55.044615],[-4.670924,55.044596],[-4.670706,55.044572],[-4.670469,55.044543],[-4.670213,55.04451],[-4.669939,55.044471],[-4.669744,55.044456],[-4.669628,55.044462],[-4.669592,55.044491],[-4.669636,55.044543],[-4.669646,55.044586],[-4.669621,55.044621],[-4.669563,55.044647],[-4.66947,55.044665],[-4.6694,55.044697],[-4.669352,55.044744],[-4.669326,55.044804],[-4.669323,55.044879],[-4.669287,55.044928],[-4.669217,55.04495],[-4.669115,55.044946],[-4.66898,55.044916],[-4.668866,55.044877],[-4.668774,55.044827],[-4.668702,55.044768],[-4.668652,55.0447],[-4.668578,55.044657],[-4.668478,55.044641],[-4.668355,55.04465],[-4.668207,55.044685],[-4.668074,55.044706],[-4.667958,55.04471],[-4.667858,55.0447],[-4.667775,55.044675],[-4.667693,55.044689],[-4.667614,55.044742],[-4.667536,55.044836],[-4.667461,55.044969],[-4.667417,55.045083],[-4.667402,55.045178],[-4.667418,55.045255],[-4.667464,55.045314],[-4.667488,55.045366],[-4.66749,55.045412],[-4.667469,55.045451],[-4.667425,55.045485],[-4.667372,55.045504],[-4.667309,55.04551],[-4.667236,55.045502],[-4.667154,55.04548],[-4.667087,55.045479],[-4.667035,55.045499],[-4.666999,55.045541],[-4.666979,55.045603],[-4.66692,55.045661],[-4.666821,55.045713],[-4.666683,55.04576],[-4.666507,55.045803],[-4.666378,55.045854],[-4.666298,55.045915],[-4.666267,55.045985],[-4.666284,55.046065],[-4.666298,55.046157],[-4.666309,55.046262],[-4.666316,55.04638],[-4.666321,55.04651],[-4.666314,55.046643],[-4.666296,55.046778],[-4.666266,55.046915],[-4.666224,55.047055],[-4.666233,55.047158],[-4.666292,55.047226],[-4.666401,55.047257],[-4.666561,55.047252],[-4.666688,55.047271],[-4.666784,55.047313],[-4.666849,55.047378],[-4.666881,55.047466],[-4.666893,55.047535],[-4.666884,55.047586],[-4.666854,55.047618],[-4.666803,55.047631],[-4.666754,55.047629],[-4.666707,55.047611],[-4.666662,55.047579],[-4.66662,55.047531],[-4.666573,55.047493],[-4.666523,55.047465],[-4.666468,55.047448],[-4.66641,55.04744],[-4.666322,55.047443],[-4.666206,55.047455],[-4.66606,55.047476],[-4.665886,55.047508],[-4.665762,55.047555],[-4.665689,55.047619],[-4.665667,55.047698],[-4.665697,55.047794],[-4.665725,55.047855],[-4.665754,55.047882],[-4.665782,55.047874],[-4.66581,55.047832],[-4.665854,55.047795],[-4.665913,55.047763],[-4.665989,55.047736],[-4.66608,55.047715],[-4.666152,55.047713],[-4.666206,55.047732],[-4.66624,55.04777],[-4.666255,55.047829],[-4.666294,55.047867],[-4.666356,55.047884],[-4.666442,55.047881],[-4.666551,55.047858],[-4.666639,55.047851],[-4.666704,55.047861],[-4.666748,55.047887],[-4.66677,55.047931],[-4.666758,55.047972],[-4.66671,55.048011],[-4.666628,55.048049],[-4.666511,55.048084],[-4.666448,55.04812],[-4.666439,55.048156],[-4.666486,55.048193],[-4.666586,55.048231],[-4.666649,55.048275],[-4.666675,55.048327],[-4.666662,55.048386],[-4.666612,55.048453],[-4.666589,55.048515],[-4.666592,55.048573],[-4.666621,55.048627],[-4.666677,55.048677],[-4.66671,55.048721],[-4.666721,55.048759],[-4.666709,55.04879],[-4.666675,55.048815],[-4.666621,55.048824],[-4.666546,55.048815],[-4.666451,55.048789],[-4.666336,55.048746],[-4.666239,55.048723],[-4.666161,55.048722],[-4.666102,55.048742],[-4.666061,55.048782],[-4.665998,55.04881],[-4.665914,55.048825],[-4.665808,55.048828],[-4.66568,55.048818],[-4.665603,55.048857],[-4.665577,55.048945],[-4.665601,55.049082],[-4.665676,55.049268],[-4.665744,55.049454],[-4.665806,55.049638],[-4.665861,55.049821],[-4.665909,55.050003],[-4.665923,55.050141],[-4.665902,55.050235],[-4.665847,55.050286],[-4.665756,55.050294],[-4.665682,55.050316],[-4.665625,55.050355],[-4.665585,55.050409],[-4.665561,55.05048]]]}}