{"type":"Feature","properties":{"id":"270549","COMMUNE":"Powys","PROVINCE":"Powys","COUNTRY":"UK","FIREDATE":"2025-05-18 13:25:00","FINALDATE":"2025-05-19 03:42:00","CLASS":"FireSeason","areaHA_geo":33.067},"geometry":{"type":"Polygon","coordinates":[[[-3.20585,51.919943],[-3.206346,51.920199],[-3.206669,51.920393],[-3.206819,51.920526],[-3.206907,51.920638],[-3.206935,51.92073],[-3.207086,51.920828],[-3.20736,51.920933],[-3.207614,51.921047],[-3.20785,51.92117],[-3.207934,51.921303],[-3.207866,51.921446],[-3.20776,51.921574],[-3.207617,51.921685],[-3.207795,51.92195],[-3.208295,51.922369],[-3.208969,51.922816],[-3.209817,51.92329],[-3.210472,51.923746],[-3.210933,51.924183],[-3.211121,51.924515],[-3.211034,51.924742],[-3.211008,51.924915],[-3.211043,51.925033],[-3.211437,51.925464],[-3.212188,51.926208],[-3.21293,51.926694],[-3.213661,51.926924],[-3.214295,51.927015],[-3.214833,51.926968],[-3.215122,51.926901],[-3.215163,51.926815],[-3.21532,51.926858],[-3.215592,51.927031],[-3.215907,51.927125],[-3.216264,51.927139],[-3.216663,51.927066],[-3.217101,51.926908],[-3.217606,51.926824],[-3.218177,51.926813],[-3.218586,51.92674],[-3.218832,51.926603],[-3.219012,51.926318],[-3.219126,51.925884],[-3.219052,51.925526],[-3.218791,51.925243],[-3.218498,51.925038],[-3.218174,51.924912],[-3.217622,51.92473],[-3.216845,51.924492],[-3.2159,51.924062],[-3.214787,51.923441],[-3.214014,51.922958],[-3.21358,51.922613],[-3.213328,51.922363],[-3.21326,51.922208],[-3.213068,51.921972],[-3.212753,51.921654],[-3.212496,51.921459],[-3.212298,51.921386],[-3.211985,51.921225],[-3.211557,51.920974],[-3.211083,51.920682],[-3.210564,51.920347],[-3.210183,51.92007],[-3.209942,51.919853],[-3.209676,51.919591],[-3.209386,51.919284],[-3.209066,51.918988],[-3.208715,51.918701],[-3.208378,51.918495],[-3.208053,51.918369],[-3.207682,51.918309],[-3.207265,51.918315],[-3.2069,51.91835],[-3.206587,51.918413],[-3.206337,51.918536],[-3.206149,51.91872],[-3.206051,51.918874],[-3.206043,51.918997],[-3.20593,51.919248],[-3.205712,51.919625],[-3.20585,51.919943]]]}}