{"type":"Feature","properties":{"id":"270761","COMMUNE":"Argyll and Bute Mainland","PROVINCE":"Lochaber, Skye & Lochalsh, Arran & Cumbrae and Argyll & Bute","COUNTRY":"UK","FIREDATE":"2025-05-22 01:05:00","FINALDATE":"2025-05-22 02:43:00","CLASS":"FireSeason","areaHA_geo":29.282},"geometry":{"type":"Polygon","coordinates":[[[-5.313267,56.205516],[-5.313553,56.205586],[-5.313808,56.205608],[-5.314032,56.205582],[-5.314223,56.205509],[-5.314328,56.205445],[-5.314346,56.20539],[-5.314277,56.205344],[-5.314122,56.205307],[-5.314005,56.205265],[-5.313926,56.205219],[-5.313885,56.205168],[-5.313883,56.205113],[-5.313876,56.20504],[-5.313865,56.204949],[-5.313849,56.204841],[-5.313829,56.204715],[-5.31385,56.204575],[-5.313914,56.204419],[-5.314018,56.204249],[-5.314165,56.204064],[-5.314385,56.203862],[-5.314679,56.203643],[-5.315046,56.203407],[-5.315486,56.203153],[-5.315876,56.202954],[-5.316215,56.20281],[-5.316503,56.202721],[-5.31674,56.202687],[-5.316975,56.202577],[-5.317207,56.202393],[-5.317437,56.202134],[-5.317665,56.201801],[-5.317757,56.201542],[-5.317713,56.201357],[-5.317533,56.201248],[-5.317218,56.201214],[-5.317035,56.20117],[-5.316984,56.201118],[-5.317065,56.201057],[-5.317278,56.200987],[-5.317458,56.200912],[-5.317607,56.200832],[-5.317724,56.200749],[-5.317809,56.20066],[-5.317903,56.200561],[-5.318004,56.200452],[-5.318114,56.200331],[-5.318232,56.2002],[-5.318345,56.200075],[-5.318453,56.199956],[-5.318556,56.199843],[-5.318653,56.199737],[-5.318733,56.199634],[-5.318793,56.199535],[-5.318835,56.199439],[-5.318858,56.199347],[-5.318861,56.199259],[-5.318842,56.199175],[-5.318802,56.199095],[-5.318742,56.199018],[-5.318727,56.198938],[-5.318758,56.198854],[-5.318835,56.198765],[-5.318959,56.198672],[-5.319139,56.198558],[-5.319376,56.198424],[-5.31967,56.198268],[-5.320021,56.198092],[-5.320329,56.197945],[-5.320593,56.197827],[-5.320813,56.197738],[-5.320989,56.197677],[-5.321147,56.197632],[-5.321285,56.197601],[-5.321404,56.197585],[-5.321504,56.197584],[-5.321575,56.197605],[-5.321618,56.197647],[-5.321631,56.197711],[-5.321615,56.197797],[-5.32158,56.197886],[-5.321527,56.197979],[-5.321455,56.198075],[-5.321365,56.198175],[-5.321275,56.198269],[-5.321185,56.198358],[-5.321096,56.198442],[-5.321006,56.198519],[-5.320975,56.198566],[-5.321002,56.198582],[-5.321086,56.198568],[-5.321229,56.198523],[-5.321366,56.198447],[-5.321499,56.198339],[-5.321626,56.198199],[-5.321748,56.198028],[-5.321848,56.197884],[-5.321926,56.197766],[-5.321982,56.197674],[-5.322016,56.197609],[-5.322095,56.197505],[-5.322218,56.197362],[-5.322386,56.19718],[-5.322599,56.196959],[-5.322737,56.196767],[-5.322802,56.196603],[-5.322793,56.196468],[-5.32271,56.196361],[-5.322665,56.196274],[-5.322659,56.196208],[-5.32269,56.196162],[-5.322761,56.196137],[-5.32286,56.196115],[-5.322988,56.196097],[-5.323145,56.196082],[-5.323331,56.196071],[-5.323506,56.19603],[-5.323669,56.195961],[-5.32382,56.195862],[-5.323959,56.195733],[-5.324128,56.195597],[-5.324326,56.195454],[-5.324554,56.195302],[-5.324811,56.195143],[-5.325017,56.195005],[-5.325171,56.194889],[-5.325274,56.194794],[-5.325325,56.194721],[-5.325417,56.19462],[-5.32555,56.194489],[-5.325725,56.19433],[-5.325941,56.194143],[-5.326062,56.194001],[-5.326089,56.193906],[-5.326022,56.193857],[-5.32586,56.193854],[-5.32569,56.193882],[-5.325513,56.19394],[-5.325327,56.194027],[-5.325134,56.194146],[-5.324951,56.194272],[-5.324779,56.194407],[-5.324618,56.19455],[-5.324469,56.194702],[-5.324329,56.194842],[-5.324199,56.194969],[-5.32408,56.195084],[-5.32397,56.195186],[-5.323899,56.195235],[-5.323867,56.19523],[-5.323874,56.195172],[-5.32392,56.195061],[-5.3239,56.194987],[-5.323815,56.19495],[-5.323664,56.19495],[-5.323448,56.194987],[-5.323249,56.195009],[-5.323065,56.195014],[-5.322898,56.195004],[-5.322746,56.194977],[-5.322592,56.194975],[-5.322435,56.194997],[-5.322276,56.195042],[-5.322113,56.195112],[-5.321935,56.195226],[-5.321742,56.195383],[-5.321534,56.195583],[-5.321311,56.195828],[-5.321109,56.19603],[-5.320927,56.196192],[-5.320767,56.196311],[-5.320628,56.196389],[-5.320477,56.196445],[-5.320315,56.196479],[-5.320141,56.19649],[-5.319956,56.196479],[-5.31976,56.196498],[-5.319554,56.196548],[-5.319338,56.196629],[-5.319112,56.19674],[-5.318855,56.196801],[-5.318569,56.196814],[-5.318253,56.196777],[-5.317907,56.19669],[-5.317583,56.196646],[-5.31728,56.196643],[-5.317,56.196683],[-5.316741,56.196764],[-5.316546,56.196841],[-5.316414,56.196912],[-5.316346,56.196979],[-5.316341,56.197041],[-5.316316,56.197093],[-5.316272,56.197134],[-5.31621,56.197165],[-5.316128,56.197186],[-5.316043,56.197225],[-5.315954,56.19728],[-5.315863,56.197352],[-5.315768,56.197442],[-5.315671,56.197517],[-5.31557,56.19758],[-5.315467,56.197628],[-5.31536,56.197663],[-5.315281,56.197716],[-5.315229,56.197787],[-5.315204,56.197875],[-5.315206,56.19798],[-5.31516,56.19809],[-5.315066,56.198205],[-5.314923,56.198324],[-5.314731,56.198447],[-5.314539,56.198564],[-5.314347,56.198673],[-5.314155,56.198776],[-5.313963,56.198871],[-5.313846,56.198976],[-5.313807,56.199089],[-5.313843,56.199212],[-5.313956,56.199343],[-5.314,56.199471],[-5.313975,56.199597],[-5.313881,56.19972],[-5.313719,56.19984],[-5.313547,56.199968],[-5.313365,56.200104],[-5.313175,56.200248],[-5.312975,56.2004],[-5.312833,56.200547],[-5.312749,56.200688],[-5.312723,56.200823],[-5.312755,56.200953],[-5.31273,56.201104],[-5.312648,56.201275],[-5.31251,56.201468],[-5.312314,56.201681],[-5.312207,56.201884],[-5.31219,56.202079],[-5.312262,56.202264],[-5.312423,56.202439],[-5.312577,56.202579],[-5.312724,56.202684],[-5.312865,56.202753],[-5.312999,56.202787],[-5.313045,56.20287],[-5.313002,56.203],[-5.312871,56.203179],[-5.31265,56.203406],[-5.312466,56.203615],[-5.312316,56.203806],[-5.312202,56.203978],[-5.312124,56.204133],[-5.312086,56.204258],[-5.31209,56.204355],[-5.312135,56.204424],[-5.312221,56.204464],[-5.312278,56.204522],[-5.312304,56.2046],[-5.3123,56.204696],[-5.312266,56.204812],[-5.312176,56.204906],[-5.312029,56.20498],[-5.311827,56.205032],[-5.311568,56.205063],[-5.31138,56.2051],[-5.311261,56.205142],[-5.311212,56.20519],[-5.311234,56.205243],[-5.311325,56.205276],[-5.311486,56.20529],[-5.311718,56.205285],[-5.312019,56.20526],[-5.312324,56.20527],[-5.312634,56.205316],[-5.312948,56.205398],[-5.313267,56.205516]]]}}