{"type":"Feature","properties":{"id":"270816","COMMUNE":"Breckland","PROVINCE":"Breckland and South Norfolk","COUNTRY":"UK","FIREDATE":"2025-05-30 12:36:00","CLASS":"FireSeason","areaHA_geo":15.683},"geometry":{"type":"Polygon","coordinates":[[[0.760472,52.535404],[0.760526,52.535778],[0.760674,52.536049],[0.760917,52.536218],[0.760944,52.536428],[0.760754,52.536677],[0.760626,52.536963],[0.760557,52.537286],[0.760517,52.537611],[0.760505,52.537939],[0.760497,52.53818],[0.760492,52.538335],[0.760727,52.538569],[0.7612,52.538882],[0.761384,52.539156],[0.761278,52.539389],[0.76111,52.539514],[0.760879,52.539531],[0.76065,52.539539],[0.760423,52.539539],[0.760127,52.539731],[0.759761,52.540117],[0.759369,52.540363],[0.758949,52.540469],[0.75847,52.540518],[0.757932,52.540511],[0.757521,52.540237],[0.757238,52.539697],[0.756918,52.539058],[0.756562,52.538323],[0.756331,52.537735],[0.756225,52.537294],[0.756187,52.536937],[0.756216,52.536663],[0.756349,52.536371],[0.756585,52.536062],[0.756924,52.535734],[0.757366,52.535388],[0.757733,52.535261],[0.758026,52.535353],[0.75833,52.535394],[0.758644,52.535384],[0.75879,52.5353],[0.758766,52.535143],[0.758748,52.53496],[0.758735,52.534752],[0.758731,52.534639],[0.758734,52.534622],[0.758916,52.534568],[0.759276,52.534475],[0.759517,52.534476],[0.759639,52.534572],[0.759858,52.534744],[0.760175,52.534994],[0.760361,52.535143],[0.760418,52.535193],[0.760472,52.535404]]]}}