{"type":"Feature","properties":{"id":"271608","COMMUNE":"Forest Heath","PROVINCE":"Suffolk","COUNTRY":"UK","FIREDATE":"2025-06-13 12:21:00","FINALDATE":"2025-06-13 12:21:00","CLASS":"FireSeason","areaHA_geo":1.093},"geometry":{"type":"Polygon","coordinates":[[[0.596144,52.430263],[0.596043,52.430326],[0.595949,52.430353],[0.595862,52.430344],[0.595784,52.430299],[0.595727,52.430255],[0.595692,52.430213],[0.595679,52.430171],[0.595687,52.430131],[0.595669,52.430099],[0.595625,52.430077],[0.595554,52.430062],[0.595456,52.430057],[0.595339,52.430041],[0.595204,52.430015],[0.595049,52.429979],[0.594875,52.429933],[0.594772,52.429887],[0.59474,52.429842],[0.594778,52.429796],[0.594886,52.429751],[0.594997,52.429709],[0.595109,52.429671],[0.595223,52.429636],[0.595339,52.429604],[0.595442,52.429566],[0.595531,52.429521],[0.595606,52.42947],[0.595668,52.429413],[0.595724,52.429375],[0.595776,52.429358],[0.595822,52.429361],[0.595863,52.429383],[0.595907,52.429394],[0.595955,52.429394],[0.596006,52.429382],[0.596061,52.429358],[0.596121,52.429345],[0.596187,52.429343],[0.596258,52.429351],[0.596335,52.42937],[0.596392,52.429376],[0.596429,52.429368],[0.596446,52.429347],[0.596443,52.429312],[0.59644,52.429278],[0.596436,52.429244],[0.596433,52.429211],[0.596429,52.429178],[0.596416,52.429144],[0.596394,52.429108],[0.596362,52.42907],[0.596322,52.42903],[0.596287,52.428992],[0.596257,52.428955],[0.596234,52.42892],[0.596216,52.428886],[0.596219,52.428868],[0.59624,52.428865],[0.596282,52.428878],[0.596343,52.428907],[0.596399,52.428928],[0.596451,52.42894],[0.596499,52.428945],[0.596542,52.428942],[0.596583,52.428948],[0.596622,52.428963],[0.596659,52.428987],[0.596694,52.42902],[0.596711,52.429054],[0.596708,52.429091],[0.596687,52.429129],[0.596647,52.429169],[0.596634,52.4292],[0.596648,52.429223],[0.59669,52.429237],[0.59676,52.429242],[0.596815,52.42926],[0.596856,52.42929],[0.596883,52.429333],[0.596896,52.429388],[0.596916,52.429428],[0.596942,52.429454],[0.596975,52.429465],[0.597015,52.429462],[0.597076,52.429449],[0.597161,52.429426],[0.597267,52.429395],[0.597396,52.429353],[0.597484,52.429338],[0.597531,52.429349],[0.597537,52.429387],[0.597502,52.429451],[0.597451,52.429508],[0.597384,52.429559],[0.5973,52.429603],[0.5972,52.42964],[0.597079,52.429673],[0.596935,52.429703],[0.596769,52.429728],[0.59658,52.42975],[0.596447,52.429781],[0.596368,52.429821],[0.596343,52.42987],[0.596373,52.429928],[0.596368,52.429997],[0.596328,52.430075],[0.596254,52.430164],[0.596144,52.430263]]]}}