{"type":"Feature","properties":{"id":"271880","COMMUNE":"Wiltshire","PROVINCE":"Wiltshire CC","COUNTRY":"UK","FIREDATE":"2025-05-20 00:00:00","CLASS":"FireSeason","areaHA_geo":0.325},"geometry":{"type":"Polygon","coordinates":[[[-1.890932,51.255028],[-1.891032,51.255104],[-1.891138,51.255116],[-1.891355,51.255079],[-1.891455,51.25505],[-1.89154,51.255001],[-1.891626,51.25497],[-1.891801,51.254927],[-1.891882,51.254885],[-1.891949,51.254802],[-1.89197,51.254739],[-1.891967,51.254633],[-1.891868,51.254586],[-1.891576,51.254551],[-1.891379,51.254572],[-1.891082,51.254674],[-1.890966,51.254767],[-1.890915,51.254944],[-1.890932,51.255028]]]}}