{"type":"Feature","properties":{"id":"271879","COMMUNE":"Wiltshire","PROVINCE":"Wiltshire CC","COUNTRY":"UK","FIREDATE":"2025-05-20 00:00:00","CLASS":"FireSeason","areaHA_geo":2.124},"geometry":{"type":"Polygon","coordinates":[[[-1.889499,51.255648],[-1.889487,51.255786],[-1.889528,51.255872],[-1.889665,51.255995],[-1.889749,51.256069],[-1.889865,51.256168],[-1.889999,51.256228],[-1.890287,51.25631],[-1.890368,51.256443],[-1.890322,51.256762],[-1.890351,51.256894],[-1.890485,51.256971],[-1.890626,51.256997],[-1.890918,51.256997],[-1.891087,51.256931],[-1.891302,51.256732],[-1.891488,51.256648],[-1.891831,51.256598],[-1.891996,51.256476],[-1.892148,51.256162],[-1.892131,51.256014],[-1.891927,51.255883],[-1.891699,51.255807],[-1.891221,51.25571],[-1.890994,51.255647],[-1.890792,51.255557],[-1.89069,51.255507],[-1.890585,51.255447],[-1.890523,51.255396],[-1.890442,51.255303],[-1.890338,51.255246],[-1.890108,51.255169],[-1.889954,51.255157],[-1.889722,51.255202],[-1.889617,51.255293],[-1.889532,51.255525],[-1.889499,51.255648]]]}}