{"type":"Feature","properties":{"id":"271896","COMMUNE":"Wiltshire","PROVINCE":"Wiltshire CC","COUNTRY":"UK","FIREDATE":"2025-04-01 13:05:00","CLASS":"FireSeason","areaHA_geo":708.876},"geometry":{"type":"Polygon","coordinates":[[[-1.919953,51.264853],[-1.919845,51.264921],[-1.919774,51.264887],[-1.919392,51.264879],[-1.919085,51.264863],[-1.918433,51.264788],[-1.918199,51.26486],[-1.918013,51.265116],[-1.917946,51.265439],[-1.917654,51.265675],[-1.917076,51.265687],[-1.91703,51.265897],[-1.916799,51.266079],[-1.916192,51.266078],[-1.915987,51.266163],[-1.915633,51.266357],[-1.915194,51.266418],[-1.914922,51.266541],[-1.914704,51.266769],[-1.914502,51.267058],[-1.91437,51.26723],[-1.914254,51.267368],[-1.914041,51.267327],[-1.913705,51.267298],[-1.913483,51.267321],[-1.913229,51.267411],[-1.913162,51.267516],[-1.913071,51.26758],[-1.912902,51.26769],[-1.912731,51.267792],[-1.912558,51.267886],[-1.912382,51.267972],[-1.912215,51.268056],[-1.912057,51.26814],[-1.911908,51.268223],[-1.911768,51.268305],[-1.911728,51.268376],[-1.911789,51.268437],[-1.911951,51.268488],[-1.912213,51.268529],[-1.912435,51.268568],[-1.912616,51.268605],[-1.912756,51.268641],[-1.912855,51.268676],[-1.912922,51.268725],[-1.912956,51.268789],[-1.912959,51.268868],[-1.912929,51.268961],[-1.912863,51.269035],[-1.912761,51.26909],[-1.912622,51.269127],[-1.912447,51.269145],[-1.912309,51.269185],[-1.912208,51.269246],[-1.912144,51.269328],[-1.912117,51.269432],[-1.91201,51.269505],[-1.911823,51.269547],[-1.911556,51.269557],[-1.911209,51.269537],[-1.910965,51.2695],[-1.910825,51.269447],[-1.910789,51.269378],[-1.910857,51.269292],[-1.910901,51.269203],[-1.910922,51.269111],[-1.910919,51.269016],[-1.910893,51.268918],[-1.910855,51.268823],[-1.910805,51.268733],[-1.910741,51.268647],[-1.910666,51.268564],[-1.910642,51.268491],[-1.91067,51.268426],[-1.91075,51.26837],[-1.910882,51.268323],[-1.910961,51.268264],[-1.910987,51.268194],[-1.910961,51.268112],[-1.910883,51.268019],[-1.91081,51.267929],[-1.910741,51.26784],[-1.910678,51.267754],[-1.91062,51.26767],[-1.910548,51.267582],[-1.910461,51.26749],[-1.910359,51.267393],[-1.910243,51.267293],[-1.910082,51.267211],[-1.909876,51.267148],[-1.909626,51.267103],[-1.909331,51.267078],[-1.9091,51.267037],[-1.908933,51.266981],[-1.908829,51.26691],[-1.908788,51.266824],[-1.908697,51.266733],[-1.908554,51.266635],[-1.90836,51.266531],[-1.908116,51.266422],[-1.907905,51.266322],[-1.907729,51.266234],[-1.907587,51.266156],[-1.907479,51.266088],[-1.907297,51.266028],[-1.907041,51.265976],[-1.906709,51.265931],[-1.906304,51.265894],[-1.90599,51.265882],[-1.905768,51.265893],[-1.905638,51.265929],[-1.9056,51.265989],[-1.905496,51.26602],[-1.905325,51.266021],[-1.905088,51.265992],[-1.904784,51.265933],[-1.904501,51.265864],[-1.904237,51.265784],[-1.903993,51.265694],[-1.903769,51.265594],[-1.903552,51.265554],[-1.903341,51.265576],[-1.903138,51.265659],[-1.902942,51.265802],[-1.902757,51.265869],[-1.902583,51.265859],[-1.902421,51.265772],[-1.90227,51.265607],[-1.902076,51.265332],[-1.90184,51.264946],[-1.901562,51.264449],[-1.901241,51.263842],[-1.900994,51.263294],[-1.900821,51.262806],[-1.900722,51.262378],[-1.900698,51.262009],[-1.900747,51.261543],[-1.900869,51.26098],[-1.901065,51.260319],[-1.901334,51.25956],[-1.901475,51.258984],[-1.901489,51.258589],[-1.901374,51.258376],[-1.901132,51.258345],[-1.900866,51.258341],[-1.900576,51.258365],[-1.900261,51.258417],[-1.899922,51.258497],[-1.899609,51.258558],[-1.899323,51.258598],[-1.899063,51.258619],[-1.89883,51.258621],[-1.898628,51.258656],[-1.898456,51.258724],[-1.898317,51.258826],[-1.898208,51.258961],[-1.898051,51.259067],[-1.897847,51.259144],[-1.897594,51.259192],[-1.897293,51.259212],[-1.896968,51.259274],[-1.896617,51.259377],[-1.896241,51.259523],[-1.89584,51.25971],[-1.89526,51.259863],[-1.894499,51.25998],[-1.893558,51.260063],[-1.892437,51.260111],[-1.891531,51.260154],[-1.890839,51.260191],[-1.890361,51.260224],[-1.890099,51.260251],[-1.88991,51.260304],[-1.889796,51.260383],[-1.889756,51.260488],[-1.88979,51.26062],[-1.889763,51.260738],[-1.889673,51.260843],[-1.889522,51.260934],[-1.889308,51.261012],[-1.889122,51.261073],[-1.888963,51.261118],[-1.88883,51.261146],[-1.888725,51.261156],[-1.888592,51.261165],[-1.888432,51.26117],[-1.888244,51.261172],[-1.888028,51.261172],[-1.887855,51.261148],[-1.887725,51.261099],[-1.887639,51.261027],[-1.887595,51.26093],[-1.887454,51.260854],[-1.887215,51.2608],[-1.886878,51.260768],[-1.886443,51.260756],[-1.886205,51.260722],[-1.886163,51.260664],[-1.886317,51.260584],[-1.886668,51.26048],[-1.886899,51.260364],[-1.887009,51.260234],[-1.886998,51.260092],[-1.886868,51.259937],[-1.886791,51.259815],[-1.886768,51.259728],[-1.886799,51.259674],[-1.886884,51.259654],[-1.887078,51.259657],[-1.887381,51.259682],[-1.887794,51.259729],[-1.888316,51.259799],[-1.888718,51.259839],[-1.889,51.25985],[-1.889161,51.25983],[-1.889202,51.259781],[-1.889207,51.259733],[-1.889177,51.259685],[-1.889111,51.259639],[-1.889009,51.259593],[-1.888929,51.259545],[-1.888871,51.259495],[-1.888834,51.259442],[-1.88882,51.259387],[-1.888769,51.259328],[-1.88868,51.259264],[-1.888554,51.259196],[-1.888391,51.259122],[-1.888318,51.259051],[-1.888336,51.258982],[-1.888445,51.258915],[-1.888643,51.258849],[-1.888785,51.25877],[-1.888868,51.258677],[-1.888894,51.25857],[-1.888863,51.25845],[-1.888789,51.258356],[-1.888672,51.25829],[-1.888514,51.25825],[-1.888312,51.258237],[-1.888135,51.258247],[-1.887982,51.258279],[-1.887852,51.258335],[-1.887747,51.258413],[-1.887658,51.258419],[-1.887587,51.258354],[-1.887533,51.258216],[-1.887496,51.258006],[-1.887603,51.257863],[-1.887853,51.257787],[-1.888246,51.257777],[-1.888783,51.257834],[-1.889228,51.2578],[-1.889582,51.257673],[-1.889844,51.257455],[-1.890015,51.257145],[-1.890037,51.256817],[-1.88991,51.256471],[-1.889635,51.256105],[-1.889211,51.255722],[-1.888923,51.255414],[-1.888773,51.255182],[-1.888759,51.255026],[-1.888882,51.254946],[-1.889022,51.254881],[-1.88918,51.254831],[-1.889355,51.254796],[-1.889548,51.254777],[-1.889715,51.254745],[-1.889857,51.254703],[-1.889973,51.254649],[-1.890064,51.254583],[-1.890157,51.254562],[-1.890254,51.254586],[-1.890353,51.254654],[-1.890454,51.254768],[-1.890556,51.254813],[-1.890658,51.254792],[-1.890761,51.254702],[-1.890864,51.254546],[-1.890979,51.254419],[-1.891106,51.254321],[-1.891246,51.254253],[-1.891398,51.254215],[-1.891503,51.254168],[-1.89156,51.254111],[-1.89157,51.254046],[-1.891532,51.253971],[-1.89146,51.253903],[-1.891354,51.25384],[-1.891213,51.253785],[-1.891039,51.253735],[-1.890891,51.253585],[-1.890771,51.253333],[-1.890679,51.25298],[-1.890614,51.252525],[-1.890509,51.252157],[-1.890363,51.251874],[-1.890176,51.251677],[-1.889949,51.251565],[-1.889821,51.251455],[-1.889793,51.251345],[-1.889863,51.251237],[-1.890033,51.251129],[-1.890076,51.251018],[-1.889992,51.250903],[-1.889781,51.250784],[-1.889443,51.250662],[-1.889114,51.250555],[-1.888793,51.250465],[-1.888482,51.25039],[-1.888178,51.250331],[-1.887964,51.250232],[-1.887837,51.250094],[-1.8878,51.249915],[-1.88785,51.249696],[-1.887883,51.24951],[-1.887897,51.249357],[-1.887892,51.249236],[-1.887869,51.249149],[-1.8878,51.249091],[-1.887685,51.249064],[-1.887524,51.249066],[-1.887317,51.249099],[-1.887122,51.249127],[-1.886939,51.249152],[-1.886769,51.249172],[-1.886611,51.249188],[-1.886458,51.249168],[-1.886308,51.24911],[-1.886162,51.249016],[-1.886019,51.248884],[-1.885909,51.248772],[-1.885831,51.248679],[-1.885784,51.248605],[-1.88577,51.24855],[-1.885778,51.248476],[-1.885807,51.248383],[-1.885859,51.248271],[-1.885933,51.24814],[-1.88603,51.248014],[-1.886152,51.247895],[-1.886298,51.247782],[-1.886467,51.247674],[-1.886642,51.24762],[-1.886821,51.247618],[-1.887006,51.24767],[-1.887195,51.247774],[-1.88735,51.247834],[-1.887471,51.247849],[-1.887558,51.247821],[-1.887611,51.247748],[-1.887588,51.24766],[-1.887489,51.247558],[-1.887315,51.247441],[-1.887064,51.247309],[-1.886827,51.24721],[-1.886603,51.247143],[-1.886392,51.247109],[-1.886193,51.247107],[-1.886007,51.247081],[-1.885832,51.247032],[-1.885669,51.246958],[-1.885517,51.246862],[-1.88535,51.246772],[-1.885167,51.24669],[-1.884967,51.246615],[-1.884752,51.246547],[-1.884554,51.246477],[-1.884373,51.246406],[-1.88421,51.246333],[-1.884065,51.246258],[-1.883902,51.246188],[-1.883723,51.246122],[-1.883527,51.24606],[-1.883315,51.246004],[-1.883174,51.245948],[-1.883106,51.245893],[-1.88311,51.245839],[-1.883186,51.245786],[-1.88328,51.245732],[-1.883391,51.245675],[-1.883519,51.245617],[-1.883666,51.245557],[-1.883762,51.245477],[-1.883807,51.245377],[-1.883803,51.245256],[-1.883748,51.245116],[-1.883762,51.244963],[-1.883845,51.244797],[-1.883996,51.244618],[-1.884216,51.244427],[-1.884408,51.244337],[-1.884573,51.244348],[-1.88471,51.24446],[-1.88482,51.244674],[-1.884935,51.244839],[-1.885055,51.244956],[-1.885181,51.245025],[-1.885312,51.245045],[-1.885413,51.245001],[-1.885484,51.244892],[-1.885524,51.244719],[-1.885534,51.244482],[-1.885621,51.244232],[-1.885786,51.243967],[-1.886028,51.24369],[-1.886348,51.243398],[-1.886444,51.243149],[-1.886319,51.242943],[-1.88597,51.242779],[-1.885399,51.242658],[-1.884861,51.242562],[-1.884357,51.24249],[-1.883886,51.242443],[-1.883448,51.242421],[-1.882968,51.242405],[-1.882444,51.242398],[-1.881878,51.242397],[-1.881268,51.242403],[-1.880713,51.242413],[-1.880212,51.242425],[-1.879767,51.24244],[-1.879376,51.242457],[-1.87908,51.242463],[-1.87888,51.242455],[-1.878776,51.242435],[-1.878768,51.242402],[-1.878587,51.242432],[-1.878233,51.242524],[-1.877707,51.24268],[-1.877009,51.242898],[-1.876488,51.243089],[-1.876144,51.243254],[-1.875978,51.243391],[-1.875989,51.243503],[-1.875941,51.243631],[-1.875836,51.243777],[-1.875671,51.24394],[-1.875449,51.24412],[-1.875207,51.244213],[-1.874948,51.244217],[-1.87467,51.244133],[-1.874373,51.243961],[-1.874132,51.243848],[-1.873947,51.243794],[-1.873818,51.243799],[-1.873745,51.243863],[-1.87369,51.243964],[-1.873654,51.244102],[-1.873637,51.244278],[-1.873639,51.244492],[-1.873607,51.244697],[-1.873542,51.244895],[-1.873443,51.245085],[-1.873311,51.245267],[-1.873241,51.245429],[-1.873233,51.245571],[-1.873287,51.245691],[-1.873403,51.245792],[-1.873502,51.245894],[-1.873583,51.245998],[-1.873647,51.246104],[-1.873693,51.246212],[-1.873827,51.246296],[-1.87405,51.246358],[-1.874361,51.246396],[-1.874761,51.246411],[-1.875046,51.246401],[-1.875217,51.246367],[-1.875274,51.246308],[-1.875216,51.246224],[-1.87521,51.246149],[-1.875255,51.246082],[-1.875352,51.246024],[-1.875501,51.245975],[-1.875634,51.245914],[-1.875749,51.24584],[-1.875848,51.245754],[-1.875931,51.245656],[-1.876011,51.245586],[-1.87609,51.245544],[-1.876168,51.24553],[-1.876243,51.245545],[-1.876343,51.245529],[-1.876465,51.245483],[-1.876612,51.245406],[-1.876781,51.245298],[-1.876949,51.245267],[-1.877113,51.245312],[-1.877275,51.245433],[-1.877435,51.24563],[-1.877632,51.245748],[-1.877866,51.245785],[-1.878139,51.245743],[-1.878449,51.245622],[-1.878704,51.245564],[-1.878903,51.245572],[-1.879048,51.245644],[-1.879138,51.245781],[-1.879169,51.245918],[-1.879142,51.246056],[-1.879057,51.246194],[-1.878913,51.246333],[-1.878759,51.246433],[-1.878596,51.246495],[-1.878422,51.246518],[-1.878238,51.246503],[-1.878046,51.246509],[-1.877846,51.246535],[-1.877638,51.246582],[-1.877422,51.246649],[-1.87721,51.246749],[-1.877002,51.246883],[-1.876798,51.24705],[-1.876599,51.247251],[-1.876503,51.247418],[-1.876511,51.247552],[-1.876623,51.247653],[-1.876839,51.247721],[-1.877025,51.247744],[-1.877181,51.247722],[-1.877307,51.247656],[-1.877404,51.247544],[-1.877485,51.247494],[-1.877551,51.247504],[-1.877601,51.247575],[-1.877635,51.247706],[-1.877727,51.247815],[-1.877875,51.247901],[-1.87808,51.247964],[-1.878343,51.248004],[-1.878535,51.248018],[-1.878658,51.248006],[-1.878711,51.247967],[-1.878693,51.247901],[-1.878722,51.247819],[-1.878795,51.247722],[-1.878914,51.247608],[-1.879078,51.247479],[-1.879196,51.247363],[-1.879268,51.24726],[-1.879294,51.24717],[-1.879274,51.247094],[-1.87937,51.247014],[-1.879582,51.24693],[-1.87991,51.246843],[-1.880354,51.246752],[-1.880689,51.246659],[-1.880916,51.246562],[-1.881034,51.246463],[-1.881043,51.246361],[-1.880978,51.246266],[-1.880838,51.24618],[-1.880624,51.2461],[-1.880336,51.246029],[-1.880131,51.245918],[-1.880011,51.245767],[-1.879975,51.245577],[-1.880023,51.245347],[-1.880089,51.245172],[-1.880174,51.245051],[-1.880278,51.244984],[-1.880401,51.244971],[-1.880547,51.244945],[-1.880716,51.244905],[-1.880909,51.244851],[-1.881126,51.244784],[-1.881306,51.244771],[-1.881452,51.244812],[-1.881562,51.244908],[-1.881638,51.245058],[-1.881657,51.245199],[-1.881619,51.245332],[-1.881526,51.245457],[-1.881377,51.245573],[-1.881293,51.245683],[-1.881275,51.245786],[-1.881323,51.245882],[-1.881436,51.245972],[-1.881571,51.246025],[-1.881729,51.246043],[-1.881908,51.246025],[-1.88211,51.24597],[-1.882239,51.245965],[-1.882296,51.24601],[-1.88228,51.246104],[-1.882192,51.246248],[-1.882101,51.246384],[-1.882009,51.246512],[-1.881914,51.246631],[-1.881817,51.246742],[-1.881764,51.246849],[-1.881755,51.246951],[-1.881789,51.247049],[-1.881867,51.247142],[-1.881908,51.247244],[-1.88191,51.247356],[-1.881874,51.247478],[-1.881801,51.247609],[-1.881773,51.247708],[-1.88179,51.247773],[-1.881852,51.247806],[-1.88196,51.247807],[-1.882077,51.247806],[-1.882202,51.247804],[-1.882337,51.247802],[-1.88248,51.247798],[-1.882591,51.247812],[-1.882671,51.247843],[-1.88272,51.247891],[-1.882737,51.247957],[-1.882786,51.248025],[-1.882868,51.248095],[-1.882981,51.248168],[-1.883127,51.248243],[-1.883219,51.248321],[-1.883258,51.248401],[-1.883244,51.248484],[-1.883176,51.24857],[-1.883133,51.248681],[-1.883115,51.248818],[-1.883121,51.24898],[-1.883152,51.249168],[-1.883206,51.249306],[-1.883283,51.249393],[-1.883383,51.249431],[-1.883506,51.249418],[-1.883583,51.249455],[-1.883614,51.249542],[-1.883601,51.249678],[-1.883541,51.249864],[-1.883574,51.250057],[-1.883698,51.250258],[-1.883915,51.250466],[-1.884223,51.250682],[-1.884409,51.250876],[-1.884472,51.25105],[-1.884413,51.251202],[-1.884231,51.251333],[-1.884071,51.251513],[-1.883933,51.25174],[-1.883816,51.252017],[-1.883721,51.252341],[-1.883683,51.252623],[-1.8837,51.252863],[-1.883774,51.253061],[-1.883905,51.253216],[-1.884038,51.253399],[-1.884174,51.25361],[-1.884313,51.253848],[-1.884455,51.254115],[-1.88454,51.254356],[-1.88457,51.254572],[-1.884543,51.254763],[-1.884461,51.254929],[-1.884199,51.255063],[-1.883758,51.255164],[-1.883137,51.255234],[-1.882338,51.255271],[-1.881698,51.255286],[-1.88122,51.255279],[-1.880902,51.25525],[-1.880745,51.255199],[-1.880595,51.255178],[-1.880454,51.255187],[-1.88032,51.255226],[-1.880194,51.255295],[-1.88006,51.255331],[-1.879917,51.255335],[-1.879765,51.255305],[-1.879605,51.255243],[-1.879503,51.255113],[-1.879461,51.254915],[-1.879477,51.254649],[-1.879551,51.254316],[-1.879577,51.254054],[-1.879555,51.253866],[-1.879484,51.253749],[-1.879365,51.253705],[-1.87927,51.25365],[-1.879198,51.253585],[-1.879151,51.253508],[-1.879128,51.25342],[-1.879032,51.25338],[-1.878863,51.253386],[-1.878621,51.253439],[-1.878305,51.253539],[-1.878022,51.25361],[-1.877773,51.253653],[-1.877556,51.253667],[-1.877372,51.253652],[-1.877155,51.253663],[-1.876903,51.2537],[-1.876619,51.253763],[-1.8763,51.253852],[-1.876056,51.253986],[-1.875888,51.254167],[-1.875794,51.254393],[-1.875775,51.254665],[-1.875807,51.254942],[-1.87589,51.255226],[-1.876024,51.255516],[-1.876209,51.255811],[-1.87646,51.256064],[-1.876775,51.256273],[-1.877156,51.256439],[-1.877602,51.256562],[-1.877975,51.256664],[-1.878275,51.256746],[-1.878502,51.256807],[-1.878657,51.256847],[-1.87885,51.256847],[-1.879082,51.256806],[-1.879353,51.256725],[-1.879663,51.256603],[-1.879912,51.256555],[-1.880098,51.256581],[-1.880223,51.25668],[-1.880287,51.256854],[-1.880283,51.257011],[-1.880212,51.257154],[-1.880074,51.25728],[-1.879869,51.257391],[-1.879631,51.257477],[-1.879359,51.257539],[-1.879054,51.257576],[-1.878716,51.257588],[-1.878452,51.25763],[-1.878263,51.2577],[-1.87815,51.257798],[-1.878111,51.257926],[-1.877992,51.258037],[-1.877791,51.25813],[-1.87751,51.258207],[-1.877148,51.258267],[-1.876826,51.258328],[-1.876546,51.25839],[-1.876306,51.258454],[-1.876108,51.25852],[-1.875874,51.258608],[-1.875607,51.25872],[-1.875305,51.258855],[-1.874968,51.259014],[-1.87468,51.259184],[-1.87444,51.259366],[-1.874247,51.25956],[-1.874103,51.259766],[-1.873921,51.259964],[-1.873701,51.260155],[-1.873444,51.260339],[-1.873148,51.260516],[-1.872887,51.260669],[-1.87266,51.260799],[-1.872467,51.260906],[-1.872309,51.26099],[-1.872144,51.261083],[-1.871973,51.261185],[-1.871795,51.261296],[-1.871611,51.261416],[-1.871392,51.261455],[-1.871138,51.261414],[-1.87085,51.261292],[-1.870527,51.261089],[-1.870205,51.260905],[-1.869883,51.260742],[-1.869562,51.260598],[-1.869242,51.260473],[-1.868926,51.260351],[-1.868616,51.260231],[-1.868311,51.260113],[-1.868011,51.259998],[-1.867687,51.259877],[-1.867339,51.25975],[-1.866967,51.259616],[-1.866571,51.259477],[-1.866213,51.259345],[-1.865892,51.259221],[-1.86561,51.259104],[-1.865365,51.258994],[-1.865134,51.2589],[-1.864915,51.258821],[-1.86471,51.258758],[-1.864518,51.25871],[-1.864361,51.258611],[-1.864241,51.25846],[-1.864157,51.258258],[-1.864108,51.258005],[-1.864006,51.257768],[-1.86385,51.257548],[-1.863639,51.257345],[-1.863375,51.257158],[-1.863136,51.257017],[-1.862922,51.256921],[-1.862733,51.25687],[-1.86257,51.256864],[-1.862356,51.256805],[-1.862093,51.256691],[-1.861779,51.256524],[-1.861416,51.256303],[-1.861046,51.256127],[-1.86067,51.255997],[-1.860288,51.255913],[-1.859901,51.255874],[-1.859579,51.255884],[-1.859325,51.255944],[-1.859138,51.256053],[-1.859017,51.256212],[-1.858796,51.256344],[-1.858472,51.25645],[-1.858048,51.256531],[-1.857523,51.256584],[-1.857167,51.256582],[-1.85698,51.256522],[-1.856963,51.256406],[-1.857116,51.256233],[-1.857267,51.256122],[-1.857416,51.256073],[-1.857563,51.256086],[-1.857709,51.256161],[-1.857838,51.256206],[-1.85795,51.256223],[-1.858046,51.25621],[-1.858125,51.256169],[-1.858166,51.256103],[-1.858169,51.256012],[-1.858135,51.255898],[-1.858063,51.255759],[-1.857936,51.255654],[-1.857756,51.255583],[-1.857521,51.255545],[-1.857232,51.255541],[-1.856949,51.255559],[-1.856672,51.255598],[-1.8564,51.25566],[-1.856134,51.255743],[-1.855859,51.255791],[-1.855574,51.255804],[-1.85528,51.25578],[-1.854977,51.255722],[-1.854636,51.255672],[-1.854257,51.255633],[-1.85384,51.255602],[-1.853384,51.255582],[-1.853002,51.255565],[-1.852693,51.255551],[-1.852457,51.255542],[-1.852293,51.255536],[-1.85209,51.255551],[-1.851848,51.255587],[-1.851566,51.255645],[-1.851245,51.255722],[-1.850928,51.255766],[-1.850615,51.255776],[-1.850308,51.255751],[-1.850004,51.255692],[-1.84976,51.25567],[-1.849575,51.255683],[-1.849448,51.255732],[-1.849381,51.255818],[-1.849223,51.255902],[-1.848974,51.255983],[-1.848635,51.256063],[-1.848206,51.256141],[-1.847874,51.256164],[-1.847641,51.256131],[-1.847506,51.256044],[-1.847469,51.255902],[-1.847408,51.255824],[-1.847323,51.25581],[-1.847215,51.25586],[-1.847083,51.255975],[-1.846964,51.256086],[-1.846856,51.256192],[-1.846762,51.256295],[-1.846679,51.256393],[-1.846591,51.256486],[-1.846497,51.256575],[-1.846398,51.256658],[-1.846292,51.256736],[-1.846175,51.256821],[-1.846046,51.256913],[-1.845905,51.257012],[-1.845753,51.257117],[-1.845638,51.257228],[-1.84556,51.257342],[-1.845519,51.257462],[-1.845515,51.257586],[-1.845526,51.257694],[-1.84555,51.257787],[-1.845588,51.257865],[-1.84564,51.257927],[-1.845694,51.258028],[-1.845748,51.258169],[-1.845804,51.258349],[-1.845861,51.258568],[-1.845961,51.258746],[-1.846105,51.258883],[-1.846292,51.258979],[-1.846522,51.259034],[-1.846656,51.259099],[-1.846694,51.259174],[-1.846635,51.259258],[-1.846479,51.259353],[-1.846377,51.259476],[-1.846326,51.259627],[-1.846328,51.259807],[-1.846382,51.260015],[-1.84648,51.260185],[-1.846623,51.260316],[-1.846809,51.260409],[-1.847039,51.260464],[-1.847173,51.260546],[-1.84721,51.260655],[-1.847151,51.26079],[-1.846995,51.260952],[-1.846923,51.261089],[-1.846934,51.2612],[-1.847028,51.261286],[-1.847206,51.261347],[-1.847331,51.261412],[-1.847404,51.261484],[-1.847424,51.26156],[-1.847391,51.261642],[-1.847296,51.261728],[-1.84714,51.261817],[-1.846921,51.26191],[-1.84664,51.262006],[-1.846523,51.262125],[-1.846569,51.262266],[-1.846778,51.26243],[-1.84715,51.262617],[-1.847461,51.262737],[-1.847708,51.26279],[-1.847894,51.262777],[-1.848017,51.262697],[-1.848212,51.262685],[-1.848478,51.262742],[-1.848817,51.262867],[-1.849227,51.263061],[-1.849555,51.26318],[-1.8498,51.263222],[-1.849962,51.263188],[-1.850042,51.263079],[-1.850037,51.262939],[-1.849947,51.262768],[-1.849773,51.262567],[-1.849515,51.262335],[-1.849411,51.26216],[-1.849461,51.262043],[-1.849666,51.261982],[-1.850025,51.261979],[-1.850365,51.262009],[-1.850687,51.262071],[-1.850991,51.262167],[-1.851276,51.262295],[-1.8517,51.262591],[-1.852262,51.263056],[-1.852963,51.26369],[-1.853801,51.264492],[-1.854415,51.265137],[-1.854803,51.265626],[-1.854966,51.265957],[-1.854904,51.266132],[-1.854933,51.266278],[-1.855054,51.266395],[-1.855265,51.266483],[-1.855569,51.266542],[-1.855811,51.266627],[-1.855993,51.266737],[-1.856114,51.266874],[-1.856174,51.267036],[-1.856266,51.267215],[-1.856389,51.26741],[-1.856543,51.267622],[-1.856729,51.26785],[-1.856913,51.26802],[-1.857094,51.26813],[-1.857274,51.268182],[-1.857452,51.268175],[-1.857849,51.268194],[-1.858463,51.268237],[-1.859295,51.268306],[-1.860345,51.268401],[-1.861162,51.26848],[-1.861746,51.268544],[-1.862096,51.268592],[-1.862212,51.268625],[-1.862284,51.268677],[-1.862312,51.268747],[-1.862294,51.268836],[-1.862232,51.268944],[-1.862253,51.269057],[-1.862356,51.269175],[-1.862541,51.2693],[-1.862809,51.26943],[-1.863086,51.269508],[-1.863372,51.269535],[-1.863667,51.26951],[-1.863971,51.269434],[-1.864198,51.269354],[-1.864347,51.269272],[-1.864419,51.269186],[-1.864413,51.269096],[-1.864464,51.269032],[-1.864571,51.268993],[-1.864734,51.268979],[-1.864953,51.26899],[-1.865185,51.268983],[-1.86543,51.268958],[-1.865689,51.268915],[-1.86596,51.268853],[-1.866208,51.268769],[-1.866432,51.268661],[-1.866632,51.268531],[-1.866808,51.268378],[-1.867034,51.268243],[-1.867309,51.268124],[-1.867633,51.268024],[-1.868007,51.26794],[-1.868335,51.26787],[-1.868617,51.267813],[-1.868853,51.267769],[-1.869043,51.267738],[-1.869196,51.267739],[-1.869313,51.267772],[-1.869393,51.267837],[-1.869436,51.267934],[-1.86944,51.268035],[-1.869404,51.26814],[-1.869329,51.268248],[-1.869215,51.268361],[-1.869191,51.268476],[-1.869257,51.268593],[-1.869414,51.268712],[-1.869662,51.268833],[-1.869901,51.268937],[-1.870131,51.269026],[-1.870352,51.269099],[-1.870565,51.269156],[-1.870784,51.269201],[-1.871008,51.269234],[-1.871239,51.269255],[-1.871475,51.269265],[-1.871733,51.269322],[-1.872013,51.269428],[-1.872314,51.269583],[-1.872637,51.269786],[-1.873056,51.270046],[-1.873571,51.270364],[-1.874182,51.27074],[-1.874889,51.271173],[-1.875537,51.271568],[-1.876125,51.271923],[-1.876653,51.27224],[-1.877121,51.272518],[-1.877576,51.272724],[-1.878016,51.272858],[-1.878442,51.272921],[-1.878853,51.272913],[-1.87927,51.272957],[-1.879691,51.273054],[-1.880117,51.273204],[-1.880548,51.273407],[-1.880893,51.273555],[-1.881151,51.273646],[-1.881322,51.273682],[-1.881407,51.273662],[-1.881476,51.273616],[-1.881529,51.273543],[-1.881566,51.273443],[-1.881587,51.273318],[-1.881648,51.273227],[-1.881751,51.273171],[-1.881894,51.273151],[-1.882078,51.273166],[-1.882207,51.273144],[-1.882282,51.273086],[-1.882302,51.272991],[-1.882268,51.27286],[-1.882305,51.272743],[-1.882413,51.272642],[-1.882593,51.272556],[-1.882845,51.272486],[-1.883123,51.272395],[-1.883427,51.272285],[-1.883757,51.272156],[-1.884114,51.272007],[-1.884442,51.271919],[-1.884742,51.271894],[-1.885012,51.271931],[-1.885254,51.27203],[-1.885401,51.272144],[-1.885453,51.272274],[-1.88541,51.272418],[-1.885272,51.272579],[-1.885275,51.272747],[-1.88542,51.272923],[-1.885707,51.273107],[-1.886135,51.273299],[-1.886586,51.273391],[-1.887061,51.273381],[-1.887558,51.273271],[-1.888079,51.27306],[-1.888532,51.272935],[-1.888918,51.272895],[-1.889236,51.272941],[-1.889486,51.273073],[-1.889774,51.273212],[-1.890101,51.273358],[-1.890465,51.273512],[-1.890867,51.273673],[-1.891291,51.273764],[-1.891738,51.273785],[-1.892207,51.273737],[-1.892698,51.273619],[-1.893068,51.273485],[-1.893317,51.273336],[-1.893444,51.273171],[-1.893451,51.272991],[-1.893519,51.272905],[-1.893647,51.272914],[-1.893836,51.273018],[-1.894086,51.273218],[-1.894574,51.273294],[-1.8953,51.273247],[-1.896263,51.273078],[-1.897465,51.272785],[-1.898263,51.272655],[-1.898658,51.272688],[-1.898651,51.272883],[-1.89824,51.27324],[-1.897986,51.273558],[-1.897889,51.273838],[-1.897947,51.274079],[-1.898163,51.274282],[-1.898305,51.274467],[-1.898376,51.274634],[-1.898375,51.274783],[-1.898301,51.274914],[-1.89825,51.275026],[-1.89822,51.275119],[-1.898212,51.275193],[-1.898227,51.275248],[-1.89813,51.275325],[-1.897922,51.275425],[-1.897603,51.275548],[-1.897173,51.275693],[-1.896839,51.275843],[-1.8966,51.275997],[-1.896576,51.276023],[-1.896457,51.276155],[-1.89641,51.276317],[-1.896381,51.276466],[-1.896372,51.276602],[-1.896382,51.276725],[-1.89641,51.276834],[-1.896406,51.276906],[-1.896405,51.276916],[-1.896365,51.276971],[-1.896291,51.276998],[-1.896183,51.276998],[-1.896106,51.277045],[-1.896059,51.27714],[-1.896042,51.277282],[-1.896055,51.277472],[-1.896055,51.277644],[-1.896041,51.277797],[-1.896014,51.277932],[-1.895972,51.278048],[-1.896012,51.278148],[-1.896133,51.278231],[-1.896335,51.278298],[-1.896618,51.278347],[-1.896859,51.278342],[-1.896957,51.278313],[-1.89706,51.278282],[-1.897219,51.278167],[-1.897283,51.278075],[-1.897336,51.277998],[-1.897477,51.277865],[-1.897641,51.27777],[-1.897828,51.277711],[-1.897968,51.277697],[-1.898038,51.27769],[-1.898232,51.277639],[-1.898409,51.277559],[-1.898569,51.277449],[-1.898713,51.277311],[-1.898797,51.277184],[-1.898821,51.277069],[-1.898785,51.276966],[-1.898689,51.276875],[-1.898654,51.276777],[-1.898681,51.276673],[-1.898769,51.276563],[-1.898919,51.276447],[-1.899082,51.276382],[-1.899258,51.27637],[-1.899449,51.276409],[-1.899653,51.2765],[-1.899773,51.276634],[-1.89981,51.27681],[-1.899764,51.277028],[-1.899634,51.277289],[-1.899576,51.277495],[-1.899588,51.277645],[-1.899672,51.277741],[-1.899826,51.277781],[-1.90001,51.277725],[-1.900222,51.277574],[-1.900463,51.277327],[-1.900734,51.276985],[-1.900847,51.276695],[-1.900802,51.276458],[-1.900601,51.276273],[-1.900243,51.276142],[-1.900032,51.276009],[-1.89997,51.275875],[-1.900056,51.275739],[-1.90029,51.275603],[-1.900431,51.275403],[-1.900479,51.275139],[-1.900434,51.274812],[-1.900296,51.274422],[-1.900225,51.274117],[-1.900222,51.273898],[-1.900286,51.273765],[-1.900418,51.273718],[-1.900524,51.273642],[-1.900604,51.273539],[-1.90066,51.273406],[-1.90069,51.273246],[-1.900685,51.273109],[-1.900646,51.272995],[-1.900573,51.272904],[-1.900465,51.272836],[-1.900392,51.272729],[-1.900354,51.272581],[-1.900349,51.272393],[-1.90038,51.272165],[-1.900673,51.271893],[-1.901229,51.271577],[-1.902048,51.271217],[-1.90313,51.270814],[-1.903989,51.270537],[-1.904624,51.270387],[-1.905037,51.270364],[-1.905226,51.270468],[-1.905466,51.270559],[-1.905756,51.270636],[-1.906096,51.270699],[-1.906487,51.270749],[-1.906848,51.270785],[-1.907178,51.270807],[-1.907477,51.270815],[-1.907745,51.27081],[-1.908076,51.270734],[-1.90847,51.270587],[-1.908925,51.270368],[-1.909443,51.270079],[-1.909875,51.269888],[-1.91022,51.269796],[-1.910478,51.269804],[-1.91065,51.26991],[-1.91081,51.270008],[-1.91096,51.270099],[-1.911099,51.270184],[-1.911227,51.27026],[-1.911253,51.270342],[-1.911177,51.270428],[-1.910999,51.27052],[-1.910718,51.270616],[-1.910288,51.270728],[-1.90971,51.270855],[-1.908982,51.270998],[-1.908106,51.271155],[-1.907404,51.271309],[-1.906876,51.271459],[-1.906523,51.271605],[-1.906344,51.271747],[-1.906321,51.27207],[-1.906453,51.272574],[-1.90674,51.273258],[-1.907183,51.274123],[-1.90755,51.274681],[-1.90784,51.274932],[-1.908055,51.274876],[-1.908194,51.274513],[-1.908341,51.274234],[-1.908497,51.274038],[-1.908661,51.273925],[-1.908833,51.273896],[-1.909044,51.273892],[-1.909292,51.273911],[-1.909578,51.273955],[-1.909901,51.274022],[-1.910137,51.274029],[-1.910285,51.273975],[-1.910344,51.273859],[-1.910316,51.273682],[-1.91036,51.27354],[-1.910475,51.273432],[-1.910663,51.273359],[-1.910923,51.273321],[-1.911163,51.273291],[-1.911382,51.273268],[-1.91158,51.273254],[-1.911759,51.273246],[-1.911966,51.273368],[-1.912203,51.273619],[-1.912469,51.273999],[-1.912765,51.274509],[-1.91291,51.274873],[-1.912904,51.275093],[-1.912748,51.275168],[-1.912442,51.275098],[-1.91222,51.275073],[-1.912081,51.275093],[-1.912026,51.275158],[-1.912055,51.275268],[-1.911956,51.27537],[-1.911729,51.275467],[-1.911375,51.275557],[-1.910892,51.27564],[-1.910418,51.275734],[-1.90995,51.275839],[-1.90949,51.275953],[-1.909037,51.276079],[-1.908825,51.276387],[-1.908855,51.276879],[-1.909126,51.277554],[-1.909639,51.278411],[-1.910315,51.278982],[-1.911155,51.279267],[-1.912158,51.279265],[-1.913324,51.278976],[-1.914196,51.278712],[-1.914772,51.278472],[-1.915053,51.278258],[-1.915039,51.278068],[-1.914998,51.277926],[-1.914928,51.277832],[-1.91483,51.277786],[-1.914705,51.277788],[-1.914593,51.277704],[-1.914494,51.277534],[-1.914409,51.277279],[-1.914338,51.276938],[-1.914293,51.276664],[-1.914275,51.276458],[-1.914283,51.276319],[-1.914319,51.276248],[-1.914334,51.276168],[-1.914328,51.276079],[-1.914302,51.27598],[-1.914256,51.275872],[-1.914232,51.275746],[-1.91423,51.2756],[-1.914249,51.275435],[-1.914291,51.275251],[-1.914293,51.275104],[-1.914256,51.274996],[-1.914179,51.274925],[-1.914062,51.274892],[-1.913948,51.274853],[-1.913838,51.274808],[-1.91373,51.274758],[-1.913625,51.274701],[-1.913543,51.274645],[-1.913483,51.274589],[-1.913446,51.274534],[-1.913432,51.274479],[-1.913451,51.274415],[-1.913504,51.274342],[-1.91359,51.27426],[-1.91371,51.274169],[-1.91381,51.274052],[-1.91389,51.273909],[-1.913949,51.27374],[-1.913988,51.273545],[-1.914026,51.273364],[-1.914063,51.273197],[-1.914099,51.273044],[-1.914135,51.272906],[-1.91417,51.272781],[-1.914204,51.272671],[-1.914237,51.272575],[-1.91427,51.272493],[-1.914298,51.272411],[-1.914321,51.27233],[-1.914341,51.272249],[-1.914356,51.272169],[-1.914412,51.27209],[-1.914508,51.272013],[-1.914646,51.271937],[-1.914824,51.271862],[-1.915021,51.271789],[-1.915236,51.271716],[-1.915469,51.271644],[-1.91572,51.271573],[-1.915944,51.271553],[-1.916141,51.271583],[-1.916311,51.271664],[-1.916453,51.271796],[-1.916587,51.271911],[-1.916712,51.272011],[-1.916829,51.272094],[-1.916936,51.272162],[-1.917073,51.272204],[-1.91724,51.27222],[-1.917435,51.272211],[-1.91766,51.272177],[-1.917801,51.272115],[-1.917859,51.272024],[-1.917832,51.271906],[-1.917722,51.27176],[-1.917545,51.271618],[-1.917302,51.27148],[-1.916993,51.271346],[-1.916617,51.271217],[-1.91636,51.271063],[-1.916224,51.270886],[-1.916207,51.270686],[-1.91631,51.270461],[-1.916403,51.270266],[-1.916486,51.2701],[-1.916558,51.269964],[-1.91662,51.269856],[-1.916688,51.269756],[-1.916763,51.269664],[-1.916844,51.26958],[-1.916932,51.269503],[-1.917036,51.26942],[-1.917156,51.269329],[-1.917292,51.26923],[-1.917444,51.269125],[-1.917574,51.269002],[-1.917681,51.268861],[-1.917766,51.268704],[-1.917828,51.268529],[-1.917942,51.268416],[-1.918109,51.268365],[-1.918328,51.268376],[-1.918599,51.268449],[-1.918882,51.268499],[-1.919177,51.268524],[-1.919483,51.268526],[-1.919801,51.268505],[-1.92008,51.26847],[-1.92032,51.268423],[-1.92052,51.268363],[-1.920681,51.26829],[-1.920848,51.268223],[-1.92102,51.26816],[-1.921198,51.268102],[-1.921383,51.268049],[-1.921549,51.267979],[-1.921696,51.267891],[-1.921826,51.267784],[-1.921937,51.267661],[-1.922061,51.267513],[-1.922196,51.267342],[-1.922342,51.267147],[-1.922501,51.266928],[-1.92268,51.266769],[-1.922879,51.26667],[-1.923098,51.26663],[-1.923337,51.26665],[-1.923454,51.266703],[-1.923449,51.266788],[-1.923323,51.266905],[-1.923074,51.267054],[-1.922853,51.267223],[-1.922659,51.267412],[-1.922494,51.26762],[-1.922355,51.267848],[-1.922277,51.268044],[-1.922257,51.268209],[-1.922296,51.268343],[-1.922395,51.268445],[-1.922524,51.268508],[-1.922683,51.268531],[-1.922872,51.268514],[-1.923091,51.268458],[-1.923329,51.268402],[-1.923584,51.268348],[-1.923858,51.268294],[-1.92415,51.268242],[-1.924453,51.26821],[-1.924765,51.268201],[-1.925088,51.268212],[-1.92542,51.268245],[-1.925674,51.268233],[-1.925847,51.268176],[-1.925942,51.268074],[-1.925957,51.267926],[-1.926002,51.267803],[-1.926075,51.267706],[-1.926177,51.267633],[-1.926309,51.267586],[-1.926365,51.267507],[-1.926345,51.267397],[-1.926249,51.267255],[-1.926078,51.267081],[-1.925973,51.266907],[-1.925936,51.266731],[-1.925966,51.266553],[-1.926063,51.266375],[-1.926197,51.266234],[-1.926368,51.266132],[-1.926576,51.266069],[-1.926822,51.266043],[-1.927,51.265986],[-1.927111,51.265895],[-1.927156,51.265773],[-1.927133,51.265618],[-1.927067,51.265487],[-1.926958,51.26538],[-1.926806,51.265297],[-1.926611,51.265239],[-1.926426,51.265154],[-1.926253,51.265043],[-1.926091,51.264905],[-1.92594,51.26474],[-1.925742,51.264637],[-1.925497,51.264595],[-1.925205,51.264614],[-1.924866,51.264694],[-1.924523,51.264757],[-1.924175,51.264805],[-1.923823,51.264835],[-1.923467,51.26485],[-1.923192,51.264796],[-1.922999,51.264676],[-1.922886,51.264488],[-1.922855,51.264233],[-1.922778,51.264058],[-1.922654,51.263964],[-1.922484,51.26395],[-1.922268,51.264018],[-1.922116,51.26414],[-1.922028,51.264318],[-1.922003,51.264551],[-1.922043,51.264839],[-1.92204,51.265067],[-1.921994,51.265235],[-1.921905,51.265342],[-1.921773,51.26539],[-1.92163,51.265407],[-1.921473,51.265395],[-1.921305,51.265354],[-1.921124,51.265282],[-1.92098,51.265193],[-1.920871,51.265087],[-1.920797,51.264962],[-1.92076,51.26482],[-1.920658,51.264738],[-1.92049,51.264716],[-1.920257,51.264754],[-1.919959,51.264852],[-1.919953,51.264853]]]}}