{"type":"Feature","properties":{"id":"271897","COMMUNE":"Wiltshire","PROVINCE":"Wiltshire CC","COUNTRY":"UK","FIREDATE":"2025-04-02 15:43:37.531","CLASS":"FireSeason","areaHA_geo":22.317},"geometry":{"type":"Polygon","coordinates":[[[-1.880974,51.278855],[-1.880859,51.279103],[-1.88088,51.279269],[-1.881038,51.279354],[-1.881331,51.279358],[-1.881761,51.27928],[-1.88214,51.279249],[-1.882468,51.279266],[-1.882746,51.27933],[-1.882973,51.279442],[-1.883205,51.279522],[-1.883443,51.279571],[-1.883686,51.279588],[-1.883934,51.279574],[-1.884067,51.279599],[-1.884084,51.279665],[-1.883986,51.279771],[-1.883772,51.279916],[-1.8837,51.280056],[-1.883771,51.280189],[-1.883985,51.280316],[-1.88434,51.280437],[-1.884594,51.280518],[-1.884679,51.280545],[-1.885001,51.280641],[-1.885112,51.280672],[-1.885307,51.280725],[-1.885595,51.280797],[-1.88586,51.280862],[-1.886101,51.280922],[-1.886317,51.280975],[-1.88651,51.281023],[-1.88675,51.281066],[-1.887039,51.281103],[-1.887376,51.281136],[-1.887761,51.281164],[-1.888196,51.281139],[-1.888347,51.281115],[-1.888679,51.281061],[-1.889212,51.28093],[-1.889794,51.280747],[-1.890103,51.28062],[-1.890138,51.280549],[-1.8899,51.280534],[-1.889389,51.280575],[-1.888969,51.280587],[-1.888641,51.28057],[-1.888404,51.280525],[-1.888258,51.28045],[-1.888322,51.280367],[-1.888596,51.280277],[-1.889079,51.28018],[-1.889771,51.280075],[-1.890068,51.280006],[-1.890162,51.279984],[-1.890249,51.279908],[-1.890035,51.279845],[-1.889519,51.279797],[-1.889061,51.279735],[-1.888663,51.279658],[-1.888324,51.279566],[-1.888044,51.27946],[-1.887957,51.279368],[-1.888063,51.279289],[-1.888361,51.279225],[-1.888852,51.279175],[-1.889286,51.279099],[-1.889665,51.278998],[-1.889987,51.278872],[-1.890254,51.278721],[-1.890509,51.27863],[-1.890753,51.2786],[-1.890986,51.278629],[-1.891207,51.278719],[-1.891415,51.278739],[-1.891609,51.278691],[-1.89179,51.278574],[-1.891958,51.278388],[-1.892066,51.278217],[-1.892115,51.27806],[-1.892104,51.277918],[-1.892035,51.27779],[-1.891976,51.27765],[-1.891927,51.277498],[-1.891888,51.277333],[-1.89186,51.277156],[-1.89175,51.27703],[-1.89156,51.276954],[-1.891287,51.276929],[-1.890934,51.276954],[-1.890675,51.276927],[-1.890511,51.276848],[-1.89044,51.276718],[-1.890465,51.276536],[-1.890431,51.276424],[-1.890339,51.276383],[-1.890189,51.276412],[-1.889982,51.276512],[-1.889837,51.276614],[-1.889756,51.276718],[-1.889739,51.276824],[-1.889785,51.276931],[-1.889793,51.277029],[-1.889762,51.277117],[-1.889692,51.277194],[-1.889584,51.277261],[-1.889413,51.277298],[-1.889181,51.277306],[-1.888887,51.277282],[-1.888531,51.277229],[-1.888297,51.277144],[-1.888186,51.277026],[-1.888196,51.276876],[-1.888328,51.276694],[-1.888338,51.276577],[-1.888226,51.276527],[-1.887992,51.276543],[-1.887635,51.276624],[-1.887292,51.276705],[-1.886961,51.276784],[-1.886644,51.276861],[-1.88634,51.276937],[-1.885816,51.277084],[-1.885072,51.277301],[-1.884108,51.277588],[-1.882924,51.277946],[-1.882007,51.278277],[-1.881357,51.27858],[-1.880974,51.278855]]]}}