{"type":"Feature","properties":{"id":"271971","COMMUNE":"Pembrokeshire","PROVINCE":"South West Wales","COUNTRY":"UK","FIREDATE":"2025-06-11 02:21:00","CLASS":"FireSeason","areaHA_geo":30.595},"geometry":{"type":"Polygon","coordinates":[[[-5.030094,51.618398],[-5.029798,51.618367],[-5.029583,51.618252],[-5.029344,51.618146],[-5.028841,51.617942],[-5.028628,51.617849],[-5.028494,51.617774],[-5.028459,51.617712],[-5.028489,51.617598],[-5.02834,51.617464],[-5.027861,51.617173],[-5.027616,51.617037],[-5.027359,51.616919],[-5.027198,51.616859],[-5.026973,51.616795],[-5.026798,51.616776],[-5.026501,51.616781],[-5.026247,51.616794],[-5.025784,51.616829],[-5.025459,51.616835],[-5.02495,51.616817],[-5.024633,51.616788],[-5.024188,51.61672],[-5.023896,51.616685],[-5.023462,51.616649],[-5.023202,51.61659],[-5.022856,51.61645],[-5.022623,51.616402],[-5.022268,51.616398],[-5.022064,51.616438],[-5.021807,51.616564],[-5.021569,51.616704],[-5.021111,51.616999],[-5.020931,51.617123],[-5.020849,51.617201],[-5.020846,51.6173],[-5.020919,51.617517],[-5.020951,51.617625],[-5.020973,51.617731],[-5.020886,51.61781],[-5.020604,51.617939],[-5.020437,51.617997],[-5.020221,51.618042],[-5.020131,51.618081],[-5.020074,51.618156],[-5.020061,51.618197],[-5.020077,51.618245],[-5.020181,51.618285],[-5.020477,51.618356],[-5.020663,51.618399],[-5.020928,51.618457],[-5.021098,51.618519],[-5.021345,51.618647],[-5.021608,51.618702],[-5.022151,51.618741],[-5.022559,51.618808],[-5.023239,51.618972],[-5.023568,51.619047],[-5.023874,51.619108],[-5.024009,51.619133],[-5.024109,51.619145],[-5.024214,51.619123],[-5.024433,51.619044],[-5.024508,51.618931],[-5.024515,51.618669],[-5.02452,51.618498],[-5.02453,51.618244],[-5.024521,51.618097],[-5.024485,51.617908],[-5.024373,51.617819],[-5.024075,51.61774],[-5.02389,51.617731],[-5.023635,51.617781],[-5.023435,51.617832],[-5.023089,51.617935],[-5.022861,51.617957],[-5.022521,51.617917],[-5.022343,51.617884],[-5.022146,51.617825],[-5.022062,51.617777],[-5.022006,51.617692],[-5.022018,51.617618],[-5.022107,51.61748],[-5.022194,51.617402],[-5.022365,51.617304],[-5.022613,51.617289],[-5.023188,51.61734],[-5.02358,51.617373],[-5.02418,51.617421],[-5.024521,51.617464],[-5.024942,51.617544],[-5.025107,51.61759],[-5.02518,51.617647],[-5.025132,51.617718],[-5.024912,51.617872],[-5.024915,51.618004],[-5.025146,51.618243],[-5.025328,51.618368],[-5.025645,51.618503],[-5.025862,51.618634],[-5.026194,51.618894],[-5.026379,51.619052],[-5.026601,51.619267],[-5.026756,51.61942],[-5.027002,51.619666],[-5.027245,51.619754],[-5.027728,51.619776],[-5.028,51.619791],[-5.028335,51.619815],[-5.028504,51.619832],[-5.028676,51.61986],[-5.028769,51.619893],[-5.028874,51.619963],[-5.028975,51.62],[-5.029175,51.620042],[-5.029245,51.620089],[-5.029256,51.620188],[-5.029353,51.620282],[-5.029632,51.620464],[-5.029838,51.620538],[-5.030178,51.620578],[-5.03035,51.620592],[-5.030527,51.620594],[-5.030616,51.620616],[-5.030706,51.62068],[-5.03085,51.620704],[-5.031192,51.62071],[-5.031435,51.620692],[-5.031823,51.620633],[-5.032015,51.620558],[-5.032203,51.620391],[-5.032334,51.620334],[-5.032537,51.620333],[-5.032684,51.620365],[-5.03292,51.62046],[-5.033114,51.620552],[-5.033461,51.620734],[-5.033728,51.620856],[-5.034185,51.621041],[-5.034629,51.62107],[-5.035507,51.620973],[-5.035838,51.620946],[-5.035953,51.620965],[-5.03626,51.620976],[-5.037067,51.620989],[-5.037525,51.620991],[-5.038094,51.620984],[-5.038407,51.62097],[-5.03878,51.620937],[-5.038907,51.620927],[-5.038918,51.620932],[-5.038978,51.620943],[-5.039149,51.62097],[-5.039282,51.620979],[-5.039513,51.62098],[-5.039687,51.620972],[-5.039978,51.620947],[-5.040123,51.620931],[-5.040268,51.62091],[-5.040353,51.620917],[-5.040463,51.62096],[-5.040583,51.620977],[-5.040831,51.620987],[-5.041,51.620965],[-5.04126,51.620889],[-5.041376,51.620815],[-5.041462,51.620669],[-5.041444,51.620562],[-5.041304,51.620387],[-5.041157,51.620314],[-5.040856,51.620269],[-5.040748,51.620255],[-5.040725,51.620256],[-5.040696,51.620248],[-5.040633,51.620223],[-5.040562,51.620202],[-5.040414,51.620165],[-5.040325,51.620139],[-5.040207,51.6201],[-5.040139,51.620074],[-5.040051,51.620033],[-5.040003,51.620006],[-5.039946,51.619964],[-5.039918,51.619936],[-5.039892,51.619892],[-5.039863,51.619866],[-5.039802,51.619831],[-5.03975,51.619811],[-5.039656,51.619785],[-5.039582,51.619771],[-5.039453,51.619754],[-5.039356,51.619745],[-5.039194,51.619737],[-5.039087,51.619723],[-5.038928,51.619689],[-5.038823,51.619658],[-5.038667,51.619599],[-5.03859,51.619566],[-5.038514,51.619524],[-5.038485,51.619488],[-5.038478,51.619424],[-5.038423,51.619328],[-5.038266,51.619104],[-5.038016,51.618969],[-5.037424,51.618785],[-5.036969,51.618685],[-5.036195,51.618567],[-5.035723,51.618536],[-5.035079,51.61856],[-5.034709,51.618592],[-5.034243,51.618661],[-5.034005,51.618694],[-5.033758,51.618727],[-5.033441,51.618756],[-5.03274,51.618814],[-5.032379,51.618791],[-5.031997,51.618664],[-5.031694,51.618572],[-5.031168,51.618421],[-5.030768,51.618378],[-5.030094,51.618398]]]}}