{"type":"Feature","properties":{"id":"272658","COMMUNE":"Wiltshire","PROVINCE":"Wiltshire CC","COUNTRY":"UK","FIREDATE":"2025-06-19 00:00:00","FINALDATE":"2025-06-19 00:00:00","CLASS":"FireSeason","areaHA_geo":19.228},"geometry":{"type":"Polygon","coordinates":[[[-1.928198,51.270634],[-1.927948,51.270499],[-1.927937,51.270498],[-1.927557,51.270507],[-1.927237,51.270556],[-1.926978,51.270648],[-1.926779,51.270781],[-1.92664,51.270747],[-1.92656,51.270548],[-1.92654,51.270181],[-1.926577,51.269698],[-1.926435,51.269629],[-1.926297,51.269309],[-1.926546,51.269032],[-1.927098,51.268892],[-1.927424,51.268808],[-1.928008,51.268179],[-1.92821,51.267724],[-1.928116,51.267266],[-1.927661,51.267062],[-1.927275,51.267018],[-1.926975,51.267199],[-1.926774,51.267555],[-1.926304,51.267804],[-1.926338,51.267934],[-1.926294,51.268072],[-1.926049,51.268465],[-1.925315,51.268625],[-1.924858,51.268822],[-1.92458,51.268985],[-1.924276,51.268949],[-1.923712,51.26884],[-1.923304,51.268916],[-1.923195,51.269111],[-1.923648,51.269616],[-1.924072,51.269906],[-1.924752,51.270455],[-1.924765,51.270478],[-1.924931,51.270507],[-1.925075,51.270544],[-1.925192,51.270589],[-1.92528,51.270642],[-1.92534,51.270703],[-1.92537,51.270764],[-1.925371,51.270826],[-1.925341,51.270887],[-1.925281,51.270948],[-1.925244,51.271001],[-1.925231,51.271046],[-1.925241,51.271083],[-1.925273,51.271111],[-1.925313,51.27113],[-1.925359,51.271139],[-1.925413,51.271138],[-1.925474,51.271128],[-1.925527,51.271132],[-1.925573,51.271151],[-1.925612,51.271185],[-1.925643,51.271233],[-1.925649,51.271279],[-1.92563,51.271325],[-1.925584,51.271369],[-1.925513,51.271412],[-1.925425,51.27145],[-1.92532,51.271482],[-1.925198,51.27151],[-1.925058,51.271532],[-1.924962,51.271564],[-1.924911,51.271607],[-1.924902,51.27166],[-1.924938,51.271724],[-1.924984,51.271772],[-1.92504,51.271806],[-1.925107,51.271825],[-1.925184,51.271829],[-1.92524,51.271851],[-1.925276,51.27189],[-1.925291,51.271948],[-1.925285,51.272024],[-1.925253,51.272086],[-1.925193,51.272136],[-1.925106,51.272172],[-1.924992,51.272196],[-1.924888,51.272203],[-1.924794,51.272193],[-1.92471,51.272166],[-1.924635,51.272122],[-1.924573,51.272097],[-1.924524,51.27209],[-1.924487,51.272102],[-1.924464,51.272132],[-1.924458,51.272171],[-1.924471,51.272219],[-1.924502,51.272276],[-1.92455,51.272342],[-1.924578,51.272418],[-1.924585,51.272504],[-1.924571,51.272601],[-1.924536,51.272707],[-1.924528,51.272785],[-1.924547,51.272834],[-1.924593,51.272855],[-1.924667,51.272847],[-1.924727,51.272854],[-1.924774,51.272875],[-1.924807,51.27291],[-1.924826,51.272959],[-1.924818,51.273007],[-1.924783,51.273055],[-1.924721,51.2731],[-1.924632,51.273145],[-1.924541,51.273203],[-1.924449,51.273274],[-1.924356,51.273357],[-1.924261,51.273454],[-1.924174,51.273516],[-1.924096,51.273544],[-1.924027,51.273537],[-1.923965,51.273496],[-1.923921,51.273488],[-1.923892,51.273513],[-1.92388,51.27357],[-1.923885,51.27366],[-1.923893,51.273716],[-1.924316,51.273893],[-1.925049,51.274135],[-1.925675,51.27397],[-1.926284,51.27364],[-1.927193,51.273229],[-1.928198,51.272774],[-1.928441,51.272682],[-1.928515,51.272557],[-1.929745,51.272246],[-1.931044,51.271995],[-1.93144,51.271871],[-1.931993,51.271429],[-1.932168,51.271077],[-1.932274,51.270665],[-1.931967,51.270312],[-1.931373,51.270089],[-1.931118,51.269931],[-1.93094,51.269766],[-1.930446,51.269717],[-1.930137,51.269865],[-1.929872,51.269976],[-1.92971,51.270177],[-1.929512,51.270749],[-1.929216,51.271047],[-1.928882,51.270898],[-1.928814,51.270738],[-1.928198,51.270634]]]}}