{"type":"Feature","properties":{"id":"273760","COMMUNE":"Argyll and Bute Mainland","PROVINCE":"Lochaber, Skye & Lochalsh, Arran & Cumbrae and Argyll & Bute","COUNTRY":"UK","FIREDATE":"2025-05-22 01:05:00","FINALDATE":"2025-05-22 02:43:00","CLASS":"FireSeason","areaHA_geo":5.163},"geometry":{"type":"Polygon","coordinates":[[[-5.318628,56.207548],[-5.318721,56.207666],[-5.318902,56.207692],[-5.319171,56.207625],[-5.319529,56.207464],[-5.319821,56.207316],[-5.320047,56.20718],[-5.320208,56.207056],[-5.320304,56.206945],[-5.320417,56.206838],[-5.320546,56.206736],[-5.320693,56.206638],[-5.320857,56.206546],[-5.320988,56.206448],[-5.321087,56.206344],[-5.321154,56.206235],[-5.321188,56.206119],[-5.321251,56.206014],[-5.321343,56.205919],[-5.321465,56.205835],[-5.321616,56.205761],[-5.321685,56.205675],[-5.32167,56.205576],[-5.321573,56.205465],[-5.321393,56.205342],[-5.321279,56.20524],[-5.321231,56.20516],[-5.32125,56.2051],[-5.321335,56.205062],[-5.321454,56.205044],[-5.321605,56.205045],[-5.321789,56.205066],[-5.322006,56.205107],[-5.322184,56.205112],[-5.322322,56.205081],[-5.322421,56.205015],[-5.322481,56.204913],[-5.322562,56.204833],[-5.322664,56.204776],[-5.322789,56.204742],[-5.322934,56.20473],[-5.323026,56.204646],[-5.323064,56.204491],[-5.323049,56.204265],[-5.322979,56.203967],[-5.322801,56.203792],[-5.322514,56.20374],[-5.322118,56.203812],[-5.321614,56.204006],[-5.321198,56.204183],[-5.32087,56.204343],[-5.320631,56.204484],[-5.32048,56.204608],[-5.320323,56.204691],[-5.320159,56.204734],[-5.319988,56.204735],[-5.319812,56.204695],[-5.31968,56.204755],[-5.319594,56.204916],[-5.319554,56.205177],[-5.319558,56.205539],[-5.319475,56.205843],[-5.319302,56.206089],[-5.319042,56.206278],[-5.318693,56.206409],[-5.318459,56.206534],[-5.31834,56.206651],[-5.318337,56.206761],[-5.318449,56.206865],[-5.318534,56.206995],[-5.318592,56.207153],[-5.318624,56.207337],[-5.318628,56.207548]]]}}