{"type":"Feature","properties":{"id":"273883","COMMUNE":"Wiltshire","PROVINCE":"Wiltshire CC","COUNTRY":"UK","FIREDATE":"2025-05-20 00:00:00","CLASS":"FireSeason","areaHA_geo":8.325},"geometry":{"type":"Polygon","coordinates":[[[-1.927781,51.261719],[-1.927796,51.261716],[-1.928081,51.261668],[-1.928243,51.261567],[-1.928427,51.261312],[-1.92833,51.261139],[-1.927852,51.260875],[-1.927574,51.260733],[-1.927218,51.260574],[-1.927017,51.260405],[-1.926769,51.260058],[-1.92645,51.259882],[-1.925743,51.2597],[-1.925212,51.259709],[-1.924325,51.259918],[-1.923936,51.26003],[-1.923655,51.260157],[-1.923522,51.260367],[-1.923402,51.26087],[-1.92354,51.261235],[-1.924072,51.261827],[-1.924383,51.262135],[-1.924784,51.262467],[-1.92503,51.262644],[-1.925365,51.262845],[-1.925681,51.26293],[-1.926292,51.262985],[-1.926631,51.262923],[-1.92704,51.262685],[-1.927277,51.262432],[-1.927579,51.26191],[-1.927781,51.261719]]]}}