{"type":"Feature","properties":{"id":"273897","COMMUNE":"Wiltshire","PROVINCE":"Wiltshire CC","COUNTRY":"UK","FIREDATE":"2025-05-20 01:20:00","FINALDATE":"2025-05-20 13:10:00","CLASS":"FireSeason","areaHA_geo":226.764},"geometry":{"type":"Polygon","coordinates":[[[-1.901903,51.261777],[-1.901193,51.262231],[-1.900758,51.262533],[-1.900821,51.262806],[-1.900994,51.263294],[-1.901241,51.263842],[-1.901562,51.264449],[-1.90184,51.264946],[-1.902076,51.265332],[-1.90227,51.265607],[-1.902421,51.265772],[-1.902544,51.265838],[-1.9026,51.26586],[-1.902757,51.265869],[-1.902942,51.265802],[-1.903138,51.265659],[-1.903341,51.265576],[-1.903552,51.265554],[-1.903769,51.265594],[-1.903993,51.265694],[-1.904237,51.265784],[-1.904501,51.265864],[-1.904784,51.265933],[-1.905088,51.265992],[-1.905325,51.266021],[-1.905496,51.26602],[-1.9056,51.265989],[-1.905638,51.265929],[-1.905768,51.265893],[-1.90599,51.265882],[-1.906304,51.265894],[-1.906709,51.265931],[-1.907041,51.265976],[-1.907297,51.266028],[-1.907479,51.266088],[-1.907587,51.266156],[-1.907729,51.266234],[-1.907905,51.266322],[-1.908116,51.266422],[-1.90836,51.266531],[-1.908554,51.266635],[-1.908697,51.266733],[-1.908788,51.266824],[-1.908829,51.26691],[-1.908933,51.266981],[-1.9091,51.267037],[-1.909331,51.267078],[-1.909626,51.267103],[-1.909876,51.267148],[-1.910082,51.267211],[-1.910243,51.267293],[-1.910359,51.267393],[-1.910461,51.26749],[-1.910548,51.267582],[-1.91062,51.26767],[-1.910678,51.267754],[-1.910741,51.26784],[-1.91081,51.267929],[-1.910883,51.268019],[-1.910961,51.268112],[-1.910987,51.268194],[-1.910961,51.268264],[-1.910882,51.268323],[-1.91075,51.26837],[-1.910679,51.26842],[-1.911145,51.268677],[-1.911909,51.268475],[-1.911789,51.268437],[-1.911728,51.268376],[-1.911768,51.268305],[-1.911908,51.268223],[-1.912057,51.26814],[-1.912215,51.268056],[-1.912382,51.267972],[-1.912558,51.267886],[-1.912731,51.267792],[-1.912902,51.26769],[-1.913071,51.26758],[-1.913162,51.267516],[-1.913229,51.267411],[-1.913483,51.267321],[-1.913705,51.267298],[-1.914041,51.267327],[-1.914254,51.267368],[-1.91437,51.26723],[-1.914502,51.267058],[-1.914704,51.266769],[-1.914922,51.266541],[-1.915194,51.266418],[-1.915633,51.266357],[-1.915987,51.266163],[-1.916192,51.266078],[-1.916799,51.266079],[-1.91703,51.265897],[-1.917076,51.265687],[-1.917654,51.265675],[-1.917946,51.265439],[-1.918013,51.265116],[-1.918199,51.26486],[-1.918433,51.264788],[-1.919085,51.264863],[-1.919392,51.264879],[-1.919774,51.264887],[-1.919845,51.264921],[-1.920465,51.264532],[-1.920745,51.26425],[-1.921008,51.264096],[-1.921494,51.263635],[-1.92132,51.263429],[-1.921331,51.263399],[-1.921537,51.263031],[-1.921647,51.262293],[-1.921445,51.261713],[-1.920816,51.261051],[-1.921129,51.260703],[-1.921664,51.260237],[-1.922086,51.25934],[-1.922006,51.258843],[-1.921542,51.258228],[-1.920666,51.257781],[-1.92034,51.257718],[-1.920691,51.257683],[-1.921019,51.257586],[-1.920856,51.25735],[-1.919676,51.257283],[-1.919266,51.257262],[-1.919267,51.256882],[-1.919474,51.256514],[-1.919827,51.256319],[-1.920016,51.256268],[-1.920691,51.255756],[-1.920963,51.255444],[-1.921497,51.255167],[-1.92212,51.255229],[-1.923015,51.254979],[-1.923722,51.25459],[-1.92347,51.254205],[-1.923028,51.253872],[-1.922718,51.253651],[-1.922817,51.253451],[-1.922375,51.253307],[-1.921744,51.253025],[-1.92186,51.252887],[-1.922467,51.252697],[-1.922576,51.252339],[-1.922495,51.252031],[-1.922972,51.251729],[-1.922882,51.25158],[-1.9224,51.251283],[-1.921958,51.251139],[-1.920211,51.251035],[-1.919465,51.25089],[-1.918523,51.250766],[-1.917252,51.25074],[-1.915916,51.250467],[-1.915489,51.250574],[-1.915267,51.250881],[-1.915233,51.250939],[-1.915093,51.251184],[-1.914609,51.251265],[-1.914019,51.251136],[-1.913964,51.25112],[-1.913925,51.251126],[-1.912504,51.250755],[-1.911942,51.250503],[-1.910655,51.250015],[-1.909048,51.24925],[-1.907828,51.249014],[-1.907358,51.249114],[-1.906845,51.249684],[-1.906895,51.250506],[-1.906287,51.251345],[-1.906314,51.251445],[-1.905946,51.252569],[-1.905728,51.253316],[-1.905174,51.254045],[-1.904012,51.255612],[-1.902933,51.256861],[-1.902323,51.25801],[-1.901794,51.25915],[-1.901548,51.260106],[-1.901731,51.261122],[-1.901903,51.261777]]]}}