{"type":"Feature","properties":{"id":"273888","COMMUNE":"Wiltshire","PROVINCE":"Wiltshire CC","COUNTRY":"UK","FIREDATE":"2025-05-20 00:00:00","FINALDATE":"2025-05-20 00:00:00","CLASS":"FireSeason","areaHA_geo":31.077},"geometry":{"type":"Polygon","coordinates":[[[-1.933399,51.267888],[-1.933849,51.267566],[-1.934132,51.267249],[-1.934532,51.26662],[-1.93475,51.266296],[-1.934893,51.266106],[-1.93596,51.266117],[-1.935913,51.265987],[-1.935788,51.265786],[-1.935638,51.265661],[-1.935464,51.265612],[-1.935348,51.265548],[-1.935291,51.26547],[-1.935294,51.265377],[-1.935355,51.265269],[-1.935446,51.265184],[-1.935564,51.265121],[-1.935711,51.26508],[-1.935886,51.265062],[-1.936072,51.265052],[-1.936269,51.265048],[-1.936477,51.265052],[-1.936696,51.265063],[-1.936939,51.264976],[-1.937205,51.264791],[-1.937495,51.264508],[-1.937809,51.264127],[-1.937987,51.263811],[-1.938029,51.263559],[-1.937934,51.263372],[-1.937704,51.26325],[-1.937563,51.263141],[-1.937511,51.263045],[-1.937548,51.262963],[-1.937674,51.262893],[-1.937838,51.262834],[-1.938041,51.262785],[-1.938283,51.262746],[-1.938513,51.262722],[-1.938534,51.262609],[-1.937927,51.26254],[-1.938,51.262488],[-1.938204,51.262428],[-1.938017,51.262355],[-1.937254,51.262199],[-1.936929,51.261958],[-1.936717,51.261391],[-1.936303,51.261212],[-1.935275,51.261239],[-1.934831,51.261344],[-1.934529,51.26163],[-1.934286,51.261858],[-1.933856,51.262256],[-1.933482,51.262386],[-1.93279,51.262379],[-1.932608,51.262286],[-1.932757,51.262016],[-1.932687,51.261749],[-1.932327,51.261217],[-1.931999,51.261081],[-1.931372,51.261204],[-1.930996,51.261328],[-1.930496,51.261576],[-1.930009,51.261836],[-1.92905,51.262366],[-1.928789,51.262527],[-1.928617,51.262633],[-1.92828,51.262904],[-1.928378,51.263037],[-1.929009,51.263168],[-1.929384,51.263201],[-1.929878,51.26317],[-1.93,51.263236],[-1.929872,51.263465],[-1.929688,51.26368],[-1.929263,51.264097],[-1.929182,51.264465],[-1.929362,51.265152],[-1.929563,51.265596],[-1.929983,51.266239],[-1.930105,51.266547],[-1.930055,51.266819],[-1.930053,51.266827],[-1.930056,51.266997],[-1.930116,51.267226],[-1.930318,51.267277],[-1.930863,51.267201],[-1.931197,51.267036],[-1.931652,51.266616],[-1.931921,51.266523],[-1.932271,51.266663],[-1.932415,51.266773],[-1.932496,51.266961],[-1.932668,51.267218],[-1.933104,51.2678],[-1.933399,51.267888]]]}}