{"type":"Feature","properties":{"id":"273895","COMMUNE":"Wiltshire","PROVINCE":"Wiltshire CC","COUNTRY":"UK","FIREDATE":"2025-03-04 13:31:00","FINALDATE":"2025-03-04 13:31:00","CLASS":"FireSeason","areaHA_geo":2.843},"geometry":{"type":"Polygon","coordinates":[[[-1.926577,51.269698],[-1.92654,51.270181],[-1.92656,51.270548],[-1.92664,51.270747],[-1.926779,51.270781],[-1.926978,51.270648],[-1.927237,51.270556],[-1.927557,51.270507],[-1.927937,51.270498],[-1.928378,51.270531],[-1.928692,51.27051],[-1.928879,51.270435],[-1.928939,51.270305],[-1.928873,51.270121],[-1.928864,51.26993],[-1.928911,51.269734],[-1.929016,51.269532],[-1.929177,51.269325],[-1.929124,51.269159],[-1.928858,51.269034],[-1.928377,51.268952],[-1.927683,51.268911],[-1.927152,51.269014],[-1.926784,51.26926],[-1.926581,51.269649],[-1.926577,51.269698]]]}}