{"type":"Feature","properties":{"id":"273899","COMMUNE":"Wiltshire","PROVINCE":"Wiltshire CC","COUNTRY":"UK","FIREDATE":"2025-05-16 00:00:00","FINALDATE":"2025-05-16 00:00:00","CLASS":"FireSeason","areaHA_geo":113.852},"geometry":{"type":"Polygon","coordinates":[[[-1.893023,51.288103],[-1.892957,51.288024],[-1.892668,51.287895],[-1.89269,51.287696],[-1.892674,51.287636],[-1.892784,51.287668],[-1.892922,51.287696],[-1.893022,51.287702],[-1.893083,51.287688],[-1.893107,51.287651],[-1.893147,51.287622],[-1.893202,51.287601],[-1.893272,51.287587],[-1.893358,51.287581],[-1.893426,51.287597],[-1.893476,51.287637],[-1.893508,51.287699],[-1.893522,51.287783],[-1.893582,51.28786],[-1.893687,51.287928],[-1.893839,51.287989],[-1.894036,51.288042],[-1.894187,51.28807],[-1.89429,51.288074],[-1.894346,51.288053],[-1.894355,51.288008],[-1.894419,51.28797],[-1.894539,51.287939],[-1.894713,51.287916],[-1.894943,51.2879],[-1.895126,51.287879],[-1.895263,51.287852],[-1.895354,51.287819],[-1.895398,51.28778],[-1.895385,51.287745],[-1.895316,51.287711],[-1.89519,51.287681],[-1.895007,51.287652],[-1.894853,51.287601],[-1.894727,51.287527],[-1.894629,51.287429],[-1.89456,51.287309],[-1.894482,51.287218],[-1.894396,51.287158],[-1.8943,51.287128],[-1.894196,51.287129],[-1.894131,51.287115],[-1.894105,51.287088],[-1.894118,51.287047],[-1.89417,51.286992],[-1.894246,51.286942],[-1.894345,51.286898],[-1.894468,51.286859],[-1.894613,51.286826],[-1.894726,51.28679],[-1.894806,51.286752],[-1.894853,51.286712],[-1.894866,51.286668],[-1.894888,51.286646],[-1.894916,51.286644],[-1.894953,51.286664],[-1.894997,51.286703],[-1.895057,51.286741],[-1.895133,51.286778],[-1.895226,51.286813],[-1.895335,51.286846],[-1.895444,51.28686],[-1.895553,51.286855],[-1.895663,51.286832],[-1.895773,51.286789],[-1.895855,51.286741],[-1.89591,51.286689],[-1.895938,51.286631],[-1.895938,51.286569],[-1.895918,51.286504],[-1.895877,51.286436],[-1.895816,51.286366],[-1.895735,51.286294],[-1.89572,51.286242],[-1.895772,51.28621],[-1.895892,51.286199],[-1.896078,51.286209],[-1.89621,51.286196],[-1.896289,51.286162],[-1.896314,51.286106],[-1.896285,51.286028],[-1.896284,51.285961],[-1.896311,51.285903],[-1.896365,51.285856],[-1.896447,51.285819],[-1.896488,51.285785],[-1.896489,51.285753],[-1.896448,51.285725],[-1.896366,51.285699],[-1.89632,51.285672],[-1.896311,51.285643],[-1.896337,51.285613],[-1.896399,51.28558],[-1.896445,51.285519],[-1.896473,51.285428],[-1.896485,51.285309],[-1.89648,51.285161],[-1.896524,51.28505],[-1.896617,51.284977],[-1.89676,51.284941],[-1.896952,51.284942],[-1.897092,51.284924],[-1.897178,51.284888],[-1.897212,51.284833],[-1.897193,51.284759],[-1.897186,51.284698],[-1.897192,51.284649],[-1.897211,51.284613],[-1.897242,51.284589],[-1.897269,51.28456],[-1.897291,51.284526],[-1.897309,51.284488],[-1.897323,51.284445],[-1.897315,51.284404],[-1.897287,51.284365],[-1.897236,51.284329],[-1.897165,51.284294],[-1.897072,51.28426],[-1.896959,51.284226],[-1.896825,51.284192],[-1.89667,51.284159],[-1.896539,51.284155],[-1.896431,51.284182],[-1.896347,51.284239],[-1.896286,51.284326],[-1.896222,51.284365],[-1.896155,51.284356],[-1.896085,51.2843],[-1.896012,51.284195],[-1.895934,51.284118],[-1.895852,51.284069],[-1.895766,51.284048],[-1.895676,51.284055],[-1.895599,51.28405],[-1.895534,51.284033],[-1.895482,51.284005],[-1.895442,51.283964],[-1.895451,51.283932],[-1.895509,51.283908],[-1.895617,51.283892],[-1.895773,51.283883],[-1.89592,51.28387],[-1.896057,51.283852],[-1.896185,51.283829],[-1.896303,51.283802],[-1.896388,51.283771],[-1.89644,51.283739],[-1.896459,51.283703],[-1.896445,51.283666],[-1.896326,51.283627],[-1.896103,51.283587],[-1.895775,51.283547],[-1.895342,51.283505],[-1.895016,51.28347],[-1.894795,51.283441],[-1.894681,51.283417],[-1.894672,51.2834],[-1.894683,51.283378],[-1.894714,51.283353],[-1.894765,51.283324],[-1.894835,51.28329],[-1.894878,51.283251],[-1.894893,51.283205],[-1.894881,51.283153],[-1.89484,51.283094],[-1.89478,51.28305],[-1.894699,51.283021],[-1.894598,51.283006],[-1.894477,51.283005],[-1.894356,51.283011],[-1.894236,51.283024],[-1.894117,51.283042],[-1.893998,51.283068],[-1.893916,51.283104],[-1.89387,51.283152],[-1.89386,51.283211],[-1.893887,51.283281],[-1.893869,51.283321],[-1.893807,51.28333],[-1.8937,51.283308],[-1.893549,51.283256],[-1.893437,51.283232],[-1.893365,51.283235],[-1.893332,51.283266],[-1.893339,51.283326],[-1.893276,51.28338],[-1.893143,51.283429],[-1.89294,51.283472],[-1.892666,51.283511],[-1.892431,51.283556],[-1.892236,51.283607],[-1.89208,51.283665],[-1.891963,51.283729],[-1.891823,51.283734],[-1.891661,51.283679],[-1.891475,51.283564],[-1.891267,51.28339],[-1.891063,51.283255],[-1.890865,51.283158],[-1.890671,51.2831],[-1.890482,51.28308],[-1.890329,51.283046],[-1.890213,51.282998],[-1.890132,51.282936],[-1.890087,51.28286],[-1.890074,51.282793],[-1.890094,51.282735],[-1.890147,51.282686],[-1.890233,51.282646],[-1.890257,51.282607],[-1.890221,51.282571],[-1.890123,51.282536],[-1.889964,51.282503],[-1.88989,51.28247],[-1.8899,51.282439],[-1.889996,51.282409],[-1.890176,51.28238],[-1.890317,51.282369],[-1.890419,51.282376],[-1.890482,51.2824],[-1.890505,51.282442],[-1.890523,51.282473],[-1.890534,51.282494],[-1.89054,51.282504],[-1.890564,51.282504],[-1.890612,51.282503],[-1.890684,51.282501],[-1.890779,51.282499],[-1.890846,51.282476],[-1.890885,51.282432],[-1.890894,51.282366],[-1.890876,51.28228],[-1.890876,51.282201],[-1.890896,51.282132],[-1.890934,51.28207],[-1.890991,51.282017],[-1.891016,51.281967],[-1.89101,51.281918],[-1.890971,51.281871],[-1.890901,51.281826],[-1.890867,51.281778],[-1.890868,51.281727],[-1.890905,51.281673],[-1.890978,51.281616],[-1.891023,51.281551],[-1.891042,51.281479],[-1.891034,51.281399],[-1.890998,51.281312],[-1.890984,51.281214],[-1.890991,51.281106],[-1.89102,51.280989],[-1.89107,51.280861],[-1.891126,51.280763],[-1.891188,51.280696],[-1.891255,51.280658],[-1.891328,51.280651],[-1.891378,51.280713],[-1.891404,51.280844],[-1.891406,51.281045],[-1.891385,51.281316],[-1.891391,51.281509],[-1.891423,51.281624],[-1.891482,51.281662],[-1.891568,51.281622],[-1.891633,51.281613],[-1.891678,51.281634],[-1.891704,51.281686],[-1.891709,51.281769],[-1.891747,51.281813],[-1.891819,51.281817],[-1.891925,51.281782],[-1.892064,51.281708],[-1.892181,51.281659],[-1.892275,51.281636],[-1.892347,51.281639],[-1.892396,51.281668],[-1.892483,51.281685],[-1.892607,51.281689],[-1.892769,51.281681],[-1.892968,51.28166],[-1.89312,51.281626],[-1.893224,51.281579],[-1.893282,51.281519],[-1.893291,51.281444],[-1.893308,51.281387],[-1.893331,51.281347],[-1.89336,51.281324],[-1.893396,51.281318],[-1.893427,51.28133],[-1.893454,51.281361],[-1.893477,51.281411],[-1.893495,51.28148],[-1.893499,51.28154],[-1.89349,51.281592],[-1.893467,51.281635],[-1.89343,51.28167],[-1.893417,51.281712],[-1.893428,51.281762],[-1.893463,51.281819],[-1.893521,51.281884],[-1.89356,51.281943],[-1.893578,51.281997],[-1.893576,51.282046],[-1.893554,51.28209],[-1.893594,51.282135],[-1.893696,51.28218],[-1.893859,51.282227],[-1.894085,51.282274],[-1.894264,51.282302],[-1.894398,51.28231],[-1.894486,51.282299],[-1.894528,51.282269],[-1.894577,51.282244],[-1.894632,51.282224],[-1.894694,51.282209],[-1.894762,51.282199],[-1.894828,51.282201],[-1.89489,51.282216],[-1.894949,51.282242],[-1.895005,51.282281],[-1.8951,51.282323],[-1.895233,51.28237],[-1.895404,51.28242],[-1.895615,51.282474],[-1.89577,51.282521],[-1.895871,51.282561],[-1.895916,51.282595],[-1.895906,51.282622],[-1.895905,51.282652],[-1.895911,51.282684],[-1.895925,51.282718],[-1.895947,51.282755],[-1.895988,51.282786],[-1.896047,51.282811],[-1.896124,51.282831],[-1.896219,51.282844],[-1.896284,51.282838],[-1.896319,51.282811],[-1.896323,51.282763],[-1.896297,51.282695],[-1.8963,51.282642],[-1.896331,51.282602],[-1.896391,51.282576],[-1.89648,51.282565],[-1.896531,51.282535],[-1.896543,51.282488],[-1.896518,51.282424],[-1.896455,51.282342],[-1.896449,51.282291],[-1.8965,51.282271],[-1.896608,51.282283],[-1.896774,51.282326],[-1.896916,51.282352],[-1.897033,51.28236],[-1.897125,51.282352],[-1.897194,51.282327],[-1.897268,51.282291],[-1.897348,51.282245],[-1.897433,51.282189],[-1.897524,51.282122],[-1.897613,51.28207],[-1.8977,51.282034],[-1.897784,51.282013],[-1.897866,51.282007],[-1.897928,51.281984],[-1.897969,51.281943],[-1.89799,51.281885],[-1.897991,51.281809],[-1.898023,51.281748],[-1.898086,51.281701],[-1.89818,51.281669],[-1.898305,51.281651],[-1.898393,51.281625],[-1.898445,51.281593],[-1.898461,51.281552],[-1.89844,51.281505],[-1.89844,51.281465],[-1.89846,51.281431],[-1.898501,51.281405],[-1.898563,51.281385],[-1.898634,51.281366],[-1.898715,51.281348],[-1.898805,51.281329],[-1.898905,51.281311],[-1.898986,51.281291],[-1.899049,51.281269],[-1.899094,51.281245],[-1.89912,51.281219],[-1.899159,51.281197],[-1.899208,51.28118],[-1.89927,51.281168],[-1.899343,51.28116],[-1.899366,51.281145],[-1.899339,51.281122],[-1.899262,51.281091],[-1.899135,51.281052],[-1.89903,51.281015],[-1.898946,51.280982],[-1.898884,51.280952],[-1.898843,51.280925],[-1.898825,51.2809],[-1.89883,51.280878],[-1.898857,51.280857],[-1.898906,51.280839],[-1.898956,51.280813],[-1.899005,51.280778],[-1.899054,51.280734],[-1.899103,51.280682],[-1.89914,51.280662],[-1.899166,51.280674],[-1.899181,51.280717],[-1.899184,51.280792],[-1.899213,51.280851],[-1.899268,51.280894],[-1.899349,51.28092],[-1.899456,51.28093],[-1.899539,51.280925],[-1.899598,51.280904],[-1.899634,51.280869],[-1.899646,51.280818],[-1.899672,51.280778],[-1.899712,51.280749],[-1.899767,51.280731],[-1.899836,51.280724],[-1.899896,51.280709],[-1.899946,51.280687],[-1.899988,51.280657],[-1.90002,51.28062],[-1.900058,51.280599],[-1.900102,51.280593],[-1.900153,51.280603],[-1.90021,51.280628],[-1.900265,51.28064],[-1.900319,51.280638],[-1.900371,51.280623],[-1.900422,51.280594],[-1.900483,51.280571],[-1.900553,51.280552],[-1.900633,51.280538],[-1.900722,51.280528],[-1.900792,51.280494],[-1.900843,51.280434],[-1.900875,51.280348],[-1.900888,51.280238],[-1.900929,51.280168],[-1.900999,51.28014],[-1.901098,51.280153],[-1.901225,51.280208],[-1.901324,51.28023],[-1.901397,51.28022],[-1.901442,51.280178],[-1.90146,51.280103],[-1.9015,51.280041],[-1.901562,51.279991],[-1.901647,51.279955],[-1.901753,51.279931],[-1.901814,51.279896],[-1.901829,51.279852],[-1.901799,51.279797],[-1.901724,51.279732],[-1.901688,51.279682],[-1.901691,51.279648],[-1.901734,51.279629],[-1.901817,51.279626],[-1.90193,51.279614],[-1.902073,51.279594],[-1.902246,51.279566],[-1.902449,51.279529],[-1.902577,51.279489],[-1.90263,51.279444],[-1.902608,51.279396],[-1.902511,51.279343],[-1.902491,51.279278],[-1.902548,51.2792],[-1.902682,51.27911],[-1.902893,51.279008],[-1.903073,51.278932],[-1.903224,51.278884],[-1.903343,51.278864],[-1.903433,51.27887],[-1.903498,51.278861],[-1.90354,51.278838],[-1.903558,51.278799],[-1.903552,51.278744],[-1.903559,51.278695],[-1.903579,51.27865],[-1.903611,51.278609],[-1.903656,51.278573],[-1.90368,51.278534],[-1.903683,51.278492],[-1.903666,51.278447],[-1.903629,51.278399],[-1.903582,51.278366],[-1.903528,51.278348],[-1.903464,51.278345],[-1.903392,51.278358],[-1.903322,51.278361],[-1.903254,51.278355],[-1.903187,51.27834],[-1.903123,51.278315],[-1.903055,51.278302],[-1.902986,51.2783],[-1.902914,51.278309],[-1.90284,51.27833],[-1.902768,51.278332],[-1.902696,51.278314],[-1.902626,51.278278],[-1.902558,51.278222],[-1.902509,51.278167],[-1.90248,51.278113],[-1.902471,51.278059],[-1.902482,51.278006],[-1.90251,51.277961],[-1.902555,51.277925],[-1.902617,51.277898],[-1.902695,51.27788],[-1.90276,51.277861],[-1.902812,51.277843],[-1.90285,51.277825],[-1.902874,51.277807],[-1.902888,51.277784],[-1.902892,51.277758],[-1.902885,51.277727],[-1.902867,51.277693],[-1.902832,51.277677],[-1.902779,51.277681],[-1.902708,51.277705],[-1.902619,51.277748],[-1.902519,51.277782],[-1.902409,51.277806],[-1.902288,51.277821],[-1.902156,51.277827],[-1.902036,51.277838],[-1.90193,51.277854],[-1.901836,51.277876],[-1.901756,51.277902],[-1.901673,51.277906],[-1.901589,51.277886],[-1.901502,51.277842],[-1.901414,51.277776],[-1.901365,51.277721],[-1.901356,51.277677],[-1.901386,51.277646],[-1.901456,51.277625],[-1.901517,51.277597],[-1.90157,51.27756],[-1.901615,51.277515],[-1.901651,51.277462],[-1.901662,51.277424],[-1.901647,51.2774],[-1.901607,51.277392],[-1.901542,51.277399],[-1.901502,51.277385],[-1.901487,51.27735],[-1.901496,51.277294],[-1.90153,51.277218],[-1.901582,51.277154],[-1.90165,51.277104],[-1.901735,51.277067],[-1.901838,51.277044],[-1.901914,51.277014],[-1.901965,51.276977],[-1.90199,51.276934],[-1.90199,51.276885],[-1.901968,51.276846],[-1.901925,51.276818],[-1.901861,51.2768],[-1.901776,51.276793],[-1.901713,51.276776],[-1.901673,51.276749],[-1.901655,51.276712],[-1.901659,51.276665],[-1.901627,51.276658],[-1.901558,51.276691],[-1.901453,51.276764],[-1.901312,51.276878],[-1.901166,51.276999],[-1.901016,51.277128],[-1.900862,51.277264],[-1.900704,51.277408],[-1.900551,51.277541],[-1.900403,51.277663],[-1.900261,51.277775],[-1.900125,51.277875],[-1.899987,51.277934],[-1.899848,51.277954],[-1.899708,51.277933],[-1.899567,51.277872],[-1.899451,51.277812],[-1.89936,51.277754],[-1.899295,51.277697],[-1.899256,51.277641],[-1.899262,51.277585],[-1.899314,51.277529],[-1.899412,51.277472],[-1.899556,51.277416],[-1.899609,51.277378],[-1.899634,51.277289],[-1.899646,51.277265],[-1.899626,51.277229],[-1.899528,51.27716],[-1.899421,51.27713],[-1.899305,51.277139],[-1.899178,51.277185],[-1.899041,51.277269],[-1.898922,51.277348],[-1.89882,51.277421],[-1.898736,51.277488],[-1.898668,51.27755],[-1.898596,51.277606],[-1.898517,51.277658],[-1.898433,51.277703],[-1.898344,51.277744],[-1.898241,51.277758],[-1.898125,51.277747],[-1.897996,51.277709],[-1.897968,51.277697],[-1.897828,51.277711],[-1.897659,51.277764],[-1.897666,51.277841],[-1.897631,51.277935],[-1.897551,51.278005],[-1.897427,51.278053],[-1.897283,51.278075],[-1.897219,51.278167],[-1.89706,51.278282],[-1.896957,51.278313],[-1.89694,51.278384],[-1.896897,51.278466],[-1.896839,51.278523],[-1.896765,51.278554],[-1.896675,51.278561],[-1.896604,51.278591],[-1.896551,51.278645],[-1.896517,51.278722],[-1.896501,51.278823],[-1.896476,51.278876],[-1.89644,51.278882],[-1.896394,51.278841],[-1.896337,51.278753],[-1.896282,51.278689],[-1.896227,51.278647],[-1.896173,51.27863],[-1.89612,51.278635],[-1.896052,51.278604],[-1.895967,51.278535],[-1.895866,51.27843],[-1.89575,51.278289],[-1.895675,51.278164],[-1.89564,51.278057],[-1.895647,51.277967],[-1.895695,51.277894],[-1.895761,51.277817],[-1.895847,51.277737],[-1.895951,51.277653],[-1.896055,51.277578],[-1.896055,51.277472],[-1.896042,51.277282],[-1.896053,51.277185],[-1.896014,51.277138],[-1.89602,51.277041],[-1.89613,51.276966],[-1.896343,51.276912],[-1.896406,51.276906],[-1.89641,51.276834],[-1.896382,51.276725],[-1.896372,51.276602],[-1.896381,51.276466],[-1.89641,51.276317],[-1.896457,51.276155],[-1.896576,51.276023],[-1.896547,51.276018],[-1.896341,51.275961],[-1.896193,51.275898],[-1.896103,51.275829],[-1.896071,51.275754],[-1.896027,51.275704],[-1.89597,51.275678],[-1.895901,51.275678],[-1.89582,51.275702],[-1.895745,51.275714],[-1.895676,51.275715],[-1.895613,51.275703],[-1.895557,51.27568],[-1.895508,51.275649],[-1.895467,51.275609],[-1.895432,51.27556],[-1.895405,51.275503],[-1.895372,51.275458],[-1.895334,51.275426],[-1.895291,51.275405],[-1.895243,51.275397],[-1.895197,51.275409],[-1.895153,51.275439],[-1.895111,51.275489],[-1.89507,51.275559],[-1.895021,51.27562],[-1.894962,51.275673],[-1.894893,51.275718],[-1.894815,51.275754],[-1.894742,51.275757],[-1.894673,51.275727],[-1.894609,51.275662],[-1.89455,51.275564],[-1.894495,51.275488],[-1.894443,51.275435],[-1.894396,51.275404],[-1.894352,51.275395],[-1.894301,51.275416],[-1.894243,51.275466],[-1.894178,51.275546],[-1.894107,51.275655],[-1.894068,51.275743],[-1.894062,51.275808],[-1.894089,51.275852],[-1.89415,51.275875],[-1.894191,51.27591],[-1.894214,51.275959],[-1.894219,51.27602],[-1.894205,51.276095],[-1.894206,51.276156],[-1.894223,51.276204],[-1.894255,51.276238],[-1.894302,51.276259],[-1.894313,51.27628],[-1.894287,51.276301],[-1.894225,51.276322],[-1.894126,51.276343],[-1.89402,51.276368],[-1.893907,51.276398],[-1.893786,51.276432],[-1.893659,51.276472],[-1.893579,51.276527],[-1.893548,51.2766],[-1.893565,51.276688],[-1.89363,51.276794],[-1.893666,51.276881],[-1.893671,51.276949],[-1.893647,51.276999],[-1.893592,51.277031],[-1.893578,51.277069],[-1.893605,51.277113],[-1.893671,51.277164],[-1.893778,51.277221],[-1.893831,51.277259],[-1.89383,51.27728],[-1.893775,51.277283],[-1.893667,51.277269],[-1.893567,51.277261],[-1.893475,51.27726],[-1.893391,51.277266],[-1.893315,51.277279],[-1.893276,51.277311],[-1.893275,51.277362],[-1.893311,51.277432],[-1.893385,51.27752],[-1.893415,51.277605],[-1.893402,51.277684],[-1.893347,51.277759],[-1.893248,51.277829],[-1.893176,51.277859],[-1.89313,51.27785],[-1.893109,51.2778],[-1.893115,51.277711],[-1.893111,51.277633],[-1.893098,51.277565],[-1.893075,51.277508],[-1.893042,51.277462],[-1.892995,51.277432],[-1.892935,51.277417],[-1.892861,51.277418],[-1.892774,51.277435],[-1.892698,51.277467],[-1.892636,51.277513],[-1.892585,51.277575],[-1.892547,51.277652],[-1.892518,51.277744],[-1.8925,51.27785],[-1.892492,51.277971],[-1.892494,51.278106],[-1.892472,51.278219],[-1.892425,51.27831],[-1.892353,51.278379],[-1.892257,51.278425],[-1.892175,51.278469],[-1.892109,51.278511],[-1.892058,51.278551],[-1.892022,51.278589],[-1.891992,51.278628],[-1.891969,51.278668],[-1.891953,51.278709],[-1.891943,51.278752],[-1.89193,51.278799],[-1.891912,51.27885],[-1.89189,51.278906],[-1.891864,51.278966],[-1.891879,51.279011],[-1.891934,51.27904],[-1.892031,51.279055],[-1.892168,51.279053],[-1.892264,51.279077],[-1.892319,51.279127],[-1.892332,51.279201],[-1.892304,51.2793],[-1.892256,51.279383],[-1.892188,51.27945],[-1.8921,51.279501],[-1.891992,51.279536],[-1.891882,51.279598],[-1.89177,51.279689],[-1.891657,51.279809],[-1.891541,51.279956],[-1.891446,51.280074],[-1.891374,51.280162],[-1.891322,51.280221],[-1.891292,51.28025],[-1.891267,51.280259],[-1.891247,51.280246],[-1.891232,51.280213],[-1.891223,51.28016],[-1.891217,51.280102],[-1.891215,51.280039],[-1.891217,51.279972],[-1.891224,51.279901],[-1.891212,51.279851],[-1.891181,51.27982],[-1.891131,51.279809],[-1.891062,51.279819],[-1.891003,51.279842],[-1.890952,51.279879],[-1.890909,51.279929],[-1.890876,51.279992],[-1.890821,51.280039],[-1.890743,51.280071],[-1.890644,51.280086],[-1.890523,51.280086],[-1.890404,51.280077],[-1.890287,51.28006],[-1.890172,51.280036],[-1.890068,51.280006],[-1.889771,51.280075],[-1.889079,51.28018],[-1.888596,51.280277],[-1.888322,51.280367],[-1.888258,51.28045],[-1.888404,51.280525],[-1.888641,51.28057],[-1.888969,51.280587],[-1.889389,51.280575],[-1.8899,51.280534],[-1.890138,51.280549],[-1.890103,51.28062],[-1.889794,51.280747],[-1.889212,51.28093],[-1.888679,51.281061],[-1.888347,51.281115],[-1.888376,51.28118],[-1.888372,51.281268],[-1.888311,51.281323],[-1.888193,51.281343],[-1.888018,51.28133],[-1.887834,51.281318],[-1.887639,51.281307],[-1.887433,51.281296],[-1.887218,51.281287],[-1.887034,51.281253],[-1.88688,51.281193],[-1.886758,51.281108],[-1.886718,51.28106],[-1.88651,51.281023],[-1.886317,51.280975],[-1.886101,51.280922],[-1.886046,51.280908],[-1.886011,51.280914],[-1.885866,51.280941],[-1.885722,51.280969],[-1.88558,51.281],[-1.885429,51.281027],[-1.88527,51.281051],[-1.885104,51.281072],[-1.884929,51.28109],[-1.884817,51.28109],[-1.884769,51.281073],[-1.884784,51.281038],[-1.884862,51.280986],[-1.884923,51.280939],[-1.884966,51.280896],[-1.884992,51.280859],[-1.885,51.280827],[-1.885032,51.280774],[-1.885088,51.280701],[-1.885112,51.280672],[-1.885001,51.280641],[-1.884679,51.280545],[-1.884594,51.280518],[-1.884512,51.280534],[-1.884307,51.280563],[-1.884134,51.280573],[-1.883994,51.280564],[-1.883861,51.280566],[-1.883735,51.280579],[-1.883616,51.280603],[-1.883504,51.280638],[-1.883407,51.280654],[-1.883325,51.280651],[-1.883257,51.280628],[-1.883205,51.280587],[-1.883178,51.280548],[-1.883177,51.280513],[-1.883202,51.280481],[-1.883253,51.280453],[-1.883294,51.280419],[-1.883323,51.280381],[-1.883342,51.280338],[-1.883351,51.28029],[-1.883344,51.280249],[-1.883322,51.280213],[-1.883285,51.280184],[-1.883233,51.28016],[-1.883183,51.280156],[-1.883135,51.280172],[-1.883089,51.280206],[-1.883044,51.28026],[-1.883001,51.280311],[-1.882959,51.280357],[-1.882918,51.280399],[-1.882878,51.280437],[-1.88283,51.280458],[-1.882775,51.280464],[-1.882713,51.280454],[-1.882643,51.280427],[-1.882607,51.280399],[-1.882603,51.280369],[-1.882633,51.280338],[-1.882695,51.280305],[-1.882737,51.280256],[-1.88276,51.28019],[-1.882762,51.280107],[-1.882744,51.280007],[-1.882719,51.279933],[-1.882685,51.279884],[-1.882643,51.279861],[-1.882594,51.279864],[-1.882532,51.279856],[-1.882456,51.279839],[-1.882368,51.279813],[-1.882266,51.279776],[-1.882182,51.279733],[-1.882115,51.279684],[-1.882065,51.279629],[-1.882032,51.279567],[-1.881995,51.279523],[-1.881952,51.279497],[-1.881906,51.27949],[-1.881854,51.2795],[-1.881754,51.279507],[-1.881604,51.279511],[-1.881406,51.279511],[-1.881159,51.279508],[-1.880964,51.279488],[-1.88082,51.27945],[-1.880729,51.279396],[-1.880689,51.279324],[-1.880639,51.279282],[-1.880577,51.279271],[-1.880505,51.279288],[-1.880421,51.279336],[-1.880377,51.279394],[-1.880371,51.279461],[-1.880405,51.279537],[-1.880478,51.279624],[-1.880561,51.27971],[-1.880654,51.279795],[-1.880758,51.27988],[-1.880872,51.279965],[-1.880919,51.280057],[-1.880899,51.280157],[-1.880812,51.280264],[-1.880659,51.280379],[-1.880543,51.280449],[-1.880466,51.280474],[-1.880428,51.280454],[-1.880427,51.280389],[-1.880421,51.280331],[-1.88041,51.28028],[-1.880394,51.280236],[-1.880371,51.280199],[-1.880357,51.280155],[-1.88035,51.280105],[-1.880351,51.280049],[-1.880359,51.279985],[-1.880334,51.279953],[-1.880275,51.279951],[-1.880183,51.27998],[-1.880056,51.28004],[-1.879904,51.280088],[-1.879726,51.280125],[-1.879521,51.280149],[-1.879291,51.280163],[-1.8791,51.28018],[-1.878947,51.280203],[-1.878833,51.280229],[-1.878757,51.280261],[-1.87868,51.280282],[-1.878599,51.280294],[-1.878517,51.280297],[-1.878431,51.28029],[-1.878392,51.280272],[-1.878399,51.280243],[-1.878452,51.280202],[-1.878551,51.28015],[-1.878588,51.280099],[-1.878562,51.280048],[-1.878474,51.279998],[-1.878323,51.279948],[-1.878204,51.27993],[-1.878115,51.279945],[-1.878059,51.279991],[-1.878033,51.280069],[-1.877995,51.280144],[-1.877945,51.280216],[-1.877883,51.280284],[-1.877808,51.280349],[-1.877756,51.28038],[-1.877725,51.280376],[-1.877718,51.280339],[-1.877732,51.280267],[-1.877731,51.280208],[-1.877715,51.280161],[-1.877683,51.280127],[-1.877636,51.280106],[-1.877589,51.280111],[-1.877543,51.280142],[-1.877497,51.280198],[-1.877452,51.280281],[-1.877403,51.280347],[-1.877348,51.280396],[-1.87729,51.280427],[-1.877227,51.280441],[-1.877191,51.28044],[-1.877183,51.280424],[-1.877202,51.280393],[-1.877248,51.280347],[-1.87727,51.280298],[-1.877267,51.280248],[-1.87724,51.280195],[-1.877188,51.28014],[-1.87713,51.280099],[-1.877067,51.280072],[-1.876997,51.280058],[-1.876922,51.280058],[-1.876857,51.280077],[-1.876802,51.280115],[-1.876758,51.280173],[-1.876724,51.280249],[-1.876672,51.280307],[-1.876603,51.280347],[-1.876517,51.280368],[-1.876413,51.280371],[-1.876315,51.28037],[-1.876221,51.280363],[-1.876133,51.280353],[-1.87605,51.280338],[-1.876005,51.280313],[-1.875998,51.280279],[-1.876029,51.280235],[-1.876098,51.280181],[-1.876174,51.280118],[-1.876256,51.280047],[-1.876343,51.279968],[-1.876437,51.27988],[-1.876456,51.279815],[-1.876399,51.279774],[-1.876267,51.279757],[-1.87606,51.279762],[-1.875894,51.279758],[-1.875769,51.279743],[-1.875685,51.279719],[-1.875643,51.279684],[-1.875599,51.279651],[-1.875553,51.279619],[-1.875505,51.279589],[-1.875456,51.27956],[-1.875431,51.279531],[-1.87543,51.279502],[-1.875452,51.279474],[-1.875499,51.279446],[-1.875544,51.279416],[-1.875585,51.279384],[-1.875625,51.279351],[-1.875661,51.279316],[-1.875637,51.279295],[-1.875552,51.279288],[-1.875406,51.279295],[-1.875198,51.279316],[-1.875043,51.279353],[-1.87494,51.279405],[-1.874889,51.279473],[-1.87489,51.279557],[-1.874871,51.279611],[-1.874834,51.279635],[-1.874778,51.279631],[-1.874702,51.279597],[-1.874633,51.279586],[-1.874572,51.279599],[-1.874518,51.279635],[-1.874471,51.279695],[-1.874439,51.279752],[-1.874421,51.279805],[-1.874419,51.279857],[-1.874432,51.279905],[-1.874439,51.279948],[-1.874441,51.279987],[-1.874437,51.280022],[-1.874428,51.280051],[-1.874395,51.280059],[-1.874337,51.280045],[-1.874255,51.28001],[-1.874148,51.279953],[-1.874039,51.279925],[-1.873929,51.279925],[-1.873816,51.279952],[-1.873701,51.280008],[-1.87361,51.280039],[-1.873543,51.280045],[-1.873499,51.280025],[-1.873479,51.27998],[-1.87348,51.279937],[-1.873502,51.279894],[-1.873546,51.279852],[-1.87361,51.279812],[-1.873661,51.279768],[-1.873699,51.279721],[-1.873724,51.279671],[-1.873735,51.279618],[-1.873674,51.279581],[-1.873541,51.279559],[-1.873336,51.279553],[-1.873059,51.279564],[-1.872823,51.279578],[-1.872627,51.279597],[-1.872473,51.27962],[-1.872359,51.279647],[-1.872246,51.279667],[-1.872134,51.279678],[-1.872023,51.279682],[-1.871914,51.279677],[-1.871796,51.279682],[-1.87167,51.279696],[-1.871537,51.27972],[-1.871395,51.279753],[-1.871287,51.279791],[-1.871213,51.279833],[-1.871172,51.279881],[-1.871165,51.279934],[-1.871167,51.279986],[-1.871178,51.280037],[-1.871199,51.280087],[-1.871228,51.280136],[-1.87125,51.280183],[-1.871263,51.280227],[-1.871269,51.280269],[-1.871267,51.280308],[-1.871284,51.280347],[-1.871322,51.280387],[-1.871379,51.280426],[-1.871456,51.280465],[-1.871517,51.280486],[-1.871562,51.280491],[-1.871591,51.280478],[-1.871604,51.280448],[-1.871628,51.280424],[-1.871663,51.280406],[-1.871709,51.280394],[-1.871766,51.280389],[-1.871818,51.280394],[-1.871866,51.280409],[-1.87191,51.280436],[-1.871949,51.280474],[-1.871959,51.280513],[-1.87194,51.280552],[-1.871892,51.280593],[-1.871816,51.280635],[-1.87175,51.280683],[-1.871695,51.280739],[-1.871652,51.2808],[-1.87162,51.280869],[-1.871658,51.280933],[-1.871765,51.280994],[-1.871943,51.281051],[-1.872191,51.281103],[-1.872446,51.281154],[-1.872709,51.281201],[-1.872979,51.281245],[-1.873257,51.281287],[-1.873608,51.281324],[-1.874031,51.281354],[-1.874527,51.28138],[-1.875096,51.281399],[-1.875731,51.281425],[-1.876432,51.281458],[-1.8772,51.281496],[-1.878034,51.281541],[-1.878634,51.281588],[-1.879,51.281639],[-1.879132,51.281694],[-1.87903,51.281751],[-1.878945,51.28183],[-1.878875,51.281929],[-1.878821,51.28205],[-1.878783,51.282192],[-1.8788,51.282302],[-1.878872,51.282379],[-1.879,51.282424],[-1.879183,51.282437],[-1.879303,51.282466],[-1.879361,51.282512],[-1.879357,51.282575],[-1.87929,51.282655],[-1.87926,51.282732],[-1.879267,51.282805],[-1.87931,51.282876],[-1.87939,51.282943],[-1.879475,51.282974],[-1.879566,51.282967],[-1.879661,51.282923],[-1.879761,51.282843],[-1.879881,51.282762],[-1.880023,51.282683],[-1.880186,51.282603],[-1.88037,51.282524],[-1.880495,51.282451],[-1.880561,51.282383],[-1.880567,51.28232],[-1.880515,51.282263],[-1.880518,51.282224],[-1.880577,51.282202],[-1.880692,51.282198],[-1.880862,51.282212],[-1.88102,51.282247],[-1.881164,51.282302],[-1.881294,51.282379],[-1.881412,51.282476],[-1.881519,51.282541],[-1.881617,51.282572],[-1.881706,51.282571],[-1.881784,51.282537],[-1.881835,51.282496],[-1.881859,51.28245],[-1.881854,51.282397],[-1.881822,51.282337],[-1.88182,51.282286],[-1.881848,51.282243],[-1.881907,51.282207],[-1.881996,51.28218],[-1.882086,51.282167],[-1.882178,51.282168],[-1.882272,51.282183],[-1.882367,51.282212],[-1.882453,51.282229],[-1.882529,51.282233],[-1.882596,51.282224],[-1.882653,51.282202],[-1.882738,51.282137],[-1.882851,51.282028],[-1.882993,51.281874],[-1.883162,51.281677],[-1.883315,51.281528],[-1.883449,51.281428],[-1.883566,51.281377],[-1.883666,51.281375],[-1.883744,51.281394],[-1.8838,51.281433],[-1.883835,51.281494],[-1.883848,51.281576],[-1.883902,51.281633],[-1.883998,51.281665],[-1.884136,51.281672],[-1.884315,51.281654],[-1.884477,51.281653],[-1.884623,51.281669],[-1.884753,51.281702],[-1.884867,51.281753],[-1.884962,51.281803],[-1.88504,51.281853],[-1.8851,51.281901],[-1.885141,51.281949],[-1.885154,51.282003],[-1.885139,51.282064],[-1.885095,51.28213],[-1.885022,51.282203],[-1.884959,51.28227],[-1.884906,51.282331],[-1.884864,51.282387],[-1.884831,51.282437],[-1.884848,51.282486],[-1.884914,51.282532],[-1.88503,51.282577],[-1.885196,51.28262],[-1.88533,51.282645],[-1.885432,51.282653],[-1.885503,51.282643],[-1.885541,51.282616],[-1.885585,51.282598],[-1.885633,51.282591],[-1.885686,51.282593],[-1.885743,51.282606],[-1.88578,51.282628],[-1.885797,51.28266],[-1.885793,51.282702],[-1.885769,51.282754],[-1.885755,51.282805],[-1.885749,51.282855],[-1.885752,51.282904],[-1.885765,51.282953],[-1.885747,51.282986],[-1.885698,51.283006],[-1.885618,51.283011],[-1.885507,51.283001],[-1.885413,51.282982],[-1.885336,51.282952],[-1.885276,51.282912],[-1.885234,51.282861],[-1.885188,51.282825],[-1.885138,51.282803],[-1.885085,51.282794],[-1.885028,51.2828],[-1.884982,51.282815],[-1.884947,51.28284],[-1.884922,51.282874],[-1.884908,51.282917],[-1.884876,51.282948],[-1.884825,51.282968],[-1.884755,51.282976],[-1.884666,51.282972],[-1.884587,51.28298],[-1.884517,51.283],[-1.884456,51.283032],[-1.884405,51.283077],[-1.884407,51.28313],[-1.884461,51.283192],[-1.884567,51.283264],[-1.884726,51.283344],[-1.884846,51.283425],[-1.884928,51.283508],[-1.884972,51.283592],[-1.884978,51.283677],[-1.885018,51.283746],[-1.885092,51.283799],[-1.885201,51.283834],[-1.885343,51.283854],[-1.885474,51.283856],[-1.885594,51.283841],[-1.885701,51.283809],[-1.885797,51.28376],[-1.885877,51.28374],[-1.885942,51.283749],[-1.885992,51.283787],[-1.886026,51.283854],[-1.886128,51.283917],[-1.886298,51.283976],[-1.886536,51.284032],[-1.886842,51.284084],[-1.887163,51.284153],[-1.887499,51.28424],[-1.887849,51.284344],[-1.888215,51.284466],[-1.888537,51.284584],[-1.888816,51.284698],[-1.88905,51.28481],[-1.889241,51.284918],[-1.88942,51.285001],[-1.889585,51.285058],[-1.889737,51.28509],[-1.889877,51.285096],[-1.889964,51.285109],[-1.889998,51.285128],[-1.889979,51.285152],[-1.889908,51.285183],[-1.889845,51.28522],[-1.889789,51.285264],[-1.889742,51.285314],[-1.889702,51.28537],[-1.889707,51.285412],[-1.889756,51.285441],[-1.88985,51.285456],[-1.889988,51.285458],[-1.890084,51.28547],[-1.890138,51.285493],[-1.89015,51.285527],[-1.89012,51.285572],[-1.890089,51.285619],[-1.890056,51.28567],[-1.890022,51.285723],[-1.889987,51.285778],[-1.890014,51.28583],[-1.890104,51.285879],[-1.890256,51.285923],[-1.890471,51.285963],[-1.890634,51.285974],[-1.890744,51.285955],[-1.890801,51.285906],[-1.890805,51.285827],[-1.890841,51.285765],[-1.890909,51.285721],[-1.891008,51.285693],[-1.891139,51.285682],[-1.891244,51.285664],[-1.891323,51.285639],[-1.891376,51.285607],[-1.891403,51.285568],[-1.891444,51.285535],[-1.8915,51.285508],[-1.89157,51.285488],[-1.891654,51.285474],[-1.89172,51.285452],[-1.891769,51.285422],[-1.8918,51.285385],[-1.891813,51.285339],[-1.891863,51.285297],[-1.891951,51.285258],[-1.892076,51.285222],[-1.892239,51.28519],[-1.8924,51.28517],[-1.892559,51.285163],[-1.892716,51.285168],[-1.892871,51.285186],[-1.893005,51.285191],[-1.893117,51.285183],[-1.893209,51.285163],[-1.89328,51.285129],[-1.893343,51.285123],[-1.893398,51.285143],[-1.893446,51.28519],[-1.893486,51.285265],[-1.893505,51.285323],[-1.893501,51.285367],[-1.893476,51.285395],[-1.89343,51.285407],[-1.893399,51.285425],[-1.893384,51.285447],[-1.893385,51.285474],[-1.893401,51.285507],[-1.893391,51.285536],[-1.893354,51.285562],[-1.89329,51.285585],[-1.893199,51.285604],[-1.893098,51.285643],[-1.892985,51.2857],[-1.892862,51.285776],[-1.892729,51.28587],[-1.892635,51.285955],[-1.892581,51.28603],[-1.892568,51.286094],[-1.892595,51.286149],[-1.892593,51.286199],[-1.892563,51.286243],[-1.892505,51.286283],[-1.892418,51.286318],[-1.892323,51.286346],[-1.89222,51.286367],[-1.892109,51.286381],[-1.89199,51.286388],[-1.891904,51.286379],[-1.891851,51.286353],[-1.891831,51.286311],[-1.891845,51.286252],[-1.891838,51.286199],[-1.891809,51.286153],[-1.891759,51.286112],[-1.891687,51.286078],[-1.891605,51.286062],[-1.891514,51.286063],[-1.891413,51.286083],[-1.891301,51.28612],[-1.891247,51.286179],[-1.891249,51.286258],[-1.891307,51.286358],[-1.891423,51.286479],[-1.891558,51.28659],[-1.89148,51.286526],[-1.891066,51.286446],[-1.890997,51.286433],[-1.890578,51.286192],[-1.890224,51.286451],[-1.890222,51.286464],[-1.890138,51.286493],[-1.889941,51.286582],[-1.889707,51.286727],[-1.889396,51.286852],[-1.888698,51.287082],[-1.888487,51.287047],[-1.888555,51.286712],[-1.888489,51.286484],[-1.888223,51.286135],[-1.888077,51.285952],[-1.887908,51.285751],[-1.887684,51.285664],[-1.887183,51.285607],[-1.886742,51.285506],[-1.88592,51.285263],[-1.885615,51.284966],[-1.885524,51.28432],[-1.885355,51.284119],[-1.884938,51.284162],[-1.884772,51.284393],[-1.88469,51.285045],[-1.884663,51.285465],[-1.884667,51.286072],[-1.884493,51.28645],[-1.88397,51.286977],[-1.883615,51.287232],[-1.883075,51.28747],[-1.882731,51.287692],[-1.88224,51.288119],[-1.881956,51.28852],[-1.881595,51.289298],[-1.88152,51.289703],[-1.881653,51.290138],[-1.881816,51.290563],[-1.882171,51.291401],[-1.88247,51.291799],[-1.883011,51.292156],[-1.883375,51.292184],[-1.883925,51.291908],[-1.884218,51.291591],[-1.884547,51.290913],[-1.884902,51.290561],[-1.885639,51.290182],[-1.886095,51.289969],[-1.886727,51.28971],[-1.887233,51.289362],[-1.888117,51.288579],[-1.888567,51.288241],[-1.889032,51.288011],[-1.889589,51.288084],[-1.890795,51.28853],[-1.891448,51.288649],[-1.892203,51.288559],[-1.892521,51.288462],[-1.89272,51.288259],[-1.892846,51.288169],[-1.893023,51.288103]]]}}