{"type":"Feature","properties":{"id":"273896","COMMUNE":"Wiltshire","PROVINCE":"Wiltshire CC","COUNTRY":"UK","FIREDATE":"2025-07-03 17:52:46.932","FINALDATE":"2025-07-04 17:52:49.865","CLASS":"FireSeason","areaHA_geo":10.147},"geometry":{"type":"Polygon","coordinates":[[[-1.91454,51.272048],[-1.914483,51.272033],[-1.914412,51.27209],[-1.914356,51.272169],[-1.914341,51.272249],[-1.914321,51.27233],[-1.914298,51.272411],[-1.91427,51.272493],[-1.914237,51.272575],[-1.914204,51.272671],[-1.91417,51.272781],[-1.914135,51.272906],[-1.914099,51.273044],[-1.914063,51.273197],[-1.914026,51.273364],[-1.913988,51.273545],[-1.913949,51.27374],[-1.91389,51.273909],[-1.91381,51.274052],[-1.91371,51.274169],[-1.91359,51.27426],[-1.913504,51.274342],[-1.913451,51.274415],[-1.913432,51.274479],[-1.913446,51.274534],[-1.913483,51.274589],[-1.913543,51.274645],[-1.913625,51.274701],[-1.91373,51.274758],[-1.913838,51.274808],[-1.913948,51.274853],[-1.914062,51.274892],[-1.914179,51.274925],[-1.914256,51.274996],[-1.914293,51.275104],[-1.914291,51.275251],[-1.914249,51.275435],[-1.91423,51.2756],[-1.914232,51.275746],[-1.914256,51.275872],[-1.914302,51.27598],[-1.914328,51.276079],[-1.914334,51.276168],[-1.914319,51.276248],[-1.914283,51.276319],[-1.914279,51.276386],[-1.914762,51.276421],[-1.915538,51.276285],[-1.916141,51.276192],[-1.916572,51.276142],[-1.916828,51.276136],[-1.916912,51.276174],[-1.916999,51.276177],[-1.91709,51.276148],[-1.917184,51.276084],[-1.917282,51.275987],[-1.917341,51.275886],[-1.917363,51.275781],[-1.917347,51.275673],[-1.917293,51.27556],[-1.917279,51.27547],[-1.917306,51.2754],[-1.917373,51.275352],[-1.917481,51.275326],[-1.917557,51.275286],[-1.917601,51.275233],[-1.917612,51.275166],[-1.917591,51.275086],[-1.917596,51.275013],[-1.917628,51.274946],[-1.917686,51.274885],[-1.91777,51.27483],[-1.917844,51.274802],[-1.917909,51.2748],[-1.917965,51.274825],[-1.918012,51.274877],[-1.918078,51.274912],[-1.918165,51.274931],[-1.918273,51.274934],[-1.918401,51.274921],[-1.918483,51.274883],[-1.91852,51.27482],[-1.918511,51.274733],[-1.918457,51.27462],[-1.918438,51.27453],[-1.918453,51.274462],[-1.918502,51.274416],[-1.918586,51.274392],[-1.918653,51.274344],[-1.918704,51.274272],[-1.918739,51.274176],[-1.918756,51.274057],[-1.918739,51.27395],[-1.918685,51.273855],[-1.918596,51.273773],[-1.918471,51.273704],[-1.918324,51.273636],[-1.918155,51.273569],[-1.917963,51.273503],[-1.917749,51.273438],[-1.917533,51.27338],[-1.917314,51.273328],[-1.917093,51.273283],[-1.91687,51.273244],[-1.916684,51.273231],[-1.916535,51.273244],[-1.916424,51.273283],[-1.916351,51.273347],[-1.916269,51.273377],[-1.916177,51.273373],[-1.916077,51.273336],[-1.915969,51.273266],[-1.915862,51.273205],[-1.915759,51.273154],[-1.915658,51.273113],[-1.91556,51.273082],[-1.915508,51.273044],[-1.915505,51.272998],[-1.915548,51.272945],[-1.915639,51.272884],[-1.915658,51.272826],[-1.915607,51.27277],[-1.915484,51.272716],[-1.91529,51.272664],[-1.915147,51.272605],[-1.915056,51.272537],[-1.915015,51.272462],[-1.915026,51.272379],[-1.915007,51.272304],[-1.914956,51.272237],[-1.914876,51.272179],[-1.914764,51.272129],[-1.914652,51.272086],[-1.91454,51.272048]]]}}