{"type":"Feature","properties":{"id":"273886","COMMUNE":"Wiltshire","PROVINCE":"Wiltshire CC","COUNTRY":"UK","FIREDATE":"2025-03-08 13:31:00","FINALDATE":"2025-03-09 13:40:00","CLASS":"FireSeason","areaHA_geo":301.751},"geometry":{"type":"Polygon","coordinates":[[[-1.92732,51.296692],[-1.927523,51.29671],[-1.927747,51.296774],[-1.927992,51.296884],[-1.928186,51.29692],[-1.928329,51.296883],[-1.928421,51.296772],[-1.928463,51.296588],[-1.928529,51.29646],[-1.928618,51.296389],[-1.928731,51.296374],[-1.928868,51.296417],[-1.92898,51.296413],[-1.929066,51.296365],[-1.929127,51.296272],[-1.929163,51.296133],[-1.929333,51.295958],[-1.929638,51.295747],[-1.930077,51.295499],[-1.93065,51.295215],[-1.931095,51.294973],[-1.931412,51.294771],[-1.931599,51.294611],[-1.931658,51.294493],[-1.931746,51.294399],[-1.931863,51.294331],[-1.932009,51.294288],[-1.932185,51.29427],[-1.932309,51.294296],[-1.932382,51.294368],[-1.932403,51.294483],[-1.932373,51.294644],[-1.932429,51.29477],[-1.93257,51.294862],[-1.932797,51.294921],[-1.933109,51.294945],[-1.933337,51.294935],[-1.933478,51.294892],[-1.933535,51.294816],[-1.933506,51.294707],[-1.933511,51.294622],[-1.933549,51.294562],[-1.933621,51.294526],[-1.933726,51.294516],[-1.933925,51.294486],[-1.934219,51.294439],[-1.934607,51.294374],[-1.935089,51.29429],[-1.935486,51.294258],[-1.935797,51.294276],[-1.936022,51.294346],[-1.936162,51.294466],[-1.936318,51.29458],[-1.93649,51.294685],[-1.936678,51.294784],[-1.936882,51.294875],[-1.937028,51.294919],[-1.937118,51.294916],[-1.937149,51.294865],[-1.937123,51.294766],[-1.937091,51.294677],[-1.937052,51.294597],[-1.937006,51.294525],[-1.936954,51.294463],[-1.936911,51.294403],[-1.936877,51.294345],[-1.936853,51.294288],[-1.936839,51.294233],[-1.93684,51.294152],[-1.936857,51.294043],[-1.936889,51.293908],[-1.936936,51.293746],[-1.93697,51.293618],[-1.936991,51.293526],[-1.936998,51.293469],[-1.936993,51.293447],[-1.93702,51.293397],[-1.93708,51.293318],[-1.937173,51.29321],[-1.937299,51.293073],[-1.937395,51.292925],[-1.937462,51.292767],[-1.937498,51.292597],[-1.937505,51.292416],[-1.937524,51.292251],[-1.937557,51.292102],[-1.937603,51.291968],[-1.937662,51.291849],[-1.937623,51.291752],[-1.937486,51.291676],[-1.937251,51.291622],[-1.936918,51.291589],[-1.936667,51.291542],[-1.936498,51.291481],[-1.93641,51.291405],[-1.936405,51.291316],[-1.936464,51.291217],[-1.936589,51.291109],[-1.936779,51.290991],[-1.937033,51.290863],[-1.937247,51.290768],[-1.937419,51.290705],[-1.937551,51.290675],[-1.937641,51.290677],[-1.937725,51.290671],[-1.937803,51.290657],[-1.937874,51.290636],[-1.937938,51.290607],[-1.938,51.290536],[-1.938061,51.290423],[-1.938119,51.290268],[-1.938175,51.290071],[-1.938245,51.289909],[-1.938329,51.289782],[-1.938426,51.289691],[-1.938538,51.289634],[-1.938656,51.289571],[-1.938782,51.289502],[-1.938915,51.289426],[-1.939056,51.289345],[-1.939222,51.289277],[-1.939415,51.289223],[-1.939634,51.289184],[-1.93988,51.289158],[-1.940075,51.289183],[-1.940221,51.289258],[-1.940317,51.289383],[-1.940363,51.289558],[-1.940445,51.289631],[-1.940564,51.289602],[-1.940718,51.289471],[-1.940909,51.289237],[-1.941107,51.289031],[-1.941312,51.288853],[-1.941524,51.288702],[-1.941744,51.288578],[-1.941941,51.288437],[-1.942115,51.288278],[-1.942267,51.288102],[-1.942396,51.287909],[-1.942405,51.28777],[-1.942293,51.287686],[-1.94206,51.287657],[-1.941706,51.287682],[-1.941504,51.28765],[-1.941453,51.287559],[-1.941554,51.287411],[-1.941806,51.287205],[-1.942137,51.287008],[-1.942546,51.28682],[-1.943035,51.28664],[-1.943602,51.286469],[-1.944026,51.286372],[-1.944308,51.286348],[-1.944447,51.286398],[-1.944444,51.286522],[-1.944452,51.286673],[-1.944472,51.286851],[-1.944503,51.287056],[-1.944546,51.287288],[-1.944617,51.287522],[-1.944715,51.287759],[-1.944842,51.287999],[-1.944995,51.288242],[-1.945147,51.28844],[-1.945295,51.288593],[-1.945441,51.288702],[-1.945583,51.288766],[-1.945673,51.288866],[-1.945709,51.289003],[-1.945691,51.289176],[-1.945621,51.289386],[-1.945485,51.289554],[-1.945284,51.289682],[-1.945019,51.289768],[-1.944689,51.289814],[-1.944446,51.289867],[-1.944291,51.289928],[-1.944224,51.289997],[-1.944244,51.290073],[-1.944333,51.290137],[-1.94449,51.290188],[-1.944716,51.290227],[-1.945011,51.290253],[-1.945266,51.290296],[-1.94548,51.290359],[-1.945655,51.290439],[-1.945789,51.290538],[-1.945991,51.290638],[-1.94626,51.290739],[-1.946598,51.290842],[-1.947004,51.290946],[-1.947387,51.291016],[-1.947747,51.291052],[-1.948085,51.291053],[-1.948401,51.291021],[-1.948515,51.290925],[-1.948428,51.290765],[-1.94814,51.290542],[-1.94765,51.290255],[-1.947347,51.290028],[-1.947231,51.28986],[-1.947301,51.289752],[-1.947559,51.289703],[-1.947773,51.28963],[-1.947946,51.289533],[-1.948077,51.289413],[-1.948165,51.289269],[-1.948231,51.28911],[-1.948275,51.288937],[-1.948298,51.288749],[-1.948299,51.288547],[-1.948275,51.288355],[-1.948228,51.288175],[-1.948156,51.288005],[-1.94806,51.287846],[-1.948093,51.287781],[-1.948253,51.287809],[-1.948542,51.287931],[-1.948959,51.288147],[-1.949306,51.288288],[-1.949585,51.288355],[-1.949795,51.288347],[-1.949935,51.288265],[-1.950011,51.288176],[-1.950021,51.288079],[-1.949967,51.287975],[-1.949848,51.287864],[-1.949665,51.287753],[-1.94942,51.287644],[-1.949113,51.287535],[-1.948742,51.287427],[-1.948475,51.28732],[-1.948312,51.287213],[-1.948253,51.287107],[-1.948297,51.287001],[-1.948386,51.286913],[-1.948521,51.286843],[-1.948701,51.286791],[-1.948926,51.286756],[-1.949108,51.286746],[-1.949246,51.28676],[-1.949342,51.286798],[-1.949394,51.28686],[-1.949468,51.286902],[-1.949565,51.286926],[-1.949683,51.286931],[-1.949823,51.286916],[-1.949918,51.28685],[-1.949968,51.286733],[-1.949973,51.286564],[-1.949933,51.286343],[-1.949946,51.286167],[-1.95001,51.286037],[-1.950127,51.285952],[-1.950297,51.285912],[-1.950447,51.285848],[-1.950577,51.285762],[-1.950688,51.285652],[-1.950779,51.285519],[-1.950873,51.285414],[-1.950969,51.285336],[-1.951069,51.285287],[-1.951171,51.285265],[-1.951274,51.285212],[-1.951378,51.285128],[-1.951483,51.285013],[-1.951588,51.284868],[-1.951777,51.284677],[-1.952048,51.284441],[-1.952401,51.28416],[-1.952838,51.283833],[-1.953245,51.283516],[-1.953622,51.283207],[-1.953971,51.282907],[-1.95429,51.282615],[-1.954523,51.282372],[-1.95467,51.282177],[-1.95473,51.28203],[-1.954704,51.281931],[-1.954791,51.281799],[-1.95499,51.281632],[-1.955302,51.281431],[-1.955726,51.281196],[-1.956104,51.281025],[-1.956436,51.280917],[-1.956721,51.280874],[-1.956961,51.280894],[-1.957149,51.280925],[-1.957286,51.280967],[-1.957372,51.28102],[-1.957407,51.281084],[-1.957499,51.281159],[-1.957647,51.281245],[-1.957853,51.281341],[-1.958115,51.281449],[-1.958342,51.28144],[-1.958534,51.281313],[-1.95869,51.281069],[-1.958811,51.280708],[-1.958787,51.280393],[-1.958617,51.280124],[-1.958301,51.279901],[-1.957841,51.279724],[-1.95746,51.279541],[-1.957158,51.279353],[-1.956936,51.27916],[-1.956794,51.278961],[-1.956612,51.2788],[-1.95639,51.278676],[-1.956129,51.278591],[-1.955829,51.278543],[-1.955563,51.278509],[-1.955333,51.278488],[-1.955137,51.27848],[-1.954976,51.278485],[-1.954749,51.278458],[-1.954454,51.278399],[-1.954092,51.278307],[-1.953664,51.278183],[-1.953322,51.278064],[-1.953067,51.277949],[-1.952898,51.27784],[-1.952817,51.277736],[-1.952729,51.277658],[-1.952634,51.277606],[-1.952533,51.27758],[-1.952425,51.27758],[-1.952359,51.277503],[-1.952337,51.277348],[-1.952356,51.277115],[-1.952419,51.276805],[-1.952508,51.276529],[-1.952624,51.276286],[-1.952767,51.276077],[-1.952937,51.275903],[-1.952995,51.275779],[-1.952939,51.275706],[-1.952772,51.275684],[-1.952491,51.275713],[-1.95227,51.275693],[-1.952108,51.275626],[-1.952006,51.27551],[-1.951963,51.275346],[-1.952014,51.275234],[-1.95216,51.275173],[-1.952401,51.275165],[-1.952737,51.275209],[-1.952976,51.275196],[-1.95312,51.275125],[-1.953167,51.274996],[-1.953118,51.27481],[-1.953164,51.274662],[-1.953306,51.274552],[-1.953544,51.274479],[-1.953877,51.274445],[-1.954142,51.274429],[-1.954341,51.274431],[-1.954472,51.274451],[-1.954536,51.274489],[-1.954598,51.274502],[-1.954658,51.274491],[-1.954716,51.274454],[-1.954772,51.274392],[-1.954823,51.27433],[-1.95487,51.274269],[-1.954913,51.274209],[-1.954951,51.274148],[-1.95516,51.274073],[-1.955542,51.273983],[-1.956095,51.273878],[-1.956819,51.273758],[-1.957317,51.273634],[-1.957589,51.273504],[-1.957635,51.27337],[-1.957454,51.273232],[-1.957201,51.27314],[-1.956874,51.273095],[-1.956474,51.273097],[-1.956001,51.273146],[-1.955564,51.27323],[-1.955164,51.273351],[-1.9548,51.273506],[-1.954472,51.273698],[-1.954207,51.273818],[-1.954004,51.273867],[-1.953863,51.273845],[-1.953784,51.273752],[-1.953681,51.273667],[-1.953553,51.27359],[-1.9534,51.273522],[-1.953222,51.273462],[-1.953119,51.273379],[-1.953092,51.273275],[-1.95314,51.27315],[-1.953263,51.273002],[-1.953507,51.27287],[-1.953873,51.272753],[-1.954359,51.272652],[-1.954966,51.272567],[-1.955249,51.272479],[-1.955207,51.272388],[-1.95484,51.272293],[-1.954149,51.272196],[-1.953622,51.27206],[-1.953261,51.271883],[-1.953065,51.271668],[-1.953034,51.271412],[-1.952905,51.271215],[-1.952679,51.271075],[-1.952356,51.270993],[-1.951936,51.270969],[-1.951612,51.270969],[-1.951384,51.270993],[-1.951253,51.27104],[-1.951217,51.271111],[-1.951139,51.271156],[-1.951018,51.271174],[-1.950854,51.271166],[-1.950647,51.271131],[-1.950417,51.271166],[-1.950166,51.271271],[-1.949892,51.271445],[-1.949597,51.271689],[-1.949375,51.271906],[-1.949227,51.272096],[-1.949152,51.272258],[-1.949152,51.272393],[-1.949101,51.272541],[-1.949,51.272704],[-1.948848,51.27288],[-1.948646,51.273069],[-1.948568,51.273288],[-1.948616,51.273536],[-1.948787,51.273813],[-1.949084,51.27412],[-1.949253,51.274367],[-1.949293,51.274554],[-1.949205,51.274681],[-1.948988,51.274748],[-1.948789,51.274828],[-1.948606,51.27492],[-1.94844,51.275024],[-1.948291,51.275141],[-1.94813,51.275233],[-1.947959,51.275302],[-1.947778,51.275346],[-1.947585,51.275366],[-1.947417,51.275394],[-1.947274,51.275431],[-1.947155,51.275477],[-1.947062,51.275532],[-1.946933,51.27559],[-1.946769,51.275652],[-1.94657,51.275718],[-1.946337,51.275787],[-1.946057,51.275802],[-1.945732,51.275762],[-1.94536,51.275669],[-1.944943,51.275521],[-1.94457,51.275385],[-1.944241,51.275262],[-1.943955,51.275151],[-1.943713,51.275052],[-1.943513,51.274957],[-1.943354,51.274867],[-1.943237,51.274781],[-1.943161,51.274699],[-1.943044,51.274612],[-1.942885,51.274522],[-1.942685,51.274427],[-1.942443,51.274329],[-1.942269,51.274215],[-1.942163,51.274085],[-1.942125,51.27394],[-1.942155,51.27378],[-1.942183,51.27363],[-1.94221,51.273493],[-1.942235,51.273367],[-1.942259,51.273252],[-1.942329,51.273211],[-1.942446,51.273244],[-1.942609,51.27335],[-1.942818,51.273531],[-1.942987,51.273623],[-1.943114,51.273627],[-1.943199,51.273542],[-1.943244,51.273369],[-1.943319,51.273176],[-1.943425,51.272962],[-1.943561,51.272729],[-1.943729,51.272476],[-1.943918,51.272288],[-1.944128,51.272165],[-1.944361,51.272107],[-1.944615,51.272114],[-1.944789,51.272057],[-1.944882,51.271935],[-1.944896,51.271748],[-1.94483,51.271496],[-1.944834,51.271324],[-1.944909,51.271232],[-1.945054,51.27122],[-1.94527,51.271288],[-1.945403,51.27128],[-1.945453,51.271196],[-1.94542,51.271036],[-1.945304,51.270801],[-1.94539,51.270595],[-1.945676,51.270419],[-1.946164,51.270273],[-1.946854,51.270157],[-1.947412,51.270038],[-1.947838,51.269915],[-1.948134,51.269789],[-1.948298,51.269659],[-1.948388,51.26954],[-1.948404,51.269432],[-1.948347,51.269334],[-1.948216,51.269246],[-1.948114,51.26913],[-1.94804,51.268986],[-1.947994,51.268814],[-1.947978,51.268613],[-1.947957,51.268382],[-1.947933,51.26812],[-1.947906,51.267828],[-1.947875,51.267505],[-1.947813,51.267287],[-1.94772,51.267173],[-1.947596,51.267163],[-1.947441,51.267258],[-1.947292,51.267256],[-1.947149,51.267158],[-1.947013,51.266965],[-1.946883,51.266675],[-1.946751,51.26643],[-1.946617,51.26623],[-1.946482,51.266075],[-1.946345,51.265966],[-1.946185,51.265783],[-1.946,51.265526],[-1.945792,51.265196],[-1.94556,51.264793],[-1.94533,51.264483],[-1.945102,51.264264],[-1.944875,51.264139],[-1.944651,51.264106],[-1.944457,51.26414],[-1.944295,51.264241],[-1.944164,51.264409],[-1.944063,51.264644],[-1.943877,51.264824],[-1.943603,51.264948],[-1.943243,51.265016],[-1.942797,51.265028],[-1.942412,51.26502],[-1.94209,51.264992],[-1.941829,51.264943],[-1.941631,51.264873],[-1.941442,51.264803],[-1.941261,51.264732],[-1.941089,51.26466],[-1.940926,51.264587],[-1.940854,51.264518],[-1.940873,51.264454],[-1.940983,51.264395],[-1.941185,51.264341],[-1.941341,51.264198],[-1.941451,51.263967],[-1.941516,51.263649],[-1.941535,51.263242],[-1.941521,51.263018],[-1.941475,51.262978],[-1.941396,51.263121],[-1.941283,51.263448],[-1.941177,51.263692],[-1.941075,51.263854],[-1.940979,51.263935],[-1.940889,51.263933],[-1.940819,51.263906],[-1.94077,51.263855],[-1.940741,51.263779],[-1.940732,51.263679],[-1.940682,51.263572],[-1.940589,51.263458],[-1.940453,51.263337],[-1.940276,51.263209],[-1.940114,51.263122],[-1.939966,51.263075],[-1.939834,51.263069],[-1.939717,51.263104],[-1.939595,51.2631],[-1.939467,51.263057],[-1.939333,51.262975],[-1.939193,51.262854],[-1.939018,51.262771],[-1.938808,51.262726],[-1.938563,51.262717],[-1.938513,51.262722],[-1.938283,51.262746],[-1.938041,51.262785],[-1.937838,51.262834],[-1.937674,51.262893],[-1.937548,51.262963],[-1.937511,51.263045],[-1.937563,51.263141],[-1.937704,51.26325],[-1.937934,51.263372],[-1.938029,51.263559],[-1.937987,51.263811],[-1.937809,51.264127],[-1.937495,51.264508],[-1.937205,51.264791],[-1.936939,51.264976],[-1.936696,51.265063],[-1.936477,51.265052],[-1.936269,51.265048],[-1.936072,51.265052],[-1.935886,51.265062],[-1.935711,51.26508],[-1.935564,51.265121],[-1.935446,51.265184],[-1.935355,51.265269],[-1.935294,51.265377],[-1.935291,51.26547],[-1.935348,51.265548],[-1.935464,51.265612],[-1.935638,51.265661],[-1.935788,51.265786],[-1.935913,51.265987],[-1.936013,51.266263],[-1.936087,51.266616],[-1.936254,51.26684],[-1.936513,51.266937],[-1.936865,51.266906],[-1.93731,51.266748],[-1.937702,51.266631],[-1.938042,51.266557],[-1.938331,51.266524],[-1.938567,51.266534],[-1.938775,51.266504],[-1.938955,51.266434],[-1.939106,51.266326],[-1.93923,51.266178],[-1.939407,51.26605],[-1.93964,51.265942],[-1.939927,51.265853],[-1.940269,51.265784],[-1.940563,51.265703],[-1.940808,51.265611],[-1.941005,51.265506],[-1.941155,51.265389],[-1.94126,51.265395],[-1.941321,51.265524],[-1.941337,51.265775],[-1.94131,51.266149],[-1.94131,51.266492],[-1.941338,51.266804],[-1.941393,51.267085],[-1.941477,51.267335],[-1.941509,51.267525],[-1.94149,51.267656],[-1.941419,51.267728],[-1.941296,51.267741],[-1.941156,51.267826],[-1.941,51.267983],[-1.940826,51.268211],[-1.940635,51.268512],[-1.940387,51.268836],[-1.940082,51.269182],[-1.93972,51.269551],[-1.939301,51.269943],[-1.938782,51.270297],[-1.938164,51.270614],[-1.937445,51.270893],[-1.936627,51.271135],[-1.936055,51.271355],[-1.935728,51.271551],[-1.935648,51.271726],[-1.935814,51.271877],[-1.935903,51.272028],[-1.935916,51.272179],[-1.935851,51.272328],[-1.935711,51.272478],[-1.935652,51.272613],[-1.935675,51.272735],[-1.935779,51.272842],[-1.935966,51.272935],[-1.936072,51.273031],[-1.936098,51.273129],[-1.936044,51.273231],[-1.935909,51.273334],[-1.935842,51.273423],[-1.935843,51.273496],[-1.935912,51.273553],[-1.936049,51.273595],[-1.936158,51.273702],[-1.93624,51.273874],[-1.936293,51.27411],[-1.936318,51.274411],[-1.936468,51.274707],[-1.936742,51.274999],[-1.937142,51.275287],[-1.937666,51.27557],[-1.938095,51.275815],[-1.938429,51.276022],[-1.938667,51.276192],[-1.938809,51.276323],[-1.938808,51.276472],[-1.938663,51.276639],[-1.938374,51.276823],[-1.937941,51.277026],[-1.937546,51.277235],[-1.937189,51.277452],[-1.93687,51.277676],[-1.936589,51.277907],[-1.936422,51.278076],[-1.936369,51.278183],[-1.93643,51.278227],[-1.936605,51.278209],[-1.936698,51.278256],[-1.936709,51.278367],[-1.936639,51.278543],[-1.936486,51.278784],[-1.93633,51.279013],[-1.936172,51.279232],[-1.93601,51.27944],[-1.935846,51.279637],[-1.935785,51.279868],[-1.935828,51.280133],[-1.935974,51.280433],[-1.936224,51.280767],[-1.936493,51.281054],[-1.936781,51.281294],[-1.937089,51.281487],[-1.937415,51.281633],[-1.93765,51.281772],[-1.937792,51.281903],[-1.937843,51.282027],[-1.937801,51.282144],[-1.937802,51.282318],[-1.937845,51.28255],[-1.93793,51.282839],[-1.938057,51.283186],[-1.938139,51.283495],[-1.938174,51.283767],[-1.938164,51.284001],[-1.938107,51.284198],[-1.938036,51.284405],[-1.937949,51.284622],[-1.937846,51.284849],[-1.937729,51.285086],[-1.937577,51.285312],[-1.93739,51.285528],[-1.93717,51.285734],[-1.936915,51.285929],[-1.936578,51.286152],[-1.936158,51.286403],[-1.935655,51.286683],[-1.93507,51.286991],[-1.934522,51.287219],[-1.934012,51.287367],[-1.933539,51.287435],[-1.933104,51.287424],[-1.932823,51.28745],[-1.932696,51.287514],[-1.932722,51.287615],[-1.932903,51.287754],[-1.932972,51.287865],[-1.932931,51.287948],[-1.932779,51.288003],[-1.932516,51.28803],[-1.932219,51.288097],[-1.931887,51.288205],[-1.931521,51.288352],[-1.93112,51.288539],[-1.930861,51.288687],[-1.930746,51.288794],[-1.930772,51.288862],[-1.930942,51.288889],[-1.930862,51.289033],[-1.930534,51.289291],[-1.929957,51.289666],[-1.929132,51.290156],[-1.928509,51.290563],[-1.92809,51.290887],[-1.927875,51.291128],[-1.927863,51.291287],[-1.92783,51.291439],[-1.927779,51.291585],[-1.927707,51.291725],[-1.927616,51.291858],[-1.927587,51.291968],[-1.927618,51.292054],[-1.927712,51.292118],[-1.927866,51.292158],[-1.92795,51.29229],[-1.927964,51.292513],[-1.927907,51.292828],[-1.92778,51.293235],[-1.927756,51.293521],[-1.927836,51.293687],[-1.928019,51.293733],[-1.928306,51.293658],[-1.928484,51.293654],[-1.928556,51.29372],[-1.928519,51.293856],[-1.928375,51.294062],[-1.928213,51.294267],[-1.928033,51.294471],[-1.927834,51.294674],[-1.927617,51.294876],[-1.927465,51.295052],[-1.927379,51.295202],[-1.927357,51.295325],[-1.9274,51.295421],[-1.927392,51.295526],[-1.927331,51.295639],[-1.927219,51.29576],[-1.927055,51.29589],[-1.926928,51.296038],[-1.926836,51.296205],[-1.926782,51.29639],[-1.926763,51.296594],[-1.92679,51.296729],[-1.926861,51.296795],[-1.926977,51.296792],[-1.927138,51.296719],[-1.92732,51.296692]]]}}