{"type":"Feature","properties":{"id":"273889","COMMUNE":"Wiltshire","PROVINCE":"Wiltshire CC","COUNTRY":"UK","FIREDATE":"2025-06-19 12:08:00","FINALDATE":"2025-06-19 13:25:00","CLASS":"FireSeason","areaHA_geo":80.316},"geometry":{"type":"Polygon","coordinates":[[[-1.927894,51.261797],[-1.928142,51.262143],[-1.928427,51.262355],[-1.928789,51.262527],[-1.92905,51.262366],[-1.930009,51.261836],[-1.930496,51.261576],[-1.930996,51.261328],[-1.931372,51.261204],[-1.931485,51.261182],[-1.931535,51.261023],[-1.931542,51.260689],[-1.931638,51.260457],[-1.931919,51.260096],[-1.932202,51.260021],[-1.932771,51.260158],[-1.932992,51.260285],[-1.933088,51.26053],[-1.932992,51.260605],[-1.932611,51.260585],[-1.932614,51.260716],[-1.933004,51.261126],[-1.933232,51.261278],[-1.933527,51.261326],[-1.933806,51.261317],[-1.934351,51.261241],[-1.934658,51.261138],[-1.935035,51.260903],[-1.935122,51.260718],[-1.935006,51.260397],[-1.934944,51.260201],[-1.934916,51.260091],[-1.935997,51.260229],[-1.937029,51.260201],[-1.937673,51.260135],[-1.93837,51.259787],[-1.938967,51.259903],[-1.939232,51.26019],[-1.939144,51.260573],[-1.938994,51.260845],[-1.939653,51.260954],[-1.93977,51.261158],[-1.940131,51.261574],[-1.940867,51.261616],[-1.94119,51.261405],[-1.94163,51.261163],[-1.942413,51.260905],[-1.942646,51.260349],[-1.942694,51.259813],[-1.942966,51.259292],[-1.943622,51.259028],[-1.944205,51.258967],[-1.944379,51.258792],[-1.944318,51.25868],[-1.944191,51.258437],[-1.944509,51.258089],[-1.944036,51.257607],[-1.943722,51.257488],[-1.943844,51.257115],[-1.944168,51.25655],[-1.944143,51.256217],[-1.94392,51.255847],[-1.943307,51.255674],[-1.943217,51.255329],[-1.942631,51.254897],[-1.941115,51.254404],[-1.940359,51.254286],[-1.939602,51.254521],[-1.938778,51.254744],[-1.938369,51.254747],[-1.938871,51.25438],[-1.93942,51.254068],[-1.938915,51.253706],[-1.93844,51.253578],[-1.938062,51.253578],[-1.937076,51.25366],[-1.936753,51.253753],[-1.93656,51.253615],[-1.937021,51.253213],[-1.937129,51.253025],[-1.936819,51.252683],[-1.936498,51.252302],[-1.93603,51.251957],[-1.935361,51.25181],[-1.935233,51.251921],[-1.935231,51.252276],[-1.935174,51.25242],[-1.934449,51.252298],[-1.933545,51.252332],[-1.933396,51.252367],[-1.932976,51.252568],[-1.933068,51.252677],[-1.933368,51.25298],[-1.933336,51.253338],[-1.933048,51.253801],[-1.932639,51.253922],[-1.932249,51.253771],[-1.93216,51.253572],[-1.932285,51.253342],[-1.932289,51.253182],[-1.932079,51.253088],[-1.931576,51.253111],[-1.930907,51.253122],[-1.93068,51.253319],[-1.930247,51.253523],[-1.929777,51.253586],[-1.929187,51.253633],[-1.928766,51.253705],[-1.92842,51.253799],[-1.928355,51.254081],[-1.928418,51.254233],[-1.927685,51.254266],[-1.927718,51.25448],[-1.928687,51.25464],[-1.929295,51.254751],[-1.929704,51.254897],[-1.930252,51.255043],[-1.930433,51.255024],[-1.930658,51.255175],[-1.931018,51.255398],[-1.931315,51.255468],[-1.931397,51.255519],[-1.931517,51.255622],[-1.931956,51.255794],[-1.932105,51.255923],[-1.932022,51.256048],[-1.931973,51.256125],[-1.932368,51.256128],[-1.932871,51.256105],[-1.933153,51.256119],[-1.933492,51.256149],[-1.933297,51.256265],[-1.933404,51.256274],[-1.933531,51.256304],[-1.933576,51.256347],[-1.933584,51.256386],[-1.933555,51.25642],[-1.93349,51.256451],[-1.933387,51.256477],[-1.933347,51.256507],[-1.933369,51.256542],[-1.933452,51.256581],[-1.933598,51.256623],[-1.933622,51.256648],[-1.933523,51.256656],[-1.933301,51.256646],[-1.932958,51.256619],[-1.932653,51.256596],[-1.932651,51.256596],[-1.93213,51.256804],[-1.931825,51.256914],[-1.931504,51.257006],[-1.931402,51.257095],[-1.931417,51.257269],[-1.931482,51.257439],[-1.931664,51.257772],[-1.931724,51.258001],[-1.931722,51.258354],[-1.931537,51.258523],[-1.930982,51.258678],[-1.930455,51.258778],[-1.929428,51.258924],[-1.928811,51.258922],[-1.927988,51.258772],[-1.927338,51.258722],[-1.926209,51.258721],[-1.925799,51.258867],[-1.925695,51.259309],[-1.925603,51.259593],[-1.925556,51.259703],[-1.925743,51.2597],[-1.92645,51.259882],[-1.926769,51.260058],[-1.927017,51.260405],[-1.927218,51.260574],[-1.927574,51.260733],[-1.927852,51.260875],[-1.92833,51.261139],[-1.928427,51.261312],[-1.928243,51.261567],[-1.928081,51.261668],[-1.927796,51.261716],[-1.927894,51.261797]]]}}