{"type":"Feature","properties":{"id":"273884","COMMUNE":"Wiltshire","PROVINCE":"Wiltshire CC","COUNTRY":"UK","FIREDATE":"2025-05-16 00:00:00","FINALDATE":"2025-05-16 00:00:00","CLASS":"FireSeason","areaHA_geo":21.431},"geometry":{"type":"Polygon","coordinates":[[[-1.927313,51.292915],[-1.927399,51.29269],[-1.927398,51.292647],[-1.927938,51.292656],[-1.927964,51.292513],[-1.92795,51.29229],[-1.927866,51.292158],[-1.927712,51.292118],[-1.927618,51.292054],[-1.927587,51.291968],[-1.927616,51.291858],[-1.927707,51.291725],[-1.927779,51.291585],[-1.92783,51.291439],[-1.927863,51.291287],[-1.927875,51.291128],[-1.92809,51.290887],[-1.928509,51.290563],[-1.929132,51.290156],[-1.929957,51.289666],[-1.930534,51.289291],[-1.930682,51.289175],[-1.930743,51.288939],[-1.930041,51.288831],[-1.929966,51.288871],[-1.929953,51.288864],[-1.929527,51.28889],[-1.929168,51.289023],[-1.928515,51.289397],[-1.928056,51.289516],[-1.92733,51.289501],[-1.926842,51.289546],[-1.926101,51.289694],[-1.925639,51.289874],[-1.924991,51.290265],[-1.924222,51.290453],[-1.922564,51.290624],[-1.921721,51.290711],[-1.92085,51.290801],[-1.920658,51.291097],[-1.920955,51.291895],[-1.920922,51.292283],[-1.920527,51.292648],[-1.920386,51.292843],[-1.920357,51.293062],[-1.920634,51.293166],[-1.921495,51.293257],[-1.922073,51.293222],[-1.922945,51.293024],[-1.923442,51.293014],[-1.924064,51.293184],[-1.924259,51.293302],[-1.924221,51.293487],[-1.924078,51.29364],[-1.923688,51.293914],[-1.923685,51.294269],[-1.924066,51.295059],[-1.924454,51.295253],[-1.925237,51.295046],[-1.925618,51.294814],[-1.925981,51.294326],[-1.926216,51.294014],[-1.92656,51.293564],[-1.926797,51.293329],[-1.927163,51.293075],[-1.927313,51.292915]]]}}