{"type":"Feature","properties":{"id":"273901","COMMUNE":"Wiltshire","PROVINCE":"Wiltshire CC","COUNTRY":"UK","FIREDATE":"2025-05-15 10:13:22.871","FINALDATE":"2025-05-15 10:13:22.871","CLASS":"FireSeason","areaHA_geo":16.725},"geometry":{"type":"Polygon","coordinates":[[[-1.920011,51.274469],[-1.919998,51.274586],[-1.919961,51.274686],[-1.919901,51.27477],[-1.919817,51.274838],[-1.919768,51.274898],[-1.919754,51.274951],[-1.919774,51.274997],[-1.919828,51.275034],[-1.919901,51.275067],[-1.919994,51.275095],[-1.920106,51.275118],[-1.920237,51.275136],[-1.920374,51.275135],[-1.920517,51.275114],[-1.920666,51.275074],[-1.920821,51.275015],[-1.920952,51.274983],[-1.921058,51.274978],[-1.92114,51.275],[-1.921197,51.275049],[-1.92126,51.27509],[-1.921328,51.275122],[-1.921403,51.275146],[-1.921482,51.275162],[-1.921551,51.275158],[-1.921608,51.275134],[-1.921653,51.275091],[-1.921688,51.275028],[-1.921749,51.274978],[-1.921837,51.274942],[-1.921953,51.274918],[-1.922095,51.274907],[-1.92221,51.274865],[-1.922298,51.27479],[-1.922359,51.274684],[-1.922392,51.274547],[-1.922468,51.274436],[-1.922585,51.274353],[-1.922744,51.274297],[-1.922945,51.274269],[-1.923114,51.274255],[-1.92325,51.274257],[-1.923354,51.274274],[-1.923426,51.274306],[-1.923497,51.274329],[-1.923567,51.274344],[-1.923636,51.274349],[-1.923705,51.274346],[-1.923762,51.274329],[-1.923808,51.274299],[-1.923842,51.274255],[-1.923865,51.274197],[-1.92389,51.274148],[-1.923917,51.274108],[-1.923947,51.274076],[-1.923979,51.274053],[-1.923994,51.274022],[-1.923994,51.273983],[-1.923976,51.273935],[-1.923943,51.273879],[-1.923916,51.273815],[-1.923897,51.273742],[-1.923893,51.273716],[-1.923885,51.27366],[-1.92388,51.27357],[-1.923892,51.273513],[-1.923921,51.273488],[-1.923965,51.273496],[-1.924027,51.273537],[-1.924096,51.273544],[-1.924174,51.273516],[-1.924261,51.273454],[-1.924356,51.273357],[-1.924449,51.273274],[-1.924541,51.273203],[-1.924632,51.273145],[-1.924721,51.2731],[-1.924783,51.273055],[-1.924818,51.273007],[-1.924826,51.272959],[-1.924807,51.27291],[-1.924774,51.272875],[-1.924727,51.272854],[-1.924667,51.272847],[-1.924593,51.272855],[-1.924547,51.272834],[-1.924528,51.272785],[-1.924536,51.272707],[-1.924571,51.272601],[-1.924585,51.272504],[-1.924578,51.272418],[-1.92455,51.272342],[-1.924502,51.272276],[-1.924471,51.272219],[-1.924458,51.272171],[-1.924464,51.272132],[-1.924487,51.272102],[-1.924524,51.27209],[-1.924573,51.272097],[-1.924635,51.272122],[-1.92471,51.272166],[-1.924794,51.272193],[-1.924888,51.272203],[-1.924992,51.272196],[-1.925106,51.272172],[-1.925193,51.272136],[-1.925253,51.272086],[-1.925285,51.272024],[-1.925291,51.271948],[-1.925276,51.27189],[-1.92524,51.271851],[-1.925184,51.271829],[-1.925107,51.271825],[-1.92504,51.271806],[-1.924984,51.271772],[-1.924938,51.271724],[-1.924902,51.27166],[-1.924911,51.271607],[-1.924962,51.271564],[-1.925058,51.271532],[-1.925198,51.27151],[-1.92532,51.271482],[-1.925425,51.27145],[-1.925513,51.271412],[-1.925584,51.271369],[-1.92563,51.271325],[-1.925649,51.271279],[-1.925643,51.271233],[-1.925612,51.271185],[-1.925573,51.271151],[-1.925527,51.271132],[-1.925474,51.271128],[-1.925413,51.271138],[-1.925359,51.271139],[-1.925313,51.27113],[-1.925273,51.271111],[-1.925241,51.271083],[-1.925231,51.271046],[-1.925244,51.271001],[-1.925281,51.270948],[-1.925341,51.270887],[-1.925371,51.270826],[-1.92537,51.270764],[-1.92534,51.270703],[-1.92528,51.270642],[-1.925192,51.270589],[-1.925075,51.270544],[-1.924931,51.270507],[-1.924759,51.270477],[-1.924612,51.270459],[-1.92449,51.270452],[-1.924393,51.270456],[-1.924321,51.270471],[-1.924291,51.2705],[-1.924302,51.270542],[-1.924355,51.270598],[-1.924449,51.270667],[-1.924494,51.270724],[-1.924489,51.270767],[-1.924436,51.270799],[-1.924333,51.270817],[-1.924226,51.270842],[-1.924114,51.270873],[-1.923998,51.270911],[-1.923877,51.270955],[-1.923796,51.271015],[-1.923756,51.27109],[-1.923756,51.271181],[-1.923796,51.271287],[-1.923817,51.271384],[-1.923818,51.27147],[-1.923798,51.271547],[-1.923759,51.271615],[-1.923687,51.271647],[-1.923582,51.271644],[-1.923444,51.271606],[-1.923273,51.271533],[-1.923144,51.271462],[-1.923056,51.271394],[-1.923011,51.271329],[-1.923007,51.271266],[-1.922962,51.271247],[-1.922877,51.271271],[-1.922751,51.27134],[-1.922585,51.271452],[-1.922489,51.271562],[-1.922464,51.271671],[-1.92251,51.271779],[-1.922626,51.271885],[-1.922679,51.271959],[-1.922667,51.272],[-1.922592,51.272007],[-1.922452,51.271982],[-1.922329,51.271994],[-1.922222,51.272043],[-1.92213,51.272128],[-1.922055,51.27225],[-1.922019,51.272353],[-1.922021,51.272435],[-1.922063,51.272498],[-1.922144,51.272541],[-1.922202,51.272587],[-1.922236,51.272634],[-1.922248,51.272684],[-1.922236,51.272737],[-1.922185,51.272776],[-1.922094,51.272801],[-1.921962,51.272813],[-1.921791,51.272811],[-1.921633,51.272784],[-1.921487,51.272734],[-1.921354,51.27266],[-1.921233,51.272562],[-1.921112,51.272463],[-1.920991,51.272363],[-1.92087,51.272262],[-1.920748,51.27216],[-1.920623,51.272068],[-1.920494,51.271987],[-1.920362,51.271916],[-1.920226,51.271855],[-1.920146,51.271797],[-1.920122,51.271742],[-1.920154,51.27169],[-1.920243,51.271642],[-1.920341,51.271621],[-1.920451,51.271627],[-1.92057,51.271661],[-1.9207,51.271723],[-1.920811,51.271737],[-1.920904,51.271704],[-1.920977,51.271623],[-1.921032,51.271495],[-1.921093,51.27139],[-1.92116,51.271308],[-1.921233,51.27125],[-1.921312,51.271214],[-1.921333,51.271144],[-1.921297,51.271042],[-1.921203,51.270905],[-1.921051,51.270735],[-1.920956,51.270598],[-1.920919,51.270493],[-1.92094,51.270421],[-1.921018,51.270381],[-1.921053,51.270333],[-1.921044,51.270277],[-1.920992,51.270212],[-1.920897,51.270139],[-1.920803,51.270087],[-1.920709,51.270055],[-1.920616,51.270044],[-1.920524,51.270053],[-1.920452,51.270036],[-1.920399,51.269992],[-1.920366,51.269922],[-1.920353,51.269824],[-1.920328,51.269745],[-1.92029,51.269684],[-1.920239,51.269641],[-1.920175,51.269616],[-1.920128,51.269614],[-1.920095,51.269635],[-1.920078,51.269679],[-1.920077,51.269746],[-1.920076,51.269809],[-1.920075,51.269866],[-1.920075,51.269918],[-1.920074,51.269966],[-1.920048,51.27001],[-1.919996,51.270051],[-1.919917,51.270088],[-1.919812,51.270123],[-1.919716,51.270134],[-1.919627,51.270121],[-1.919547,51.270085],[-1.919474,51.270026],[-1.919392,51.270009],[-1.919302,51.270036],[-1.919202,51.270107],[-1.919092,51.270221],[-1.91903,51.270333],[-1.919015,51.270443],[-1.919046,51.270551],[-1.919125,51.270658],[-1.919176,51.270744],[-1.9192,51.270811],[-1.919196,51.270858],[-1.919165,51.270884],[-1.919104,51.270879],[-1.919012,51.270841],[-1.918889,51.270771],[-1.918736,51.270668],[-1.918579,51.270588],[-1.918418,51.270529],[-1.918254,51.270493],[-1.918086,51.270479],[-1.91794,51.270485],[-1.917818,51.270511],[-1.917718,51.270558],[-1.917641,51.270625],[-1.917548,51.270664],[-1.91744,51.270676],[-1.917318,51.270659],[-1.917179,51.270614],[-1.91707,51.270606],[-1.916989,51.270636],[-1.916938,51.270704],[-1.916914,51.270809],[-1.916916,51.2709],[-1.916943,51.270978],[-1.916995,51.271043],[-1.917072,51.271095],[-1.917116,51.271157],[-1.917129,51.271231],[-1.917111,51.271316],[-1.917075,51.271382],[-1.917302,51.27148],[-1.917545,51.271618],[-1.917722,51.27176],[-1.917832,51.271906],[-1.917847,51.27197],[-1.917991,51.271998],[-1.918167,51.272042],[-1.918292,51.272084],[-1.918366,51.272126],[-1.918389,51.272167],[-1.918438,51.27223],[-1.918511,51.272315],[-1.918608,51.272422],[-1.918731,51.272552],[-1.918857,51.272653],[-1.918987,51.272727],[-1.91912,51.272772],[-1.919258,51.27279],[-1.919369,51.272824],[-1.919455,51.272874],[-1.919515,51.272941],[-1.91955,51.273024],[-1.919569,51.273099],[-1.919574,51.273166],[-1.919564,51.273224],[-1.91954,51.273274],[-1.919533,51.273316],[-1.919545,51.27335],[-1.919576,51.273377],[-1.919625,51.273395],[-1.919663,51.27342],[-1.91969,51.273451],[-1.919706,51.273488],[-1.919711,51.27353],[-1.919703,51.273577],[-1.919681,51.273626],[-1.919646,51.273679],[-1.919598,51.273736],[-1.91959,51.273798],[-1.919624,51.273865],[-1.919698,51.273938],[-1.919814,51.274017],[-1.919903,51.27411],[-1.919965,51.274216],[-1.920001,51.274335],[-1.920011,51.274469]]]}}