{"type":"Feature","properties":{"id":"273900","COMMUNE":"Wiltshire","PROVINCE":"Wiltshire CC","COUNTRY":"UK","FIREDATE":"2025-07-02 12:17:00","FINALDATE":"2025-07-03 12:17:00","CLASS":"FireSeason","areaHA_geo":59.308},"geometry":{"type":"Polygon","coordinates":[[[-1.935072,51.273052],[-1.935145,51.273095],[-1.9352,51.273141],[-1.935237,51.273188],[-1.935316,51.273185],[-1.935437,51.273132],[-1.935601,51.273028],[-1.935806,51.272873],[-1.935821,51.272863],[-1.935779,51.272842],[-1.935675,51.272735],[-1.935652,51.272613],[-1.935711,51.272478],[-1.935851,51.272328],[-1.935916,51.272179],[-1.935903,51.272028],[-1.935814,51.271877],[-1.935648,51.271726],[-1.935728,51.271551],[-1.936055,51.271355],[-1.936627,51.271135],[-1.937445,51.270893],[-1.938164,51.270614],[-1.938782,51.270297],[-1.939301,51.269943],[-1.93972,51.269551],[-1.940082,51.269182],[-1.940387,51.268836],[-1.940635,51.268512],[-1.940826,51.268211],[-1.941,51.267983],[-1.941156,51.267826],[-1.941296,51.267741],[-1.941419,51.267728],[-1.94149,51.267656],[-1.941509,51.267525],[-1.941477,51.267335],[-1.941393,51.267085],[-1.941338,51.266804],[-1.94131,51.266492],[-1.94131,51.266149],[-1.941337,51.265775],[-1.941321,51.265524],[-1.94126,51.265395],[-1.941155,51.265389],[-1.941005,51.265506],[-1.940808,51.265611],[-1.940563,51.265703],[-1.940269,51.265784],[-1.939927,51.265853],[-1.93964,51.265942],[-1.939407,51.26605],[-1.93923,51.266178],[-1.939106,51.266326],[-1.938955,51.266434],[-1.938775,51.266504],[-1.938567,51.266534],[-1.938331,51.266524],[-1.938042,51.266557],[-1.937702,51.266631],[-1.93731,51.266748],[-1.936865,51.266906],[-1.936513,51.266937],[-1.936254,51.26684],[-1.936087,51.266616],[-1.936013,51.266263],[-1.935913,51.265987],[-1.93596,51.266117],[-1.934893,51.266106],[-1.93475,51.266296],[-1.934532,51.26662],[-1.934132,51.267249],[-1.933849,51.267566],[-1.933399,51.267888],[-1.933104,51.2678],[-1.932668,51.267218],[-1.932496,51.266961],[-1.932415,51.266773],[-1.932271,51.266663],[-1.931921,51.266523],[-1.931652,51.266616],[-1.931197,51.267036],[-1.930863,51.267201],[-1.930318,51.267277],[-1.930116,51.267226],[-1.930056,51.266997],[-1.930053,51.266827],[-1.930055,51.266819],[-1.930012,51.266849],[-1.929712,51.266911],[-1.929299,51.26686],[-1.929118,51.266806],[-1.928751,51.266802],[-1.92867,51.266748],[-1.928576,51.266581],[-1.928647,51.266407],[-1.928696,51.266277],[-1.928586,51.266112],[-1.92834,51.266127],[-1.928265,51.266156],[-1.928073,51.266186],[-1.927794,51.266204],[-1.927519,51.266108],[-1.927512,51.265952],[-1.92788,51.265831],[-1.928137,51.265732],[-1.9283,51.265465],[-1.928422,51.265296],[-1.928679,51.26526],[-1.929014,51.265267],[-1.929261,51.265512],[-1.929431,51.265588],[-1.929556,51.265582],[-1.929563,51.265596],[-1.929362,51.265152],[-1.929182,51.264465],[-1.929263,51.264097],[-1.929539,51.263826],[-1.929425,51.263751],[-1.929042,51.263526],[-1.928774,51.263404],[-1.928621,51.263384],[-1.92849,51.263359],[-1.928379,51.26333],[-1.92829,51.263295],[-1.928223,51.263256],[-1.928169,51.263201],[-1.92813,51.263131],[-1.928106,51.263045],[-1.928096,51.262944],[-1.928094,51.262845],[-1.928102,51.26275],[-1.928119,51.262657],[-1.928144,51.262567],[-1.928135,51.262484],[-1.92809,51.262406],[-1.92801,51.262335],[-1.927894,51.26227],[-1.927756,51.262206],[-1.927596,51.262143],[-1.927469,51.2621],[-1.927277,51.262432],[-1.92704,51.262685],[-1.926631,51.262923],[-1.926292,51.262985],[-1.925681,51.26293],[-1.925365,51.262845],[-1.92503,51.262644],[-1.924784,51.262467],[-1.924383,51.262135],[-1.924083,51.261838],[-1.923918,51.26181],[-1.923741,51.261769],[-1.923594,51.261723],[-1.923476,51.261671],[-1.923387,51.261613],[-1.923294,51.261587],[-1.923197,51.261592],[-1.923095,51.261628],[-1.92299,51.261695],[-1.922917,51.261775],[-1.922875,51.261866],[-1.922865,51.26197],[-1.922887,51.262085],[-1.922866,51.262199],[-1.922801,51.262311],[-1.922692,51.26242],[-1.92254,51.262528],[-1.922412,51.262634],[-1.922308,51.262737],[-1.922227,51.262837],[-1.922171,51.262935],[-1.922108,51.263024],[-1.922039,51.263103],[-1.921963,51.263172],[-1.92188,51.263232],[-1.921806,51.263309],[-1.92174,51.263403],[-1.921683,51.263514],[-1.921635,51.263642],[-1.921561,51.263773],[-1.921461,51.263909],[-1.921336,51.264049],[-1.921185,51.264193],[-1.920984,51.264398],[-1.920734,51.264665],[-1.920663,51.264742],[-1.92076,51.26482],[-1.920797,51.264962],[-1.920871,51.265087],[-1.92098,51.265193],[-1.921124,51.265282],[-1.921305,51.265354],[-1.921473,51.265395],[-1.92163,51.265407],[-1.921773,51.26539],[-1.921905,51.265342],[-1.921994,51.265235],[-1.92204,51.265067],[-1.922043,51.264839],[-1.922003,51.264551],[-1.922028,51.264318],[-1.922116,51.26414],[-1.922268,51.264018],[-1.922484,51.26395],[-1.922654,51.263964],[-1.922778,51.264058],[-1.922855,51.264233],[-1.922886,51.264488],[-1.922999,51.264676],[-1.923192,51.264796],[-1.923467,51.26485],[-1.923823,51.264835],[-1.924175,51.264805],[-1.924523,51.264757],[-1.924866,51.264694],[-1.925205,51.264614],[-1.925497,51.264595],[-1.925742,51.264637],[-1.92594,51.26474],[-1.926091,51.264905],[-1.926253,51.265043],[-1.926426,51.265154],[-1.926611,51.265239],[-1.926806,51.265297],[-1.926958,51.26538],[-1.927067,51.265487],[-1.927133,51.265618],[-1.927156,51.265773],[-1.927111,51.265895],[-1.927,51.265986],[-1.926822,51.266043],[-1.926576,51.266069],[-1.926368,51.266132],[-1.926197,51.266234],[-1.926063,51.266375],[-1.925966,51.266553],[-1.925936,51.266731],[-1.925966,51.266872],[-1.926108,51.266934],[-1.926339,51.267047],[-1.926522,51.267153],[-1.926659,51.267253],[-1.92675,51.267346],[-1.926854,51.26741],[-1.926855,51.26741],[-1.926975,51.267199],[-1.927275,51.267018],[-1.927661,51.267062],[-1.928116,51.267266],[-1.928127,51.267322],[-1.928288,51.267332],[-1.928416,51.267383],[-1.928485,51.267472],[-1.928494,51.267599],[-1.928528,51.267706],[-1.928587,51.267792],[-1.928672,51.267858],[-1.928782,51.267903],[-1.928858,51.267955],[-1.928898,51.268015],[-1.928903,51.268082],[-1.928874,51.268157],[-1.928822,51.26821],[-1.928748,51.268241],[-1.928652,51.268249],[-1.928533,51.268236],[-1.92843,51.268241],[-1.928342,51.268266],[-1.92827,51.268309],[-1.928212,51.268372],[-1.928195,51.26843],[-1.928217,51.268484],[-1.928279,51.268534],[-1.928382,51.268579],[-1.928471,51.268624],[-1.928548,51.268667],[-1.928613,51.268709],[-1.928664,51.26875],[-1.928728,51.26879],[-1.928804,51.268828],[-1.928891,51.268865],[-1.928991,51.268901],[-1.929078,51.268935],[-1.929153,51.268969],[-1.929214,51.269001],[-1.929263,51.269032],[-1.929306,51.26907],[-1.929343,51.269114],[-1.929373,51.269166],[-1.929396,51.269225],[-1.929398,51.269286],[-1.929377,51.269347],[-1.929334,51.269409],[-1.929268,51.269472],[-1.929217,51.269536],[-1.929181,51.269601],[-1.92916,51.269668],[-1.929153,51.269735],[-1.929153,51.269799],[-1.929161,51.26986],[-1.929176,51.269917],[-1.929198,51.269971],[-1.929242,51.270027],[-1.929306,51.270084],[-1.929391,51.270143],[-1.929497,51.270204],[-1.92961,51.270258],[-1.929674,51.270283],[-1.92971,51.270177],[-1.929872,51.269976],[-1.930137,51.269865],[-1.930446,51.269717],[-1.93094,51.269766],[-1.931118,51.269931],[-1.931373,51.270089],[-1.931967,51.270312],[-1.932274,51.270665],[-1.932168,51.271077],[-1.931993,51.271429],[-1.93144,51.271871],[-1.931162,51.271958],[-1.931265,51.271997],[-1.931411,51.272032],[-1.931567,51.272049],[-1.931733,51.272049],[-1.931909,51.27203],[-1.932044,51.272029],[-1.932139,51.272045],[-1.932192,51.272078],[-1.932206,51.272128],[-1.932247,51.27217],[-1.932318,51.272204],[-1.932417,51.272229],[-1.932544,51.272247],[-1.932628,51.272266],[-1.932666,51.272288],[-1.93266,51.272312],[-1.932609,51.272337],[-1.932509,51.272361],[-1.932358,51.272381],[-1.932158,51.272399],[-1.931908,51.272415],[-1.931695,51.272455],[-1.931519,51.272519],[-1.93138,51.272608],[-1.931278,51.272721],[-1.931226,51.272811],[-1.931223,51.272878],[-1.93127,51.272922],[-1.931365,51.272942],[-1.931465,51.272948],[-1.931569,51.272937],[-1.931677,51.27291],[-1.931789,51.272868],[-1.931893,51.272843],[-1.931989,51.272836],[-1.932078,51.272846],[-1.932159,51.272873],[-1.932255,51.272894],[-1.932365,51.272908],[-1.93249,51.272916],[-1.93263,51.272917],[-1.932745,51.272908],[-1.932834,51.272888],[-1.932898,51.272858],[-1.932937,51.272819],[-1.932982,51.272787],[-1.933033,51.272764],[-1.933091,51.272749],[-1.933155,51.272742],[-1.933208,51.272752],[-1.933252,51.272778],[-1.933286,51.272821],[-1.93331,51.27288],[-1.933346,51.272924],[-1.933394,51.272952],[-1.933455,51.272965],[-1.933528,51.272963],[-1.933565,51.272995],[-1.933566,51.273061],[-1.933531,51.273162],[-1.93346,51.273297],[-1.933451,51.273387],[-1.933503,51.27343],[-1.933618,51.273427],[-1.933793,51.273378],[-1.933964,51.273334],[-1.93413,51.273294],[-1.934291,51.273258],[-1.934447,51.273226],[-1.934565,51.273186],[-1.934647,51.273137],[-1.934691,51.273078],[-1.934698,51.273011],[-1.93473,51.27297],[-1.934788,51.272957],[-1.934872,51.27297],[-1.934981,51.27301],[-1.935072,51.273052]]]}}