{"type":"Feature","properties":{"id":"274842","COMMUNE":"West Moray","PROVINCE":"Inverness & Nairn and Moray, Badenoch & Strathspey","COUNTRY":"UK","FIREDATE":"2025-07-14 12:42:00","CLASS":"FireSeason","areaHA_geo":4.41},"geometry":{"type":"Polygon","coordinates":[[[-3.447039,57.504115],[-3.446952,57.50411],[-3.446948,57.504147],[-3.446916,57.504233],[-3.446861,57.504301],[-3.446784,57.50435],[-3.446684,57.504382],[-3.446594,57.504428],[-3.446514,57.50449],[-3.446442,57.504567],[-3.446381,57.504659],[-3.446308,57.5047],[-3.446226,57.504692],[-3.446133,57.504633],[-3.446065,57.504562],[-3.446068,57.50459],[-3.446095,57.504758],[-3.446118,57.504904],[-3.446136,57.505028],[-3.446149,57.505131],[-3.446158,57.505211],[-3.446195,57.505275],[-3.446261,57.505322],[-3.446355,57.505353],[-3.446477,57.505366],[-3.44656,57.505394],[-3.446603,57.505436],[-3.446607,57.505492],[-3.44657,57.505562],[-3.446536,57.505633],[-3.446503,57.505703],[-3.446472,57.505773],[-3.446442,57.505843],[-3.446453,57.50591],[-3.446505,57.505975],[-3.446597,57.506038],[-3.44673,57.506099],[-3.44686,57.506143],[-3.446987,57.506171],[-3.447112,57.506182],[-3.447235,57.506177],[-3.447365,57.506188],[-3.447502,57.506214],[-3.447648,57.506257],[-3.4478,57.506315],[-3.447894,57.506382],[-3.447928,57.506456],[-3.447903,57.506539],[-3.447819,57.506629],[-3.447796,57.506698],[-3.447834,57.506746],[-3.447934,57.506773],[-3.448095,57.506779],[-3.448237,57.506769],[-3.448358,57.506743],[-3.448461,57.506702],[-3.448543,57.506645],[-3.448642,57.506618],[-3.448756,57.506619],[-3.448887,57.506649],[-3.449033,57.506708],[-3.449212,57.506749],[-3.449424,57.506772],[-3.449669,57.506777],[-3.449947,57.506763],[-3.450186,57.506746],[-3.450386,57.506725],[-3.450546,57.506701],[-3.450668,57.506674],[-3.450739,57.506639],[-3.450761,57.506596],[-3.450734,57.506545],[-3.450657,57.506486],[-3.450557,57.50643],[-3.450434,57.506378],[-3.450288,57.506329],[-3.45012,57.506283],[-3.449989,57.506239],[-3.449898,57.506197],[-3.449845,57.506156],[-3.44983,57.506116],[-3.449813,57.506078],[-3.449792,57.506041],[-3.449769,57.506006],[-3.449743,57.505971],[-3.449695,57.505946],[-3.449627,57.505929],[-3.449537,57.50592],[-3.449427,57.50592],[-3.449314,57.505909],[-3.449198,57.505885],[-3.44908,57.50585],[-3.448959,57.505803],[-3.448866,57.505753],[-3.448801,57.505698],[-3.448764,57.50564],[-3.448755,57.505578],[-3.448765,57.505525],[-3.448794,57.505481],[-3.448841,57.505446],[-3.448908,57.505421],[-3.448975,57.505402],[-3.449043,57.505389],[-3.449112,57.505383],[-3.449181,57.505384],[-3.449262,57.505373],[-3.449354,57.505353],[-3.449459,57.505322],[-3.449575,57.50528],[-3.449673,57.505241],[-3.449752,57.505205],[-3.449815,57.505172],[-3.449859,57.505142],[-3.449883,57.505101],[-3.449889,57.50505],[-3.449875,57.50499],[-3.449842,57.504919],[-3.449791,57.504867],[-3.44972,57.504836],[-3.449631,57.504824],[-3.449523,57.504831],[-3.449411,57.504827],[-3.449295,57.504811],[-3.449174,57.504783],[-3.449049,57.504744],[-3.44894,57.504718],[-3.448845,57.504706],[-3.448766,57.504706],[-3.448702,57.50472],[-3.448638,57.504738],[-3.448573,57.50476],[-3.448508,57.504785],[-3.448443,57.504814],[-3.448378,57.504824],[-3.448313,57.504816],[-3.448248,57.504789],[-3.448183,57.504744],[-3.44813,57.504696],[-3.448091,57.504644],[-3.448063,57.504589],[-3.448049,57.504531],[-3.448018,57.504476],[-3.447971,57.504424],[-3.447908,57.504373],[-3.447828,57.504326],[-3.447752,57.504278],[-3.447679,57.50423],[-3.44761,57.504182],[-3.447543,57.504133],[-3.447464,57.504101],[-3.447373,57.504086],[-3.447268,57.504089],[-3.447151,57.504108],[-3.447039,57.504115]]]}}