{"type":"Feature","properties":{"id":"274844","COMMUNE":"West Moray","PROVINCE":"Inverness & Nairn and Moray, Badenoch & Strathspey","COUNTRY":"UK","FIREDATE":"2025-04-01 13:57:00","FINALDATE":"2025-04-02 13:57:00","CLASS":"FireSeason","areaHA_geo":3.048},"geometry":{"type":"Polygon","coordinates":[[[-3.592792,57.4653],[-3.592689,57.464973],[-3.592645,57.464796],[-3.592626,57.464716],[-3.592596,57.464596],[-3.592566,57.464436],[-3.592545,57.46433],[-3.592515,57.46417],[-3.592488,57.463991],[-3.59247,57.463872],[-3.592444,57.463694],[-3.592432,57.463564],[-3.592428,57.46352],[-3.592424,57.463477],[-3.592412,57.463346],[-3.592415,57.463264],[-3.592417,57.463226],[-3.592418,57.463209],[-3.592421,57.463127],[-3.592439,57.463092],[-3.592445,57.463081],[-3.592451,57.463069],[-3.592469,57.463035],[-3.592501,57.463049],[-3.592523,57.463058],[-3.592556,57.463071],[-3.592593,57.46309],[-3.592605,57.463096],[-3.592617,57.463102],[-3.592654,57.463121],[-3.592694,57.463144],[-3.592708,57.463152],[-3.592721,57.46316],[-3.592762,57.463184],[-3.592806,57.463212],[-3.592835,57.463231],[-3.59288,57.463259],[-3.592928,57.463293],[-3.59296,57.463315],[-3.592992,57.463335],[-3.593024,57.463353],[-3.593057,57.463369],[-3.593073,57.463376],[-3.59309,57.463383],[-3.593123,57.463394],[-3.593156,57.463403],[-3.593189,57.463411],[-3.593223,57.463416],[-3.593257,57.463418],[-3.593291,57.463419],[-3.593325,57.463418],[-3.593342,57.463416],[-3.593359,57.463414],[-3.593394,57.463409],[-3.593429,57.463401],[-3.593463,57.463391],[-3.593499,57.463378],[-3.593529,57.463365],[-3.593554,57.46335],[-3.593574,57.463333],[-3.593581,57.463324],[-3.593589,57.463315],[-3.593599,57.463295],[-3.593604,57.463273],[-3.593604,57.463251],[-3.593601,57.463238],[-3.593599,57.463226],[-3.593589,57.4632],[-3.593573,57.463173],[-3.593553,57.463144],[-3.593528,57.463114],[-3.593498,57.463082],[-3.593463,57.463048],[-3.593422,57.463013],[-3.5934,57.462995],[-3.593377,57.462977],[-3.593333,57.462943],[-3.593289,57.462911],[-3.593246,57.462881],[-3.593224,57.462868],[-3.593203,57.462854],[-3.593161,57.462829],[-3.59312,57.462807],[-3.59308,57.462786],[-3.59306,57.462777],[-3.59304,57.462769],[-3.593001,57.462753],[-3.592963,57.46274],[-3.592925,57.462729],[-3.592888,57.46272],[-3.592852,57.462714],[-3.592817,57.46271],[-3.592782,57.462708],[-3.592765,57.462709],[-3.592748,57.462709],[-3.592697,57.46271],[-3.592653,57.462704],[-3.592638,57.462702],[-3.592624,57.4627],[-3.59258,57.462694],[-3.592543,57.462681],[-3.592531,57.462676],[-3.592519,57.462672],[-3.592482,57.462658],[-3.592453,57.462638],[-3.592443,57.462631],[-3.592433,57.462624],[-3.592404,57.462604],[-3.592382,57.462577],[-3.592374,57.462567],[-3.592367,57.462558],[-3.592345,57.462531],[-3.59234,57.462499],[-3.592337,57.462478],[-3.592332,57.462447],[-3.592345,57.462411],[-3.592353,57.462388],[-3.592366,57.462352],[-3.592396,57.462313],[-3.592416,57.462287],[-3.592446,57.462247],[-3.592493,57.462204],[-3.592525,57.462175],[-3.592555,57.462146],[-3.592583,57.462118],[-3.59261,57.462089],[-3.592636,57.46206],[-3.59266,57.462032],[-3.592683,57.462003],[-3.592705,57.461975],[-3.592724,57.461947],[-3.592743,57.461918],[-3.59276,57.46189],[-3.592775,57.461862],[-3.592789,57.461834],[-3.592802,57.461806],[-3.592813,57.461778],[-3.592823,57.46175],[-3.592831,57.461722],[-3.592835,57.461696],[-3.592835,57.461671],[-3.592831,57.461648],[-3.592823,57.461627],[-3.592811,57.461608],[-3.592795,57.46159],[-3.592776,57.461574],[-3.592752,57.461559],[-3.592724,57.461546],[-3.592692,57.461535],[-3.592656,57.461525],[-3.592616,57.461517],[-3.592572,57.461511],[-3.592524,57.461507],[-3.592472,57.461504],[-3.592416,57.461502],[-3.592364,57.461502],[-3.592315,57.461503],[-3.59227,57.461506],[-3.592228,57.461509],[-3.592193,57.461513],[-3.592163,57.461518],[-3.59214,57.461523],[-3.59213,57.461526],[-3.592123,57.461528],[-3.592057,57.461549],[-3.592005,57.461602],[-3.592011,57.461676],[-3.591979,57.461767],[-3.591909,57.461877],[-3.591801,57.462005],[-3.591654,57.462151],[-3.59155,57.462305],[-3.591489,57.462467],[-3.59147,57.462638],[-3.591495,57.462818],[-3.591509,57.462977],[-3.591513,57.463116],[-3.591507,57.463234],[-3.59149,57.463333],[-3.591515,57.463441],[-3.59158,57.463559],[-3.591685,57.463688],[-3.591832,57.463826],[-3.591943,57.463955],[-3.592019,57.464075],[-3.592061,57.464186],[-3.592067,57.464287],[-3.592067,57.464395],[-3.592062,57.46451],[-3.592051,57.46463],[-3.592035,57.464757],[-3.592008,57.46487],[-3.591972,57.464971],[-3.591925,57.465058],[-3.591868,57.465132],[-3.591832,57.465257],[-3.591818,57.465431],[-3.591825,57.465657],[-3.591853,57.465932],[-3.591885,57.466132],[-3.59192,57.466256],[-3.591959,57.466305],[-3.592002,57.466278],[-3.592051,57.466267],[-3.592106,57.466273],[-3.592167,57.466295],[-3.592234,57.466333],[-3.59232,57.466358],[-3.592425,57.46637],[-3.592549,57.466369],[-3.592691,57.466354],[-3.592809,57.466322],[-3.592902,57.466272],[-3.592969,57.466206],[-3.593012,57.466122],[-3.593016,57.465989],[-3.59298,57.465808],[-3.592906,57.465579],[-3.592792,57.4653]]]}}