{"type":"Feature","properties":{"id":"274845","COMMUNE":"West Moray","PROVINCE":"Inverness & Nairn and Moray, Badenoch & Strathspey","COUNTRY":"UK","FIREDATE":"2025-04-01 13:57:00","CLASS":"FireSeason","areaHA_geo":1.158},"geometry":{"type":"Polygon","coordinates":[[[-3.597569,57.465532],[-3.597491,57.4656],[-3.597481,57.465657],[-3.597518,57.465693],[-3.597603,57.465707],[-3.597734,57.465699],[-3.597914,57.465669],[-3.598097,57.46563],[-3.598286,57.465582],[-3.598479,57.465525],[-3.598676,57.465459],[-3.598791,57.465455],[-3.598822,57.465511],[-3.598771,57.465629],[-3.598636,57.465807],[-3.598558,57.465934],[-3.59855,57.465946],[-3.598549,57.465948],[-3.598538,57.465968],[-3.598525,57.465994],[-3.59851,57.466025],[-3.598502,57.466043],[-3.598493,57.466061],[-3.598479,57.466097],[-3.598466,57.466131],[-3.598456,57.466165],[-3.598447,57.466197],[-3.598441,57.466229],[-3.598437,57.466259],[-3.598434,57.466289],[-3.598434,57.466317],[-3.598439,57.466343],[-3.598447,57.466366],[-3.59846,57.466387],[-3.598478,57.466405],[-3.598499,57.466421],[-3.598525,57.466434],[-3.598556,57.466444],[-3.59859,57.466452],[-3.598629,57.466457],[-3.598672,57.466459],[-3.59872,57.46646],[-3.598746,57.466458],[-3.598772,57.466457],[-3.598828,57.466452],[-3.598889,57.466444],[-3.598954,57.466434],[-3.599023,57.466421],[-3.599089,57.466405],[-3.599153,57.466387],[-3.599213,57.466365],[-3.599271,57.466341],[-3.599326,57.466314],[-3.599378,57.466285],[-3.599427,57.466252],[-3.59945,57.466234],[-3.599474,57.466217],[-3.599517,57.466179],[-3.599558,57.466138],[-3.599595,57.466094],[-3.59963,57.466047],[-3.599662,57.465998],[-3.599691,57.465946],[-3.599718,57.46589],[-3.599741,57.465833],[-3.599763,57.465777],[-3.599782,57.465724],[-3.5998,57.465674],[-3.599816,57.465626],[-3.59983,57.465581],[-3.599842,57.465538],[-3.599853,57.465498],[-3.599861,57.46546],[-3.599868,57.465425],[-3.599872,57.465392],[-3.599875,57.465362],[-3.599876,57.465334],[-3.599875,57.465308],[-3.599872,57.465286],[-3.599867,57.465265],[-3.599861,57.465248],[-3.59985,57.465231],[-3.599835,57.465215],[-3.599816,57.465201],[-3.599792,57.465188],[-3.599765,57.465176],[-3.599733,57.465165],[-3.599697,57.465155],[-3.599657,57.465147],[-3.599612,57.465139],[-3.599564,57.465133],[-3.599511,57.465128],[-3.599454,57.465124],[-3.599393,57.465121],[-3.599327,57.465119],[-3.599258,57.465118],[-3.599184,57.465119],[-3.59911,57.465121],[-3.599037,57.465125],[-3.598964,57.46513],[-3.598927,57.465133],[-3.598891,57.465136],[-3.598818,57.465144],[-3.598746,57.465154],[-3.598674,57.465165],[-3.598638,57.465171],[-3.598602,57.465177],[-3.59854,57.465188],[-3.59849,57.465198],[-3.598451,57.465207],[-3.598423,57.465214],[-3.598209,57.465269],[-3.597928,57.465367],[-3.597715,57.465454],[-3.597569,57.465532]]]}}