{"type":"Feature","properties":{"id":"277217","COMMUNE":"Purbeck","PROVINCE":"Dorset","COUNTRY":"UK","FIREDATE":"2025-08-03 01:13:00","CLASS":"FireSeason","areaHA_geo":17.34},"geometry":{"type":"Polygon","coordinates":[[[-1.995802,50.654013],[-1.995583,50.6544],[-1.995407,50.654924],[-1.995299,50.655502],[-1.995307,50.656022],[-1.995431,50.656405],[-1.995671,50.656717],[-1.995991,50.656908],[-1.996539,50.657103],[-1.997233,50.657271],[-1.997826,50.657356],[-1.998228,50.657345],[-1.998564,50.657305],[-1.998781,50.657243],[-1.999017,50.657105],[-1.999237,50.656911],[-1.999466,50.656488],[-1.999669,50.655899],[-1.999839,50.655297],[-1.999948,50.654773],[-2.000085,50.65425],[-2.000228,50.653808],[-2.000359,50.653336],[-2.000456,50.652906],[-2.000556,50.652521],[-2.000642,50.652241],[-2.000639,50.651972],[-2.000546,50.651756],[-2.000403,50.651586],[-2.00023,50.651488],[-2.000024,50.651358],[-1.999815,50.651217],[-1.999639,50.65105],[-1.999523,50.650884],[-1.999334,50.650795],[-1.999101,50.650796],[-1.998858,50.650809],[-1.998643,50.650831],[-1.998452,50.650809],[-1.998313,50.650746],[-1.998141,50.650697],[-1.997962,50.650669],[-1.997826,50.650658],[-1.997754,50.650666],[-1.997668,50.650717],[-1.99758,50.650804],[-1.997449,50.65094],[-1.997295,50.651103],[-1.997275,50.651282],[-1.997392,50.651448],[-1.997588,50.651617],[-1.997834,50.651762],[-1.99802,50.651864],[-1.998117,50.651908],[-1.998331,50.651937],[-1.998627,50.651944],[-1.998836,50.651956],[-1.998926,50.65197],[-1.998986,50.652022],[-1.999007,50.652106],[-1.998963,50.652245],[-1.998861,50.652419],[-1.998742,50.652549],[-1.998625,50.652615],[-1.997874,50.652951],[-1.996607,50.653503],[-1.995802,50.654013]]]}}