{"type":"Feature","properties":{"id":"277855","COMMUNE":"Inverness and Nairn","PROVINCE":"Inverness & Nairn and Moray, Badenoch & Strathspey","COUNTRY":"UK","FIREDATE":"2025-07-18 13:59:00","FINALDATE":"2025-07-18 13:59:00","CLASS":"FireSeason","areaHA_geo":3.491},"geometry":{"type":"Polygon","coordinates":[[[-3.800951,57.515937],[-3.800334,57.515958],[-3.799883,57.516235],[-3.799683,57.516443],[-3.799766,57.516549],[-3.799858,57.51667],[-3.799945,57.516787],[-3.800033,57.516896],[-3.800107,57.51698],[-3.800259,57.517076],[-3.800465,57.517169],[-3.800722,57.517204],[-3.800989,57.517176],[-3.801177,57.51715],[-3.801255,57.51713],[-3.80135,57.517108],[-3.801449,57.517086],[-3.801643,57.517047],[-3.801902,57.516996],[-3.802169,57.516999],[-3.802404,57.517055],[-3.80263,57.517131],[-3.802811,57.517215],[-3.803041,57.517303],[-3.803285,57.51738],[-3.803572,57.517406],[-3.80386,57.517376],[-3.804023,57.517346],[-3.804035,57.517322],[-3.80401,57.517256],[-3.803952,57.517159],[-3.803914,57.517057],[-3.803901,57.516967],[-3.804168,57.516939],[-3.804675,57.516977],[-3.804994,57.517086],[-3.805077,57.51725],[-3.805216,57.517372],[-3.805389,57.517434],[-3.80557,57.517452],[-3.805731,57.517424],[-3.805831,57.517382],[-3.805855,57.517334],[-3.805859,57.517253],[-3.805842,57.517151],[-3.805794,57.516994],[-3.805723,57.516807],[-3.805584,57.516653],[-3.805399,57.516558],[-3.805088,57.516473],[-3.804701,57.51641],[-3.804117,57.516366],[-3.803425,57.516347],[-3.802781,57.516328],[-3.802283,57.516312],[-3.80164,57.516174],[-3.800951,57.515937]]]}}