{"type":"Feature","properties":{"id":"278550","COMMUNE":"Powys","PROVINCE":"Powys","COUNTRY":"UK","FIREDATE":"2025-08-13 12:29:00","CLASS":"FireSeason","areaHA_geo":25.532},"geometry":{"type":"Polygon","coordinates":[[[-3.230722,51.92776],[-3.230691,51.92777],[-3.230473,51.927693],[-3.230276,51.927698],[-3.23023,51.927747],[-3.2302,51.927816],[-3.230162,51.92787],[-3.230118,51.927908],[-3.230067,51.92793],[-3.230009,51.927936],[-3.229955,51.927924],[-3.229904,51.927893],[-3.229857,51.927844],[-3.229813,51.927776],[-3.229758,51.927738],[-3.229692,51.927731],[-3.229616,51.927754],[-3.229528,51.927808],[-3.229453,51.927865],[-3.22939,51.927926],[-3.229339,51.92799],[-3.2293,51.928058],[-3.229266,51.928123],[-3.229239,51.928185],[-3.229218,51.928243],[-3.229203,51.928299],[-3.229163,51.92835],[-3.229097,51.928398],[-3.229007,51.928442],[-3.228892,51.928482],[-3.228814,51.928523],[-3.228774,51.928567],[-3.228771,51.928612],[-3.228805,51.92866],[-3.22885,51.928698],[-3.228905,51.928725],[-3.228972,51.928743],[-3.22905,51.928752],[-3.229101,51.928775],[-3.229124,51.928812],[-3.22912,51.928865],[-3.229088,51.928932],[-3.22905,51.928988],[-3.229006,51.929033],[-3.228956,51.929067],[-3.228899,51.929091],[-3.228853,51.929094],[-3.228816,51.929076],[-3.228788,51.929038],[-3.228771,51.928979],[-3.228707,51.928935],[-3.228598,51.928907],[-3.228442,51.928895],[-3.228241,51.928898],[-3.228117,51.928919],[-3.228071,51.928957],[-3.228102,51.929013],[-3.228212,51.929086],[-3.228283,51.929149],[-3.228316,51.929201],[-3.228312,51.929243],[-3.22827,51.929274],[-3.228261,51.929283],[-3.22844,51.929315],[-3.228507,51.929327],[-3.228936,51.929376],[-3.228903,51.929478],[-3.228839,51.929584],[-3.227738,51.929846],[-3.22767,51.929834],[-3.227641,51.929825],[-3.227115,51.929681],[-3.227035,51.929664],[-3.227035,51.929665],[-3.227012,51.929795],[-3.226952,51.929871],[-3.226853,51.929894],[-3.226717,51.929863],[-3.22659,51.929832],[-3.226472,51.929802],[-3.226363,51.929771],[-3.226262,51.929741],[-3.226162,51.929723],[-3.226061,51.929718],[-3.22596,51.929724],[-3.225858,51.929743],[-3.225778,51.929771],[-3.22572,51.929808],[-3.225683,51.929854],[-3.225668,51.92991],[-3.22565,51.929973],[-3.22563,51.930045],[-3.225607,51.930125],[-3.225582,51.930214],[-3.225558,51.930299],[-3.225535,51.930381],[-3.225512,51.930459],[-3.225491,51.930535],[-3.225471,51.930607],[-3.225452,51.930677],[-3.225434,51.930743],[-3.225417,51.930806],[-3.225399,51.930868],[-3.225379,51.930928],[-3.225359,51.930988],[-3.225336,51.931047],[-3.225315,51.931109],[-3.225295,51.931175],[-3.225276,51.931244],[-3.225258,51.931317],[-3.225246,51.931346],[-3.225175,51.931939],[-3.224701,51.932698],[-3.224217,51.933106],[-3.224307,51.933409],[-3.224748,51.933453],[-3.224726,51.933571],[-3.225249,51.933427],[-3.225805,51.933318],[-3.226308,51.933261],[-3.226668,51.93322],[-3.226831,51.933202],[-3.227067,51.93316],[-3.22734,51.933101],[-3.22761,51.93306],[-3.227835,51.933044],[-3.228005,51.933086],[-3.228094,51.933179],[-3.228075,51.933339],[-3.227952,51.933541],[-3.227811,51.933736],[-3.227674,51.933892],[-3.227737,51.933992],[-3.22799,51.93402],[-3.228832,51.934037],[-3.230133,51.93404],[-3.231164,51.933938],[-3.231765,51.933748],[-3.232179,51.933497],[-3.232342,51.933225],[-3.232399,51.932943],[-3.232341,51.932696],[-3.232194,51.932371],[-3.231982,51.932018],[-3.231745,51.931724],[-3.231519,51.931533],[-3.231176,51.931272],[-3.230768,51.930979],[-3.230596,51.930708],[-3.230686,51.9305],[-3.230957,51.930103],[-3.231366,51.929577],[-3.231889,51.928997],[-3.232446,51.928455],[-3.232937,51.927961],[-3.233286,51.927592],[-3.233454,51.927267],[-3.233416,51.927036],[-3.233169,51.926876],[-3.232752,51.92681],[-3.232408,51.926823],[-3.23219,51.926914],[-3.231963,51.927098],[-3.231762,51.927346],[-3.231326,51.927579],[-3.230722,51.92776]]]}}