{"type":"Feature","properties":{"id":"281182","COMMUNE":"Redcar and Cleveland","PROVINCE":"South Teesside","COUNTRY":"UK","FIREDATE":"2025-08-26 01:56:00","CLASS":"FireSeason","areaHA_geo":1.691},"geometry":{"type":"Polygon","coordinates":[[[-1.123763,54.557094],[-1.123736,54.557175],[-1.123785,54.55721],[-1.123909,54.5572],[-1.124109,54.557144],[-1.124302,54.557108],[-1.124486,54.557091],[-1.124663,54.557094],[-1.124832,54.557116],[-1.125021,54.557096],[-1.125228,54.557032],[-1.125455,54.556924],[-1.1257,54.556774],[-1.125892,54.55664],[-1.12603,54.556524],[-1.126114,54.556425],[-1.126144,54.556342],[-1.12613,54.556304],[-1.126073,54.556309],[-1.125972,54.556358],[-1.125828,54.55645],[-1.12571,54.556509],[-1.125619,54.556534],[-1.125555,54.556526],[-1.125517,54.556484],[-1.125506,54.556439],[-1.125523,54.55639],[-1.125565,54.556338],[-1.125635,54.556283],[-1.125687,54.556233],[-1.12572,54.556188],[-1.125735,54.556149],[-1.125733,54.556115],[-1.125741,54.556078],[-1.125759,54.556039],[-1.125788,54.555997],[-1.125828,54.555951],[-1.125858,54.555875],[-1.125878,54.555767],[-1.125887,54.555629],[-1.125886,54.555459],[-1.125849,54.55534],[-1.125775,54.555273],[-1.125665,54.555258],[-1.125518,54.555293],[-1.125429,54.555343],[-1.125398,54.555406],[-1.125424,54.555483],[-1.125507,54.555574],[-1.125541,54.555668],[-1.125525,54.555766],[-1.12546,54.555868],[-1.125345,54.555972],[-1.125237,54.556056],[-1.125137,54.556118],[-1.125044,54.556158],[-1.124958,54.556177],[-1.124881,54.556183],[-1.124814,54.556176],[-1.124756,54.556156],[-1.124708,54.556122],[-1.124687,54.556083],[-1.124694,54.556037],[-1.124729,54.555984],[-1.124791,54.555926],[-1.124845,54.555867],[-1.124891,54.555808],[-1.124929,54.555749],[-1.124958,54.55569],[-1.124945,54.555658],[-1.124888,54.555654],[-1.124788,54.555677],[-1.124646,54.555727],[-1.12453,54.555795],[-1.124442,54.555878],[-1.124382,54.555978],[-1.124348,54.556094],[-1.124284,54.556195],[-1.12419,54.556279],[-1.124065,54.556347],[-1.123909,54.556399],[-1.123749,54.556462],[-1.123584,54.556537],[-1.123414,54.556625],[-1.123238,54.556724],[-1.123145,54.556798],[-1.123132,54.556848],[-1.123201,54.556874],[-1.123352,54.556876],[-1.123484,54.55686],[-1.123599,54.556827],[-1.123696,54.556777],[-1.123776,54.556709],[-1.123843,54.556669],[-1.123898,54.556657],[-1.123941,54.556672],[-1.123973,54.556714],[-1.12397,54.556778],[-1.123935,54.556862],[-1.123866,54.556967],[-1.123763,54.557094]]]}}