{"type":"Feature","properties":{"id":"281181","COMMUNE":"Redcar and Cleveland","PROVINCE":"South Teesside","COUNTRY":"UK","FIREDATE":"2025-08-26 01:56:00","FINALDATE":"2025-08-26 01:56:00","CLASS":"FireSeason","areaHA_geo":5.525},"geometry":{"type":"Polygon","coordinates":[[[-1.113732,54.558448],[-1.113771,54.55849],[-1.113847,54.558494],[-1.11396,54.558461],[-1.114111,54.558391],[-1.114275,54.558328],[-1.114452,54.558273],[-1.114642,54.558224],[-1.114846,54.558183],[-1.115053,54.558156],[-1.115261,54.558143],[-1.115471,54.558144],[-1.115684,54.558159],[-1.115847,54.558177],[-1.115961,54.558199],[-1.116025,54.558224],[-1.116039,54.558253],[-1.116069,54.558272],[-1.116114,54.558281],[-1.116174,54.558281],[-1.116249,54.55827],[-1.116318,54.558252],[-1.116379,54.558225],[-1.116433,54.558191],[-1.11648,54.558149],[-1.116729,54.558088],[-1.11718,54.558008],[-1.117833,54.557908],[-1.118687,54.55779],[-1.11947,54.557688],[-1.12018,54.557603],[-1.120819,54.557535],[-1.121385,54.557484],[-1.121817,54.557424],[-1.122115,54.557356],[-1.122278,54.557279],[-1.122307,54.557193],[-1.122319,54.557119],[-1.122315,54.557057],[-1.122295,54.557007],[-1.122259,54.556969],[-1.122234,54.55692],[-1.122221,54.556861],[-1.12222,54.556791],[-1.122231,54.556711],[-1.122196,54.556624],[-1.122115,54.556531],[-1.121988,54.556432],[-1.121816,54.556327],[-1.121605,54.556288],[-1.121355,54.556316],[-1.121067,54.556411],[-1.120739,54.556573],[-1.120455,54.556678],[-1.120214,54.556726],[-1.120016,54.556718],[-1.119861,54.556652],[-1.119712,54.556584],[-1.119569,54.556514],[-1.119432,54.556441],[-1.1193,54.556366],[-1.119026,54.55631],[-1.118608,54.556272],[-1.118047,54.556253],[-1.117342,54.556252],[-1.116825,54.556262],[-1.116495,54.556282],[-1.116352,54.556313],[-1.116395,54.556354],[-1.116508,54.55639],[-1.116689,54.556421],[-1.116939,54.556447],[-1.117258,54.556467],[-1.117522,54.556503],[-1.117731,54.556554],[-1.117886,54.55662],[-1.117987,54.556702],[-1.118045,54.556783],[-1.11806,54.556863],[-1.118032,54.556942],[-1.117962,54.55702],[-1.117874,54.557108],[-1.117767,54.557207],[-1.117642,54.557315],[-1.117498,54.557434],[-1.117341,54.557521],[-1.11717,54.557576],[-1.116986,54.557599],[-1.116788,54.557591],[-1.116586,54.557581],[-1.116382,54.557571],[-1.116173,54.557561],[-1.115962,54.55755],[-1.115779,54.55756],[-1.115624,54.557591],[-1.115498,54.557643],[-1.1154,54.557716],[-1.115292,54.557772],[-1.115172,54.557811],[-1.115041,54.557833],[-1.114899,54.557838],[-1.114705,54.557851],[-1.11446,54.557871],[-1.114163,54.557899],[-1.113814,54.557934],[-1.113551,54.557974],[-1.113373,54.558018],[-1.113282,54.558067],[-1.113277,54.55812],[-1.113302,54.558164],[-1.113357,54.558196],[-1.113441,54.558219],[-1.113555,54.558231],[-1.113642,54.558261],[-1.1137,54.558306],[-1.11373,54.558369],[-1.113732,54.558448]]]}}