{"type":"Feature","properties":{"id":"281330","COMMUNE":"Powys","PROVINCE":"Powys","COUNTRY":"UK","FIREDATE":"2025-08-10 13:25:00","CLASS":"FireSeason","areaHA_geo":4.399},"geometry":{"type":"Polygon","coordinates":[[[-3.178165,51.815618],[-3.178703,51.81563],[-3.179235,51.815633],[-3.179677,51.815628],[-3.180013,51.815617],[-3.18019,51.815603],[-3.180401,51.815536],[-3.180614,51.815429],[-3.180702,51.815276],[-3.180651,51.815103],[-3.180465,51.814991],[-3.180174,51.814957],[-3.179878,51.814954],[-3.179624,51.814983],[-3.179329,51.814934],[-3.179041,51.814816],[-3.178668,51.81467],[-3.17827,51.814519],[-3.177814,51.814474],[-3.177372,51.814541],[-3.17695,51.814558],[-3.176613,51.814524],[-3.176299,51.814475],[-3.176055,51.814418],[-3.175735,51.814415],[-3.175387,51.814466],[-3.174897,51.814533],[-3.174338,51.814607],[-3.17392,51.814621],[-3.173706,51.814573],[-3.173528,51.814554],[-3.173414,51.814567],[-3.173395,51.814586],[-3.17332,51.814662],[-3.173259,51.814825],[-3.173435,51.815036],[-3.173819,51.815261],[-3.174455,51.815352],[-3.175245,51.815297],[-3.176041,51.815264],[-3.17672,51.81526],[-3.177292,51.81535],[-3.177669,51.81552],[-3.178165,51.815618]]]}}