{"type":"Feature","properties":{"id":"281329","COMMUNE":"Powys","PROVINCE":"Powys","COUNTRY":"UK","FIREDATE":"2025-08-25 12:55:00","FINALDATE":"2025-08-26 14:14:00","CLASS":"FireSeason","areaHA_geo":104.802},"geometry":{"type":"Polygon","coordinates":[[[-3.182496,51.817213],[-3.182396,51.817046],[-3.182072,51.817028],[-3.181753,51.816977],[-3.181486,51.816898],[-3.181278,51.816793],[-3.181104,51.816962],[-3.180876,51.817193],[-3.18071,51.817383],[-3.180606,51.817532],[-3.180564,51.817639],[-3.180583,51.817706],[-3.18058,51.817767],[-3.180553,51.817823],[-3.180504,51.817874],[-3.180431,51.817921],[-3.18037,51.817975],[-3.180321,51.818038],[-3.180283,51.818109],[-3.180257,51.818188],[-3.180204,51.81826],[-3.180125,51.818326],[-3.180019,51.818386],[-3.179887,51.818439],[-3.179781,51.818489],[-3.179703,51.818536],[-3.179651,51.81858],[-3.179626,51.818621],[-3.179608,51.818663],[-3.179596,51.818706],[-3.17959,51.818751],[-3.179591,51.818796],[-3.179559,51.818834],[-3.179494,51.818864],[-3.179396,51.818887],[-3.179265,51.818902],[-3.179129,51.818892],[-3.178989,51.818858],[-3.178846,51.8188],[-3.178698,51.818718],[-3.178552,51.818704],[-3.178407,51.818759],[-3.178265,51.818881],[-3.178124,51.819072],[-3.177998,51.819191],[-3.177889,51.819238],[-3.177795,51.819212],[-3.177716,51.819115],[-3.177592,51.81907],[-3.177421,51.819078],[-3.177205,51.819138],[-3.176942,51.819252],[-3.176705,51.819357],[-3.176492,51.819453],[-3.176305,51.819541],[-3.176144,51.81962],[-3.17604,51.81971],[-3.175996,51.81981],[-3.17601,51.819921],[-3.176083,51.820042],[-3.176179,51.820156],[-3.176298,51.820265],[-3.176439,51.820367],[-3.176603,51.820463],[-3.1768,51.820482],[-3.17703,51.820426],[-3.177294,51.820293],[-3.17759,51.820084],[-3.177906,51.819952],[-3.178241,51.819895],[-3.178595,51.819914],[-3.178969,51.820008],[-3.179206,51.820111],[-3.179307,51.820221],[-3.179271,51.82034],[-3.179098,51.820466],[-3.178962,51.820578],[-3.178861,51.820677],[-3.178797,51.820762],[-3.178769,51.820834],[-3.178711,51.820867],[-3.178623,51.820862],[-3.178505,51.820818],[-3.178357,51.820736],[-3.178209,51.820673],[-3.17806,51.820629],[-3.17791,51.820604],[-3.177761,51.820598],[-3.177636,51.820635],[-3.177536,51.820715],[-3.177461,51.820837],[-3.177411,51.821003],[-3.177304,51.821129],[-3.177138,51.821217],[-3.176915,51.821265],[-3.176633,51.821274],[-3.176468,51.821311],[-3.17642,51.821378],[-3.176488,51.821473],[-3.176673,51.821596],[-3.176907,51.821658],[-3.177191,51.821656],[-3.177524,51.821592],[-3.177906,51.821465],[-3.178169,51.821393],[-3.178312,51.821377],[-3.178336,51.821416],[-3.178241,51.821511],[-3.17818,51.821609],[-3.178155,51.821711],[-3.178165,51.821816],[-3.178209,51.821925],[-3.178208,51.822017],[-3.178162,51.82209],[-3.178071,51.822146],[-3.177934,51.822185],[-3.177862,51.822244],[-3.177855,51.822325],[-3.177913,51.822427],[-3.178036,51.82255],[-3.178183,51.822638],[-3.178353,51.822691],[-3.178546,51.822709],[-3.178764,51.822692],[-3.178907,51.822708],[-3.178977,51.822758],[-3.178974,51.82284],[-3.178897,51.822955],[-3.178811,51.823083],[-3.178717,51.823223],[-3.178614,51.823375],[-3.178502,51.82354],[-3.178372,51.823673],[-3.178223,51.823774],[-3.178055,51.823842],[-3.177868,51.823878],[-3.177721,51.823893],[-3.177614,51.823886],[-3.177547,51.823858],[-3.177519,51.823807],[-3.177475,51.823771],[-3.177412,51.823747],[-3.177332,51.823737],[-3.177234,51.823741],[-3.17714,51.823778],[-3.17705,51.823849],[-3.176964,51.823954],[-3.176882,51.824093],[-3.176844,51.824196],[-3.176852,51.824264],[-3.176905,51.824296],[-3.177002,51.824292],[-3.17708,51.824304],[-3.177138,51.824332],[-3.177175,51.824375],[-3.177193,51.824434],[-3.177189,51.824494],[-3.177163,51.824554],[-3.177116,51.824614],[-3.177048,51.824675],[-3.177001,51.824736],[-3.176976,51.824796],[-3.176972,51.824855],[-3.176989,51.824914],[-3.177044,51.824965],[-3.177137,51.825008],[-3.177268,51.825043],[-3.177436,51.825069],[-3.177601,51.825085],[-3.177763,51.825089],[-3.177922,51.825083],[-3.178077,51.825065],[-3.178204,51.825066],[-3.178302,51.825085],[-3.178372,51.825123],[-3.178414,51.825179],[-3.1785,51.825221],[-3.178632,51.825248],[-3.178808,51.82526],[-3.17903,51.825258],[-3.179159,51.825215],[-3.179196,51.825131],[-3.17914,51.825006],[-3.178992,51.82484],[-3.1789,51.824706],[-3.178863,51.824603],[-3.178883,51.824533],[-3.178958,51.824494],[-3.179062,51.824461],[-3.179196,51.824434],[-3.17936,51.824414],[-3.179553,51.8244],[-3.179733,51.824434],[-3.1799,51.824518],[-3.180054,51.824651],[-3.180194,51.824833],[-3.180278,51.824991],[-3.180306,51.825125],[-3.180276,51.825235],[-3.180191,51.825321],[-3.180167,51.825396],[-3.180204,51.82546],[-3.180303,51.825514],[-3.180464,51.825556],[-3.180632,51.825697],[-3.180808,51.825936],[-3.180991,51.826273],[-3.181182,51.826709],[-3.181268,51.827019],[-3.181248,51.827203],[-3.181124,51.827263],[-3.180895,51.827198],[-3.180702,51.827153],[-3.180547,51.827129],[-3.180429,51.827125],[-3.180347,51.827142],[-3.180246,51.827153],[-3.180124,51.827159],[-3.179982,51.82716],[-3.17982,51.827156],[-3.179673,51.827157],[-3.179539,51.827165],[-3.179419,51.827178],[-3.179314,51.827198],[-3.179201,51.827203],[-3.179081,51.827194],[-3.178954,51.82717],[-3.178819,51.827132],[-3.178693,51.827123],[-3.178576,51.827144],[-3.178467,51.827195],[-3.178367,51.827274],[-3.178343,51.827348],[-3.178393,51.827414],[-3.178519,51.827474],[-3.17872,51.827528],[-3.178778,51.827578],[-3.178694,51.827626],[-3.178466,51.82767],[-3.178096,51.827712],[-3.177766,51.827776],[-3.177476,51.827862],[-3.177227,51.82797],[-3.177019,51.828101],[-3.176855,51.828184],[-3.176736,51.82822],[-3.176662,51.828209],[-3.176633,51.828152],[-3.176557,51.828115],[-3.176435,51.828098],[-3.176266,51.828102],[-3.176051,51.828126],[-3.175864,51.828182],[-3.175704,51.828268],[-3.175572,51.828386],[-3.175468,51.828535],[-3.175437,51.828628],[-3.175479,51.828665],[-3.175594,51.828646],[-3.175782,51.828572],[-3.175925,51.828557],[-3.176026,51.828603],[-3.176082,51.828709],[-3.176094,51.828875],[-3.176075,51.82902],[-3.176025,51.829144],[-3.175944,51.829246],[-3.175832,51.829327],[-3.175723,51.829437],[-3.175615,51.829574],[-3.17551,51.82974],[-3.175407,51.829935],[-3.175384,51.830105],[-3.175439,51.830251],[-3.175574,51.830373],[-3.175788,51.83047],[-3.175962,51.830578],[-3.176096,51.830696],[-3.17619,51.830825],[-3.176243,51.830963],[-3.176303,51.831082],[-3.176369,51.831181],[-3.176442,51.83126],[-3.176522,51.83132],[-3.176619,51.831366],[-3.176733,51.831399],[-3.176866,51.831418],[-3.177015,51.831424],[-3.177159,51.83145],[-3.177296,51.831495],[-3.177426,51.83156],[-3.17755,51.831645],[-3.177696,51.831709],[-3.177863,51.831751],[-3.178051,51.831771],[-3.178261,51.83177],[-3.178412,51.83178],[-3.178504,51.8318],[-3.178538,51.83183],[-3.178513,51.831871],[-3.178444,51.831909],[-3.178331,51.831945],[-3.178174,51.831978],[-3.177973,51.832008],[-3.177794,51.832031],[-3.177638,51.832044],[-3.177504,51.83205],[-3.177392,51.832047],[-3.177254,51.832052],[-3.17709,51.832063],[-3.176901,51.83208],[-3.176686,51.832104],[-3.176513,51.832135],[-3.176382,51.832173],[-3.176293,51.832217],[-3.176247,51.832268],[-3.176275,51.832322],[-3.176378,51.832379],[-3.176557,51.832439],[-3.17681,51.832502],[-3.177026,51.832532],[-3.177205,51.832531],[-3.177346,51.832498],[-3.17745,51.832433],[-3.177551,51.832397],[-3.177647,51.83239],[-3.17774,51.832412],[-3.177829,51.832462],[-3.177919,51.832513],[-3.178008,51.832564],[-3.178097,51.832615],[-3.178186,51.832666],[-3.178266,51.832725],[-3.178335,51.832793],[-3.178395,51.83287],[-3.178445,51.832956],[-3.17853,51.833044],[-3.178649,51.833133],[-3.178802,51.833224],[-3.17899,51.833317],[-3.179135,51.8334],[-3.179237,51.833472],[-3.179296,51.833534],[-3.179311,51.833585],[-3.179361,51.83365],[-3.179446,51.833728],[-3.179565,51.833819],[-3.17972,51.833923],[-3.179876,51.834022],[-3.180033,51.834115],[-3.180191,51.834201],[-3.180351,51.834282],[-3.180508,51.834373],[-3.180661,51.834474],[-3.180811,51.834584],[-3.180958,51.834705],[-3.181058,51.834811],[-3.18111,51.834904],[-3.181115,51.834984],[-3.181073,51.835049],[-3.18107,51.835135],[-3.181108,51.835241],[-3.181185,51.835368],[-3.181303,51.835514],[-3.181432,51.835618],[-3.181574,51.835678],[-3.181727,51.835695],[-3.181892,51.835668],[-3.182043,51.835613],[-3.182178,51.83553],[-3.182299,51.835417],[-3.182406,51.835275],[-3.182502,51.835217],[-3.18259,51.835241],[-3.182668,51.835349],[-3.182737,51.835539],[-3.182768,51.835706],[-3.182762,51.835852],[-3.182718,51.835975],[-3.182636,51.836075],[-3.1826,51.836192],[-3.182608,51.836324],[-3.182661,51.836472],[-3.182759,51.836636],[-3.182878,51.836722],[-3.183016,51.836729],[-3.183174,51.836658],[-3.183352,51.836508],[-3.183492,51.83642],[-3.183595,51.836393],[-3.183661,51.836428],[-3.18369,51.836523],[-3.183733,51.836596],[-3.183791,51.836647],[-3.183864,51.836675],[-3.183952,51.83668],[-3.18403,51.83666],[-3.184096,51.836614],[-3.184152,51.836543],[-3.184198,51.836447],[-3.184195,51.836312],[-3.184144,51.836139],[-3.184044,51.835928],[-3.183896,51.835678],[-3.183771,51.835475],[-3.183669,51.835319],[-3.18359,51.83521],[-3.183535,51.835148],[-3.183489,51.835075],[-3.183452,51.834992],[-3.183424,51.834898],[-3.183405,51.834793],[-3.183433,51.834699],[-3.183506,51.834614],[-3.183626,51.83454],[-3.183793,51.834475],[-3.183929,51.834456],[-3.184035,51.834482],[-3.184112,51.834553],[-3.184159,51.83467],[-3.184226,51.834761],[-3.184314,51.834827],[-3.184422,51.834868],[-3.18455,51.834884],[-3.184662,51.834868],[-3.184759,51.834819],[-3.18484,51.834737],[-3.184905,51.834623],[-3.184911,51.83453],[-3.184858,51.834456],[-3.184747,51.834402],[-3.184576,51.834368],[-3.18448,51.834327],[-3.18446,51.83428],[-3.184515,51.834226],[-3.184646,51.834166],[-3.184748,51.834095],[-3.184823,51.834014],[-3.18487,51.833923],[-3.18489,51.833822],[-3.18483,51.833756],[-3.184692,51.833726],[-3.184474,51.833732],[-3.184177,51.833773],[-3.183959,51.833745],[-3.183819,51.833646],[-3.183756,51.833478],[-3.183772,51.83324],[-3.183799,51.833039],[-3.183837,51.832875],[-3.183886,51.832748],[-3.183945,51.832658],[-3.184005,51.832578],[-3.184066,51.832511],[-3.184126,51.832454],[-3.184187,51.832409],[-3.184227,51.832327],[-3.184247,51.832207],[-3.184247,51.832049],[-3.184226,51.831853],[-3.184223,51.831656],[-3.184238,51.831456],[-3.184271,51.831254],[-3.184321,51.831051],[-3.184321,51.830902],[-3.184268,51.830809],[-3.184165,51.830771],[-3.184009,51.830789],[-3.183888,51.830765],[-3.1838,51.830698],[-3.183746,51.83059],[-3.183727,51.83044],[-3.183738,51.830311],[-3.18378,51.830204],[-3.183853,51.830118],[-3.183958,51.830053],[-3.184056,51.829977],[-3.184147,51.82989],[-3.184233,51.829793],[-3.184312,51.829685],[-3.184309,51.829571],[-3.184224,51.829451],[-3.184057,51.829326],[-3.183808,51.829194],[-3.183629,51.82907],[-3.18352,51.828952],[-3.183482,51.828843],[-3.183513,51.82874],[-3.183589,51.828673],[-3.183709,51.82864],[-3.183873,51.828642],[-3.184082,51.82868],[-3.184305,51.828702],[-3.184541,51.828709],[-3.184792,51.828702],[-3.185057,51.82868],[-3.185293,51.828642],[-3.185499,51.828588],[-3.185676,51.828518],[-3.185824,51.828433],[-3.185935,51.828392],[-3.18601,51.828395],[-3.186049,51.828442],[-3.186051,51.828533],[-3.186014,51.828627],[-3.185938,51.828723],[-3.185822,51.828821],[-3.185667,51.828923],[-3.18556,51.829011],[-3.185502,51.829086],[-3.185493,51.829148],[-3.185532,51.829197],[-3.1856,51.829239],[-3.185697,51.829273],[-3.185822,51.829301],[-3.185976,51.829322],[-3.186142,51.829318],[-3.186319,51.829291],[-3.186508,51.829239],[-3.186707,51.829163],[-3.186902,51.829059],[-3.187091,51.828927],[-3.187276,51.828767],[-3.187455,51.82858],[-3.187554,51.828416],[-3.187575,51.828277],[-3.187516,51.828162],[-3.187378,51.828071],[-3.187304,51.827969],[-3.187295,51.827855],[-3.187351,51.827731],[-3.187472,51.827596],[-3.187567,51.82752],[-3.187636,51.827505],[-3.18768,51.827549],[-3.187699,51.827654],[-3.187727,51.82774],[-3.187766,51.827808],[-3.187815,51.827858],[-3.187873,51.827889],[-3.187935,51.827939],[-3.187998,51.828008],[-3.188064,51.828096],[-3.188133,51.828202],[-3.188221,51.828247],[-3.188327,51.828232],[-3.188452,51.828155],[-3.188597,51.828016],[-3.188783,51.827841],[-3.18901,51.827629],[-3.189279,51.82738],[-3.189589,51.827093],[-3.189812,51.826855],[-3.189946,51.826665],[-3.189994,51.826522],[-3.189953,51.826428],[-3.189944,51.826322],[-3.189965,51.826206],[-3.190017,51.826078],[-3.190099,51.825939],[-3.190113,51.825831],[-3.190059,51.825754],[-3.189937,51.825706],[-3.189747,51.82569],[-3.189558,51.825626],[-3.189371,51.825514],[-3.189184,51.825354],[-3.188999,51.825146],[-3.188804,51.825041],[-3.1886,51.825038],[-3.188385,51.825136],[-3.18816,51.825337],[-3.187958,51.825477],[-3.187779,51.825559],[-3.187621,51.82558],[-3.187487,51.825542],[-3.187343,51.825536],[-3.187189,51.825561],[-3.187027,51.825617],[-3.186856,51.825705],[-3.186769,51.825776],[-3.186766,51.825829],[-3.186848,51.825866],[-3.187014,51.825885],[-3.187143,51.825914],[-3.187235,51.825953],[-3.18729,51.826002],[-3.187307,51.826061],[-3.187276,51.826112],[-3.187196,51.826156],[-3.187068,51.826191],[-3.186891,51.826219],[-3.186737,51.826253],[-3.186607,51.826295],[-3.186501,51.826343],[-3.186419,51.826398],[-3.186381,51.826478],[-3.186388,51.826584],[-3.186439,51.826715],[-3.186535,51.826872],[-3.186543,51.827004],[-3.186464,51.827112],[-3.186297,51.827196],[-3.186043,51.827255],[-3.185824,51.82732],[-3.185641,51.82739],[-3.185494,51.827465],[-3.185382,51.827547],[-3.185282,51.827594],[-3.185194,51.827608],[-3.185117,51.827588],[-3.185051,51.827535],[-3.184985,51.827489],[-3.184919,51.827451],[-3.184851,51.82742],[-3.184782,51.827397],[-3.184716,51.827329],[-3.184651,51.827214],[-3.184588,51.827054],[-3.184527,51.826848],[-3.184442,51.826675],[-3.184332,51.826535],[-3.184199,51.826428],[-3.184041,51.826355],[-3.183917,51.82626],[-3.183828,51.826145],[-3.183772,51.826008],[-3.18375,51.825851],[-3.18375,51.825725],[-3.183771,51.825632],[-3.183815,51.82557],[-3.18388,51.825539],[-3.183953,51.825525],[-3.184034,51.825528],[-3.184123,51.825546],[-3.184219,51.825581],[-3.184335,51.825608],[-3.184471,51.825627],[-3.184625,51.825638],[-3.184799,51.825641],[-3.184936,51.825677],[-3.185037,51.825745],[-3.185101,51.825847],[-3.185128,51.82598],[-3.185116,51.826085],[-3.185064,51.826159],[-3.184972,51.826204],[-3.184841,51.826219],[-3.184749,51.826244],[-3.184698,51.82628],[-3.184687,51.826327],[-3.184717,51.826385],[-3.184777,51.826443],[-3.184869,51.826501],[-3.184991,51.826559],[-3.185144,51.826618],[-3.185326,51.826628],[-3.185537,51.826589],[-3.185776,51.826501],[-3.186044,51.826364],[-3.186224,51.82625],[-3.186314,51.82616],[-3.186316,51.826093],[-3.186229,51.82605],[-3.186155,51.825988],[-3.186094,51.825907],[-3.186046,51.825808],[-3.186011,51.82569],[-3.186037,51.825567],[-3.186122,51.82544],[-3.186268,51.825307],[-3.186475,51.82517],[-3.186628,51.825051],[-3.186728,51.824952],[-3.186776,51.824873],[-3.18677,51.824813],[-3.186783,51.824762],[-3.186814,51.82472],[-3.186863,51.824688],[-3.18693,51.824665],[-3.187063,51.824614],[-3.187262,51.824534],[-3.187526,51.824426],[-3.187856,51.82429],[-3.188095,51.824137],[-3.188243,51.823968],[-3.188299,51.823783],[-3.188264,51.823582],[-3.188197,51.82341],[-3.1881,51.823269],[-3.187971,51.823158],[-3.187812,51.823077],[-3.187653,51.822979],[-3.187495,51.822863],[-3.187339,51.822731],[-3.187183,51.822581],[-3.187081,51.822423],[-3.187032,51.822257],[-3.187036,51.822084],[-3.187093,51.821902],[-3.187109,51.821746],[-3.187082,51.821616],[-3.187014,51.821511],[-3.186904,51.821432],[-3.186784,51.821381],[-3.186654,51.821358],[-3.186513,51.821363],[-3.186362,51.821395],[-3.18621,51.821414],[-3.186058,51.82142],[-3.185904,51.821412],[-3.18575,51.821392],[-3.185621,51.821363],[-3.185517,51.821325],[-3.185439,51.821279],[-3.185385,51.821224],[-3.185338,51.821168],[-3.185297,51.821112],[-3.185261,51.821055],[-3.185232,51.820997],[-3.185147,51.82094],[-3.185007,51.820884],[-3.184811,51.820828],[-3.18456,51.820773],[-3.184446,51.820698],[-3.184467,51.820604],[-3.184625,51.820491],[-3.184919,51.820359],[-3.185136,51.820236],[-3.185275,51.820121],[-3.185336,51.820015],[-3.18532,51.819918],[-3.185266,51.819842],[-3.185176,51.819788],[-3.185049,51.819754],[-3.184885,51.819743],[-3.184785,51.819678],[-3.18475,51.81956],[-3.18478,51.819389],[-3.184874,51.819165],[-3.184969,51.819004],[-3.185063,51.818906],[-3.185157,51.818871],[-3.185252,51.818898],[-3.185394,51.818897],[-3.185583,51.818868],[-3.185819,51.818811],[-3.186102,51.818726],[-3.186289,51.818647],[-3.186379,51.818576],[-3.186372,51.818512],[-3.186269,51.818455],[-3.186122,51.818407],[-3.185931,51.818368],[-3.185697,51.818337],[-3.185419,51.818316],[-3.185176,51.818318],[-3.184968,51.818346],[-3.184795,51.818398],[-3.184657,51.818474],[-3.184522,51.818529],[-3.18439,51.818563],[-3.184261,51.818576],[-3.184135,51.818567],[-3.184062,51.818538],[-3.18404,51.818487],[-3.184072,51.818415],[-3.184155,51.818322],[-3.184186,51.818227],[-3.184163,51.81813],[-3.184088,51.818032],[-3.18396,51.817933],[-3.183829,51.817867],[-3.183697,51.817837],[-3.183562,51.817841],[-3.183425,51.817879],[-3.183282,51.817874],[-3.183132,51.817826],[-3.182975,51.817736],[-3.182812,51.817602],[-3.182653,51.817428],[-3.182496,51.817213]]]}}