{"type":"Feature","properties":{"id":"283461","COMMUNE":"Perth and Kinross","PROVINCE":"Perth & Kinross and Stirling","COUNTRY":"UK","FIREDATE":"2025-10-10 13:31:00","CLASS":"FireSeason","areaHA_geo":2.578},"geometry":{"type":"Polygon","coordinates":[[[-3.882814,56.474306],[-3.882869,56.474347],[-3.882966,56.474367],[-3.883107,56.474363],[-3.883289,56.474337],[-3.883427,56.474303],[-3.88352,56.474262],[-3.883567,56.474213],[-3.883569,56.474157],[-3.883642,56.474129],[-3.883787,56.474131],[-3.884004,56.474161],[-3.884292,56.47422],[-3.884505,56.474243],[-3.884645,56.47423],[-3.88471,56.47418],[-3.884701,56.474093],[-3.884735,56.474043],[-3.884812,56.47403],[-3.884933,56.474054],[-3.885096,56.474114],[-3.885253,56.474153],[-3.885404,56.474169],[-3.885548,56.474164],[-3.885685,56.474136],[-3.88582,56.474079],[-3.885952,56.473991],[-3.886081,56.473873],[-3.886208,56.473725],[-3.886334,56.47361],[-3.88646,56.473527],[-3.886585,56.473478],[-3.886709,56.473461],[-3.886774,56.473398],[-3.886779,56.473288],[-3.886724,56.473132],[-3.88661,56.472929],[-3.88651,56.4728],[-3.886425,56.472745],[-3.886355,56.472764],[-3.886298,56.472858],[-3.886197,56.472934],[-3.886052,56.472994],[-3.885862,56.473036],[-3.885628,56.473062],[-3.885419,56.473075],[-3.885236,56.473076],[-3.885077,56.473065],[-3.884944,56.473042],[-3.884824,56.473027],[-3.884716,56.473018],[-3.884621,56.473017],[-3.884538,56.473022],[-3.884491,56.473042],[-3.884481,56.473076],[-3.884507,56.473124],[-3.88457,56.473186],[-3.884578,56.473228],[-3.884532,56.47325],[-3.884433,56.473252],[-3.884279,56.473235],[-3.884175,56.473246],[-3.884122,56.473286],[-3.884119,56.473355],[-3.884166,56.473453],[-3.884081,56.473518],[-3.883863,56.473549],[-3.883513,56.473548],[-3.88303,56.473512],[-3.882675,56.473506],[-3.882448,56.473527],[-3.882349,56.473577],[-3.882377,56.473655],[-3.882376,56.473728],[-3.882344,56.473795],[-3.882282,56.473858],[-3.882189,56.473914],[-3.882166,56.473966],[-3.882211,56.474013],[-3.882325,56.474054],[-3.882508,56.474091],[-3.882649,56.474134],[-3.882747,56.474184],[-3.882802,56.474242],[-3.882814,56.474306]]]}}