{"type":"Feature","properties":{"id":"283460","COMMUNE":"Ryedale","PROVINCE":"North Yorkshire CC","COUNTRY":"UK","FIREDATE":"2025-10-08 13:21:00","FINALDATE":"2025-10-08 13:21:00","CLASS":"FireSeason","areaHA_geo":4.469},"geometry":{"type":"Polygon","coordinates":[[[-1.209624,54.368181],[-1.210317,54.368181],[-1.21086,54.368172],[-1.211251,54.368157],[-1.211491,54.368133],[-1.211581,54.368102],[-1.211802,54.368082],[-1.212156,54.368073],[-1.212642,54.368074],[-1.213261,54.368085],[-1.213773,54.368066],[-1.214179,54.368014],[-1.214479,54.367932],[-1.214672,54.367817],[-1.214651,54.367705],[-1.214416,54.367596],[-1.213967,54.367489],[-1.213304,54.367385],[-1.212779,54.367323],[-1.212393,54.367305],[-1.212146,54.367329],[-1.212037,54.367395],[-1.211915,54.367424],[-1.211781,54.367413],[-1.211633,54.367364],[-1.211472,54.367276],[-1.211248,54.367189],[-1.21096,54.367101],[-1.210609,54.367014],[-1.210195,54.366927],[-1.20984,54.366862],[-1.209546,54.366821],[-1.209311,54.366803],[-1.209137,54.366807],[-1.208986,54.36682],[-1.20886,54.36684],[-1.208757,54.366867],[-1.208679,54.366903],[-1.208581,54.366926],[-1.208461,54.366937],[-1.208322,54.366936],[-1.208162,54.366922],[-1.208037,54.366937],[-1.207946,54.366983],[-1.207891,54.367057],[-1.207871,54.367162],[-1.207871,54.367271],[-1.207893,54.367386],[-1.207935,54.367505],[-1.207999,54.36763],[-1.208077,54.367747],[-1.20817,54.367855],[-1.208278,54.367955],[-1.2084,54.368046],[-1.208666,54.368114],[-1.209074,54.368159],[-1.209624,54.368181]]]}}