{"type":"Feature","properties":{"id":"283593","COMMUNE":"Angus","PROVINCE":"Angus and Dundee City","COUNTRY":"UK","FIREDATE":"2025-10-10 13:31:00","CLASS":"FireSeason","areaHA_geo":9.403},"geometry":{"type":"Polygon","coordinates":[[[-2.925504,56.848326],[-2.925647,56.848395],[-2.925852,56.848466],[-2.926121,56.848539],[-2.926453,56.848616],[-2.926848,56.848694],[-2.927214,56.848749],[-2.927549,56.848781],[-2.927855,56.848789],[-2.928131,56.848773],[-2.928405,56.848746],[-2.928679,56.848706],[-2.92895,56.848656],[-2.929221,56.848593],[-2.929406,56.848526],[-2.929506,56.848454],[-2.92952,56.848377],[-2.929448,56.848295],[-2.929482,56.848228],[-2.929621,56.848176],[-2.929865,56.848138],[-2.930214,56.848115],[-2.930496,56.848109],[-2.930711,56.84812],[-2.930858,56.848148],[-2.930939,56.848193],[-2.931043,56.848213],[-2.93117,56.848206],[-2.931321,56.848173],[-2.931496,56.848114],[-2.931652,56.848064],[-2.931789,56.848024],[-2.931909,56.847993],[-2.932009,56.847971],[-2.932067,56.847936],[-2.932083,56.847887],[-2.932056,56.847824],[-2.931987,56.847748],[-2.931948,56.847677],[-2.931941,56.847609],[-2.931966,56.847546],[-2.932021,56.847488],[-2.932118,56.847471],[-2.932256,56.847495],[-2.932436,56.847561],[-2.932657,56.847669],[-2.932788,56.847758],[-2.932828,56.847828],[-2.932778,56.847879],[-2.932638,56.847911],[-2.932526,56.847949],[-2.932444,56.847992],[-2.932391,56.848042],[-2.932367,56.848098],[-2.932381,56.848139],[-2.932434,56.848166],[-2.932525,56.84818],[-2.932654,56.848178],[-2.932789,56.848155],[-2.93293,56.848108],[-2.933077,56.848039],[-2.933229,56.847946],[-2.933336,56.847865],[-2.933398,56.847793],[-2.933415,56.847733],[-2.933387,56.847682],[-2.933426,56.847656],[-2.933534,56.847654],[-2.933709,56.847677],[-2.933953,56.847723],[-2.934103,56.847729],[-2.934162,56.847693],[-2.934127,56.847617],[-2.934,56.8475],[-2.9339,56.84739],[-2.933827,56.847288],[-2.933781,56.847193],[-2.933762,56.847106],[-2.933681,56.847029],[-2.933538,56.84696],[-2.933334,56.846901],[-2.933067,56.846851],[-2.932852,56.8468],[-2.932688,56.846748],[-2.932576,56.846696],[-2.932514,56.846643],[-2.932353,56.846598],[-2.932091,56.846562],[-2.93173,56.846535],[-2.931269,56.846516],[-2.930696,56.846508],[-2.93001,56.846512],[-2.929212,56.846527],[-2.928301,56.846553],[-2.927562,56.84659],[-2.926994,56.846638],[-2.926598,56.846696],[-2.926373,56.846766],[-2.926225,56.846839],[-2.926153,56.846914],[-2.926159,56.846992],[-2.92624,56.847072],[-2.926235,56.847136],[-2.926144,56.847184],[-2.925965,56.847215],[-2.9257,56.84723],[-2.9255,56.847302],[-2.925366,56.84743],[-2.925297,56.847616],[-2.925294,56.847859],[-2.925328,56.848058],[-2.925398,56.848214],[-2.925504,56.848326]]]}}