{"type":"Feature","properties":{"id":"283594","COMMUNE":"Angus","PROVINCE":"Angus and Dundee City","COUNTRY":"UK","FIREDATE":"2025-10-10 12:42:00","CLASS":"FireSeason","areaHA_geo":1.819},"geometry":{"type":"Polygon","coordinates":[[[-2.935042,56.846206],[-2.934972,56.846303],[-2.93498,56.846388],[-2.935065,56.846461],[-2.935226,56.846522],[-2.93541,56.846538],[-2.935616,56.846508],[-2.935845,56.846434],[-2.936096,56.846314],[-2.936307,56.846222],[-2.93648,56.846157],[-2.936613,56.84612],[-2.936707,56.846111],[-2.936798,56.846084],[-2.936886,56.846039],[-2.93697,56.845978],[-2.937051,56.845899],[-2.937118,56.845796],[-2.937172,56.845669],[-2.937212,56.845519],[-2.937238,56.845345],[-2.937215,56.845198],[-2.937141,56.845078],[-2.937017,56.844985],[-2.936843,56.84492],[-2.936778,56.844857],[-2.936822,56.844796],[-2.936975,56.844738],[-2.937237,56.844682],[-2.93744,56.844604],[-2.937584,56.844504],[-2.937669,56.844382],[-2.937695,56.844237],[-2.937676,56.844121],[-2.937613,56.844032],[-2.937506,56.843972],[-2.937354,56.84394],[-2.937155,56.844013],[-2.936908,56.844192],[-2.936614,56.844476],[-2.936272,56.844865],[-2.936022,56.845184],[-2.935865,56.845433],[-2.9358,56.845613],[-2.935827,56.845723],[-2.935818,56.845808],[-2.935774,56.845868],[-2.935695,56.845904],[-2.93558,56.845916],[-2.935457,56.845952],[-2.935326,56.846012],[-2.935188,56.846097],[-2.935042,56.846206]]]}}