{"type":"Feature","properties":{"id":"283582","COMMUNE":"Scottish Borders","PROVINCE":"Scottish Borders","COUNTRY":"UK","FIREDATE":"2025-10-11 12:23:00","CLASS":"FireSeason","areaHA_geo":2.717},"geometry":{"type":"Polygon","coordinates":[[[-2.69909,55.821053],[-2.699386,55.821067],[-2.699639,55.821092],[-2.699849,55.821128],[-2.700017,55.821174],[-2.700142,55.82123],[-2.700283,55.821268],[-2.70044,55.821287],[-2.700614,55.821286],[-2.700804,55.821267],[-2.700956,55.82127],[-2.70107,55.821295],[-2.701147,55.821341],[-2.701186,55.82141],[-2.70127,55.82145],[-2.7014,55.821462],[-2.701576,55.821446],[-2.701796,55.821402],[-2.701991,55.821375],[-2.702158,55.821366],[-2.7023,55.821375],[-2.702415,55.821401],[-2.702524,55.821414],[-2.702628,55.821415],[-2.702726,55.821402],[-2.702819,55.821377],[-2.702894,55.821371],[-2.702951,55.821385],[-2.702991,55.821417],[-2.703013,55.821468],[-2.703072,55.821507],[-2.703168,55.821533],[-2.7033,55.821547],[-2.703468,55.821549],[-2.703624,55.821531],[-2.703768,55.821491],[-2.7039,55.821431],[-2.704019,55.821349],[-2.704148,55.821278],[-2.704287,55.821215],[-2.704436,55.821161],[-2.704595,55.821117],[-2.704717,55.821074],[-2.704801,55.821033],[-2.704849,55.820993],[-2.704858,55.820954],[-2.704855,55.82091],[-2.704839,55.820862],[-2.704811,55.820808],[-2.704769,55.820749],[-2.704632,55.820706],[-2.704398,55.820677],[-2.704069,55.820664],[-2.703645,55.820666],[-2.703254,55.820666],[-2.702898,55.820664],[-2.702576,55.82066],[-2.702289,55.820655],[-2.701997,55.820633],[-2.701702,55.820595],[-2.701403,55.820541],[-2.701101,55.820471],[-2.700852,55.820434],[-2.700657,55.82043],[-2.700517,55.820459],[-2.700431,55.820521],[-2.700328,55.820565],[-2.700208,55.820591],[-2.70007,55.820599],[-2.699916,55.82059],[-2.6998,55.820606],[-2.699721,55.820649],[-2.699681,55.820717],[-2.699678,55.820812],[-2.699621,55.820879],[-2.699511,55.820918],[-2.699347,55.82093],[-2.699129,55.820914],[-2.698956,55.820911],[-2.698827,55.820921],[-2.698744,55.820943],[-2.698705,55.820979],[-2.69875,55.821009],[-2.698878,55.821033],[-2.69909,55.821053]]]}}