{"type":"Feature","properties":{"id":"283597","COMMUNE":"Angus","PROVINCE":"Angus and Dundee City","COUNTRY":"UK","FIREDATE":"2025-10-10 11:02:00","CLASS":"FireSeason","areaHA_geo":2.079},"geometry":{"type":"Polygon","coordinates":[[[-2.945785,56.848475],[-2.945913,56.848469],[-2.946011,56.848456],[-2.94608,56.848437],[-2.946121,56.848412],[-2.946132,56.848382],[-2.94621,56.848349],[-2.946354,56.848313],[-2.946566,56.848276],[-2.946844,56.848236],[-2.947056,56.848222],[-2.947201,56.848234],[-2.947279,56.848273],[-2.94729,56.848336],[-2.947327,56.848387],[-2.947389,56.848426],[-2.947476,56.848451],[-2.947588,56.848463],[-2.947684,56.848443],[-2.947764,56.848391],[-2.947826,56.848306],[-2.947872,56.848189],[-2.94781,56.848079],[-2.947639,56.847975],[-2.947359,56.847877],[-2.94697,56.847786],[-2.946686,56.84769],[-2.946505,56.84759],[-2.946428,56.847485],[-2.946455,56.847376],[-2.94645,56.847273],[-2.946411,56.847176],[-2.946339,56.847086],[-2.946234,56.847002],[-2.946073,56.846943],[-2.945856,56.846908],[-2.945582,56.846899],[-2.945252,56.846914],[-2.944934,56.846943],[-2.94463,56.846985],[-2.944338,56.847041],[-2.944059,56.84711],[-2.943872,56.847181],[-2.943778,56.847252],[-2.943776,56.847325],[-2.943866,56.847399],[-2.943994,56.847448],[-2.94416,56.847473],[-2.944363,56.847473],[-2.944603,56.847449],[-2.944752,56.847451],[-2.94481,56.847477],[-2.944777,56.847529],[-2.944652,56.847607],[-2.944596,56.847672],[-2.944609,56.847724],[-2.94469,56.847763],[-2.94484,56.847789],[-2.94499,56.847785],[-2.94514,56.847749],[-2.94529,56.847682],[-2.94544,56.847584],[-2.945553,56.847543],[-2.945629,56.847559],[-2.945667,56.847632],[-2.945669,56.847762],[-2.945631,56.847873],[-2.945554,56.847963],[-2.945438,56.848034],[-2.945283,56.848085],[-2.9452,56.848144],[-2.94519,56.84821],[-2.945254,56.848283],[-2.94539,56.848364],[-2.945524,56.848423],[-2.945656,56.84846],[-2.945785,56.848475]]]}}