{"type":"Feature","properties":{"id":"283595","COMMUNE":"Angus","PROVINCE":"Angus and Dundee City","COUNTRY":"UK","FIREDATE":"2025-10-10 12:42:00","CLASS":"FireSeason","areaHA_geo":1.348},"geometry":{"type":"Polygon","coordinates":[[[-2.93765,56.84265],[-2.937636,56.842789],[-2.937716,56.842879],[-2.937889,56.842919],[-2.938157,56.84291],[-2.938376,56.842934],[-2.938547,56.842991],[-2.93867,56.843081],[-2.938745,56.843203],[-2.938904,56.843312],[-2.939147,56.843406],[-2.939475,56.843485],[-2.939887,56.84355],[-2.9402,56.843587],[-2.940413,56.843595],[-2.940528,56.843575],[-2.940544,56.843526],[-2.940522,56.843478],[-2.940462,56.843431],[-2.940365,56.843384],[-2.94023,56.843339],[-2.940105,56.843249],[-2.939988,56.843116],[-2.939881,56.842939],[-2.939783,56.842718],[-2.939603,56.842539],[-2.939339,56.842403],[-2.938993,56.842309],[-2.938564,56.842257],[-2.938215,56.842266],[-2.937947,56.842334],[-2.937759,56.842462],[-2.93765,56.84265]]]}}