{"type":"Feature","properties":{"id":"283581","COMMUNE":"Scottish Borders","PROVINCE":"Scottish Borders","COUNTRY":"UK","FIREDATE":"2025-10-10 12:42:00","FINALDATE":"2025-10-11 12:51:00","CLASS":"FireSeason","areaHA_geo":2.594},"geometry":{"type":"Polygon","coordinates":[[[-2.708449,55.819075],[-2.70846,55.819005],[-2.708493,55.818951],[-2.708547,55.818912],[-2.708624,55.81889],[-2.708722,55.818883],[-2.708824,55.818882],[-2.70893,55.818887],[-2.709038,55.818898],[-2.70915,55.818915],[-2.709261,55.818926],[-2.709372,55.818931],[-2.709482,55.818929],[-2.709592,55.818921],[-2.709704,55.818892],[-2.709819,55.818843],[-2.709938,55.818773],[-2.710059,55.818682],[-2.710136,55.818607],[-2.710166,55.818547],[-2.710152,55.818503],[-2.710092,55.818475],[-2.710051,55.818443],[-2.710029,55.81841],[-2.710026,55.818373],[-2.710041,55.818334],[-2.710105,55.81832],[-2.710218,55.818332],[-2.71038,55.81837],[-2.710591,55.818434],[-2.710767,55.818479],[-2.710907,55.818506],[-2.711012,55.818514],[-2.711082,55.818504],[-2.711158,55.818476],[-2.711241,55.81843],[-2.71133,55.818366],[-2.711427,55.818284],[-2.711489,55.818218],[-2.711518,55.818168],[-2.711512,55.818134],[-2.711473,55.818116],[-2.711391,55.818101],[-2.711266,55.818088],[-2.711099,55.818078],[-2.71089,55.818071],[-2.710841,55.818034],[-2.710954,55.817968],[-2.711228,55.817872],[-2.711663,55.817746],[-2.711984,55.817647],[-2.712192,55.817572],[-2.712287,55.817523],[-2.712268,55.8175],[-2.712266,55.817477],[-2.712281,55.817453],[-2.712312,55.81743],[-2.712361,55.817406],[-2.712405,55.817376],[-2.712446,55.817338],[-2.712484,55.817295],[-2.712518,55.817244],[-2.712573,55.817186],[-2.712649,55.81712],[-2.712747,55.817047],[-2.712866,55.816965],[-2.712843,55.816896],[-2.712679,55.816839],[-2.712373,55.816794],[-2.711926,55.81676],[-2.711544,55.816758],[-2.711229,55.816786],[-2.710979,55.816846],[-2.710796,55.816936],[-2.710666,55.817018],[-2.710589,55.81709],[-2.710565,55.817153],[-2.710593,55.817207],[-2.710589,55.817253],[-2.710551,55.817291],[-2.71048,55.817322],[-2.710375,55.817345],[-2.710293,55.817378],[-2.710231,55.817422],[-2.710192,55.817476],[-2.710174,55.817541],[-2.710183,55.817595],[-2.71022,55.817639],[-2.710283,55.817671],[-2.710375,55.817694],[-2.710434,55.817722],[-2.710462,55.817755],[-2.710458,55.817794],[-2.710422,55.817838],[-2.710352,55.817878],[-2.710249,55.817914],[-2.710112,55.817945],[-2.709942,55.817971],[-2.709778,55.818008],[-2.70962,55.818056],[-2.709468,55.818113],[-2.709322,55.818181],[-2.70919,55.818244],[-2.709071,55.818302],[-2.708967,55.818354],[-2.708876,55.818401],[-2.70881,55.818447],[-2.708768,55.818492],[-2.708752,55.818536],[-2.70876,55.818579],[-2.708735,55.818621],[-2.708676,55.818664],[-2.708583,55.818705],[-2.708457,55.818746],[-2.708362,55.8188],[-2.7083,55.818868],[-2.708271,55.818949],[-2.708274,55.819043],[-2.708285,55.819113],[-2.708306,55.819159],[-2.708336,55.819182],[-2.708375,55.819182],[-2.708407,55.819164],[-2.708432,55.819128],[-2.708449,55.819075]]]}}