{"type":"Feature","properties":{"id":"283601","COMMUNE":"Angus","PROVINCE":"Angus and Dundee City","COUNTRY":"UK","FIREDATE":"2025-10-12 00:00:00","CLASS":"FireSeason","areaHA_geo":2.553},"geometry":{"type":"Polygon","coordinates":[[[-2.911887,56.852287],[-2.911928,56.852404],[-2.912019,56.852419],[-2.912162,56.85233],[-2.912356,56.852139],[-2.912547,56.851978],[-2.912734,56.851847],[-2.912919,56.851746],[-2.9131,56.851675],[-2.913225,56.851646],[-2.913295,56.85166],[-2.913309,56.851716],[-2.913267,56.851815],[-2.913236,56.851907],[-2.913217,56.851991],[-2.913208,56.852069],[-2.913211,56.85214],[-2.913236,56.852189],[-2.913284,56.852217],[-2.913353,56.852223],[-2.913446,56.852208],[-2.91349,56.852226],[-2.913485,56.852277],[-2.913433,56.85236],[-2.913333,56.852477],[-2.913248,56.852599],[-2.913178,56.852727],[-2.913124,56.852861],[-2.913086,56.853001],[-2.913099,56.853094],[-2.913164,56.853141],[-2.91328,56.853141],[-2.913448,56.853095],[-2.91358,56.853039],[-2.913677,56.852973],[-2.913737,56.852898],[-2.913762,56.852812],[-2.913796,56.852722],[-2.913838,56.852626],[-2.91389,56.852524],[-2.913951,56.852418],[-2.914023,56.852346],[-2.914108,56.852308],[-2.914204,56.852304],[-2.914312,56.852334],[-2.914385,56.852321],[-2.914425,56.852264],[-2.914431,56.852163],[-2.914403,56.852018],[-2.91439,56.851895],[-2.914393,56.851794],[-2.914412,56.851715],[-2.914447,56.851659],[-2.91446,56.851595],[-2.914452,56.851525],[-2.914423,56.851448],[-2.914372,56.851364],[-2.914366,56.85129],[-2.914402,56.851224],[-2.914483,56.851167],[-2.914607,56.851119],[-2.914695,56.851069],[-2.914748,56.851016],[-2.914764,56.850961],[-2.914744,56.850904],[-2.914631,56.850834],[-2.914424,56.850751],[-2.914123,56.850656],[-2.913728,56.850547],[-2.913356,56.850551],[-2.913006,56.850665],[-2.912678,56.850892],[-2.912373,56.85123],[-2.912141,56.851538],[-2.911983,56.851817],[-2.911898,56.852067],[-2.911887,56.852287]]]}}