{"type":"Feature","properties":{"id":"283603","COMMUNE":"Aberdeenshire","PROVINCE":"Aberdeen City and Aberdeenshire","COUNTRY":"UK","FIREDATE":"2025-10-09 10:21:00","CLASS":"FireSeason","areaHA_geo":86.413},"geometry":{"type":"Polygon","coordinates":[[[-3.20915,57.186322],[-3.209333,57.186344],[-3.209383,57.186239],[-3.2093,57.186008],[-3.209085,57.18565],[-3.208817,57.185366],[-3.208497,57.185157],[-3.208125,57.185021],[-3.2077,57.18496],[-3.20739,57.184901],[-3.207195,57.184845],[-3.207115,57.184792],[-3.207149,57.184741],[-3.207276,57.184692],[-3.207496,57.184646],[-3.207809,57.184603],[-3.208215,57.184561],[-3.208499,57.184511],[-3.208662,57.184452],[-3.208703,57.184384],[-3.208623,57.184306],[-3.20844,57.184273],[-3.208155,57.184283],[-3.207767,57.184336],[-3.207276,57.184434],[-3.206888,57.184452],[-3.206604,57.18439],[-3.206422,57.18425],[-3.206344,57.18403],[-3.206323,57.183861],[-3.20636,57.183744],[-3.206454,57.183677],[-3.206606,57.183662],[-3.206772,57.183624],[-3.206952,57.183563],[-3.207146,57.183479],[-3.207353,57.183373],[-3.207555,57.183226],[-3.207751,57.18304],[-3.207942,57.182815],[-3.208127,57.182549],[-3.208187,57.182336],[-3.208122,57.182177],[-3.20793,57.182071],[-3.207614,57.182017],[-3.207276,57.18199],[-3.206916,57.181989],[-3.206535,57.182013],[-3.206133,57.182063],[-3.205796,57.18215],[-3.205524,57.182272],[-3.205318,57.182431],[-3.205177,57.182625],[-3.205011,57.182701],[-3.204821,57.182659],[-3.204606,57.182498],[-3.204366,57.182219],[-3.204157,57.181903],[-3.203979,57.181551],[-3.203832,57.181163],[-3.203716,57.180738],[-3.203669,57.180399],[-3.203692,57.180145],[-3.203785,57.179977],[-3.203949,57.179894],[-3.204098,57.179883],[-3.204234,57.179945],[-3.204357,57.18008],[-3.204466,57.180287],[-3.20462,57.180487],[-3.20482,57.180681],[-3.205066,57.180867],[-3.205358,57.181046],[-3.205686,57.181193],[-3.206051,57.181308],[-3.206453,57.18139],[-3.206891,57.181441],[-3.207287,57.181458],[-3.20764,57.181441],[-3.20795,57.18139],[-3.208218,57.181306],[-3.208307,57.181112],[-3.208216,57.180808],[-3.207945,57.180394],[-3.207496,57.17987],[-3.207112,57.179494],[-3.206794,57.179266],[-3.206542,57.179184],[-3.206355,57.179251],[-3.206134,57.179306],[-3.205879,57.179351],[-3.205589,57.179386],[-3.205264,57.179409],[-3.204891,57.17943],[-3.204469,57.179449],[-3.203998,57.179466],[-3.203477,57.179481],[-3.20314,57.179456],[-3.202986,57.179391],[-3.203014,57.179286],[-3.203225,57.179141],[-3.203535,57.179015],[-3.203943,57.178907],[-3.204449,57.178818],[-3.205055,57.178747],[-3.205499,57.178666],[-3.205782,57.178576],[-3.205904,57.178476],[-3.205864,57.178366],[-3.20572,57.178293],[-3.205471,57.178256],[-3.205116,57.178257],[-3.204657,57.178294],[-3.204302,57.178294],[-3.204053,57.178258],[-3.203908,57.178185],[-3.203869,57.178075],[-3.20394,57.177966],[-3.20412,57.177857],[-3.20441,57.17775],[-3.20481,57.177643],[-3.205109,57.177548],[-3.205307,57.177466],[-3.205405,57.177397],[-3.205402,57.17734],[-3.20528,57.177317],[-3.205039,57.177327],[-3.204678,57.177371],[-3.204197,57.177448],[-3.203807,57.177533],[-3.203507,57.177625],[-3.203298,57.177725],[-3.203178,57.177832],[-3.203031,57.177911],[-3.202857,57.177962],[-3.202655,57.177985],[-3.202425,57.177979],[-3.202293,57.177891],[-3.202258,57.177719],[-3.20232,57.177463],[-3.202479,57.177125],[-3.202654,57.176779],[-3.202844,57.176428],[-3.203049,57.17607],[-3.20327,57.175706],[-3.203423,57.175411],[-3.203508,57.175184],[-3.203526,57.175026],[-3.203476,57.174936],[-3.20338,57.174836],[-3.203236,57.174728],[-3.203045,57.174609],[-3.202807,57.174482],[-3.202759,57.174335],[-3.202901,57.174168],[-3.203233,57.173983],[-3.203755,57.173778],[-3.204134,57.173576],[-3.204369,57.173376],[-3.204461,57.17318],[-3.20441,57.172986],[-3.204315,57.172879],[-3.204177,57.17286],[-3.203995,57.172928],[-3.20377,57.173084],[-3.203557,57.17321],[-3.203355,57.173306],[-3.203164,57.173373],[-3.202985,57.17341],[-3.202822,57.173408],[-3.202676,57.173366],[-3.202546,57.173284],[-3.202433,57.173163],[-3.20232,57.173105],[-3.202209,57.173112],[-3.202098,57.173182],[-3.201989,57.173317],[-3.201835,57.173413],[-3.201636,57.173471],[-3.201394,57.173491],[-3.201107,57.173473],[-3.200864,57.173429],[-3.200664,57.173359],[-3.200507,57.173263],[-3.200394,57.173142],[-3.200235,57.173015],[-3.200031,57.172884],[-3.199781,57.172748],[-3.199486,57.172608],[-3.199393,57.17252],[-3.199503,57.172485],[-3.199816,57.172503],[-3.200332,57.172574],[-3.200837,57.172603],[-3.201331,57.172591],[-3.201816,57.172537],[-3.202289,57.172442],[-3.202721,57.17235],[-3.20311,57.172264],[-3.203457,57.172181],[-3.203762,57.172102],[-3.203983,57.172011],[-3.204121,57.171907],[-3.204176,57.17179],[-3.204147,57.17166],[-3.204029,57.17161],[-3.203821,57.171641],[-3.203523,57.171752],[-3.203136,57.171943],[-3.202721,57.17208],[-3.202278,57.172163],[-3.201806,57.172192],[-3.201307,57.172167],[-3.200972,57.17211],[-3.200801,57.172023],[-3.200794,57.171905],[-3.200951,57.171757],[-3.201132,57.171627],[-3.201338,57.171516],[-3.201568,57.171424],[-3.201822,57.17135],[-3.202123,57.171275],[-3.202472,57.171197],[-3.202867,57.171116],[-3.203311,57.171033],[-3.203678,57.170922],[-3.20397,57.170784],[-3.204187,57.170617],[-3.204327,57.170422],[-3.204287,57.170234],[-3.204064,57.170053],[-3.20366,57.169878],[-3.203075,57.16971],[-3.202498,57.169564],[-3.201929,57.169442],[-3.201368,57.169342],[-3.200816,57.169265],[-3.200428,57.169184],[-3.200204,57.169097],[-3.200145,57.169006],[-3.200251,57.16891],[-3.200369,57.168824],[-3.2005,57.168749],[-3.200644,57.168685],[-3.2008,57.168631],[-3.200991,57.168628],[-3.201219,57.168676],[-3.201481,57.168775],[-3.20178,57.168925],[-3.202179,57.168989],[-3.202679,57.168967],[-3.20328,57.168859],[-3.203981,57.168664],[-3.20449,57.168496],[-3.204807,57.168355],[-3.204932,57.16824],[-3.204866,57.168152],[-3.204634,57.16804],[-3.204235,57.167905],[-3.203671,57.167746],[-3.202941,57.167564],[-3.202363,57.167417],[-3.201937,57.167303],[-3.201664,57.167224],[-3.201543,57.16718],[-3.201393,57.16719],[-3.201215,57.167255],[-3.201009,57.167376],[-3.200774,57.167552],[-3.200532,57.167647],[-3.200284,57.167663],[-3.200029,57.167599],[-3.199768,57.167455],[-3.199499,57.167328],[-3.199224,57.167218],[-3.198941,57.167126],[-3.198652,57.167051],[-3.198406,57.167047],[-3.198202,57.167115],[-3.198042,57.167255],[-3.197925,57.167466],[-3.197494,57.167597],[-3.196751,57.167649],[-3.195695,57.167621],[-3.194326,57.167513],[-3.19329,57.167457],[-3.192588,57.167452],[-3.19222,57.167499],[-3.192185,57.167597],[-3.192004,57.167692],[-3.191677,57.167782],[-3.191204,57.167868],[-3.190586,57.167949],[-3.190088,57.168002],[-3.189711,57.168026],[-3.189456,57.168021],[-3.189321,57.167987],[-3.189171,57.167972],[-3.189006,57.167974],[-3.188825,57.167995],[-3.188629,57.168034],[-3.188411,57.168087],[-3.188172,57.168154],[-3.187912,57.168235],[-3.187631,57.16833],[-3.187525,57.1684],[-3.187593,57.168445],[-3.187837,57.168465],[-3.188255,57.168461],[-3.188538,57.16848],[-3.188684,57.168522],[-3.188694,57.168587],[-3.188568,57.168676],[-3.188503,57.168799],[-3.188497,57.168956],[-3.188552,57.169147],[-3.188668,57.169373],[-3.188873,57.169641],[-3.189168,57.169953],[-3.189552,57.170308],[-3.190027,57.170706],[-3.190512,57.171036],[-3.191008,57.171299],[-3.191516,57.171494],[-3.192034,57.171622],[-3.192428,57.171746],[-3.192698,57.171865],[-3.192845,57.171981],[-3.192867,57.172093],[-3.192826,57.172175],[-3.192723,57.172228],[-3.192556,57.172252],[-3.192327,57.172247],[-3.192198,57.172279],[-3.19217,57.172348],[-3.192243,57.172455],[-3.192417,57.172599],[-3.192661,57.172745],[-3.192977,57.172893],[-3.193363,57.173043],[-3.193821,57.173196],[-3.19425,57.173309],[-3.194653,57.173382],[-3.195028,57.173416],[-3.195376,57.173409],[-3.195642,57.173417],[-3.195825,57.173441],[-3.195927,57.173481],[-3.195947,57.173536],[-3.196018,57.17359],[-3.196143,57.173644],[-3.196319,57.173697],[-3.196548,57.17375],[-3.196795,57.173803],[-3.197059,57.173857],[-3.197341,57.173912],[-3.197641,57.173967],[-3.197899,57.173978],[-3.198116,57.173947],[-3.19829,57.173872],[-3.198423,57.173754],[-3.198557,57.173663],[-3.198691,57.173597],[-3.198826,57.173557],[-3.198961,57.173543],[-3.199032,57.173584],[-3.19904,57.173678],[-3.198983,57.173826],[-3.198862,57.174028],[-3.198773,57.174208],[-3.198716,57.174365],[-3.19869,57.174501],[-3.198695,57.174614],[-3.198743,57.174714],[-3.198835,57.174799],[-3.19897,57.174871],[-3.199148,57.174929],[-3.199317,57.174947],[-3.199476,57.174926],[-3.199625,57.174866],[-3.199765,57.174767],[-3.19988,57.174684],[-3.19997,57.174618],[-3.200036,57.174568],[-3.200077,57.174536],[-3.20018,57.17453],[-3.200345,57.174551],[-3.200572,57.174599],[-3.200861,57.174674],[-3.201083,57.174756],[-3.201238,57.174845],[-3.201324,57.174941],[-3.201343,57.175043],[-3.201329,57.175139],[-3.201283,57.175229],[-3.201203,57.175313],[-3.201091,57.175391],[-3.200964,57.17544],[-3.200822,57.175459],[-3.200665,57.175449],[-3.200493,57.175409],[-3.200308,57.175381],[-3.200109,57.175363],[-3.199896,57.175356],[-3.19967,57.17536],[-3.199503,57.175384],[-3.199396,57.175428],[-3.199349,57.175492],[-3.199362,57.175576],[-3.199352,57.175648],[-3.199321,57.175708],[-3.199268,57.175756],[-3.199194,57.175792],[-3.199103,57.175833],[-3.198996,57.175877],[-3.198873,57.175925],[-3.198734,57.175977],[-3.198657,57.176044],[-3.198643,57.176126],[-3.198691,57.176223],[-3.198801,57.176335],[-3.198948,57.176392],[-3.199132,57.176392],[-3.199353,57.176336],[-3.19961,57.176225],[-3.199869,57.176127],[-3.200128,57.176044],[-3.200388,57.175975],[-3.200649,57.17592],[-3.200846,57.175907],[-3.200979,57.175936],[-3.201048,57.176008],[-3.201053,57.176121],[-3.200976,57.176224],[-3.200816,57.176316],[-3.200574,57.176397],[-3.200249,57.176468],[-3.199999,57.176541],[-3.199824,57.176616],[-3.199725,57.176692],[-3.1997,57.176771],[-3.199651,57.176842],[-3.199578,57.176906],[-3.19948,57.176964],[-3.199358,57.177014],[-3.199215,57.177019],[-3.199052,57.176979],[-3.198868,57.176893],[-3.198664,57.176762],[-3.198446,57.176668],[-3.198216,57.176611],[-3.197972,57.17659],[-3.197715,57.176607],[-3.197572,57.176635],[-3.197543,57.176676],[-3.197628,57.176729],[-3.197826,57.176795],[-3.197934,57.176876],[-3.197951,57.176974],[-3.197878,57.177088],[-3.197715,57.177219],[-3.197537,57.17731],[-3.197346,57.177363],[-3.19714,57.177377],[-3.196921,57.177352],[-3.196728,57.177302],[-3.196562,57.177229],[-3.196423,57.177132],[-3.196309,57.17701],[-3.196197,57.176879],[-3.196085,57.176739],[-3.195975,57.176589],[-3.195866,57.176429],[-3.195726,57.17627],[-3.195555,57.176112],[-3.195355,57.175954],[-3.195124,57.175797],[-3.194923,57.175687],[-3.194751,57.175624],[-3.19461,57.175607],[-3.194498,57.175638],[-3.194427,57.175685],[-3.194398,57.17575],[-3.194409,57.175832],[-3.194462,57.175931],[-3.194512,57.176035],[-3.19456,57.176144],[-3.194605,57.176258],[-3.194647,57.176377],[-3.19462,57.176522],[-3.194524,57.176693],[-3.194358,57.17689],[-3.194122,57.177113],[-3.194054,57.177244],[-3.194155,57.177281],[-3.194424,57.177225],[-3.194862,57.177076],[-3.195148,57.177007],[-3.195283,57.177017],[-3.195266,57.177107],[-3.195099,57.177275],[-3.194911,57.177437],[-3.194703,57.177591],[-3.194475,57.177737],[-3.194227,57.177876],[-3.19409,57.177983],[-3.194064,57.178056],[-3.194149,57.178098],[-3.194344,57.178106],[-3.194552,57.178073],[-3.19477,57.177999],[-3.195,57.177883],[-3.195242,57.177726],[-3.195532,57.177642],[-3.195869,57.177631],[-3.196255,57.177694],[-3.196689,57.177831],[-3.197052,57.177915],[-3.197344,57.177947],[-3.197564,57.177927],[-3.197714,57.177855],[-3.197913,57.177787],[-3.198162,57.177724],[-3.19846,57.177665],[-3.198809,57.177611],[-3.199065,57.177594],[-3.199231,57.177615],[-3.199304,57.177674],[-3.199286,57.177771],[-3.199317,57.177858],[-3.199397,57.177935],[-3.199526,57.178003],[-3.199705,57.178061],[-3.199899,57.178138],[-3.200109,57.178236],[-3.200334,57.178353],[-3.200576,57.17849],[-3.200813,57.178565],[-3.201046,57.17858],[-3.201274,57.178533],[-3.201498,57.178425],[-3.201664,57.178398],[-3.201771,57.178454],[-3.20182,57.178591],[-3.201811,57.17881],[-3.201801,57.179004],[-3.20179,57.179171],[-3.201779,57.179312],[-3.201768,57.179427],[-3.201724,57.17955],[-3.201648,57.179681],[-3.20154,57.17982],[-3.2014,57.179967],[-3.201336,57.180095],[-3.201348,57.180202],[-3.201437,57.180291],[-3.201601,57.180359],[-3.201634,57.180451],[-3.201535,57.180566],[-3.201304,57.180703],[-3.20094,57.180863],[-3.200677,57.181032],[-3.200512,57.18121],[-3.200448,57.181397],[-3.200482,57.181593],[-3.200564,57.181748],[-3.200693,57.181863],[-3.200868,57.181938],[-3.201091,57.181972],[-3.201223,57.182037],[-3.201266,57.182132],[-3.201219,57.182258],[-3.201082,57.182414],[-3.200974,57.182554],[-3.200895,57.182675],[-3.200845,57.18278],[-3.200823,57.182868],[-3.200837,57.182956],[-3.200887,57.183046],[-3.200972,57.183137],[-3.201092,57.18323],[-3.201264,57.183269],[-3.201487,57.183256],[-3.201761,57.18319],[-3.202087,57.183072],[-3.20234,57.182996],[-3.202521,57.182964],[-3.20263,57.182974],[-3.202667,57.183027],[-3.202658,57.183102],[-3.202605,57.183197],[-3.202506,57.183314],[-3.202363,57.183452],[-3.202208,57.183581],[-3.202041,57.183703],[-3.201862,57.183816],[-3.201672,57.18392],[-3.201497,57.184033],[-3.201339,57.184154],[-3.201196,57.184282],[-3.20107,57.184418],[-3.201044,57.184506],[-3.20112,57.184546],[-3.201296,57.184537],[-3.201574,57.184481],[-3.201879,57.184379],[-3.202212,57.184231],[-3.202572,57.184038],[-3.20296,57.183799],[-3.20336,57.183607],[-3.203772,57.183461],[-3.204196,57.183361],[-3.204632,57.183307],[-3.204982,57.183293],[-3.205245,57.183318],[-3.205421,57.183383],[-3.205511,57.183488],[-3.205581,57.183612],[-3.205632,57.183754],[-3.205663,57.183914],[-3.205674,57.184093],[-3.205628,57.184221],[-3.205524,57.184298],[-3.205363,57.184324],[-3.205143,57.184299],[-3.204951,57.18425],[-3.204784,57.184176],[-3.204645,57.184079],[-3.204531,57.183958],[-3.204376,57.183928],[-3.20418,57.183991],[-3.203941,57.184146],[-3.203662,57.184392],[-3.203408,57.184615],[-3.203181,57.184814],[-3.202981,57.184988],[-3.202807,57.185139],[-3.202833,57.185236],[-3.203058,57.185279],[-3.203484,57.185269],[-3.204109,57.185206],[-3.204742,57.185163],[-3.205382,57.185141],[-3.20603,57.185139],[-3.206685,57.185158],[-3.207219,57.18522],[-3.207633,57.185325],[-3.207927,57.185473],[-3.208101,57.185664],[-3.208309,57.185845],[-3.208554,57.186015],[-3.208834,57.186174],[-3.20915,57.186322]]]}}