{"type":"Feature","properties":{"id":"283602","COMMUNE":"Angus","PROVINCE":"Angus and Dundee City","COUNTRY":"UK","FIREDATE":"2025-10-12 00:00:00","FINALDATE":"2025-10-13 00:00:00","CLASS":"FireSeason","areaHA_geo":2.47},"geometry":{"type":"Polygon","coordinates":[[[-2.916378,56.85274],[-2.916064,56.852868],[-2.915852,56.852975],[-2.915741,56.853061],[-2.915732,56.853127],[-2.915747,56.853186],[-2.915786,56.853238],[-2.915851,56.853284],[-2.91594,56.853322],[-2.916055,56.853358],[-2.916196,56.853391],[-2.916364,56.853422],[-2.916557,56.85345],[-2.916745,56.853452],[-2.916926,56.853428],[-2.9171,56.853378],[-2.917269,56.853302],[-2.917408,56.853218],[-2.917517,56.853128],[-2.917597,56.853029],[-2.917647,56.852924],[-2.917732,56.852838],[-2.91785,56.852773],[-2.918002,56.852729],[-2.918189,56.852704],[-2.918371,56.85263],[-2.91855,56.852505],[-2.918726,56.852331],[-2.918897,56.852107],[-2.918983,56.851894],[-2.918984,56.851693],[-2.9189,56.851503],[-2.918731,56.851325],[-2.918566,56.851192],[-2.918406,56.851105],[-2.91825,56.851062],[-2.9181,56.851066],[-2.917929,56.851111],[-2.917737,56.851198],[-2.917525,56.851327],[-2.917292,56.851498],[-2.917146,56.851665],[-2.917089,56.851828],[-2.917119,56.851986],[-2.917237,56.85214],[-2.917221,56.852292],[-2.917073,56.852443],[-2.916792,56.852592],[-2.916378,56.85274]]]}}