{"type":"Feature","properties":{"id":"283633","COMMUNE":"Scottish Borders","PROVINCE":"Scottish Borders","COUNTRY":"UK","FIREDATE":"2025-10-10 12:42:00","FINALDATE":"2025-10-10 12:42:00","CLASS":"FireSeason","areaHA_geo":5.55},"geometry":{"type":"Polygon","coordinates":[[[-2.943222,55.656077],[-2.943289,55.656108],[-2.943353,55.656125],[-2.943414,55.656126],[-2.943473,55.656112],[-2.943509,55.656094],[-2.943522,55.656073],[-2.943512,55.656047],[-2.94348,55.656017],[-2.94346,55.655986],[-2.943454,55.655954],[-2.943461,55.65592],[-2.943481,55.655885],[-2.943529,55.655859],[-2.943605,55.655842],[-2.943708,55.655835],[-2.94384,55.655837],[-2.943944,55.655849],[-2.944021,55.655871],[-2.944072,55.655904],[-2.944095,55.655948],[-2.944131,55.655973],[-2.944178,55.655981],[-2.944238,55.655971],[-2.94431,55.655943],[-2.944367,55.655935],[-2.944409,55.655946],[-2.944436,55.655976],[-2.944448,55.656026],[-2.944465,55.656065],[-2.944485,55.656093],[-2.94451,55.656111],[-2.94454,55.656118],[-2.94457,55.656116],[-2.944603,55.656103],[-2.944636,55.656082],[-2.944671,55.65605],[-2.944746,55.656032],[-2.944862,55.656028],[-2.945018,55.656037],[-2.945216,55.65606],[-2.945389,55.656063],[-2.945539,55.656045],[-2.945665,55.656006],[-2.945767,55.655947],[-2.945867,55.655882],[-2.945966,55.655811],[-2.946062,55.655734],[-2.946156,55.655651],[-2.946276,55.655587],[-2.946422,55.655544],[-2.946594,55.655522],[-2.946792,55.655519],[-2.946962,55.655512],[-2.947105,55.6555],[-2.94722,55.655483],[-2.947308,55.655461],[-2.947401,55.65546],[-2.9475,55.655479],[-2.947604,55.655518],[-2.947714,55.655578],[-2.947817,55.655623],[-2.947913,55.655654],[-2.948002,55.65567],[-2.948084,55.655672],[-2.948127,55.655654],[-2.948133,55.655615],[-2.948099,55.655556],[-2.948028,55.655477],[-2.94799,55.655412],[-2.947984,55.65536],[-2.948011,55.655322],[-2.948071,55.655299],[-2.948122,55.655291],[-2.948166,55.655301],[-2.948202,55.655327],[-2.94823,55.65537],[-2.948268,55.655404],[-2.948317,55.65543],[-2.948377,55.655446],[-2.948447,55.655454],[-2.948488,55.655474],[-2.948501,55.655504],[-2.948484,55.655546],[-2.948439,55.655599],[-2.948433,55.655646],[-2.948467,55.655687],[-2.94854,55.655722],[-2.948654,55.655751],[-2.948803,55.655753],[-2.948989,55.655729],[-2.949212,55.655678],[-2.94947,55.655601],[-2.949668,55.655528],[-2.949803,55.655461],[-2.949877,55.655399],[-2.94989,55.655341],[-2.949939,55.655284],[-2.950023,55.655225],[-2.950143,55.655167],[-2.9503,55.655107],[-2.950453,55.655038],[-2.950602,55.654957],[-2.950748,55.654867],[-2.950891,55.654766],[-2.950964,55.654667],[-2.950969,55.654571],[-2.950904,55.654478],[-2.95077,55.654388],[-2.950625,55.654308],[-2.95047,55.65424],[-2.950303,55.654184],[-2.950126,55.654139],[-2.949974,55.654111],[-2.949849,55.654101],[-2.94975,55.654109],[-2.949677,55.654134],[-2.949605,55.654143],[-2.949533,55.654137],[-2.949461,55.654114],[-2.94939,55.654076],[-2.949293,55.65405],[-2.949172,55.654037],[-2.949025,55.654037],[-2.948853,55.65405],[-2.948702,55.654047],[-2.948572,55.654028],[-2.948462,55.653994],[-2.948374,55.653945],[-2.948276,55.653928],[-2.948168,55.653945],[-2.948051,55.653993],[-2.947925,55.654075],[-2.947831,55.654146],[-2.94777,55.654207],[-2.947742,55.654258],[-2.947746,55.654298],[-2.947721,55.65434],[-2.947665,55.654384],[-2.94758,55.65443],[-2.947465,55.654477],[-2.947393,55.654515],[-2.947364,55.654544],[-2.947378,55.654562],[-2.947435,55.654572],[-2.947467,55.654593],[-2.947473,55.654625],[-2.947454,55.654669],[-2.947409,55.654724],[-2.947348,55.654768],[-2.94727,55.6548],[-2.947177,55.654821],[-2.947067,55.65483],[-2.946993,55.654847],[-2.946954,55.654874],[-2.946951,55.65491],[-2.946984,55.654955],[-2.946983,55.654995],[-2.946947,55.655031],[-2.946877,55.655061],[-2.946773,55.655087],[-2.94668,55.655101],[-2.946597,55.655104],[-2.946525,55.655094],[-2.946464,55.655072],[-2.946393,55.655071],[-2.946314,55.655091],[-2.946226,55.655131],[-2.946129,55.655192],[-2.946043,55.655222],[-2.945968,55.655222],[-2.945905,55.655192],[-2.945853,55.655131],[-2.945781,55.655087],[-2.945689,55.65506],[-2.945576,55.655049],[-2.945442,55.655055],[-2.94531,55.655067],[-2.945178,55.655084],[-2.945047,55.655107],[-2.944916,55.655136],[-2.944788,55.655156],[-2.94466,55.655166],[-2.944534,55.655168],[-2.94441,55.65516],[-2.944301,55.655157],[-2.944207,55.655159],[-2.944128,55.655166],[-2.944064,55.655178],[-2.944003,55.65518],[-2.943944,55.655174],[-2.943888,55.655158],[-2.943835,55.655133],[-2.943752,55.655105],[-2.94364,55.655075],[-2.9435,55.655041],[-2.94333,55.655005],[-2.9432,55.654987],[-2.943109,55.654986],[-2.943058,55.655003],[-2.943047,55.655037],[-2.943006,55.65507],[-2.942935,55.655101],[-2.942834,55.655131],[-2.942704,55.65516],[-2.942558,55.65517],[-2.942398,55.655161],[-2.942221,55.655133],[-2.94203,55.655087],[-2.941895,55.65507],[-2.941815,55.655082],[-2.941791,55.655123],[-2.941824,55.655193],[-2.941872,55.65525],[-2.941936,55.655293],[-2.942015,55.655322],[-2.942111,55.655338],[-2.942192,55.655358],[-2.942259,55.655383],[-2.942312,55.655413],[-2.94235,55.655447],[-2.942419,55.655464],[-2.942518,55.655464],[-2.942648,55.655447],[-2.942808,55.655413],[-2.942947,55.655397],[-2.943066,55.6554],[-2.943163,55.655422],[-2.94324,55.655462],[-2.943343,55.655485],[-2.943474,55.655491],[-2.943631,55.655479],[-2.943815,55.65545],[-2.943947,55.655442],[-2.944026,55.655456],[-2.944052,55.655491],[-2.944026,55.655547],[-2.943981,55.655589],[-2.943918,55.655617],[-2.943837,55.655631],[-2.943738,55.655631],[-2.943629,55.655652],[-2.943512,55.655693],[-2.943386,55.655755],[-2.943251,55.655837],[-2.943167,55.655911],[-2.943134,55.655975],[-2.943152,55.656031],[-2.943222,55.656077]]]}}