{"type":"Feature","properties":{"id":"283710","COMMUNE":"Aberdeenshire","PROVINCE":"Aberdeen City and Aberdeenshire","COUNTRY":"UK","FIREDATE":"2025-10-09 10:21:00","CLASS":"FireSeason","areaHA_geo":144.243},"geometry":{"type":"Polygon","coordinates":[[[-2.950498,57.104749],[-2.950533,57.104783],[-2.951045,57.1049],[-2.951801,57.104873],[-2.952443,57.104857],[-2.952972,57.104852],[-2.953438,57.104837],[-2.953841,57.104813],[-2.954263,57.104883],[-2.954703,57.105047],[-2.954972,57.105228],[-2.955071,57.105426],[-2.955293,57.105556],[-2.955638,57.105617],[-2.955951,57.105586],[-2.956231,57.105462],[-2.956377,57.105248],[-2.956389,57.104943],[-2.956366,57.104665],[-2.956308,57.104415],[-2.956385,57.104256],[-2.956596,57.104187],[-2.956902,57.10426],[-2.957301,57.104476],[-2.95771,57.104635],[-2.958128,57.104738],[-2.958612,57.104689],[-2.959161,57.104491],[-2.959664,57.104289],[-2.960122,57.104083],[-2.961329,57.103787],[-2.963284,57.1034],[-2.965267,57.102922],[-2.967276,57.102354],[-2.968887,57.101866],[-2.970098,57.101457],[-2.971119,57.101092],[-2.971948,57.100769],[-2.972717,57.100484],[-2.973426,57.100238],[-2.973862,57.10001],[-2.974025,57.099802],[-2.97422,57.099815],[-2.974449,57.100048],[-2.974805,57.100308],[-2.975288,57.100595],[-2.975851,57.100691],[-2.976495,57.100595],[-2.977636,57.100281],[-2.979276,57.09975],[-2.980966,57.099069],[-2.982708,57.09824],[-2.983782,57.097693],[-2.98419,57.097428],[-2.984285,57.097235],[-2.984065,57.097113],[-2.983967,57.09707],[-2.983848,57.097057],[-2.983058,57.097108],[-2.982521,57.097063],[-2.982539,57.096891],[-2.982798,57.096738],[-2.983143,57.096622],[-2.983218,57.096597],[-2.983293,57.096363],[-2.983162,57.096254],[-2.983109,57.096211],[-2.982367,57.096101],[-2.982243,57.095746],[-2.982642,57.095395],[-2.983138,57.095175],[-2.983563,57.094971],[-2.983584,57.094961],[-2.983492,57.094772],[-2.983259,57.094625],[-2.982836,57.094682],[-2.982154,57.094821],[-2.980713,57.095319],[-2.979511,57.095608],[-2.978815,57.095844],[-2.978173,57.095919],[-2.976989,57.096069],[-2.975692,57.096191],[-2.974282,57.096284],[-2.973343,57.096249],[-2.972875,57.096088],[-2.971993,57.096008],[-2.971687,57.096009],[-2.970922,57.095787],[-2.969369,57.095815],[-2.968251,57.095898],[-2.968167,57.095918],[-2.96812,57.095916],[-2.966583,57.095813],[-2.964971,57.095686],[-2.964615,57.095482],[-2.963731,57.095415],[-2.963151,57.095543],[-2.963032,57.095688],[-2.962411,57.09575],[-2.961565,57.095898],[-2.960868,57.096096],[-2.960291,57.096297],[-2.959833,57.096503],[-2.959519,57.096742],[-2.959349,57.097014],[-2.959243,57.097385],[-2.9592,57.097853],[-2.958953,57.098157],[-2.958501,57.098298],[-2.957718,57.098288],[-2.956602,57.098128],[-2.955293,57.098002],[-2.95379,57.097912],[-2.952654,57.097906],[-2.951886,57.097982],[-2.951369,57.098146],[-2.951103,57.098396],[-2.950983,57.098728],[-2.95101,57.099141],[-2.950896,57.099448],[-2.950642,57.099649],[-2.950709,57.099882],[-2.951096,57.100147],[-2.951119,57.100385],[-2.95078,57.100594],[-2.949866,57.100757],[-2.948376,57.100874],[-2.947112,57.101048],[-2.946074,57.101279],[-2.945121,57.101502],[-2.944254,57.101716],[-2.943397,57.101833],[-2.94255,57.101854],[-2.941526,57.101956],[-2.940324,57.102139],[-2.939493,57.102246],[-2.939032,57.102276],[-2.938549,57.102324],[-2.938042,57.102391],[-2.937711,57.102623],[-2.937556,57.103023],[-2.937529,57.103369],[-2.937631,57.103662],[-2.937864,57.103823],[-2.938227,57.103851],[-2.938645,57.103785],[-2.93912,57.103626],[-2.939721,57.103534],[-2.940448,57.10351],[-2.941241,57.103503],[-2.942098,57.103513],[-2.942817,57.103466],[-2.943399,57.10336],[-2.943607,57.103155],[-2.943443,57.102852],[-2.943442,57.102596],[-2.943605,57.102388],[-2.943848,57.102284],[-2.944172,57.102284],[-2.944551,57.10223],[-2.944984,57.102123],[-2.945485,57.102081],[-2.946052,57.102104],[-2.946521,57.102226],[-2.946892,57.102444],[-2.947133,57.102628],[-2.947243,57.102777],[-2.947343,57.10298],[-2.947777,57.103053],[-2.947956,57.103283],[-2.947611,57.103512],[-2.947258,57.10353],[-2.947073,57.103449],[-2.946796,57.103328],[-2.946371,57.103139],[-2.946014,57.103051],[-2.945781,57.103039],[-2.945545,57.103204],[-2.945781,57.103411],[-2.946047,57.103639],[-2.946059,57.103649],[-2.946084,57.104001],[-2.945655,57.104363],[-2.944895,57.104616],[-2.944645,57.104656],[-2.944546,57.104708],[-2.944413,57.104961],[-2.944385,57.105224],[-2.944103,57.105528],[-2.944088,57.105671],[-2.944212,57.105747],[-2.944691,57.105717],[-2.94488,57.105426],[-2.944925,57.105357],[-2.945094,57.105092],[-2.945403,57.105044],[-2.945571,57.10527],[-2.945587,57.105291],[-2.945737,57.105347],[-2.94689,57.105002],[-2.948506,57.104114],[-2.948918,57.103985],[-2.949094,57.103866],[-2.949288,57.103735],[-2.949714,57.103551],[-2.95009,57.103602],[-2.950166,57.103913],[-2.95038,57.104247],[-2.950583,57.104545],[-2.950498,57.104749]],[[-2.948721,57.102764],[-2.947668,57.102177],[-2.947662,57.10216],[-2.94801,57.101753],[-2.948055,57.101696],[-2.948626,57.101461],[-2.949071,57.10124],[-2.949566,57.101067],[-2.950832,57.10133],[-2.951117,57.101585],[-2.950925,57.101782],[-2.950584,57.101834],[-2.949567,57.102006],[-2.949098,57.102159],[-2.949475,57.102493],[-2.949526,57.102825],[-2.949053,57.102872],[-2.948721,57.102764]]]}}