{"type":"Feature","properties":{"id":"287662","COMMUNE":"Na h-Eileanan Siar (Western Isles)","PROVINCE":"Na h-Eileanan Siar (Western Isles)","COUNTRY":"UK","FIREDATE":"2025-02-13 12:23:00","FINALDATE":"2025-02-13 12:50:00","CLASS":"FireSeason","areaHA_geo":4.346},"geometry":{"type":"Polygon","coordinates":[[[-6.540953,58.007013],[-6.540887,58.007044],[-6.540849,58.007094],[-6.540839,58.007163],[-6.540855,58.007252],[-6.54093,58.007322],[-6.541063,58.007375],[-6.541253,58.007409],[-6.541501,58.007426],[-6.54169,58.007424],[-6.541817,58.007405],[-6.541885,58.007368],[-6.541892,58.007313],[-6.541943,58.007258],[-6.542039,58.007204],[-6.542178,58.007151],[-6.542361,58.007097],[-6.542533,58.007081],[-6.542694,58.007101],[-6.542842,58.007157],[-6.542979,58.00725],[-6.543117,58.007324],[-6.543255,58.00738],[-6.543394,58.007418],[-6.543534,58.007437],[-6.543678,58.007431],[-6.543827,58.007401],[-6.543981,58.007345],[-6.54414,58.007265],[-6.544295,58.007201],[-6.544448,58.007152],[-6.544599,58.00712],[-6.544746,58.007103],[-6.544862,58.007079],[-6.544945,58.007047],[-6.544996,58.007007],[-6.545014,58.00696],[-6.545053,58.006925],[-6.545112,58.006902],[-6.545191,58.006892],[-6.54529,58.006895],[-6.545409,58.00689],[-6.545548,58.006877],[-6.545707,58.006856],[-6.545885,58.006827],[-6.545975,58.006793],[-6.545978,58.006754],[-6.545892,58.006709],[-6.545718,58.00666],[-6.545552,58.006603],[-6.545393,58.006539],[-6.545242,58.006467],[-6.545099,58.006388],[-6.544948,58.006329],[-6.544787,58.006291],[-6.544618,58.006274],[-6.544439,58.006277],[-6.544263,58.006262],[-6.544089,58.00623],[-6.543917,58.00618],[-6.543747,58.006113],[-6.543608,58.006072],[-6.543499,58.006058],[-6.543421,58.00607],[-6.543373,58.006108],[-6.543302,58.006141],[-6.543206,58.006168],[-6.543087,58.00619],[-6.542943,58.006205],[-6.542764,58.006214],[-6.542551,58.006216],[-6.542303,58.006211],[-6.54202,58.006199],[-6.541838,58.00617],[-6.541757,58.006124],[-6.541778,58.006061],[-6.5419,58.005981],[-6.541979,58.005911],[-6.542016,58.00585],[-6.542011,58.005799],[-6.541963,58.005758],[-6.541897,58.005714],[-6.541813,58.005669],[-6.54171,58.005621],[-6.541589,58.005571],[-6.541475,58.005522],[-6.541368,58.005471],[-6.541268,58.005421],[-6.541175,58.00537],[-6.541055,58.005332],[-6.540908,58.005306],[-6.540735,58.005292],[-6.540534,58.005292],[-6.540299,58.005268],[-6.540028,58.005221],[-6.539722,58.005151],[-6.539381,58.005058],[-6.539089,58.005006],[-6.538848,58.004997],[-6.538657,58.005029],[-6.538516,58.005103],[-6.538468,58.005189],[-6.538515,58.005289],[-6.538655,58.005402],[-6.538889,58.005528],[-6.539163,58.005665],[-6.539475,58.005811],[-6.539828,58.005967],[-6.54022,58.006134],[-6.540573,58.006266],[-6.540888,58.006364],[-6.541164,58.006427],[-6.541402,58.006455],[-6.541611,58.006496],[-6.541793,58.006548],[-6.541947,58.006613],[-6.542072,58.00669],[-6.542128,58.006762],[-6.542114,58.006829],[-6.54203,58.00689],[-6.541877,58.006946],[-6.541732,58.006985],[-6.541598,58.007007],[-6.541473,58.007013],[-6.541357,58.007001],[-6.541248,58.006996],[-6.541144,58.006996],[-6.541045,58.007002],[-6.540953,58.007013]]]}}