{"type":"Feature","properties":{"id":"288179","COMMUNE":"Hambleton","PROVINCE":"North Yorkshire CC","COUNTRY":"UK","FIREDATE":"2026-01-04 12:59:00","FINALDATE":"2026-01-04 12:59:00","CLASS":"FireSeason","areaHA_geo":1.354},"geometry":{"type":"Polygon","coordinates":[[[-1.260485,54.386775],[-1.260905,54.386758],[-1.261198,54.386728],[-1.261364,54.386687],[-1.261404,54.386634],[-1.261415,54.386584],[-1.261398,54.386536],[-1.261353,54.386491],[-1.261279,54.386448],[-1.261155,54.38641],[-1.26098,54.386377],[-1.260754,54.386348],[-1.260477,54.386324],[-1.260326,54.386295],[-1.260301,54.386261],[-1.260403,54.386223],[-1.26063,54.386179],[-1.260795,54.386141],[-1.260898,54.386107],[-1.260938,54.386077],[-1.260916,54.386052],[-1.260831,54.386026],[-1.260685,54.385999],[-1.260476,54.385971],[-1.260206,54.385942],[-1.259996,54.385932],[-1.259848,54.385941],[-1.259761,54.385969],[-1.259736,54.386016],[-1.259671,54.386055],[-1.259567,54.386085],[-1.259424,54.386106],[-1.259242,54.386118],[-1.259081,54.386135],[-1.25894,54.386157],[-1.25882,54.386183],[-1.258721,54.386215],[-1.258622,54.386241],[-1.258523,54.386261],[-1.258425,54.386276],[-1.258327,54.386285],[-1.258224,54.386284],[-1.258117,54.386274],[-1.258005,54.386254],[-1.257889,54.386224],[-1.257781,54.386202],[-1.25768,54.386189],[-1.257588,54.386184],[-1.257504,54.386187],[-1.257456,54.386207],[-1.257443,54.386245],[-1.257465,54.386299],[-1.257523,54.38637],[-1.25763,54.386422],[-1.257786,54.386455],[-1.257991,54.386468],[-1.258244,54.386463],[-1.258465,54.38648],[-1.258653,54.386519],[-1.258809,54.38658],[-1.258932,54.386663],[-1.259162,54.386724],[-1.259497,54.386763],[-1.259938,54.38678],[-1.260485,54.386775]]]}}