{"type":"Feature","properties":{"id":"288122","COMMUNE":"North Devon","PROVINCE":"Devon CC","COUNTRY":"UK","FIREDATE":"2025-12-28 10:34:53.777","CLASS":"FireSeason","areaHA_geo":3.582},"geometry":{"type":"Polygon","coordinates":[[[-3.66398,51.054315],[-3.664092,51.054327],[-3.664188,51.054305],[-3.664269,51.054248],[-3.664335,51.054158],[-3.664381,51.054081],[-3.664409,51.054018],[-3.664417,51.053969],[-3.664406,51.053933],[-3.664421,51.053875],[-3.66446,51.053793],[-3.664524,51.053688],[-3.664612,51.05356],[-3.664669,51.053446],[-3.664695,51.053348],[-3.66469,51.053264],[-3.664654,51.053195],[-3.664646,51.053142],[-3.664666,51.053103],[-3.664714,51.053079],[-3.664791,51.05307],[-3.664865,51.053045],[-3.664938,51.053004],[-3.665008,51.052947],[-3.665076,51.052874],[-3.665125,51.052805],[-3.665153,51.052741],[-3.665162,51.052682],[-3.66515,51.052627],[-3.665165,51.052567],[-3.665205,51.052501],[-3.66527,51.052431],[-3.665362,51.052355],[-3.665421,51.05229],[-3.66545,51.052234],[-3.665447,51.052188],[-3.665412,51.052153],[-3.665414,51.052094],[-3.665454,51.052013],[-3.66553,51.05191],[-3.665643,51.051783],[-3.66573,51.051672],[-3.665791,51.051575],[-3.665826,51.051493],[-3.665835,51.051425],[-3.665809,51.051379],[-3.66575,51.051353],[-3.665656,51.051347],[-3.665528,51.051362],[-3.665417,51.051367],[-3.665321,51.051362],[-3.665242,51.051347],[-3.665178,51.051321],[-3.665111,51.051311],[-3.66504,51.051316],[-3.664965,51.051336],[-3.664885,51.051372],[-3.664802,51.051402],[-3.664715,51.051426],[-3.664625,51.051443],[-3.66453,51.051455],[-3.664453,51.05147],[-3.664394,51.051489],[-3.664353,51.051513],[-3.66433,51.051541],[-3.66427,51.051585],[-3.664175,51.051646],[-3.664043,51.051724],[-3.663876,51.051819],[-3.663727,51.051915],[-3.663597,51.052012],[-3.663487,51.052111],[-3.663395,51.052212],[-3.663309,51.0523],[-3.663228,51.052375],[-3.663153,51.052437],[-3.663083,51.052487],[-3.663022,51.052529],[-3.662971,51.052564],[-3.662928,51.05259],[-3.662894,51.052609],[-3.662869,51.05265],[-3.662853,51.052712],[-3.662846,51.052797],[-3.662849,51.052902],[-3.662863,51.052985],[-3.662889,51.053044],[-3.662926,51.05308],[-3.662975,51.053092],[-3.663014,51.053106],[-3.663044,51.053122],[-3.663064,51.053139],[-3.663075,51.053158],[-3.6631,51.053174],[-3.663139,51.053189],[-3.663191,51.053201],[-3.663258,51.053211],[-3.663306,51.053231],[-3.663334,51.05326],[-3.663344,51.053298],[-3.663334,51.053346],[-3.663335,51.053389],[-3.663347,51.053427],[-3.663369,51.053461],[-3.663401,51.053491],[-3.663428,51.053539],[-3.66345,51.053607],[-3.663466,51.053694],[-3.663477,51.053801],[-3.663494,51.053883],[-3.663517,51.053941],[-3.663545,51.053975],[-3.66358,51.053984],[-3.663607,51.054003],[-3.663628,51.054033],[-3.663642,51.054073],[-3.66365,51.054124],[-3.663687,51.054173],[-3.663754,51.054222],[-3.663852,51.054269],[-3.66398,51.054315]]]}}