{"type":"Feature","properties":{"id":"288121","COMMUNE":"North Devon","PROVINCE":"Devon CC","COUNTRY":"UK","FIREDATE":"2025-12-25 13:08:00","FINALDATE":"2025-12-25 13:59:00","CLASS":"FireSeason","areaHA_geo":18.179},"geometry":{"type":"Polygon","coordinates":[[[-3.635865,51.048487],[-3.636035,51.048544],[-3.636193,51.048581],[-3.636339,51.048598],[-3.636471,51.048593],[-3.636592,51.048567],[-3.636693,51.048553],[-3.636776,51.04855],[-3.63684,51.048558],[-3.636885,51.048577],[-3.636939,51.048588],[-3.637001,51.048589],[-3.637073,51.048582],[-3.637153,51.048565],[-3.637213,51.048541],[-3.637251,51.048509],[-3.637268,51.048468],[-3.637265,51.04842],[-3.637284,51.048385],[-3.637328,51.048364],[-3.637395,51.048357],[-3.637486,51.048364],[-3.637577,51.048359],[-3.637666,51.048342],[-3.637754,51.048312],[-3.637841,51.048271],[-3.637933,51.048226],[-3.638028,51.048178],[-3.638129,51.048126],[-3.638233,51.048071],[-3.638341,51.048002],[-3.638453,51.047919],[-3.638569,51.047821],[-3.638689,51.047708],[-3.638799,51.047624],[-3.638902,51.047567],[-3.638995,51.047538],[-3.63908,51.047537],[-3.639117,51.047557],[-3.639106,51.047597],[-3.639047,51.047658],[-3.63894,51.04774],[-3.638852,51.047819],[-3.638782,51.047897],[-3.638732,51.047972],[-3.6387,51.048045],[-3.638678,51.048108],[-3.638666,51.048162],[-3.638663,51.048207],[-3.63867,51.048241],[-3.638701,51.048266],[-3.638754,51.048279],[-3.638832,51.048282],[-3.638933,51.048275],[-3.639021,51.048276],[-3.639097,51.048286],[-3.639161,51.048305],[-3.639211,51.048332],[-3.639268,51.048357],[-3.639329,51.048378],[-3.639396,51.048397],[-3.639469,51.048413],[-3.639539,51.048434],[-3.639607,51.048459],[-3.639673,51.048489],[-3.639737,51.048524],[-3.639839,51.048576],[-3.639979,51.048647],[-3.640157,51.048735],[-3.640374,51.048841],[-3.640549,51.048937],[-3.640682,51.049024],[-3.640772,51.049101],[-3.640821,51.049169],[-3.640869,51.049212],[-3.640915,51.04923],[-3.64096,51.049223],[-3.641004,51.049191],[-3.641031,51.049161],[-3.641042,51.049133],[-3.641037,51.049107],[-3.641016,51.049082],[-3.641001,51.049036],[-3.640993,51.048968],[-3.640992,51.048878],[-3.640997,51.048766],[-3.641,51.048659],[-3.640998,51.048559],[-3.640993,51.048465],[-3.640984,51.048377],[-3.640983,51.048305],[-3.64099,51.04825],[-3.641004,51.048211],[-3.641026,51.048188],[-3.641046,51.048131],[-3.641065,51.048039],[-3.641082,51.047913],[-3.641098,51.047753],[-3.641121,51.047634],[-3.641149,51.047556],[-3.641183,51.047519],[-3.641223,51.047523],[-3.641257,51.04755],[-3.641284,51.047599],[-3.641305,51.047671],[-3.641319,51.047765],[-3.641324,51.047881],[-3.641321,51.048018],[-3.641309,51.048178],[-3.641288,51.048358],[-3.641296,51.048503],[-3.641332,51.04861],[-3.641395,51.04868],[-3.641487,51.048714],[-3.641567,51.048754],[-3.641634,51.048801],[-3.641689,51.048854],[-3.641732,51.048914],[-3.641788,51.048958],[-3.641857,51.048986],[-3.641939,51.048999],[-3.642035,51.048997],[-3.642118,51.049008],[-3.642189,51.049032],[-3.642248,51.049069],[-3.642295,51.049119],[-3.642352,51.049159],[-3.642418,51.049189],[-3.642493,51.049209],[-3.642578,51.049219],[-3.642682,51.049216],[-3.642805,51.049199],[-3.642947,51.049168],[-3.643108,51.049125],[-3.643236,51.049097],[-3.643331,51.049086],[-3.643392,51.049091],[-3.643419,51.049112],[-3.643445,51.04915],[-3.643468,51.049204],[-3.643489,51.049275],[-3.643508,51.049362],[-3.643533,51.049431],[-3.643563,51.049483],[-3.643598,51.049518],[-3.643639,51.049536],[-3.643676,51.049574],[-3.643709,51.049632],[-3.643739,51.049711],[-3.643766,51.04981],[-3.643839,51.049881],[-3.64396,51.049922],[-3.644128,51.049935],[-3.644344,51.049918],[-3.644507,51.049896],[-3.644618,51.049868],[-3.644677,51.049835],[-3.644683,51.049796],[-3.644709,51.049771],[-3.644756,51.04976],[-3.644822,51.049763],[-3.644909,51.049779],[-3.644998,51.049792],[-3.64509,51.049801],[-3.645184,51.049807],[-3.645281,51.049809],[-3.64537,51.049815],[-3.645451,51.049825],[-3.645525,51.04984],[-3.645591,51.049859],[-3.645658,51.049867],[-3.645724,51.049863],[-3.645791,51.049849],[-3.645858,51.049823],[-3.645911,51.04979],[-3.645951,51.049749],[-3.645976,51.049702],[-3.645988,51.049647],[-3.646016,51.0496],[-3.646058,51.049563],[-3.646115,51.049535],[-3.646187,51.049515],[-3.646242,51.049488],[-3.646435,51.049266],[-3.646617,51.049067],[-3.646771,51.048872],[-3.646895,51.048681],[-3.646943,51.048584],[-3.646906,51.04856],[-3.646821,51.048533],[-3.646744,51.048539],[-3.646673,51.048576],[-3.646607,51.048604],[-3.646545,51.048623],[-3.646487,51.048632],[-3.646433,51.048631],[-3.646402,51.04862],[-3.646394,51.048597],[-3.646408,51.048564],[-3.646444,51.04852],[-3.646492,51.04847],[-3.646551,51.048417],[-3.64662,51.048358],[-3.646701,51.048295],[-3.646808,51.04823],[-3.646941,51.048163],[-3.6471,51.048094],[-3.647183,51.048062],[-3.64722,51.048001],[-3.647309,51.047892],[-3.647196,51.047881],[-3.647043,51.047868],[-3.646882,51.047855],[-3.646715,51.047842],[-3.64654,51.047829],[-3.646396,51.047813],[-3.646284,51.047793],[-3.646202,51.047769],[-3.646151,51.047741],[-3.64605,51.047727],[-3.645898,51.047726],[-3.645696,51.047739],[-3.645444,51.047764],[-3.645239,51.047781],[-3.645079,51.047789],[-3.644966,51.047788],[-3.644899,51.047778],[-3.644857,51.04776],[-3.644841,51.047736],[-3.64485,51.047703],[-3.644884,51.047663],[-3.644918,51.047599],[-3.644952,51.047509],[-3.644985,51.047394],[-3.645018,51.047254],[-3.645061,51.047151],[-3.645114,51.047086],[-3.645178,51.047058],[-3.645252,51.047067],[-3.645312,51.047071],[-3.64536,51.047069],[-3.645395,51.047063],[-3.645416,51.047052],[-3.645473,51.047047],[-3.645564,51.04705],[-3.64569,51.047059],[-3.645852,51.047076],[-3.645975,51.04706],[-3.646061,51.047012],[-3.646108,51.046931],[-3.646117,51.046819],[-3.646059,51.046725],[-3.645935,51.046649],[-3.645745,51.046592],[-3.645488,51.046553],[-3.64527,51.046528],[-3.645092,51.046516],[-3.644953,51.046517],[-3.644854,51.046531],[-3.644758,51.046531],[-3.644665,51.046517],[-3.644575,51.04649],[-3.644488,51.046449],[-3.644402,51.046413],[-3.644316,51.046382],[-3.644231,51.046356],[-3.644146,51.046335],[-3.643994,51.046294],[-3.643773,51.046235],[-3.643484,51.046156],[-3.643128,51.046058],[-3.642827,51.045978],[-3.642583,51.045915],[-3.642394,51.045871],[-3.642261,51.045844],[-3.642107,51.045807],[-3.641931,51.04576],[-3.641734,51.045703],[-3.641514,51.045635],[-3.641343,51.045594],[-3.641221,51.045578],[-3.641148,51.045588],[-3.641123,51.045625],[-3.641108,51.045662],[-3.641104,51.045699],[-3.641109,51.045737],[-3.641124,51.045775],[-3.641158,51.045811],[-3.641213,51.045843],[-3.641286,51.045873],[-3.64138,51.0459],[-3.641468,51.045923],[-3.641552,51.045942],[-3.641632,51.045957],[-3.641706,51.045968],[-3.641762,51.045987],[-3.641798,51.046014],[-3.641816,51.046049],[-3.641814,51.046091],[-3.641821,51.046142],[-3.641835,51.046202],[-3.641857,51.04627],[-3.641887,51.046347],[-3.641888,51.04642],[-3.641859,51.046491],[-3.641801,51.046558],[-3.641713,51.046622],[-3.641635,51.046702],[-3.641566,51.0468],[-3.641507,51.046914],[-3.641457,51.047045],[-3.641395,51.047147],[-3.641319,51.047221],[-3.64123,51.047266],[-3.641128,51.047282],[-3.641049,51.047242],[-3.640993,51.047143],[-3.64096,51.046988],[-3.64095,51.046775],[-3.64093,51.046608],[-3.640901,51.046488],[-3.640863,51.046414],[-3.640816,51.046386],[-3.640768,51.046375],[-3.64072,51.046381],[-3.640671,51.046403],[-3.640622,51.046443],[-3.640561,51.046474],[-3.640486,51.046499],[-3.640399,51.046516],[-3.640299,51.046526],[-3.6402,51.04655],[-3.640103,51.04659],[-3.640008,51.046644],[-3.639915,51.046713],[-3.639833,51.046778],[-3.63976,51.046841],[-3.639699,51.046899],[-3.639648,51.046954],[-3.639595,51.046995],[-3.63954,51.04702],[-3.639484,51.047031],[-3.639426,51.047026],[-3.639367,51.047022],[-3.639309,51.047018],[-3.639251,51.047014],[-3.639193,51.047009],[-3.639124,51.047001],[-3.639043,51.046988],[-3.638952,51.046971],[-3.638849,51.04695],[-3.638728,51.046934],[-3.638588,51.046922],[-3.638428,51.046916],[-3.63825,51.046915],[-3.638107,51.046928],[-3.637999,51.046954],[-3.637927,51.046994],[-3.637889,51.047047],[-3.637813,51.047089],[-3.637697,51.047118],[-3.637542,51.047135],[-3.637348,51.047141],[-3.637169,51.047155],[-3.637005,51.047177],[-3.636856,51.047209],[-3.636722,51.047249],[-3.636608,51.047288],[-3.636514,51.047323],[-3.63644,51.047357],[-3.636385,51.047388],[-3.636343,51.047426],[-3.636313,51.04747],[-3.636297,51.047522],[-3.636293,51.04758],[-3.636299,51.047633],[-3.636315,51.04768],[-3.636341,51.047722],[-3.636376,51.047758],[-3.636387,51.04779],[-3.636372,51.047819],[-3.636333,51.047843],[-3.636268,51.047864],[-3.636209,51.047868],[-3.636157,51.047854],[-3.636111,51.047823],[-3.636072,51.047774],[-3.636022,51.047758],[-3.635963,51.047773],[-3.635894,51.047822],[-3.635815,51.047903],[-3.635714,51.047964],[-3.635592,51.048007],[-3.635447,51.04803],[-3.635281,51.048034],[-3.635193,51.04806],[-3.635182,51.048107],[-3.635249,51.048175],[-3.635393,51.048265],[-3.635544,51.048347],[-3.635701,51.048421],[-3.635865,51.048487]]]}}