{"type":"Feature","properties":{"id":"288296","COMMUNE":"Gwynedd","PROVINCE":"Gwynedd","COUNTRY":"UK","FIREDATE":"2025-12-30 11:34:00","CLASS":"FireSeason","areaHA_geo":5.51},"geometry":{"type":"Polygon","coordinates":[[[-4.619038,52.83432],[-4.619986,52.834353],[-4.620628,52.834336],[-4.620963,52.834269],[-4.621199,52.834153],[-4.621335,52.833987],[-4.621467,52.833768],[-4.621595,52.833495],[-4.621654,52.833185],[-4.621646,52.832838],[-4.621627,52.832579],[-4.621596,52.832408],[-4.621546,52.832261],[-4.621476,52.832137],[-4.621393,52.832056],[-4.621298,52.832018],[-4.621186,52.831995],[-4.621059,52.831985],[-4.620991,52.831865],[-4.620981,52.831634],[-4.621092,52.831413],[-4.621323,52.831202],[-4.621462,52.831044],[-4.621508,52.830939],[-4.621474,52.830819],[-4.621359,52.830684],[-4.621297,52.830501],[-4.621287,52.83027],[-4.621292,52.830103],[-4.621313,52.830001],[-4.62124,52.829911],[-4.621076,52.829831],[-4.620945,52.82981],[-4.620847,52.829847],[-4.620799,52.829949],[-4.6208,52.830114],[-4.6208,52.830276],[-4.620799,52.830434],[-4.620752,52.83056],[-4.62066,52.830654],[-4.620525,52.8307],[-4.620345,52.830697],[-4.620169,52.830748],[-4.619998,52.830852],[-4.619911,52.830962],[-4.61991,52.831078],[-4.619855,52.83118],[-4.619747,52.831268],[-4.619616,52.83143],[-4.619462,52.831664],[-4.619375,52.831874],[-4.619355,52.832059],[-4.619397,52.832182],[-4.619501,52.832244],[-4.619684,52.832296],[-4.619947,52.832338],[-4.620134,52.832261],[-4.620246,52.832065],[-4.62038,52.831953],[-4.620536,52.831926],[-4.620674,52.831967],[-4.620794,52.832076],[-4.620861,52.832172],[-4.620875,52.832253],[-4.620693,52.832366],[-4.620316,52.832512],[-4.620052,52.832649],[-4.619903,52.832775],[-4.619698,52.832862],[-4.619439,52.832911],[-4.619229,52.832982],[-4.619069,52.833077],[-4.618882,52.833419],[-4.61867,52.834009],[-4.619038,52.83432]]]}}