{"type":"Feature","properties":{"id":"289262","COMMUNE":"Inverness and Nairn","PROVINCE":"Inverness & Nairn and Moray, Badenoch & Strathspey","COUNTRY":"UK","FIREDATE":"2026-03-03 14:26:00","CLASS":"FireSeason","areaHA_geo":6.157},"geometry":{"type":"Polygon","coordinates":[[[-4.039723,57.336522],[-4.039941,57.336513],[-4.040142,57.336488],[-4.040325,57.336446],[-4.040489,57.336387],[-4.040636,57.336311],[-4.040771,57.336258],[-4.040893,57.336227],[-4.041003,57.336219],[-4.041101,57.336234],[-4.041177,57.336227],[-4.041231,57.336199],[-4.041263,57.336149],[-4.041273,57.336078],[-4.041353,57.335998],[-4.041504,57.33591],[-4.041726,57.335812],[-4.042018,57.335706],[-4.042241,57.335667],[-4.042396,57.335695],[-4.042481,57.335791],[-4.042497,57.335954],[-4.042536,57.336056],[-4.042597,57.336096],[-4.042682,57.336076],[-4.04279,57.335995],[-4.042895,57.335932],[-4.042999,57.335889],[-4.0431,57.335864],[-4.0432,57.335858],[-4.043344,57.335805],[-4.043532,57.335705],[-4.043765,57.335558],[-4.044042,57.335364],[-4.044343,57.335165],[-4.044667,57.334963],[-4.045016,57.334758],[-4.045389,57.334548],[-4.04565,57.334373],[-4.0458,57.334232],[-4.045838,57.334126],[-4.045764,57.334054],[-4.045743,57.333997],[-4.045773,57.333957],[-4.045856,57.333932],[-4.045991,57.333922],[-4.046063,57.333886],[-4.046071,57.333822],[-4.046016,57.333732],[-4.045897,57.333616],[-4.045731,57.333543],[-4.045516,57.333513],[-4.045254,57.333528],[-4.044943,57.333586],[-4.044697,57.333613],[-4.044514,57.333607],[-4.044396,57.33357],[-4.044342,57.333501],[-4.044359,57.333432],[-4.044449,57.333363],[-4.044609,57.333293],[-4.044841,57.333223],[-4.044998,57.33315],[-4.04508,57.333074],[-4.045087,57.332995],[-4.045018,57.332912],[-4.044963,57.332829],[-4.044921,57.332743],[-4.044893,57.332657],[-4.044878,57.332569],[-4.044819,57.332513],[-4.044718,57.332489],[-4.044573,57.332497],[-4.044385,57.332537],[-4.044224,57.332593],[-4.044089,57.332665],[-4.043982,57.332752],[-4.043901,57.332856],[-4.043791,57.332949],[-4.043651,57.333031],[-4.043482,57.333103],[-4.043284,57.333164],[-4.043114,57.33321],[-4.042973,57.33324],[-4.042861,57.333255],[-4.042777,57.333254],[-4.042718,57.333203],[-4.042684,57.333101],[-4.042675,57.33295],[-4.042691,57.332749],[-4.042665,57.332602],[-4.042597,57.33251],[-4.042488,57.332472],[-4.042337,57.332488],[-4.042229,57.332546],[-4.042166,57.332645],[-4.042145,57.332786],[-4.042169,57.332968],[-4.042144,57.333109],[-4.042071,57.333209],[-4.041951,57.333268],[-4.041782,57.333286],[-4.041716,57.333318],[-4.041752,57.333364],[-4.04189,57.333424],[-4.042131,57.333498],[-4.042342,57.333565],[-4.042522,57.333625],[-4.042672,57.333679],[-4.042791,57.333726],[-4.042884,57.333768],[-4.042949,57.333806],[-4.042987,57.333839],[-4.042998,57.333868],[-4.043047,57.333893],[-4.043133,57.333913],[-4.043258,57.33393],[-4.04342,57.333942],[-4.043527,57.333968],[-4.043579,57.334007],[-4.043576,57.33406],[-4.043518,57.334126],[-4.043435,57.334176],[-4.043328,57.33421],[-4.043196,57.334228],[-4.04304,57.33423],[-4.042928,57.334252],[-4.042861,57.334294],[-4.042838,57.334356],[-4.042861,57.334439],[-4.042828,57.334516],[-4.042739,57.334588],[-4.042596,57.334654],[-4.042398,57.334715],[-4.042211,57.334764],[-4.042035,57.334801],[-4.041871,57.334825],[-4.041718,57.334836],[-4.041589,57.334866],[-4.041482,57.334915],[-4.0414,57.334983],[-4.04134,57.335069],[-4.04128,57.335154],[-4.04122,57.335237],[-4.041159,57.33532],[-4.041097,57.335401],[-4.04103,57.33548],[-4.040957,57.335555],[-4.040878,57.335627],[-4.040794,57.335696],[-4.040651,57.335794],[-4.04045,57.33592],[-4.04019,57.336075],[-4.039872,57.336259],[-4.039688,57.336395],[-4.039638,57.336482],[-4.039723,57.336522]]]}}