{"type":"Feature","properties":{"id":"289229","COMMUNE":"Aberdeenshire","PROVINCE":"Aberdeen City and Aberdeenshire","COUNTRY":"UK","FIREDATE":"2026-03-03 12:44:00","FINALDATE":"2026-03-03 14:26:00","CLASS":"FireSeason","areaHA_geo":10.598},"geometry":{"type":"Polygon","coordinates":[[[-3.307783,57.050279],[-3.307837,57.050388],[-3.307907,57.050454],[-3.307993,57.050477],[-3.308095,57.050458],[-3.308173,57.050434],[-3.308226,57.050405],[-3.308254,57.050373],[-3.308258,57.050336],[-3.308295,57.050292],[-3.308365,57.050241],[-3.308469,57.050184],[-3.308606,57.050119],[-3.308708,57.050054],[-3.308777,57.049987],[-3.308812,57.04992],[-3.308813,57.049851],[-3.308813,57.049781],[-3.308813,57.04971],[-3.308812,57.049638],[-3.308811,57.049565],[-3.308822,57.049495],[-3.308845,57.049429],[-3.308879,57.049366],[-3.308925,57.049306],[-3.308964,57.049293],[-3.308997,57.049326],[-3.309024,57.049406],[-3.309043,57.049532],[-3.30909,57.049645],[-3.309164,57.049745],[-3.309264,57.049832],[-3.309392,57.049906],[-3.309482,57.049939],[-3.309534,57.049931],[-3.309548,57.049883],[-3.309524,57.049794],[-3.309534,57.049705],[-3.309578,57.049616],[-3.309656,57.049527],[-3.309767,57.049437],[-3.30987,57.049372],[-3.309964,57.04933],[-3.31005,57.049312],[-3.310128,57.049318],[-3.310201,57.049362],[-3.310268,57.049444],[-3.31033,57.049565],[-3.310387,57.049724],[-3.31045,57.049842],[-3.31052,57.049919],[-3.310596,57.049956],[-3.310679,57.049952],[-3.310793,57.04993],[-3.310939,57.04989],[-3.311116,57.049832],[-3.311324,57.049756],[-3.311529,57.04968],[-3.311729,57.049604],[-3.311925,57.049529],[-3.312117,57.049455],[-3.31229,57.049384],[-3.312443,57.049318],[-3.312576,57.049257],[-3.31269,57.049199],[-3.312811,57.049136],[-3.312938,57.049068],[-3.313072,57.048995],[-3.313212,57.048917],[-3.313304,57.048838],[-3.313347,57.048758],[-3.313341,57.048677],[-3.313287,57.048596],[-3.313217,57.048542],[-3.313132,57.048517],[-3.313032,57.048519],[-3.312916,57.048549],[-3.312805,57.048586],[-3.312699,57.048629],[-3.312596,57.048678],[-3.312499,57.048734],[-3.312365,57.048785],[-3.312197,57.048832],[-3.311994,57.048875],[-3.311755,57.048913],[-3.311589,57.04896],[-3.311495,57.049015],[-3.311473,57.049079],[-3.311525,57.049152],[-3.311532,57.049236],[-3.311494,57.049331],[-3.311412,57.049438],[-3.311286,57.049556],[-3.311173,57.049644],[-3.311072,57.049703],[-3.310983,57.049731],[-3.310907,57.04973],[-3.310855,57.049703],[-3.310828,57.049651],[-3.310826,57.049574],[-3.310848,57.049471],[-3.310832,57.049385],[-3.310778,57.049318],[-3.310687,57.049268],[-3.310557,57.049235],[-3.310485,57.049199],[-3.310471,57.049159],[-3.310515,57.049116],[-3.310616,57.049069],[-3.310604,57.04903],[-3.310479,57.048999],[-3.310242,57.048977],[-3.309892,57.048962],[-3.309634,57.048943],[-3.30947,57.048919],[-3.309398,57.04889],[-3.30942,57.048855],[-3.309437,57.048804],[-3.309451,57.048737],[-3.309461,57.048652],[-3.309467,57.048551],[-3.309512,57.048438],[-3.309598,57.048312],[-3.309723,57.048175],[-3.309888,57.048025],[-3.310025,57.047919],[-3.310134,57.047858],[-3.310214,57.047841],[-3.310265,57.047867],[-3.310301,57.047902],[-3.310321,57.047946],[-3.310325,57.047998],[-3.310313,57.048059],[-3.310307,57.048112],[-3.310306,57.048158],[-3.310312,57.048197],[-3.310323,57.048227],[-3.310309,57.048278],[-3.310271,57.048348],[-3.310209,57.048438],[-3.310122,57.048548],[-3.310092,57.048634],[-3.310119,57.048698],[-3.310203,57.048738],[-3.310344,57.048756],[-3.310473,57.048747],[-3.310591,57.048712],[-3.310697,57.048651],[-3.310792,57.048564],[-3.310897,57.048497],[-3.311011,57.048451],[-3.311134,57.048426],[-3.311267,57.048421],[-3.31139,57.0484],[-3.311503,57.048364],[-3.311606,57.048311],[-3.3117,57.048242],[-3.311787,57.048198],[-3.311869,57.048181],[-3.311946,57.048189],[-3.312017,57.048223],[-3.312118,57.04823],[-3.31225,57.048209],[-3.312412,57.048162],[-3.312604,57.048087],[-3.312734,57.047993],[-3.312802,57.047878],[-3.312809,57.047744],[-3.312754,57.047589],[-3.312744,57.047473],[-3.312779,57.047397],[-3.31286,57.047358],[-3.312987,57.047359],[-3.313078,57.047333],[-3.313135,57.047279],[-3.313156,57.047198],[-3.313143,57.047089],[-3.313159,57.046994],[-3.313205,57.046911],[-3.313281,57.046842],[-3.313387,57.046785],[-3.313461,57.046726],[-3.313502,57.046665],[-3.313511,57.046601],[-3.313487,57.046535],[-3.313488,57.046484],[-3.313513,57.04645],[-3.313563,57.046431],[-3.313638,57.046428],[-3.313715,57.046419],[-3.313794,57.046404],[-3.313874,57.046383],[-3.313957,57.046356],[-3.314046,57.046339],[-3.31414,57.046332],[-3.31424,57.046334],[-3.314345,57.046346],[-3.314432,57.04637],[-3.314499,57.046407],[-3.314548,57.046455],[-3.314579,57.046516],[-3.314626,57.04656],[-3.314689,57.046585],[-3.31477,57.046593],[-3.314867,57.046583],[-3.314946,57.04659],[-3.315005,57.046613],[-3.315044,57.046654],[-3.315065,57.046711],[-3.315125,57.046745],[-3.315226,57.046755],[-3.315366,57.046742],[-3.315547,57.046705],[-3.315681,57.046656],[-3.315768,57.046595],[-3.315809,57.046521],[-3.315803,57.046434],[-3.315832,57.046385],[-3.315895,57.046374],[-3.315993,57.046401],[-3.316126,57.046465],[-3.316256,57.046512],[-3.316385,57.046543],[-3.316511,57.046556],[-3.316636,57.046552],[-3.316731,57.046535],[-3.316795,57.046503],[-3.316829,57.046457],[-3.316833,57.046397],[-3.316812,57.046332],[-3.316766,57.046261],[-3.316694,57.046185],[-3.316598,57.046103],[-3.316544,57.046007],[-3.316534,57.045896],[-3.316567,57.04577],[-3.316643,57.04563],[-3.316658,57.045514],[-3.316613,57.045422],[-3.316507,57.045355],[-3.31634,57.045313],[-3.316117,57.045306],[-3.315837,57.045335],[-3.3155,57.045399],[-3.315106,57.045499],[-3.314759,57.045598],[-3.314457,57.045695],[-3.314201,57.045791],[-3.313991,57.045886],[-3.313784,57.045955],[-3.313581,57.045999],[-3.313382,57.046017],[-3.313185,57.04601],[-3.31302,57.046019],[-3.312886,57.046044],[-3.312783,57.046085],[-3.312711,57.046143],[-3.312689,57.046191],[-3.312715,57.04623],[-3.312791,57.046258],[-3.312915,57.046278],[-3.312973,57.046315],[-3.312963,57.046371],[-3.312887,57.046445],[-3.312743,57.046538],[-3.312584,57.046598],[-3.312408,57.046625],[-3.312217,57.046619],[-3.31201,57.046581],[-3.311809,57.046573],[-3.311615,57.046595],[-3.311428,57.046648],[-3.311247,57.04673],[-3.311055,57.046787],[-3.310851,57.046817],[-3.310635,57.04682],[-3.310409,57.046798],[-3.31012,57.046821],[-3.30977,57.046889],[-3.309358,57.047002],[-3.308885,57.04716],[-3.308478,57.047281],[-3.308137,57.047364],[-3.307863,57.047409],[-3.307655,57.047417],[-3.307497,57.047439],[-3.307388,57.047475],[-3.307328,57.047526],[-3.307318,57.047591],[-3.307343,57.047638],[-3.307403,57.047666],[-3.307499,57.047675],[-3.307631,57.047666],[-3.307739,57.047686],[-3.307824,57.047735],[-3.307885,57.047812],[-3.307923,57.047918],[-3.307979,57.047999],[-3.308054,57.048055],[-3.308147,57.048087],[-3.308259,57.048094],[-3.30832,57.048115],[-3.308328,57.048151],[-3.308285,57.048201],[-3.30819,57.048265],[-3.308098,57.048306],[-3.308007,57.048322],[-3.307917,57.048314],[-3.30783,57.048282],[-3.307714,57.048311],[-3.30757,57.048401],[-3.307397,57.048553],[-3.307195,57.048766],[-3.30708,57.048949],[-3.307051,57.049103],[-3.307108,57.049227],[-3.307252,57.049323],[-3.307379,57.049395],[-3.307489,57.049446],[-3.307583,57.049474],[-3.307661,57.04948],[-3.307713,57.049458],[-3.307737,57.04941],[-3.307736,57.049335],[-3.307707,57.049232],[-3.307724,57.049156],[-3.307787,57.049106],[-3.307894,57.049083],[-3.308046,57.049085],[-3.308172,57.049102],[-3.308272,57.049133],[-3.308345,57.049178],[-3.308391,57.049238],[-3.308424,57.049302],[-3.308445,57.049371],[-3.308452,57.049444],[-3.308447,57.049523],[-3.30842,57.049584],[-3.308373,57.049627],[-3.308304,57.049654],[-3.308215,57.049663],[-3.308179,57.049687],[-3.308198,57.049726],[-3.30827,57.049781],[-3.308396,57.04985],[-3.308434,57.049899],[-3.308385,57.049927],[-3.308249,57.049934],[-3.308025,57.04992],[-3.307867,57.049948],[-3.307774,57.050017],[-3.307746,57.050127],[-3.307783,57.050279]]]}}