{"type":"Feature","properties":{"id":"289241","COMMUNE":"Aberdeenshire","PROVINCE":"Aberdeen City and Aberdeenshire","COUNTRY":"UK","FIREDATE":"2026-03-03 12:44:00","FINALDATE":"2026-03-03 14:26:00","CLASS":"FireSeason","areaHA_geo":0.744},"geometry":{"type":"Polygon","coordinates":[[[-3.318446,57.04935],[-3.318621,57.049249],[-3.318786,57.049147],[-3.318942,57.049041],[-3.319088,57.048934],[-3.319225,57.048823],[-3.319343,57.048747],[-3.319442,57.048705],[-3.319521,57.048697],[-3.319581,57.048723],[-3.319645,57.048727],[-3.319714,57.048708],[-3.319788,57.048667],[-3.319867,57.048604],[-3.319928,57.048541],[-3.319972,57.048477],[-3.32,57.048412],[-3.32001,57.048347],[-3.320032,57.048284],[-3.320065,57.048224],[-3.320109,57.048165],[-3.320165,57.048109],[-3.320193,57.048059],[-3.320194,57.048016],[-3.320168,57.047979],[-3.320115,57.047947],[-3.320033,57.047942],[-3.319923,57.047963],[-3.319784,57.048009],[-3.319616,57.048081],[-3.319487,57.04815],[-3.319397,57.048217],[-3.319347,57.04828],[-3.319335,57.048341],[-3.31923,57.048413],[-3.319033,57.048498],[-3.318743,57.048594],[-3.318361,57.048702],[-3.318107,57.048795],[-3.317979,57.048875],[-3.31798,57.04894],[-3.318107,57.048991],[-3.318196,57.049056],[-3.318245,57.049136],[-3.318256,57.04923],[-3.318227,57.049338],[-3.318249,57.049394],[-3.318322,57.049398],[-3.318446,57.04935]]]}}