{"type":"Feature","properties":{"id":"289260","COMMUNE":"Inverness and Nairn","PROVINCE":"Inverness & Nairn and Moray, Badenoch & Strathspey","COUNTRY":"UK","FIREDATE":"2026-03-03 14:26:00","CLASS":"FireSeason","areaHA_geo":6.437},"geometry":{"type":"Polygon","coordinates":[[[-4.036978,57.34214],[-4.037052,57.342174],[-4.037116,57.342172],[-4.03717,57.342134],[-4.037216,57.342059],[-4.03725,57.341972],[-4.037272,57.341873],[-4.037282,57.341761],[-4.037281,57.341636],[-4.037331,57.341556],[-4.037433,57.34152],[-4.037586,57.341528],[-4.037791,57.341581],[-4.037983,57.341599],[-4.038162,57.341582],[-4.038327,57.341531],[-4.038479,57.341445],[-4.038748,57.341368],[-4.039134,57.341302],[-4.039637,57.341245],[-4.040257,57.341199],[-4.040761,57.341156],[-4.041148,57.341116],[-4.041419,57.341081],[-4.041574,57.341049],[-4.041724,57.341032],[-4.041871,57.341029],[-4.042014,57.341039],[-4.042153,57.341064],[-4.042224,57.341093],[-4.042227,57.341125],[-4.042162,57.341161],[-4.042029,57.3412],[-4.041915,57.341248],[-4.041822,57.341306],[-4.041748,57.341372],[-4.041693,57.341448],[-4.041668,57.341519],[-4.04167,57.341586],[-4.041701,57.341649],[-4.04176,57.341707],[-4.041793,57.341767],[-4.041798,57.341829],[-4.041776,57.341893],[-4.041727,57.341958],[-4.041661,57.342022],[-4.041579,57.342086],[-4.041481,57.342149],[-4.041366,57.342211],[-4.04133,57.342262],[-4.041373,57.342303],[-4.041495,57.342332],[-4.041696,57.34235],[-4.041865,57.342338],[-4.042002,57.342296],[-4.042106,57.342224],[-4.042177,57.342121],[-4.042265,57.342061],[-4.042369,57.342042],[-4.042489,57.342065],[-4.042625,57.34213],[-4.042726,57.342104],[-4.042792,57.341988],[-4.042824,57.34178],[-4.04282,57.341481],[-4.042779,57.341232],[-4.042698,57.341034],[-4.042579,57.340886],[-4.042422,57.340789],[-4.042256,57.340689],[-4.042084,57.340588],[-4.041903,57.340485],[-4.041716,57.340381],[-4.041527,57.340298],[-4.041337,57.340236],[-4.041145,57.340195],[-4.040953,57.340176],[-4.040814,57.340144],[-4.040727,57.340098],[-4.040693,57.34004],[-4.040712,57.339968],[-4.040692,57.33988],[-4.040634,57.339777],[-4.040537,57.339658],[-4.040403,57.339523],[-4.040186,57.339439],[-4.039887,57.339406],[-4.039505,57.339425],[-4.039042,57.339494],[-4.038685,57.33957],[-4.038434,57.339652],[-4.03829,57.33974],[-4.038252,57.339834],[-4.038113,57.339949],[-4.037873,57.340084],[-4.037533,57.34024],[-4.037092,57.340417],[-4.036753,57.340581],[-4.036514,57.340731],[-4.036377,57.340868],[-4.036341,57.340992],[-4.036352,57.341088],[-4.036411,57.341156],[-4.036516,57.341197],[-4.03667,57.341211],[-4.036732,57.341235],[-4.036704,57.341271],[-4.036585,57.341317],[-4.036376,57.341374],[-4.036211,57.341438],[-4.03609,57.341509],[-4.036013,57.341586],[-4.03598,57.341669],[-4.036008,57.341742],[-4.036097,57.341805],[-4.036246,57.341857],[-4.036456,57.341899],[-4.036635,57.341949],[-4.036781,57.342005],[-4.036896,57.342069],[-4.036978,57.34214]]]}}