{"type":"Feature","properties":{"id":"289224","COMMUNE":"Aberdeenshire","PROVINCE":"Aberdeen City and Aberdeenshire","COUNTRY":"UK","FIREDATE":"2026-02-28 12:53:00","FINALDATE":"2026-03-03 13:35:00","CLASS":"FireSeason","areaHA_geo":0.55},"geometry":{"type":"Polygon","coordinates":[[[-3.151268,57.206825],[-3.1515,57.206819],[-3.15162,57.206779],[-3.151629,57.206705],[-3.151527,57.206597],[-3.151443,57.206496],[-3.151377,57.206402],[-3.15133,57.206314],[-3.151301,57.206234],[-3.151232,57.206164],[-3.151121,57.206106],[-3.15097,57.206059],[-3.150777,57.206023],[-3.150602,57.206009],[-3.150445,57.206018],[-3.150305,57.206049],[-3.150183,57.206104],[-3.150122,57.206165],[-3.150121,57.206235],[-3.15018,57.206312],[-3.150301,57.206398],[-3.150386,57.206476],[-3.150437,57.206547],[-3.150454,57.206611],[-3.150436,57.206669],[-3.150508,57.206719],[-3.150671,57.206762],[-3.150924,57.206797],[-3.151268,57.206825]]]}}