{"type":"Feature","properties":{"id":"289238","COMMUNE":"Aberdeenshire","PROVINCE":"Aberdeen City and Aberdeenshire","COUNTRY":"UK","FIREDATE":"2026-03-03 12:44:00","FINALDATE":"2026-03-03 14:26:00","CLASS":"FireSeason","areaHA_geo":3.798},"geometry":{"type":"Polygon","coordinates":[[[-3.320507,57.047667],[-3.320699,57.047638],[-3.32085,57.047591],[-3.320961,57.047524],[-3.321031,57.047439],[-3.321099,57.047374],[-3.321162,57.047329],[-3.321222,57.047303],[-3.321279,57.047297],[-3.321325,57.04732],[-3.32136,57.047371],[-3.321385,57.047451],[-3.321398,57.047559],[-3.321438,57.047634],[-3.321503,57.047676],[-3.321594,57.047683],[-3.321711,57.047658],[-3.321788,57.047618],[-3.321823,57.047564],[-3.321817,57.047496],[-3.321771,57.047414],[-3.321772,57.047327],[-3.321819,57.047235],[-3.321912,57.047138],[-3.322053,57.047037],[-3.322153,57.046948],[-3.322214,57.046871],[-3.322235,57.046805],[-3.322216,57.046753],[-3.3222,57.046697],[-3.322188,57.046639],[-3.322179,57.046578],[-3.322173,57.046514],[-3.322146,57.046469],[-3.322099,57.046442],[-3.32203,57.046433],[-3.321941,57.046442],[-3.321882,57.046431],[-3.321854,57.0464],[-3.321857,57.046348],[-3.32189,57.046276],[-3.321951,57.04623],[-3.32204,57.046209],[-3.322158,57.046214],[-3.322303,57.046245],[-3.32245,57.046248],[-3.322597,57.046224],[-3.322744,57.046172],[-3.322893,57.046093],[-3.323103,57.045999],[-3.323376,57.045891],[-3.323711,57.045769],[-3.324108,57.045632],[-3.32437,57.045524],[-3.324497,57.045444],[-3.324489,57.045393],[-3.324347,57.045372],[-3.324206,57.045341],[-3.324066,57.045303],[-3.323927,57.045257],[-3.32379,57.045202],[-3.323664,57.04518],[-3.323549,57.045189],[-3.323447,57.045231],[-3.323355,57.045304],[-3.323272,57.04536],[-3.323197,57.045397],[-3.32313,57.045416],[-3.323072,57.045418],[-3.323038,57.045395],[-3.32303,57.045348],[-3.323046,57.045276],[-3.323088,57.045181],[-3.323056,57.045097],[-3.32295,57.045025],[-3.322771,57.044966],[-3.322519,57.044919],[-3.322303,57.04495],[-3.322123,57.04506],[-3.32198,57.045249],[-3.321874,57.045516],[-3.32176,57.045748],[-3.321637,57.045946],[-3.321506,57.046109],[-3.321367,57.046238],[-3.321197,57.046352],[-3.320997,57.04645],[-3.320766,57.046533],[-3.320504,57.046601],[-3.320314,57.046664],[-3.320196,57.046722],[-3.32015,57.046775],[-3.320175,57.046823],[-3.32021,57.046872],[-3.320253,57.046922],[-3.320305,57.046974],[-3.320366,57.047027],[-3.320395,57.047073],[-3.320393,57.047113],[-3.320358,57.047145],[-3.320291,57.04717],[-3.320207,57.047187],[-3.320104,57.047195],[-3.319984,57.047194],[-3.319847,57.047186],[-3.31975,57.047146],[-3.319696,57.047077],[-3.319683,57.046976],[-3.319712,57.046845],[-3.319695,57.046733],[-3.319633,57.046642],[-3.319525,57.046569],[-3.319371,57.046516],[-3.319239,57.046494],[-3.319129,57.046503],[-3.31904,57.046543],[-3.318973,57.046614],[-3.318868,57.046656],[-3.318725,57.046668],[-3.318544,57.046651],[-3.318326,57.046605],[-3.318147,57.046594],[-3.318008,57.046617],[-3.317909,57.046675],[-3.31785,57.046769],[-3.317827,57.046846],[-3.317841,57.046909],[-3.317892,57.046956],[-3.317979,57.046989],[-3.318056,57.047032],[-3.318122,57.047087],[-3.318177,57.047154],[-3.318222,57.047231],[-3.318278,57.047287],[-3.318345,57.047322],[-3.318423,57.047334],[-3.318512,57.047325],[-3.318662,57.047321],[-3.318873,57.047322],[-3.319145,57.047329],[-3.319477,57.04734],[-3.319723,57.04737],[-3.319883,57.047418],[-3.319957,57.047483],[-3.319945,57.047567],[-3.319994,57.047627],[-3.320104,57.047664],[-3.320275,57.047677],[-3.320507,57.047667]]]}}