{"type":"Feature","properties":{"id":"289254","COMMUNE":"West Moray","PROVINCE":"Inverness & Nairn and Moray, Badenoch & Strathspey","COUNTRY":"UK","FIREDATE":"2026-03-02 13:33:00","FINALDATE":"2026-03-02 13:54:00","CLASS":"FireSeason","areaHA_geo":0.739},"geometry":{"type":"Polygon","coordinates":[[[-3.368643,57.190351],[-3.368499,57.190556],[-3.368417,57.190713],[-3.368397,57.190821],[-3.36844,57.19088],[-3.368492,57.190912],[-3.368553,57.190917],[-3.368622,57.190896],[-3.368699,57.190849],[-3.368764,57.190796],[-3.368816,57.190737],[-3.368855,57.190673],[-3.368881,57.190603],[-3.36893,57.190518],[-3.369003,57.190417],[-3.3691,57.190302],[-3.369221,57.190171],[-3.369324,57.190046],[-3.369409,57.189929],[-3.369477,57.189818],[-3.369527,57.189714],[-3.36958,57.189629],[-3.369636,57.189562],[-3.369695,57.189513],[-3.369757,57.189483],[-3.369818,57.189414],[-3.369878,57.189307],[-3.369937,57.189162],[-3.369994,57.188978],[-3.369992,57.188852],[-3.369931,57.188783],[-3.36981,57.188772],[-3.36963,57.188818],[-3.369475,57.18887],[-3.369347,57.188929],[-3.369244,57.188994],[-3.369168,57.189065],[-3.369117,57.189152],[-3.369093,57.189256],[-3.369094,57.189375],[-3.369121,57.189511],[-3.369089,57.189676],[-3.368999,57.189871],[-3.368851,57.190096],[-3.368643,57.190351]]]}}