{"type":"Feature","properties":{"id":"289248","COMMUNE":"Aberdeenshire","PROVINCE":"Aberdeen City and Aberdeenshire","COUNTRY":"UK","FIREDATE":"2026-03-03 12:44:00","FINALDATE":"2026-03-03 14:26:00","CLASS":"FireSeason","areaHA_geo":0.343},"geometry":{"type":"Polygon","coordinates":[[[-3.310864,57.051127],[-3.310931,57.05118],[-3.31102,57.051203],[-3.311129,57.051196],[-3.311259,57.05116],[-3.31135,57.051108],[-3.311402,57.051041],[-3.311414,57.050959],[-3.311387,57.050861],[-3.311378,57.050782],[-3.311386,57.050722],[-3.311411,57.05068],[-3.311453,57.050657],[-3.31145,57.050618],[-3.3114,57.050561],[-3.311304,57.050487],[-3.311162,57.050397],[-3.311023,57.050355],[-3.310887,57.050362],[-3.310753,57.050418],[-3.310623,57.050523],[-3.310551,57.050605],[-3.310538,57.050663],[-3.310585,57.050699],[-3.31069,57.050711],[-3.310763,57.050732],[-3.310803,57.050762],[-3.310811,57.050801],[-3.310786,57.05085],[-3.310779,57.050906],[-3.31079,57.050972],[-3.310818,57.051045],[-3.310864,57.051127]]]}}