{"type":"Feature","properties":{"id":"289275","COMMUNE":"Caithness and Sutherland","PROVINCE":"Caithness & Sutherland and Ross & Cromarty","COUNTRY":"UK","FIREDATE":"2026-02-28 14:12:00","CLASS":"FireSeason","areaHA_geo":4.472},"geometry":{"type":"Polygon","coordinates":[[[-3.823414,58.168235],[-3.823429,58.168537],[-3.823496,58.168761],[-3.823613,58.168907],[-3.823782,58.168975],[-3.823949,58.169089],[-3.824112,58.169249],[-3.824274,58.169455],[-3.824432,58.169707],[-3.824589,58.169903],[-3.824745,58.170042],[-3.8249,58.170125],[-3.825053,58.170152],[-3.825181,58.170155],[-3.825284,58.170134],[-3.825363,58.170088],[-3.825417,58.170018],[-3.825465,58.169839],[-3.825506,58.16955],[-3.825539,58.169152],[-3.825566,58.168645],[-3.825483,58.168114],[-3.825288,58.16756],[-3.824983,58.166983],[-3.824567,58.166382],[-3.824201,58.165937],[-3.823886,58.165648],[-3.82362,58.165515],[-3.823405,58.165537],[-3.82327,58.165661],[-3.823215,58.165887],[-3.823241,58.166214],[-3.823346,58.166643],[-3.823416,58.16706],[-3.823451,58.167464],[-3.82345,58.167856],[-3.823414,58.168235]]]}}