{"type":"Feature","properties":{"id":"289245","COMMUNE":"Aberdeenshire","PROVINCE":"Aberdeen City and Aberdeenshire","COUNTRY":"UK","FIREDATE":"2026-03-03 12:44:00","CLASS":"FireSeason","areaHA_geo":1.411},"geometry":{"type":"Polygon","coordinates":[[[-3.301902,57.050754],[-3.302016,57.050697],[-3.302121,57.050667],[-3.302217,57.050664],[-3.302303,57.050688],[-3.302381,57.050739],[-3.302483,57.050743],[-3.30261,57.050698],[-3.302762,57.050604],[-3.302938,57.050463],[-3.303066,57.050343],[-3.303145,57.050246],[-3.303175,57.050171],[-3.303156,57.050118],[-3.303169,57.050083],[-3.303213,57.050067],[-3.30329,57.05007],[-3.303398,57.050091],[-3.303519,57.050092],[-3.303651,57.050074],[-3.303796,57.050036],[-3.303952,57.049979],[-3.304054,57.049917],[-3.304102,57.04985],[-3.304095,57.049779],[-3.304034,57.049703],[-3.30402,57.049622],[-3.304052,57.049536],[-3.304131,57.049446],[-3.304257,57.049351],[-3.30434,57.049269],[-3.304378,57.049201],[-3.304374,57.049147],[-3.304325,57.049106],[-3.304254,57.049099],[-3.304158,57.049127],[-3.30404,57.04919],[-3.303898,57.049287],[-3.303755,57.049369],[-3.30361,57.049436],[-3.303465,57.049489],[-3.303319,57.049527],[-3.303214,57.049533],[-3.30315,57.049508],[-3.303127,57.04945],[-3.303146,57.049362],[-3.30308,57.049317],[-3.302928,57.049317],[-3.302691,57.04936],[-3.302369,57.049448],[-3.302137,57.049528],[-3.301994,57.0496],[-3.301941,57.049664],[-3.301978,57.049719],[-3.301992,57.049781],[-3.301982,57.049848],[-3.301949,57.049921],[-3.301893,57.05],[-3.301885,57.050064],[-3.301923,57.050113],[-3.302009,57.050146],[-3.302142,57.050165],[-3.302206,57.050199],[-3.302204,57.05025],[-3.302133,57.050317],[-3.301994,57.050399],[-3.301887,57.050481],[-3.30181,57.050562],[-3.301765,57.050642],[-3.301752,57.050722],[-3.30177,57.050767],[-3.30182,57.050777],[-3.301902,57.050754]]]}}