{"type":"Feature","properties":{"id":"289277","COMMUNE":"Caithness and Sutherland","PROVINCE":"Caithness & Sutherland and Ross & Cromarty","COUNTRY":"UK","FIREDATE":"2026-03-02 13:03:00","CLASS":"FireSeason","areaHA_geo":39.89},"geometry":{"type":"Polygon","coordinates":[[[-4.07395,58.310799],[-4.07472,58.310704],[-4.075294,58.310575],[-4.075672,58.310412],[-4.075854,58.310215],[-4.07584,58.309984],[-4.075892,58.309794],[-4.076008,58.309645],[-4.07619,58.309536],[-4.076437,58.309469],[-4.076632,58.309346],[-4.076776,58.309167],[-4.076868,58.308931],[-4.076908,58.308639],[-4.076905,58.3084],[-4.076857,58.308214],[-4.076764,58.30808],[-4.076628,58.307998],[-4.076527,58.307916],[-4.076462,58.307834],[-4.076432,58.307752],[-4.076438,58.307669],[-4.076412,58.307586],[-4.076353,58.307504],[-4.076262,58.307421],[-4.076138,58.307338],[-4.076029,58.30722],[-4.075935,58.307065],[-4.075856,58.306875],[-4.075792,58.306649],[-4.07571,58.306466],[-4.075609,58.306326],[-4.075489,58.306229],[-4.07535,58.306176],[-4.075232,58.306108],[-4.075135,58.306026],[-4.075057,58.305929],[-4.075,58.305819],[-4.074943,58.305692],[-4.074886,58.305547],[-4.074828,58.305386],[-4.07477,58.305207],[-4.074707,58.305022],[-4.074637,58.304831],[-4.074562,58.304633],[-4.074481,58.30443],[-4.07439,58.304258],[-4.074289,58.304118],[-4.074178,58.30401],[-4.074057,58.303934],[-4.073931,58.303855],[-4.0738,58.303773],[-4.073666,58.303688],[-4.073527,58.3036],[-4.073408,58.303498],[-4.07331,58.303381],[-4.073232,58.303251],[-4.073175,58.303107],[-4.073113,58.302968],[-4.073047,58.302834],[-4.072977,58.302707],[-4.072902,58.302584],[-4.072802,58.302455],[-4.072676,58.302317],[-4.072524,58.302173],[-4.072346,58.30202],[-4.072168,58.301858],[-4.071988,58.301685],[-4.071808,58.301502],[-4.071627,58.301309],[-4.071488,58.301137],[-4.071389,58.300987],[-4.071331,58.300858],[-4.071314,58.30075],[-4.071268,58.300632],[-4.07119,58.300503],[-4.071083,58.300364],[-4.070945,58.300214],[-4.070829,58.300069],[-4.070734,58.299928],[-4.070661,58.299792],[-4.070609,58.299661],[-4.070534,58.299537],[-4.070435,58.299421],[-4.070314,58.299312],[-4.07017,58.299211],[-4.070028,58.299124],[-4.069887,58.299049],[-4.069749,58.298989],[-4.069613,58.298941],[-4.06954,58.298895],[-4.069528,58.298848],[-4.069577,58.298802],[-4.069689,58.298755],[-4.069705,58.298655],[-4.069623,58.298499],[-4.069446,58.298288],[-4.069171,58.298023],[-4.068946,58.297775],[-4.068769,58.297544],[-4.068642,58.29733],[-4.068564,58.297133],[-4.068427,58.296976],[-4.068231,58.29686],[-4.067976,58.296784],[-4.067663,58.296749],[-4.067391,58.296687],[-4.06716,58.296598],[-4.066971,58.296483],[-4.066824,58.296341],[-4.066638,58.296208],[-4.066413,58.296085],[-4.066149,58.295971],[-4.065847,58.295866],[-4.065616,58.295823],[-4.065455,58.295844],[-4.065364,58.295927],[-4.065344,58.296073],[-4.065361,58.29624],[-4.065417,58.296429],[-4.06551,58.29664],[-4.065641,58.296873],[-4.065774,58.297115],[-4.065906,58.297368],[-4.06604,58.297631],[-4.066175,58.297905],[-4.066304,58.298166],[-4.06643,58.298417],[-4.06655,58.298655],[-4.066667,58.298883],[-4.066878,58.299283],[-4.067183,58.299857],[-4.067584,58.300603],[-4.068079,58.301523],[-4.068466,58.302245],[-4.068746,58.30277],[-4.068918,58.303097],[-4.068983,58.303227],[-4.069049,58.303345],[-4.069117,58.303451],[-4.069187,58.303544],[-4.069259,58.303626],[-4.069343,58.303764],[-4.06944,58.303959],[-4.069549,58.304211],[-4.069672,58.30452],[-4.069777,58.304818],[-4.069866,58.305107],[-4.069937,58.305385],[-4.069991,58.305653],[-4.070058,58.305976],[-4.070136,58.306354],[-4.070227,58.306788],[-4.07033,58.307277],[-4.070507,58.307773],[-4.07076,58.308277],[-4.071086,58.308788],[-4.071488,58.309307],[-4.071813,58.309707],[-4.072061,58.309989],[-4.072234,58.310152],[-4.07233,58.310197],[-4.072422,58.310273],[-4.07251,58.31038],[-4.072594,58.310518],[-4.072674,58.310688],[-4.072927,58.310791],[-4.073352,58.310828],[-4.07395,58.310799]]]}}