{"type":"Feature","properties":{"id":"289261","COMMUNE":"Inverness and Nairn","PROVINCE":"Inverness & Nairn and Moray, Badenoch & Strathspey","COUNTRY":"UK","FIREDATE":"2026-03-03 14:26:00","CLASS":"FireSeason","areaHA_geo":8.319},"geometry":{"type":"Polygon","coordinates":[[[-4.036957,57.339544],[-4.037088,57.3395],[-4.037351,57.339448],[-4.037744,57.339389],[-4.038268,57.339321],[-4.038924,57.339245],[-4.039431,57.339135],[-4.039792,57.338989],[-4.040004,57.338807],[-4.04007,57.338591],[-4.040091,57.338423],[-4.040068,57.338303],[-4.040002,57.338232],[-4.039891,57.338209],[-4.039791,57.338171],[-4.039702,57.338118],[-4.039623,57.338051],[-4.039554,57.337968],[-4.039518,57.337899],[-4.039515,57.337842],[-4.039544,57.337797],[-4.039606,57.337766],[-4.039649,57.33772],[-4.039672,57.33766],[-4.039676,57.337586],[-4.039661,57.337498],[-4.039646,57.33741],[-4.039631,57.337322],[-4.039616,57.337234],[-4.0396,57.337146],[-4.039557,57.337074],[-4.039485,57.33702],[-4.039385,57.336982],[-4.039257,57.336961],[-4.03917,57.33697],[-4.039126,57.33701],[-4.039122,57.33708],[-4.039161,57.337181],[-4.039176,57.337275],[-4.039168,57.337363],[-4.039137,57.337445],[-4.039083,57.337521],[-4.038946,57.337593],[-4.038727,57.337661],[-4.038426,57.337726],[-4.038043,57.337787],[-4.037728,57.337847],[-4.037482,57.337906],[-4.037306,57.337964],[-4.037198,57.33802],[-4.037083,57.338059],[-4.036962,57.338079],[-4.036833,57.338082],[-4.036698,57.338067],[-4.036743,57.337972],[-4.036967,57.337798],[-4.037372,57.337545],[-4.037957,57.337213],[-4.038358,57.336955],[-4.038575,57.336772],[-4.038607,57.336664],[-4.038456,57.336631],[-4.038299,57.336601],[-4.038137,57.336577],[-4.03797,57.336556],[-4.037797,57.33654],[-4.037645,57.33651],[-4.037513,57.336467],[-4.037401,57.33641],[-4.037309,57.33634],[-4.037197,57.336263],[-4.037062,57.336177],[-4.036907,57.336084],[-4.036729,57.335984],[-4.036583,57.335909],[-4.036467,57.335859],[-4.036381,57.335834],[-4.036326,57.335835],[-4.036273,57.335861],[-4.036223,57.335911],[-4.036176,57.335986],[-4.03613,57.336086],[-4.036113,57.336174],[-4.036124,57.33625],[-4.036162,57.336314],[-4.036229,57.336367],[-4.036295,57.336421],[-4.036363,57.336476],[-4.03643,57.336532],[-4.036499,57.33659],[-4.036533,57.336637],[-4.036533,57.336674],[-4.0365,57.336702],[-4.036432,57.336719],[-4.036347,57.336757],[-4.036245,57.336815],[-4.036125,57.336894],[-4.035987,57.336994],[-4.035833,57.337074],[-4.035662,57.337135],[-4.035474,57.337176],[-4.03527,57.337198],[-4.035057,57.337252],[-4.034836,57.337338],[-4.034606,57.337456],[-4.034368,57.337607],[-4.034225,57.337747],[-4.034177,57.337877],[-4.034225,57.337996],[-4.034369,57.338105],[-4.034529,57.338162],[-4.034706,57.338165],[-4.0349,57.338115],[-4.03511,57.338013],[-4.035242,57.337978],[-4.035296,57.338009],[-4.035271,57.338108],[-4.035168,57.338274],[-4.035069,57.338396],[-4.034975,57.338476],[-4.034885,57.338513],[-4.0348,57.338508],[-4.034737,57.338554],[-4.034696,57.338653],[-4.034678,57.338805],[-4.034682,57.339009],[-4.034705,57.33916],[-4.034746,57.339258],[-4.034807,57.339302],[-4.034887,57.339293],[-4.034958,57.339315],[-4.035019,57.339365],[-4.03507,57.339446],[-4.035112,57.339556],[-4.035191,57.339641],[-4.035307,57.339701],[-4.035459,57.339736],[-4.035647,57.339745],[-4.035798,57.339734],[-4.03591,57.339702],[-4.035985,57.339649],[-4.036021,57.339575],[-4.03608,57.339518],[-4.036162,57.339477],[-4.036265,57.339452],[-4.036392,57.339443],[-4.036498,57.339448],[-4.036583,57.339466],[-4.036648,57.339498],[-4.036693,57.339543],[-4.03676,57.339566],[-4.036848,57.339566],[-4.036957,57.339544]]]}}