{"type":"Feature","properties":{"id":"289272","COMMUNE":"Caithness and Sutherland","PROVINCE":"Caithness & Sutherland and Ross & Cromarty","COUNTRY":"UK","FIREDATE":"2026-03-04 13:16:00","FINALDATE":"2026-03-06 14:20:00","CLASS":"FireSeason","areaHA_geo":6.987},"geometry":{"type":"Polygon","coordinates":[[[-3.816527,58.163537],[-3.816337,58.163728],[-3.816397,58.163829],[-3.816706,58.16384],[-3.817265,58.163761],[-3.817703,58.163605],[-3.81802,58.163374],[-3.818216,58.163066],[-3.818292,58.162683],[-3.818401,58.162441],[-3.818545,58.16234],[-3.818724,58.16238],[-3.818936,58.162562],[-3.819155,58.162692],[-3.819378,58.162771],[-3.819608,58.162798],[-3.819842,58.162774],[-3.820003,58.162626],[-3.820091,58.162354],[-3.820106,58.161958],[-3.820047,58.161438],[-3.82005,58.161027],[-3.820116,58.160725],[-3.820245,58.160532],[-3.820436,58.160448],[-3.820469,58.160297],[-3.820344,58.160079],[-3.820061,58.159795],[-3.819619,58.159443],[-3.819232,58.159205],[-3.818898,58.159078],[-3.818618,58.159065],[-3.818392,58.159163],[-3.818258,58.159327],[-3.818214,58.159557],[-3.818263,58.159853],[-3.818403,58.160214],[-3.818446,58.160443],[-3.818392,58.16054],[-3.818241,58.160504],[-3.817993,58.160337],[-3.817752,58.160228],[-3.817519,58.160177],[-3.817293,58.160184],[-3.817074,58.16025],[-3.816927,58.160356],[-3.816852,58.160504],[-3.816849,58.160692],[-3.816917,58.160921],[-3.816957,58.161193],[-3.816967,58.161509],[-3.816948,58.161867],[-3.816901,58.162269],[-3.816915,58.162568],[-3.816991,58.162764],[-3.817129,58.162857],[-3.817328,58.162847],[-3.817368,58.16291],[-3.817248,58.163046],[-3.816967,58.163255],[-3.816527,58.163537]]]}}