{"type":"Feature","properties":{"id":"289252","COMMUNE":"West Moray","PROVINCE":"Inverness & Nairn and Moray, Badenoch & Strathspey","COUNTRY":"UK","FIREDATE":"2026-03-02 13:33:00","FINALDATE":"2026-03-02 13:54:00","CLASS":"FireSeason","areaHA_geo":6.576},"geometry":{"type":"Polygon","coordinates":[[[-3.371469,57.189099],[-3.371435,57.18914],[-3.371453,57.189162],[-3.371526,57.189165],[-3.371651,57.189148],[-3.371776,57.189141],[-3.371901,57.189144],[-3.372026,57.189157],[-3.372151,57.189179],[-3.372248,57.189169],[-3.372316,57.189124],[-3.372355,57.189046],[-3.372366,57.188934],[-3.372404,57.188844],[-3.372471,57.188776],[-3.372566,57.18873],[-3.372688,57.188705],[-3.372803,57.188705],[-3.372911,57.18873],[-3.37301,57.188779],[-3.373103,57.188852],[-3.373228,57.188845],[-3.373386,57.188758],[-3.373577,57.18859],[-3.373801,57.188342],[-3.37401,57.188115],[-3.374202,57.187909],[-3.374378,57.187725],[-3.374538,57.187562],[-3.374766,57.187414],[-3.375061,57.187281],[-3.375423,57.187163],[-3.375853,57.187059],[-3.37614,57.186946],[-3.376285,57.186822],[-3.376288,57.186688],[-3.376148,57.186544],[-3.376058,57.18642],[-3.376016,57.186316],[-3.376024,57.186231],[-3.376081,57.186166],[-3.376117,57.186099],[-3.376132,57.18603],[-3.376127,57.185959],[-3.3761,57.185887],[-3.376054,57.185823],[-3.375986,57.185766],[-3.375897,57.185718],[-3.375788,57.185678],[-3.375648,57.185654],[-3.375477,57.185646],[-3.375275,57.185654],[-3.375043,57.185677],[-3.374852,57.185674],[-3.374702,57.185644],[-3.374594,57.185587],[-3.374527,57.185503],[-3.374453,57.185438],[-3.37437,57.185391],[-3.374279,57.185363],[-3.374181,57.185353],[-3.374104,57.185362],[-3.374048,57.185389],[-3.374014,57.185435],[-3.374001,57.1855],[-3.373952,57.185567],[-3.373868,57.185637],[-3.373748,57.18571],[-3.373593,57.185785],[-3.373449,57.185836],[-3.373316,57.185864],[-3.373195,57.185867],[-3.373086,57.185847],[-3.372941,57.185851],[-3.372762,57.185879],[-3.372547,57.185932],[-3.372298,57.186009],[-3.372115,57.186084],[-3.371999,57.186157],[-3.37195,57.186229],[-3.371968,57.186298],[-3.372009,57.186341],[-3.372073,57.186358],[-3.372161,57.186349],[-3.372273,57.186314],[-3.372357,57.18633],[-3.372414,57.186397],[-3.372444,57.186516],[-3.372447,57.186686],[-3.37242,57.186812],[-3.372362,57.186895],[-3.372274,57.186935],[-3.372156,57.186931],[-3.372006,57.187005],[-3.371823,57.187156],[-3.371609,57.187385],[-3.371361,57.187691],[-3.371196,57.18795],[-3.371112,57.188162],[-3.37111,57.188328],[-3.371189,57.188446],[-3.371267,57.188515],[-3.371344,57.188535],[-3.371419,57.188505],[-3.371492,57.188427],[-3.37157,57.188359],[-3.371652,57.188304],[-3.371738,57.188259],[-3.371829,57.188226],[-3.371895,57.188167],[-3.371937,57.188082],[-3.371955,57.18797],[-3.371949,57.187832],[-3.37195,57.187718],[-3.371958,57.187629],[-3.371972,57.187563],[-3.371994,57.187521],[-3.372031,57.187493],[-3.372084,57.187477],[-3.372152,57.187475],[-3.372237,57.187486],[-3.372308,57.187522],[-3.372367,57.187584],[-3.372412,57.18767],[-3.372445,57.187781],[-3.372485,57.187876],[-3.372532,57.187954],[-3.372585,57.188016],[-3.372645,57.188061],[-3.372618,57.188137],[-3.372503,57.188244],[-3.372301,57.188381],[-3.372011,57.188549],[-3.371801,57.188685],[-3.37167,57.188787],[-3.371619,57.188857],[-3.371646,57.188893],[-3.371645,57.188936],[-3.371616,57.188984],[-3.371557,57.189039],[-3.371469,57.189099]]]}}