{"type":"Feature","properties":{"id":"289255","COMMUNE":"West Moray","PROVINCE":"Inverness & Nairn and Moray, Badenoch & Strathspey","COUNTRY":"UK","FIREDATE":"2026-03-02 13:33:00","FINALDATE":"2026-03-02 13:54:00","CLASS":"FireSeason","areaHA_geo":1.024},"geometry":{"type":"Polygon","coordinates":[[[-3.369611,57.190997],[-3.36946,57.191167],[-3.369404,57.191294],[-3.369441,57.191376],[-3.369572,57.191414],[-3.369695,57.191438],[-3.369812,57.191447],[-3.369922,57.191443],[-3.370024,57.191425],[-3.370104,57.191381],[-3.370159,57.191312],[-3.370191,57.191218],[-3.370199,57.191098],[-3.370261,57.191018],[-3.370377,57.190976],[-3.370548,57.190973],[-3.370772,57.19101],[-3.370978,57.191002],[-3.371164,57.190952],[-3.371331,57.190857],[-3.371478,57.19072],[-3.371604,57.1906],[-3.37171,57.190498],[-3.371795,57.190414],[-3.371859,57.190348],[-3.371866,57.190283],[-3.371817,57.190219],[-3.371712,57.190156],[-3.371551,57.190093],[-3.371362,57.190075],[-3.371145,57.190101],[-3.3709,57.190172],[-3.370628,57.190287],[-3.370363,57.190427],[-3.370105,57.190592],[-3.369854,57.190782],[-3.369611,57.190997]]]}}