{"type":"Feature","properties":{"id":"289239","COMMUNE":"Aberdeenshire","PROVINCE":"Aberdeen City and Aberdeenshire","COUNTRY":"UK","FIREDATE":"2026-03-03 12:44:00","FINALDATE":"2026-03-03 14:26:00","CLASS":"FireSeason","areaHA_geo":0.983},"geometry":{"type":"Polygon","coordinates":[[[-3.314935,57.049909],[-3.314862,57.050099],[-3.314852,57.050224],[-3.314905,57.050283],[-3.31502,57.050275],[-3.315121,57.050254],[-3.315209,57.050217],[-3.315284,57.050166],[-3.315344,57.0501],[-3.315422,57.050053],[-3.315517,57.050025],[-3.31563,57.050016],[-3.315759,57.050026],[-3.315887,57.049987],[-3.316012,57.049901],[-3.316134,57.049768],[-3.316254,57.049586],[-3.316371,57.049448],[-3.316485,57.049354],[-3.316595,57.049304],[-3.316702,57.049298],[-3.31681,57.049264],[-3.316918,57.049202],[-3.317027,57.049113],[-3.317137,57.048997],[-3.317208,57.048893],[-3.317238,57.048803],[-3.31723,57.048726],[-3.317182,57.048663],[-3.31709,57.048634],[-3.316953,57.048642],[-3.316773,57.048684],[-3.316548,57.048762],[-3.316375,57.048843],[-3.316254,57.048926],[-3.316183,57.049012],[-3.316165,57.049101],[-3.316097,57.04917],[-3.31598,57.049218],[-3.315813,57.049247],[-3.315597,57.049255],[-3.315401,57.049326],[-3.315226,57.049458],[-3.31507,57.049653],[-3.314935,57.049909]]]}}