{"type":"Feature","properties":{"id":"289256","COMMUNE":"West Moray","PROVINCE":"Inverness & Nairn and Moray, Badenoch & Strathspey","COUNTRY":"UK","FIREDATE":"2026-03-02 13:33:00","FINALDATE":"2026-03-02 13:54:00","CLASS":"FireSeason","areaHA_geo":1.385},"geometry":{"type":"Polygon","coordinates":[[[-3.37231,57.192042],[-3.372211,57.192141],[-3.372203,57.192221],[-3.372287,57.192281],[-3.372463,57.192323],[-3.372644,57.192335],[-3.372831,57.192317],[-3.373024,57.192271],[-3.373223,57.192195],[-3.373395,57.192118],[-3.373538,57.19204],[-3.373653,57.191961],[-3.373741,57.191881],[-3.373868,57.191787],[-3.374033,57.191679],[-3.374238,57.191557],[-3.37448,57.191421],[-3.374719,57.191248],[-3.374953,57.191036],[-3.375182,57.190786],[-3.375406,57.190498],[-3.375549,57.190277],[-3.37561,57.190122],[-3.375589,57.190034],[-3.375486,57.190013],[-3.375389,57.190017],[-3.375297,57.190046],[-3.375211,57.190101],[-3.37513,57.19018],[-3.375069,57.190252],[-3.375026,57.190315],[-3.375002,57.190371],[-3.374998,57.190419],[-3.37497,57.190465],[-3.37492,57.190507],[-3.374847,57.190547],[-3.374751,57.190585],[-3.374586,57.190664],[-3.374353,57.190785],[-3.37405,57.190948],[-3.373679,57.191152],[-3.373402,57.19132],[-3.373219,57.191451],[-3.373131,57.191546],[-3.373138,57.191605],[-3.37312,57.191652],[-3.373078,57.191688],[-3.373012,57.191713],[-3.372922,57.191726],[-3.372807,57.191765],[-3.372667,57.191831],[-3.372501,57.191923],[-3.37231,57.192042]]]}}