{"type":"Feature","properties":{"id":"289244","COMMUNE":"Aberdeenshire","PROVINCE":"Aberdeen City and Aberdeenshire","COUNTRY":"UK","FIREDATE":"2026-03-03 12:44:00","CLASS":"FireSeason","areaHA_geo":3.115},"geometry":{"type":"Polygon","coordinates":[[[-3.303717,57.05338],[-3.303453,57.05356],[-3.303312,57.053684],[-3.303295,57.053752],[-3.3034,57.053764],[-3.303502,57.053766],[-3.3036,57.053759],[-3.303695,57.053741],[-3.303786,57.053713],[-3.303864,57.053702],[-3.303928,57.053707],[-3.30398,57.053728],[-3.304019,57.053765],[-3.30407,57.053792],[-3.304135,57.053808],[-3.304213,57.053814],[-3.304304,57.053809],[-3.304383,57.053782],[-3.30445,57.053734],[-3.304505,57.053665],[-3.304548,57.053573],[-3.304602,57.0535],[-3.304666,57.053446],[-3.304742,57.053409],[-3.304828,57.053391],[-3.304911,57.053395],[-3.304992,57.053421],[-3.30507,57.053469],[-3.305146,57.05354],[-3.305231,57.053579],[-3.305327,57.053587],[-3.305433,57.053565],[-3.305548,57.053512],[-3.305627,57.05345],[-3.305669,57.053379],[-3.305675,57.0533],[-3.305643,57.053212],[-3.305571,57.053145],[-3.305458,57.053099],[-3.305304,57.053075],[-3.305109,57.053072],[-3.304975,57.053039],[-3.304902,57.052975],[-3.304889,57.052882],[-3.304938,57.052758],[-3.304993,57.052636],[-3.305055,57.052515],[-3.305124,57.052396],[-3.3052,57.052278],[-3.305313,57.052153],[-3.305463,57.052021],[-3.305651,57.051882],[-3.305876,57.051735],[-3.306035,57.051614],[-3.306127,57.051517],[-3.306152,57.051446],[-3.30611,57.0514],[-3.30605,57.051381],[-3.305973,57.051389],[-3.305879,57.051424],[-3.305766,57.051486],[-3.305659,57.051517],[-3.305559,57.051518],[-3.305464,57.051489],[-3.305376,57.05143],[-3.305274,57.051409],[-3.305158,57.051428],[-3.30503,57.051486],[-3.304888,57.051583],[-3.304769,57.051645],[-3.304674,57.051673],[-3.304602,57.051667],[-3.304554,57.051626],[-3.304539,57.05158],[-3.304558,57.051527],[-3.304611,57.051469],[-3.304698,57.051405],[-3.30477,57.051342],[-3.304827,57.051279],[-3.30487,57.051216],[-3.304898,57.051154],[-3.304895,57.051103],[-3.304859,57.051063],[-3.304792,57.051034],[-3.304694,57.051017],[-3.304563,57.050987],[-3.3044,57.050944],[-3.304206,57.050889],[-3.303979,57.05082],[-3.303783,57.050765],[-3.303616,57.050723],[-3.303479,57.050693],[-3.303372,57.050677],[-3.303268,57.050696],[-3.303166,57.050753],[-3.303067,57.050845],[-3.30297,57.050974],[-3.302929,57.051079],[-3.302946,57.05116],[-3.303018,57.051216],[-3.303148,57.051249],[-3.303255,57.051307],[-3.30334,57.051393],[-3.303403,57.051504],[-3.303444,57.051641],[-3.303451,57.051762],[-3.303425,57.051865],[-3.303366,57.051952],[-3.303273,57.052021],[-3.303207,57.052083],[-3.303168,57.05214],[-3.303157,57.05219],[-3.303172,57.052234],[-3.303221,57.052248],[-3.303303,57.05223],[-3.303419,57.052182],[-3.303567,57.052102],[-3.303672,57.052089],[-3.303733,57.052143],[-3.30375,57.052262],[-3.303724,57.052448],[-3.303715,57.052592],[-3.303722,57.052694],[-3.303746,57.052754],[-3.303786,57.052773],[-3.303843,57.052773],[-3.303916,57.052754],[-3.304005,57.052716],[-3.304111,57.05266],[-3.304207,57.052614],[-3.304291,57.052581],[-3.304365,57.052558],[-3.304429,57.052547],[-3.304486,57.052555],[-3.304538,57.052582],[-3.304584,57.052627],[-3.304624,57.052692],[-3.304557,57.052799],[-3.304384,57.05295],[-3.304103,57.053143],[-3.303717,57.05338]]]}}