{"type":"Feature","properties":{"id":"289240","COMMUNE":"Aberdeenshire","PROVINCE":"Aberdeen City and Aberdeenshire","COUNTRY":"UK","FIREDATE":"2026-03-03 12:44:00","CLASS":"FireSeason","areaHA_geo":1.345},"geometry":{"type":"Polygon","coordinates":[[[-3.316393,57.050571],[-3.316524,57.050608],[-3.316697,57.0506],[-3.316913,57.050545],[-3.317172,57.050446],[-3.31738,57.05038],[-3.317537,57.050348],[-3.317643,57.050349],[-3.317698,57.050385],[-3.317679,57.050462],[-3.317587,57.050582],[-3.317422,57.050743],[-3.317183,57.050946],[-3.317032,57.051105],[-3.316968,57.051222],[-3.316992,57.051295],[-3.317104,57.051324],[-3.317264,57.051291],[-3.317474,57.051194],[-3.317732,57.051033],[-3.318039,57.05081],[-3.318316,57.050631],[-3.318563,57.050499],[-3.31878,57.050411],[-3.318967,57.050369],[-3.319063,57.050309],[-3.319069,57.05023],[-3.318984,57.050134],[-3.318808,57.050019],[-3.31865,57.049936],[-3.318509,57.049884],[-3.318386,57.049864],[-3.318281,57.049874],[-3.318171,57.049867],[-3.318057,57.049842],[-3.317938,57.0498],[-3.317816,57.049739],[-3.317632,57.049738],[-3.317388,57.049798],[-3.317084,57.049917],[-3.316719,57.050096],[-3.316467,57.050252],[-3.316329,57.050382],[-3.316304,57.050489],[-3.316393,57.050571]]]}}