{"type":"Feature","properties":{"id":"289264","COMMUNE":"Inverness and Nairn","PROVINCE":"Inverness & Nairn and Moray, Badenoch & Strathspey","COUNTRY":"UK","FIREDATE":"2026-02-28 14:12:00","FINALDATE":"2026-02-28 14:12:00","CLASS":"FireSeason","areaHA_geo":1.153},"geometry":{"type":"Polygon","coordinates":[[[-3.981962,57.386191],[-3.981942,57.386232],[-3.982004,57.386254],[-3.982148,57.386255],[-3.982373,57.386236],[-3.982556,57.386203],[-3.982697,57.386154],[-3.982797,57.386091],[-3.982856,57.386012],[-3.982947,57.385944],[-3.98307,57.385887],[-3.983227,57.38584],[-3.983415,57.385804],[-3.983591,57.385748],[-3.983753,57.385672],[-3.983901,57.385575],[-3.984037,57.385459],[-3.984162,57.385351],[-3.984278,57.385251],[-3.984384,57.38516],[-3.98448,57.385078],[-3.984553,57.384989],[-3.984603,57.384894],[-3.98463,57.384793],[-3.984635,57.384685],[-3.984611,57.384612],[-3.984559,57.384573],[-3.984478,57.38457],[-3.984369,57.384601],[-3.984291,57.384634],[-3.984244,57.384669],[-3.984228,57.384705],[-3.984243,57.384744],[-3.984237,57.384781],[-3.984211,57.384816],[-3.984165,57.384848],[-3.984098,57.384878],[-3.984009,57.3849],[-3.983899,57.384915],[-3.983766,57.384921],[-3.983612,57.38492],[-3.983485,57.384945],[-3.983383,57.384997],[-3.983308,57.385074],[-3.98326,57.385178],[-3.983205,57.385264],[-3.983144,57.385332],[-3.983078,57.385382],[-3.983005,57.385415],[-3.98293,57.385426],[-3.982851,57.385417],[-3.982769,57.385387],[-3.982685,57.385336],[-3.982584,57.385321],[-3.982468,57.385343],[-3.982336,57.3854],[-3.982189,57.385493],[-3.982094,57.385588],[-3.982051,57.385685],[-3.98206,57.385784],[-3.982121,57.385885],[-3.982142,57.385976],[-3.982122,57.386057],[-3.982062,57.386129],[-3.981962,57.386191]]]}}