{"type":"Feature","properties":{"id":"289253","COMMUNE":"West Moray","PROVINCE":"Inverness & Nairn and Moray, Badenoch & Strathspey","COUNTRY":"UK","FIREDATE":"2026-03-02 13:33:00","FINALDATE":"2026-03-02 13:54:00","CLASS":"FireSeason","areaHA_geo":2.267},"geometry":{"type":"Polygon","coordinates":[[[-3.364316,57.189599],[-3.364276,57.189806],[-3.364302,57.189947],[-3.364393,57.190024],[-3.364551,57.190035],[-3.36468,57.190066],[-3.364782,57.190115],[-3.364856,57.190182],[-3.364901,57.190268],[-3.364964,57.190331],[-3.365044,57.19037],[-3.365141,57.190386],[-3.365255,57.190378],[-3.365349,57.190357],[-3.365424,57.190321],[-3.365479,57.190272],[-3.365515,57.190209],[-3.365564,57.190116],[-3.365625,57.189993],[-3.365699,57.18984],[-3.365787,57.189657],[-3.36587,57.189495],[-3.36595,57.189352],[-3.366026,57.18923],[-3.366099,57.189127],[-3.366138,57.188948],[-3.366144,57.188693],[-3.366117,57.18836],[-3.366057,57.187951],[-3.36596,57.187656],[-3.365824,57.187474],[-3.365652,57.187406],[-3.365442,57.187451],[-3.36528,57.187522],[-3.365165,57.187619],[-3.365098,57.187741],[-3.365079,57.18789],[-3.365083,57.188003],[-3.365111,57.188081],[-3.365163,57.188124],[-3.365239,57.188132],[-3.365248,57.188187],[-3.365189,57.188287],[-3.365064,57.188435],[-3.364871,57.188629],[-3.3647,57.188842],[-3.36455,57.189075],[-3.364423,57.189327],[-3.364316,57.189599]]]}}