{"type":"Feature","properties":{"id":"289246","COMMUNE":"Aberdeenshire","PROVINCE":"Aberdeen City and Aberdeenshire","COUNTRY":"UK","FIREDATE":"2026-03-03 12:44:00","FINALDATE":"2026-03-03 14:26:00","CLASS":"FireSeason","areaHA_geo":0.967},"geometry":{"type":"Polygon","coordinates":[[[-3.306101,57.05295],[-3.306124,57.05305],[-3.306184,57.053076],[-3.30628,57.053027],[-3.306412,57.052904],[-3.306544,57.052801],[-3.306675,57.052719],[-3.306804,57.052658],[-3.306933,57.052617],[-3.307057,57.052553],[-3.307177,57.052465],[-3.307293,57.052354],[-3.307404,57.052219],[-3.3075,57.052127],[-3.307579,57.052078],[-3.307642,57.052071],[-3.307689,57.052107],[-3.307758,57.052113],[-3.30785,57.052088],[-3.307964,57.052031],[-3.308101,57.051944],[-3.308165,57.051846],[-3.308156,57.051737],[-3.308073,57.051617],[-3.307917,57.051487],[-3.307746,57.05141],[-3.307561,57.051385],[-3.30736,57.051414],[-3.307145,57.051495],[-3.306973,57.051594],[-3.306842,57.051711],[-3.306753,57.051844],[-3.306706,57.051996],[-3.306639,57.052127],[-3.306553,57.052239],[-3.306447,57.052331],[-3.306322,57.052403],[-3.306224,57.052501],[-3.306155,57.052625],[-3.306114,57.052775],[-3.306101,57.05295]]]}}