{"type":"Feature","properties":{"id":"289606","COMMUNE":"East Lothian","PROVINCE":"East Lothian and Midlothian","COUNTRY":"UK","FIREDATE":"2026-03-05 12:57:00","CLASS":"FireSeason","areaHA_geo":45.725},"geometry":{"type":"Polygon","coordinates":[[[-2.463793,55.901803],[-2.463873,55.901842],[-2.464012,55.901853],[-2.464208,55.901835],[-2.464463,55.901788],[-2.464673,55.90173],[-2.464839,55.901659],[-2.464959,55.901577],[-2.465035,55.901483],[-2.465121,55.901367],[-2.465216,55.901228],[-2.465321,55.901066],[-2.465435,55.900882],[-2.465604,55.900732],[-2.465826,55.900616],[-2.466103,55.900533],[-2.466435,55.900484],[-2.466686,55.900411],[-2.466857,55.900313],[-2.466948,55.900191],[-2.466958,55.900044],[-2.467007,55.899896],[-2.467094,55.899747],[-2.46722,55.899597],[-2.467383,55.899446],[-2.467522,55.899269],[-2.467635,55.899066],[-2.467723,55.898838],[-2.467785,55.898583],[-2.46781,55.898323],[-2.467797,55.898057],[-2.467746,55.897785],[-2.467657,55.897508],[-2.467564,55.897248],[-2.467467,55.897007],[-2.467366,55.896783],[-2.467262,55.896577],[-2.467264,55.896418],[-2.467372,55.896305],[-2.467586,55.896238],[-2.467907,55.896217],[-2.468146,55.896232],[-2.468303,55.896284],[-2.468377,55.896373],[-2.468369,55.896498],[-2.468494,55.896559],[-2.468753,55.896555],[-2.469146,55.896486],[-2.469672,55.896354],[-2.470115,55.896256],[-2.470476,55.896193],[-2.470753,55.896166],[-2.470949,55.896174],[-2.471155,55.896225],[-2.471374,55.89632],[-2.471604,55.896458],[-2.471845,55.896639],[-2.472015,55.896808],[-2.472114,55.896966],[-2.472142,55.897112],[-2.472098,55.897246],[-2.472141,55.897312],[-2.47227,55.89731],[-2.472486,55.89724],[-2.472789,55.897102],[-2.472978,55.896932],[-2.473053,55.896731],[-2.473014,55.896497],[-2.472861,55.896231],[-2.472751,55.895985],[-2.472683,55.89576],[-2.472658,55.895555],[-2.472676,55.895369],[-2.472709,55.895209],[-2.472757,55.895075],[-2.472821,55.894966],[-2.4729,55.894883],[-2.472982,55.894802],[-2.473068,55.894723],[-2.473157,55.894647],[-2.473249,55.894573],[-2.473203,55.894483],[-2.473019,55.894377],[-2.472698,55.894255],[-2.472239,55.894116],[-2.471873,55.893982],[-2.4716,55.893853],[-2.47142,55.893727],[-2.471333,55.893606],[-2.47118,55.893563],[-2.47096,55.893598],[-2.470673,55.893712],[-2.47032,55.893903],[-2.470076,55.894086],[-2.469939,55.894262],[-2.469911,55.894429],[-2.469991,55.894589],[-2.470088,55.894701],[-2.4702,55.894765],[-2.470328,55.894782],[-2.470473,55.894752],[-2.470579,55.894775],[-2.470647,55.894852],[-2.470677,55.894983],[-2.470669,55.895167],[-2.47061,55.895299],[-2.4705,55.895377],[-2.470339,55.895402],[-2.470128,55.895374],[-2.469991,55.895338],[-2.469928,55.895293],[-2.46994,55.895239],[-2.470026,55.895177],[-2.470015,55.895128],[-2.469907,55.895092],[-2.469703,55.895071],[-2.469402,55.895063],[-2.469135,55.894984],[-2.468904,55.894834],[-2.468708,55.894613],[-2.468546,55.894321],[-2.468492,55.894075],[-2.468543,55.893876],[-2.468701,55.893722],[-2.468966,55.893615],[-2.469206,55.893478],[-2.469422,55.893311],[-2.469614,55.893114],[-2.469782,55.892887],[-2.469911,55.892681],[-2.470001,55.892497],[-2.470053,55.892334],[-2.470065,55.892192],[-2.470024,55.892021],[-2.469931,55.891819],[-2.469784,55.891588],[-2.469585,55.891327],[-2.469421,55.891126],[-2.469294,55.890984],[-2.469203,55.890903],[-2.469148,55.890881],[-2.469092,55.890821],[-2.469036,55.890721],[-2.468979,55.890582],[-2.468922,55.890404],[-2.468851,55.890214],[-2.468767,55.890012],[-2.468669,55.889797],[-2.468558,55.889571],[-2.468449,55.889395],[-2.468341,55.889271],[-2.468236,55.889197],[-2.468132,55.889175],[-2.467948,55.88918],[-2.467684,55.889211],[-2.467339,55.88927],[-2.466913,55.889355],[-2.466516,55.889431],[-2.466148,55.8895],[-2.465809,55.889561],[-2.465498,55.889613],[-2.465239,55.889669],[-2.465032,55.88973],[-2.464877,55.889795],[-2.464774,55.889865],[-2.464646,55.88993],[-2.464492,55.889991],[-2.464313,55.890048],[-2.464108,55.890101],[-2.463919,55.890143],[-2.463747,55.890177],[-2.463591,55.8902],[-2.46345,55.890214],[-2.463272,55.890257],[-2.463054,55.89033],[-2.462798,55.890432],[-2.462503,55.890564],[-2.462304,55.890672],[-2.462201,55.890758],[-2.462195,55.890821],[-2.462285,55.89086],[-2.462415,55.890884],[-2.462586,55.890892],[-2.462798,55.890883],[-2.46305,55.890858],[-2.463259,55.890825],[-2.463424,55.890785],[-2.463546,55.890736],[-2.463624,55.89068],[-2.463693,55.890646],[-2.463752,55.890635],[-2.463801,55.890646],[-2.463841,55.89068],[-2.463906,55.890702],[-2.463996,55.890712],[-2.464111,55.89071],[-2.464251,55.890697],[-2.464364,55.890673],[-2.46445,55.890641],[-2.464509,55.890598],[-2.46454,55.890547],[-2.464577,55.890517],[-2.464618,55.890511],[-2.464664,55.890526],[-2.464715,55.890565],[-2.464801,55.890587],[-2.464924,55.890594],[-2.465082,55.890585],[-2.465277,55.890561],[-2.465433,55.890529],[-2.465551,55.89049],[-2.46563,55.890445],[-2.465671,55.890392],[-2.465772,55.890331],[-2.465932,55.890261],[-2.466153,55.890183],[-2.466433,55.890096],[-2.466648,55.890013],[-2.466796,55.889933],[-2.466877,55.889858],[-2.466893,55.889786],[-2.466927,55.889734],[-2.466979,55.889702],[-2.46705,55.889689],[-2.467139,55.889697],[-2.467221,55.88972],[-2.467296,55.889758],[-2.467364,55.889812],[-2.467425,55.889882],[-2.467466,55.889943],[-2.467487,55.889995],[-2.467489,55.890038],[-2.467471,55.890072],[-2.467428,55.890102],[-2.467359,55.890127],[-2.467265,55.890149],[-2.467145,55.890166],[-2.467036,55.890196],[-2.466939,55.890238],[-2.466853,55.890292],[-2.466778,55.890359],[-2.466684,55.890413],[-2.466572,55.890453],[-2.466441,55.890481],[-2.466292,55.890496],[-2.466154,55.890532],[-2.466029,55.89059],[-2.465915,55.890671],[-2.465812,55.890772],[-2.465663,55.890871],[-2.465467,55.890966],[-2.465224,55.891057],[-2.464935,55.891145],[-2.464797,55.891233],[-2.46481,55.891321],[-2.464976,55.891408],[-2.465293,55.891496],[-2.465579,55.891561],[-2.465833,55.891603],[-2.466057,55.891623],[-2.466248,55.89162],[-2.466386,55.891638],[-2.466471,55.891675],[-2.466501,55.891733],[-2.466478,55.891811],[-2.46646,55.891898],[-2.466448,55.891994],[-2.46644,55.892098],[-2.466438,55.892212],[-2.466412,55.89231],[-2.466362,55.892394],[-2.466287,55.892462],[-2.466189,55.892515],[-2.466011,55.892614],[-2.465755,55.892761],[-2.465419,55.892955],[-2.465005,55.893195],[-2.464591,55.893413],[-2.464176,55.893608],[-2.463761,55.893779],[-2.463347,55.893928],[-2.463012,55.894056],[-2.462757,55.894162],[-2.462582,55.894246],[-2.462486,55.89431],[-2.462343,55.894366],[-2.462151,55.894414],[-2.461911,55.894456],[-2.461623,55.894489],[-2.461372,55.894553],[-2.461156,55.894647],[-2.460977,55.894772],[-2.460834,55.894926],[-2.460712,55.895014],[-2.460613,55.895034],[-2.460535,55.894988],[-2.46048,55.894875],[-2.460381,55.894799],[-2.460239,55.894762],[-2.460054,55.894763],[-2.459825,55.894801],[-2.459636,55.894859],[-2.459488,55.894936],[-2.459379,55.895031],[-2.459309,55.895146],[-2.459209,55.895253],[-2.459077,55.895353],[-2.458914,55.895444],[-2.458719,55.895528],[-2.458707,55.895605],[-2.458879,55.895675],[-2.459234,55.895737],[-2.459772,55.895792],[-2.460223,55.895816],[-2.460587,55.89581],[-2.460865,55.895773],[-2.461055,55.895706],[-2.461223,55.895675],[-2.461369,55.895679],[-2.461493,55.89572],[-2.461595,55.895796],[-2.461707,55.895884],[-2.46183,55.895982],[-2.461964,55.896092],[-2.462109,55.896213],[-2.462234,55.896339],[-2.462339,55.896472],[-2.462425,55.896611],[-2.462491,55.896755],[-2.462564,55.89688],[-2.462646,55.896986],[-2.462737,55.897071],[-2.462835,55.897137],[-2.462944,55.897191],[-2.463063,55.897234],[-2.463194,55.897264],[-2.463334,55.897283],[-2.463482,55.897284],[-2.463636,55.897269],[-2.463797,55.897237],[-2.463964,55.897188],[-2.464115,55.897179],[-2.46425,55.897209],[-2.464369,55.897278],[-2.464471,55.897387],[-2.464602,55.897464],[-2.464762,55.897511],[-2.46495,55.897526],[-2.465166,55.89751],[-2.465335,55.897516],[-2.465455,55.897545],[-2.465526,55.897596],[-2.46555,55.897669],[-2.465517,55.89776],[-2.465426,55.897869],[-2.465279,55.897996],[-2.465075,55.89814],[-2.464851,55.898225],[-2.464609,55.898252],[-2.464348,55.898219],[-2.464069,55.898128],[-2.463848,55.898034],[-2.463687,55.897936],[-2.463584,55.897836],[-2.463541,55.897732],[-2.463399,55.897649],[-2.463157,55.897586],[-2.462816,55.897544],[-2.462376,55.897523],[-2.462049,55.897525],[-2.461835,55.897552],[-2.461736,55.897602],[-2.46175,55.897676],[-2.461737,55.897749],[-2.461698,55.89782],[-2.461631,55.89789],[-2.461537,55.897959],[-2.461469,55.898025],[-2.461427,55.898088],[-2.461411,55.89815],[-2.46142,55.898208],[-2.461456,55.898254],[-2.46152,55.898289],[-2.461612,55.898311],[-2.46173,55.89832],[-2.461841,55.89832],[-2.461944,55.89831],[-2.462039,55.89829],[-2.462126,55.89826],[-2.462207,55.898259],[-2.462283,55.898286],[-2.462354,55.898343],[-2.46242,55.898428],[-2.462503,55.898505],[-2.462602,55.898574],[-2.462718,55.898634],[-2.46285,55.898685],[-2.462982,55.898706],[-2.463114,55.898696],[-2.463245,55.898655],[-2.463376,55.898582],[-2.463489,55.898559],[-2.463584,55.898585],[-2.463661,55.89866],[-2.46372,55.898783],[-2.463702,55.898884],[-2.463606,55.898961],[-2.463433,55.899014],[-2.463182,55.899044],[-2.462957,55.899093],[-2.462757,55.899162],[-2.462583,55.899249],[-2.462434,55.899355],[-2.462359,55.89946],[-2.462358,55.899563],[-2.462432,55.899663],[-2.462579,55.899762],[-2.462707,55.899815],[-2.462814,55.89982],[-2.462902,55.899779],[-2.462971,55.899691],[-2.463106,55.899625],[-2.463309,55.899581],[-2.463579,55.899559],[-2.463916,55.899558],[-2.46417,55.899607],[-2.464342,55.899706],[-2.46443,55.899856],[-2.464437,55.900055],[-2.464424,55.900219],[-2.464394,55.900349],[-2.464345,55.900444],[-2.464278,55.900505],[-2.464227,55.900594],[-2.464192,55.900711],[-2.464173,55.900855],[-2.464171,55.901028],[-2.464142,55.90118],[-2.464088,55.901309],[-2.464007,55.901417],[-2.463899,55.901503],[-2.463824,55.901585],[-2.463782,55.901662],[-2.463771,55.901735],[-2.463793,55.901803]]]}}