{"type":"Feature","properties":{"id":"291079","COMMUNE":"Carmarthenshire","PROVINCE":"South West Wales","COUNTRY":"UK","FIREDATE":"2026-03-19 10:45:00","FINALDATE":"2026-03-19 13:33:00","CLASS":"FireSeason","areaHA_geo":228.315},"geometry":{"type":"Polygon","coordinates":[[[-3.879049,51.837103],[-3.879212,51.836905],[-3.879606,51.83648],[-3.880053,51.835946],[-3.880555,51.835305],[-3.88105,51.834712],[-3.881538,51.834167],[-3.881791,51.833677],[-3.881809,51.833242],[-3.88208,51.832811],[-3.882605,51.832383],[-3.883583,51.831652],[-3.885015,51.830615],[-3.885698,51.830067],[-3.885631,51.830007],[-3.885784,51.829881],[-3.886157,51.829689],[-3.886385,51.82956],[-3.886465,51.829496],[-3.886731,51.829331],[-3.887181,51.829067],[-3.887648,51.828836],[-3.888133,51.828641],[-3.888749,51.828416],[-3.889495,51.828163],[-3.890071,51.827857],[-3.890477,51.827499],[-3.890654,51.827193],[-3.890603,51.82694],[-3.890488,51.826773],[-3.890308,51.826691],[-3.890034,51.82662],[-3.889666,51.826561],[-3.889427,51.826468],[-3.889318,51.826344],[-3.8891,51.826296],[-3.888774,51.826327],[-3.888478,51.826409],[-3.888212,51.826544],[-3.888031,51.826523],[-3.887933,51.826345],[-3.888053,51.826081],[-3.888391,51.82573],[-3.888604,51.825472],[-3.888693,51.825306],[-3.888655,51.825142],[-3.888493,51.82498],[-3.88827,51.824761],[-3.887988,51.824485],[-3.887837,51.824291],[-3.887816,51.824182],[-3.887781,51.824113],[-3.88773,51.824084],[-3.88762,51.824067],[-3.88745,51.824062],[-3.887243,51.824116],[-3.886999,51.824232],[-3.8868,51.824312],[-3.886646,51.824356],[-3.886486,51.824427],[-3.886321,51.824524],[-3.88621,51.824641],[-3.886155,51.824777],[-3.885968,51.824894],[-3.885649,51.824992],[-3.885405,51.825108],[-3.885236,51.82524],[-3.885132,51.825399],[-3.885092,51.825585],[-3.884977,51.825641],[-3.884786,51.825569],[-3.884617,51.825452],[-3.884468,51.825288],[-3.884364,51.825158],[-3.884306,51.825062],[-3.884341,51.824928],[-3.88447,51.824758],[-3.884458,51.824651],[-3.884304,51.824609],[-3.884143,51.824607],[-3.883973,51.824645],[-3.883823,51.82468],[-3.883693,51.824712],[-3.883539,51.824826],[-3.883362,51.825019],[-3.883255,51.825148],[-3.88322,51.825213],[-3.882931,51.825321],[-3.882391,51.825471],[-3.881971,51.825608],[-3.881674,51.825729],[-3.881404,51.825852],[-3.881163,51.825976],[-3.880966,51.826064],[-3.880815,51.826116],[-3.880556,51.826229],[-3.880191,51.826402],[-3.879909,51.826509],[-3.879712,51.82655],[-3.879327,51.826505],[-3.878755,51.826375],[-3.878455,51.826311],[-3.878428,51.826315],[-3.878261,51.826205],[-3.877953,51.825983],[-3.877699,51.825841],[-3.877498,51.825779],[-3.877301,51.825798],[-3.877108,51.825899],[-3.876969,51.825989],[-3.876881,51.826068],[-3.876792,51.826186],[-3.876702,51.826344],[-3.87654,51.826475],[-3.876307,51.826581],[-3.876096,51.826666],[-3.875906,51.826732],[-3.87583,51.826823],[-3.875866,51.826939],[-3.875905,51.827089],[-3.875946,51.827274],[-3.875734,51.827358],[-3.875269,51.827342],[-3.874767,51.827317],[-3.874228,51.82728],[-3.873735,51.827231],[-3.873288,51.827168],[-3.872888,51.827092],[-3.872533,51.827002],[-3.872274,51.826898],[-3.872111,51.826778],[-3.872044,51.826643],[-3.872072,51.826492],[-3.872103,51.826361],[-3.872137,51.826248],[-3.872174,51.826155],[-3.872214,51.826081],[-3.872247,51.826005],[-3.872273,51.825929],[-3.872293,51.825851],[-3.872306,51.825772],[-3.872358,51.825657],[-3.872449,51.825507],[-3.872579,51.825321],[-3.872749,51.8251],[-3.872996,51.824877],[-3.873322,51.824652],[-3.873726,51.824426],[-3.874207,51.824199],[-3.874639,51.823994],[-3.875022,51.823813],[-3.875356,51.823655],[-3.875641,51.823521],[-3.875922,51.823427],[-3.876201,51.823375],[-3.876477,51.823363],[-3.87675,51.823392],[-3.877041,51.823441],[-3.877351,51.823508],[-3.87768,51.823595],[-3.878027,51.823701],[-3.878349,51.823788],[-3.878647,51.823857],[-3.87886,51.8239],[-3.878988,51.823916],[-3.879061,51.823932],[-3.879078,51.823945],[-3.879213,51.823974],[-3.879466,51.824018],[-3.879734,51.824002],[-3.880017,51.823926],[-3.880172,51.823792],[-3.880197,51.823599],[-3.880116,51.823393],[-3.879928,51.823174],[-3.87981,51.823061],[-3.879763,51.823054],[-3.879689,51.823],[-3.879589,51.822901],[-3.879471,51.822784],[-3.879334,51.822649],[-3.879203,51.82252],[-3.879076,51.822395],[-3.878863,51.822278],[-3.878565,51.822166],[-3.87818,51.822061],[-3.87771,51.821962],[-3.877115,51.821867],[-3.876395,51.821775],[-3.875551,51.821686],[-3.874582,51.8216],[-3.873703,51.821548],[-3.872912,51.82153],[-3.872211,51.821546],[-3.871598,51.821596],[-3.871066,51.821652],[-3.870614,51.821713],[-3.870243,51.821781],[-3.869952,51.821854],[-3.869694,51.821954],[-3.86947,51.822082],[-3.86928,51.822236],[-3.869123,51.822417],[-3.868964,51.822633],[-3.868804,51.822885],[-3.868642,51.823171],[-3.868479,51.823492],[-3.868382,51.82371],[-3.86835,51.823825],[-3.868266,51.823845],[-3.868129,51.823769],[-3.867902,51.823687],[-3.867584,51.823599],[-3.867375,51.823477],[-3.867275,51.82332],[-3.867263,51.823064],[-3.86734,51.822708],[-3.867447,51.822369],[-3.867586,51.822048],[-3.867644,51.821688],[-3.867623,51.821291],[-3.86747,51.820884],[-3.867186,51.820465],[-3.866784,51.820161],[-3.866263,51.81997],[-3.865699,51.819885],[-3.865091,51.819905],[-3.864688,51.819927],[-3.864491,51.81995],[-3.864174,51.81992],[-3.863738,51.819835],[-3.863137,51.819796],[-3.862371,51.819803],[-3.861956,51.819811],[-3.86189,51.819818],[-3.861732,51.819832],[-3.861482,51.819851],[-3.86108,51.819931],[-3.860526,51.82007],[-3.860033,51.820266],[-3.859599,51.820517],[-3.859085,51.820783],[-3.85849,51.821065],[-3.858008,51.821269],[-3.857638,51.821397],[-3.857397,51.8215],[-3.857284,51.821576],[-3.857283,51.821708],[-3.857392,51.821895],[-3.857699,51.821974],[-3.858202,51.821945],[-3.858561,51.82195],[-3.858778,51.821987],[-3.858936,51.82211],[-3.859035,51.822319],[-3.859078,51.822567],[-3.859065,51.822852],[-3.859113,51.823115],[-3.859221,51.823354],[-3.8595,51.823536],[-3.859949,51.823662],[-3.860248,51.823663],[-3.860397,51.82354],[-3.860699,51.823441],[-3.861154,51.823366],[-3.861462,51.823424],[-3.861624,51.823615],[-3.861723,51.823824],[-3.86176,51.824051],[-3.861851,51.824287],[-3.861996,51.824533],[-3.86203,51.824807],[-3.861954,51.825111],[-3.861857,51.825375],[-3.86174,51.825599],[-3.861722,51.825817],[-3.861805,51.826028],[-3.861995,51.826226],[-3.862292,51.826411],[-3.862442,51.826509],[-3.862445,51.826519],[-3.86222,51.826756],[-3.861768,51.82722],[-3.861502,51.827489],[-3.861422,51.827561],[-3.861078,51.827634],[-3.860469,51.827706],[-3.860018,51.827713],[-3.859726,51.827653],[-3.859454,51.827627],[-3.859201,51.827637],[-3.859057,51.827696],[-3.859023,51.827805],[-3.859108,51.827942],[-3.859313,51.828107],[-3.859407,51.828269],[-3.859388,51.828429],[-3.859201,51.828541],[-3.858846,51.828604],[-3.858579,51.828736],[-3.858403,51.828936],[-3.858385,51.829153],[-3.858527,51.829389],[-3.858767,51.829555],[-3.859104,51.829651],[-3.859598,51.829729],[-3.860248,51.829789],[-3.860721,51.829774],[-3.861018,51.829686],[-3.86126,51.829646],[-3.861261,51.829587],[-3.861374,51.829383],[-3.86168,51.829373],[-3.862035,51.829522],[-3.862045,51.829569],[-3.862221,51.829538],[-3.862372,51.829629],[-3.862443,51.829854],[-3.862461,51.830054],[-3.862429,51.830231],[-3.862216,51.830391],[-3.861823,51.830535],[-3.861493,51.830628],[-3.861226,51.830671],[-3.860958,51.830849],[-3.860687,51.831161],[-3.860651,51.831382],[-3.860848,51.831509],[-3.861162,51.831644],[-3.861592,51.831787],[-3.862105,51.832056],[-3.862701,51.832449],[-3.863031,51.832863],[-3.863097,51.833297],[-3.863256,51.833581],[-3.863507,51.833712],[-3.863785,51.833847],[-3.864091,51.833983],[-3.864288,51.83411],[-3.864378,51.834229],[-3.864316,51.834366],[-3.864101,51.834521],[-3.863778,51.834635],[-3.863345,51.834708],[-3.863117,51.834876],[-3.863094,51.835138],[-3.863214,51.835355],[-3.863479,51.835529],[-3.863744,51.835648],[-3.864009,51.835714],[-3.864396,51.835716],[-3.864902,51.835656],[-3.865275,51.835531],[-3.865513,51.835341],[-3.865922,51.835189],[-3.8665,51.835077],[-3.866889,51.834977],[-3.867089,51.834888],[-3.867188,51.834672],[-3.867185,51.834327],[-3.867329,51.834115],[-3.86762,51.834037],[-3.868147,51.833899],[-3.868908,51.8337],[-3.869348,51.833427],[-3.869467,51.833078],[-3.869473,51.832732],[-3.869365,51.832389],[-3.869213,51.831986],[-3.869016,51.831524],[-3.868903,51.831246],[-3.868874,51.831152],[-3.869042,51.831213],[-3.869407,51.831429],[-3.869693,51.83167],[-3.869899,51.831937],[-3.870144,51.832161],[-3.870428,51.832343],[-3.870698,51.832618],[-3.870954,51.832987],[-3.871105,51.833218],[-3.871151,51.833309],[-3.871174,51.833441],[-3.871176,51.833614],[-3.871183,51.83372],[-3.871196,51.833761],[-3.871328,51.833773],[-3.871579,51.833754],[-3.871827,51.833724],[-3.872073,51.833682],[-3.872279,51.833578],[-3.872446,51.833411],[-3.872573,51.833197],[-3.87266,51.832935],[-3.872803,51.832707],[-3.873,51.832511],[-3.873167,51.832295],[-3.873302,51.832059],[-3.873609,51.831881],[-3.87409,51.831762],[-3.874515,51.831706],[-3.874885,51.831711],[-3.875068,51.83179],[-3.875067,51.831943],[-3.874808,51.832133],[-3.874292,51.83236],[-3.874019,51.83262],[-3.873991,51.832911],[-3.874107,51.833139],[-3.874368,51.833305],[-3.874627,51.833513],[-3.874884,51.833764],[-3.875058,51.834001],[-3.875147,51.834223],[-3.87503,51.834485],[-3.874707,51.834787],[-3.874241,51.835048],[-3.873633,51.835268],[-3.873238,51.835453],[-3.873056,51.835603],[-3.872931,51.835695],[-3.872864,51.835728],[-3.872831,51.835746],[-3.872832,51.835747],[-3.872943,51.835767],[-3.873166,51.835805],[-3.8733,51.835824],[-3.873347,51.835823],[-3.87336,51.836127],[-3.873338,51.836735],[-3.873172,51.837246],[-3.872863,51.837662],[-3.872599,51.838045],[-3.872379,51.838396],[-3.872329,51.838726],[-3.872447,51.839036],[-3.872721,51.839281],[-3.87315,51.83946],[-3.873787,51.839566],[-3.874632,51.839601],[-3.875308,51.839622],[-3.875816,51.839629],[-3.876193,51.839678],[-3.876442,51.839771],[-3.876783,51.839703],[-3.877216,51.839475],[-3.877668,51.839023],[-3.878136,51.838345],[-3.878234,51.838206],[-3.878083,51.837783],[-3.878291,51.837459],[-3.878489,51.837245],[-3.878805,51.837125],[-3.879049,51.837103]],[[-3.880292,51.829278],[-3.878967,51.829479],[-3.878807,51.829413],[-3.878629,51.829177],[-3.878618,51.829029],[-3.879342,51.828793],[-3.88008,51.828598],[-3.880744,51.82839],[-3.881607,51.828266],[-3.883372,51.827692],[-3.883827,51.827595],[-3.884711,51.827425],[-3.884685,51.827343],[-3.884561,51.827165],[-3.883598,51.827195],[-3.8834,51.827005],[-3.883582,51.826812],[-3.884124,51.826768],[-3.884445,51.826794],[-3.885329,51.826625],[-3.885365,51.826407],[-3.885368,51.826085],[-3.885564,51.825934],[-3.885938,51.82591],[-3.886277,51.826105],[-3.886141,51.826335],[-3.886264,51.82662],[-3.886562,51.826905],[-3.886404,51.827288],[-3.885971,51.827681],[-3.885869,51.827908],[-3.885523,51.828355],[-3.884767,51.828381],[-3.883784,51.828456],[-3.882149,51.828779],[-3.880292,51.829278]],[[-3.865654,51.828863],[-3.865345,51.828429],[-3.865488,51.82822],[-3.866004,51.828094],[-3.866371,51.828158],[-3.866659,51.828081],[-3.867043,51.827864],[-3.86759,51.827948],[-3.867269,51.828478],[-3.867734,51.828744],[-3.867378,51.828936],[-3.86688,51.82923],[-3.866204,51.829289],[-3.865932,51.829087],[-3.865654,51.828863]]]}}