{"type":"Feature","properties":{"id":"291080","COMMUNE":"Carmarthenshire","PROVINCE":"South West Wales","COUNTRY":"UK","FIREDATE":"2026-03-20 00:00:00","CLASS":"FireSeason","areaHA_geo":261.538},"geometry":{"type":"Polygon","coordinates":[[[-3.809663,51.829474],[-3.809881,51.829389],[-3.810037,51.829232],[-3.810132,51.829004],[-3.810126,51.82872],[-3.81002,51.828378],[-3.810013,51.828023],[-3.810107,51.827653],[-3.8103,51.82727],[-3.810593,51.826872],[-3.810928,51.826553],[-3.811306,51.826314],[-3.811727,51.826153],[-3.81219,51.826072],[-3.812571,51.826038],[-3.812869,51.826051],[-3.813086,51.826112],[-3.81322,51.82622],[-3.813303,51.82636],[-3.813335,51.826533],[-3.813317,51.826739],[-3.813247,51.826977],[-3.813232,51.827196],[-3.813273,51.827395],[-3.813368,51.827574],[-3.813518,51.827733],[-3.813696,51.827809],[-3.813902,51.827802],[-3.814137,51.827713],[-3.814399,51.82754],[-3.814578,51.827308],[-3.814675,51.827018],[-3.814688,51.826669],[-3.814619,51.826261],[-3.81458,51.825837],[-3.814572,51.825395],[-3.814595,51.824937],[-3.814648,51.824461],[-3.814688,51.824069],[-3.814714,51.823761],[-3.814727,51.823536],[-3.814726,51.823394],[-3.814784,51.823235],[-3.814901,51.823057],[-3.815077,51.822862],[-3.815312,51.822648],[-3.815535,51.822453],[-3.815746,51.822278],[-3.815946,51.822121],[-3.816133,51.821984],[-3.816321,51.821827],[-3.81651,51.821649],[-3.816616,51.821548],[-3.816638,51.821522],[-3.816729,51.821552],[-3.816888,51.821638],[-3.81695,51.821908],[-3.816915,51.822361],[-3.816918,51.822761],[-3.81696,51.82311],[-3.817073,51.823402],[-3.817257,51.823638],[-3.817376,51.823808],[-3.81743,51.82391],[-3.817421,51.824095],[-3.817349,51.824361],[-3.817128,51.824571],[-3.816756,51.824724],[-3.816552,51.824918],[-3.816515,51.825154],[-3.816562,51.825447],[-3.816693,51.825798],[-3.816899,51.826141],[-3.81718,51.826475],[-3.817421,51.826684],[-3.817624,51.826768],[-3.818019,51.826762],[-3.818607,51.826665],[-3.819218,51.826504],[-3.819854,51.826279],[-3.820338,51.826134],[-3.82067,51.826067],[-3.820859,51.825929],[-3.820904,51.82572],[-3.82089,51.825497],[-3.820817,51.825261],[-3.820841,51.825021],[-3.820963,51.824775],[-3.821087,51.824604],[-3.821211,51.824508],[-3.821454,51.824404],[-3.821817,51.824293],[-3.82202,51.824167],[-3.822065,51.824026],[-3.821905,51.823902],[-3.821541,51.823796],[-3.821288,51.823656],[-3.821146,51.823483],[-3.821097,51.823325],[-3.821141,51.823184],[-3.821172,51.823072],[-3.82119,51.822988],[-3.821009,51.822901],[-3.820628,51.82281],[-3.820381,51.822799],[-3.82027,51.822866],[-3.820236,51.823006],[-3.82028,51.823218],[-3.820314,51.823432],[-3.820336,51.823647],[-3.820139,51.823792],[-3.819722,51.823869],[-3.819394,51.823949],[-3.819155,51.824032],[-3.818862,51.824155],[-3.818516,51.824318],[-3.818269,51.824375],[-3.818121,51.824324],[-3.818076,51.824146],[-3.818136,51.82384],[-3.818321,51.823621],[-3.818633,51.823489],[-3.818892,51.823363],[-3.819097,51.823243],[-3.819266,51.823148],[-3.819399,51.823078],[-3.819423,51.82298],[-3.81934,51.822854],[-3.819182,51.82256],[-3.818951,51.822099],[-3.818812,51.821796],[-3.818767,51.821651],[-3.818832,51.821399],[-3.819007,51.821039],[-3.819296,51.820834],[-3.8197,51.820786],[-3.820092,51.820733],[-3.820471,51.820674],[-3.820697,51.820586],[-3.820771,51.820469],[-3.820702,51.820355],[-3.820491,51.820244],[-3.820218,51.820181],[-3.819883,51.820167],[-3.819539,51.820126],[-3.819187,51.820059],[-3.818916,51.820037],[-3.818724,51.82006],[-3.818566,51.820119],[-3.818442,51.820215],[-3.818345,51.820363],[-3.818274,51.820562],[-3.818261,51.820733],[-3.818306,51.820877],[-3.818257,51.821039],[-3.818115,51.821219],[-3.817897,51.821333],[-3.817603,51.821382],[-3.817408,51.821408],[-3.817311,51.821412],[-3.817244,51.821402],[-3.817206,51.821378],[-3.81715,51.821281],[-3.817075,51.821112],[-3.817037,51.821026],[-3.817034,51.821024],[-3.817066,51.82095],[-3.817132,51.820805],[-3.817161,51.820668],[-3.817153,51.820537],[-3.817225,51.820427],[-3.817377,51.820339],[-3.817509,51.820206],[-3.81762,51.820028],[-3.817711,51.819836],[-3.81778,51.81963],[-3.817704,51.81944],[-3.817484,51.819268],[-3.817223,51.819142],[-3.81692,51.819061],[-3.816632,51.818938],[-3.816359,51.818772],[-3.816169,51.81861],[-3.816065,51.818452],[-3.815921,51.818294],[-3.815739,51.818138],[-3.815545,51.818048],[-3.815338,51.818025],[-3.815127,51.818077],[-3.814911,51.818205],[-3.814689,51.81831],[-3.814459,51.818392],[-3.814339,51.818472],[-3.81433,51.818548],[-3.814427,51.818683],[-3.814632,51.818878],[-3.8149,51.819045],[-3.815232,51.819183],[-3.815581,51.819306],[-3.815947,51.819413],[-3.816267,51.819532],[-3.816541,51.819664],[-3.816647,51.819809],[-3.816586,51.819966],[-3.816552,51.820078],[-3.816547,51.820144],[-3.816494,51.820174],[-3.816394,51.820169],[-3.816208,51.820194],[-3.815938,51.820248],[-3.815663,51.820336],[-3.815385,51.820457],[-3.815104,51.82057],[-3.814821,51.820675],[-3.814535,51.820771],[-3.814246,51.820858],[-3.81394,51.820937],[-3.813617,51.821006],[-3.813276,51.821066],[-3.812919,51.821117],[-3.812593,51.821154],[-3.812298,51.821176],[-3.812034,51.821183],[-3.811802,51.821175],[-3.81163,51.82114],[-3.811517,51.821078],[-3.811464,51.820989],[-3.811471,51.820873],[-3.81154,51.820781],[-3.811669,51.820713],[-3.81186,51.820668],[-3.812112,51.820647],[-3.812365,51.820617],[-3.812618,51.820578],[-3.812873,51.82053],[-3.813128,51.820473],[-3.813358,51.820428],[-3.813563,51.820395],[-3.813743,51.820374],[-3.813898,51.820364],[-3.814012,51.820337],[-3.814084,51.820293],[-3.814116,51.820232],[-3.814106,51.820154],[-3.814081,51.820086],[-3.814042,51.820028],[-3.813988,51.819982],[-3.813919,51.819946],[-3.813874,51.819927],[-3.813853,51.819926],[-3.813847,51.819874],[-3.813853,51.819773],[-3.813784,51.819683],[-3.813637,51.819605],[-3.813509,51.819548],[-3.813398,51.819514],[-3.81329,51.819523],[-3.813184,51.819577],[-3.813113,51.81965],[-3.813075,51.819743],[-3.813005,51.819834],[-3.812903,51.819923],[-3.81282,51.819969],[-3.812755,51.819974],[-3.812624,51.819984],[-3.812427,51.819999],[-3.812255,51.819986],[-3.812106,51.819946],[-3.811981,51.819879],[-3.81188,51.819785],[-3.811797,51.819691],[-3.811732,51.819597],[-3.811684,51.819503],[-3.811655,51.819409],[-3.811568,51.819302],[-3.811423,51.819182],[-3.81122,51.819049],[-3.810959,51.818903],[-3.810667,51.818829],[-3.810344,51.818828],[-3.810112,51.818853],[-3.809972,51.818905],[-3.809847,51.818859],[-3.809736,51.818716],[-3.809655,51.818597],[-3.809603,51.8185],[-3.809532,51.818396],[-3.809441,51.818283],[-3.809308,51.81821],[-3.809131,51.818177],[-3.808988,51.818183],[-3.808881,51.81823],[-3.808751,51.818276],[-3.808599,51.818322],[-3.808419,51.81837],[-3.808214,51.818422],[-3.80802,51.818531],[-3.807838,51.818696],[-3.807709,51.818906],[-3.807633,51.819161],[-3.807614,51.819393],[-3.807651,51.819602],[-3.80754,51.819751],[-3.80728,51.819841],[-3.806969,51.819951],[-3.806608,51.820083],[-3.80639,51.820175],[-3.806316,51.820229],[-3.806251,51.820245],[-3.806194,51.820223],[-3.805934,51.820178],[-3.805469,51.820109],[-3.805138,51.820034],[-3.804941,51.819952],[-3.804807,51.819796],[-3.804736,51.819567],[-3.804649,51.819379],[-3.804546,51.819232],[-3.80443,51.818744],[-3.804301,51.817914],[-3.804235,51.817287],[-3.804232,51.816865],[-3.804198,51.816477],[-3.804131,51.816123],[-3.804102,51.815823],[-3.804111,51.815575],[-3.804022,51.815291],[-3.803836,51.814969],[-3.803657,51.814805],[-3.803484,51.814799],[-3.803294,51.814787],[-3.803088,51.814767],[-3.802919,51.814771],[-3.802788,51.814798],[-3.802852,51.814723],[-3.80311,51.814546],[-3.803287,51.814348],[-3.803382,51.814129],[-3.80327,51.813845],[-3.802953,51.813496],[-3.802614,51.813192],[-3.802255,51.812934],[-3.802154,51.81272],[-3.802311,51.812551],[-3.802604,51.812466],[-3.803034,51.812465],[-3.803315,51.81236],[-3.803447,51.812151],[-3.803432,51.811895],[-3.803268,51.811592],[-3.802857,51.81139],[-3.802198,51.81129],[-3.801762,51.811234],[-3.80155,51.811223],[-3.801269,51.811217],[-3.80092,51.811215],[-3.800519,51.811234],[-3.800066,51.811274],[-3.799754,51.811203],[-3.799582,51.811023],[-3.799425,51.810855],[-3.799284,51.8107],[-3.799019,51.810671],[-3.79863,51.810767],[-3.798268,51.810871],[-3.79793,51.810983],[-3.797735,51.811102],[-3.797682,51.81123],[-3.797619,51.811421],[-3.797546,51.811673],[-3.797622,51.811861],[-3.797846,51.811985],[-3.798098,51.812141],[-3.798378,51.81233],[-3.798456,51.812618],[-3.798332,51.813005],[-3.798271,51.813277],[-3.798273,51.813435],[-3.798235,51.813629],[-3.798156,51.81386],[-3.798057,51.814087],[-3.79794,51.814309],[-3.797878,51.814556],[-3.797869,51.814829],[-3.797775,51.81503],[-3.797594,51.815159],[-3.797307,51.815433],[-3.796914,51.815852],[-3.796727,51.816098],[-3.796745,51.816171],[-3.796721,51.816227],[-3.796656,51.816265],[-3.796385,51.816421],[-3.79591,51.816694],[-3.795597,51.816899],[-3.795445,51.817038],[-3.795311,51.817174],[-3.795197,51.817308],[-3.795077,51.817406],[-3.794954,51.817469],[-3.794893,51.817588],[-3.794896,51.817764],[-3.794753,51.817954],[-3.794464,51.818156],[-3.794201,51.818336],[-3.793964,51.818492],[-3.793839,51.818595],[-3.793829,51.818645],[-3.793667,51.818816],[-3.793355,51.81911],[-3.793001,51.819228],[-3.792606,51.819171],[-3.792323,51.81916],[-3.792152,51.819196],[-3.7921,51.819343],[-3.792166,51.8196],[-3.792223,51.819801],[-3.792268,51.819948],[-3.792146,51.820119],[-3.791855,51.820314],[-3.791537,51.820508],[-3.791194,51.820701],[-3.791089,51.820886],[-3.791222,51.821063],[-3.791341,51.821257],[-3.791445,51.821469],[-3.791413,51.821678],[-3.791242,51.821883],[-3.790891,51.821884],[-3.79036,51.821682],[-3.790043,51.821459],[-3.789941,51.821215],[-3.78998,51.821026],[-3.79016,51.820892],[-3.790222,51.820736],[-3.790167,51.820558],[-3.790078,51.820336],[-3.789957,51.82007],[-3.789727,51.819812],[-3.78939,51.819564],[-3.788961,51.819378],[-3.788441,51.819255],[-3.787998,51.819167],[-3.78763,51.819114],[-3.787274,51.819269],[-3.786931,51.81963],[-3.786554,51.819968],[-3.786144,51.820281],[-3.785916,51.820617],[-3.785871,51.820975],[-3.785935,51.821264],[-3.786107,51.821484],[-3.786161,51.821743],[-3.786097,51.822039],[-3.786409,51.822435],[-3.787096,51.822931],[-3.787817,51.823239],[-3.788572,51.823359],[-3.788988,51.823519],[-3.789066,51.82372],[-3.789263,51.823917],[-3.789581,51.82411],[-3.789772,51.824223],[-3.789837,51.824256],[-3.789792,51.824362],[-3.789636,51.824541],[-3.789513,51.824745],[-3.789423,51.824974],[-3.789336,51.825237],[-3.789251,51.825535],[-3.789108,51.825775],[-3.788907,51.825958],[-3.788787,51.826116],[-3.788748,51.826249],[-3.788644,51.826405],[-3.788474,51.826584],[-3.788381,51.826675],[-3.788366,51.826677],[-3.788168,51.82666],[-3.787787,51.826626],[-3.787499,51.826452],[-3.787305,51.826137],[-3.787141,51.825869],[-3.787008,51.825647],[-3.786787,51.82543],[-3.78648,51.825218],[-3.78628,51.824964],[-3.786188,51.824667],[-3.786048,51.824476],[-3.78586,51.824389],[-3.785586,51.824257],[-3.785226,51.824082],[-3.784991,51.824001],[-3.784882,51.824013],[-3.784812,51.824047],[-3.784781,51.8241],[-3.784897,51.824215],[-3.785161,51.824392],[-3.785374,51.82456],[-3.785536,51.82472],[-3.785645,51.824915],[-3.785701,51.825147],[-3.785565,51.825202],[-3.785238,51.825082],[-3.784972,51.82495],[-3.784766,51.824806],[-3.78443,51.824682],[-3.783963,51.824579],[-3.783646,51.824517],[-3.783479,51.824497],[-3.783337,51.824583],[-3.783219,51.824776],[-3.783257,51.825029],[-3.783452,51.825344],[-3.783793,51.82571],[-3.784283,51.826128],[-3.78449,51.826388],[-3.784415,51.826489],[-3.78439,51.826622],[-3.784414,51.826786],[-3.784445,51.826932],[-3.784485,51.82706],[-3.784534,51.827196],[-3.784592,51.827339],[-3.784692,51.827423],[-3.784835,51.827448],[-3.78506,51.827584],[-3.785366,51.82783],[-3.785572,51.827963],[-3.785677,51.827983],[-3.785839,51.828155],[-3.786057,51.828481],[-3.786187,51.828686],[-3.78623,51.82877],[-3.786265,51.82891],[-3.786293,51.829105],[-3.786302,51.829238],[-3.786292,51.829308],[-3.78635,51.829391],[-3.786476,51.829485],[-3.786674,51.829526],[-3.786944,51.829514],[-3.787171,51.829442],[-3.787356,51.829311],[-3.787581,51.829309],[-3.787846,51.829437],[-3.788084,51.829503],[-3.788295,51.829508],[-3.788433,51.829461],[-3.7885,51.829364],[-3.78842,51.829185],[-3.788194,51.828924],[-3.788076,51.828725],[-3.788065,51.828587],[-3.788122,51.828486],[-3.788247,51.828422],[-3.788374,51.828382],[-3.788503,51.828367],[-3.788668,51.828489],[-3.788868,51.828748],[-3.789085,51.828947],[-3.789317,51.829086],[-3.789482,51.829246],[-3.789578,51.829426],[-3.789768,51.829645],[-3.790051,51.829903],[-3.790354,51.830117],[-3.790677,51.830287],[-3.790929,51.83049],[-3.791111,51.830727],[-3.791246,51.830944],[-3.791334,51.831142],[-3.791441,51.831266],[-3.791565,51.831318],[-3.79171,51.831285],[-3.791875,51.831165],[-3.791902,51.831012],[-3.79179,51.830825],[-3.791866,51.830633],[-3.792129,51.830435],[-3.792425,51.830367],[-3.792755,51.830428],[-3.793032,51.830408],[-3.793258,51.830306],[-3.793317,51.830191],[-3.793209,51.830062],[-3.793151,51.82994],[-3.793142,51.829824],[-3.793039,51.829711],[-3.792843,51.829601],[-3.792662,51.82954],[-3.792495,51.829526],[-3.792186,51.829509],[-3.791733,51.829487],[-3.79125,51.829457],[-3.790738,51.829418],[-3.79037,51.82932],[-3.790146,51.829163],[-3.789944,51.829037],[-3.789766,51.828942],[-3.789536,51.828831],[-3.789254,51.828707],[-3.789029,51.828567],[-3.788861,51.828412],[-3.788863,51.828324],[-3.789032,51.828304],[-3.789279,51.82827],[-3.789602,51.828222],[-3.789935,51.828282],[-3.790277,51.828449],[-3.790566,51.828522],[-3.790801,51.828499],[-3.790981,51.828532],[-3.791104,51.828619],[-3.791524,51.828763],[-3.79224,51.828962],[-3.792768,51.829058],[-3.793109,51.829051],[-3.793337,51.829077],[-3.793452,51.829136],[-3.79363,51.829141],[-3.793873,51.829092],[-3.794194,51.829005],[-3.794594,51.828878],[-3.795126,51.828775],[-3.795788,51.828697],[-3.796179,51.828611],[-3.7963,51.828517],[-3.796362,51.828355],[-3.796365,51.828123],[-3.796301,51.827863],[-3.796168,51.827575],[-3.795982,51.827442],[-3.795742,51.827464],[-3.795527,51.827443],[-3.795336,51.82738],[-3.795256,51.82728],[-3.795289,51.827144],[-3.79552,51.827041],[-3.795948,51.82697],[-3.796343,51.826844],[-3.796705,51.826662],[-3.796881,51.826519],[-3.79687,51.826415],[-3.796898,51.826266],[-3.796967,51.826073],[-3.797067,51.825998],[-3.797199,51.826042],[-3.797336,51.826036],[-3.79748,51.825979],[-3.797491,51.825862],[-3.797372,51.825685],[-3.797179,51.825598],[-3.796913,51.825604],[-3.796733,51.825579],[-3.796641,51.825523],[-3.79656,51.825348],[-3.796489,51.825053],[-3.796385,51.824853],[-3.796246,51.824751],[-3.796277,51.824661],[-3.796478,51.824585],[-3.796633,51.824599],[-3.796741,51.824706],[-3.796864,51.824826],[-3.797003,51.824962],[-3.797127,51.825069],[-3.797238,51.825149],[-3.797343,51.825196],[-3.797444,51.82521],[-3.797624,51.825182],[-3.797881,51.825112],[-3.798162,51.825138],[-3.798468,51.825261],[-3.798696,51.825458],[-3.798845,51.825731],[-3.798924,51.82587],[-3.798933,51.825875],[-3.798907,51.825885],[-3.798846,51.8259],[-3.798824,51.825974],[-3.798841,51.826108],[-3.798904,51.826297],[-3.799012,51.826541],[-3.799038,51.826755],[-3.79898,51.826938],[-3.798866,51.827214],[-3.798694,51.827582],[-3.798574,51.827855],[-3.798507,51.828035],[-3.798547,51.828189],[-3.798693,51.828317],[-3.798845,51.82832],[-3.799003,51.828195],[-3.799153,51.828059],[-3.799295,51.827911],[-3.799491,51.827807],[-3.799743,51.827747],[-3.79997,51.827743],[-3.800174,51.827794],[-3.80038,51.8278],[-3.800589,51.82776],[-3.800729,51.827618],[-3.8008,51.827372],[-3.800904,51.827196],[-3.801043,51.827089],[-3.801161,51.827035],[-3.801258,51.827033],[-3.801341,51.827074],[-3.801407,51.827157],[-3.801486,51.827213],[-3.801577,51.827243],[-3.801657,51.827304],[-3.801727,51.827396],[-3.801637,51.827515],[-3.801388,51.82766],[-3.801308,51.827773],[-3.801399,51.827853],[-3.801586,51.827942],[-3.801869,51.828039],[-3.802122,51.828208],[-3.802344,51.828449],[-3.802489,51.828664],[-3.802555,51.828852],[-3.8027,51.828989],[-3.802923,51.829073],[-3.803157,51.829116],[-3.803402,51.829117],[-3.803633,51.829082],[-3.803848,51.829011],[-3.803955,51.828936],[-3.803955,51.828855],[-3.803921,51.828748],[-3.803855,51.828615],[-3.803807,51.828447],[-3.803777,51.828244],[-3.803809,51.828071],[-3.803904,51.827929],[-3.803953,51.827857],[-3.803955,51.827855],[-3.80397,51.827876],[-3.803995,51.827919],[-3.804121,51.828002],[-3.804346,51.828126],[-3.804669,51.828287],[-3.80509,51.828485],[-3.805537,51.828675],[-3.80601,51.828858],[-3.806491,51.829027],[-3.806981,51.829183],[-3.807216,51.829324],[-3.807198,51.82945],[-3.807051,51.829614],[-3.806775,51.829817],[-3.806604,51.830017],[-3.806538,51.830214],[-3.806559,51.830384],[-3.806667,51.830528],[-3.806748,51.830652],[-3.806802,51.830757],[-3.806626,51.831025],[-3.80622,51.831459],[-3.806013,51.831728],[-3.806003,51.831833],[-3.805978,51.832042],[-3.805937,51.832354],[-3.805891,51.832682],[-3.80584,51.833028],[-3.805719,51.833287],[-3.805529,51.833459],[-3.805414,51.83362],[-3.805376,51.833768],[-3.805541,51.833892],[-3.805911,51.833991],[-3.806399,51.834093],[-3.807003,51.834198],[-3.807509,51.834174],[-3.807917,51.834021],[-3.808271,51.833777],[-3.808569,51.833441],[-3.808747,51.833198],[-3.808807,51.833048],[-3.808784,51.832855],[-3.808679,51.832619],[-3.808696,51.832421],[-3.808837,51.832261],[-3.808967,51.832066],[-3.809087,51.831837],[-3.809228,51.831542],[-3.809392,51.831184],[-3.80942,51.8309],[-3.809313,51.83069],[-3.809149,51.830537],[-3.808928,51.830439],[-3.80874,51.830331],[-3.808587,51.830212],[-3.8086,51.8301],[-3.808779,51.829994],[-3.809028,51.829876],[-3.809348,51.829747],[-3.809519,51.82964],[-3.809542,51.829558],[-3.809663,51.829474]]]}}