{"type":"Feature","properties":{"id":"291085","COMMUNE":"Carmarthenshire","PROVINCE":"South West Wales","COUNTRY":"UK","FIREDATE":"2026-03-18 13:31:00","FINALDATE":"2026-03-19 14:33:00","CLASS":"FireSeason","areaHA_geo":956.023},"geometry":{"type":"Polygon","coordinates":[[[-3.908235,52.140164],[-3.908062,52.140175],[-3.907919,52.140219],[-3.907806,52.140298],[-3.907754,52.140453],[-3.907764,52.140685],[-3.907644,52.140842],[-3.907395,52.140924],[-3.907116,52.140931],[-3.906808,52.140864],[-3.906653,52.140791],[-3.90665,52.140714],[-3.90666,52.140596],[-3.906684,52.140437],[-3.906736,52.140298],[-3.906814,52.140179],[-3.90702,52.140041],[-3.907352,52.139885],[-3.907445,52.139728],[-3.9073,52.13957],[-3.907145,52.139449],[-3.906981,52.139365],[-3.90676,52.139303],[-3.906483,52.139265],[-3.906176,52.139285],[-3.905841,52.139364],[-3.905353,52.139581],[-3.904713,52.139935],[-3.904155,52.140183],[-3.90368,52.140324],[-3.903222,52.140502],[-3.902781,52.140716],[-3.902653,52.140913],[-3.902837,52.141092],[-3.903013,52.141282],[-3.903183,52.141482],[-3.903285,52.141655],[-3.90332,52.1418],[-3.903293,52.141897],[-3.903202,52.141947],[-3.903179,52.142008],[-3.903223,52.142081],[-3.903344,52.142177],[-3.903541,52.142296],[-3.903655,52.142406],[-3.903686,52.142506],[-3.903642,52.142582],[-3.903521,52.142636],[-3.903306,52.142677],[-3.902998,52.142707],[-3.902761,52.142748],[-3.902598,52.1428],[-3.902465,52.142846],[-3.902363,52.142884],[-3.902279,52.142893],[-3.902212,52.142871],[-3.90204,52.142789],[-3.901762,52.142648],[-3.901497,52.142533],[-3.901245,52.142445],[-3.900892,52.142356],[-3.900436,52.142267],[-3.900072,52.142289],[-3.899799,52.142421],[-3.899404,52.142539],[-3.898888,52.142644],[-3.898505,52.142848],[-3.898255,52.143151],[-3.897952,52.143349],[-3.897595,52.143441],[-3.897305,52.143491],[-3.897084,52.143499],[-3.896847,52.143567],[-3.896593,52.143697],[-3.896317,52.14387],[-3.896019,52.144085],[-3.895803,52.144239],[-3.895669,52.144329],[-3.895612,52.14447],[-3.895631,52.14466],[-3.895657,52.144968],[-3.89569,52.145393],[-3.895622,52.145772],[-3.895452,52.146103],[-3.895162,52.146361],[-3.894753,52.146546],[-3.894223,52.146672],[-3.893573,52.146736],[-3.892994,52.146724],[-3.892488,52.146635],[-3.892133,52.146621],[-3.891929,52.146683],[-3.89174,52.146842],[-3.891567,52.147099],[-3.891436,52.147248],[-3.891348,52.14729],[-3.891184,52.147284],[-3.890943,52.147232],[-3.890829,52.147143],[-3.89084,52.147017],[-3.890885,52.146887],[-3.890965,52.146753],[-3.890949,52.146622],[-3.890837,52.146492],[-3.890592,52.146362],[-3.890216,52.146233],[-3.889942,52.146187],[-3.889771,52.146226],[-3.889585,52.146295],[-3.889382,52.146394],[-3.889249,52.146521],[-3.889187,52.146678],[-3.889237,52.146803],[-3.889398,52.146896],[-3.889661,52.147023],[-3.890024,52.147185],[-3.890217,52.147354],[-3.890242,52.14753],[-3.890283,52.147708],[-3.89034,52.147889],[-3.890454,52.148007],[-3.890625,52.148062],[-3.89085,52.148068],[-3.891128,52.148026],[-3.89143,52.148107],[-3.891756,52.148313],[-3.892161,52.148476],[-3.892645,52.148597],[-3.89296,52.14855],[-3.893107,52.148335],[-3.893354,52.148217],[-3.8937,52.148195],[-3.894059,52.14819],[-3.894431,52.148202],[-3.894757,52.148309],[-3.895036,52.14851],[-3.89513,52.148711],[-3.895039,52.148909],[-3.895463,52.149014],[-3.896403,52.149024],[-3.897101,52.149068],[-3.897555,52.149146],[-3.898025,52.149175],[-3.89851,52.149155],[-3.898764,52.14914],[-3.898787,52.149132],[-3.898873,52.149186],[-3.89902,52.149304],[-3.89928,52.149355],[-3.899652,52.14934],[-3.899853,52.149284],[-3.899882,52.149186],[-3.90009,52.149036],[-3.900479,52.148833],[-3.900739,52.148669],[-3.90087,52.148544],[-3.901035,52.148459],[-3.901235,52.148414],[-3.9014,52.14841],[-3.901531,52.148447],[-3.901701,52.148455],[-3.901908,52.148436],[-3.902055,52.148536],[-3.902142,52.148756],[-3.902134,52.148934],[-3.902033,52.149072],[-3.902007,52.149153],[-3.902058,52.149179],[-3.901922,52.149318],[-3.901601,52.14957],[-3.901428,52.149794],[-3.901405,52.14999],[-3.901449,52.150158],[-3.901561,52.150296],[-3.901703,52.150365],[-3.901874,52.150366],[-3.902001,52.150348],[-3.902083,52.150312],[-3.902226,52.150209],[-3.902428,52.150039],[-3.902594,52.149847],[-3.902723,52.149633],[-3.902872,52.149443],[-3.903041,52.149276],[-3.90331,52.149033],[-3.903679,52.148712],[-3.903939,52.148508],[-3.904091,52.148422],[-3.904277,52.14839],[-3.904497,52.148411],[-3.904583,52.148518],[-3.904533,52.148712],[-3.904508,52.148864],[-3.904509,52.148974],[-3.904543,52.149053],[-3.90461,52.149103],[-3.904749,52.149178],[-3.90496,52.149278],[-3.905097,52.1494],[-3.90516,52.149545],[-3.905182,52.149722],[-3.905163,52.149933],[-3.905155,52.15007],[-3.905158,52.150133],[-3.905248,52.150161],[-3.905426,52.150156],[-3.905586,52.150124],[-3.90573,52.150065],[-3.905913,52.150077],[-3.906136,52.15016],[-3.906303,52.150248],[-3.906414,52.150339],[-3.906455,52.15043],[-3.906425,52.15052],[-3.9063,52.150643],[-3.90608,52.150798],[-3.905927,52.150934],[-3.905841,52.15105],[-3.90594,52.151147],[-3.906226,52.151224],[-3.906414,52.151324],[-3.906503,52.151447],[-3.90656,52.15151],[-3.906583,52.151514],[-3.906578,52.151558],[-3.906545,52.151642],[-3.906589,52.1517],[-3.906711,52.151733],[-3.906902,52.151757],[-3.907164,52.151773],[-3.907397,52.151782],[-3.907603,52.151784],[-3.90775,52.151777],[-3.907839,52.151761],[-3.907899,52.151694],[-3.90793,52.151575],[-3.907936,52.151497],[-3.907918,52.151458],[-3.90791,52.15142],[-3.90791,52.151383],[-3.907884,52.151301],[-3.907829,52.151174],[-3.907779,52.150993],[-3.907734,52.150759],[-3.907989,52.150451],[-3.908543,52.15007],[-3.909052,52.149868],[-3.909516,52.149844],[-3.909989,52.149845],[-3.910469,52.149872],[-3.91091,52.149831],[-3.911311,52.149721],[-3.911533,52.149542],[-3.911578,52.149292],[-3.911706,52.14908],[-3.911919,52.148903],[-3.912196,52.148759],[-3.912539,52.148648],[-3.912841,52.148627],[-3.913103,52.148698],[-3.913319,52.148728],[-3.91349,52.148717],[-3.913594,52.148715],[-3.913633,52.148724],[-3.913743,52.148704],[-3.913924,52.148656],[-3.914146,52.148623],[-3.914409,52.148605],[-3.914581,52.148587],[-3.914662,52.148568],[-3.91475,52.148527],[-3.914846,52.148462],[-3.914996,52.148409],[-3.915201,52.148367],[-3.915293,52.14836],[-3.915273,52.148389],[-3.915224,52.148442],[-3.915147,52.148518],[-3.915116,52.148617],[-3.915133,52.148739],[-3.91501,52.14882],[-3.914747,52.14886],[-3.914582,52.148867],[-3.914515,52.148839],[-3.914394,52.148822],[-3.914218,52.148817],[-3.914028,52.148848],[-3.913825,52.148917],[-3.913678,52.148967],[-3.913587,52.149],[-3.913574,52.149075],[-3.91364,52.149192],[-3.913768,52.149265],[-3.91396,52.149296],[-3.914101,52.149365],[-3.914194,52.149474],[-3.914224,52.149582],[-3.914193,52.149688],[-3.914215,52.149783],[-3.914293,52.149867],[-3.914479,52.149916],[-3.914774,52.149929],[-3.914985,52.149909],[-3.915113,52.149854],[-3.915266,52.149764],[-3.915444,52.149641],[-3.915643,52.149455],[-3.915862,52.149207],[-3.916219,52.148945],[-3.916712,52.148669],[-3.917071,52.14844],[-3.917296,52.148258],[-3.917415,52.148132],[-3.917428,52.148064],[-3.91745,52.148032],[-3.917483,52.148038],[-3.91782,52.147834],[-3.918462,52.147421],[-3.918807,52.147208],[-3.918855,52.147194],[-3.919187,52.147102],[-3.919801,52.146933],[-3.920377,52.146849],[-3.920914,52.146849],[-3.921344,52.146822],[-3.921668,52.146767],[-3.921991,52.146713],[-3.922314,52.146658],[-3.922503,52.146552],[-3.922558,52.146393],[-3.922438,52.146159],[-3.922143,52.145849],[-3.921899,52.145678],[-3.921705,52.145645],[-3.921558,52.145554],[-3.921459,52.145406],[-3.921468,52.145289],[-3.921585,52.145203],[-3.921844,52.145132],[-3.922245,52.145076],[-3.922664,52.14495],[-3.923099,52.144754],[-3.923449,52.144596],[-3.923712,52.144477],[-3.924391,52.14418],[-3.925485,52.143705],[-3.926093,52.143433],[-3.926215,52.143362],[-3.926316,52.143206],[-3.926396,52.142964],[-3.926521,52.142676],[-3.926691,52.142344],[-3.926726,52.14213],[-3.926627,52.142034],[-3.926609,52.141944],[-3.926672,52.141861],[-3.926657,52.14171],[-3.926564,52.141492],[-3.926416,52.141276],[-3.926216,52.141063],[-3.926117,52.140923],[-3.92612,52.140856],[-3.926141,52.140675],[-3.926182,52.140382],[-3.926156,52.140185],[-3.926063,52.140085],[-3.925952,52.140002],[-3.925822,52.139936],[-3.925781,52.139844],[-3.925829,52.139727],[-3.925926,52.139557],[-3.926073,52.139332],[-3.92619,52.139148],[-3.926278,52.139004],[-3.926378,52.138844],[-3.926492,52.138667],[-3.926559,52.138478],[-3.92658,52.138275],[-3.926571,52.138114],[-3.926532,52.137992],[-3.926519,52.137912],[-3.926531,52.137874],[-3.926551,52.137727],[-3.926579,52.137472],[-3.926481,52.137335],[-3.926258,52.137318],[-3.926135,52.137351],[-3.926113,52.137435],[-3.926098,52.137577],[-3.926089,52.137778],[-3.925949,52.13791],[-3.925678,52.137972],[-3.925522,52.138109],[-3.92548,52.138321],[-3.92539,52.138665],[-3.92525,52.139141],[-3.925136,52.139506],[-3.925047,52.139761],[-3.924913,52.139892],[-3.924733,52.139898],[-3.924624,52.139897],[-3.924584,52.139887],[-3.924543,52.139814],[-3.9245,52.139678],[-3.924456,52.139576],[-3.92441,52.139507],[-3.924442,52.139437],[-3.924552,52.139365],[-3.924585,52.13922],[-3.92454,52.139003],[-3.924481,52.138836],[-3.924408,52.138719],[-3.924348,52.138626],[-3.924302,52.138557],[-3.924006,52.138596],[-3.923459,52.138743],[-3.923019,52.138862],[-3.922685,52.138953],[-3.922425,52.139088],[-3.922239,52.139266],[-3.922118,52.139458],[-3.922062,52.139664],[-3.921968,52.139825],[-3.921834,52.139941],[-3.921692,52.139969],[-3.92154,52.13991],[-3.921365,52.139832],[-3.921166,52.139738],[-3.920972,52.139679],[-3.920783,52.139657],[-3.920694,52.139683],[-3.920705,52.139755],[-3.920722,52.139809],[-3.920745,52.139843],[-3.920814,52.139887],[-3.920927,52.13994],[-3.921008,52.140005],[-3.921056,52.14008],[-3.921143,52.140144],[-3.921268,52.140196],[-3.92138,52.140241],[-3.921478,52.14028],[-3.921527,52.1403],[-3.921526,52.140301],[-3.921477,52.140356],[-3.921378,52.140464],[-3.921056,52.140691],[-3.920512,52.141037],[-3.919834,52.141248],[-3.919022,52.141322],[-3.91837,52.141344],[-3.917876,52.141314],[-3.917498,52.141422],[-3.917237,52.141667],[-3.916943,52.141847],[-3.916616,52.14196],[-3.916365,52.141934],[-3.916192,52.141769],[-3.915875,52.141666],[-3.915414,52.141625],[-3.915068,52.141603],[-3.914837,52.141601],[-3.914551,52.141594],[-3.914208,52.141583],[-3.913989,52.141617],[-3.913892,52.141695],[-3.913794,52.141718],[-3.913694,52.141687],[-3.913532,52.141625],[-3.913306,52.141532],[-3.913214,52.141438],[-3.913254,52.141343],[-3.913427,52.141247],[-3.913732,52.14115],[-3.914039,52.141053],[-3.914346,52.140955],[-3.914654,52.140857],[-3.914963,52.140759],[-3.915249,52.140677],[-3.915511,52.140611],[-3.915751,52.140561],[-3.915967,52.140528],[-3.916175,52.14048],[-3.916376,52.140418],[-3.916569,52.140341],[-3.916754,52.140249],[-3.916812,52.140164],[-3.916742,52.140083],[-3.916662,52.140033],[-3.916571,52.140014],[-3.916606,52.139992],[-3.916769,52.139969],[-3.916975,52.139883],[-3.917224,52.139732],[-3.91745,52.139576],[-3.917652,52.139414],[-3.917847,52.13936],[-3.918034,52.139416],[-3.918165,52.139517],[-3.91824,52.139663],[-3.918304,52.139733],[-3.918358,52.139727],[-3.918448,52.139721],[-3.918573,52.139714],[-3.918666,52.139673],[-3.918726,52.139597],[-3.918784,52.139378],[-3.91884,52.139018],[-3.919158,52.138665],[-3.91974,52.138319],[-3.920388,52.138005],[-3.921103,52.137721],[-3.921644,52.137536],[-3.922012,52.137449],[-3.922452,52.13728],[-3.922965,52.137029],[-3.923316,52.136867],[-3.923504,52.136793],[-3.92388,52.136597],[-3.924442,52.13628],[-3.924815,52.135963],[-3.924997,52.135648],[-3.925094,52.135421],[-3.925107,52.135281],[-3.925312,52.13495],[-3.925711,52.134428],[-3.926019,52.134063],[-3.926236,52.133856],[-3.926371,52.133637],[-3.926425,52.133406],[-3.926559,52.133183],[-3.926773,52.132968],[-3.926927,52.132764],[-3.927021,52.132571],[-3.927025,52.132316],[-3.926938,52.131998],[-3.926851,52.131788],[-3.926762,52.131687],[-3.926568,52.131632],[-3.92627,52.131624],[-3.926018,52.131633],[-3.925814,52.131657],[-3.925647,52.131664],[-3.925517,52.131653],[-3.92543,52.131647],[-3.925387,52.131643],[-3.925352,52.131578],[-3.925326,52.131452],[-3.925268,52.131359],[-3.925179,52.131301],[-3.924914,52.131263],[-3.924471,52.131247],[-3.92424,52.131296],[-3.92422,52.131411],[-3.924207,52.131529],[-3.924204,52.13165],[-3.924309,52.131827],[-3.924524,52.132061],[-3.924651,52.13224],[-3.924691,52.132365],[-3.924625,52.132489],[-3.924452,52.132613],[-3.924337,52.132739],[-3.924279,52.132867],[-3.924108,52.132952],[-3.923825,52.132994],[-3.923497,52.133029],[-3.923125,52.133056],[-3.922857,52.133123],[-3.922693,52.133228],[-3.922523,52.133361],[-3.922348,52.13352],[-3.922027,52.133709],[-3.92156,52.133929],[-3.921298,52.134037],[-3.921241,52.134036],[-3.921071,52.133944],[-3.920787,52.133761],[-3.920404,52.133665],[-3.919921,52.133653],[-3.919586,52.133667],[-3.919401,52.133706],[-3.919184,52.133844],[-3.918934,52.134081],[-3.918692,52.134296],[-3.918456,52.134488],[-3.918132,52.134733],[-3.917719,52.135033],[-3.917441,52.135226],[-3.917299,52.135312],[-3.917175,52.135365],[-3.917069,52.135386],[-3.916956,52.135365],[-3.916837,52.135302],[-3.916647,52.135169],[-3.916386,52.134967],[-3.91614,52.134815],[-3.91591,52.134713],[-3.915766,52.134661],[-3.915707,52.134661],[-3.915771,52.134597],[-3.915959,52.13447],[-3.916078,52.13433],[-3.916129,52.134177],[-3.916364,52.133964],[-3.916786,52.133689],[-3.917009,52.133481],[-3.917035,52.13334],[-3.916957,52.133116],[-3.916775,52.13281],[-3.91648,52.132633],[-3.91607,52.132587],[-3.915733,52.132571],[-3.91547,52.132585],[-3.915163,52.132665],[-3.914814,52.13281],[-3.914441,52.133079],[-3.914043,52.133471],[-3.913785,52.133748],[-3.913666,52.133909],[-3.913561,52.134021],[-3.913468,52.134083],[-3.91335,52.134158],[-3.913208,52.134244],[-3.913033,52.13436],[-3.912825,52.134505],[-3.91263,52.134623],[-3.912447,52.134714],[-3.912272,52.134765],[-3.912106,52.134776],[-3.911938,52.134736],[-3.911768,52.134644],[-3.911609,52.134585],[-3.911459,52.13456],[-3.911272,52.134547],[-3.911047,52.134548],[-3.910882,52.134585],[-3.910778,52.134658],[-3.910683,52.134738],[-3.910598,52.134826],[-3.910521,52.134937],[-3.910451,52.135072],[-3.910374,52.135144],[-3.91029,52.135154],[-3.910112,52.135093],[-3.909837,52.134961],[-3.909632,52.134819],[-3.909495,52.134666],[-3.909414,52.13449],[-3.90939,52.134293],[-3.909421,52.134073],[-3.909508,52.133832],[-3.909599,52.13358],[-3.909692,52.133318],[-3.909755,52.133143],[-3.909787,52.133054],[-3.909882,52.132957],[-3.910041,52.132852],[-3.910184,52.132675],[-3.910309,52.132425],[-3.910476,52.132226],[-3.910684,52.132076],[-3.910856,52.131915],[-3.910993,52.131743],[-3.911085,52.131587],[-3.91113,52.131449],[-3.91126,52.131336],[-3.911475,52.131248],[-3.911637,52.131154],[-3.911746,52.131055],[-3.911708,52.130955],[-3.911522,52.130852],[-3.911273,52.130811],[-3.910961,52.130832],[-3.910651,52.130861],[-3.910343,52.130898],[-3.909949,52.130945],[-3.909469,52.131002],[-3.909072,52.131076],[-3.908756,52.131169],[-3.908486,52.131263],[-3.908261,52.13136],[-3.908085,52.131448],[-3.907956,52.131525],[-3.907842,52.13159],[-3.907744,52.13164],[-3.907644,52.131668],[-3.907543,52.131672],[-3.907396,52.131651],[-3.907202,52.131603],[-3.906976,52.131595],[-3.906717,52.131626],[-3.906509,52.131674],[-3.906351,52.131739],[-3.906274,52.131819],[-3.906278,52.131912],[-3.906299,52.131991],[-3.906335,52.132056],[-3.906315,52.132114],[-3.906238,52.132165],[-3.906118,52.132221],[-3.905955,52.132283],[-3.905788,52.132324],[-3.905618,52.132344],[-3.905496,52.132314],[-3.90542,52.132235],[-3.905392,52.132105],[-3.90541,52.131926],[-3.905397,52.131785],[-3.905352,52.131683],[-3.905347,52.131603],[-3.905382,52.131545],[-3.905488,52.131412],[-3.905665,52.131204],[-3.905771,52.131054],[-3.905806,52.130964],[-3.905751,52.130869],[-3.905604,52.13077],[-3.905481,52.130581],[-3.90538,52.130304],[-3.905298,52.130064],[-3.905234,52.12986],[-3.905219,52.129714],[-3.905254,52.129624],[-3.905225,52.12951],[-3.90513,52.129373],[-3.905011,52.129317],[-3.904865,52.129342],[-3.904669,52.129388],[-3.904423,52.129457],[-3.904109,52.129494],[-3.903728,52.1295],[-3.903357,52.129528],[-3.902996,52.129577],[-3.902752,52.129524],[-3.902626,52.12937],[-3.902511,52.129207],[-3.902406,52.129034],[-3.90232,52.128863],[-3.902254,52.128694],[-3.902212,52.128581],[-3.902194,52.128524],[-3.902282,52.128484],[-3.902474,52.128458],[-3.902698,52.128424],[-3.902952,52.12838],[-3.903142,52.128318],[-3.903269,52.128236],[-3.903312,52.128156],[-3.903272,52.128076],[-3.903205,52.128001],[-3.90311,52.127931],[-3.903117,52.127848],[-3.903227,52.127753],[-3.903387,52.127638],[-3.903597,52.127506],[-3.903812,52.127378],[-3.904031,52.127256],[-3.904256,52.127138],[-3.904485,52.127026],[-3.904628,52.126946],[-3.904687,52.126898],[-3.904789,52.126865],[-3.904935,52.126846],[-3.905193,52.126815],[-3.905564,52.126771],[-3.90588,52.126671],[-3.906141,52.126517],[-3.906384,52.126349],[-3.906611,52.12617],[-3.906806,52.125998],[-3.90697,52.125834],[-3.907043,52.12564],[-3.907026,52.125415],[-3.906872,52.125258],[-3.906581,52.125169],[-3.906123,52.125085],[-3.905498,52.125006],[-3.905078,52.125034],[-3.904864,52.125166],[-3.904655,52.125241],[-3.904451,52.125257],[-3.904283,52.125227],[-3.904152,52.125152],[-3.903963,52.12511],[-3.903718,52.125102],[-3.903581,52.12516],[-3.903553,52.125283],[-3.903532,52.125376],[-3.903518,52.12544],[-3.90342,52.12546],[-3.903237,52.125436],[-3.903102,52.125403],[-3.903014,52.125359],[-3.902906,52.125349],[-3.902779,52.125373],[-3.902679,52.12544],[-3.902606,52.125552],[-3.90255,52.125629],[-3.902509,52.125671],[-3.902361,52.125713],[-3.902104,52.125756],[-3.901956,52.12584],[-3.901914,52.125964],[-3.901812,52.126059],[-3.901651,52.126124],[-3.901541,52.126139],[-3.901483,52.126104],[-3.901347,52.125964],[-3.901134,52.125717],[-3.900987,52.125561],[-3.900906,52.125496],[-3.900753,52.125523],[-3.900527,52.12564],[-3.900385,52.125756],[-3.900327,52.12587],[-3.900344,52.125957],[-3.900437,52.126016],[-3.900561,52.126078],[-3.900716,52.126142],[-3.900795,52.126273],[-3.900796,52.126471],[-3.90078,52.126654],[-3.900746,52.126823],[-3.90066,52.126966],[-3.900521,52.127081],[-3.90038,52.127222],[-3.900237,52.127387],[-3.900071,52.127534],[-3.899882,52.127663],[-3.899729,52.12773],[-3.899612,52.127737],[-3.8995,52.127744],[-3.899394,52.127752],[-3.899245,52.127717],[-3.899054,52.127638],[-3.898954,52.127576],[-3.898948,52.127533],[-3.89893,52.127431],[-3.898901,52.12727],[-3.898805,52.127195],[-3.898642,52.127206],[-3.898509,52.127268],[-3.898408,52.127382],[-3.898195,52.127578],[-3.89787,52.127856],[-3.897628,52.128018],[-3.897468,52.128063],[-3.897342,52.128043],[-3.89725,52.127956],[-3.897197,52.127909],[-3.897183,52.127901],[-3.897185,52.127877],[-3.897202,52.127838],[-3.897158,52.127732],[-3.897052,52.12756],[-3.896902,52.127402],[-3.89671,52.127258],[-3.89662,52.127102],[-3.896633,52.126934],[-3.896726,52.126808],[-3.896898,52.126725],[-3.897035,52.126668],[-3.897136,52.126638],[-3.897159,52.12655],[-3.897105,52.126403],[-3.896786,52.126301],[-3.896202,52.126244],[-3.895793,52.126255],[-3.895559,52.126332],[-3.895293,52.126422],[-3.894995,52.126525],[-3.894833,52.126677],[-3.894808,52.126878],[-3.894829,52.127083],[-3.894895,52.127292],[-3.894954,52.127469],[-3.895008,52.127616],[-3.895038,52.1277],[-3.895045,52.127721],[-3.894988,52.127776],[-3.894869,52.127865],[-3.894736,52.127967],[-3.89459,52.128079],[-3.894441,52.128196],[-3.894288,52.128316],[-3.894144,52.128421],[-3.894007,52.128509],[-3.893879,52.128582],[-3.893758,52.128639],[-3.893642,52.128677],[-3.89353,52.128698],[-3.893423,52.1287],[-3.89332,52.128684],[-3.893213,52.128658],[-3.893104,52.128621],[-3.892991,52.128575],[-3.892875,52.128518],[-3.892752,52.128448],[-3.892622,52.128367],[-3.892486,52.128273],[-3.892342,52.128166],[-3.892235,52.128086],[-3.892162,52.128033],[-3.892126,52.128006],[-3.892125,52.128006],[-3.892109,52.127997],[-3.892078,52.127978],[-3.892034,52.127951],[-3.891974,52.127914],[-3.891928,52.127872],[-3.891895,52.127823],[-3.891875,52.12777],[-3.891869,52.12771],[-3.891904,52.127657],[-3.891982,52.127611],[-3.892101,52.12757],[-3.892262,52.127536],[-3.892424,52.127502],[-3.892588,52.127467],[-3.892754,52.127433],[-3.892921,52.127398],[-3.89306,52.12735],[-3.893173,52.12729],[-3.893259,52.127217],[-3.893318,52.127131],[-3.893385,52.127056],[-3.893459,52.12699],[-3.893541,52.126936],[-3.893632,52.126891],[-3.893707,52.126856],[-3.893766,52.12683],[-3.89381,52.126814],[-3.893838,52.126806],[-3.893878,52.126769],[-3.893931,52.126701],[-3.893994,52.126602],[-3.89407,52.126473],[-3.89414,52.126345],[-3.894205,52.126219],[-3.894264,52.126095],[-3.894317,52.125972],[-3.894366,52.125875],[-3.894411,52.125804],[-3.894452,52.125759],[-3.894489,52.12574],[-3.894642,52.125694],[-3.894911,52.125623],[-3.895288,52.125528],[-3.895774,52.125408],[-3.896104,52.125344],[-3.896279,52.125337],[-3.896466,52.12531],[-3.896665,52.125264],[-3.896781,52.125211],[-3.896816,52.125152],[-3.896957,52.12508],[-3.897206,52.124997],[-3.897481,52.124913],[-3.897783,52.124829],[-3.898105,52.124745],[-3.898447,52.124663],[-3.898735,52.124589],[-3.898968,52.124522],[-3.899147,52.124462],[-3.899272,52.12441],[-3.899399,52.1244],[-3.899529,52.124434],[-3.899662,52.12451],[-3.899798,52.124629],[-3.899926,52.124733],[-3.900046,52.124822],[-3.900158,52.124896],[-3.900263,52.124955],[-3.900389,52.124994],[-3.900536,52.125014],[-3.900705,52.125015],[-3.900896,52.124996],[-3.901049,52.124972],[-3.901166,52.124943],[-3.901246,52.124909],[-3.901289,52.12487],[-3.901306,52.124813],[-3.901297,52.124737],[-3.901263,52.124643],[-3.901202,52.12453],[-3.901116,52.124422],[-3.901004,52.124321],[-3.900867,52.124226],[-3.900704,52.124136],[-3.900561,52.124065],[-3.90044,52.124012],[-3.90034,52.123977],[-3.900261,52.12396],[-3.900167,52.123948],[-3.900057,52.12394],[-3.899968,52.123937],[-3.899899,52.123937],[-3.899903,52.123876],[-3.899978,52.123751],[-3.899938,52.123673],[-3.899782,52.123641],[-3.899672,52.123654],[-3.899608,52.123712],[-3.899523,52.123801],[-3.899417,52.123922],[-3.89931,52.123949],[-3.899201,52.123883],[-3.899067,52.123773],[-3.898908,52.123619],[-3.898757,52.123451],[-3.898614,52.123269],[-3.898534,52.123166],[-3.898519,52.123141],[-3.898489,52.123031],[-3.898443,52.122837],[-3.898497,52.122663],[-3.898649,52.122511],[-3.898873,52.122454],[-3.899168,52.122492],[-3.899492,52.122609],[-3.899847,52.122807],[-3.900285,52.122926],[-3.900808,52.122964],[-3.901185,52.123045],[-3.901416,52.123168],[-3.90162,52.123236],[-3.901797,52.123248],[-3.902095,52.123252],[-3.902513,52.123247],[-3.902932,52.123231],[-3.903352,52.123203],[-3.903656,52.123285],[-3.903843,52.123474],[-3.904063,52.123635],[-3.904315,52.123767],[-3.904636,52.123746],[-3.905028,52.123571],[-3.905272,52.123391],[-3.905369,52.123207],[-3.905381,52.123029],[-3.905309,52.122859],[-3.905261,52.122722],[-3.905238,52.122619],[-3.905031,52.122543],[-3.904642,52.122495],[-3.904157,52.122474],[-3.903575,52.122482],[-3.902893,52.122473],[-3.90211,52.122449],[-3.901297,52.122373],[-3.900453,52.122244],[-3.899703,52.122166],[-3.899047,52.122137],[-3.898588,52.12213],[-3.898328,52.122145],[-3.897944,52.122154],[-3.897434,52.122159],[-3.897152,52.122147],[-3.897098,52.12212],[-3.896973,52.122043],[-3.896778,52.121915],[-3.896547,52.121834],[-3.896281,52.121799],[-3.896049,52.121745],[-3.895853,52.121674],[-3.895741,52.121651],[-3.895713,52.121676],[-3.895696,52.121726],[-3.895692,52.121799],[-3.895806,52.121872],[-3.896039,52.121945],[-3.896277,52.122003],[-3.896519,52.122047],[-3.896695,52.122115],[-3.896807,52.122208],[-3.896862,52.122254],[-3.896862,52.122254],[-3.896789,52.122253],[-3.896641,52.12225],[-3.89642,52.122274],[-3.896126,52.122324],[-3.895821,52.122401],[-3.895504,52.122506],[-3.895247,52.122589],[-3.895048,52.122648],[-3.894907,52.122684],[-3.894826,52.122698],[-3.894721,52.122686],[-3.894592,52.122648],[-3.89444,52.122586],[-3.894265,52.122498],[-3.894143,52.122418],[-3.894075,52.122348],[-3.8942,52.122229],[-3.894518,52.122062],[-3.894665,52.121954],[-3.894641,52.121907],[-3.894608,52.121788],[-3.894566,52.121597],[-3.894506,52.121437],[-3.894428,52.121307],[-3.894109,52.121247],[-3.893546,52.121258],[-3.89313,52.121238],[-3.892858,52.121186],[-3.892658,52.121174],[-3.892529,52.1212],[-3.892351,52.121255],[-3.892121,52.121338],[-3.891936,52.121488],[-3.891795,52.121706],[-3.891724,52.121943],[-3.891723,52.1222],[-3.891732,52.122414],[-3.891749,52.122585],[-3.891855,52.122631],[-3.892049,52.122552],[-3.892193,52.122488],[-3.892286,52.122438],[-3.892416,52.122486],[-3.892581,52.122634],[-3.892687,52.122739],[-3.892734,52.1228],[-3.892896,52.122868],[-3.893175,52.122941],[-3.893355,52.122996],[-3.893435,52.123034],[-3.893475,52.123069],[-3.893474,52.1231],[-3.893454,52.123183],[-3.893418,52.123319],[-3.89338,52.123454],[-3.893343,52.123588],[-3.893305,52.123721],[-3.893267,52.123853],[-3.893209,52.123965],[-3.893131,52.124057],[-3.893032,52.124129],[-3.892914,52.124181],[-3.892755,52.124241],[-3.892555,52.12431],[-3.892316,52.124387],[-3.892036,52.124473],[-3.891796,52.124538],[-3.891595,52.124582],[-3.891434,52.124606],[-3.891313,52.124609],[-3.891171,52.124618],[-3.89101,52.124631],[-3.890828,52.12465],[-3.890627,52.124674],[-3.890458,52.124714],[-3.890319,52.124772],[-3.890213,52.124847],[-3.890137,52.124938],[-3.89009,52.125015],[-3.890069,52.125078],[-3.890077,52.125126],[-3.890112,52.125159],[-3.89019,52.125199],[-3.890312,52.125244],[-3.890477,52.125296],[-3.890686,52.125354],[-3.890837,52.125417],[-3.890932,52.125484],[-3.890971,52.125557],[-3.890952,52.125634],[-3.890886,52.125695],[-3.890771,52.125741],[-3.890609,52.12577],[-3.890398,52.125784],[-3.890213,52.125803],[-3.890052,52.125828],[-3.889916,52.125858],[-3.889804,52.125894],[-3.889681,52.125951],[-3.889546,52.126029],[-3.889399,52.126128],[-3.889241,52.126248],[-3.889107,52.126342],[-3.888996,52.12641],[-3.888909,52.126451],[-3.888847,52.126466],[-3.888771,52.126464],[-3.888683,52.126447],[-3.888581,52.126413],[-3.888467,52.126362],[-3.888375,52.126303],[-3.888304,52.126234],[-3.888255,52.126157],[-3.888228,52.12607],[-3.888188,52.125989],[-3.888137,52.125914],[-3.888074,52.125846],[-3.887999,52.125783],[-3.887926,52.125718],[-3.887856,52.125649],[-3.887787,52.125578],[-3.88772,52.125503],[-3.887685,52.125415],[-3.887681,52.125314],[-3.887708,52.1252],[-3.887766,52.125073],[-3.887869,52.124968],[-3.888018,52.124885],[-3.888211,52.124823],[-3.88845,52.124784],[-3.888629,52.124743],[-3.888748,52.1247],[-3.888806,52.124657],[-3.888804,52.124612],[-3.888769,52.124563],[-3.8887,52.124509],[-3.888597,52.124451],[-3.88846,52.124388],[-3.888309,52.124359],[-3.888141,52.124364],[-3.887959,52.124403],[-3.887761,52.124475],[-3.887579,52.124566],[-3.887415,52.124676],[-3.887267,52.124804],[-3.887135,52.124951],[-3.887034,52.125089],[-3.886964,52.125217],[-3.886925,52.125336],[-3.886917,52.125446],[-3.886893,52.125558],[-3.886852,52.125672],[-3.886795,52.125787],[-3.886721,52.125905],[-3.886674,52.125971],[-3.886653,52.125985],[-3.886636,52.12599],[-3.886623,52.125987],[-3.886557,52.125938],[-3.886437,52.125846],[-3.886366,52.125756],[-3.886346,52.125668],[-3.886221,52.125617],[-3.885992,52.125601],[-3.885834,52.12562],[-3.885746,52.125673],[-3.885625,52.125743],[-3.885471,52.12583],[-3.885336,52.125835],[-3.885221,52.125759],[-3.885143,52.125657],[-3.885103,52.125529],[-3.885028,52.125423],[-3.884917,52.125337],[-3.88481,52.125232],[-3.884708,52.125108],[-3.884616,52.124982],[-3.884534,52.124855],[-3.884391,52.124756],[-3.884187,52.124686],[-3.883969,52.124714],[-3.883736,52.12484],[-3.883645,52.124951],[-3.883697,52.125048],[-3.883719,52.125206],[-3.883711,52.125425],[-3.883796,52.125594],[-3.883973,52.125714],[-3.884132,52.125873],[-3.884271,52.126071],[-3.884306,52.12627],[-3.884237,52.12647],[-3.884227,52.126649],[-3.884276,52.126806],[-3.88433,52.126898],[-3.884387,52.126925],[-3.884497,52.126987],[-3.884661,52.127083],[-3.884742,52.127165],[-3.884743,52.127234],[-3.884753,52.127333],[-3.884774,52.127463],[-3.884811,52.127572],[-3.884867,52.127659],[-3.884987,52.127697],[-3.885172,52.127683],[-3.885333,52.127653],[-3.885473,52.127607],[-3.885592,52.127541],[-3.885691,52.127457],[-3.885786,52.127403],[-3.885876,52.12738],[-3.885926,52.127372],[-3.885937,52.127378],[-3.886021,52.127397],[-3.886178,52.127429],[-3.886354,52.127441],[-3.886548,52.127433],[-3.886719,52.127431],[-3.886867,52.127434],[-3.886992,52.127442],[-3.887095,52.127456],[-3.887183,52.127498],[-3.887257,52.127566],[-3.887316,52.127661],[-3.887361,52.127784],[-3.887409,52.127883],[-3.887461,52.127959],[-3.887516,52.128013],[-3.887575,52.128044],[-3.887645,52.128071],[-3.887726,52.128095],[-3.887819,52.128116],[-3.887922,52.128134],[-3.888023,52.128169],[-3.888119,52.128223],[-3.888213,52.128295],[-3.888302,52.128384],[-3.888374,52.128456],[-3.888428,52.12851],[-3.888464,52.128545],[-3.888481,52.128563],[-3.888506,52.128597],[-3.888537,52.128646],[-3.888574,52.128712],[-3.888618,52.128793],[-3.888621,52.128862],[-3.888582,52.12892],[-3.888501,52.128966],[-3.888379,52.129],[-3.888285,52.129031],[-3.888221,52.129059],[-3.888186,52.129084],[-3.888179,52.129107],[-3.888145,52.129154],[-3.888084,52.129227],[-3.887995,52.129325],[-3.887878,52.129448],[-3.887734,52.129574],[-3.887565,52.129704],[-3.887369,52.129837],[-3.887146,52.129972],[-3.886949,52.130084],[-3.886778,52.130172],[-3.886632,52.130235],[-3.886511,52.130274],[-3.886388,52.1303],[-3.886263,52.130313],[-3.886134,52.130313],[-3.886003,52.1303],[-3.885851,52.130271],[-3.885678,52.130224],[-3.885483,52.130161],[-3.885268,52.130081],[-3.885077,52.130032],[-3.884911,52.130016],[-3.884769,52.130031],[-3.884653,52.130079],[-3.884522,52.13009],[-3.884375,52.130064],[-3.884214,52.130003],[-3.884039,52.129904],[-3.883794,52.129808],[-3.883482,52.129714],[-3.883102,52.129621],[-3.882653,52.12953],[-3.882229,52.129483],[-3.881828,52.129479],[-3.881452,52.129518],[-3.8811,52.129601],[-3.880824,52.129691],[-3.880623,52.129786],[-3.880498,52.129889],[-3.880448,52.129997],[-3.880388,52.130085],[-3.880317,52.130153],[-3.880235,52.1302],[-3.880142,52.130226],[-3.88005,52.130221],[-3.879958,52.130183],[-3.879867,52.130113],[-3.879776,52.13001],[-3.879704,52.129925],[-3.87965,52.129857],[-3.879616,52.129806],[-3.8796,52.129772],[-3.879601,52.12973],[-3.879618,52.12968],[-3.879652,52.129622],[-3.879703,52.129555],[-3.879749,52.12948],[-3.87979,52.129395],[-3.879827,52.129301],[-3.879859,52.129197],[-3.879879,52.129098],[-3.879885,52.129003],[-3.879878,52.128913],[-3.879857,52.128828],[-3.879829,52.128739],[-3.879794,52.128647],[-3.879751,52.128553],[-3.8797,52.128455],[-3.879697,52.128362],[-3.879741,52.128275],[-3.879833,52.128193],[-3.879972,52.128117],[-3.880096,52.128029],[-3.880206,52.12793],[-3.8803,52.12782],[-3.880379,52.127699],[-3.880416,52.127631],[-3.880409,52.127616],[-3.880421,52.127601],[-3.880449,52.127585],[-3.880531,52.127499],[-3.880666,52.127342],[-3.880759,52.12723],[-3.880811,52.127162],[-3.880899,52.127117],[-3.881021,52.127097],[-3.88113,52.127194],[-3.881226,52.127408],[-3.881273,52.127572],[-3.881271,52.127685],[-3.881275,52.127783],[-3.881283,52.127867],[-3.881342,52.127939],[-3.881453,52.127999],[-3.881594,52.128022],[-3.881764,52.128007],[-3.881861,52.127919],[-3.881884,52.127759],[-3.881879,52.127641],[-3.881846,52.127566],[-3.881804,52.127461],[-3.881752,52.127326],[-3.881686,52.127204],[-3.881606,52.127096],[-3.881576,52.126958],[-3.881597,52.126792],[-3.881663,52.126621],[-3.881773,52.126444],[-3.881851,52.126311],[-3.881896,52.126221],[-3.881942,52.126117],[-3.881987,52.125999],[-3.881978,52.125867],[-3.881914,52.125723],[-3.88182,52.125658],[-3.881696,52.125673],[-3.881563,52.125748],[-3.881421,52.125883],[-3.881254,52.126069],[-3.881062,52.126306],[-3.880936,52.126434],[-3.880878,52.126452],[-3.88067,52.126496],[-3.880315,52.126566],[-3.880088,52.12665],[-3.879989,52.126746],[-3.879934,52.126814],[-3.879922,52.126853],[-3.879846,52.126904],[-3.879706,52.126968],[-3.879585,52.127028],[-3.879484,52.127085],[-3.879328,52.127155],[-3.879119,52.127239],[-3.87899,52.127273],[-3.878943,52.12726],[-3.878912,52.127225],[-3.878898,52.127169],[-3.87893,52.1271],[-3.879009,52.127019],[-3.879087,52.126889],[-3.879165,52.126712],[-3.879241,52.126494],[-3.879314,52.126235],[-3.879381,52.126097],[-3.879442,52.12608],[-3.879519,52.12597],[-3.879611,52.125768],[-3.879709,52.125624],[-3.879811,52.125538],[-3.879899,52.125438],[-3.879973,52.125322],[-3.880108,52.125238],[-3.880303,52.125187],[-3.880481,52.125151],[-3.880641,52.125133],[-3.880794,52.125092],[-3.88094,52.125029],[-3.881064,52.124927],[-3.881167,52.124785],[-3.881234,52.124679],[-3.881267,52.124607],[-3.881184,52.124564],[-3.880986,52.124548],[-3.880797,52.124547],[-3.880618,52.124563],[-3.880429,52.124549],[-3.880231,52.124505],[-3.880151,52.124441],[-3.880189,52.124357],[-3.880343,52.124246],[-3.880612,52.124107],[-3.88093,52.123962],[-3.881297,52.123812],[-3.881463,52.123691],[-3.881428,52.123602],[-3.88152,52.123523],[-3.88174,52.123455],[-3.882063,52.123404],[-3.88249,52.12337],[-3.882849,52.12333],[-3.88314,52.123284],[-3.883393,52.123212],[-3.883606,52.123111],[-3.883678,52.123007],[-3.883608,52.122897],[-3.883421,52.122759],[-3.883114,52.122592],[-3.88285,52.122476],[-3.882629,52.122411],[-3.882375,52.122315],[-3.882091,52.122189],[-3.881904,52.122039],[-3.881815,52.121868],[-3.881747,52.121528],[-3.8817,52.12102],[-3.881626,52.120646],[-3.881524,52.120406],[-3.881297,52.120214],[-3.880946,52.120069],[-3.880804,52.119942],[-3.880872,52.119833],[-3.880908,52.119752],[-3.880911,52.119698],[-3.88101,52.11963],[-3.881204,52.119546],[-3.881414,52.119427],[-3.88164,52.119273],[-3.881943,52.119156],[-3.882324,52.119077],[-3.882734,52.118971],[-3.883175,52.118839],[-3.883613,52.118679],[-3.884048,52.118493],[-3.884305,52.118335],[-3.884384,52.118205],[-3.884565,52.118049],[-3.884848,52.117868],[-3.885029,52.117696],[-3.885109,52.117532],[-3.885011,52.117359],[-3.884734,52.117177],[-3.884477,52.11711],[-3.88424,52.117158],[-3.883855,52.117311],[-3.883323,52.117569],[-3.882851,52.117847],[-3.88244,52.118144],[-3.882074,52.118372],[-3.881751,52.118531],[-3.881425,52.118644],[-3.881095,52.11871],[-3.880862,52.11872],[-3.880727,52.118676],[-3.880632,52.118546],[-3.880575,52.118331],[-3.880489,52.11811],[-3.880373,52.117882],[-3.880087,52.117705],[-3.87963,52.117578],[-3.87932,52.117527],[-3.879158,52.117553],[-3.879056,52.117491],[-3.879015,52.117342],[-3.878995,52.117079],[-3.878997,52.116703],[-3.878857,52.116414],[-3.878574,52.116213],[-3.878147,52.115971],[-3.877576,52.11569],[-3.877099,52.115394],[-3.876716,52.115084],[-3.876444,52.114864],[-3.876283,52.114736],[-3.876088,52.114588],[-3.87586,52.11442],[-3.875578,52.114309],[-3.875243,52.114255],[-3.874777,52.114307],[-3.87418,52.114465],[-3.873709,52.114642],[-3.873365,52.114837],[-3.873151,52.115027],[-3.873066,52.115211],[-3.87306,52.115453],[-3.873133,52.115754],[-3.873265,52.116033],[-3.873457,52.116293],[-3.87366,52.116503],[-3.873876,52.116666],[-3.873958,52.116787],[-3.873906,52.116867],[-3.873802,52.116919],[-3.873646,52.116945],[-3.87337,52.117028],[-3.872976,52.117168],[-3.872821,52.117284],[-3.872904,52.117375],[-3.873043,52.117432],[-3.873237,52.117456],[-3.873499,52.117469],[-3.873828,52.11747],[-3.874191,52.11744],[-3.874589,52.11738],[-3.8749,52.117393],[-3.875125,52.117481],[-3.875253,52.11759],[-3.875283,52.117721],[-3.875173,52.117895],[-3.874924,52.118112],[-3.874778,52.11824],[-3.874735,52.118279],[-3.874639,52.118354],[-3.874487,52.118466],[-3.874232,52.11856],[-3.873872,52.118636],[-3.873605,52.118715],[-3.87343,52.118798],[-3.873242,52.118843],[-3.87304,52.118853],[-3.872837,52.11885],[-3.872635,52.118833],[-3.872487,52.118764],[-3.872393,52.11864],[-3.87227,52.118527],[-3.872117,52.118425],[-3.871991,52.118373],[-3.871891,52.118371],[-3.871831,52.118405],[-3.871809,52.118475],[-3.871829,52.118607],[-3.87189,52.118801],[-3.871922,52.119025],[-3.871926,52.11928],[-3.871882,52.119473],[-3.871792,52.119604],[-3.871689,52.119727],[-3.871571,52.119842],[-3.871504,52.11996],[-3.871488,52.120083],[-3.871411,52.120293],[-3.871273,52.120591],[-3.871089,52.120754],[-3.870861,52.120781],[-3.870345,52.120838],[-3.869541,52.120924],[-3.868899,52.121078],[-3.868419,52.121299],[-3.867926,52.121526],[-3.867422,52.121758],[-3.866702,52.122089],[-3.865766,52.122519],[-3.865143,52.12289],[-3.864833,52.123203],[-3.864552,52.123452],[-3.8643,52.123637],[-3.863847,52.123764],[-3.863192,52.123833],[-3.862777,52.123792],[-3.862603,52.12364],[-3.862532,52.123506],[-3.862566,52.12339],[-3.862775,52.123249],[-3.86316,52.123082],[-3.863584,52.122842],[-3.864049,52.122528],[-3.86423,52.122274],[-3.864126,52.122079],[-3.863914,52.121919],[-3.863592,52.121793],[-3.863052,52.121823],[-3.862292,52.122007],[-3.861446,52.122207],[-3.860513,52.122421],[-3.859678,52.122701],[-3.858941,52.123047],[-3.85816,52.123653],[-3.857333,52.124518],[-3.856922,52.125072],[-3.856928,52.125313],[-3.856954,52.125551],[-3.857,52.125787],[-3.857246,52.125896],[-3.857691,52.125878],[-3.858181,52.125846],[-3.858716,52.1258],[-3.859127,52.125829],[-3.859414,52.125933],[-3.859499,52.126091],[-3.859382,52.126303],[-3.859002,52.12646],[-3.858358,52.126562],[-3.85778,52.126631],[-3.857269,52.126665],[-3.856656,52.12682],[-3.855939,52.127095],[-3.855498,52.127263],[-3.855335,52.127326],[-3.855254,52.127357],[-3.855255,52.127358],[-3.855179,52.127381],[-3.855026,52.127426],[-3.854863,52.127469],[-3.85469,52.12751],[-3.854434,52.127504],[-3.854096,52.127451],[-3.853668,52.127517],[-3.853152,52.127702],[-3.852756,52.127868],[-3.85248,52.128015],[-3.852149,52.128199],[-3.851763,52.128421],[-3.851492,52.128691],[-3.851339,52.129009],[-3.851254,52.129356],[-3.851236,52.12973],[-3.851249,52.130039],[-3.851292,52.130283],[-3.851461,52.13047],[-3.851756,52.1306],[-3.852075,52.130702],[-3.85242,52.130776],[-3.852689,52.130852],[-3.852884,52.130933],[-3.852923,52.131084],[-3.852806,52.131304],[-3.852543,52.131568],[-3.852132,52.131876],[-3.851685,52.132203],[-3.851202,52.13255],[-3.850813,52.132736],[-3.850516,52.132761],[-3.850039,52.132589],[-3.849382,52.132222],[-3.848888,52.131996],[-3.848557,52.131911],[-3.848149,52.131907],[-3.847666,52.131985],[-3.847284,52.132087],[-3.847003,52.132213],[-3.846726,52.132355],[-3.846454,52.132511],[-3.846315,52.132688],[-3.846309,52.132886],[-3.846228,52.133138],[-3.846071,52.133447],[-3.845825,52.133657],[-3.845488,52.133769],[-3.845145,52.13381],[-3.844797,52.133779],[-3.844496,52.133628],[-3.844243,52.133358],[-3.84408,52.133237],[-3.844007,52.133265],[-3.843689,52.133411],[-3.843126,52.133676],[-3.842549,52.133909],[-3.84196,52.134112],[-3.841613,52.134272],[-3.841508,52.134389],[-3.841413,52.134583],[-3.841329,52.134851],[-3.841527,52.135133],[-3.842009,52.135428],[-3.842643,52.135669],[-3.843429,52.135855],[-3.844055,52.135987],[-3.844519,52.136064],[-3.844868,52.13619],[-3.845104,52.136364],[-3.845429,52.136625],[-3.845844,52.136972],[-3.846218,52.137247],[-3.846551,52.137449],[-3.846988,52.137579],[-3.847527,52.137636],[-3.847823,52.137666],[-3.847875,52.137669],[-3.847916,52.137682],[-3.847946,52.137704],[-3.848067,52.137767],[-3.84828,52.137871],[-3.848544,52.137989],[-3.848862,52.13812],[-3.849129,52.138217],[-3.849348,52.138278],[-3.849517,52.138305],[-3.849636,52.138297],[-3.849774,52.138333],[-3.849931,52.138414],[-3.850107,52.138538],[-3.850302,52.138706],[-3.850466,52.138829],[-3.850598,52.138907],[-3.850708,52.138997],[-3.850795,52.139099],[-3.851037,52.139247],[-3.851436,52.139439],[-3.85184,52.139649],[-3.852249,52.139874],[-3.852736,52.140086],[-3.8533,52.140286],[-3.853688,52.140427],[-3.853899,52.140509],[-3.854154,52.140609],[-3.854453,52.140727],[-3.854688,52.140902],[-3.85486,52.141136],[-3.855287,52.141368],[-3.855971,52.141601],[-3.856455,52.141751],[-3.856737,52.141817],[-3.85701,52.141868],[-3.857272,52.141904],[-3.857494,52.142075],[-3.857678,52.14238],[-3.85801,52.142691],[-3.858491,52.143007],[-3.859313,52.143123],[-3.860475,52.143039],[-3.861129,52.143005],[-3.861276,52.143021],[-3.861481,52.14303],[-3.861743,52.143032],[-3.862288,52.142981],[-3.863117,52.142876],[-3.863787,52.142824],[-3.864299,52.142823],[-3.864909,52.142849],[-3.865617,52.1429],[-3.866054,52.143011],[-3.866222,52.143181],[-3.866399,52.143377],[-3.866586,52.143599],[-3.866757,52.1438],[-3.866914,52.14398],[-3.867066,52.144133],[-3.867214,52.144258],[-3.867247,52.144389],[-3.867165,52.144526],[-3.867076,52.144638],[-3.866979,52.144726],[-3.866896,52.144807],[-3.866828,52.144882],[-3.866939,52.144945],[-3.867231,52.144997],[-3.867405,52.14506],[-3.867461,52.145135],[-3.867588,52.145248],[-3.867785,52.145398],[-3.867847,52.145502],[-3.867775,52.145558],[-3.867834,52.145737],[-3.868024,52.146039],[-3.868473,52.146256],[-3.869181,52.146388],[-3.86967,52.146472],[-3.869939,52.146507],[-3.870305,52.146634],[-3.870769,52.146853],[-3.871057,52.147035],[-3.871171,52.14718],[-3.871225,52.147331],[-3.871221,52.14749],[-3.871029,52.147571],[-3.87065,52.147574],[-3.870261,52.147657],[-3.869864,52.147821],[-3.869592,52.147949],[-3.869445,52.148041],[-3.869385,52.148177],[-3.869415,52.148356],[-3.869534,52.148517],[-3.869741,52.148659],[-3.869995,52.148708],[-3.870294,52.148664],[-3.870541,52.14863],[-3.870738,52.148607],[-3.870974,52.148708],[-3.871249,52.148933],[-3.87157,52.149111],[-3.871938,52.149242],[-3.872203,52.149265],[-3.872366,52.149179],[-3.872516,52.149074],[-3.872654,52.14895],[-3.872932,52.148863],[-3.873352,52.148813],[-3.873564,52.148863],[-3.873571,52.149012],[-3.873438,52.149131],[-3.873168,52.149221],[-3.873243,52.149329],[-3.873663,52.149454],[-3.87402,52.149445],[-3.874315,52.149302],[-3.874965,52.148863],[-3.87597,52.148129],[-3.876875,52.147443],[-3.87768,52.146808],[-3.878219,52.146382],[-3.87849,52.146167],[-3.878823,52.145949],[-3.879215,52.145728],[-3.879559,52.145504],[-3.879854,52.145278],[-3.880132,52.145232],[-3.880393,52.145368],[-3.880637,52.145538],[-3.880865,52.145744],[-3.881057,52.145921],[-3.881212,52.146069],[-3.881501,52.146168],[-3.881925,52.146217],[-3.882343,52.146251],[-3.882757,52.146268],[-3.883145,52.146314],[-3.883508,52.146387],[-3.884152,52.146618],[-3.885077,52.147008],[-3.88604,52.147089],[-3.887043,52.146862],[-3.887786,52.146591],[-3.888271,52.146275],[-3.888473,52.145969],[-3.888393,52.145671],[-3.888315,52.145361],[-3.88824,52.145039],[-3.888371,52.144779],[-3.888706,52.14458],[-3.889014,52.144382],[-3.889293,52.144184],[-3.889578,52.144004],[-3.889869,52.143843],[-3.890052,52.143698],[-3.890125,52.143569],[-3.890106,52.14346],[-3.889995,52.143372],[-3.889845,52.143355],[-3.889655,52.143409],[-3.889472,52.143421],[-3.889297,52.143391],[-3.889119,52.143387],[-3.888939,52.143408],[-3.888706,52.14349],[-3.888419,52.143631],[-3.888192,52.143788],[-3.888024,52.143959],[-3.887925,52.144037],[-3.887893,52.144023],[-3.887816,52.143969],[-3.887693,52.143876],[-3.8876,52.143795],[-3.887537,52.143727],[-3.887563,52.143613],[-3.887678,52.143453],[-3.888027,52.143196],[-3.88861,52.142842],[-3.889642,52.142206],[-3.891125,52.141288],[-3.892242,52.140724],[-3.892994,52.140514],[-3.893585,52.140416],[-3.894014,52.140428],[-3.894302,52.140324],[-3.89445,52.140104],[-3.894571,52.139928],[-3.894664,52.139796],[-3.894713,52.139575],[-3.894718,52.139263],[-3.894906,52.139152],[-3.895276,52.139242],[-3.89554,52.139305],[-3.895697,52.139344],[-3.895763,52.139273],[-3.895737,52.139092],[-3.895589,52.138967],[-3.895318,52.138897],[-3.895017,52.138863],[-3.894686,52.138865],[-3.894395,52.138829],[-3.894144,52.138758],[-3.893974,52.138695],[-3.893885,52.138643],[-3.893791,52.13859],[-3.893691,52.138539],[-3.893618,52.138482],[-3.893569,52.138421],[-3.893563,52.13839],[-3.893598,52.13839],[-3.893732,52.138378],[-3.893964,52.138356],[-3.894186,52.138306],[-3.8944,52.138226],[-3.894604,52.138118],[-3.894799,52.137981],[-3.895014,52.137841],[-3.895247,52.137697],[-3.895498,52.13755],[-3.895769,52.137399],[-3.896069,52.137251],[-3.896399,52.137106],[-3.896758,52.136965],[-3.897148,52.136827],[-3.897461,52.136706],[-3.897697,52.136602],[-3.897858,52.136515],[-3.897942,52.136446],[-3.898007,52.13638],[-3.898054,52.136318],[-3.898082,52.136259],[-3.898091,52.136204],[-3.898144,52.136156],[-3.898241,52.136114],[-3.898383,52.13608],[-3.898569,52.136052],[-3.898736,52.136028],[-3.898885,52.136006],[-3.899017,52.135988],[-3.899129,52.135972],[-3.899216,52.135978],[-3.899276,52.136006],[-3.89931,52.136056],[-3.899318,52.136128],[-3.899417,52.136186],[-3.899606,52.13623],[-3.899886,52.136261],[-3.900257,52.136279],[-3.900599,52.136275],[-3.900912,52.13625],[-3.901196,52.136202],[-3.901451,52.136133],[-3.901667,52.136058],[-3.901842,52.135975],[-3.901978,52.135886],[-3.902073,52.13579],[-3.902155,52.135591],[-3.902224,52.13529],[-3.902279,52.134887],[-3.902321,52.134381],[-3.902395,52.134018],[-3.902501,52.133797],[-3.902631,52.133716],[-3.902785,52.133773],[-3.903098,52.134222],[-3.903571,52.135062],[-3.904123,52.135811],[-3.904755,52.13647],[-3.905272,52.136857],[-3.905676,52.136973],[-3.905959,52.137043],[-3.906122,52.137067],[-3.906429,52.1371],[-3.906879,52.137141],[-3.907213,52.137171],[-3.90743,52.137188],[-3.907628,52.137234],[-3.907806,52.137307],[-3.907933,52.137396],[-3.908008,52.137499],[-3.908099,52.137556],[-3.908205,52.137566],[-3.908299,52.137634],[-3.908381,52.137759],[-3.908528,52.137878],[-3.90874,52.137992],[-3.908935,52.138081],[-3.909113,52.138144],[-3.909273,52.138183],[-3.909416,52.138197],[-3.909551,52.138225],[-3.909678,52.138268],[-3.909796,52.138325],[-3.909907,52.138397],[-3.910007,52.138493],[-3.910095,52.138613],[-3.910173,52.138758],[-3.910239,52.138927],[-3.910277,52.139067],[-3.910287,52.139178],[-3.910268,52.139259],[-3.910222,52.139311],[-3.910128,52.139363],[-3.909987,52.139414],[-3.909798,52.139465],[-3.909563,52.139516],[-3.909341,52.139574],[-3.909135,52.139637],[-3.908942,52.139706],[-3.908764,52.139781],[-3.908615,52.139856],[-3.908494,52.139932],[-3.908402,52.140009],[-3.908338,52.140086],[-3.90831,52.140133],[-3.908317,52.14015],[-3.908235,52.140164]],[[-3.887167,52.132197],[-3.887239,52.1316],[-3.887307,52.131281],[-3.887373,52.131238],[-3.887516,52.13119],[-3.887737,52.131137],[-3.887971,52.131074],[-3.88822,52.131003],[-3.888479,52.130927],[-3.888748,52.130847],[-3.889025,52.130741],[-3.889312,52.130611],[-3.889505,52.13047],[-3.889604,52.13032],[-3.889712,52.130141],[-3.889827,52.129934],[-3.889888,52.12975],[-3.889894,52.12959],[-3.889928,52.12943],[-3.889991,52.129271],[-3.89008,52.129194],[-3.890195,52.129202],[-3.890403,52.129232],[-3.890703,52.129287],[-3.890956,52.129391],[-3.891164,52.129547],[-3.89127,52.129669],[-3.891276,52.129758],[-3.891254,52.129885],[-3.891204,52.130051],[-3.891142,52.1303],[-3.891066,52.130634],[-3.891011,52.13098],[-3.890977,52.131337],[-3.890945,52.131645],[-3.890913,52.131905],[-3.890875,52.132231],[-3.89083,52.132624],[-3.890838,52.132972],[-3.8909,52.133276],[-3.890924,52.133512],[-3.890909,52.13368],[-3.890788,52.133764],[-3.890562,52.133763],[-3.890263,52.133712],[-3.889892,52.13361],[-3.889399,52.133465],[-3.888785,52.133275],[-3.888268,52.133104],[-3.887847,52.132954],[-3.88751,52.132782],[-3.887258,52.132591],[-3.887167,52.132197]],[[-3.875165,52.132274],[-3.87514,52.132106],[-3.875207,52.131966],[-3.875366,52.131853],[-3.875531,52.131778],[-3.8757,52.131741],[-3.875922,52.131693],[-3.876197,52.131635],[-3.876403,52.131538],[-3.876541,52.131403],[-3.876601,52.131259],[-3.876581,52.131108],[-3.876557,52.130966],[-3.876529,52.130833],[-3.876512,52.13069],[-3.876505,52.130537],[-3.876574,52.130379],[-3.876718,52.130217],[-3.876871,52.130084],[-3.877033,52.129979],[-3.877269,52.129866],[-3.877579,52.129744],[-3.877888,52.129686],[-3.878197,52.129692],[-3.878413,52.129782],[-3.878538,52.129955],[-3.8786,52.130131],[-3.878601,52.13031],[-3.878655,52.130504],[-3.878763,52.130713],[-3.878955,52.130856],[-3.87923,52.130935],[-3.87953,52.131023],[-3.879854,52.131121],[-3.879961,52.13124],[-3.879852,52.131381],[-3.879623,52.131472],[-3.879274,52.131514],[-3.879041,52.131571],[-3.878925,52.131645],[-3.878773,52.131739],[-3.878587,52.131855],[-3.878396,52.131933],[-3.878199,52.131974],[-3.878019,52.132042],[-3.877854,52.132138],[-3.877356,52.132261],[-3.876525,52.132411],[-3.87602,52.132467],[-3.875841,52.132428],[-3.875607,52.132396],[-3.875321,52.13237],[-3.875165,52.132274]],[[-3.87557,52.127973],[-3.875544,52.128057],[-3.87541,52.128167],[-3.875169,52.128302],[-3.87491,52.128425],[-3.874634,52.128536],[-3.874093,52.128679],[-3.873287,52.128853],[-3.872892,52.128645],[-3.872907,52.128055],[-3.872942,52.127742],[-3.872995,52.127708],[-3.873069,52.127668],[-3.873165,52.127624],[-3.87335,52.127585],[-3.873623,52.127552],[-3.874017,52.127525],[-3.874532,52.127504],[-3.874822,52.127486],[-3.874887,52.127472],[-3.87492,52.127466],[-3.87492,52.127467],[-3.87494,52.1275],[-3.874978,52.127563],[-3.875101,52.127661],[-3.875309,52.127794],[-3.875455,52.127878],[-3.875541,52.127914],[-3.87557,52.127973]],[[-3.867154,52.139983],[-3.869521,52.138994],[-3.869586,52.138972],[-3.869941,52.138871],[-3.870307,52.13896],[-3.870518,52.138788],[-3.870479,52.138512],[-3.870475,52.138423],[-3.870641,52.138182],[-3.871235,52.137846],[-3.871538,52.137736],[-3.872002,52.137829],[-3.872083,52.138011],[-3.872235,52.138185],[-3.872112,52.138407],[-3.871937,52.138619],[-3.871758,52.138892],[-3.871267,52.139171],[-3.87103,52.139569],[-3.871128,52.139956],[-3.870513,52.140073],[-3.870412,52.139982],[-3.870266,52.139748],[-3.869926,52.139818],[-3.86958,52.140021],[-3.868766,52.140428],[-3.86793,52.140379],[-3.867534,52.1405],[-3.867018,52.140472],[-3.86697,52.140242],[-3.867154,52.139983]],[[-3.865115,52.138571],[-3.866491,52.137271],[-3.866726,52.137095],[-3.8671,52.136903],[-3.867413,52.136748],[-3.867882,52.136707],[-3.868067,52.136833],[-3.868601,52.136918],[-3.868669,52.136983],[-3.86904,52.137087],[-3.868959,52.137289],[-3.868824,52.137319],[-3.868697,52.137453],[-3.868409,52.137457],[-3.867871,52.137358],[-3.86707,52.137498],[-3.866929,52.137662],[-3.867252,52.137845],[-3.86785,52.137981],[-3.868323,52.138102],[-3.868636,52.138331],[-3.869019,52.138552],[-3.869012,52.138833],[-3.868603,52.138837],[-3.868106,52.138793],[-3.867607,52.138896],[-3.866962,52.13884],[-3.866728,52.139015],[-3.86568,52.139213],[-3.865421,52.139465],[-3.864952,52.139506],[-3.864694,52.1393],[-3.864635,52.139115],[-3.864707,52.138885],[-3.865115,52.138571]],[[-3.869698,52.136265],[-3.870376,52.136096],[-3.870363,52.135978],[-3.870337,52.135817],[-3.870244,52.135679],[-3.869988,52.13556],[-3.869612,52.13553],[-3.869264,52.135586],[-3.868822,52.135653],[-3.868526,52.135643],[-3.868379,52.135407],[-3.868446,52.13531],[-3.868918,52.13503],[-3.869348,52.13477],[-3.869675,52.134493],[-3.869992,52.134261],[-3.869999,52.134126],[-3.869883,52.133991],[-3.869535,52.133972],[-3.868831,52.133981],[-3.868575,52.133788],[-3.868475,52.133471],[-3.868931,52.133447],[-3.869606,52.133501],[-3.87017,52.133434],[-3.870885,52.133305],[-3.871803,52.133122],[-3.872599,52.132863],[-3.873216,52.132656],[-3.873667,52.132617],[-3.874187,52.13272],[-3.874475,52.133014],[-3.874991,52.13349],[-3.875315,52.133899],[-3.87554,52.13438],[-3.875246,52.135146],[-3.874513,52.135605],[-3.874248,52.136234],[-3.874,52.136532],[-3.872998,52.136755],[-3.872668,52.136868],[-3.872204,52.136789],[-3.871482,52.136666],[-3.871363,52.136441],[-3.870947,52.136282],[-3.870549,52.136567],[-3.870093,52.136666],[-3.869812,52.13655],[-3.869698,52.136265]],[[-3.857152,52.137229],[-3.859164,52.135723],[-3.859294,52.135439],[-3.859321,52.135137],[-3.859399,52.134844],[-3.859635,52.134742],[-3.860074,52.134585],[-3.860529,52.134561],[-3.860738,52.13476],[-3.860783,52.134979],[-3.860751,52.135266],[-3.860491,52.135446],[-3.860078,52.135838],[-3.859599,52.136253],[-3.859082,52.136389],[-3.858545,52.136542],[-3.858286,52.13696],[-3.858248,52.137457],[-3.858016,52.137649],[-3.857433,52.137658],[-3.85721,52.137491],[-3.857152,52.137229]],[[-3.860669,52.135932],[-3.861107,52.135388],[-3.861233,52.135403],[-3.861492,52.135372],[-3.862044,52.135113],[-3.86224,52.135269],[-3.862271,52.13537],[-3.862213,52.135571],[-3.862299,52.135844],[-3.862128,52.135998],[-3.861574,52.136019],[-3.86136,52.13588],[-3.861228,52.135926],[-3.860893,52.136025],[-3.860691,52.136004],[-3.860669,52.135932]],[[-3.862965,52.135094],[-3.863379,52.134552],[-3.863431,52.134486],[-3.863712,52.13414],[-3.863944,52.134023],[-3.864376,52.134001],[-3.864657,52.134043],[-3.864904,52.134207],[-3.864803,52.134428],[-3.864679,52.134577],[-3.864452,52.134783],[-3.864162,52.135101],[-3.863877,52.135359],[-3.863654,52.135579],[-3.86299,52.135792],[-3.862915,52.135711],[-3.862903,52.135593],[-3.86299,52.135329],[-3.862965,52.135094]],[[-3.877346,52.13855],[-3.877834,52.138369],[-3.877692,52.138176],[-3.877468,52.138042],[-3.877271,52.137991],[-3.876692,52.137949],[-3.875844,52.137753],[-3.875734,52.13747],[-3.875871,52.137071],[-3.87622,52.13677],[-3.877004,52.136443],[-3.877911,52.136249],[-3.878375,52.13612],[-3.878737,52.13567],[-3.879191,52.135381],[-3.87999,52.135101],[-3.880607,52.134757],[-3.881329,52.134424],[-3.882976,52.134081],[-3.88413,52.133709],[-3.885418,52.133446],[-3.886267,52.133258],[-3.887654,52.133242],[-3.887994,52.133362],[-3.888189,52.13366],[-3.887989,52.133857],[-3.887637,52.134083],[-3.887674,52.134264],[-3.888384,52.134341],[-3.888753,52.134297],[-3.889518,52.133971],[-3.889914,52.133949],[-3.890007,52.133987],[-3.89013,52.134183],[-3.890143,52.134416],[-3.88995,52.134636],[-3.889472,52.135039],[-3.889167,52.135223],[-3.888831,52.135436],[-3.88828,52.135735],[-3.887054,52.136325],[-3.886332,52.136658],[-3.885624,52.136717],[-3.885275,52.136697],[-3.884711,52.136764],[-3.883742,52.136891],[-3.883229,52.136989],[-3.882782,52.137301],[-3.881609,52.138057],[-3.880836,52.13842],[-3.880044,52.138724],[-3.879213,52.139033],[-3.878742,52.139138],[-3.878393,52.139117],[-3.878208,52.138979],[-3.878054,52.138812],[-3.877601,52.138718],[-3.877267,52.138683],[-3.877346,52.13855]],[[-3.872949,52.142226],[-3.873637,52.142131],[-3.873656,52.141978],[-3.873667,52.141798],[-3.873675,52.141467],[-3.873516,52.141321],[-3.873337,52.141109],[-3.873622,52.140732],[-3.87409,52.140581],[-3.874363,52.140521],[-3.874673,52.140292],[-3.875093,52.140132],[-3.875491,52.140112],[-3.875777,52.140024],[-3.875771,52.139791],[-3.875635,52.139574],[-3.876043,52.139443],[-3.876427,52.139452],[-3.876637,52.13962],[-3.876487,52.139926],[-3.876767,52.139961],[-3.877065,52.14005],[-3.877058,52.140243],[-3.876732,52.140418],[-3.876135,52.140517],[-3.875757,52.140671],[-3.875521,52.140988],[-3.87537,52.141363],[-3.875192,52.141796],[-3.874536,52.142134],[-3.874052,52.142521],[-3.873819,52.142919],[-3.873364,52.143042],[-3.87314,52.142904],[-3.872977,52.142813],[-3.872645,52.142756],[-3.872414,52.142592],[-3.872562,52.142423],[-3.872949,52.142226]],[[-3.877519,52.142412],[-3.8785,52.141609],[-3.878607,52.14124],[-3.878804,52.14101],[-3.879259,52.140888],[-3.879662,52.140813],[-3.880024,52.140536],[-3.880291,52.140175],[-3.88063,52.13997],[-3.881393,52.139756],[-3.881459,52.139611],[-3.881399,52.139563],[-3.880852,52.139463],[-3.880802,52.139236],[-3.881081,52.139052],[-3.881299,52.138889],[-3.88166,52.138612],[-3.882133,52.138474],[-3.882504,52.138512],[-3.882693,52.138613],[-3.882756,52.138743],[-3.882642,52.13888],[-3.882278,52.139006],[-3.882064,52.139251],[-3.882216,52.139521],[-3.88253,52.139662],[-3.88281,52.139767],[-3.88282,52.140013],[-3.882268,52.140325],[-3.881639,52.140606],[-3.881129,52.140625],[-3.880822,52.141005],[-3.880386,52.1414],[-3.879506,52.141669],[-3.878853,52.142089],[-3.878268,52.142653],[-3.877964,52.142826],[-3.877523,52.142782],[-3.877356,52.142679],[-3.877318,52.14256],[-3.877519,52.142412]],[[-3.883038,52.142688],[-3.88371,52.142682],[-3.883874,52.142874],[-3.884036,52.14295],[-3.884218,52.143087],[-3.884137,52.143213],[-3.88388,52.143275],[-3.883586,52.143331],[-3.883382,52.143503],[-3.883028,52.143587],[-3.882813,52.143454],[-3.882816,52.143243],[-3.882928,52.142997],[-3.883038,52.142688]],[[-3.884005,52.14214],[-3.884345,52.14174],[-3.884478,52.141724],[-3.884681,52.141764],[-3.884666,52.141934],[-3.884798,52.142025],[-3.885009,52.1422],[-3.884839,52.142263],[-3.884598,52.142323],[-3.884581,52.142431],[-3.884343,52.142554],[-3.884021,52.142518],[-3.883983,52.142343],[-3.884005,52.14214]],[[-3.883199,52.140629],[-3.883775,52.13999],[-3.884056,52.13984],[-3.884769,52.139692],[-3.885042,52.139681],[-3.885924,52.139629],[-3.886226,52.139762],[-3.886402,52.13972],[-3.886507,52.13956],[-3.886472,52.139448],[-3.886414,52.139211],[-3.886496,52.139086],[-3.886606,52.139051],[-3.886797,52.139219],[-3.886902,52.139333],[-3.887068,52.139694],[-3.887168,52.139957],[-3.887289,52.140175],[-3.88751,52.140329],[-3.887402,52.140532],[-3.887015,52.140567],[-3.886786,52.140605],[-3.886555,52.14097],[-3.886444,52.141163],[-3.885905,52.141153],[-3.885777,52.141021],[-3.885718,52.14089],[-3.885609,52.140818],[-3.885379,52.140856],[-3.885307,52.141066],[-3.885425,52.141274],[-3.885647,52.141321],[-3.885929,52.141394],[-3.885997,52.141555],[-3.885939,52.141699],[-3.885587,52.141677],[-3.885408,52.14155],[-3.885103,52.141513],[-3.884823,52.141504],[-3.884613,52.141275],[-3.884374,52.141176],[-3.884049,52.14113],[-3.884014,52.141018],[-3.883776,52.140814],[-3.8835,52.140868],[-3.883345,52.141034],[-3.882942,52.141346],[-3.882607,52.141322],[-3.882558,52.141223],[-3.882595,52.141123],[-3.882796,52.140993],[-3.882947,52.14087],[-3.883199,52.140629]],[[-3.887692,52.138569],[-3.888543,52.137924],[-3.888892,52.137882],[-3.889013,52.137848],[-3.889167,52.137658],[-3.88941,52.137539],[-3.889734,52.13752],[-3.890143,52.137512],[-3.89036,52.137466],[-3.8905,52.137389],[-3.890689,52.137256],[-3.890886,52.137202],[-3.891022,52.137267],[-3.89095,52.137457],[-3.890986,52.137624],[-3.890889,52.137787],[-3.890662,52.137955],[-3.890673,52.138145],[-3.890366,52.138373],[-3.890217,52.138683],[-3.890112,52.138928],[-3.889582,52.139021],[-3.889328,52.13895],[-3.888915,52.138999],[-3.888836,52.139271],[-3.888577,52.139443],[-3.888126,52.139476],[-3.88781,52.139413],[-3.887663,52.139158],[-3.88749,52.139027],[-3.887159,52.138814],[-3.887231,52.138624],[-3.887692,52.138569]],[[-3.891735,52.136111],[-3.892946,52.134344],[-3.893086,52.134295],[-3.893408,52.134161],[-3.894333,52.133876],[-3.89442,52.133739],[-3.894689,52.133356],[-3.894872,52.133112],[-3.895136,52.132794],[-3.895117,52.132653],[-3.895405,52.132412],[-3.895972,52.132313],[-3.896134,52.132166],[-3.896087,52.131933],[-3.895757,52.131797],[-3.895166,52.131819],[-3.894864,52.131521],[-3.895058,52.131147],[-3.895336,52.130876],[-3.895597,52.130797],[-3.895666,52.130932],[-3.895714,52.131165],[-3.895856,52.131451],[-3.896282,52.13148],[-3.896552,52.131511],[-3.897041,52.131167],[-3.897439,52.130944],[-3.898177,52.130809],[-3.899232,52.130525],[-3.899908,52.130524],[-3.900406,52.130783],[-3.900615,52.130949],[-3.900929,52.131119],[-3.901128,52.131255],[-3.901292,52.131856],[-3.901427,52.132365],[-3.901333,52.132727],[-3.900549,52.133457],[-3.900351,52.133735],[-3.900022,52.134093],[-3.899717,52.134527],[-3.899398,52.134835],[-3.899235,52.135062],[-3.898614,52.135565],[-3.898484,52.135565],[-3.897707,52.135577],[-3.896901,52.135498],[-3.896773,52.135338],[-3.896845,52.135075],[-3.897327,52.13454],[-3.898046,52.134264],[-3.898585,52.133993],[-3.898702,52.133867],[-3.89885,52.133595],[-3.898798,52.133267],[-3.898405,52.133011],[-3.89802,52.132945],[-3.897678,52.133097],[-3.897402,52.133544],[-3.897035,52.133699],[-3.896262,52.133807],[-3.895679,52.134019],[-3.895207,52.134171],[-3.895019,52.1344],[-3.894567,52.134947],[-3.89396,52.135576],[-3.892794,52.136415],[-3.892414,52.136779],[-3.891746,52.13697],[-3.891085,52.136937],[-3.890845,52.136838],[-3.890602,52.136644],[-3.890704,52.136472],[-3.891237,52.136266],[-3.891539,52.13615],[-3.891735,52.136111]],[[-3.867306,52.12839],[-3.867761,52.128176],[-3.867933,52.128169],[-3.868228,52.128414],[-3.868189,52.128565],[-3.867872,52.128803],[-3.867727,52.128967],[-3.867579,52.129118],[-3.867489,52.129315],[-3.867347,52.129558],[-3.867032,52.129596],[-3.866823,52.129554],[-3.866341,52.129478],[-3.866273,52.129259],[-3.866624,52.128924],[-3.867306,52.12839]],[[-3.863983,52.126903],[-3.863951,52.126387],[-3.864402,52.126227],[-3.864666,52.126236],[-3.864812,52.126285],[-3.865043,52.126258],[-3.865843,52.12603],[-3.866404,52.125737],[-3.866847,52.125484],[-3.867352,52.125358],[-3.867476,52.125476],[-3.867433,52.125615],[-3.86773,52.125726],[-3.867758,52.125816],[-3.867307,52.126043],[-3.866749,52.126416],[-3.866075,52.126629],[-3.86544,52.126824],[-3.864812,52.127459],[-3.864326,52.127783],[-3.863911,52.127712],[-3.863863,52.127491],[-3.863962,52.127253],[-3.863983,52.126903]],[[-3.869374,52.126518],[-3.870057,52.126197],[-3.870112,52.126097],[-3.870381,52.126052],[-3.870776,52.125992],[-3.870631,52.125809],[-3.870128,52.125802],[-3.870357,52.125562],[-3.870803,52.125455],[-3.871126,52.125511],[-3.871526,52.12533],[-3.871765,52.124981],[-3.872131,52.124898],[-3.872727,52.124854],[-3.873039,52.12467],[-3.873335,52.124502],[-3.873786,52.124622],[-3.873956,52.124815],[-3.873798,52.125074],[-3.873705,52.125192],[-3.873334,52.125329],[-3.872657,52.125529],[-3.872193,52.125717],[-3.871809,52.126296],[-3.871753,52.12681],[-3.87188,52.127141],[-3.871307,52.127329],[-3.871233,52.127231],[-3.871168,52.127026],[-3.870965,52.12673],[-3.870668,52.126685],[-3.870257,52.12704],[-3.870002,52.127404],[-3.869857,52.127981],[-3.870113,52.128311],[-3.870047,52.128585],[-3.869858,52.128608],[-3.869489,52.128611],[-3.869377,52.128531],[-3.869296,52.128274],[-3.869135,52.127973],[-3.868907,52.127734],[-3.86876,52.127404],[-3.86878,52.127122],[-3.869374,52.126518]],[[-3.87559,52.125778],[-3.875898,52.124918],[-3.876289,52.124861],[-3.876676,52.124795],[-3.877135,52.124792],[-3.877418,52.124769],[-3.877723,52.124764],[-3.877893,52.124817],[-3.877878,52.124986],[-3.877881,52.125319],[-3.877445,52.125558],[-3.877331,52.125791],[-3.876891,52.125905],[-3.876851,52.125889],[-3.876761,52.125712],[-3.87649,52.125661],[-3.87584,52.125978],[-3.875342,52.126235],[-3.875092,52.126358],[-3.874728,52.126339],[-3.874563,52.12614],[-3.874669,52.126044],[-3.87559,52.125778]],[[-3.878385,52.125082],[-3.878646,52.124936],[-3.87895,52.124984],[-3.879104,52.125038],[-3.879083,52.125135],[-3.878875,52.125232],[-3.878796,52.125304],[-3.878613,52.125534],[-3.878298,52.125561],[-3.878236,52.125475],[-3.87831,52.125331],[-3.878385,52.125082]],[[-3.878097,52.123469],[-3.878483,52.12334],[-3.878548,52.123332],[-3.878761,52.123359],[-3.878901,52.123478],[-3.879129,52.123555],[-3.879586,52.123491],[-3.879681,52.123521],[-3.879702,52.123644],[-3.879281,52.123767],[-3.878726,52.123843],[-3.87857,52.123778],[-3.878409,52.123755],[-3.878251,52.123847],[-3.877831,52.123866],[-3.87775,52.123771],[-3.877856,52.123623],[-3.878097,52.123469]],[[-3.871814,52.12098],[-3.872,52.120115],[-3.87233,52.119942],[-3.872451,52.11986],[-3.872707,52.119684],[-3.873431,52.119418],[-3.873764,52.119255],[-3.874271,52.119117],[-3.874644,52.119196],[-3.874812,52.119378],[-3.874793,52.119492],[-3.874823,52.119702],[-3.874417,52.11993],[-3.874196,52.120158],[-3.87383,52.120336],[-3.873212,52.120354],[-3.872883,52.120415],[-3.872578,52.120552],[-3.872451,52.120848],[-3.872775,52.120888],[-3.873143,52.120833],[-3.873435,52.121001],[-3.873777,52.120983],[-3.874188,52.121181],[-3.874053,52.121332],[-3.873898,52.121597],[-3.873934,52.121828],[-3.873513,52.121946],[-3.873174,52.121919],[-3.872757,52.121642],[-3.87228,52.121587],[-3.872183,52.121452],[-3.87192,52.121315],[-3.871786,52.121589],[-3.871525,52.121575],[-3.871445,52.121439],[-3.871609,52.121262],[-3.871814,52.12098]],[[-3.854034,52.130901],[-3.854361,52.130694],[-3.854516,52.130748],[-3.8545,52.130821],[-3.854455,52.131055],[-3.854306,52.131264],[-3.854184,52.131375],[-3.854105,52.131684],[-3.853685,52.132034],[-3.853506,52.131899],[-3.853513,52.13155],[-3.853641,52.131331],[-3.854034,52.130901]],[[-3.908734,52.144467],[-3.908658,52.14458],[-3.908478,52.14458],[-3.908106,52.144315],[-3.907627,52.144394],[-3.907714,52.14467],[-3.908003,52.144901],[-3.908263,52.145266],[-3.908012,52.145384],[-3.907463,52.145471],[-3.907353,52.145463],[-3.906715,52.145384],[-3.906769,52.145554],[-3.906538,52.145735],[-3.90602,52.145577],[-3.905395,52.145651],[-3.905169,52.145391],[-3.904894,52.145204],[-3.904694,52.145029],[-3.905168,52.144819],[-3.905412,52.144679],[-3.905268,52.144564],[-3.904582,52.144448],[-3.9045,52.144303],[-3.904919,52.144033],[-3.905166,52.143673],[-3.904876,52.143553],[-3.904567,52.14326],[-3.904972,52.142947],[-3.905329,52.142596],[-3.905712,52.142441],[-3.906555,52.142715],[-3.907004,52.142882],[-3.907909,52.143097],[-3.908252,52.143079],[-3.908727,52.143139],[-3.909003,52.14335],[-3.909208,52.143698],[-3.90962,52.143858],[-3.909611,52.144011],[-3.909343,52.144124],[-3.909092,52.144293],[-3.908734,52.144467]],[[-3.908202,52.146527],[-3.908909,52.146176],[-3.909289,52.146235],[-3.909645,52.146158],[-3.909808,52.145953],[-3.909747,52.145762],[-3.909911,52.145557],[-3.90985,52.145366],[-3.909786,52.145223],[-3.909715,52.14494],[-3.909853,52.144773],[-3.910217,52.144602],[-3.910522,52.144426],[-3.910896,52.144405],[-3.911107,52.144473],[-3.91119,52.144672],[-3.911081,52.144929],[-3.910754,52.145038],[-3.910344,52.145424],[-3.910372,52.145874],[-3.910875,52.146082],[-3.910981,52.146174],[-3.910681,52.146431],[-3.910621,52.146961],[-3.910205,52.147208],[-3.909638,52.147217],[-3.909104,52.147095],[-3.909022,52.146953],[-3.908576,52.146867],[-3.908435,52.147081],[-3.908032,52.147071],[-3.907631,52.146886],[-3.907641,52.146675],[-3.907818,52.146515],[-3.908202,52.146527]],[[-3.902951,52.147292],[-3.902784,52.147046],[-3.902706,52.14704],[-3.902588,52.147031],[-3.902584,52.146938],[-3.902725,52.14682],[-3.902932,52.146748],[-3.903067,52.146732],[-3.903176,52.146633],[-3.903452,52.146538],[-3.903594,52.146623],[-3.903806,52.146769],[-3.903892,52.147001],[-3.903729,52.14709],[-3.903636,52.14732],[-3.903399,52.147418],[-3.903053,52.147412],[-3.902951,52.147292]],[[-3.900862,52.146651],[-3.90111,52.146387],[-3.901081,52.146336],[-3.901208,52.146095],[-3.901799,52.145947],[-3.90226,52.145713],[-3.902652,52.145378],[-3.902903,52.145286],[-3.903406,52.145062],[-3.903361,52.144919],[-3.903172,52.144887],[-3.902904,52.144927],[-3.902645,52.145035],[-3.902474,52.144978],[-3.902571,52.144842],[-3.902877,52.144719],[-3.90315,52.144617],[-3.90345,52.144597],[-3.903771,52.144605],[-3.9039,52.144731],[-3.90392,52.144954],[-3.903865,52.145226],[-3.903691,52.14552],[-3.903382,52.145673],[-3.903057,52.145852],[-3.90289,52.14609],[-3.902671,52.146163],[-3.901984,52.146369],[-3.901858,52.146657],[-3.901403,52.146789],[-3.901071,52.146829],[-3.900988,52.14701],[-3.900656,52.147089],[-3.900476,52.146962],[-3.90056,52.146866],[-3.900862,52.146651]],[[-3.900582,52.144248],[-3.900183,52.143959],[-3.899864,52.143819],[-3.899822,52.143685],[-3.899913,52.143615],[-3.900221,52.143618],[-3.900625,52.143669],[-3.901219,52.143806],[-3.901572,52.143952],[-3.902203,52.144056],[-3.902596,52.144326],[-3.902485,52.144487],[-3.902066,52.144646],[-3.901621,52.144669],[-3.901155,52.144576],[-3.900954,52.144402],[-3.900582,52.144248]],[[-3.898817,52.14424],[-3.899433,52.144246],[-3.899482,52.144299],[-3.899706,52.144392],[-3.899897,52.144537],[-3.899849,52.144691],[-3.89949,52.144734],[-3.899361,52.144631],[-3.89924,52.144556],[-3.898897,52.144597],[-3.898594,52.144712],[-3.89804,52.145005],[-3.897818,52.145021],[-3.897445,52.145016],[-3.897314,52.144962],[-3.897163,52.144891],[-3.897526,52.14471],[-3.897841,52.144633],[-3.898079,52.144516],[-3.898301,52.1444],[-3.898817,52.14424]]]}}