{"type":"Feature","properties":{"id":"291387","COMMUNE":"New Forest","PROVINCE":"Central Hampshire","COUNTRY":"UK","FIREDATE":"2026-03-18 13:31:00","FINALDATE":"2026-03-18 13:31:00","CLASS":"FireSeason","areaHA_geo":1.85},"geometry":{"type":"Polygon","coordinates":[[[-1.49998,50.80454],[-1.500766,50.804496],[-1.501484,50.804484],[-1.502135,50.804506],[-1.502522,50.804514],[-1.502645,50.804511],[-1.502901,50.804494],[-1.503292,50.804463],[-1.503657,50.80444],[-1.503996,50.804423],[-1.504357,50.804413],[-1.504741,50.804409],[-1.504951,50.80437],[-1.504988,50.804297],[-1.504888,50.804173],[-1.504652,50.803997],[-1.504115,50.803934],[-1.503275,50.803984],[-1.502381,50.80403],[-1.50143,50.804074],[-1.50068,50.804097],[-1.500132,50.8041],[-1.499741,50.804156],[-1.499507,50.804266],[-1.49944,50.804382],[-1.499538,50.804502],[-1.49998,50.80454]]]}}