{"type":"Feature","properties":{"id":"291378","COMMUNE":"Powys","PROVINCE":"Powys","COUNTRY":"UK","FIREDATE":"2026-03-19 11:53:00","FINALDATE":"2026-03-19 14:33:00","CLASS":"FireSeason","areaHA_geo":11.766},"geometry":{"type":"Polygon","coordinates":[[[-3.234289,51.917483],[-3.234814,51.917831],[-3.235142,51.918116],[-3.235271,51.918337],[-3.235381,51.918512],[-3.235471,51.918643],[-3.23568,51.918679],[-3.236006,51.918618],[-3.236286,51.918445],[-3.23652,51.91816],[-3.237227,51.917816],[-3.238409,51.917416],[-3.239088,51.91717],[-3.239265,51.917079],[-3.239334,51.916903],[-3.239294,51.91664],[-3.239227,51.916353],[-3.239135,51.916042],[-3.238988,51.915721],[-3.238787,51.915391],[-3.238214,51.915095],[-3.237268,51.914833],[-3.236358,51.914752],[-3.235481,51.914852],[-3.234851,51.915025],[-3.234465,51.915273],[-3.234128,51.915468],[-3.233839,51.915611],[-3.233634,51.915799],[-3.233512,51.916032],[-3.233439,51.91628],[-3.233415,51.916542],[-3.233559,51.916832],[-3.233871,51.917149],[-3.234289,51.917483]]]}}