{"type":"Feature","properties":{"id":"291382","COMMUNE":"New Forest","PROVINCE":"Central Hampshire","COUNTRY":"UK","FIREDATE":"2026-03-19 00:00:00","CLASS":"FireSeason","areaHA_geo":6.014},"geometry":{"type":"Polygon","coordinates":[[[-1.516328,50.803163],[-1.516509,50.803298],[-1.516723,50.803446],[-1.516971,50.803607],[-1.517224,50.803699],[-1.517481,50.803722],[-1.517678,50.803694],[-1.517814,50.803615],[-1.518005,50.803393],[-1.518252,50.80303],[-1.51853,50.802769],[-1.518837,50.802613],[-1.519078,50.802465],[-1.519251,50.802328],[-1.519421,50.802174],[-1.519586,50.802004],[-1.519693,50.801788],[-1.51974,50.801527],[-1.519645,50.801216],[-1.519408,50.800857],[-1.519075,50.800634],[-1.518646,50.800546],[-1.518185,50.800554],[-1.517691,50.800658],[-1.517304,50.800809],[-1.517024,50.801007],[-1.516805,50.801256],[-1.516646,50.801556],[-1.516412,50.801869],[-1.516104,50.802196],[-1.515947,50.802367],[-1.515943,50.802384],[-1.516015,50.802568],[-1.516163,50.80292],[-1.516328,50.803163]]]}}