{"type":"Feature","properties":{"id":"291388","COMMUNE":"New Forest","PROVINCE":"Central Hampshire","COUNTRY":"UK","FIREDATE":"2026-03-19 00:00:00","CLASS":"FireSeason","areaHA_geo":0.755},"geometry":{"type":"Polygon","coordinates":[[[-1.503172,50.810439],[-1.503216,50.810554],[-1.503355,50.810658],[-1.503589,50.810749],[-1.503822,50.810804],[-1.504052,50.810822],[-1.504219,50.81079],[-1.504322,50.810706],[-1.504379,50.810596],[-1.504389,50.810462],[-1.504389,50.810358],[-1.504378,50.810286],[-1.504337,50.810163],[-1.504265,50.809991],[-1.504133,50.809873],[-1.503942,50.809809],[-1.50375,50.809798],[-1.503556,50.809841],[-1.503382,50.809992],[-1.503228,50.810251],[-1.503172,50.810439]]]}}