{"type":"Feature","properties":{"id":"291384","COMMUNE":"New Forest","PROVINCE":"Central Hampshire","COUNTRY":"UK","FIREDATE":"2026-03-05 13:46:00","CLASS":"FireSeason","areaHA_geo":3.919},"geometry":{"type":"Polygon","coordinates":[[[-1.502686,50.797348],[-1.503216,50.797336],[-1.503649,50.797375],[-1.503983,50.797465],[-1.504319,50.797587],[-1.504657,50.797742],[-1.505,50.797814],[-1.505349,50.797804],[-1.505666,50.797669],[-1.505953,50.797411],[-1.506152,50.79714],[-1.506264,50.796858],[-1.506423,50.796505],[-1.50663,50.796082],[-1.506718,50.795782],[-1.506687,50.795604],[-1.506386,50.795598],[-1.505815,50.795762],[-1.505232,50.79598],[-1.504637,50.796253],[-1.504178,50.796447],[-1.503856,50.796562],[-1.503471,50.796637],[-1.503025,50.796674],[-1.502692,50.796748],[-1.502473,50.796861],[-1.502346,50.796923],[-1.50231,50.796935],[-1.502324,50.797044],[-1.502388,50.797251],[-1.502686,50.797348]]]}}