{"type":"Feature","properties":{"id":"291385","COMMUNE":"New Forest","PROVINCE":"Central Hampshire","COUNTRY":"UK","FIREDATE":"2026-03-05 13:46:00","CLASS":"FireSeason","areaHA_geo":4.164},"geometry":{"type":"Polygon","coordinates":[[[-1.501309,50.793467],[-1.501285,50.793683],[-1.501516,50.793828],[-1.502003,50.793903],[-1.502412,50.793898],[-1.502742,50.793816],[-1.503086,50.793605],[-1.503444,50.793265],[-1.503673,50.79293],[-1.503772,50.7926],[-1.503848,50.792252],[-1.5039,50.791885],[-1.50406,50.791693],[-1.504328,50.791674],[-1.504565,50.79163],[-1.504768,50.79156],[-1.50481,50.791416],[-1.504691,50.791198],[-1.504429,50.791085],[-1.504023,50.791076],[-1.503679,50.791078],[-1.503396,50.79109],[-1.503118,50.791122],[-1.502845,50.791174],[-1.502672,50.791237],[-1.502599,50.79131],[-1.502252,50.791849],[-1.501632,50.792856],[-1.501309,50.793467]]]}}