{"type":"Feature","properties":{"id":"293196","COMMUNE":"Perth and Kinross","PROVINCE":"Perth & Kinross and Stirling","COUNTRY":"UK","FIREDATE":"2026-03-19 12:44:00","CLASS":"FireSeason","areaHA_geo":8.471},"geometry":{"type":"Polygon","coordinates":[[[-3.784702,56.455439],[-3.784806,56.455353],[-3.784922,56.455285],[-3.78505,56.455234],[-3.785192,56.4552],[-3.785346,56.455184],[-3.785597,56.45514],[-3.785946,56.45507],[-3.786392,56.454973],[-3.786936,56.45485],[-3.787375,56.454748],[-3.787707,56.454668],[-3.787934,56.45461],[-3.788056,56.454573],[-3.788284,56.454536],[-3.788619,56.454497],[-3.789061,56.454458],[-3.78961,56.454417],[-3.790021,56.454361],[-3.790294,56.45429],[-3.790429,56.454204],[-3.790425,56.454102],[-3.790443,56.45404],[-3.790481,56.454017],[-3.79054,56.454034],[-3.790619,56.45409],[-3.790685,56.45411],[-3.790738,56.454093],[-3.790777,56.454039],[-3.790803,56.453947],[-3.790809,56.453861],[-3.790796,56.453779],[-3.790763,56.453701],[-3.790712,56.453628],[-3.79065,56.453539],[-3.790579,56.453435],[-3.790498,56.453316],[-3.790407,56.453182],[-3.790308,56.453095],[-3.790201,56.453056],[-3.790086,56.453064],[-3.789963,56.453119],[-3.789874,56.453187],[-3.78982,56.45327],[-3.7898,56.453366],[-3.789815,56.453476],[-3.78975,56.453562],[-3.789604,56.453624],[-3.789378,56.453662],[-3.789072,56.453677],[-3.788799,56.453689],[-3.788558,56.453698],[-3.788351,56.453706],[-3.788176,56.453711],[-3.788029,56.453694],[-3.78791,56.453656],[-3.787819,56.453596],[-3.787755,56.453515],[-3.787754,56.453459],[-3.787815,56.453429],[-3.787937,56.453425],[-3.788122,56.453447],[-3.788244,56.453435],[-3.788303,56.453389],[-3.788299,56.45331],[-3.788233,56.453196],[-3.788222,56.453126],[-3.788267,56.453101],[-3.788369,56.453119],[-3.788526,56.453181],[-3.788596,56.453188],[-3.788579,56.453141],[-3.788475,56.45304],[-3.788283,56.452884],[-3.788112,56.452736],[-3.787959,56.452594],[-3.787826,56.45246],[-3.787713,56.452333],[-3.787581,56.452254],[-3.787431,56.452224],[-3.787263,56.452242],[-3.787077,56.452308],[-3.786911,56.452379],[-3.786766,56.452452],[-3.78664,56.45253],[-3.786535,56.452611],[-3.786412,56.452654],[-3.786271,56.45266],[-3.786112,56.452628],[-3.785936,56.452559],[-3.785799,56.452517],[-3.785701,56.452502],[-3.785642,56.452514],[-3.785623,56.452554],[-3.785576,56.452569],[-3.785501,56.452561],[-3.785399,56.452529],[-3.785269,56.452473],[-3.785139,56.452427],[-3.785008,56.45239],[-3.784876,56.452362],[-3.784743,56.452344],[-3.784646,56.452348],[-3.784583,56.452373],[-3.784556,56.45242],[-3.784564,56.452489],[-3.784597,56.452555],[-3.784653,56.452619],[-3.784734,56.452679],[-3.78484,56.452738],[-3.784937,56.452802],[-3.785025,56.452871],[-3.785105,56.452946],[-3.785176,56.453026],[-3.785189,56.453109],[-3.785144,56.453192],[-3.78504,56.453278],[-3.784878,56.453365],[-3.784762,56.453444],[-3.784691,56.453514],[-3.784665,56.453576],[-3.784684,56.45363],[-3.784658,56.453685],[-3.784586,56.453741],[-3.784468,56.453799],[-3.784305,56.453859],[-3.784193,56.453921],[-3.784132,56.453985],[-3.784123,56.454052],[-3.784165,56.454122],[-3.784148,56.454187],[-3.784073,56.454246],[-3.783939,56.4543],[-3.783746,56.454348],[-3.7836,56.454395],[-3.783498,56.454441],[-3.783443,56.454485],[-3.783433,56.454528],[-3.783352,56.454566],[-3.7832,56.454599],[-3.782977,56.454626],[-3.782682,56.454649],[-3.78246,56.454681],[-3.782311,56.454722],[-3.782235,56.454774],[-3.782232,56.454834],[-3.78221,56.454883],[-3.782168,56.45492],[-3.782108,56.454945],[-3.782029,56.454958],[-3.781981,56.454978],[-3.781966,56.455006],[-3.781983,56.45504],[-3.782031,56.455081],[-3.782095,56.455107],[-3.782175,56.455117],[-3.782269,56.455111],[-3.782379,56.45509],[-3.78247,56.455062],[-3.782541,56.455026],[-3.782593,56.454983],[-3.782625,56.454933],[-3.782675,56.454896],[-3.782741,56.45487],[-3.782825,56.454856],[-3.782925,56.454855],[-3.783015,56.454871],[-3.783094,56.454904],[-3.783163,56.454954],[-3.783221,56.455022],[-3.783315,56.455059],[-3.783443,56.455064],[-3.783605,56.455037],[-3.783803,56.454978],[-3.783929,56.454916],[-3.783985,56.45485],[-3.78397,56.454779],[-3.783884,56.454705],[-3.783838,56.454646],[-3.78383,56.454603],[-3.783862,56.454575],[-3.783934,56.454563],[-3.784014,56.454581],[-3.784103,56.454629],[-3.784201,56.454708],[-3.784308,56.454817],[-3.784366,56.454913],[-3.784375,56.454996],[-3.784335,56.455065],[-3.784246,56.455121],[-3.784206,56.455186],[-3.784216,56.455259],[-3.784275,56.455341],[-3.784384,56.455431],[-3.784491,56.455478],[-3.784597,56.45548],[-3.784702,56.455439]]]}}