{"type":"Feature","properties":{"id":"293198","COMMUNE":"Perth and Kinross","PROVINCE":"Perth & Kinross and Stirling","COUNTRY":"UK","FIREDATE":"2026-03-20 11:36:00","CLASS":"FireSeason","areaHA_geo":5.194},"geometry":{"type":"Polygon","coordinates":[[[-3.674886,56.629853],[-3.674685,56.62993],[-3.674599,56.63],[-3.67463,56.630062],[-3.674776,56.630116],[-3.674942,56.63014],[-3.67513,56.630133],[-3.675338,56.630095],[-3.675566,56.630028],[-3.675762,56.62999],[-3.675925,56.629981],[-3.676055,56.630002],[-3.676152,56.630052],[-3.676339,56.630065],[-3.676614,56.63004],[-3.676979,56.629977],[-3.677433,56.629877],[-3.677771,56.629763],[-3.677993,56.629635],[-3.6781,56.629493],[-3.678091,56.629337],[-3.678112,56.629242],[-3.678162,56.629206],[-3.678242,56.62923],[-3.678351,56.629314],[-3.678475,56.629381],[-3.678612,56.629432],[-3.678762,56.629466],[-3.678927,56.629483],[-3.67908,56.629525],[-3.679223,56.629593],[-3.679356,56.629685],[-3.679477,56.629802],[-3.679606,56.629884],[-3.679741,56.629931],[-3.679884,56.629941],[-3.680033,56.629917],[-3.680206,56.62987],[-3.680402,56.629802],[-3.680622,56.629711],[-3.680866,56.629598],[-3.680962,56.629481],[-3.68091,56.629361],[-3.680711,56.629236],[-3.680364,56.629108],[-3.680107,56.629021],[-3.67994,56.628973],[-3.679862,56.628966],[-3.679874,56.629],[-3.679866,56.629042],[-3.679837,56.629093],[-3.679787,56.629152],[-3.679717,56.629221],[-3.679662,56.629222],[-3.679623,56.629157],[-3.679599,56.629025],[-3.67959,56.628826],[-3.67955,56.628652],[-3.679481,56.628503],[-3.67938,56.628379],[-3.679249,56.62828],[-3.679113,56.628208],[-3.678969,56.628162],[-3.67882,56.628143],[-3.678665,56.628151],[-3.678523,56.628151],[-3.678393,56.628143],[-3.678277,56.628127],[-3.678173,56.628103],[-3.678121,56.628057],[-3.678119,56.627988],[-3.678169,56.627895],[-3.67827,56.62778],[-3.678353,56.627639],[-3.678419,56.627471],[-3.678467,56.627277],[-3.678497,56.627057],[-3.678471,56.626886],[-3.678387,56.626764],[-3.678247,56.626692],[-3.678049,56.62667],[-3.677856,56.626717],[-3.677669,56.626832],[-3.677487,56.627017],[-3.67731,56.62727],[-3.677176,56.627489],[-3.677084,56.627672],[-3.677035,56.627821],[-3.677029,56.627934],[-3.677,56.628052],[-3.67695,56.628175],[-3.676878,56.628302],[-3.676783,56.628434],[-3.67679,56.628518],[-3.676898,56.628554],[-3.677107,56.628543],[-3.677418,56.628484],[-3.677616,56.628465],[-3.677703,56.628486],[-3.677678,56.628547],[-3.677541,56.628649],[-3.677352,56.628749],[-3.677111,56.628849],[-3.676819,56.628947],[-3.676475,56.629045],[-3.676199,56.629146],[-3.675992,56.62925],[-3.675853,56.629359],[-3.675783,56.62947],[-3.675651,56.629576],[-3.675458,56.629674],[-3.675203,56.629767],[-3.674886,56.629853]]]}}