{"type":"Feature","properties":{"id":"293197","COMMUNE":"Perth and Kinross","PROVINCE":"Perth & Kinross and Stirling","COUNTRY":"UK","FIREDATE":"2026-03-19 12:44:00","FINALDATE":"2026-03-22 13:27:00","CLASS":"FireSeason","areaHA_geo":12.993},"geometry":{"type":"Polygon","coordinates":[[[-3.77688,56.453602],[-3.776959,56.45366],[-3.77704,56.453719],[-3.77712,56.453778],[-3.777201,56.453839],[-3.777291,56.45389],[-3.77739,56.45393],[-3.777498,56.453961],[-3.777614,56.453981],[-3.777722,56.454017],[-3.777821,56.454069],[-3.777911,56.454137],[-3.777992,56.454221],[-3.778075,56.454277],[-3.778161,56.454305],[-3.778249,56.454305],[-3.77834,56.454276],[-3.778444,56.454267],[-3.778561,56.454278],[-3.778692,56.454308],[-3.778836,56.454357],[-3.778936,56.454354],[-3.778991,56.454297],[-3.779001,56.454186],[-3.778967,56.454023],[-3.778906,56.453912],[-3.778818,56.453854],[-3.778702,56.453849],[-3.77856,56.453897],[-3.778445,56.453911],[-3.778358,56.45389],[-3.778298,56.453835],[-3.778265,56.453746],[-3.778192,56.453672],[-3.778079,56.453615],[-3.777925,56.453573],[-3.777731,56.453548],[-3.777599,56.453514],[-3.777529,56.453473],[-3.777522,56.453424],[-3.777577,56.453367],[-3.77763,56.453289],[-3.777683,56.453191],[-3.777734,56.453072],[-3.777784,56.452932],[-3.777869,56.4528],[-3.777989,56.452678],[-3.778144,56.452565],[-3.778333,56.452461],[-3.778471,56.45236],[-3.778556,56.45226],[-3.77859,56.452162],[-3.778572,56.452067],[-3.778586,56.451989],[-3.778631,56.451928],[-3.778708,56.451885],[-3.778817,56.451859],[-3.778908,56.451816],[-3.778983,56.451754],[-3.77904,56.451675],[-3.779081,56.451578],[-3.779232,56.451375],[-3.779494,56.451065],[-3.779867,56.45065],[-3.780351,56.450129],[-3.780664,56.449724],[-3.780807,56.449435],[-3.78078,56.449261],[-3.780582,56.449204],[-3.780428,56.449167],[-3.780317,56.449151],[-3.78025,56.449156],[-3.780225,56.449182],[-3.780184,56.449208],[-3.780127,56.449235],[-3.780053,56.449263],[-3.779962,56.449291],[-3.779896,56.449288],[-3.779854,56.449253],[-3.779836,56.449186],[-3.779842,56.449088],[-3.779799,56.449016],[-3.779707,56.44897],[-3.779565,56.448951],[-3.779374,56.448958],[-3.779237,56.448972],[-3.779152,56.448995],[-3.779122,56.449027],[-3.779144,56.449066],[-3.779028,56.449123],[-3.778773,56.449196],[-3.778379,56.449288],[-3.777847,56.449396],[-3.777478,56.449499],[-3.777273,56.449595],[-3.777233,56.449685],[-3.777356,56.449769],[-3.777475,56.449825],[-3.77759,56.449852],[-3.777701,56.449851],[-3.777807,56.449821],[-3.777898,56.449821],[-3.777973,56.449853],[-3.778031,56.449915],[-3.778073,56.450008],[-3.778144,56.450071],[-3.778245,56.450104],[-3.778374,56.450108],[-3.778533,56.450081],[-3.77865,56.450079],[-3.778725,56.450101],[-3.778759,56.450148],[-3.778751,56.450218],[-3.778714,56.45029],[-3.778649,56.450365],[-3.778554,56.450441],[-3.778431,56.450519],[-3.778318,56.450578],[-3.778214,56.450617],[-3.778121,56.450636],[-3.778036,56.450636],[-3.777887,56.450642],[-3.777672,56.450653],[-3.777393,56.450671],[-3.777048,56.450694],[-3.776779,56.450685],[-3.776587,56.450643],[-3.776472,56.450568],[-3.776433,56.450461],[-3.776434,56.450377],[-3.776476,56.450317],[-3.776557,56.45028],[-3.776678,56.450267],[-3.776797,56.450245],[-3.776911,56.450214],[-3.777023,56.450174],[-3.777132,56.450125],[-3.777201,56.45008],[-3.777232,56.450037],[-3.777224,56.449997],[-3.777177,56.44996],[-3.777111,56.449929],[-3.777026,56.449904],[-3.776922,56.449883],[-3.776799,56.449869],[-3.776682,56.449854],[-3.776571,56.449838],[-3.776466,56.449821],[-3.776367,56.449804],[-3.776215,56.449801],[-3.776008,56.449811],[-3.775748,56.449836],[-3.775434,56.449874],[-3.775147,56.449906],[-3.774887,56.449932],[-3.774654,56.449951],[-3.774448,56.449964],[-3.774265,56.449963],[-3.774104,56.449948],[-3.773965,56.449919],[-3.773849,56.449876],[-3.773737,56.44987],[-3.773631,56.449902],[-3.77353,56.449972],[-3.773435,56.45008],[-3.773381,56.45018],[-3.773368,56.450272],[-3.773396,56.450356],[-3.773466,56.450432],[-3.773468,56.450495],[-3.773401,56.450544],[-3.773267,56.450579],[-3.773064,56.450601],[-3.772907,56.450635],[-3.772793,56.450682],[-3.772724,56.450742],[-3.7727,56.450814],[-3.772659,56.450852],[-3.772602,56.450856],[-3.772528,56.450826],[-3.772437,56.450761],[-3.772322,56.450705],[-3.772183,56.450657],[-3.772019,56.450618],[-3.771831,56.450587],[-3.771677,56.450552],[-3.771558,56.450511],[-3.771472,56.450466],[-3.77142,56.450416],[-3.771351,56.45037],[-3.771264,56.450328],[-3.77116,56.45029],[-3.771039,56.450257],[-3.770918,56.450242],[-3.770797,56.450246],[-3.770677,56.450268],[-3.770557,56.450309],[-3.770507,56.450351],[-3.770527,56.450396],[-3.770618,56.450442],[-3.770778,56.450489],[-3.77092,56.450545],[-3.771044,56.450608],[-3.77115,56.450679],[-3.771237,56.450758],[-3.771313,56.450846],[-3.771378,56.450944],[-3.771432,56.45105],[-3.771474,56.451167],[-3.771575,56.451271],[-3.771734,56.451363],[-3.771952,56.451442],[-3.772229,56.45151],[-3.772422,56.451537],[-3.772531,56.451523],[-3.772555,56.451468],[-3.772495,56.451372],[-3.772509,56.45132],[-3.772598,56.45131],[-3.772762,56.451344],[-3.773,56.45142],[-3.773197,56.451459],[-3.773354,56.451461],[-3.773469,56.451425],[-3.773543,56.451352],[-3.77362,56.451291],[-3.773698,56.451241],[-3.773779,56.451202],[-3.773861,56.451174],[-3.773952,56.451159],[-3.774052,56.451155],[-3.77416,56.451163],[-3.774277,56.451183],[-3.774358,56.451233],[-3.774404,56.451314],[-3.774415,56.451426],[-3.774391,56.451568],[-3.774339,56.451673],[-3.774259,56.451742],[-3.774151,56.451774],[-3.774015,56.451771],[-3.773905,56.451771],[-3.773823,56.451775],[-3.773767,56.451783],[-3.773738,56.451796],[-3.773754,56.451823],[-3.773816,56.451865],[-3.773923,56.451922],[-3.774075,56.451994],[-3.774216,56.452063],[-3.774345,56.452131],[-3.774464,56.452196],[-3.77457,56.452259],[-3.774692,56.452292],[-3.774828,56.452296],[-3.774979,56.45227],[-3.775144,56.452215],[-3.775278,56.452216],[-3.775383,56.452272],[-3.775457,56.452384],[-3.775501,56.452551],[-3.775567,56.452699],[-3.775657,56.452829],[-3.775768,56.45294],[-3.775903,56.453032],[-3.776005,56.453083],[-3.776076,56.453091],[-3.776114,56.453058],[-3.776121,56.452983],[-3.776109,56.452905],[-3.77608,56.452825],[-3.776033,56.452742],[-3.775968,56.452656],[-3.775914,56.452564],[-3.77587,56.452467],[-3.775837,56.452364],[-3.775814,56.452255],[-3.775812,56.452168],[-3.775831,56.452103],[-3.77587,56.452061],[-3.77593,56.45204],[-3.775988,56.45204],[-3.776046,56.452059],[-3.776102,56.452098],[-3.776157,56.452157],[-3.776221,56.452199],[-3.776293,56.452224],[-3.776374,56.452232],[-3.776463,56.452222],[-3.776529,56.452241],[-3.776572,56.45229],[-3.776591,56.452368],[-3.776588,56.452475],[-3.776616,56.45258],[-3.776674,56.452683],[-3.776763,56.452784],[-3.776883,56.452882],[-3.776949,56.452983],[-3.776962,56.453086],[-3.77692,56.453192],[-3.776824,56.4533],[-3.776773,56.453395],[-3.776765,56.453477],[-3.7768,56.453546],[-3.77688,56.453602]]]}}