{"type":"Feature","properties":{"id":"293473","COMMUNE":"Powys","PROVINCE":"Powys","COUNTRY":"UK","FIREDATE":"2026-03-21 10:32:00","CLASS":"FireSeason","areaHA_geo":5.366},"geometry":{"type":"Polygon","coordinates":[[[-3.215431,51.930847],[-3.215356,51.930707],[-3.215391,51.930648],[-3.215422,51.930579],[-3.215449,51.930499],[-3.215467,51.930426],[-3.215477,51.93036],[-3.215478,51.9303],[-3.215472,51.930248],[-3.215456,51.930202],[-3.215433,51.930163],[-3.215401,51.930131],[-3.21536,51.930106],[-3.215323,51.930076],[-3.215289,51.930043],[-3.215257,51.930004],[-3.215229,51.929961],[-3.215204,51.929914],[-3.215182,51.929863],[-3.215163,51.929807],[-3.215148,51.929747],[-3.21513,51.929691],[-3.215112,51.929639],[-3.215092,51.929592],[-3.21507,51.929549],[-3.215047,51.929511],[-3.215023,51.929477],[-3.214997,51.929447],[-3.21497,51.929422],[-3.214943,51.9294],[-3.214918,51.929381],[-3.214893,51.929365],[-3.21487,51.929352],[-3.214847,51.929342],[-3.214825,51.929335],[-3.214804,51.929332],[-3.214785,51.929331],[-3.214764,51.929332],[-3.214741,51.929333],[-3.214718,51.929335],[-3.214694,51.929338],[-3.214668,51.929341],[-3.214641,51.929345],[-3.214614,51.929351],[-3.214585,51.929357],[-3.214557,51.929359],[-3.214529,51.929358],[-3.214503,51.929353],[-3.214477,51.929344],[-3.214452,51.929332],[-3.214428,51.929316],[-3.214405,51.929297],[-3.214383,51.929273],[-3.214355,51.929252],[-3.214321,51.929233],[-3.21428,51.929216],[-3.214234,51.929201],[-3.214182,51.929188],[-3.214124,51.929177],[-3.21406,51.929168],[-3.21399,51.929161],[-3.213931,51.929152],[-3.213884,51.929141],[-3.213849,51.929127],[-3.213826,51.92911],[-3.213814,51.929092],[-3.213814,51.929071],[-3.213825,51.929048],[-3.213848,51.929022],[-3.213861,51.928995],[-3.213863,51.928966],[-3.213856,51.928936],[-3.213837,51.928905],[-3.213809,51.928871],[-3.21377,51.928837],[-3.213721,51.9288],[-3.213661,51.928762],[-3.21361,51.928726],[-3.213569,51.928691],[-3.213536,51.928657],[-3.213512,51.928625],[-3.213497,51.928594],[-3.213491,51.928564],[-3.213494,51.928536],[-3.213505,51.928509],[-3.213508,51.928481],[-3.213502,51.928451],[-3.213487,51.928421],[-3.213464,51.928389],[-3.213431,51.928356],[-3.21339,51.928322],[-3.213339,51.928286],[-3.21328,51.92825],[-3.213223,51.928217],[-3.213167,51.928188],[-3.213114,51.928162],[-3.213063,51.928141],[-3.213013,51.928122],[-3.212965,51.928108],[-3.212919,51.928097],[-3.212876,51.92809],[-3.21283,51.928083],[-3.212782,51.928076],[-3.212733,51.928069],[-3.212681,51.928062],[-3.212628,51.928055],[-3.212572,51.928048],[-3.212515,51.928041],[-3.212456,51.928034],[-3.212397,51.928029],[-3.212336,51.928026],[-3.212276,51.928025],[-3.212214,51.928026],[-3.212153,51.928029],[-3.21209,51.928033],[-3.212028,51.92804],[-3.211964,51.928048],[-3.211906,51.928061],[-3.211853,51.928078],[-3.211805,51.928099],[-3.211762,51.928124],[-3.211724,51.928153],[-3.211691,51.928187],[-3.211663,51.928224],[-3.211641,51.928266],[-3.211622,51.928308],[-3.211608,51.92835],[-3.211598,51.928392],[-3.211592,51.928435],[-3.21159,51.928478],[-3.211592,51.928521],[-3.211599,51.928564],[-3.211609,51.928607],[-3.211628,51.928648],[-3.211654,51.928686],[-3.211688,51.928721],[-3.211729,51.928753],[-3.211778,51.928783],[-3.211835,51.92881],[-3.2119,51.928834],[-3.211972,51.928856],[-3.212031,51.928877],[-3.212076,51.928898],[-3.212108,51.928918],[-3.212126,51.928939],[-3.21213,51.928958],[-3.212121,51.928978],[-3.212099,51.928997],[-3.212063,51.929016],[-3.212029,51.929036],[-3.211997,51.929055],[-3.211967,51.929076],[-3.211939,51.929096],[-3.211913,51.929118],[-3.21189,51.929139],[-3.211868,51.929161],[-3.211848,51.929184],[-3.211837,51.929207],[-3.211834,51.929231],[-3.211839,51.929257],[-3.211852,51.929283],[-3.211873,51.92931],[-3.211903,51.929338],[-3.211941,51.929367],[-3.211987,51.929397],[-3.212036,51.929424],[-3.212087,51.92945],[-3.21214,51.929473],[-3.212196,51.929493],[-3.212254,51.929512],[-3.212314,51.929528],[-3.212376,51.929542],[-3.212441,51.929553],[-3.2125,51.929567],[-3.212553,51.929584],[-3.212599,51.929603],[-3.21264,51.929625],[-3.212674,51.929649],[-3.212703,51.929676],[-3.212725,51.929706],[-3.212741,51.929737],[-3.21276,51.929767],[-3.212781,51.929795],[-3.212805,51.92982],[-3.212832,51.929844],[-3.212861,51.929865],[-3.212893,51.929884],[-3.212928,51.929901],[-3.212965,51.929915],[-3.213006,51.929938],[-3.213049,51.929967],[-3.213096,51.930005],[-3.213145,51.93005],[-3.213198,51.930102],[-3.213254,51.930163],[-3.213313,51.93023],[-3.213375,51.930306],[-3.213434,51.930373],[-3.213491,51.930432],[-3.213546,51.930483],[-3.213598,51.930526],[-3.213648,51.93056],[-3.213695,51.930586],[-3.21374,51.930605],[-3.213783,51.930615],[-3.213826,51.930618],[-3.213871,51.930614],[-3.213915,51.930604],[-3.21396,51.930587],[-3.214019,51.930648],[-3.214094,51.930785],[-3.214218,51.930916],[-3.214392,51.931041],[-3.214463,51.931212],[-3.214431,51.931432],[-3.214442,51.931634],[-3.214498,51.93182],[-3.21459,51.931935],[-3.214721,51.931981],[-3.214941,51.931998],[-3.215249,51.931987],[-3.215491,51.931947],[-3.215666,51.93188],[-3.215742,51.931679],[-3.215721,51.931346],[-3.215617,51.931068],[-3.215431,51.930847]]]}}