{"type":"Feature","properties":{"id":"293484","COMMUNE":"Conwy","PROVINCE":"Conwy and Denbighshire","COUNTRY":"UK","FIREDATE":"2026-03-21 12:06:00","FINALDATE":"2026-03-22 12:19:00","CLASS":"FireSeason","areaHA_geo":0.813},"geometry":{"type":"Polygon","coordinates":[[[-3.884851,53.205952],[-3.88513,53.205972],[-3.885376,53.205972],[-3.88559,53.205951],[-3.885772,53.20591],[-3.885922,53.205848],[-3.88602,53.205789],[-3.886066,53.205733],[-3.88606,53.20568],[-3.886003,53.20563],[-3.885978,53.20558],[-3.885986,53.20553],[-3.886026,53.205481],[-3.886098,53.205432],[-3.886125,53.205374],[-3.886107,53.205307],[-3.886043,53.205231],[-3.885933,53.205147],[-3.885841,53.205087],[-3.885765,53.205053],[-3.885707,53.205045],[-3.885665,53.205062],[-3.88563,53.205091],[-3.885603,53.205133],[-3.885583,53.205187],[-3.885571,53.205254],[-3.885547,53.205306],[-3.885512,53.205345],[-3.885466,53.205369],[-3.885408,53.20538],[-3.885354,53.205381],[-3.885304,53.205373],[-3.885257,53.205355],[-3.885215,53.205327],[-3.885144,53.205289],[-3.885046,53.205239],[-3.884921,53.205179],[-3.884769,53.205107],[-3.884632,53.205063],[-3.884511,53.205047],[-3.884406,53.205058],[-3.884317,53.205097],[-3.884281,53.205145],[-3.8843,53.205201],[-3.884372,53.205267],[-3.884499,53.205342],[-3.884609,53.205399],[-3.884704,53.205439],[-3.884782,53.205461],[-3.884845,53.205466],[-3.884895,53.205478],[-3.884932,53.205498],[-3.884957,53.205526],[-3.884968,53.205561],[-3.884942,53.205595],[-3.884877,53.205626],[-3.884775,53.205657],[-3.884635,53.205685],[-3.88453,53.205718],[-3.884461,53.205757],[-3.884428,53.2058],[-3.88443,53.205849],[-3.884502,53.20589],[-3.884642,53.205925],[-3.884851,53.205952]]]}}