{"type":"Feature","properties":{"id":"293485","COMMUNE":"Conwy","PROVINCE":"Conwy and Denbighshire","COUNTRY":"UK","FIREDATE":"2026-03-21 12:06:00","FINALDATE":"2026-03-22 12:19:00","CLASS":"FireSeason","areaHA_geo":1.382},"geometry":{"type":"Polygon","coordinates":[[[-3.887632,53.204324],[-3.887773,53.204362],[-3.887906,53.204372],[-3.88803,53.204357],[-3.888145,53.204315],[-3.888218,53.204272],[-3.888248,53.204228],[-3.888235,53.204183],[-3.888179,53.204137],[-3.888157,53.204108],[-3.888171,53.204096],[-3.888218,53.204102],[-3.8883,53.204125],[-3.888376,53.204141],[-3.888444,53.204152],[-3.888504,53.204156],[-3.888558,53.204154],[-3.888615,53.204156],[-3.888675,53.204163],[-3.888738,53.204175],[-3.888805,53.204192],[-3.888876,53.204208],[-3.888953,53.204223],[-3.889034,53.204238],[-3.88912,53.204253],[-3.889198,53.204252],[-3.889268,53.204236],[-3.889329,53.204204],[-3.889382,53.204157],[-3.889438,53.204134],[-3.889499,53.204133],[-3.889564,53.204154],[-3.889633,53.204199],[-3.889668,53.204243],[-3.889668,53.204285],[-3.889634,53.204327],[-3.889566,53.204367],[-3.889523,53.204399],[-3.889507,53.204421],[-3.889516,53.204434],[-3.889551,53.204438],[-3.88963,53.20445],[-3.889752,53.20447],[-3.889918,53.204499],[-3.890127,53.204535],[-3.890284,53.204575],[-3.89039,53.204617],[-3.890444,53.204663],[-3.890446,53.204711],[-3.890458,53.204754],[-3.89048,53.20479],[-3.890512,53.204819],[-3.890554,53.204843],[-3.890601,53.204852],[-3.890653,53.204846],[-3.890711,53.204825],[-3.890774,53.204789],[-3.890824,53.204738],[-3.890859,53.20467],[-3.890882,53.204588],[-3.89089,53.204489],[-3.890874,53.20441],[-3.890834,53.20435],[-3.89077,53.204308],[-3.890681,53.204286],[-3.890606,53.204266],[-3.890546,53.204246],[-3.890499,53.204228],[-3.890466,53.204212],[-3.890425,53.204195],[-3.890376,53.204179],[-3.890318,53.204162],[-3.890251,53.204146],[-3.890175,53.204107],[-3.890091,53.204045],[-3.889997,53.203962],[-3.889895,53.203856],[-3.889674,53.203779],[-3.889336,53.203731],[-3.888879,53.203712],[-3.888305,53.203722],[-3.887857,53.203734],[-3.887535,53.203747],[-3.887339,53.203762],[-3.887269,53.203778],[-3.887223,53.203813],[-3.8872,53.203866],[-3.8872,53.203938],[-3.887223,53.204029],[-3.887277,53.204113],[-3.887364,53.20419],[-3.887482,53.20426],[-3.887632,53.204324]]]}}