{"type":"Feature","properties":{"id":"294184","COMMUNE":"Swansea","PROVINCE":"Swansea","COUNTRY":"UK","FIREDATE":"2026-03-22 00:00:00","FINALDATE":"2026-03-22 00:00:00","CLASS":"FireSeason","areaHA_geo":48.028},"geometry":{"type":"Polygon","coordinates":[[[-3.951553,51.741881],[-3.951602,51.742383],[-3.951615,51.742721],[-3.951592,51.742896],[-3.951592,51.74302],[-3.951616,51.743094],[-3.951751,51.743131],[-3.951999,51.74313],[-3.952234,51.743063],[-3.952456,51.742931],[-3.952591,51.742743],[-3.952639,51.742498],[-3.952764,51.742329],[-3.952968,51.742238],[-3.953393,51.742134],[-3.954039,51.742018],[-3.954664,51.741857],[-3.955266,51.741651],[-3.955682,51.741443],[-3.955911,51.741233],[-3.956061,51.740971],[-3.956133,51.740656],[-3.956236,51.740342],[-3.956371,51.740029],[-3.95656,51.739767],[-3.956804,51.739556],[-3.957117,51.739341],[-3.957498,51.739123],[-3.957851,51.738937],[-3.958175,51.738783],[-3.958459,51.738673],[-3.958701,51.738605],[-3.958948,51.738255],[-3.959199,51.737621],[-3.959256,51.737035],[-3.959118,51.736497],[-3.959253,51.736112],[-3.959662,51.735881],[-3.960332,51.735767],[-3.961263,51.73577],[-3.961985,51.735721],[-3.962496,51.735621],[-3.962902,51.735405],[-3.963201,51.735072],[-3.963322,51.734866],[-3.963266,51.734787],[-3.963138,51.734601],[-3.962938,51.734309],[-3.962792,51.733992],[-3.9627,51.733649],[-3.962472,51.733417],[-3.962109,51.733298],[-3.961705,51.73327],[-3.96126,51.733333],[-3.960888,51.733335],[-3.96059,51.733275],[-3.960389,51.733203],[-3.960285,51.73312],[-3.960021,51.733094],[-3.959597,51.733126],[-3.959239,51.733121],[-3.958947,51.73308],[-3.958758,51.732997],[-3.958673,51.732874],[-3.958762,51.732786],[-3.959025,51.732735],[-3.959246,51.732699],[-3.959426,51.732678],[-3.959605,51.732608],[-3.959786,51.732491],[-3.959901,51.73229],[-3.959952,51.732007],[-3.95988,51.731776],[-3.959684,51.731598],[-3.959391,51.731552],[-3.958999,51.731638],[-3.958549,51.731811],[-3.958042,51.732073],[-3.957724,51.732246],[-3.957595,51.732328],[-3.957415,51.732498],[-3.957186,51.732755],[-3.956825,51.732966],[-3.956334,51.733131],[-3.955994,51.733234],[-3.955806,51.733275],[-3.955548,51.733345],[-3.955222,51.733441],[-3.955028,51.733541],[-3.954967,51.733644],[-3.954989,51.733814],[-3.955095,51.73405],[-3.955203,51.734272],[-3.955314,51.734479],[-3.955474,51.734569],[-3.955684,51.734544],[-3.955978,51.734519],[-3.956357,51.734492],[-3.956589,51.734512],[-3.956671,51.734579],[-3.956708,51.734646],[-3.956698,51.734714],[-3.956549,51.73478],[-3.956258,51.734844],[-3.955861,51.734887],[-3.955356,51.734909],[-3.954988,51.734949],[-3.954758,51.735005],[-3.954589,51.735059],[-3.954481,51.73511],[-3.953943,51.735448],[-3.952975,51.736071],[-3.952463,51.736444],[-3.952408,51.736565],[-3.952352,51.736682],[-3.952294,51.736794],[-3.952141,51.736923],[-3.951891,51.737068],[-3.951646,51.737202],[-3.951406,51.737327],[-3.951251,51.737451],[-3.951181,51.737574],[-3.951114,51.737779],[-3.951048,51.738064],[-3.951062,51.738283],[-3.951156,51.738434],[-3.951236,51.73854],[-3.951301,51.738599],[-3.951343,51.738661],[-3.951364,51.738725],[-3.951298,51.739135],[-3.951147,51.739891],[-3.951096,51.740447],[-3.951146,51.740805],[-3.951218,51.74106],[-3.951312,51.741211],[-3.951402,51.741373],[-3.951487,51.741544],[-3.951553,51.741881]]]}}