{"type":"Feature","properties":{"id":"294190","COMMUNE":"Neath Port Talbot","PROVINCE":"Bridgend and Neath Port Talbot","COUNTRY":"UK","FIREDATE":"2026-03-21 00:00:00","FINALDATE":"2026-03-21 00:00:00","CLASS":"FireSeason","areaHA_geo":0.758},"geometry":{"type":"Polygon","coordinates":[[[-3.868373,51.781272],[-3.86846,51.781449],[-3.868561,51.781591],[-3.868674,51.781701],[-3.868845,51.781737],[-3.869072,51.7817],[-3.869254,51.781617],[-3.869389,51.781488],[-3.869534,51.781392],[-3.86969,51.781329],[-3.869771,51.781243],[-3.869777,51.781134],[-3.869757,51.781019],[-3.86971,51.780897],[-3.869594,51.780829],[-3.869407,51.780817],[-3.869178,51.78081],[-3.868906,51.780808],[-3.86868,51.78085],[-3.868499,51.780935],[-3.868389,51.78103],[-3.86835,51.781133],[-3.868373,51.781272]]]}}