{"type":"Feature","properties":{"id":"294174","COMMUNE":"Swansea","PROVINCE":"Swansea","COUNTRY":"UK","FIREDATE":"2026-04-07 11:47:00","FINALDATE":"2026-04-07 12:38:00","CLASS":"FireSeason","areaHA_geo":21.577},"geometry":{"type":"Polygon","coordinates":[[[-4.266739,51.613713],[-4.266993,51.613738],[-4.267317,51.613751],[-4.267712,51.613751],[-4.268164,51.613736],[-4.268673,51.613707],[-4.269151,51.613677],[-4.269597,51.613645],[-4.270013,51.613612],[-4.270397,51.613577],[-4.270802,51.613523],[-4.271229,51.61345],[-4.271676,51.613356],[-4.272145,51.613244],[-4.272587,51.613123],[-4.273002,51.612994],[-4.273391,51.612856],[-4.273753,51.61271],[-4.274157,51.612555],[-4.274602,51.612391],[-4.275088,51.612217],[-4.275616,51.612034],[-4.276061,51.611875],[-4.276423,51.611739],[-4.276703,51.611628],[-4.2769,51.61154],[-4.277058,51.611459],[-4.277177,51.611383],[-4.277257,51.611313],[-4.277298,51.611249],[-4.277283,51.611181],[-4.277212,51.61111],[-4.277086,51.611034],[-4.276904,51.610956],[-4.27668,51.610889],[-4.276414,51.610836],[-4.276106,51.610794],[-4.275756,51.610766],[-4.275427,51.610753],[-4.275117,51.610755],[-4.274828,51.610773],[-4.274559,51.610806],[-4.274341,51.610853],[-4.274173,51.610914],[-4.274055,51.610988],[-4.273988,51.611077],[-4.2739,51.611155],[-4.273793,51.611223],[-4.273665,51.611281],[-4.273516,51.611329],[-4.273364,51.611363],[-4.273207,51.611385],[-4.273046,51.611393],[-4.272881,51.611388],[-4.272691,51.611354],[-4.272477,51.611292],[-4.272239,51.611201],[-4.271976,51.611082],[-4.271727,51.610999],[-4.271494,51.610951],[-4.271276,51.61094],[-4.271073,51.610965],[-4.270904,51.61099],[-4.27077,51.611015],[-4.270695,51.611033],[-4.27068,51.611043],[-4.270429,51.611116],[-4.269941,51.611252],[-4.269562,51.611303],[-4.269292,51.611269],[-4.26911,51.611211],[-4.269016,51.61113],[-4.268916,51.611047],[-4.26881,51.610963],[-4.268737,51.610905],[-4.268696,51.610872],[-4.26863,51.610855],[-4.268537,51.610855],[-4.268373,51.610854],[-4.268138,51.610853],[-4.267943,51.610908],[-4.267788,51.61102],[-4.267572,51.611135],[-4.267297,51.611253],[-4.267093,51.611321],[-4.266962,51.611337],[-4.266862,51.611324],[-4.266794,51.611281],[-4.266774,51.611216],[-4.2668,51.611129],[-4.266857,51.61105],[-4.266944,51.61098],[-4.266873,51.610866],[-4.266644,51.610705],[-4.266365,51.610637],[-4.266035,51.610659],[-4.265664,51.610699],[-4.265254,51.610758],[-4.265018,51.610794],[-4.264958,51.610806],[-4.264954,51.610876],[-4.265009,51.611004],[-4.265009,51.611113],[-4.264957,51.611204],[-4.264871,51.611278],[-4.264753,51.611335],[-4.264638,51.611315],[-4.264525,51.611219],[-4.264451,51.611114],[-4.264415,51.611001],[-4.26438,51.610942],[-4.264347,51.610939],[-4.264249,51.61093],[-4.264085,51.610915],[-4.263961,51.610947],[-4.263877,51.611025],[-4.263832,51.61107],[-4.263827,51.611082],[-4.263807,51.611126],[-4.263773,51.611204],[-4.263716,51.611247],[-4.263637,51.611257],[-4.263458,51.611262],[-4.263176,51.611261],[-4.262992,51.611272],[-4.262906,51.611295],[-4.26277,51.611336],[-4.262585,51.611397],[-4.262451,51.611476],[-4.26237,51.611572],[-4.26233,51.611628],[-4.262333,51.611644],[-4.262356,51.611658],[-4.2624,51.61167],[-4.262452,51.611685],[-4.262512,51.611703],[-4.262557,51.611736],[-4.262585,51.611783],[-4.262671,51.611882],[-4.262815,51.612033],[-4.262988,51.612062],[-4.26319,51.61197],[-4.263302,51.611872],[-4.263324,51.611768],[-4.263436,51.611716],[-4.263641,51.611716],[-4.263847,51.611741],[-4.264054,51.611792],[-4.264199,51.611862],[-4.264282,51.611953],[-4.264247,51.612034],[-4.264092,51.612103],[-4.263863,51.612178],[-4.263562,51.612257],[-4.2634,51.612338],[-4.263378,51.612419],[-4.263442,51.612482],[-4.263593,51.612526],[-4.263787,51.612557],[-4.264024,51.612574],[-4.26427,51.612615],[-4.264527,51.612681],[-4.264792,51.61277],[-4.265067,51.612884],[-4.265253,51.612968],[-4.265349,51.613022],[-4.265413,51.613161],[-4.265442,51.613384],[-4.265609,51.613545],[-4.265912,51.613642],[-4.266201,51.613693],[-4.266475,51.613698],[-4.266739,51.613713]]]}}