{"type":"Feature","properties":{"id":"294168","COMMUNE":"Swansea","PROVINCE":"Swansea","COUNTRY":"UK","FIREDATE":"2026-04-07 11:47:00","FINALDATE":"2026-04-07 12:38:00","CLASS":"FireSeason","areaHA_geo":11.945},"geometry":{"type":"Polygon","coordinates":[[[-4.179177,51.592268],[-4.179759,51.592424],[-4.180497,51.592625],[-4.181393,51.59287],[-4.18234,51.59302],[-4.18334,51.593075],[-4.184209,51.593171],[-4.184948,51.593309],[-4.185592,51.593534],[-4.186141,51.593846],[-4.186632,51.593976],[-4.187065,51.593923],[-4.187362,51.593697],[-4.187521,51.593297],[-4.187602,51.592908],[-4.187604,51.592527],[-4.187075,51.592276],[-4.186013,51.592153],[-4.185274,51.592015],[-4.184857,51.591863],[-4.184497,51.591566],[-4.184193,51.591122],[-4.183411,51.59085],[-4.182153,51.590751],[-4.181299,51.590704],[-4.18085,51.590708],[-4.180335,51.590695],[-4.179753,51.590665],[-4.179318,51.591035],[-4.17903,51.591804],[-4.179177,51.592268]]]}}