{"type":"Feature","properties":{"id":"294191","COMMUNE":"Carmarthenshire","PROVINCE":"South West Wales","COUNTRY":"UK","FIREDATE":"2026-03-30 00:00:00","CLASS":"FireSeason","areaHA_geo":34.194},"geometry":{"type":"Polygon","coordinates":[[[-3.917358,51.774234],[-3.917359,51.774223],[-3.917355,51.774185],[-3.917345,51.774121],[-3.917335,51.774006],[-3.917325,51.773838],[-3.917448,51.773726],[-3.917703,51.77367],[-3.91783,51.773587],[-3.917827,51.773477],[-3.9178,51.773341],[-3.917749,51.773178],[-3.917636,51.773085],[-3.91746,51.77306],[-3.917312,51.773091],[-3.917192,51.773177],[-3.917137,51.773287],[-3.917147,51.773422],[-3.917051,51.773518],[-3.916848,51.773575],[-3.916669,51.773573],[-3.916514,51.773514],[-3.916167,51.773481],[-3.915629,51.773474],[-3.915274,51.773397],[-3.915101,51.773249],[-3.914982,51.77312],[-3.914917,51.773011],[-3.91479,51.772874],[-3.914601,51.772709],[-3.914492,51.772511],[-3.914462,51.772281],[-3.914344,51.772104],[-3.914137,51.77198],[-3.913936,51.771894],[-3.913743,51.771846],[-3.913587,51.771819],[-3.91347,51.771813],[-3.913347,51.77189],[-3.913217,51.772048],[-3.913113,51.772219],[-3.913034,51.772404],[-3.913031,51.772579],[-3.913104,51.772745],[-3.913252,51.772899],[-3.913475,51.773041],[-3.913605,51.773168],[-3.91364,51.773281],[-3.913618,51.773413],[-3.913539,51.773565],[-3.913455,51.773699],[-3.913365,51.773813],[-3.91326,51.773949],[-3.913141,51.774106],[-3.913076,51.774274],[-3.913064,51.774453],[-3.912957,51.774577],[-3.912755,51.774644],[-3.912538,51.774826],[-3.912304,51.775122],[-3.912068,51.775431],[-3.911829,51.775753],[-3.911555,51.776049],[-3.911246,51.776321],[-3.910892,51.776623],[-3.910494,51.776956],[-3.910219,51.777185],[-3.910069,51.777312],[-3.910046,51.777436],[-3.910152,51.777558],[-3.910242,51.777715],[-3.910316,51.777907],[-3.910377,51.778017],[-3.910427,51.778045],[-3.910594,51.778016],[-3.91088,51.777932],[-3.911102,51.777859],[-3.91126,51.777798],[-3.911376,51.777843],[-3.91145,51.777993],[-3.911497,51.778101],[-3.911517,51.778165],[-3.911514,51.778241],[-3.911487,51.778328],[-3.911418,51.778391],[-3.911308,51.778429],[-3.911156,51.778464],[-3.910962,51.778496],[-3.910791,51.7786],[-3.910642,51.778777],[-3.910518,51.77888],[-3.910418,51.778909],[-3.910344,51.77893],[-3.910294,51.778944],[-3.910246,51.778879],[-3.910201,51.778734],[-3.910114,51.77861],[-3.909987,51.778508],[-3.909748,51.778524],[-3.909396,51.778658],[-3.909205,51.778786],[-3.909175,51.778907],[-3.909092,51.779143],[-3.908957,51.779494],[-3.908866,51.779723],[-3.908818,51.779829],[-3.908685,51.779991],[-3.908468,51.78021],[-3.908365,51.780403],[-3.908377,51.780569],[-3.908392,51.780747],[-3.90841,51.780938],[-3.908218,51.781061],[-3.907815,51.781118],[-3.907572,51.781147],[-3.907491,51.781148],[-3.907562,51.781202],[-3.907786,51.78131],[-3.908082,51.781429],[-3.908449,51.781561],[-3.908819,51.781614],[-3.909191,51.781586],[-3.909537,51.781565],[-3.909859,51.781552],[-3.910351,51.781518],[-3.911014,51.781464],[-3.91145,51.781316],[-3.911659,51.781073],[-3.911887,51.780932],[-3.912133,51.780895],[-3.912304,51.78105],[-3.9124,51.781399],[-3.912461,51.781618],[-3.912489,51.781707],[-3.912652,51.781683],[-3.912949,51.781547],[-3.91317,51.781148],[-3.913316,51.780485],[-3.913457,51.779915],[-3.913593,51.779438],[-3.91373,51.779007],[-3.913868,51.778622],[-3.913956,51.778339],[-3.913994,51.778158],[-3.913953,51.777962],[-3.913833,51.77775],[-3.91367,51.777598],[-3.913464,51.777505],[-3.913273,51.777394],[-3.913097,51.777264],[-3.91321,51.777083],[-3.913613,51.776851],[-3.914089,51.776592],[-3.914639,51.776309],[-3.915086,51.776109],[-3.915429,51.775992],[-3.915888,51.775937],[-3.916461,51.775944],[-3.916848,51.77599],[-3.917052,51.776075],[-3.917177,51.776236],[-3.917224,51.776473],[-3.917257,51.776687],[-3.917276,51.776877],[-3.917611,51.77695],[-3.918263,51.776906],[-3.918727,51.776783],[-3.919004,51.776582],[-3.919049,51.776401],[-3.918862,51.776239],[-3.918869,51.776108],[-3.919069,51.776009],[-3.919276,51.775934],[-3.919491,51.775883],[-3.919705,51.775958],[-3.919917,51.776159],[-3.920261,51.77626],[-3.920737,51.776262],[-3.921112,51.7762],[-3.921386,51.776075],[-3.921686,51.775863],[-3.922014,51.775564],[-3.922333,51.775262],[-3.922645,51.774957],[-3.922871,51.774657],[-3.92301,51.774364],[-3.923057,51.774166],[-3.923011,51.774062],[-3.922878,51.774007],[-3.922658,51.774],[-3.922412,51.774017],[-3.92214,51.774058],[-3.921804,51.774178],[-3.921404,51.774376],[-3.921101,51.77458],[-3.920895,51.774789],[-3.920716,51.774957],[-3.920566,51.775084],[-3.920398,51.775134],[-3.920213,51.775105],[-3.920011,51.775046],[-3.919792,51.774955],[-3.919347,51.774924],[-3.918678,51.774954],[-3.918103,51.774788],[-3.917623,51.774427],[-3.917376,51.774244],[-3.917364,51.774241],[-3.917358,51.774234]]]}}