{"type":"Feature","properties":{"id":"294172","COMMUNE":"Swansea","PROVINCE":"Swansea","COUNTRY":"UK","FIREDATE":"2026-04-02 00:00:00","FINALDATE":"2026-04-02 00:00:00","CLASS":"FireSeason","areaHA_geo":5.732},"geometry":{"type":"Polygon","coordinates":[[[-4.274362,51.57737],[-4.27473,51.577718],[-4.27495,51.578005],[-4.275022,51.578231],[-4.2751,51.578474],[-4.275183,51.578735],[-4.2753,51.578913],[-4.275451,51.579007],[-4.275627,51.579037],[-4.275828,51.579003],[-4.276011,51.57891],[-4.276174,51.578758],[-4.276318,51.578759],[-4.276443,51.578913],[-4.276553,51.579068],[-4.276648,51.579225],[-4.276862,51.579348],[-4.277193,51.579439],[-4.277487,51.579459],[-4.277743,51.579408],[-4.277807,51.57918],[-4.277677,51.578775],[-4.277354,51.578332],[-4.276838,51.577852],[-4.276455,51.577506],[-4.276206,51.577293],[-4.276102,51.577038],[-4.276144,51.576743],[-4.276262,51.576545],[-4.276458,51.576446],[-4.276574,51.576338],[-4.276613,51.576221],[-4.276489,51.576096],[-4.276205,51.575962],[-4.275883,51.575927],[-4.275525,51.57599],[-4.275252,51.576084],[-4.275066,51.57621],[-4.274811,51.576218],[-4.274488,51.576108],[-4.274244,51.576007],[-4.274079,51.575915],[-4.273875,51.57587],[-4.273634,51.575872],[-4.27336,51.575891],[-4.273054,51.575929],[-4.272916,51.575993],[-4.272945,51.576083],[-4.273029,51.57618],[-4.273168,51.576285],[-4.273364,51.576355],[-4.273617,51.576389],[-4.273852,51.576604],[-4.274069,51.576999],[-4.274362,51.57737]]]}}