{"type":"Feature","properties":{"id":"294196","COMMUNE":"Swansea","PROVINCE":"Swansea","COUNTRY":"UK","FIREDATE":"2026-04-04 00:00:00","FINALDATE":"2026-04-04 00:00:00","CLASS":"FireSeason","areaHA_geo":7.406},"geometry":{"type":"Polygon","coordinates":[[[-3.977581,51.722714],[-3.977649,51.723223],[-3.977655,51.723678],[-3.977599,51.724078],[-3.977686,51.724299],[-3.977917,51.724338],[-3.978202,51.724259],[-3.978541,51.724061],[-3.97872,51.723876],[-3.978739,51.723705],[-3.978948,51.723618],[-3.979348,51.723615],[-3.979689,51.723743],[-3.97997,51.724001],[-3.980198,51.724148],[-3.980373,51.724183],[-3.980746,51.724122],[-3.981315,51.723963],[-3.981513,51.723664],[-3.981338,51.723223],[-3.981152,51.722863],[-3.980955,51.722583],[-3.980687,51.722222],[-3.980348,51.721779],[-3.980074,51.72143],[-3.979866,51.721174],[-3.979702,51.720968],[-3.97958,51.720814],[-3.979401,51.720735],[-3.979162,51.72073],[-3.978962,51.720787],[-3.978799,51.720908],[-3.97853,51.721008],[-3.978154,51.721087],[-3.977878,51.721165],[-3.977702,51.721243],[-3.977597,51.721576],[-3.977563,51.722165],[-3.977581,51.722714]]]}}