{"type":"Feature","properties":{"id":"294188","COMMUNE":"Neath Port Talbot","PROVINCE":"Bridgend and Neath Port Talbot","COUNTRY":"UK","FIREDATE":"2026-03-21 12:36:00","FINALDATE":"2026-03-21 14:12:00","CLASS":"FireSeason","areaHA_geo":169.633},"geometry":{"type":"Polygon","coordinates":[[[-3.865375,51.776733],[-3.865105,51.776889],[-3.864838,51.777009],[-3.864573,51.777093],[-3.864223,51.777235],[-3.863789,51.777435],[-3.863421,51.777653],[-3.863118,51.77789],[-3.862857,51.778016],[-3.86264,51.778031],[-3.862425,51.77803],[-3.862215,51.778013],[-3.862051,51.777901],[-3.861935,51.777693],[-3.861976,51.77755],[-3.862175,51.777474],[-3.86254,51.777383],[-3.863072,51.777277],[-3.863515,51.777187],[-3.863869,51.777114],[-3.864207,51.776989],[-3.864529,51.776813],[-3.864693,51.776683],[-3.864701,51.776599],[-3.864531,51.776536],[-3.864184,51.776494],[-3.863887,51.77652],[-3.863638,51.776616],[-3.863395,51.77669],[-3.863156,51.776743],[-3.863036,51.776665],[-3.863034,51.776457],[-3.863163,51.776305],[-3.863425,51.776211],[-3.863757,51.776124],[-3.86416,51.776044],[-3.864437,51.775942],[-3.864587,51.775819],[-3.864617,51.775641],[-3.864528,51.775409],[-3.864396,51.775208],[-3.864224,51.775038],[-3.864184,51.774885],[-3.864278,51.774747],[-3.864503,51.774588],[-3.864858,51.774409],[-3.865197,51.774262],[-3.865522,51.77415],[-3.86578,51.774209],[-3.865972,51.774439],[-3.866092,51.774605],[-3.86614,51.774704],[-3.866233,51.774783],[-3.866371,51.774841],[-3.866499,51.774841],[-3.866619,51.774785],[-3.866834,51.774706],[-3.867145,51.774606],[-3.867521,51.774466],[-3.867961,51.774287],[-3.868356,51.774208],[-3.868705,51.77423],[-3.869058,51.774235],[-3.869414,51.774224],[-3.869661,51.77411],[-3.869799,51.773893],[-3.870003,51.773642],[-3.870273,51.773356],[-3.870428,51.773111],[-3.870467,51.772905],[-3.870368,51.772643],[-3.870131,51.772322],[-3.86997,51.772109],[-3.869886,51.772003],[-3.869721,51.77197],[-3.869477,51.77201],[-3.869218,51.772004],[-3.868945,51.771952],[-3.868673,51.771958],[-3.868402,51.772022],[-3.868109,51.772152],[-3.867793,51.772348],[-3.86752,51.772433],[-3.86729,51.772408],[-3.867174,51.772337],[-3.867172,51.772221],[-3.867289,51.772102],[-3.867524,51.771979],[-3.867841,51.771788],[-3.86824,51.771529],[-3.868481,51.771342],[-3.868565,51.771226],[-3.868625,51.771145],[-3.868662,51.771098],[-3.868807,51.771097],[-3.869061,51.771141],[-3.869226,51.771232],[-3.869303,51.77137],[-3.869466,51.771451],[-3.869713,51.771475],[-3.869892,51.771474],[-3.870005,51.77145],[-3.87003,51.771421],[-3.869967,51.771386],[-3.869719,51.77122],[-3.869284,51.770924],[-3.868972,51.770692],[-3.868783,51.770524],[-3.868606,51.770397],[-3.868443,51.770311],[-3.868115,51.770277],[-3.867624,51.770293],[-3.867064,51.770254],[-3.866435,51.77016],[-3.866031,51.770097],[-3.86585,51.770066],[-3.8657,51.770052],[-3.865581,51.770056],[-3.865277,51.77015],[-3.864787,51.770336],[-3.864508,51.770374],[-3.86444,51.770266],[-3.864351,51.770145],[-3.86424,51.77001],[-3.863797,51.770015],[-3.863021,51.770161],[-3.862493,51.770472],[-3.862213,51.770949],[-3.862114,51.771261],[-3.862195,51.77141],[-3.862429,51.771615],[-3.862818,51.771874],[-3.863069,51.77213],[-3.863181,51.77238],[-3.863202,51.772721],[-3.863131,51.773152],[-3.863188,51.773446],[-3.863374,51.773603],[-3.863606,51.773687],[-3.863882,51.773696],[-3.864107,51.773785],[-3.86428,51.773955],[-3.864297,51.774148],[-3.864159,51.774365],[-3.863865,51.77449],[-3.863413,51.774523],[-3.862884,51.774475],[-3.862279,51.774346],[-3.86172,51.774117],[-3.861206,51.773788],[-3.860881,51.773705],[-3.860744,51.773869],[-3.860478,51.774007],[-3.860085,51.774117],[-3.859867,51.774106],[-3.859826,51.773973],[-3.859599,51.773958],[-3.859185,51.77406],[-3.858898,51.774237],[-3.858737,51.774489],[-3.858478,51.774814],[-3.85812,51.775213],[-3.857805,51.775537],[-3.857533,51.775785],[-3.857212,51.776025],[-3.856842,51.776257],[-3.856312,51.776607],[-3.85562,51.777074],[-3.855267,51.777309],[-3.855252,51.777311],[-3.855045,51.777331],[-3.854646,51.777369],[-3.854313,51.777423],[-3.854045,51.777492],[-3.853646,51.777652],[-3.853115,51.777903],[-3.852437,51.778219],[-3.851612,51.778599],[-3.850856,51.778984],[-3.850171,51.779376],[-3.849557,51.779703],[-3.849015,51.779964],[-3.848546,51.780231],[-3.84815,51.780502],[-3.84767,51.780728],[-3.847106,51.780909],[-3.845938,51.781348],[-3.844168,51.782047],[-3.842752,51.78265],[-3.841692,51.783159],[-3.840529,51.783646],[-3.839264,51.784113],[-3.838412,51.784399],[-3.837974,51.784504],[-3.837341,51.784599],[-3.836513,51.784685],[-3.836089,51.784801],[-3.836071,51.784948],[-3.836142,51.785177],[-3.836303,51.785487],[-3.836759,51.785716],[-3.83751,51.785864],[-3.838095,51.785993],[-3.838514,51.786101],[-3.838659,51.786328],[-3.838531,51.786672],[-3.838519,51.78701],[-3.838622,51.787341],[-3.838705,51.787575],[-3.838769,51.787712],[-3.838897,51.787805],[-3.83909,51.787855],[-3.839125,51.787985],[-3.839005,51.788194],[-3.838766,51.78834],[-3.838409,51.788423],[-3.838,51.788488],[-3.83754,51.788534],[-3.836754,51.788616],[-3.835642,51.788732],[-3.834977,51.788803],[-3.834761,51.788828],[-3.834683,51.78896],[-3.834744,51.789197],[-3.834844,51.789327],[-3.834983,51.789351],[-3.835232,51.789366],[-3.83559,51.789373],[-3.83586,51.789414],[-3.836042,51.78949],[-3.836108,51.789596],[-3.836058,51.789732],[-3.835916,51.789826],[-3.835682,51.789879],[-3.835248,51.789865],[-3.834617,51.789785],[-3.834164,51.789774],[-3.833892,51.789831],[-3.833737,51.789906],[-3.8337,51.79],[-3.833724,51.790119],[-3.833809,51.790264],[-3.833969,51.790334],[-3.834206,51.790331],[-3.834551,51.790318],[-3.835007,51.790297],[-3.835819,51.790277],[-3.836988,51.79026],[-3.83799,51.790214],[-3.838825,51.790139],[-3.839527,51.790044],[-3.840098,51.789927],[-3.840408,51.78965],[-3.840456,51.789213],[-3.840516,51.788831],[-3.840586,51.788506],[-3.840558,51.788261],[-3.840432,51.788097],[-3.840594,51.787949],[-3.841046,51.787816],[-3.841746,51.787555],[-3.842693,51.787166],[-3.843358,51.787034],[-3.843739,51.78716],[-3.844208,51.787223],[-3.844763,51.787223],[-3.845176,51.787174],[-3.845445,51.787076],[-3.845537,51.786926],[-3.845453,51.786725],[-3.845519,51.786526],[-3.845736,51.786329],[-3.845899,51.78627],[-3.846009,51.786349],[-3.846113,51.786442],[-3.846211,51.786549],[-3.846383,51.786588],[-3.846631,51.786559],[-3.846988,51.78647],[-3.847455,51.786322],[-3.847706,51.786134],[-3.847742,51.785906],[-3.847807,51.785667],[-3.8479,51.785419],[-3.8481,51.785237],[-3.848406,51.785121],[-3.848893,51.785037],[-3.849561,51.784984],[-3.850033,51.784921],[-3.85031,51.784849],[-3.85074,51.784685],[-3.851323,51.784431],[-3.85163,51.784283],[-3.851659,51.78424],[-3.85165,51.784142],[-3.851603,51.783989],[-3.851571,51.783855],[-3.851556,51.783738],[-3.851723,51.783586],[-3.852071,51.7834],[-3.852445,51.783401],[-3.852847,51.783591],[-3.853059,51.783757],[-3.853082,51.783899],[-3.85308,51.784031],[-3.853054,51.784153],[-3.85318,51.78425],[-3.853459,51.784322],[-3.853649,51.784451],[-3.85375,51.784637],[-3.853759,51.78484],[-3.853678,51.78506],[-3.853549,51.785227],[-3.85337,51.785341],[-3.853077,51.785429],[-3.852669,51.78549],[-3.852334,51.785616],[-3.852072,51.785805],[-3.852034,51.786027],[-3.85222,51.786282],[-3.852843,51.786531],[-3.853902,51.786774],[-3.854456,51.78711],[-3.854504,51.787539],[-3.854723,51.788001],[-3.855112,51.788495],[-3.855653,51.788859],[-3.856346,51.789093],[-3.856985,51.789189],[-3.85757,51.789145],[-3.857942,51.789002],[-3.858102,51.788759],[-3.858108,51.788402],[-3.857962,51.787932],[-3.857885,51.787447],[-3.857879,51.786946],[-3.85784,51.786615],[-3.857768,51.786452],[-3.857625,51.786166],[-3.857412,51.785756],[-3.857407,51.785467],[-3.857611,51.785297],[-3.857868,51.785194],[-3.858177,51.785157],[-3.858351,51.785031],[-3.858391,51.784815],[-3.858346,51.784432],[-3.858217,51.78388],[-3.858236,51.783496],[-3.858404,51.783278],[-3.858714,51.783142],[-3.859167,51.783088],[-3.859547,51.783208],[-3.859852,51.783501],[-3.860156,51.783722],[-3.860459,51.78387],[-3.86093,51.783873],[-3.86157,51.783731],[-3.862126,51.783494],[-3.8626,51.78316],[-3.862932,51.782923],[-3.863123,51.782781],[-3.863207,51.782501],[-3.863183,51.782082],[-3.863098,51.781776],[-3.862952,51.781582],[-3.862682,51.781436],[-3.862289,51.781338],[-3.862089,51.781178],[-3.862083,51.780954],[-3.862239,51.78087],[-3.862555,51.780924],[-3.862836,51.781036],[-3.86308,51.781204],[-3.863471,51.781224],[-3.864008,51.781094],[-3.864283,51.780949],[-3.864298,51.780789],[-3.864214,51.780555],[-3.864033,51.780247],[-3.863842,51.780046],[-3.863641,51.779951],[-3.863468,51.779774],[-3.863323,51.779514],[-3.86328,51.779341],[-3.863339,51.779255],[-3.863343,51.779064],[-3.863293,51.778766],[-3.863444,51.778597],[-3.863794,51.778555],[-3.864014,51.778575],[-3.864103,51.778657],[-3.864344,51.778674],[-3.864736,51.778627],[-3.865148,51.778578],[-3.865581,51.778527],[-3.865851,51.778435],[-3.86596,51.778303],[-3.865966,51.778151],[-3.865869,51.777978],[-3.86582,51.777819],[-3.865817,51.777674],[-3.866053,51.777607],[-3.866526,51.777616],[-3.866802,51.777438],[-3.86688,51.777073],[-3.866848,51.776866],[-3.866704,51.776817],[-3.866352,51.776758],[-3.86579,51.77669],[-3.865375,51.776733]],[[-3.859161,51.780148],[-3.858836,51.779905],[-3.858786,51.77968],[-3.858689,51.779436],[-3.858834,51.779367],[-3.859185,51.779428],[-3.859204,51.779554],[-3.859273,51.779776],[-3.859496,51.779891],[-3.86012,51.779829],[-3.860321,51.779805],[-3.860805,51.779427],[-3.861179,51.779293],[-3.861129,51.779132],[-3.861131,51.77894],[-3.861475,51.778976],[-3.861741,51.779098],[-3.861791,51.779258],[-3.86172,51.779561],[-3.86145,51.779696],[-3.861228,51.779851],[-3.860704,51.780169],[-3.859523,51.780246],[-3.859161,51.780148]]]}}