{"type":"Feature","properties":{"id":"294194","COMMUNE":"Swansea","PROVINCE":"Swansea","COUNTRY":"UK","FIREDATE":"2026-03-30 00:00:00","CLASS":"FireSeason","areaHA_geo":18.422},"geometry":{"type":"Polygon","coordinates":[[[-3.936993,51.761585],[-3.93739,51.761951],[-3.937686,51.762248],[-3.93788,51.762475],[-3.938171,51.762587],[-3.938559,51.762584],[-3.938875,51.762524],[-3.939121,51.762408],[-3.9393,51.762528],[-3.939411,51.762884],[-3.939482,51.76311],[-3.939511,51.763204],[-3.940137,51.763118],[-3.941359,51.762852],[-3.942071,51.762674],[-3.942272,51.762585],[-3.942463,51.762404],[-3.942642,51.762132],[-3.942643,51.76174],[-3.942465,51.761228],[-3.94217,51.760823],[-3.941759,51.760524],[-3.941471,51.760167],[-3.941305,51.759751],[-3.941141,51.759395],[-3.940978,51.759099],[-3.940596,51.758922],[-3.939995,51.758863],[-3.939548,51.758759],[-3.939254,51.758609],[-3.938987,51.758293],[-3.938748,51.75781],[-3.938422,51.757305],[-3.93801,51.756778],[-3.937736,51.756408],[-3.937599,51.756196],[-3.937479,51.756096],[-3.937377,51.756108],[-3.937247,51.756172],[-3.93709,51.756289],[-3.936999,51.75642],[-3.936973,51.756564],[-3.93697,51.756668],[-3.93699,51.756731],[-3.937023,51.75695],[-3.93707,51.757326],[-3.937009,51.757861],[-3.936838,51.758556],[-3.936725,51.759038],[-3.936667,51.759306],[-3.936589,51.759702],[-3.936488,51.760225],[-3.93642,51.760544],[-3.936385,51.760657],[-3.936474,51.760885],[-3.936688,51.76123],[-3.936993,51.761585]]]}}