{"type":"Feature","properties":{"id":"294189","COMMUNE":"Neath Port Talbot","PROVINCE":"Bridgend and Neath Port Talbot","COUNTRY":"UK","FIREDATE":"2026-03-21 00:00:00","FINALDATE":"2026-03-21 00:00:00","CLASS":"FireSeason","areaHA_geo":1.901},"geometry":{"type":"Polygon","coordinates":[[[-3.864271,51.782285],[-3.864507,51.782252],[-3.864732,51.782232],[-3.864946,51.782226],[-3.865175,51.782273],[-3.865421,51.782371],[-3.865707,51.782431],[-3.866032,51.782451],[-3.866305,51.782408],[-3.866527,51.782303],[-3.866788,51.782142],[-3.867087,51.781924],[-3.867311,51.781866],[-3.867462,51.781966],[-3.867575,51.782058],[-3.867649,51.782142],[-3.867798,51.782198],[-3.868021,51.782226],[-3.86819,51.782218],[-3.868304,51.782175],[-3.868334,51.78209],[-3.868278,51.781964],[-3.868108,51.781827],[-3.867823,51.781679],[-3.867634,51.781559],[-3.867542,51.781467],[-3.867408,51.781385],[-3.867234,51.781312],[-3.867016,51.781341],[-3.866754,51.78147],[-3.866443,51.781574],[-3.866085,51.781651],[-3.865718,51.781714],[-3.865343,51.781764],[-3.865051,51.781808],[-3.86484,51.781848],[-3.864648,51.781859],[-3.864475,51.78184],[-3.864357,51.781808],[-3.864295,51.781761],[-3.864186,51.781732],[-3.864031,51.781721],[-3.863937,51.781764],[-3.863904,51.781862],[-3.863953,51.782008],[-3.864086,51.782204],[-3.864271,51.782285]]]}}