{"type":"Feature","properties":{"id":"294199","COMMUNE":"Powys","PROVINCE":"Powys","COUNTRY":"UK","FIREDATE":"2026-03-21 12:36:00","FINALDATE":"2026-03-21 12:55:00","CLASS":"FireSeason","areaHA_geo":25.389},"geometry":{"type":"Polygon","coordinates":[[[-3.581898,51.865107],[-3.58187,51.865117],[-3.581825,51.865132],[-3.581762,51.865154],[-3.58169,51.865106],[-3.581608,51.864988],[-3.581553,51.864874],[-3.581524,51.864763],[-3.581288,51.864708],[-3.580846,51.864709],[-3.58026,51.864835],[-3.579528,51.865086],[-3.57891,51.865357],[-3.578406,51.865648],[-3.578075,51.865858],[-3.577917,51.865987],[-3.577667,51.86611],[-3.577326,51.866228],[-3.577041,51.866355],[-3.576814,51.866492],[-3.576573,51.866586],[-3.57632,51.866638],[-3.576162,51.866712],[-3.576102,51.866807],[-3.576148,51.866957],[-3.5763,51.86716],[-3.576368,51.867296],[-3.576353,51.867364],[-3.576195,51.867466],[-3.575895,51.8676],[-3.575728,51.867669],[-3.575693,51.867673],[-3.575579,51.867858],[-3.575385,51.868224],[-3.575383,51.868451],[-3.575572,51.868539],[-3.575808,51.868606],[-3.576091,51.86865],[-3.576354,51.868631],[-3.576598,51.868547],[-3.576714,51.868368],[-3.576702,51.868092],[-3.576686,51.867895],[-3.576668,51.867776],[-3.576782,51.867679],[-3.577029,51.867606],[-3.577354,51.867613],[-3.577758,51.867698],[-3.578016,51.867807],[-3.578127,51.867937],[-3.578057,51.868029],[-3.577803,51.86808],[-3.57768,51.86815],[-3.577689,51.868237],[-3.57783,51.868404],[-3.578102,51.868648],[-3.578391,51.868886],[-3.578695,51.869116],[-3.578924,51.869277],[-3.579078,51.86937],[-3.579332,51.869379],[-3.579687,51.869305],[-3.57997,51.869144],[-3.580182,51.868898],[-3.580402,51.868707],[-3.58063,51.86857],[-3.58082,51.868398],[-3.580972,51.868192],[-3.580877,51.868026],[-3.580533,51.867901],[-3.580233,51.867803],[-3.579978,51.867733],[-3.57978,51.867612],[-3.579637,51.867441],[-3.579697,51.867312],[-3.579958,51.867226],[-3.580468,51.867161],[-3.581227,51.867117],[-3.581618,51.867087],[-3.581639,51.86707],[-3.58171,51.867056],[-3.581831,51.867046],[-3.58206,51.867011],[-3.582398,51.86695],[-3.58266,51.866923],[-3.582846,51.86693],[-3.583085,51.86698],[-3.583378,51.867073],[-3.583574,51.86717],[-3.583674,51.867272],[-3.583797,51.867374],[-3.583944,51.867477],[-3.58413,51.867505],[-3.584357,51.867458],[-3.584497,51.867409],[-3.584551,51.867361],[-3.584688,51.86732],[-3.584908,51.867287],[-3.585077,51.867314],[-3.585195,51.867399],[-3.585228,51.86749],[-3.585178,51.867588],[-3.585118,51.867655],[-3.585049,51.867692],[-3.584934,51.867748],[-3.584773,51.867823],[-3.584681,51.867915],[-3.584656,51.868024],[-3.584728,51.86809],[-3.584896,51.868113],[-3.585088,51.868083],[-3.585304,51.868001],[-3.585498,51.867922],[-3.58567,51.867846],[-3.585883,51.867789],[-3.586136,51.867752],[-3.586446,51.867808],[-3.586813,51.867956],[-3.587007,51.868065],[-3.587028,51.868133],[-3.587065,51.868182],[-3.58712,51.868211],[-3.587296,51.868222],[-3.587593,51.868216],[-3.587796,51.868224],[-3.587907,51.868246],[-3.587982,51.868287],[-3.588023,51.868346],[-3.58798,51.868429],[-3.587852,51.868535],[-3.587781,51.868643],[-3.587768,51.86875],[-3.587783,51.868837],[-3.587826,51.868903],[-3.587857,51.869023],[-3.587876,51.869197],[-3.587942,51.869299],[-3.588054,51.869329],[-3.588275,51.869299],[-3.588604,51.869212],[-3.58885,51.869133],[-3.589013,51.869065],[-3.589086,51.868947],[-3.589069,51.868779],[-3.589077,51.868654],[-3.589109,51.868573],[-3.58918,51.868504],[-3.58929,51.868449],[-3.589375,51.868485],[-3.589437,51.868612],[-3.589487,51.868698],[-3.589524,51.868744],[-3.589639,51.868783],[-3.589833,51.868817],[-3.590051,51.868795],[-3.590291,51.868718],[-3.590437,51.868556],[-3.590488,51.868309],[-3.590555,51.868118],[-3.59064,51.86798],[-3.59077,51.867845],[-3.590948,51.867711],[-3.591072,51.867591],[-3.591142,51.867483],[-3.591176,51.867387],[-3.591173,51.867303],[-3.591046,51.867282],[-3.590795,51.867326],[-3.590607,51.867387],[-3.590482,51.867465],[-3.590225,51.867527],[-3.589837,51.867572],[-3.589602,51.867557],[-3.589522,51.867481],[-3.589324,51.867455],[-3.589009,51.867477],[-3.588765,51.867467],[-3.588591,51.867424],[-3.588456,51.867358],[-3.58836,51.86727],[-3.588294,51.867186],[-3.588258,51.867105],[-3.588139,51.867056],[-3.587938,51.867037],[-3.587732,51.867075],[-3.58752,51.86717],[-3.587306,51.867202],[-3.587089,51.867171],[-3.586936,51.867139],[-3.586846,51.867107],[-3.586664,51.867132],[-3.58639,51.867214],[-3.586189,51.867195],[-3.58606,51.867075],[-3.585992,51.866945],[-3.585983,51.866805],[-3.586024,51.866676],[-3.586115,51.86656],[-3.586295,51.866471],[-3.586564,51.866412],[-3.586657,51.866323],[-3.586575,51.866205],[-3.586389,51.866064],[-3.586097,51.8659],[-3.585816,51.86577],[-3.585546,51.865675],[-3.585366,51.865558],[-3.585278,51.865419],[-3.58525,51.865271],[-3.585281,51.865111],[-3.585305,51.864964],[-3.585321,51.864827],[-3.585463,51.864712],[-3.585733,51.864617],[-3.585787,51.864529],[-3.585624,51.864449],[-3.58544,51.864428],[-3.585233,51.864466],[-3.584959,51.86447],[-3.584616,51.864439],[-3.584219,51.864418],[-3.583768,51.864407],[-3.583442,51.864413],[-3.583243,51.864437],[-3.583061,51.864518],[-3.582897,51.864657],[-3.582757,51.864762],[-3.58264,51.864832],[-3.582414,51.864926],[-3.58208,51.865043],[-3.581898,51.865107]]]}}