{"type":"Feature","properties":{"id":"294177","COMMUNE":"Swansea","PROVINCE":"Swansea","COUNTRY":"UK","FIREDATE":"2026-04-07 12:19:00","CLASS":"FireSeason","areaHA_geo":4.333},"geometry":{"type":"Polygon","coordinates":[[[-4.258269,51.606901],[-4.258867,51.607018],[-4.259384,51.607109],[-4.259818,51.607173],[-4.260179,51.607183],[-4.260467,51.607139],[-4.260661,51.607056],[-4.260763,51.606935],[-4.260862,51.606827],[-4.260958,51.606733],[-4.26097,51.606638],[-4.260898,51.606543],[-4.260867,51.606436],[-4.260878,51.606317],[-4.260965,51.606194],[-4.261127,51.606065],[-4.261276,51.605949],[-4.261412,51.605845],[-4.261542,51.605738],[-4.261668,51.605627],[-4.261627,51.605422],[-4.261419,51.605122],[-4.261209,51.604937],[-4.260998,51.604867],[-4.260738,51.60491],[-4.26043,51.605065],[-4.26013,51.605161],[-4.25984,51.605197],[-4.259538,51.605238],[-4.259223,51.605285],[-4.258929,51.605376],[-4.258656,51.605509],[-4.258552,51.605635],[-4.258618,51.605753],[-4.258679,51.605856],[-4.258735,51.605945],[-4.25868,51.606012],[-4.258512,51.606059],[-4.25829,51.606099],[-4.258013,51.606134],[-4.257809,51.606209],[-4.257678,51.606325],[-4.257701,51.606498],[-4.25788,51.606727],[-4.258269,51.606901]]]}}