{"type":"Feature","properties":{"id":"294180","COMMUNE":"Swansea","PROVINCE":"Swansea","COUNTRY":"UK","FIREDATE":"2026-04-02 13:53:00","CLASS":"FireSeason","areaHA_geo":5.841},"geometry":{"type":"Polygon","coordinates":[[[-4.109813,51.612369],[-4.110063,51.612656],[-4.110306,51.612922],[-4.110543,51.613167],[-4.110712,51.613338],[-4.110813,51.613435],[-4.111031,51.613452],[-4.111365,51.613389],[-4.111552,51.613197],[-4.111591,51.612875],[-4.111537,51.612564],[-4.11139,51.612264],[-4.111389,51.612067],[-4.111537,51.611973],[-4.111595,51.611823],[-4.111566,51.611619],[-4.111498,51.61143],[-4.11139,51.611257],[-4.111366,51.611096],[-4.111425,51.610947],[-4.111662,51.610775],[-4.112079,51.610582],[-4.112352,51.61027],[-4.112481,51.609838],[-4.112658,51.609505],[-4.112885,51.609269],[-4.113105,51.6091],[-4.113321,51.608997],[-4.113493,51.608845],[-4.113624,51.608643],[-4.113499,51.608554],[-4.113118,51.608579],[-4.112813,51.608649],[-4.112584,51.608764],[-4.112339,51.608969],[-4.112078,51.609263],[-4.111789,51.60955],[-4.11147,51.60983],[-4.111152,51.610055],[-4.110834,51.610225],[-4.11057,51.610339],[-4.110358,51.610398],[-4.110106,51.610297],[-4.109811,51.610037],[-4.109558,51.609795],[-4.109345,51.609569],[-4.109122,51.609421],[-4.108887,51.609351],[-4.108724,51.609393],[-4.108631,51.609546],[-4.108597,51.609748],[-4.108622,51.609996],[-4.108758,51.610286],[-4.109004,51.610617],[-4.109317,51.610853],[-4.109697,51.610993],[-4.110001,51.611114],[-4.110228,51.611218],[-4.110419,51.611403],[-4.110574,51.611669],[-4.110615,51.611855],[-4.110543,51.611962],[-4.110362,51.611979],[-4.110074,51.611905],[-4.109869,51.611957],[-4.109749,51.612136],[-4.109813,51.612369]]]}}