{"type":"Feature","properties":{"id":"294186","COMMUNE":"Neath Port Talbot","PROVINCE":"Bridgend and Neath Port Talbot","COUNTRY":"UK","FIREDATE":"2026-03-30 00:00:00","FINALDATE":"2026-03-30 00:00:00","CLASS":"FireSeason","areaHA_geo":9.189},"geometry":{"type":"Polygon","coordinates":[[[-3.878753,51.724814],[-3.878771,51.725241],[-3.878915,51.725631],[-3.879187,51.725985],[-3.879355,51.726226],[-3.879418,51.726354],[-3.879602,51.726443],[-3.879907,51.726492],[-3.880333,51.726391],[-3.88088,51.72614],[-3.881256,51.725898],[-3.881461,51.725667],[-3.88167,51.725427],[-3.881883,51.72518],[-3.882083,51.725024],[-3.882271,51.724959],[-3.882437,51.724803],[-3.88258,51.724557],[-3.882709,51.724134],[-3.882823,51.723534],[-3.882764,51.723102],[-3.88253,51.722837],[-3.882218,51.722688],[-3.881826,51.722656],[-3.881204,51.722609],[-3.880351,51.722547],[-3.879775,51.722519],[-3.879476,51.722526],[-3.879318,51.722631],[-3.8793,51.722833],[-3.879298,51.722958],[-3.879313,51.723007],[-3.879177,51.723423],[-3.878889,51.724208],[-3.878753,51.724814]]]}}