{"type":"Feature","properties":{"id":"294187","COMMUNE":"Carmarthenshire","PROVINCE":"South West Wales","COUNTRY":"UK","FIREDATE":"2026-03-07 10:45:00","CLASS":"FireSeason","areaHA_geo":18.183},"geometry":{"type":"Polygon","coordinates":[[[-3.873879,51.821041],[-3.874583,51.820594],[-3.875197,51.82014],[-3.87572,51.819679],[-3.876122,51.819081],[-3.876403,51.818346],[-3.876548,51.817742],[-3.876557,51.817269],[-3.876488,51.81689],[-3.87634,51.816606],[-3.876059,51.816458],[-3.875643,51.816447],[-3.875301,51.816482],[-3.875031,51.816562],[-3.874625,51.816768],[-3.87408,51.817099],[-3.873672,51.817426],[-3.8734,51.817748],[-3.873006,51.817995],[-3.87249,51.818165],[-3.871945,51.818369],[-3.871372,51.818607],[-3.870801,51.81882],[-3.870232,51.819009],[-3.869844,51.819152],[-3.869639,51.819249],[-3.869341,51.819363],[-3.86895,51.819494],[-3.868735,51.819683],[-3.868694,51.81993],[-3.868576,51.820307],[-3.868381,51.820814],[-3.868273,51.821159],[-3.868252,51.821343],[-3.868405,51.821458],[-3.868734,51.821503],[-3.868996,51.821526],[-3.869193,51.821527],[-3.869319,51.821555],[-3.869375,51.821608],[-3.870434,51.821543],[-3.872496,51.821357],[-3.873879,51.821041]]]}}