{"type":"Feature","properties":{"id":"294183","COMMUNE":"Swansea","PROVINCE":"Swansea","COUNTRY":"UK","FIREDATE":"2026-03-22 01:58:00","FINALDATE":"2026-03-22 02:49:00","CLASS":"FireSeason","areaHA_geo":16.081},"geometry":{"type":"Polygon","coordinates":[[[-3.931321,51.745762],[-3.931369,51.745917],[-3.931516,51.746064],[-3.931761,51.746203],[-3.932064,51.746298],[-3.932424,51.74635],[-3.932784,51.746402],[-3.933144,51.746454],[-3.933353,51.746554],[-3.933411,51.7467],[-3.933467,51.746822],[-3.93352,51.746918],[-3.933678,51.747005],[-3.93394,51.747083],[-3.934197,51.747089],[-3.934448,51.747022],[-3.934841,51.74695],[-3.935373,51.746871],[-3.935838,51.746764],[-3.936234,51.746629],[-3.936669,51.746445],[-3.937142,51.746213],[-3.937583,51.745995],[-3.937994,51.745792],[-3.938596,51.745592],[-3.939387,51.745395],[-3.940001,51.74512],[-3.940436,51.744768],[-3.94089,51.744475],[-3.941363,51.744243],[-3.941703,51.744041],[-3.94191,51.74387],[-3.941976,51.743664],[-3.941901,51.743424],[-3.941763,51.743211],[-3.941562,51.743022],[-3.941485,51.742797],[-3.941534,51.742535],[-3.941497,51.742361],[-3.941374,51.742273],[-3.941239,51.742238],[-3.94109,51.742256],[-3.941004,51.742339],[-3.94098,51.742489],[-3.940862,51.7427],[-3.940651,51.742974],[-3.940461,51.743103],[-3.94029,51.743087],[-3.940127,51.743004],[-3.939974,51.742854],[-3.939934,51.742727],[-3.940008,51.742623],[-3.939909,51.742591],[-3.939637,51.742631],[-3.939471,51.742633],[-3.939412,51.742596],[-3.939372,51.742524],[-3.93935,51.742417],[-3.939348,51.742256],[-3.939364,51.742042],[-3.939342,51.74188],[-3.939284,51.74177],[-3.939176,51.741746],[-3.939018,51.741809],[-3.938891,51.741934],[-3.938795,51.742121],[-3.938595,51.742237],[-3.938288,51.742281],[-3.938053,51.742305],[-3.937888,51.74231],[-3.93777,51.742405],[-3.937697,51.74259],[-3.937659,51.74277],[-3.937655,51.742946],[-3.937768,51.743005],[-3.937999,51.742948],[-3.93817,51.742833],[-3.938282,51.742658],[-3.938394,51.742619],[-3.938507,51.742716],[-3.938573,51.742869],[-3.938591,51.743079],[-3.93861,51.743289],[-3.938628,51.743499],[-3.938569,51.743652],[-3.938434,51.743749],[-3.938196,51.743748],[-3.937857,51.74365],[-3.937475,51.743604],[-3.937051,51.743611],[-3.9368,51.743681],[-3.936723,51.743815],[-3.936661,51.743995],[-3.936613,51.74422],[-3.936547,51.744425],[-3.936462,51.744611],[-3.936289,51.744738],[-3.936025,51.744806],[-3.93575,51.744854],[-3.935462,51.744881],[-3.93487,51.744959],[-3.933974,51.745089],[-3.933417,51.745185],[-3.933199,51.745248],[-3.932892,51.745288],[-3.932494,51.745306],[-3.932051,51.745367],[-3.931561,51.74547],[-3.931311,51.745562],[-3.931301,51.745643],[-3.931321,51.745762]]]}}