{"type":"Feature","properties":{"id":"294170","COMMUNE":"Swansea","PROVINCE":"Swansea","COUNTRY":"UK","FIREDATE":"2026-04-07 01:07:00","FINALDATE":"2026-04-07 13:57:00","CLASS":"FireSeason","areaHA_geo":77.443},"geometry":{"type":"Polygon","coordinates":[[[-4.146779,51.580312],[-4.146895,51.580202],[-4.147078,51.580085],[-4.14733,51.57996],[-4.147592,51.579885],[-4.147863,51.57986],[-4.148143,51.579884],[-4.148433,51.579959],[-4.148643,51.580043],[-4.148774,51.580137],[-4.148826,51.580241],[-4.148798,51.580354],[-4.148781,51.58048],[-4.148774,51.580618],[-4.148777,51.580769],[-4.148791,51.580932],[-4.148876,51.581071],[-4.149033,51.581185],[-4.149261,51.581275],[-4.14956,51.58134],[-4.149901,51.581395],[-4.150282,51.581438],[-4.150705,51.581471],[-4.151168,51.581493],[-4.151574,51.581514],[-4.151922,51.581534],[-4.152214,51.581554],[-4.152448,51.581572],[-4.152628,51.581572],[-4.152755,51.581552],[-4.152828,51.581514],[-4.152848,51.581457],[-4.152881,51.5814],[-4.152926,51.581343],[-4.152985,51.581287],[-4.153056,51.581231],[-4.153195,51.58119],[-4.153403,51.581165],[-4.153678,51.581155],[-4.154022,51.58116],[-4.154316,51.581197],[-4.154559,51.581265],[-4.154752,51.581365],[-4.154895,51.581497],[-4.155096,51.581631],[-4.155355,51.581768],[-4.155672,51.581908],[-4.156047,51.582051],[-4.156411,51.582161],[-4.156766,51.58224],[-4.15711,51.582286],[-4.157444,51.5823],[-4.157703,51.58232],[-4.157886,51.582345],[-4.157998,51.582325],[-4.158039,51.582258],[-4.157979,51.582162],[-4.157818,51.582037],[-4.157705,51.581935],[-4.15764,51.581858],[-4.157619,51.581765],[-4.157641,51.581657],[-4.157814,51.581666],[-4.158137,51.581792],[-4.158379,51.581905],[-4.15854,51.582006],[-4.158617,51.582119],[-4.158608,51.582246],[-4.158622,51.582348],[-4.158657,51.582425],[-4.158697,51.582513],[-4.158741,51.582611],[-4.158917,51.582709],[-4.159223,51.582807],[-4.159492,51.582852],[-4.159724,51.582844],[-4.159942,51.582824],[-4.160147,51.582794],[-4.160445,51.58282],[-4.160836,51.5829],[-4.161439,51.583028],[-4.162255,51.583203],[-4.16294,51.583343],[-4.163493,51.583448],[-4.163914,51.583519],[-4.164204,51.583554],[-4.164523,51.58364],[-4.164871,51.583778],[-4.165248,51.583968],[-4.165654,51.584209],[-4.165996,51.58441],[-4.166276,51.584572],[-4.166492,51.584695],[-4.166645,51.584778],[-4.166807,51.584809],[-4.166978,51.584788],[-4.167158,51.584715],[-4.167346,51.58459],[-4.167518,51.584481],[-4.167672,51.584387],[-4.167809,51.58431],[-4.167929,51.584248],[-4.168108,51.584173],[-4.168346,51.584085],[-4.168644,51.583984],[-4.169001,51.58387],[-4.169287,51.583774],[-4.169504,51.583696],[-4.16965,51.583637],[-4.169725,51.583597],[-4.16972,51.58353],[-4.169634,51.583439],[-4.169467,51.583322],[-4.169219,51.58318],[-4.168848,51.583029],[-4.168354,51.582869],[-4.167737,51.582702],[-4.166997,51.582525],[-4.166325,51.582346],[-4.165723,51.582165],[-4.165189,51.581981],[-4.164724,51.581794],[-4.164256,51.581616],[-4.163784,51.581446],[-4.163308,51.581285],[-4.162829,51.581131],[-4.162416,51.580989],[-4.162071,51.580859],[-4.161792,51.58074],[-4.161581,51.580632],[-4.161394,51.580504],[-4.161233,51.580355],[-4.161097,51.580185],[-4.160986,51.579995],[-4.160888,51.579805],[-4.160802,51.579615],[-4.160752,51.579496],[-4.160737,51.579449],[-4.160749,51.579342],[-4.160789,51.579176],[-4.160808,51.579002],[-4.160807,51.57882],[-4.160745,51.578625],[-4.160622,51.578416],[-4.160325,51.578315],[-4.159853,51.578324],[-4.159606,51.57833],[-4.159583,51.578332],[-4.159524,51.578313],[-4.15943,51.578272],[-4.159211,51.57821],[-4.158867,51.578126],[-4.158395,51.578035],[-4.157793,51.577936],[-4.157062,51.577829],[-4.156202,51.577714],[-4.15536,51.577627],[-4.154536,51.577567],[-4.15373,51.577534],[-4.152943,51.577528],[-4.152236,51.577536],[-4.151609,51.577557],[-4.151062,51.577593],[-4.150596,51.577642],[-4.150206,51.577711],[-4.149892,51.577801],[-4.149654,51.57791],[-4.149493,51.57804],[-4.149315,51.578171],[-4.149123,51.578305],[-4.148916,51.57844],[-4.148693,51.578577],[-4.148458,51.578686],[-4.148211,51.578767],[-4.147952,51.578821],[-4.147682,51.578846],[-4.147475,51.578857],[-4.147332,51.578854],[-4.147183,51.578678],[-4.147027,51.578329],[-4.146912,51.578019],[-4.146838,51.577748],[-4.146662,51.577497],[-4.146385,51.577265],[-4.146087,51.577126],[-4.145768,51.577081],[-4.145601,51.577085],[-4.145589,51.577137],[-4.145566,51.577227],[-4.145534,51.577355],[-4.145476,51.577463],[-4.145391,51.577551],[-4.145257,51.577591],[-4.145074,51.577586],[-4.144906,51.577501],[-4.144753,51.577338],[-4.144554,51.577264],[-4.14431,51.57728],[-4.144107,51.577298],[-4.143944,51.577318],[-4.143858,51.577329],[-4.143849,51.577331],[-4.143802,51.577357],[-4.143716,51.577407],[-4.143654,51.577483],[-4.143617,51.577586],[-4.143604,51.577715],[-4.143615,51.577871],[-4.1436,51.578014],[-4.143559,51.578144],[-4.143492,51.578263],[-4.143399,51.578368],[-4.143298,51.578451],[-4.14319,51.578511],[-4.143076,51.578549],[-4.142954,51.578564],[-4.142777,51.578546],[-4.142546,51.578496],[-4.14226,51.578413],[-4.141919,51.578298],[-4.141507,51.578148],[-4.141024,51.577963],[-4.14047,51.577744],[-4.139845,51.577491],[-4.139338,51.577288],[-4.138947,51.577136],[-4.138674,51.577034],[-4.138519,51.576982],[-4.138319,51.576961],[-4.138075,51.576971],[-4.137787,51.577012],[-4.137455,51.577084],[-4.13712,51.577117],[-4.136782,51.577112],[-4.136442,51.577067],[-4.136098,51.576983],[-4.135713,51.576908],[-4.135287,51.576843],[-4.134819,51.576786],[-4.13431,51.576738],[-4.133843,51.576705],[-4.133419,51.576686],[-4.133037,51.576682],[-4.132698,51.576692],[-4.132329,51.576695],[-4.131929,51.576693],[-4.131499,51.576685],[-4.131038,51.57667],[-4.130644,51.576648],[-4.130318,51.576617],[-4.130058,51.576578],[-4.129866,51.576531],[-4.1297,51.576488],[-4.129562,51.57645],[-4.12945,51.576417],[-4.129365,51.576388],[-4.129259,51.576365],[-4.129134,51.576349],[-4.128988,51.57634],[-4.128822,51.576336],[-4.128705,51.576357],[-4.128637,51.5764],[-4.128617,51.576467],[-4.128645,51.576558],[-4.128729,51.576664],[-4.128869,51.576784],[-4.129063,51.576919],[-4.129314,51.577069],[-4.129561,51.57719],[-4.129805,51.577282],[-4.130047,51.577345],[-4.130286,51.577378],[-4.130571,51.57741],[-4.130904,51.57744],[-4.131284,51.577469],[-4.13171,51.577495],[-4.132063,51.577548],[-4.132342,51.577628],[-4.132546,51.577734],[-4.132677,51.577868],[-4.13282,51.57798],[-4.132976,51.578071],[-4.133143,51.57814],[-4.133324,51.578189],[-4.133607,51.578235],[-4.133995,51.578278],[-4.134486,51.578318],[-4.135081,51.578355],[-4.13559,51.578393],[-4.136014,51.578432],[-4.136353,51.578471],[-4.136606,51.578511],[-4.136815,51.578571],[-4.136981,51.578653],[-4.137102,51.578756],[-4.137179,51.57888],[-4.137328,51.57897],[-4.137548,51.579026],[-4.13784,51.579047],[-4.138204,51.579034],[-4.138566,51.579039],[-4.138928,51.579061],[-4.13929,51.579101],[-4.13965,51.579159],[-4.140002,51.57923],[-4.140345,51.579314],[-4.14068,51.57941],[-4.141006,51.57952],[-4.141334,51.579635],[-4.141664,51.579755],[-4.141995,51.579882],[-4.142328,51.580014],[-4.14262,51.580135],[-4.142871,51.580246],[-4.14308,51.580346],[-4.143247,51.580435],[-4.143443,51.580523],[-4.143667,51.58061],[-4.143919,51.580695],[-4.144199,51.580778],[-4.144446,51.58084],[-4.144662,51.580881],[-4.144845,51.5809],[-4.144997,51.580897],[-4.14514,51.580911],[-4.145277,51.580941],[-4.145406,51.580988],[-4.145527,51.581052],[-4.145635,51.581103],[-4.14573,51.581143],[-4.145806,51.581169],[-4.145862,51.581181],[-4.145924,51.581217],[-4.145991,51.581276],[-4.146184,51.581276],[-4.146504,51.581215],[-4.146678,51.580981],[-4.146707,51.580571],[-4.146779,51.580312]]]}}