{"type":"Feature","properties":{"id":"294164","COMMUNE":"Powys","PROVINCE":"Powys","COUNTRY":"UK","FIREDATE":"2026-04-08 10:47:00","FINALDATE":"2026-04-08 14:12:00","CLASS":"FireSeason","areaHA_geo":187.481},"geometry":{"type":"Polygon","coordinates":[[[-3.363635,51.812208],[-3.363563,51.812171],[-3.363517,51.81211],[-3.363496,51.812026],[-3.363501,51.811918],[-3.363518,51.811829],[-3.363547,51.811757],[-3.363589,51.811704],[-3.363644,51.811669],[-3.36368,51.811635],[-3.363698,51.811601],[-3.363697,51.811569],[-3.363678,51.811536],[-3.363648,51.811505],[-3.363606,51.811476],[-3.363554,51.811447],[-3.36349,51.81142],[-3.363434,51.811374],[-3.363386,51.811308],[-3.363347,51.811222],[-3.363315,51.811117],[-3.363253,51.811042],[-3.363161,51.810998],[-3.363038,51.810985],[-3.362886,51.811003],[-3.362759,51.811016],[-3.36266,51.811024],[-3.362587,51.811028],[-3.36254,51.811028],[-3.362492,51.811016],[-3.362444,51.810993],[-3.362394,51.810959],[-3.362343,51.810913],[-3.362291,51.81088],[-3.362239,51.81086],[-3.362186,51.810854],[-3.362132,51.81086],[-3.362075,51.810881],[-3.362016,51.810916],[-3.361954,51.810966],[-3.36189,51.811031],[-3.36183,51.811102],[-3.361775,51.81118],[-3.361723,51.811265],[-3.361677,51.811356],[-3.361625,51.811434],[-3.36157,51.811497],[-3.361511,51.811547],[-3.361447,51.811583],[-3.361404,51.811641],[-3.361382,51.811721],[-3.36138,51.811823],[-3.361398,51.811947],[-3.36139,51.812067],[-3.361355,51.812183],[-3.361294,51.812294],[-3.361205,51.812402],[-3.361112,51.81248],[-3.361015,51.812528],[-3.360914,51.812547],[-3.360809,51.812536],[-3.360718,51.812525],[-3.360641,51.812515],[-3.360579,51.812505],[-3.360531,51.812494],[-3.360507,51.812464],[-3.360505,51.812412],[-3.360527,51.81234],[-3.360572,51.812248],[-3.360569,51.812182],[-3.360519,51.812144],[-3.360423,51.812133],[-3.360279,51.81215],[-3.360165,51.812141],[-3.36008,51.812108],[-3.360026,51.81205],[-3.360001,51.811967],[-3.359963,51.811904],[-3.359913,51.811861],[-3.359851,51.811838],[-3.359775,51.811835],[-3.359708,51.811844],[-3.35965,51.811865],[-3.359599,51.811898],[-3.359557,51.811943],[-3.359484,51.81197],[-3.359379,51.811979],[-3.359244,51.81197],[-3.359078,51.811944],[-3.358959,51.811909],[-3.358885,51.811866],[-3.358858,51.811814],[-3.358877,51.811755],[-3.358845,51.811693],[-3.35876,51.811628],[-3.358624,51.81156],[-3.358436,51.81149],[-3.358283,51.811446],[-3.358166,51.811428],[-3.358085,51.811436],[-3.358039,51.81147],[-3.357981,51.811485],[-3.35791,51.811482],[-3.357827,51.81146],[-3.357731,51.811419],[-3.357678,51.811375],[-3.357669,51.811327],[-3.357702,51.811276],[-3.357779,51.811222],[-3.357818,51.811176],[-3.357821,51.811138],[-3.357787,51.811109],[-3.357715,51.811088],[-3.357638,51.811062],[-3.357553,51.811028],[-3.357462,51.810989],[-3.357365,51.810942],[-3.357273,51.810901],[-3.357188,51.810865],[-3.357109,51.810834],[-3.357036,51.810808],[-3.356977,51.810779],[-3.35693,51.810747],[-3.356896,51.810712],[-3.356875,51.810675],[-3.356857,51.810638],[-3.356842,51.810603],[-3.35683,51.810568],[-3.35682,51.810535],[-3.35682,51.810498],[-3.356831,51.810456],[-3.356852,51.810411],[-3.356884,51.810361],[-3.356913,51.810311],[-3.356939,51.810259],[-3.356963,51.810206],[-3.356984,51.810152],[-3.356972,51.810115],[-3.356929,51.810094],[-3.356853,51.81009],[-3.356745,51.810102],[-3.356658,51.810105],[-3.356591,51.810098],[-3.356544,51.810082],[-3.356518,51.810057],[-3.356495,51.810028],[-3.356476,51.809996],[-3.356461,51.80996],[-3.356449,51.809921],[-3.356438,51.809877],[-3.356428,51.809826],[-3.356418,51.80977],[-3.356409,51.809708],[-3.356413,51.809653],[-3.356431,51.809605],[-3.356463,51.809564],[-3.356509,51.80953],[-3.356489,51.809474],[-3.356405,51.809395],[-3.356256,51.809293],[-3.356042,51.809168],[-3.355832,51.809088],[-3.355626,51.809051],[-3.355424,51.809059],[-3.355225,51.80911],[-3.355045,51.809161],[-3.354884,51.809211],[-3.354741,51.80926],[-3.354616,51.809309],[-3.354505,51.80935],[-3.354408,51.809384],[-3.354326,51.809411],[-3.354257,51.80943],[-3.354184,51.809488],[-3.354105,51.809583],[-3.354022,51.809715],[-3.353934,51.809886],[-3.353863,51.810037],[-3.35381,51.810169],[-3.353774,51.810282],[-3.353756,51.810376],[-3.353749,51.810456],[-3.353755,51.810521],[-3.353773,51.810572],[-3.353802,51.810609],[-3.353842,51.810626],[-3.353892,51.810623],[-3.353953,51.8106],[-3.354024,51.810558],[-3.354075,51.810512],[-3.354107,51.810462],[-3.354119,51.810409],[-3.354111,51.810353],[-3.35413,51.810315],[-3.354175,51.810295],[-3.354247,51.810294],[-3.354345,51.810312],[-3.354414,51.810339],[-3.354453,51.810378],[-3.354463,51.810427],[-3.354444,51.810486],[-3.354418,51.810547],[-3.354385,51.810608],[-3.354346,51.81067],[-3.354299,51.810732],[-3.354256,51.810786],[-3.354217,51.81083],[-3.35418,51.810865],[-3.354146,51.81089],[-3.354116,51.810913],[-3.35409,51.810933],[-3.354067,51.810951],[-3.354048,51.810966],[-3.354051,51.810983],[-3.354078,51.811004],[-3.354128,51.811027],[-3.354201,51.811053],[-3.354293,51.811081],[-3.354404,51.811111],[-3.354535,51.811144],[-3.354684,51.811178],[-3.354794,51.81122],[-3.354865,51.811269],[-3.354896,51.811326],[-3.354887,51.81139],[-3.354832,51.811422],[-3.35473,51.811422],[-3.354581,51.811391],[-3.354385,51.811327],[-3.354212,51.811284],[-3.354061,51.811261],[-3.353932,51.811259],[-3.353826,51.811277],[-3.35374,51.811291],[-3.353673,51.811301],[-3.353626,51.811308],[-3.353599,51.811311],[-3.353546,51.81131],[-3.353465,51.811305],[-3.353358,51.811296],[-3.353224,51.811283],[-3.353104,51.811274],[-3.353,51.811269],[-3.35291,51.811269],[-3.352834,51.811272],[-3.352732,51.811318],[-3.352603,51.811406],[-3.352447,51.811535],[-3.352264,51.811706],[-3.352129,51.811845],[-3.352042,51.811952],[-3.352001,51.812027],[-3.352009,51.81207],[-3.35201,51.812125],[-3.352004,51.812194],[-3.351992,51.812275],[-3.351974,51.812369],[-3.351955,51.812461],[-3.351936,51.812552],[-3.351917,51.812642],[-3.351897,51.81273],[-3.35186,51.812809],[-3.351806,51.812878],[-3.351736,51.812938],[-3.351649,51.812988],[-3.351578,51.813037],[-3.351523,51.813087],[-3.351484,51.813136],[-3.351461,51.813184],[-3.351427,51.813231],[-3.35138,51.813276],[-3.351321,51.81332],[-3.35125,51.813363],[-3.351172,51.813406],[-3.351088,51.81345],[-3.350997,51.813495],[-3.350899,51.813541],[-3.350819,51.813574],[-3.350755,51.813596],[-3.350709,51.813605],[-3.350681,51.813603],[-3.350653,51.813588],[-3.350626,51.813559],[-3.350599,51.813518],[-3.350574,51.813463],[-3.350556,51.813412],[-3.350546,51.813365],[-3.350545,51.813321],[-3.350551,51.81328],[-3.350564,51.813237],[-3.350583,51.813192],[-3.350608,51.813144],[-3.35064,51.813095],[-3.350668,51.813053],[-3.350692,51.813019],[-3.350712,51.812992],[-3.350729,51.812973],[-3.350744,51.812955],[-3.350757,51.81294],[-3.35077,51.812925],[-3.350781,51.812912],[-3.350779,51.812885],[-3.350765,51.812844],[-3.350738,51.812788],[-3.350699,51.812718],[-3.350648,51.81268],[-3.350585,51.812673],[-3.350511,51.812697],[-3.350426,51.812753],[-3.35036,51.812796],[-3.350313,51.812828],[-3.350287,51.812848],[-3.35028,51.812856],[-3.350242,51.812879],[-3.350174,51.812918],[-3.350075,51.812971],[-3.349945,51.81304],[-3.349814,51.81312],[-3.34968,51.813211],[-3.349545,51.813313],[-3.349407,51.813427],[-3.349303,51.813519],[-3.349233,51.81359],[-3.349195,51.81364],[-3.34919,51.813669],[-3.349185,51.813692],[-3.349179,51.813708],[-3.349171,51.813717],[-3.349163,51.81372],[-3.34915,51.81373],[-3.349132,51.813747],[-3.349109,51.813772],[-3.349082,51.813803],[-3.34906,51.813829],[-3.349045,51.813849],[-3.349035,51.813862],[-3.349032,51.813869],[-3.349026,51.813882],[-3.349017,51.8139],[-3.349006,51.813924],[-3.348993,51.813953],[-3.348967,51.813977],[-3.348928,51.813995],[-3.348878,51.814007],[-3.348815,51.814015],[-3.348762,51.814014],[-3.34872,51.814005],[-3.348687,51.813988],[-3.348665,51.813963],[-3.348643,51.813939],[-3.348622,51.813916],[-3.348602,51.813893],[-3.348582,51.813871],[-3.348556,51.813846],[-3.348522,51.813818],[-3.348482,51.813786],[-3.348434,51.813752],[-3.348382,51.813733],[-3.348326,51.813731],[-3.348265,51.813745],[-3.3482,51.813776],[-3.348135,51.813805],[-3.34807,51.813833],[-3.348005,51.81386],[-3.347941,51.813886],[-3.347884,51.813909],[-3.347834,51.813929],[-3.347792,51.813946],[-3.347757,51.81396],[-3.347701,51.813974],[-3.347625,51.813988],[-3.347528,51.814002],[-3.347412,51.814015],[-3.347324,51.814011],[-3.347266,51.813989],[-3.347238,51.813949],[-3.34724,51.813891],[-3.347245,51.813839],[-3.347255,51.813793],[-3.347269,51.813752],[-3.347287,51.813717],[-3.347284,51.813685],[-3.347259,51.813656],[-3.347213,51.813631],[-3.347145,51.813608],[-3.347069,51.813606],[-3.346986,51.813623],[-3.346894,51.813661],[-3.346795,51.813718],[-3.346717,51.813739],[-3.346658,51.813723],[-3.34662,51.813669],[-3.346602,51.813579],[-3.346588,51.813505],[-3.346576,51.813447],[-3.346568,51.813405],[-3.346563,51.813379],[-3.346598,51.81333],[-3.346675,51.813258],[-3.346791,51.813164],[-3.346949,51.813047],[-3.347114,51.812933],[-3.347288,51.81282],[-3.347471,51.81271],[-3.347662,51.812602],[-3.347792,51.812504],[-3.347864,51.812416],[-3.347875,51.812337],[-3.347826,51.812268],[-3.347782,51.812197],[-3.347741,51.812125],[-3.347705,51.81205],[-3.347673,51.811973],[-3.347627,51.811891],[-3.347568,51.811803],[-3.347496,51.81171],[-3.347411,51.811611],[-3.347294,51.811523],[-3.347145,51.811445],[-3.346964,51.811378],[-3.346752,51.811322],[-3.346513,51.811274],[-3.346245,51.811233],[-3.345949,51.8112],[-3.345625,51.811174],[-3.345356,51.811161],[-3.345143,51.811163],[-3.344985,51.811178],[-3.344882,51.811207],[-3.344782,51.81123],[-3.344685,51.811247],[-3.344591,51.811258],[-3.344499,51.811262],[-3.344423,51.81128],[-3.344362,51.81131],[-3.344317,51.811352],[-3.344287,51.811407],[-3.344242,51.81146],[-3.344183,51.811509],[-3.344109,51.811557],[-3.34402,51.811601],[-3.343949,51.811654],[-3.343898,51.811714],[-3.343865,51.811782],[-3.343851,51.811858],[-3.343812,51.811924],[-3.34375,51.81198],[-3.343664,51.812026],[-3.343554,51.812061],[-3.343473,51.812111],[-3.343422,51.812174],[-3.343401,51.812251],[-3.34341,51.812342],[-3.343395,51.812416],[-3.343357,51.812475],[-3.343296,51.812518],[-3.343211,51.812545],[-3.343142,51.812566],[-3.343091,51.81258],[-3.343056,51.812588],[-3.343038,51.81259],[-3.342999,51.812628],[-3.342937,51.812701],[-3.342853,51.812809],[-3.342748,51.812953],[-3.34265,51.813085],[-3.342561,51.813206],[-3.342481,51.813315],[-3.342408,51.813412],[-3.342271,51.813538],[-3.342068,51.813693],[-3.3418,51.813877],[-3.341466,51.81409],[-3.341149,51.814342],[-3.340847,51.814632],[-3.340561,51.814961],[-3.340292,51.815328],[-3.340073,51.815607],[-3.339906,51.815798],[-3.33979,51.815901],[-3.339725,51.815916],[-3.33965,51.815956],[-3.339565,51.816021],[-3.33947,51.816111],[-3.339365,51.816226],[-3.339293,51.816334],[-3.339253,51.816436],[-3.339247,51.81653],[-3.339273,51.816618],[-3.339225,51.81677],[-3.339104,51.816986],[-3.338909,51.817267],[-3.33864,51.817613],[-3.338395,51.817915],[-3.338174,51.818173],[-3.337977,51.818386],[-3.337804,51.818556],[-3.337649,51.818689],[-3.337511,51.818785],[-3.33739,51.818846],[-3.337288,51.81887],[-3.337202,51.818906],[-3.337133,51.818954],[-3.337082,51.819015],[-3.337048,51.819088],[-3.337014,51.819159],[-3.336979,51.819229],[-3.336944,51.819297],[-3.336908,51.819364],[-3.33685,51.819434],[-3.336769,51.819506],[-3.336666,51.819581],[-3.336541,51.819659],[-3.336405,51.819732],[-3.336258,51.8198],[-3.3361,51.819864],[-3.335932,51.819923],[-3.33578,51.819981],[-3.335643,51.820037],[-3.335522,51.820091],[-3.335417,51.820143],[-3.335321,51.820195],[-3.335235,51.820248],[-3.335158,51.820301],[-3.33509,51.820355],[-3.335041,51.820409],[-3.335011,51.820464],[-3.335,51.82052],[-3.335008,51.820576],[-3.335014,51.820637],[-3.33502,51.820702],[-3.335025,51.820772],[-3.335028,51.820846],[-3.335043,51.820912],[-3.33507,51.820969],[-3.335108,51.821018],[-3.335157,51.821058],[-3.335202,51.821099],[-3.335242,51.82114],[-3.335278,51.821182],[-3.335309,51.821224],[-3.335294,51.821276],[-3.335234,51.821337],[-3.335127,51.821408],[-3.334975,51.821489],[-3.334854,51.821551],[-3.334765,51.821596],[-3.334708,51.821622],[-3.334682,51.821631],[-3.334653,51.821649],[-3.334619,51.821675],[-3.334581,51.821711],[-3.334539,51.821756],[-3.334494,51.821801],[-3.334447,51.821847],[-3.334398,51.821893],[-3.334347,51.821939],[-3.334272,51.821983],[-3.334173,51.822026],[-3.334051,51.822067],[-3.333905,51.822107],[-3.333793,51.822144],[-3.333715,51.822179],[-3.333671,51.822211],[-3.333661,51.822241],[-3.333639,51.822275],[-3.333604,51.822313],[-3.333556,51.822356],[-3.333496,51.822403],[-3.333432,51.822446],[-3.333365,51.822485],[-3.333294,51.82252],[-3.33322,51.822552],[-3.333171,51.822583],[-3.333148,51.822615],[-3.333151,51.822646],[-3.333179,51.822677],[-3.333223,51.822702],[-3.333285,51.822721],[-3.333363,51.822733],[-3.333458,51.82274],[-3.333532,51.822744],[-3.333585,51.822747],[-3.333617,51.822749],[-3.333628,51.822748],[-3.333637,51.822772],[-3.333642,51.82282],[-3.333644,51.822893],[-3.333643,51.822989],[-3.33364,51.823072],[-3.333637,51.823141],[-3.333632,51.823195],[-3.333625,51.823236],[-3.333591,51.82327],[-3.33353,51.823297],[-3.33344,51.823317],[-3.333324,51.823331],[-3.333225,51.823344],[-3.333145,51.823356],[-3.333083,51.823367],[-3.33304,51.823378],[-3.333014,51.823392],[-3.333006,51.82341],[-3.333015,51.823432],[-3.333041,51.823458],[-3.333082,51.82348],[-3.333139,51.8235],[-3.333212,51.823516],[-3.333299,51.823529],[-3.333387,51.823536],[-3.333476,51.823537],[-3.333565,51.823532],[-3.333655,51.823522],[-3.333747,51.82351],[-3.33384,51.823497],[-3.333936,51.823481],[-3.334033,51.823465],[-3.334133,51.823463],[-3.334234,51.823477],[-3.334339,51.823507],[-3.334445,51.823552],[-3.334553,51.823587],[-3.334663,51.823612],[-3.334774,51.823626],[-3.334887,51.82363],[-3.335044,51.823627],[-3.335245,51.823615],[-3.33549,51.823596],[-3.335779,51.823568],[-3.336065,51.823544],[-3.336347,51.823523],[-3.336625,51.823506],[-3.3369,51.823492],[-3.337148,51.823481],[-3.337368,51.823472],[-3.337562,51.823467],[-3.337729,51.823466],[-3.337888,51.823463],[-3.338041,51.82346],[-3.338186,51.823456],[-3.338324,51.823452],[-3.338441,51.823453],[-3.338536,51.823459],[-3.338609,51.823471],[-3.338661,51.823488],[-3.338713,51.823525],[-3.338768,51.823582],[-3.338823,51.823658],[-3.33888,51.823755],[-3.338959,51.823823],[-3.339059,51.823863],[-3.339181,51.823875],[-3.339325,51.823859],[-3.339487,51.823833],[-3.339667,51.823798],[-3.339865,51.823754],[-3.340082,51.8237],[-3.340296,51.823647],[-3.340508,51.823594],[-3.340717,51.823542],[-3.340925,51.823489],[-3.341112,51.823437],[-3.341277,51.823386],[-3.341423,51.823335],[-3.341547,51.823285],[-3.341686,51.823259],[-3.341839,51.823259],[-3.342007,51.823283],[-3.342189,51.823333],[-3.342353,51.823376],[-3.342498,51.823412],[-3.342626,51.823441],[-3.342734,51.823463],[-3.342831,51.823475],[-3.342916,51.823479],[-3.342988,51.823473],[-3.343048,51.823458],[-3.34311,51.823443],[-3.343175,51.823427],[-3.343243,51.82341],[-3.343312,51.823393],[-3.343369,51.823387],[-3.343413,51.823391],[-3.343443,51.823407],[-3.34346,51.823434],[-3.343478,51.823457],[-3.343496,51.823477],[-3.343514,51.823494],[-3.343532,51.823508],[-3.343556,51.823526],[-3.343586,51.823548],[-3.343622,51.823575],[-3.343663,51.823606],[-3.343733,51.823625],[-3.34383,51.823632],[-3.343955,51.823626],[-3.344108,51.823609],[-3.344233,51.823591],[-3.344332,51.823572],[-3.344402,51.823552],[-3.344446,51.823532],[-3.344488,51.823512],[-3.344529,51.823493],[-3.344568,51.823475],[-3.344606,51.823457],[-3.344656,51.82343],[-3.344718,51.823393],[-3.344792,51.823347],[-3.344877,51.823292],[-3.344976,51.823242],[-3.345088,51.823197],[-3.345214,51.823158],[-3.345353,51.823125],[-3.345477,51.823098],[-3.345587,51.823077],[-3.345682,51.823062],[-3.345763,51.823053],[-3.345843,51.823048],[-3.345921,51.823047],[-3.345998,51.823051],[-3.346074,51.823059],[-3.346132,51.823066],[-3.34617,51.82307],[-3.34619,51.823072],[-3.346191,51.823072],[-3.346204,51.823069],[-3.346231,51.823063],[-3.346271,51.823055],[-3.346323,51.823043],[-3.346363,51.823032],[-3.346391,51.823023],[-3.346408,51.823015],[-3.346412,51.823009],[-3.346422,51.822993],[-3.346438,51.822968],[-3.346459,51.822935],[-3.346487,51.822892],[-3.346526,51.822862],[-3.346579,51.822844],[-3.346643,51.82284],[-3.34672,51.822848],[-3.346779,51.822858],[-3.34682,51.822867],[-3.346843,51.822878],[-3.346848,51.822889],[-3.346858,51.822911],[-3.346872,51.822944],[-3.346891,51.822988],[-3.346915,51.823042],[-3.346952,51.823083],[-3.347002,51.823111],[-3.347064,51.823127],[-3.347139,51.82313],[-3.34722,51.823128],[-3.347306,51.823121],[-3.347398,51.823109],[-3.347495,51.823092],[-3.347609,51.82307],[-3.347741,51.823044],[-3.34789,51.823012],[-3.348055,51.822976],[-3.348188,51.822931],[-3.348288,51.822876],[-3.348355,51.822813],[-3.348389,51.82274],[-3.348467,51.822677],[-3.34859,51.822622],[-3.348758,51.822576],[-3.34897,51.822539],[-3.349152,51.822506],[-3.349304,51.822477],[-3.349426,51.822451],[-3.349519,51.822429],[-3.349625,51.82241],[-3.349746,51.822394],[-3.349881,51.822381],[-3.35003,51.82237],[-3.350178,51.822361],[-3.350327,51.822353],[-3.350474,51.822347],[-3.350621,51.822341],[-3.350781,51.82233],[-3.350952,51.822313],[-3.351136,51.822291],[-3.351332,51.822263],[-3.351495,51.822215],[-3.351624,51.822149],[-3.351719,51.822063],[-3.35178,51.821959],[-3.351804,51.821874],[-3.351789,51.821808],[-3.351736,51.821762],[-3.351645,51.821736],[-3.351606,51.821703],[-3.351621,51.821664],[-3.35169,51.821619],[-3.351811,51.821569],[-3.351903,51.821492],[-3.351967,51.821389],[-3.352002,51.82126],[-3.352008,51.821105],[-3.352047,51.820966],[-3.352118,51.820844],[-3.352222,51.820737],[-3.352358,51.820648],[-3.352454,51.820568],[-3.35251,51.820498],[-3.352526,51.820438],[-3.352503,51.820388],[-3.352525,51.820336],[-3.352592,51.820282],[-3.352706,51.820225],[-3.352865,51.820167],[-3.353008,51.820119],[-3.353137,51.820081],[-3.353249,51.820054],[-3.353346,51.820037],[-3.353456,51.82003],[-3.353578,51.820034],[-3.353712,51.820047],[-3.353858,51.82007],[-3.353997,51.820082],[-3.354127,51.820081],[-3.354248,51.820068],[-3.354362,51.820044],[-3.354475,51.82002],[-3.354589,51.819995],[-3.354702,51.819971],[-3.354816,51.819946],[-3.354919,51.819926],[-3.355012,51.819909],[-3.355094,51.819897],[-3.355166,51.819889],[-3.355258,51.819878],[-3.35537,51.819865],[-3.355503,51.81985],[-3.355656,51.819833],[-3.355792,51.819823],[-3.355912,51.81982],[-3.356016,51.819826],[-3.356104,51.819839],[-3.356201,51.819857],[-3.356308,51.819881],[-3.356424,51.81991],[-3.35655,51.819945],[-3.356656,51.81997],[-3.356741,51.819986],[-3.356806,51.819992],[-3.35685,51.819989],[-3.356889,51.819992],[-3.356922,51.820001],[-3.35695,51.820015],[-3.356972,51.820036],[-3.357036,51.820055],[-3.357141,51.820072],[-3.357289,51.820087],[-3.357479,51.820099],[-3.357622,51.820097],[-3.35772,51.82008],[-3.35777,51.820049],[-3.357775,51.820002],[-3.357782,51.819965],[-3.35779,51.819938],[-3.357801,51.819921],[-3.357813,51.819913],[-3.357832,51.819906],[-3.357856,51.8199],[-3.357885,51.819896],[-3.357921,51.819892],[-3.357948,51.81988],[-3.357966,51.819858],[-3.357977,51.819827],[-3.357978,51.819787],[-3.358002,51.819747],[-3.358048,51.819707],[-3.358116,51.819668],[-3.358207,51.819629],[-3.358306,51.819595],[-3.358413,51.819565],[-3.358529,51.81954],[-3.358653,51.81952],[-3.358753,51.819505],[-3.358828,51.819495],[-3.358879,51.81949],[-3.358905,51.81949],[-3.358946,51.819489],[-3.359001,51.819489],[-3.359072,51.819488],[-3.359157,51.819487],[-3.359257,51.819483],[-3.359372,51.819477],[-3.359502,51.819469],[-3.359648,51.819458],[-3.359772,51.819432],[-3.359876,51.819392],[-3.35996,51.819336],[-3.360022,51.819266],[-3.360063,51.819192],[-3.360082,51.819116],[-3.360079,51.819036],[-3.360054,51.818953],[-3.360042,51.818884],[-3.360045,51.818829],[-3.36006,51.818789],[-3.36009,51.818762],[-3.360134,51.818756],[-3.360194,51.818769],[-3.360269,51.818802],[-3.360359,51.818855],[-3.360438,51.818892],[-3.360504,51.818913],[-3.360559,51.818918],[-3.360603,51.818907],[-3.36065,51.818887],[-3.360702,51.818858],[-3.360758,51.818821],[-3.360818,51.818773],[-3.360872,51.818729],[-3.36092,51.818686],[-3.360961,51.818645],[-3.360996,51.818607],[-3.361025,51.818565],[-3.361048,51.818519],[-3.361066,51.81847],[-3.361078,51.818417],[-3.361077,51.818383],[-3.361063,51.818367],[-3.361036,51.81837],[-3.360996,51.818392],[-3.360953,51.818418],[-3.360907,51.81845],[-3.360857,51.818485],[-3.360804,51.818526],[-3.360749,51.818551],[-3.360691,51.81856],[-3.360631,51.818554],[-3.360569,51.818533],[-3.360541,51.8185],[-3.360546,51.818456],[-3.360586,51.818402],[-3.360659,51.818336],[-3.360721,51.818279],[-3.360771,51.81823],[-3.36081,51.81819],[-3.360838,51.818158],[-3.360859,51.818132],[-3.360873,51.818113],[-3.360882,51.8181],[-3.360883,51.818093],[-3.360886,51.818087],[-3.360889,51.818084],[-3.360894,51.818083],[-3.3609,51.818083],[-3.360929,51.818089],[-3.360982,51.818101],[-3.361058,51.818118],[-3.361158,51.818141],[-3.361245,51.818167],[-3.361319,51.818196],[-3.361379,51.818228],[-3.361427,51.818262],[-3.361499,51.81828],[-3.361597,51.81828],[-3.36172,51.818263],[-3.361868,51.818229],[-3.361994,51.818194],[-3.3621,51.818159],[-3.362185,51.818124],[-3.362248,51.818088],[-3.362293,51.818044],[-3.36232,51.817992],[-3.362327,51.817933],[-3.362316,51.817865],[-3.362311,51.81781],[-3.362312,51.817767],[-3.362319,51.817736],[-3.362332,51.817717],[-3.362356,51.81768],[-3.36239,51.817625],[-3.362436,51.817551],[-3.362491,51.817458],[-3.362535,51.817372],[-3.362567,51.817291],[-3.362586,51.817215],[-3.362593,51.817146],[-3.362604,51.817083],[-3.36262,51.817027],[-3.36264,51.816977],[-3.362664,51.816934],[-3.362698,51.816884],[-3.362741,51.816828],[-3.362794,51.816764],[-3.362857,51.816694],[-3.362915,51.816626],[-3.36297,51.816559],[-3.36302,51.816495],[-3.363066,51.816432],[-3.363101,51.816371],[-3.363125,51.816311],[-3.363138,51.816252],[-3.363139,51.816195],[-3.363142,51.816141],[-3.363146,51.816092],[-3.363151,51.816047],[-3.363157,51.816006],[-3.363178,51.815968],[-3.363214,51.815932],[-3.363264,51.815899],[-3.36333,51.815869],[-3.363373,51.815827],[-3.363394,51.815773],[-3.363392,51.815707],[-3.363369,51.81563],[-3.363352,51.815558],[-3.363342,51.815494],[-3.363339,51.815435],[-3.363342,51.815383],[-3.363353,51.815328],[-3.363372,51.815268],[-3.3634,51.815205],[-3.363435,51.815138],[-3.363469,51.815064],[-3.3635,51.814983],[-3.36353,51.814895],[-3.363557,51.8148],[-3.363581,51.814711],[-3.363603,51.814628],[-3.363622,51.814552],[-3.363638,51.814481],[-3.363651,51.814417],[-3.363661,51.814358],[-3.363669,51.814306],[-3.363673,51.814259],[-3.363656,51.814217],[-3.363616,51.814178],[-3.363555,51.814144],[-3.363471,51.814113],[-3.363412,51.814084],[-3.363375,51.814057],[-3.363363,51.814031],[-3.363374,51.814007],[-3.363405,51.813978],[-3.363455,51.813943],[-3.363525,51.813904],[-3.363614,51.813859],[-3.363696,51.813815],[-3.363771,51.813772],[-3.36384,51.81373],[-3.363902,51.813689],[-3.36394,51.813647],[-3.363955,51.813605],[-3.363947,51.813563],[-3.363916,51.813521],[-3.363862,51.813495],[-3.363785,51.813487],[-3.363686,51.813496],[-3.363563,51.813521],[-3.363472,51.813527],[-3.363412,51.813514],[-3.363384,51.813481],[-3.363387,51.81343],[-3.363403,51.813368],[-3.363433,51.813295],[-3.363475,51.813213],[-3.363531,51.813121],[-3.36357,51.813025],[-3.363591,51.812925],[-3.363595,51.812821],[-3.363581,51.812714],[-3.363594,51.812632],[-3.363632,51.812576],[-3.363698,51.812546],[-3.363789,51.812541],[-3.363855,51.812519],[-3.363894,51.81248],[-3.363907,51.812424],[-3.363895,51.812351],[-3.363861,51.812293],[-3.363807,51.81225],[-3.363731,51.812221],[-3.363635,51.812208]]]}}