{"type":"Feature","properties":{"id":"294169","COMMUNE":"Swansea","PROVINCE":"Swansea","COUNTRY":"UK","FIREDATE":"2026-04-07 10:09:00","CLASS":"FireSeason","areaHA_geo":95.0},"geometry":{"type":"Polygon","coordinates":[[[-4.167508,51.587521],[-4.167638,51.587246],[-4.167619,51.586908],[-4.167154,51.586624],[-4.166841,51.586592],[-4.166085,51.586386],[-4.165245,51.586121],[-4.16446,51.585837],[-4.163777,51.585554],[-4.163197,51.58527],[-4.162757,51.585172],[-4.162457,51.585259],[-4.16218,51.585483],[-4.161926,51.585843],[-4.161645,51.586182],[-4.161336,51.586498],[-4.160884,51.587072],[-4.160793,51.587199],[-4.160398,51.587396],[-4.159952,51.587586],[-4.160055,51.587915],[-4.160162,51.588087],[-4.160416,51.588498],[-4.160494,51.588952],[-4.1599,51.589161],[-4.158937,51.589251],[-4.157573,51.589254],[-4.157044,51.589274],[-4.156731,51.589327],[-4.156171,51.589497],[-4.155457,51.589762],[-4.154589,51.590121],[-4.15412,51.590318],[-4.154049,51.590352],[-4.152939,51.591564],[-4.150791,51.593953],[-4.149418,51.595754],[-4.14882,51.596967],[-4.148611,51.59779],[-4.148789,51.598225],[-4.149137,51.598613],[-4.149654,51.598955],[-4.150307,51.599014],[-4.151095,51.598791],[-4.152974,51.597941],[-4.155943,51.596464],[-4.159013,51.594987],[-4.162186,51.59351],[-4.16468,51.592344],[-4.166495,51.591489],[-4.168357,51.590844],[-4.16934,51.590619],[-4.16953,51.590369],[-4.170472,51.590076],[-4.171947,51.589937],[-4.173595,51.589858],[-4.174066,51.589746],[-4.174564,51.589439],[-4.175302,51.589242],[-4.175315,51.589238],[-4.175642,51.589021],[-4.175291,51.588887],[-4.174833,51.588933],[-4.174672,51.588949],[-4.173486,51.588958],[-4.172428,51.588883],[-4.171703,51.58889],[-4.171452,51.588794],[-4.171076,51.58884],[-4.170288,51.588999],[-4.169578,51.589213],[-4.168803,51.589282],[-4.167961,51.589208],[-4.167447,51.589005],[-4.16726,51.588673],[-4.167262,51.588356],[-4.167366,51.588192],[-4.167792,51.588359],[-4.168296,51.588352],[-4.168107,51.588102],[-4.1676,51.58796],[-4.1675,51.587739],[-4.167453,51.587637],[-4.167508,51.587521]]]}}