{"type":"Feature","properties":{"id":"294182","COMMUNE":"Swansea","PROVINCE":"Swansea","COUNTRY":"UK","FIREDATE":"2026-03-22 01:58:00","CLASS":"FireSeason","areaHA_geo":18.035},"geometry":{"type":"Polygon","coordinates":[[[-3.93365,51.748198],[-3.933771,51.748822],[-3.933975,51.749327],[-3.934262,51.749714],[-3.934687,51.750216],[-3.935249,51.750832],[-3.935655,51.751245],[-3.935905,51.751454],[-3.936151,51.75159],[-3.936392,51.751652],[-3.936604,51.751564],[-3.936788,51.751325],[-3.936972,51.751115],[-3.937155,51.750934],[-3.937356,51.750898],[-3.937575,51.751009],[-3.937591,51.751178],[-3.937404,51.751405],[-3.937298,51.751629],[-3.937275,51.751848],[-3.937342,51.752033],[-3.9375,51.752185],[-3.93771,51.752234],[-3.93797,51.75218],[-3.938471,51.751955],[-3.939215,51.751558],[-3.93977,51.751269],[-3.940138,51.751089],[-3.940177,51.750976],[-3.939886,51.750931],[-3.939707,51.750861],[-3.939641,51.750767],[-3.939611,51.750582],[-3.939617,51.750308],[-3.939777,51.750169],[-3.94009,51.750166],[-3.940428,51.750216],[-3.940793,51.750321],[-3.941151,51.750432],[-3.941502,51.750549],[-3.941852,51.750547],[-3.942201,51.750425],[-3.942411,51.750212],[-3.942482,51.749907],[-3.942586,51.74965],[-3.942723,51.74944],[-3.942662,51.749242],[-3.942401,51.749057],[-3.942032,51.74897],[-3.941555,51.748982],[-3.941088,51.748964],[-3.94063,51.748916],[-3.940346,51.748774],[-3.940235,51.748537],[-3.940058,51.748415],[-3.939817,51.74841],[-3.939348,51.748358],[-3.938653,51.748259],[-3.937842,51.748146],[-3.936916,51.748018],[-3.936232,51.747929],[-3.935792,51.747879],[-3.93522,51.74776],[-3.934515,51.747571],[-3.934084,51.747491],[-3.933927,51.747522],[-3.933784,51.747624],[-3.933654,51.747799],[-3.93365,51.748198]]]}}