{"type":"Feature","properties":{"id":"294178","COMMUNE":"Swansea","PROVINCE":"Swansea","COUNTRY":"UK","FIREDATE":"2026-04-03 00:00:00","FINALDATE":"2026-04-03 00:00:00","CLASS":"FireSeason","areaHA_geo":16.41},"geometry":{"type":"Polygon","coordinates":[[[-4.225357,51.608551],[-4.225783,51.608727],[-4.226212,51.608914],[-4.226644,51.609111],[-4.227083,51.609347],[-4.227528,51.609621],[-4.22789,51.609687],[-4.228168,51.609546],[-4.228521,51.609402],[-4.228948,51.609257],[-4.229327,51.609214],[-4.229658,51.609274],[-4.230077,51.609286],[-4.230586,51.609252],[-4.230994,51.609174],[-4.231301,51.60905],[-4.231542,51.608917],[-4.231716,51.608774],[-4.231752,51.608634],[-4.23165,51.608496],[-4.231318,51.608359],[-4.230754,51.608221],[-4.23025,51.608032],[-4.229804,51.607794],[-4.229433,51.607697],[-4.229135,51.60774],[-4.228878,51.607786],[-4.228662,51.607834],[-4.228433,51.607802],[-4.228189,51.607689],[-4.227928,51.60756],[-4.227651,51.607415],[-4.227318,51.607274],[-4.226928,51.607136],[-4.226532,51.607092],[-4.226132,51.607141],[-4.225776,51.607145],[-4.225463,51.607105],[-4.225199,51.607002],[-4.224984,51.606835],[-4.224735,51.606705],[-4.224451,51.606611],[-4.224144,51.606517],[-4.223813,51.606421],[-4.223676,51.606317],[-4.223732,51.606203],[-4.223957,51.606182],[-4.224349,51.606256],[-4.22473,51.60638],[-4.225098,51.606557],[-4.225379,51.606626],[-4.225575,51.606587],[-4.225531,51.60645],[-4.225248,51.606213],[-4.224767,51.605954],[-4.224089,51.605673],[-4.223509,51.605483],[-4.223027,51.605385],[-4.222658,51.605313],[-4.222401,51.605266],[-4.221939,51.605212],[-4.221273,51.60515],[-4.220722,51.605071],[-4.220287,51.604975],[-4.219908,51.604835],[-4.219585,51.604654],[-4.219319,51.604561],[-4.21911,51.604558],[-4.218925,51.604613],[-4.218765,51.604726],[-4.218757,51.604884],[-4.218903,51.605087],[-4.219094,51.605253],[-4.219331,51.605382],[-4.219871,51.605698],[-4.220712,51.606202],[-4.221356,51.606573],[-4.221801,51.606811],[-4.222215,51.606986],[-4.222596,51.607096],[-4.222784,51.607287],[-4.222778,51.60756],[-4.222808,51.607817],[-4.222874,51.608059],[-4.223063,51.608307],[-4.223375,51.608562],[-4.223692,51.60878],[-4.224016,51.608962],[-4.224266,51.60906],[-4.224444,51.609074],[-4.224575,51.609033],[-4.22466,51.608937],[-4.224601,51.608787],[-4.224397,51.608583],[-4.224185,51.608423],[-4.223963,51.608308],[-4.223819,51.608182],[-4.223753,51.608048],[-4.223788,51.607957],[-4.223924,51.607912],[-4.22428,51.608033],[-4.224856,51.60832],[-4.225357,51.608551]]]}}