{"type":"Feature","properties":{"id":"294261","COMMUNE":"Oldham","PROVINCE":"Greater Manchester North East","COUNTRY":"UK","FIREDATE":"2026-04-07 13:27:00","CLASS":"FireSeason","areaHA_geo":12.418},"geometry":{"type":"Polygon","coordinates":[[[-1.982002,53.5478],[-1.983119,53.547814],[-1.983875,53.547813],[-1.984272,53.547797],[-1.984578,53.547782],[-1.984794,53.547766],[-1.984961,53.547717],[-1.985078,53.547634],[-1.985138,53.547512],[-1.985142,53.547351],[-1.985018,53.54723],[-1.984764,53.547148],[-1.984539,53.547078],[-1.984342,53.54702],[-1.984163,53.546922],[-1.984004,53.546783],[-1.983992,53.546671],[-1.984128,53.546586],[-1.984311,53.546509],[-1.984542,53.546438],[-1.984746,53.546433],[-1.984923,53.546493],[-1.985083,53.546613],[-1.985225,53.546796],[-1.985415,53.546884],[-1.985654,53.546878],[-1.985806,53.546741],[-1.98587,53.546473],[-1.9859,53.546086],[-1.985897,53.545581],[-1.985887,53.545175],[-1.985869,53.544867],[-1.985742,53.544648],[-1.985504,53.544517],[-1.985361,53.544436],[-1.985312,53.544405],[-1.985143,53.544321],[-1.984853,53.544183],[-1.984739,53.544013],[-1.984802,53.543811],[-1.984779,53.543623],[-1.984669,53.543449],[-1.984475,53.543436],[-1.984196,53.543582],[-1.983908,53.543715],[-1.983611,53.543834],[-1.983284,53.543988],[-1.982927,53.544178],[-1.982425,53.544403],[-1.981777,53.544664],[-1.981265,53.544908],[-1.980889,53.545136],[-1.980669,53.54533],[-1.980604,53.545491],[-1.980519,53.545684],[-1.980412,53.545909],[-1.980431,53.546186],[-1.980575,53.546517],[-1.980678,53.546756],[-1.98074,53.546905],[-1.980797,53.54714],[-1.980849,53.547462],[-1.981017,53.547665],[-1.981302,53.54775],[-1.982002,53.5478]]]}}