{"type":"Feature","properties":{"id":"294255","COMMUNE":"Ceredigion","PROVINCE":"South West Wales","COUNTRY":"UK","FIREDATE":"2026-03-19 00:00:00","CLASS":"FireSeason","areaHA_geo":6.769},"geometry":{"type":"Polygon","coordinates":[[[-3.807881,52.140917],[-3.807489,52.141422],[-3.807156,52.141849],[-3.806882,52.142198],[-3.80658,52.142591],[-3.80625,52.143028],[-3.80593,52.143392],[-3.805621,52.143684],[-3.805304,52.143869],[-3.804979,52.143949],[-3.804753,52.144001],[-3.804628,52.144026],[-3.80453,52.144088],[-3.804462,52.144188],[-3.804727,52.144264],[-3.805328,52.144316],[-3.805949,52.144355],[-3.806591,52.144381],[-3.807164,52.144344],[-3.807666,52.144244],[-3.808176,52.144036],[-3.808694,52.14372],[-3.809205,52.143486],[-3.809708,52.143335],[-3.810075,52.143281],[-3.810306,52.143326],[-3.810491,52.143385],[-3.810632,52.143461],[-3.810831,52.143458],[-3.811089,52.143376],[-3.811284,52.143282],[-3.811418,52.143174],[-3.81139,52.143085],[-3.811201,52.143016],[-3.811183,52.142906],[-3.811336,52.142755],[-3.811711,52.142726],[-3.812307,52.142819],[-3.812719,52.142801],[-3.812945,52.142672],[-3.812989,52.142519],[-3.812849,52.142342],[-3.81259,52.142234],[-3.812212,52.142197],[-3.81176,52.142246],[-3.811234,52.142379],[-3.810642,52.14251],[-3.809981,52.142639],[-3.809366,52.142804],[-3.808795,52.143004],[-3.808386,52.143164],[-3.808141,52.143285],[-3.80789,52.143417],[-3.807634,52.143559],[-3.8074,52.143663],[-3.807187,52.143729],[-3.80704,52.143711],[-3.806957,52.143608],[-3.807077,52.143431],[-3.807398,52.143179],[-3.807624,52.142835],[-3.807755,52.142402],[-3.807915,52.142061],[-3.808104,52.141814],[-3.808364,52.141579],[-3.808694,52.141357],[-3.808939,52.14118],[-3.809098,52.141049],[-3.809182,52.140891],[-3.809191,52.140706],[-3.80908,52.140566],[-3.80885,52.140471],[-3.80857,52.140483],[-3.808241,52.140604],[-3.807881,52.140917]]]}}