{"type":"Feature","properties":{"id":"294203","COMMUNE":"Powys","PROVINCE":"Powys","COUNTRY":"UK","FIREDATE":"2026-03-21 00:00:00","CLASS":"FireSeason","areaHA_geo":3.765},"geometry":{"type":"Polygon","coordinates":[[[-3.211318,51.924715],[-3.21133,51.925085],[-3.211538,51.925422],[-3.21194,51.925724],[-3.212284,51.925997],[-3.212571,51.92624],[-3.213019,51.926465],[-3.213626,51.926672],[-3.21411,51.926791],[-3.21447,51.926823],[-3.214861,51.926856],[-3.215281,51.926893],[-3.215603,51.926958],[-3.215826,51.927053],[-3.216141,51.927095],[-3.216547,51.927085],[-3.216782,51.927023],[-3.216845,51.926908],[-3.216804,51.926768],[-3.216657,51.926605],[-3.216348,51.926514],[-3.215874,51.926496],[-3.215482,51.926456],[-3.215172,51.926395],[-3.21485,51.92633],[-3.214517,51.92626],[-3.2142,51.926176],[-3.213897,51.926078],[-3.21363,51.925802],[-3.213398,51.925349],[-3.213205,51.925029],[-3.213052,51.924843],[-3.21282,51.924719],[-3.212509,51.924658],[-3.212223,51.924547],[-3.21196,51.924385],[-3.211701,51.9243],[-3.211445,51.924293],[-3.211316,51.92435],[-3.211313,51.92447],[-3.211318,51.924715]]]}}