{"type":"Feature","properties":{"id":"294254","COMMUNE":"Ceredigion","PROVINCE":"South West Wales","COUNTRY":"UK","FIREDATE":"2026-03-19 00:00:00","CLASS":"FireSeason","areaHA_geo":27.867},"geometry":{"type":"Polygon","coordinates":[[[-3.819466,52.134433],[-3.819322,52.135058],[-3.819208,52.135596],[-3.819123,52.136045],[-3.819121,52.136361],[-3.819204,52.136543],[-3.819388,52.13663],[-3.819674,52.136619],[-3.819909,52.136583],[-3.820091,52.136523],[-3.820267,52.136561],[-3.820435,52.136695],[-3.820839,52.136801],[-3.821481,52.136879],[-3.821968,52.136907],[-3.8223,52.136883],[-3.822553,52.136887],[-3.822727,52.136921],[-3.822747,52.137023],[-3.822611,52.137193],[-3.822423,52.137415],[-3.822182,52.13769],[-3.822095,52.137873],[-3.822162,52.137966],[-3.8224,52.138003],[-3.82281,52.137985],[-3.823119,52.137926],[-3.823326,52.137824],[-3.823593,52.137774],[-3.823921,52.137774],[-3.824158,52.137788],[-3.824306,52.137817],[-3.824515,52.137803],[-3.824788,52.137748],[-3.825072,52.137653],[-3.82537,52.137518],[-3.825388,52.137315],[-3.825127,52.137046],[-3.824871,52.136814],[-3.824622,52.13662],[-3.824314,52.136402],[-3.823948,52.136161],[-3.823707,52.135954],[-3.823591,52.135783],[-3.82363,52.135547],[-3.823825,52.135247],[-3.823862,52.134923],[-3.82374,52.134575],[-3.823755,52.134242],[-3.823906,52.133924],[-3.824091,52.133771],[-3.824309,52.133784],[-3.824467,52.133885],[-3.824564,52.134074],[-3.824883,52.134109],[-3.825425,52.133991],[-3.82598,52.133494],[-3.826548,52.132619],[-3.826821,52.132047],[-3.8268,52.13178],[-3.826759,52.131589],[-3.826697,52.131473],[-3.826588,52.131166],[-3.826432,52.130668],[-3.826312,52.130367],[-3.826228,52.130261],[-3.826133,52.130157],[-3.826025,52.130054],[-3.825795,52.130023],[-3.825443,52.130065],[-3.824908,52.130244],[-3.824189,52.13056],[-3.823642,52.13084],[-3.823265,52.131085],[-3.822882,52.131407],[-3.822492,52.131808],[-3.822099,52.132177],[-3.821702,52.132517],[-3.82138,52.132713],[-3.821132,52.132765],[-3.820931,52.132608],[-3.820778,52.132241],[-3.820657,52.131936],[-3.820568,52.131692],[-3.820356,52.131359],[-3.820022,52.130936],[-3.819727,52.130578],[-3.819471,52.130285],[-3.819158,52.130191],[-3.818789,52.130296],[-3.818415,52.130409],[-3.818038,52.130531],[-3.817774,52.130651],[-3.817622,52.130769],[-3.817619,52.1309],[-3.817765,52.131045],[-3.81798,52.131166],[-3.818262,52.131263],[-3.818566,52.13147],[-3.818892,52.131786],[-3.819165,52.132073],[-3.819385,52.132332],[-3.819631,52.132577],[-3.819905,52.132806],[-3.820142,52.132959],[-3.820342,52.133036],[-3.820469,52.133121],[-3.820524,52.133214],[-3.820523,52.133292],[-3.820467,52.133352],[-3.820213,52.133567],[-3.819763,52.133936],[-3.819466,52.134433]]]}}