{"type":"Feature","properties":{"id":"294587","COMMUNE":"South Hams","PROVINCE":"Devon CC","COUNTRY":"UK","FIREDATE":"2026-03-19 11:24:00","CLASS":"FireSeason","areaHA_geo":14.167},"geometry":{"type":"Polygon","coordinates":[[[-4.005214,50.432369],[-4.00577,50.432187],[-4.006284,50.432079],[-4.006758,50.432045],[-4.007082,50.43213],[-4.007259,50.432334],[-4.007544,50.432542],[-4.007938,50.432751],[-4.008316,50.432866],[-4.008678,50.432886],[-4.009105,50.432781],[-4.009595,50.432551],[-4.010231,50.432254],[-4.011012,50.431891],[-4.011987,50.431411],[-4.013156,50.430814],[-4.014023,50.430295],[-4.01459,50.429853],[-4.014999,50.429439],[-4.015252,50.429052],[-4.0154,50.428743],[-4.015445,50.428511],[-4.01531,50.428383],[-4.014997,50.428357],[-4.014723,50.428354],[-4.014488,50.428375],[-4.014063,50.428403],[-4.013451,50.428439],[-4.012954,50.42852],[-4.012572,50.428648],[-4.012224,50.4288],[-4.011908,50.428977],[-4.011618,50.429154],[-4.011353,50.429332],[-4.011111,50.42956],[-4.010889,50.429838],[-4.010727,50.430019],[-4.010626,50.430105],[-4.010382,50.430203],[-4.009996,50.430316],[-4.009752,50.43037],[-4.009649,50.430367],[-4.009465,50.430369],[-4.0092,50.430378],[-4.008678,50.430523],[-4.007898,50.430805],[-4.007044,50.431181],[-4.006117,50.431651],[-4.005561,50.431918],[-4.005377,50.431981],[-4.005132,50.432035],[-4.004828,50.432081],[-4.004629,50.432118],[-4.004536,50.432145],[-4.004601,50.432234],[-4.004824,50.432384],[-4.005214,50.432369]]]}}