{"type":"Feature","properties":{"id":"294595","COMMUNE":"Teignbridge","PROVINCE":"Devon CC","COUNTRY":"UK","FIREDATE":"2026-03-23 00:00:00","CLASS":"FireSeason","areaHA_geo":2.901},"geometry":{"type":"Polygon","coordinates":[[[-3.783223,50.552896],[-3.783209,50.553072],[-3.78322,50.553205],[-3.783257,50.553296],[-3.783355,50.553341],[-3.783515,50.553339],[-3.783639,50.55328],[-3.783727,50.553161],[-3.783827,50.553022],[-3.78394,50.552862],[-3.784143,50.552774],[-3.784436,50.55276],[-3.784654,50.552772],[-3.784798,50.552812],[-3.784895,50.552899],[-3.784944,50.553033],[-3.785033,50.553115],[-3.785159,50.553145],[-3.785272,50.553127],[-3.78537,50.553061],[-3.785435,50.552921],[-3.785466,50.552708],[-3.785634,50.552526],[-3.785938,50.552376],[-3.786042,50.552224],[-3.785945,50.552072],[-3.785709,50.551964],[-3.785337,50.551902],[-3.784958,50.551835],[-3.784574,50.551765],[-3.784278,50.551666],[-3.78407,50.551539],[-3.78385,50.551436],[-3.783619,50.551356],[-3.783426,50.551366],[-3.783271,50.551465],[-3.783119,50.551581],[-3.78297,50.551713],[-3.782832,50.551839],[-3.782708,50.551958],[-3.782791,50.552216],[-3.783084,50.552611],[-3.783223,50.552896]]]}}