{"type":"Feature","properties":{"id":"294590","COMMUNE":"South Hams","PROVINCE":"Devon CC","COUNTRY":"UK","FIREDATE":"2026-03-23 13:08:00","FINALDATE":"2026-03-23 13:08:00","CLASS":"FireSeason","areaHA_geo":0.718},"geometry":{"type":"Polygon","coordinates":[[[-3.96217,50.440105],[-3.962261,50.440208],[-3.962357,50.440315],[-3.96246,50.440428],[-3.962561,50.440551],[-3.962661,50.440685],[-3.962822,50.440766],[-3.963044,50.440793],[-3.963229,50.44074],[-3.963377,50.440608],[-3.963376,50.440461],[-3.963225,50.440301],[-3.963052,50.440121],[-3.962855,50.439923],[-3.962737,50.439758],[-3.962698,50.439627],[-3.962586,50.439541],[-3.962402,50.439498],[-3.962274,50.439498],[-3.962201,50.439539],[-3.962155,50.439683],[-3.962135,50.43993],[-3.96217,50.440105]]]}}