{"type":"Feature","properties":{"id":"294597","COMMUNE":"Teignbridge","PROVINCE":"Devon CC","COUNTRY":"UK","FIREDATE":"2026-03-23 11:20:00","FINALDATE":"2026-03-23 11:20:00","CLASS":"FireSeason","areaHA_geo":4.649},"geometry":{"type":"Polygon","coordinates":[[[-3.791359,50.559546],[-3.791881,50.559662],[-3.792297,50.559747],[-3.792607,50.559799],[-3.79286,50.55983],[-3.793055,50.559838],[-3.793496,50.55975],[-3.794181,50.559564],[-3.794632,50.559374],[-3.794848,50.55918],[-3.795036,50.558958],[-3.795195,50.558708],[-3.795345,50.558497],[-3.795487,50.558325],[-3.795405,50.55812],[-3.7951,50.55788],[-3.794785,50.55769],[-3.794459,50.55755],[-3.794181,50.557487],[-3.793952,50.557502],[-3.793768,50.557566],[-3.79363,50.557679],[-3.79337,50.557897],[-3.792989,50.55822],[-3.792604,50.558462],[-3.792216,50.558625],[-3.791878,50.558785],[-3.79159,50.558942],[-3.791342,50.559062],[-3.791133,50.559146],[-3.791046,50.559262],[-3.791081,50.559412],[-3.791359,50.559546]]]}}