{"type":"Feature","properties":{"id":"294588","COMMUNE":"South Hams","PROVINCE":"Devon CC","COUNTRY":"UK","FIREDATE":"2026-03-23 13:08:00","CLASS":"FireSeason","areaHA_geo":4.143},"geometry":{"type":"Polygon","coordinates":[[[-3.966193,50.440473],[-3.966389,50.440726],[-3.96655,50.44092],[-3.966677,50.441057],[-3.966874,50.441174],[-3.967143,50.441271],[-3.967329,50.441378],[-3.967433,50.441496],[-3.967519,50.441667],[-3.967586,50.441892],[-3.967663,50.442062],[-3.967749,50.442176],[-3.967949,50.442247],[-3.968265,50.442273],[-3.968551,50.442243],[-3.968808,50.442157],[-3.968929,50.442047],[-3.968914,50.441914],[-3.968861,50.441738],[-3.96877,50.441521],[-3.968666,50.441217],[-3.968548,50.440824],[-3.968454,50.440526],[-3.968384,50.440323],[-3.968181,50.440201],[-3.967844,50.440161],[-3.967539,50.440087],[-3.967268,50.43998],[-3.967074,50.439862],[-3.966959,50.439735],[-3.966862,50.439541],[-3.966783,50.439279],[-3.966711,50.439038],[-3.966645,50.438818],[-3.966565,50.438695],[-3.966471,50.438669],[-3.966283,50.438681],[-3.965999,50.438732],[-3.965808,50.438824],[-3.965711,50.438955],[-3.965677,50.439084],[-3.965707,50.439211],[-3.965732,50.439452],[-3.965754,50.439808],[-3.965847,50.440076],[-3.966012,50.440256],[-3.966193,50.440473]]]}}