{"type":"Feature","properties":{"id":"294596","COMMUNE":"Teignbridge","PROVINCE":"Devon CC","COUNTRY":"UK","FIREDATE":"2026-03-23 11:20:00","CLASS":"FireSeason","areaHA_geo":3.794},"geometry":{"type":"Polygon","coordinates":[[[-3.799507,50.557612],[-3.799678,50.55781],[-3.799936,50.557946],[-3.800283,50.55802],[-3.800616,50.558079],[-3.800933,50.558124],[-3.801255,50.558146],[-3.801579,50.558145],[-3.801924,50.558059],[-3.802289,50.557886],[-3.802672,50.55764],[-3.803074,50.557321],[-3.803477,50.557005],[-3.803882,50.556693],[-3.804066,50.556461],[-3.804032,50.556311],[-3.80387,50.556196],[-3.803582,50.556115],[-3.803255,50.556106],[-3.802888,50.55617],[-3.802565,50.556293],[-3.802284,50.556475],[-3.801943,50.556626],[-3.801542,50.556745],[-3.801148,50.556854],[-3.800762,50.556952],[-3.800282,50.557129],[-3.799708,50.557385],[-3.799507,50.557612]]]}}