{"type":"Feature","properties":{"id":"294591","COMMUNE":"Teignbridge","PROVINCE":"Devon CC","COUNTRY":"UK","FIREDATE":"2026-03-23 11:20:00","FINALDATE":"2026-03-23 12:17:00","CLASS":"FireSeason","areaHA_geo":4.049},"geometry":{"type":"Polygon","coordinates":[[[-3.783563,50.548901],[-3.783692,50.549116],[-3.783897,50.549256],[-3.784177,50.549321],[-3.784478,50.549239],[-3.7848,50.549011],[-3.785139,50.548726],[-3.785493,50.548386],[-3.785652,50.548111],[-3.785616,50.547901],[-3.785556,50.547591],[-3.785473,50.54718],[-3.785435,50.54688],[-3.785443,50.546689],[-3.785317,50.546548],[-3.785055,50.546456],[-3.784794,50.546409],[-3.784533,50.546408],[-3.784237,50.546419],[-3.783905,50.546442],[-3.783678,50.546466],[-3.783555,50.546489],[-3.783494,50.547074],[-3.783497,50.54822],[-3.783563,50.548901]]]}}