{"type":"Feature","properties":{"id":"294606","COMMUNE":"Teignbridge","PROVINCE":"Devon CC","COUNTRY":"UK","FIREDATE":"2026-03-20 10:58:00","CLASS":"FireSeason","areaHA_geo":0.61},"geometry":{"type":"Polygon","coordinates":[[[-3.828725,50.580409],[-3.829139,50.580414],[-3.82942,50.580413],[-3.829569,50.580405],[-3.829687,50.580307],[-3.829774,50.580121],[-3.829807,50.579953],[-3.829787,50.579805],[-3.829657,50.579703],[-3.829418,50.579646],[-3.829208,50.579622],[-3.829027,50.579628],[-3.828902,50.579676],[-3.828834,50.579765],[-3.828729,50.579959],[-3.828588,50.580257],[-3.828725,50.580409]]]}}