{"type":"Feature","properties":{"id":"294648","COMMUNE":"Redcar and Cleveland","PROVINCE":"South Teesside","COUNTRY":"UK","FIREDATE":"2026-03-28 13:14:00","CLASS":"FireSeason","areaHA_geo":3.294},"geometry":{"type":"Polygon","coordinates":[[[-1.139158,54.545941],[-1.139183,54.5459],[-1.139166,54.545727],[-1.139136,54.54569],[-1.139139,54.545491],[-1.139232,54.545357],[-1.13906,54.545122],[-1.1387,54.544991],[-1.138385,54.545107],[-1.13829,54.545154],[-1.138183,54.545238],[-1.138107,54.545356],[-1.137903,54.545336],[-1.13753,54.545325],[-1.137251,54.545357],[-1.137213,54.545251],[-1.136976,54.545097],[-1.136884,54.545155],[-1.136898,54.545442],[-1.136897,54.545445],[-1.13685,54.545585],[-1.136646,54.545525],[-1.136521,54.545489],[-1.136233,54.545465],[-1.136228,54.545603],[-1.1364,54.545725],[-1.136416,54.545737],[-1.136331,54.545983],[-1.135984,54.546215],[-1.135909,54.546225],[-1.135526,54.546281],[-1.1353,54.546326],[-1.135069,54.54651],[-1.135116,54.546682],[-1.135402,54.546618],[-1.135745,54.546449],[-1.135875,54.546428],[-1.135884,54.546497],[-1.136386,54.54647],[-1.13668,54.546532],[-1.136689,54.546548],[-1.136635,54.54662],[-1.136682,54.546791],[-1.136722,54.546938],[-1.137153,54.547012],[-1.137192,54.547001],[-1.137203,54.547008],[-1.13728,54.54703],[-1.137268,54.547114],[-1.13753,54.547204],[-1.137934,54.54718],[-1.138059,54.54708],[-1.138142,54.547003],[-1.13819,54.546958],[-1.138283,54.546872],[-1.138436,54.54672],[-1.138666,54.546612],[-1.138624,54.546377],[-1.138525,54.546322],[-1.138394,54.546248],[-1.138614,54.546102],[-1.139051,54.545963],[-1.139158,54.545941]]]}}