{"type":"Feature","properties":{"id":"294615","COMMUNE":"Teignbridge","PROVINCE":"Devon CC","COUNTRY":"UK","FIREDATE":"2026-03-19 13:12:00","CLASS":"FireSeason","areaHA_geo":9.546},"geometry":{"type":"Polygon","coordinates":[[[-3.732442,50.604656],[-3.733584,50.605087],[-3.734711,50.60541],[-3.735823,50.605626],[-3.736563,50.605751],[-3.736931,50.605787],[-3.737404,50.60577],[-3.737982,50.605701],[-3.738432,50.605624],[-3.738753,50.605542],[-3.738985,50.605394],[-3.739129,50.605179],[-3.739144,50.604941],[-3.739031,50.604677],[-3.738778,50.604486],[-3.738386,50.604365],[-3.738088,50.604314],[-3.737886,50.604331],[-3.737691,50.604391],[-3.737502,50.604494],[-3.737287,50.604564],[-3.737044,50.6046],[-3.736839,50.60453],[-3.736672,50.604353],[-3.736408,50.60424],[-3.736047,50.604188],[-3.735749,50.604173],[-3.735513,50.604194],[-3.73532,50.604167],[-3.735171,50.60409],[-3.734978,50.604004],[-3.734743,50.603908],[-3.734525,50.603873],[-3.734325,50.603897],[-3.734229,50.603806],[-3.734237,50.603601],[-3.734182,50.60336],[-3.734065,50.603083],[-3.733993,50.6028],[-3.733965,50.602512],[-3.733856,50.602299],[-3.733665,50.602162],[-3.733501,50.602152],[-3.733364,50.602271],[-3.733191,50.602386],[-3.732982,50.602499],[-3.732683,50.602615],[-3.732292,50.602735],[-3.731975,50.602868],[-3.73173,50.603014],[-3.731576,50.603153],[-3.731511,50.603285],[-3.731577,50.603623],[-3.731773,50.604168],[-3.732442,50.604656]]]}}