{"type":"Feature","properties":{"id":"294622","COMMUNE":"West Devon","PROVINCE":"Devon CC","COUNTRY":"UK","FIREDATE":"2026-03-23 00:00:00","FINALDATE":"2026-03-23 00:00:00","CLASS":"FireSeason","areaHA_geo":11.866},"geometry":{"type":"Polygon","coordinates":[[[-3.88825,50.665774],[-3.888261,50.666089],[-3.888253,50.666338],[-3.888224,50.666519],[-3.888133,50.666649],[-3.887979,50.666727],[-3.88789,50.666797],[-3.887867,50.666859],[-3.888037,50.666868],[-3.888399,50.666824],[-3.888659,50.666753],[-3.888818,50.666654],[-3.889071,50.666614],[-3.889421,50.66663],[-3.889795,50.666591],[-3.890194,50.666496],[-3.890447,50.666452],[-3.890554,50.666459],[-3.890629,50.666519],[-3.890674,50.666633],[-3.890807,50.666695],[-3.89103,50.666708],[-3.891234,50.666587],[-3.891418,50.666334],[-3.891607,50.666094],[-3.891799,50.665866],[-3.892145,50.665576],[-3.892644,50.665225],[-3.892955,50.66494],[-3.893077,50.664721],[-3.89299,50.664468],[-3.892695,50.664181],[-3.892334,50.663832],[-3.891908,50.663423],[-3.891504,50.663001],[-3.891123,50.662566],[-3.890701,50.662152],[-3.890239,50.66176],[-3.889915,50.661516],[-3.88973,50.66142],[-3.889571,50.66138],[-3.889441,50.661396],[-3.889326,50.661466],[-3.889228,50.66159],[-3.889167,50.661769],[-3.889143,50.662003],[-3.889116,50.662257],[-3.889083,50.662531],[-3.889062,50.662807],[-3.889052,50.663085],[-3.889073,50.663346],[-3.889126,50.663591],[-3.88915,50.663861],[-3.889146,50.664158],[-3.889125,50.664435],[-3.889087,50.66469],[-3.88905,50.664879],[-3.889014,50.665002],[-3.888934,50.665101],[-3.88881,50.665175],[-3.888659,50.665227],[-3.88848,50.665255],[-3.888354,50.665356],[-3.888281,50.66553],[-3.88825,50.665774]]]}}