{"type":"Feature","properties":{"id":"294601","COMMUNE":"Teignbridge","PROVINCE":"Devon CC","COUNTRY":"UK","FIREDATE":"2026-04-02 13:53:00","FINALDATE":"2026-04-02 13:53:00","CLASS":"FireSeason","areaHA_geo":4.828},"geometry":{"type":"Polygon","coordinates":[[[-3.863446,50.567263],[-3.864656,50.567726],[-3.865387,50.567927],[-3.865642,50.567865],[-3.865856,50.567605],[-3.86603,50.567146],[-3.8662,50.566804],[-3.866366,50.566581],[-3.866466,50.566377],[-3.866499,50.566195],[-3.866471,50.566038],[-3.866383,50.565907],[-3.866101,50.565889],[-3.865623,50.565984],[-3.86508,50.566072],[-3.864471,50.566152],[-3.864101,50.566151],[-3.863969,50.566068],[-3.863814,50.565942],[-3.863637,50.565773],[-3.863387,50.565507],[-3.863065,50.565146],[-3.862842,50.564874],[-3.862719,50.564692],[-3.862545,50.564596],[-3.862318,50.564587],[-3.86221,50.5646],[-3.862221,50.564635],[-3.862283,50.56473],[-3.862397,50.564882],[-3.862523,50.565092],[-3.862661,50.565359],[-3.862752,50.565563],[-3.862794,50.565706],[-3.862784,50.565864],[-3.862719,50.566039],[-3.862681,50.566188],[-3.86267,50.566313],[-3.862708,50.566539],[-3.862797,50.566868],[-3.863446,50.567263]]]}}