{"type":"Feature","properties":{"id":"294609","COMMUNE":"Teignbridge","PROVINCE":"Devon CC","COUNTRY":"UK","FIREDATE":"2026-03-23 12:17:00","FINALDATE":"2026-03-23 12:17:00","CLASS":"FireSeason","areaHA_geo":1.22},"geometry":{"type":"Polygon","coordinates":[[[-3.787617,50.582703],[-3.787804,50.582797],[-3.787909,50.582916],[-3.787932,50.58306],[-3.787966,50.583208],[-3.788012,50.583362],[-3.788057,50.583503],[-3.788102,50.583631],[-3.78819,50.583694],[-3.788321,50.58369],[-3.788436,50.583641],[-3.788533,50.583545],[-3.788642,50.583446],[-3.788763,50.583344],[-3.788978,50.583266],[-3.789286,50.583212],[-3.789457,50.583166],[-3.789492,50.583128],[-3.789488,50.583049],[-3.789446,50.582929],[-3.789272,50.582812],[-3.788967,50.582698],[-3.788758,50.582606],[-3.788645,50.582536],[-3.788528,50.582433],[-3.788408,50.582297],[-3.788246,50.582206],[-3.78804,50.58216],[-3.78788,50.582154],[-3.787765,50.582189],[-3.787661,50.582319],[-3.78757,50.582543],[-3.787617,50.582703]]]}}