{"type":"Feature","properties":{"id":"294617","COMMUNE":"Teignbridge","PROVINCE":"Devon CC","COUNTRY":"UK","FIREDATE":"2026-03-24 00:00:00","CLASS":"FireSeason","areaHA_geo":1.056},"geometry":{"type":"Polygon","coordinates":[[[-3.848443,50.628234],[-3.848482,50.628494],[-3.848569,50.628672],[-3.848705,50.628766],[-3.848899,50.628814],[-3.849153,50.628814],[-3.849326,50.62874],[-3.849418,50.628593],[-3.84947,50.628424],[-3.84948,50.628231],[-3.849505,50.628086],[-3.849544,50.627989],[-3.849522,50.627884],[-3.84944,50.62777],[-3.849375,50.627621],[-3.84933,50.627435],[-3.849245,50.627316],[-3.849122,50.627263],[-3.848966,50.627248],[-3.848778,50.627271],[-3.848619,50.627488],[-3.848488,50.627898],[-3.848443,50.628234]]]}}