{"type":"Feature","properties":{"id":"294633","COMMUNE":"Swansea","PROVINCE":"Swansea","COUNTRY":"UK","FIREDATE":"2026-03-20 00:00:00","FINALDATE":"2026-03-20 00:00:00","CLASS":"FireSeason","areaHA_geo":1.004},"geometry":{"type":"Polygon","coordinates":[[[-4.08669,51.60356],[-4.087138,51.603439],[-4.087513,51.603328],[-4.087815,51.603226],[-4.088001,51.603118],[-4.088072,51.603006],[-4.087983,51.60289],[-4.087732,51.60277],[-4.087448,51.602711],[-4.087129,51.602712],[-4.086822,51.602749],[-4.086526,51.602823],[-4.086281,51.602961],[-4.086086,51.603163],[-4.085908,51.603344],[-4.085746,51.603505],[-4.085865,51.603594],[-4.086266,51.603611],[-4.08669,51.60356]]]}}