{"type":"Feature","properties":{"id":"294631","COMMUNE":"Swansea","PROVINCE":"Swansea","COUNTRY":"UK","FIREDATE":"2026-03-20 12:53:00","FINALDATE":"2026-03-20 13:16:00","CLASS":"FireSeason","areaHA_geo":21.429},"geometry":{"type":"Polygon","coordinates":[[[-4.077739,51.608856],[-4.07942,51.608501],[-4.080938,51.608086],[-4.082292,51.607611],[-4.083249,51.607274],[-4.083809,51.607074],[-4.084101,51.606916],[-4.084126,51.606801],[-4.084174,51.606663],[-4.084245,51.606504],[-4.084279,51.606321],[-4.084274,51.606115],[-4.084136,51.605868],[-4.083863,51.605582],[-4.083541,51.605283],[-4.083169,51.60497],[-4.082933,51.604726],[-4.082832,51.604551],[-4.082639,51.604442],[-4.082352,51.604402],[-4.081843,51.604375],[-4.081109,51.60436],[-4.080368,51.604347],[-4.07962,51.604334],[-4.07896,51.604339],[-4.07839,51.604362],[-4.077875,51.604316],[-4.077414,51.604203],[-4.077069,51.604169],[-4.07684,51.604216],[-4.076721,51.604296],[-4.076712,51.60441],[-4.076773,51.604582],[-4.076906,51.60481],[-4.077022,51.605083],[-4.077122,51.6054],[-4.077101,51.605647],[-4.076959,51.605824],[-4.076768,51.606035],[-4.076526,51.606281],[-4.076305,51.606543],[-4.076104,51.606821],[-4.075937,51.607015],[-4.075804,51.607125],[-4.075711,51.607264],[-4.075657,51.60743],[-4.075725,51.607572],[-4.075914,51.60769],[-4.076061,51.607771],[-4.076166,51.607815],[-4.076266,51.607845],[-4.076363,51.607861],[-4.076533,51.60816],[-4.076777,51.608742],[-4.077739,51.608856]]]}}