{"type":"Feature","properties":{"id":"294607","COMMUNE":"Teignbridge","PROVINCE":"Devon CC","COUNTRY":"UK","FIREDATE":"2026-03-20 10:58:00","FINALDATE":"2026-03-20 12:53:00","CLASS":"FireSeason","areaHA_geo":7.876},"geometry":{"type":"Polygon","coordinates":[[[-3.828076,50.57812],[-3.828061,50.578469],[-3.828165,50.578698],[-3.828388,50.578806],[-3.828698,50.578914],[-3.829096,50.579022],[-3.829429,50.579099],[-3.829697,50.579147],[-3.8299,50.579095],[-3.830037,50.578943],[-3.830119,50.578739],[-3.830146,50.578484],[-3.830258,50.578353],[-3.830453,50.578344],[-3.830583,50.578353],[-3.830647,50.578381],[-3.830714,50.578405],[-3.830784,50.578427],[-3.831006,50.578425],[-3.831379,50.5784],[-3.831608,50.578236],[-3.831693,50.577934],[-3.831702,50.577554],[-3.831636,50.577094],[-3.831631,50.576786],[-3.831687,50.576628],[-3.831719,50.576443],[-3.831727,50.576231],[-3.831579,50.576056],[-3.831276,50.575916],[-3.830977,50.57586],[-3.830683,50.575885],[-3.830274,50.575857],[-3.829749,50.575775],[-3.829336,50.57575],[-3.829036,50.575782],[-3.828743,50.575862],[-3.828456,50.575993],[-3.828301,50.576072],[-3.828278,50.5761],[-3.82822,50.576572],[-3.828129,50.577488],[-3.828076,50.57812]]]}}