{"type":"Feature","properties":{"id":"294629","COMMUNE":"West Somerset","PROVINCE":"Somerset","COUNTRY":"UK","FIREDATE":"2026-03-19 11:53:00","FINALDATE":"2026-03-19 14:33:00","CLASS":"FireSeason","areaHA_geo":1.301},"geometry":{"type":"Polygon","coordinates":[[[-3.207264,51.153642],[-3.207638,51.154029],[-3.207912,51.154295],[-3.208085,51.154439],[-3.208201,51.154528],[-3.20826,51.154562],[-3.208345,51.154517],[-3.208456,51.154391],[-3.208433,51.154169],[-3.208274,51.153849],[-3.208169,51.153599],[-3.208117,51.153421],[-3.208005,51.153203],[-3.207832,51.152946],[-3.207634,51.152743],[-3.20741,51.152595],[-3.207172,51.152509],[-3.20692,51.152487],[-3.206754,51.152537],[-3.206675,51.152659],[-3.206746,51.152902],[-3.206966,51.153266],[-3.207264,51.153642]]]}}