{"type":"Feature","properties":{"id":"294602","COMMUNE":"Teignbridge","PROVINCE":"Devon CC","COUNTRY":"UK","FIREDATE":"2026-04-02 13:53:00","CLASS":"FireSeason","areaHA_geo":1.656},"geometry":{"type":"Polygon","coordinates":[[[-3.858538,50.565812],[-3.858779,50.565869],[-3.859079,50.565958],[-3.859437,50.566081],[-3.859788,50.566149],[-3.860133,50.566163],[-3.860379,50.566157],[-3.860528,50.566133],[-3.860697,50.566048],[-3.860887,50.565901],[-3.861004,50.565773],[-3.861049,50.565663],[-3.860934,50.565541],[-3.860661,50.565408],[-3.860321,50.565314],[-3.859915,50.565259],[-3.859552,50.565216],[-3.859232,50.565188],[-3.858916,50.565171],[-3.858603,50.565166],[-3.858376,50.56519],[-3.858237,50.565244],[-3.858116,50.56533],[-3.858015,50.565447],[-3.858078,50.565575],[-3.858304,50.565714],[-3.858538,50.565812]]]}}