{"type":"Feature","properties":{"id":"294624","COMMUNE":"West Devon","PROVINCE":"Devon CC","COUNTRY":"UK","FIREDATE":"2026-03-19 11:32:00","CLASS":"FireSeason","areaHA_geo":1.387},"geometry":{"type":"Polygon","coordinates":[[[-3.91404,50.709791],[-3.914125,50.710071],[-3.914242,50.710377],[-3.914391,50.71071],[-3.914598,50.710856],[-3.914864,50.710816],[-3.915158,50.710727],[-3.915479,50.710589],[-3.915784,50.710437],[-3.916072,50.710272],[-3.916266,50.710153],[-3.916365,50.71008],[-3.916361,50.709966],[-3.916254,50.709811],[-3.916112,50.709721],[-3.915935,50.709697],[-3.915731,50.709741],[-3.915499,50.709853],[-3.915361,50.709977],[-3.915317,50.710112],[-3.915293,50.710195],[-3.915291,50.710226],[-3.915233,50.710256],[-3.915121,50.710285],[-3.915014,50.710271],[-3.914912,50.710215],[-3.914903,50.710063],[-3.914986,50.709817],[-3.914989,50.709648],[-3.914914,50.709558],[-3.914828,50.709496],[-3.914733,50.709462],[-3.914514,50.709496],[-3.91417,50.709599],[-3.91404,50.709791]]]}}