{"type":"Feature","properties":{"id":"294641","COMMUNE":"Harrogate","PROVINCE":"North Yorkshire CC","COUNTRY":"UK","FIREDATE":"2026-03-19 00:00:00","FINALDATE":"2026-03-19 00:00:00","CLASS":"FireSeason","areaHA_geo":4.324},"geometry":{"type":"Polygon","coordinates":[[[-1.802908,54.242624],[-1.803592,54.242711],[-1.804103,54.242872],[-1.804441,54.243105],[-1.804737,54.243358],[-1.804993,54.243629],[-1.805666,54.243856],[-1.806758,54.244037],[-1.807768,54.244186],[-1.808698,54.244303],[-1.809291,54.244367],[-1.809548,54.244377],[-1.809712,54.244316],[-1.809785,54.244186],[-1.80995,54.244084],[-1.810207,54.24401],[-1.810367,54.243933],[-1.810429,54.243853],[-1.810302,54.243734],[-1.809986,54.243577],[-1.809394,54.243412],[-1.808524,54.24324],[-1.807912,54.243141],[-1.807559,54.243116],[-1.807008,54.243112],[-1.806261,54.24313],[-1.805767,54.243071],[-1.805525,54.242937],[-1.805119,54.242744],[-1.804548,54.242493],[-1.803985,54.242343],[-1.80343,54.242293],[-1.80307,54.242275],[-1.802906,54.242291],[-1.802759,54.24237],[-1.80263,54.24251],[-1.802908,54.242624]]]}}