{"type":"Feature","properties":{"id":"294616","COMMUNE":"Teignbridge","PROVINCE":"Devon CC","COUNTRY":"UK","FIREDATE":"2026-03-24 00:00:00","FINALDATE":"2026-03-24 00:00:00","CLASS":"FireSeason","areaHA_geo":5.901},"geometry":{"type":"Polygon","coordinates":[[[-3.844824,50.630783],[-3.845216,50.631149],[-3.845575,50.631435],[-3.845901,50.631642],[-3.84611,50.631737],[-3.846202,50.631719],[-3.846225,50.631649],[-3.846178,50.631525],[-3.846089,50.631409],[-3.84596,50.631302],[-3.846001,50.631229],[-3.846214,50.631191],[-3.846395,50.631178],[-3.846545,50.63119],[-3.846714,50.631167],[-3.846901,50.631107],[-3.847007,50.630959],[-3.847034,50.630721],[-3.847081,50.630422],[-3.847148,50.630063],[-3.847269,50.629814],[-3.847442,50.629675],[-3.84763,50.629523],[-3.847834,50.629356],[-3.847955,50.62916],[-3.847994,50.628933],[-3.848004,50.628753],[-3.847983,50.62862],[-3.847945,50.62851],[-3.84789,50.628424],[-3.847742,50.628433],[-3.8475,50.628537],[-3.847308,50.628597],[-3.847167,50.628614],[-3.846957,50.628563],[-3.846677,50.628442],[-3.846456,50.62834],[-3.846294,50.628255],[-3.84602,50.62822],[-3.845635,50.628236],[-3.84534,50.628275],[-3.845134,50.628337],[-3.845014,50.628407],[-3.844979,50.628486],[-3.844969,50.628582],[-3.844984,50.628698],[-3.844958,50.62892],[-3.84489,50.629249],[-3.844849,50.629466],[-3.844832,50.629573],[-3.844775,50.62987],[-3.844677,50.630357],[-3.844824,50.630783]]]}}