{"type":"Feature","properties":{"id":"294644","COMMUNE":"Richmondshire","PROVINCE":"North Yorkshire CC","COUNTRY":"UK","FIREDATE":"2026-03-19 00:00:00","CLASS":"FireSeason","areaHA_geo":4.166},"geometry":{"type":"Polygon","coordinates":[[[-1.784497,54.247738],[-1.784557,54.248004],[-1.784492,54.248291],[-1.784301,54.248599],[-1.784,54.24885],[-1.78359,54.249043],[-1.783422,54.249186],[-1.783495,54.249279],[-1.783721,54.249338],[-1.784101,54.249365],[-1.784518,54.249248],[-1.784971,54.248987],[-1.785289,54.248744],[-1.785473,54.248518],[-1.785751,54.248378],[-1.786123,54.248324],[-1.786522,54.248362],[-1.786948,54.248494],[-1.787426,54.248565],[-1.787957,54.248577],[-1.788429,54.248546],[-1.788842,54.24847],[-1.789031,54.248316],[-1.788995,54.248084],[-1.788792,54.24789],[-1.788422,54.247736],[-1.787968,54.247639],[-1.787429,54.2476],[-1.786868,54.247455],[-1.786283,54.247203],[-1.7859,54.247055],[-1.785716,54.247009],[-1.785465,54.247001],[-1.785148,54.247032],[-1.784859,54.247187],[-1.784597,54.247465],[-1.784497,54.247738]]]}}