{"type":"Feature","properties":{"id":"294637","COMMUNE":"Richmondshire","PROVINCE":"North Yorkshire CC","COUNTRY":"UK","FIREDATE":"2026-03-19 00:00:00","FINALDATE":"2026-03-19 00:00:00","CLASS":"FireSeason","areaHA_geo":8.23},"geometry":{"type":"Polygon","coordinates":[[[-1.787965,54.246495],[-1.7885,54.246896],[-1.789257,54.247059],[-1.790237,54.246983],[-1.790847,54.246915],[-1.791088,54.246854],[-1.791766,54.246685],[-1.792882,54.246408],[-1.793505,54.246103],[-1.793636,54.24577],[-1.793733,54.24543],[-1.793795,54.245085],[-1.793777,54.244738],[-1.793677,54.244389],[-1.793205,54.244265],[-1.792362,54.244365],[-1.791641,54.244501],[-1.791044,54.244671],[-1.790502,54.244752],[-1.790015,54.244742],[-1.78953,54.244855],[-1.789048,54.24509],[-1.78853,54.245479],[-1.787975,54.246023],[-1.787965,54.246495]]]}}