{"type":"Feature","properties":{"id":"294614","COMMUNE":"Teignbridge","PROVINCE":"Devon CC","COUNTRY":"UK","FIREDATE":"2026-03-20 10:58:00","FINALDATE":"2026-03-20 11:34:00","CLASS":"FireSeason","areaHA_geo":1.744},"geometry":{"type":"Polygon","coordinates":[[[-3.727646,50.58467],[-3.728175,50.584891],[-3.728557,50.585032],[-3.728794,50.585093],[-3.729029,50.585085],[-3.729264,50.585008],[-3.729402,50.584824],[-3.729444,50.584534],[-3.729477,50.584319],[-3.729499,50.584178],[-3.729388,50.584061],[-3.729142,50.583968],[-3.728941,50.583899],[-3.728786,50.583853],[-3.72856,50.583807],[-3.728264,50.583761],[-3.72798,50.583738],[-3.72771,50.583738],[-3.727507,50.583746],[-3.727371,50.583763],[-3.727322,50.583968],[-3.727362,50.584362],[-3.727646,50.58467]]]}}