{"type":"Feature","properties":{"id":"294634","COMMUNE":"Ceredigion","PROVINCE":"South West Wales","COUNTRY":"UK","FIREDATE":"2026-04-06 12:06:00","FINALDATE":"2026-04-06 12:06:00","CLASS":"FireSeason","areaHA_geo":6.462},"geometry":{"type":"Polygon","coordinates":[[[-3.759778,52.439277],[-3.760307,52.439679],[-3.760789,52.439955],[-3.761225,52.440107],[-3.761654,52.440212],[-3.762075,52.440273],[-3.762451,52.440279],[-3.762783,52.440232],[-3.76312,52.440247],[-3.763464,52.440325],[-3.763766,52.440383],[-3.764027,52.440419],[-3.764256,52.440507],[-3.764452,52.440644],[-3.764655,52.440696],[-3.764867,52.440663],[-3.765326,52.440558],[-3.766033,52.440383],[-3.766337,52.440225],[-3.766237,52.440085],[-3.766029,52.439975],[-3.765712,52.439894],[-3.765475,52.439779],[-3.765316,52.439629],[-3.7652,52.439503],[-3.765127,52.439402],[-3.764976,52.439298],[-3.764748,52.439189],[-3.764636,52.439055],[-3.76464,52.438894],[-3.764588,52.438749],[-3.764477,52.438619],[-3.764306,52.438559],[-3.764073,52.438569],[-3.763926,52.438628],[-3.763863,52.438737],[-3.763764,52.438841],[-3.763629,52.438941],[-3.763398,52.438934],[-3.763071,52.438821],[-3.762798,52.438701],[-3.762578,52.438575],[-3.762251,52.438529],[-3.761818,52.438563],[-3.761556,52.43861],[-3.761465,52.438672],[-3.761328,52.438742],[-3.761145,52.438823],[-3.760893,52.438835],[-3.76057,52.43878],[-3.760203,52.438714],[-3.75979,52.438636],[-3.759566,52.438716],[-3.759531,52.438956],[-3.759778,52.439277]]]}}