{"type":"Feature","properties":{"id":"294600","COMMUNE":"Teignbridge","PROVINCE":"Devon CC","COUNTRY":"UK","FIREDATE":"2026-04-02 13:53:00","CLASS":"FireSeason","areaHA_geo":2.301},"geometry":{"type":"Polygon","coordinates":[[[-3.863187,50.569228],[-3.8634,50.569532],[-3.863575,50.569758],[-3.863711,50.569906],[-3.863882,50.569991],[-3.864088,50.570015],[-3.864256,50.570062],[-3.864384,50.570134],[-3.864477,50.570215],[-3.864535,50.570304],[-3.864696,50.570358],[-3.864961,50.570374],[-3.865297,50.570216],[-3.865703,50.569886],[-3.865966,50.569641],[-3.866086,50.569481],[-3.865958,50.569332],[-3.865579,50.569193],[-3.865269,50.569052],[-3.865027,50.568907],[-3.864742,50.568825],[-3.864415,50.568807],[-3.864156,50.56881],[-3.863964,50.568833],[-3.863671,50.568903],[-3.863277,50.569019],[-3.863187,50.569228]]]}}