{"type":"Feature","properties":{"id":"294625","COMMUNE":"West Devon","PROVINCE":"Devon CC","COUNTRY":"UK","FIREDATE":"2026-03-20 12:23:00","FINALDATE":"2026-03-20 12:53:00","CLASS":"FireSeason","areaHA_geo":3.96},"geometry":{"type":"Polygon","coordinates":[[[-3.91223,50.699916],[-3.912878,50.700342],[-3.913318,50.700622],[-3.913548,50.700758],[-3.913785,50.700799],[-3.914029,50.700744],[-3.914227,50.70059],[-3.914381,50.700338],[-3.914802,50.700031],[-3.915492,50.699669],[-3.915903,50.699408],[-3.916034,50.699247],[-3.916057,50.699077],[-3.915973,50.698898],[-3.915705,50.698804],[-3.915253,50.698796],[-3.914717,50.698805],[-3.914095,50.698831],[-3.913535,50.69888],[-3.913038,50.698953],[-3.912639,50.699053],[-3.912337,50.699178],[-3.912116,50.699356],[-3.911976,50.699588],[-3.91223,50.699916]]]}}