{"type":"Feature","properties":{"id":"294640","COMMUNE":"Harrogate","PROVINCE":"North Yorkshire CC","COUNTRY":"UK","FIREDATE":"2026-03-19 00:00:00","CLASS":"FireSeason","areaHA_geo":2.872},"geometry":{"type":"Polygon","coordinates":[[[-1.801948,54.244436],[-1.802469,54.244485],[-1.802929,54.244569],[-1.803327,54.244688],[-1.803674,54.244808],[-1.80397,54.244927],[-1.804246,54.245021],[-1.804503,54.24509],[-1.804799,54.245136],[-1.805135,54.245158],[-1.805369,54.245105],[-1.805502,54.244979],[-1.805535,54.244843],[-1.805468,54.244696],[-1.805142,54.244446],[-1.804559,54.244093],[-1.804112,54.24383],[-1.8038,54.243658],[-1.803392,54.243515],[-1.802886,54.243401],[-1.80257,54.243301],[-1.802443,54.243214],[-1.802314,54.243234],[-1.802181,54.24336],[-1.801996,54.243526],[-1.801759,54.243732],[-1.801588,54.243886],[-1.801482,54.24399],[-1.801494,54.244135],[-1.801623,54.244319],[-1.801948,54.244436]]]}}