{"type":"Feature","properties":{"id":"294621","COMMUNE":"West Devon","PROVINCE":"Devon CC","COUNTRY":"UK","FIREDATE":"2026-03-23 00:00:00","FINALDATE":"2026-03-23 00:00:00","CLASS":"FireSeason","areaHA_geo":3.624},"geometry":{"type":"Polygon","coordinates":[[[-3.892134,50.650119],[-3.892447,50.65024],[-3.89268,50.650334],[-3.892833,50.650399],[-3.893127,50.650417],[-3.893564,50.650386],[-3.893906,50.650341],[-3.894152,50.65028],[-3.894394,50.650163],[-3.894631,50.649989],[-3.894654,50.649804],[-3.894462,50.649606],[-3.894194,50.649338],[-3.893851,50.648999],[-3.893482,50.648736],[-3.893088,50.648548],[-3.892737,50.648423],[-3.89243,50.648361],[-3.892178,50.648304],[-3.891981,50.648252],[-3.891754,50.648177],[-3.891495,50.648079],[-3.891289,50.648036],[-3.891136,50.648047],[-3.890992,50.648068],[-3.890857,50.6481],[-3.890839,50.648159],[-3.890937,50.648246],[-3.891105,50.648325],[-3.891343,50.648395],[-3.891493,50.648491],[-3.891554,50.648613],[-3.891575,50.648705],[-3.891558,50.648768],[-3.891601,50.648832],[-3.891705,50.648895],[-3.891812,50.64921],[-3.891922,50.649775],[-3.892134,50.650119]]]}}