{"type":"Feature","properties":{"id":"294630","COMMUNE":"West Somerset","PROVINCE":"Somerset","COUNTRY":"UK","FIREDATE":"2026-03-19 11:53:00","CLASS":"FireSeason","areaHA_geo":1.967},"geometry":{"type":"Polygon","coordinates":[[[-3.204577,51.15006],[-3.204668,51.150204],[-3.204811,51.1503],[-3.205005,51.15035],[-3.205234,51.150262],[-3.205496,51.150037],[-3.205771,51.149857],[-3.20606,51.149721],[-3.206439,51.149647],[-3.206911,51.149634],[-3.207186,51.149566],[-3.207265,51.149445],[-3.207174,51.149271],[-3.206911,51.149044],[-3.206649,51.148875],[-3.206387,51.148761],[-3.20614,51.148672],[-3.205908,51.148606],[-3.205725,51.148596],[-3.205591,51.148643],[-3.205508,51.148724],[-3.205476,51.14884],[-3.205301,51.148999],[-3.204982,51.149199],[-3.204776,51.149336],[-3.204683,51.149408],[-3.20461,51.14958],[-3.204558,51.149853],[-3.204577,51.15006]]]}}