{"type":"Feature","properties":{"id":"298267","COMMUNE":"Inverness and Nairn","PROVINCE":"Inverness & Nairn and Moray, Badenoch & Strathspey","COUNTRY":"UK","FIREDATE":"2026-03-20 14:05:00","FINALDATE":"2026-03-20 14:05:00","CLASS":"FireSeason","areaHA_geo":7.063},"geometry":{"type":"Polygon","coordinates":[[[-4.617415,57.155865],[-4.617211,57.156103],[-4.617206,57.156308],[-4.617398,57.156481],[-4.617759,57.156561],[-4.618287,57.156549],[-4.618686,57.156491],[-4.618955,57.156386],[-4.619136,57.156201],[-4.619229,57.155936],[-4.619288,57.15566],[-4.619311,57.155375],[-4.619486,57.155144],[-4.619813,57.154966],[-4.620077,57.154755],[-4.620278,57.154511],[-4.620546,57.154406],[-4.620883,57.154442],[-4.620998,57.154638],[-4.62089,57.154993],[-4.62085,57.155219],[-4.620876,57.155317],[-4.621117,57.1553],[-4.621574,57.155168],[-4.621937,57.155019],[-4.622206,57.154854],[-4.622483,57.154662],[-4.622768,57.154442],[-4.623086,57.154177],[-4.623435,57.153869],[-4.623894,57.153556],[-4.624462,57.153236],[-4.624781,57.152962],[-4.624851,57.152732],[-4.624787,57.152538],[-4.624587,57.152379],[-4.624171,57.152298],[-4.623537,57.152296],[-4.623065,57.152356],[-4.622754,57.152478],[-4.622543,57.152666],[-4.622433,57.152921],[-4.622175,57.153161],[-4.621768,57.153389],[-4.621295,57.153539],[-4.620754,57.153614],[-4.620207,57.153736],[-4.619654,57.153906],[-4.619205,57.154074],[-4.618862,57.15424],[-4.618615,57.154416],[-4.618465,57.154601],[-4.618407,57.154768],[-4.618442,57.154919],[-4.618444,57.155033],[-4.618413,57.155111],[-4.618177,57.155298],[-4.617737,57.155597],[-4.617415,57.155865]]]}}