{"type":"Feature","properties":{"id":"298260","COMMUNE":"Caithness and Sutherland","PROVINCE":"Caithness & Sutherland and Ross & Cromarty","COUNTRY":"UK","FIREDATE":"2026-03-19 11:34:00","FINALDATE":"2026-03-19 13:36:00","CLASS":"FireSeason","areaHA_geo":28.459},"geometry":{"type":"Polygon","coordinates":[[[-4.208156,58.089198],[-4.208926,58.08934],[-4.209679,58.089502],[-4.210414,58.089683],[-4.211053,58.089965],[-4.211596,58.090347],[-4.212283,58.090601],[-4.213115,58.090728],[-4.213947,58.090746],[-4.214778,58.090657],[-4.215278,58.090482],[-4.215446,58.090222],[-4.215738,58.090078],[-4.216152,58.090052],[-4.216622,58.090123],[-4.217148,58.090291],[-4.21771,58.090401],[-4.218309,58.090454],[-4.218829,58.090457],[-4.219269,58.09041],[-4.219699,58.090274],[-4.220119,58.090049],[-4.220651,58.089741],[-4.221294,58.089348],[-4.221629,58.089061],[-4.221659,58.088878],[-4.221348,58.088673],[-4.220697,58.088447],[-4.22006,58.088277],[-4.219437,58.088164],[-4.218988,58.088082],[-4.218713,58.088031],[-4.218078,58.087888],[-4.217084,58.087653],[-4.216238,58.087344],[-4.215542,58.08696],[-4.214797,58.086667],[-4.214002,58.086465],[-4.213093,58.086293],[-4.212068,58.086152],[-4.211333,58.086055],[-4.210888,58.086004],[-4.21046,58.086041],[-4.210051,58.086165],[-4.209646,58.086321],[-4.209244,58.086508],[-4.20874,58.086692],[-4.208132,58.086874],[-4.207683,58.087048],[-4.207392,58.087214],[-4.207116,58.087396],[-4.206855,58.087595],[-4.20664,58.087779],[-4.20647,58.08795],[-4.206731,58.088308],[-4.207424,58.088854],[-4.208156,58.089198]]]}}