{"type":"Feature","properties":{"id":"298263","COMMUNE":"Caithness and Sutherland","PROVINCE":"Caithness & Sutherland and Ross & Cromarty","COUNTRY":"UK","FIREDATE":"2026-04-12 11:17:00","FINALDATE":"2026-04-13 12:25:00","CLASS":"FireSeason","areaHA_geo":7.363},"geometry":{"type":"Polygon","coordinates":[[[-4.138298,58.058982],[-4.13845,58.059216],[-4.13819,58.059674],[-4.137449,58.059771],[-4.136726,58.059741],[-4.13665,58.059548],[-4.136344,58.059459],[-4.135937,58.059287],[-4.135354,58.059098],[-4.134596,58.058893],[-4.134165,58.058809],[-4.134061,58.058847],[-4.13404,58.059051],[-4.134101,58.05942],[-4.134969,58.059794],[-4.136642,58.060171],[-4.137811,58.060471],[-4.138476,58.060696],[-4.139022,58.060835],[-4.139449,58.060888],[-4.139812,58.060863],[-4.14011,58.060759],[-4.140201,58.060476],[-4.140086,58.060014],[-4.139982,58.059667],[-4.139891,58.059434],[-4.139646,58.059201],[-4.139248,58.058966],[-4.139176,58.058763],[-4.139431,58.058592],[-4.139731,58.05856],[-4.140078,58.058666],[-4.140288,58.05864],[-4.14036,58.05848],[-4.140349,58.058194],[-4.140254,58.057783],[-4.140175,58.057456],[-4.140113,58.057212],[-4.139887,58.057025],[-4.139497,58.056896],[-4.139302,58.056832],[-4.139308,58.056397],[-4.13932,58.055527],[-4.139193,58.055057],[-4.138928,58.054986],[-4.138756,58.055023],[-4.138677,58.055165],[-4.138569,58.055405],[-4.138431,58.055743],[-4.138352,58.056271],[-4.138331,58.056989],[-4.138298,58.057526],[-4.138252,58.05788],[-4.138242,58.058199],[-4.13827,58.058483],[-4.138289,58.058768],[-4.138298,58.058982]]]}}