{"type":"Feature","properties":{"id":"298291","COMMUNE":"Aberdeenshire","PROVINCE":"Aberdeen City and Aberdeenshire","COUNTRY":"UK","FIREDATE":"2026-03-18 11:51:00","FINALDATE":"2026-03-19 12:55:00","CLASS":"FireSeason","areaHA_geo":70.019},"geometry":{"type":"Polygon","coordinates":[[[-3.17095,57.233919],[-3.170971,57.233914],[-3.171022,57.23383],[-3.171103,57.233667],[-3.171264,57.233477],[-3.171503,57.23326],[-3.17173,57.233168],[-3.171943,57.233201],[-3.172251,57.23322],[-3.172656,57.233226],[-3.173039,57.233172],[-3.173401,57.23306],[-3.173575,57.232961],[-3.17356,57.232875],[-3.173505,57.232798],[-3.173412,57.232733],[-3.173144,57.232674],[-3.1727,57.232622],[-3.172322,57.232573],[-3.172011,57.232525],[-3.171813,57.232425],[-3.171729,57.232275],[-3.171627,57.232143],[-3.171509,57.232029],[-3.17133,57.23185],[-3.171088,57.231607],[-3.170715,57.231471],[-3.170209,57.231442],[-3.169586,57.231516],[-3.168844,57.231691],[-3.168324,57.231763],[-3.168026,57.23173],[-3.167776,57.231703],[-3.167575,57.231681],[-3.167254,57.231682],[-3.166814,57.231706],[-3.166565,57.231756],[-3.166507,57.231833],[-3.166468,57.231908],[-3.166448,57.231982],[-3.166479,57.232091],[-3.166563,57.232238],[-3.166706,57.232337],[-3.16691,57.232387],[-3.167178,57.232412],[-3.167511,57.232412],[-3.167731,57.232411],[-3.167838,57.232408],[-3.167907,57.232439],[-3.167938,57.232503],[-3.167927,57.232594],[-3.167877,57.232712],[-3.167727,57.232857],[-3.167479,57.233029],[-3.167315,57.233133],[-3.167235,57.233171],[-3.16711,57.233135],[-3.16694,57.233027],[-3.166705,57.232877],[-3.166405,57.232685],[-3.166162,57.23258],[-3.165977,57.232561],[-3.165836,57.232619],[-3.165737,57.232755],[-3.165598,57.232842],[-3.165418,57.232881],[-3.16524,57.232935],[-3.165063,57.233003],[-3.164963,57.233124],[-3.16494,57.233298],[-3.164945,57.233419],[-3.164976,57.233487],[-3.165038,57.233518],[-3.165129,57.233513],[-3.16523,57.233472],[-3.165342,57.233393],[-3.165477,57.233306],[-3.165636,57.233211],[-3.165812,57.233183],[-3.166004,57.233222],[-3.166079,57.233323],[-3.166036,57.233486],[-3.165973,57.233579],[-3.165887,57.2336],[-3.165832,57.233639],[-3.165805,57.233696],[-3.16579,57.233773],[-3.165786,57.23387],[-3.165798,57.23394],[-3.165826,57.233983],[-3.165837,57.234008],[-3.16583,57.234014],[-3.16581,57.234071],[-3.165778,57.234178],[-3.165704,57.234267],[-3.165588,57.234339],[-3.16546,57.23436],[-3.165318,57.234331],[-3.165246,57.234242],[-3.165244,57.234095],[-3.165108,57.234038],[-3.164837,57.234071],[-3.164647,57.234033],[-3.164538,57.233924],[-3.16436,57.233906],[-3.164114,57.23398],[-3.163879,57.234086],[-3.163656,57.234223],[-3.16332,57.234385],[-3.162873,57.234572],[-3.162408,57.234739],[-3.161926,57.234886],[-3.161505,57.235021],[-3.161146,57.235145],[-3.160829,57.235275],[-3.160555,57.235412],[-3.160153,57.235515],[-3.159623,57.235585],[-3.15928,57.235655],[-3.159124,57.235726],[-3.15905,57.235801],[-3.159058,57.235882],[-3.159123,57.235993],[-3.159244,57.236134],[-3.159232,57.236285],[-3.159088,57.236447],[-3.158997,57.236573],[-3.158959,57.236665],[-3.159003,57.236802],[-3.159128,57.236986],[-3.159242,57.237176],[-3.159342,57.237373],[-3.159405,57.237536],[-3.159431,57.237665],[-3.159531,57.237734],[-3.159706,57.237743],[-3.159832,57.237714],[-3.159908,57.237646],[-3.159969,57.237477],[-3.160013,57.237205],[-3.160202,57.236927],[-3.160534,57.236642],[-3.160885,57.236495],[-3.161255,57.236485],[-3.161479,57.236536],[-3.16156,57.236648],[-3.161611,57.236779],[-3.161635,57.236929],[-3.161627,57.237121],[-3.161589,57.237354],[-3.161593,57.237577],[-3.161639,57.237791],[-3.161707,57.237953],[-3.161797,57.238064],[-3.161867,57.238119],[-3.161916,57.238119],[-3.161954,57.238214],[-3.161983,57.238402],[-3.162185,57.238516],[-3.16256,57.238554],[-3.162937,57.238582],[-3.163316,57.2386],[-3.163459,57.238724],[-3.163367,57.238954],[-3.163337,57.239083],[-3.16337,57.239112],[-3.163634,57.239148],[-3.164127,57.239193],[-3.164425,57.239112],[-3.164526,57.238907],[-3.164968,57.238723],[-3.16575,57.238562],[-3.166244,57.238462],[-3.166451,57.238422],[-3.166807,57.238358],[-3.167311,57.238269],[-3.167722,57.238228],[-3.168039,57.238233],[-3.168126,57.238316],[-3.167985,57.238475],[-3.167962,57.238607],[-3.168057,57.238711],[-3.168314,57.238811],[-3.168733,57.238907],[-3.168998,57.239095],[-3.169109,57.239373],[-3.169955,57.239669],[-3.171535,57.239982],[-3.173146,57.240072],[-3.174787,57.239937],[-3.176062,57.239802],[-3.176969,57.239666],[-3.177819,57.239584],[-3.178613,57.239554],[-3.17912,57.239572],[-3.179342,57.239638],[-3.179753,57.23958],[-3.180353,57.2394],[-3.180774,57.239323],[-3.181016,57.239348],[-3.181284,57.239397],[-3.181577,57.239468],[-3.182053,57.239445],[-3.18271,57.239328],[-3.18309,57.239167],[-3.183191,57.238961],[-3.183049,57.238645],[-3.182663,57.238217],[-3.18233,57.237888],[-3.18205,57.237658],[-3.181851,57.237524],[-3.181732,57.237486],[-3.181504,57.23755],[-3.181168,57.237716],[-3.180884,57.237836],[-3.180654,57.23791],[-3.180445,57.237978],[-3.180258,57.238041],[-3.179894,57.238097],[-3.179352,57.238146],[-3.178801,57.23817],[-3.178241,57.23817],[-3.177682,57.23822],[-3.177124,57.23832],[-3.176792,57.238288],[-3.176686,57.238122],[-3.176695,57.237935],[-3.176819,57.237727],[-3.177155,57.237624],[-3.177703,57.237625],[-3.178049,57.237581],[-3.178191,57.237491],[-3.1783,57.237354],[-3.178374,57.23717],[-3.17848,57.237042],[-3.178618,57.236972],[-3.178887,57.236941],[-3.179287,57.236951],[-3.179492,57.236956],[-3.179503,57.236954],[-3.179527,57.236905],[-3.179561,57.236807],[-3.179494,57.236732],[-3.179324,57.23668],[-3.179148,57.236596],[-3.178968,57.236482],[-3.178817,57.236368],[-3.178694,57.236255],[-3.178571,57.236154],[-3.178446,57.236065],[-3.178355,57.235939],[-3.178296,57.235775],[-3.178094,57.235682],[-3.177748,57.23566],[-3.177444,57.235804],[-3.177182,57.236114],[-3.176896,57.236276],[-3.176586,57.236288],[-3.176423,57.236242],[-3.176409,57.236136],[-3.176351,57.236078],[-3.176251,57.236068],[-3.17628,57.235934],[-3.176438,57.235675],[-3.176594,57.235436],[-3.176749,57.235219],[-3.176761,57.234928],[-3.176632,57.234565],[-3.176454,57.23428],[-3.176229,57.234074],[-3.175899,57.233952],[-3.175461,57.233914],[-3.175157,57.233909],[-3.174986,57.233937],[-3.174567,57.234021],[-3.1739,57.234159],[-3.173253,57.234268],[-3.172626,57.234348],[-3.17222,57.234411],[-3.172034,57.234457],[-3.171555,57.234541],[-3.170782,57.234663],[-3.170169,57.234727],[-3.169718,57.234735],[-3.169404,57.234704],[-3.169228,57.234634],[-3.169358,57.23449],[-3.169795,57.234271],[-3.170244,57.23413],[-3.170706,57.234067],[-3.170937,57.234007],[-3.170939,57.23395],[-3.17095,57.233919]],[[-3.163889,57.237065],[-3.163888,57.236685],[-3.163888,57.236685],[-3.163621,57.236617],[-3.163471,57.236538],[-3.163518,57.236365],[-3.163634,57.236236],[-3.163773,57.236171],[-3.163934,57.236206],[-3.16398,57.23626],[-3.16418,57.236444],[-3.164479,57.236487],[-3.164704,57.236625],[-3.164605,57.236803],[-3.164454,57.236986],[-3.164405,57.237188],[-3.164157,57.23725],[-3.164038,57.237218],[-3.163889,57.237065]],[[-3.165836,57.235788],[-3.165707,57.235465],[-3.1658,57.235346],[-3.165908,57.235269],[-3.165982,57.235137],[-3.166051,57.235065],[-3.166251,57.235059],[-3.166287,57.235121],[-3.166327,57.235234],[-3.166589,57.235288],[-3.166678,57.235461],[-3.166574,57.235662],[-3.166492,57.235809],[-3.166203,57.235984],[-3.166101,57.236002],[-3.165972,57.235905],[-3.165836,57.235788]]]}}