{"type":"Feature","properties":{"id":"298294","COMMUNE":"Aberdeenshire","PROVINCE":"Aberdeen City and Aberdeenshire","COUNTRY":"UK","FIREDATE":"2026-04-07 10:56:00","CLASS":"FireSeason","areaHA_geo":38.488},"geometry":{"type":"Polygon","coordinates":[[[-3.17566,57.221063],[-3.175669,57.221068],[-3.175667,57.221098],[-3.175657,57.221155],[-3.175582,57.221198],[-3.175442,57.221226],[-3.175238,57.221239],[-3.17497,57.221239],[-3.174735,57.221249],[-3.174534,57.221271],[-3.174367,57.221304],[-3.174233,57.221348],[-3.174129,57.221414],[-3.174055,57.221503],[-3.174011,57.221613],[-3.173996,57.221746],[-3.174019,57.221864],[-3.174079,57.221968],[-3.174177,57.222058],[-3.174312,57.222134],[-3.174427,57.222202],[-3.174521,57.222264],[-3.174595,57.222319],[-3.174648,57.222366],[-3.174634,57.222441],[-3.174554,57.222542],[-3.174408,57.222671],[-3.174196,57.222826],[-3.174035,57.222944],[-3.173927,57.223025],[-3.173872,57.223068],[-3.173869,57.223074],[-3.173923,57.223088],[-3.174034,57.22311],[-3.174202,57.223141],[-3.174427,57.22318],[-3.17462,57.223203],[-3.17478,57.22321],[-3.174907,57.223202],[-3.175002,57.223179],[-3.175088,57.223172],[-3.175167,57.223182],[-3.175237,57.223209],[-3.175299,57.223253],[-3.175344,57.223323],[-3.175373,57.223419],[-3.175386,57.223541],[-3.175382,57.22369],[-3.175416,57.223803],[-3.175488,57.223883],[-3.175598,57.223927],[-3.175746,57.223938],[-3.175883,57.22394],[-3.176008,57.223936],[-3.176121,57.223925],[-3.176222,57.223906],[-3.1763,57.223891],[-3.176352,57.22388],[-3.176381,57.223873],[-3.176385,57.22387],[-3.176393,57.223898],[-3.176407,57.223957],[-3.176414,57.223992],[-3.176416,57.224003],[-3.176436,57.224],[-3.176474,57.22398],[-3.176571,57.223882],[-3.176728,57.223704],[-3.176795,57.223572],[-3.176772,57.223483],[-3.17667,57.223394],[-3.176488,57.223303],[-3.176267,57.223225],[-3.176006,57.223161],[-3.175871,57.223089],[-3.17586,57.223009],[-3.175822,57.222928],[-3.175757,57.222844],[-3.175625,57.222781],[-3.175425,57.222739],[-3.175286,57.222668],[-3.175205,57.222566],[-3.175277,57.222483],[-3.1755,57.222418],[-3.175695,57.222398],[-3.175862,57.222424],[-3.175995,57.222377],[-3.176093,57.222258],[-3.176125,57.222126],[-3.176092,57.221982],[-3.176196,57.221855],[-3.176438,57.221745],[-3.176657,57.22173],[-3.176852,57.22181],[-3.177053,57.221892],[-3.177259,57.221976],[-3.177442,57.222057],[-3.177602,57.222136],[-3.177709,57.222239],[-3.177763,57.222367],[-3.177878,57.222429],[-3.178052,57.222426],[-3.17822,57.222452],[-3.17838,57.222507],[-3.178462,57.222563],[-3.178464,57.22262],[-3.178369,57.222672],[-3.178175,57.222721],[-3.178018,57.22275],[-3.177897,57.22276],[-3.177787,57.222821],[-3.177687,57.222933],[-3.177552,57.223095],[-3.177382,57.223308],[-3.177245,57.223514],[-3.17714,57.223715],[-3.17703,57.223862],[-3.176914,57.223954],[-3.176835,57.224031],[-3.176796,57.224093],[-3.17683,57.224136],[-3.176939,57.224162],[-3.177017,57.224167],[-3.177064,57.224151],[-3.177192,57.224105],[-3.177399,57.224028],[-3.177608,57.223947],[-3.17782,57.223862],[-3.178004,57.223766],[-3.178159,57.223659],[-3.178286,57.223542],[-3.178385,57.223415],[-3.178524,57.223288],[-3.178703,57.223161],[-3.178922,57.223035],[-3.179181,57.222908],[-3.179439,57.222795],[-3.179695,57.222697],[-3.17995,57.222613],[-3.180203,57.222542],[-3.18044,57.222497],[-3.180662,57.222476],[-3.180869,57.222479],[-3.181059,57.222507],[-3.181245,57.222527],[-3.181427,57.222538],[-3.181604,57.22254],[-3.181777,57.222534],[-3.181941,57.22252],[-3.182096,57.222499],[-3.182242,57.22247],[-3.182378,57.222434],[-3.182489,57.222412],[-3.182574,57.222405],[-3.182633,57.222412],[-3.182667,57.222434],[-3.182703,57.222457],[-3.182743,57.222481],[-3.182785,57.222506],[-3.182831,57.222532],[-3.182915,57.222543],[-3.183037,57.222539],[-3.183198,57.22252],[-3.183397,57.222486],[-3.183568,57.222435],[-3.183712,57.222369],[-3.183829,57.222287],[-3.183917,57.222189],[-3.184026,57.222116],[-3.184156,57.222068],[-3.184307,57.222045],[-3.184477,57.222047],[-3.184659,57.222061],[-3.184852,57.222088],[-3.185055,57.222127],[-3.185269,57.222177],[-3.185443,57.222215],[-3.185578,57.222239],[-3.185674,57.222249],[-3.185729,57.222247],[-3.185787,57.222235],[-3.185846,57.222213],[-3.185907,57.222183],[-3.185971,57.222143],[-3.186018,57.222092],[-3.18605,57.22203],[-3.186067,57.221957],[-3.186068,57.221873],[-3.18607,57.221804],[-3.186074,57.221749],[-3.186079,57.221709],[-3.186085,57.221683],[-3.186117,57.221651],[-3.186175,57.221611],[-3.186259,57.221565],[-3.186369,57.221512],[-3.186499,57.22147],[-3.186647,57.221438],[-3.186815,57.221417],[-3.187002,57.221406],[-3.18714,57.221388],[-3.187228,57.221362],[-3.187268,57.221329],[-3.187259,57.221288],[-3.187229,57.221255],[-3.187178,57.221229],[-3.187107,57.221212],[-3.187016,57.221201],[-3.186914,57.221184],[-3.1868,57.221161],[-3.186674,57.221131],[-3.186537,57.221095],[-3.186395,57.221045],[-3.186246,57.220982],[-3.186091,57.220906],[-3.18593,57.220816],[-3.185793,57.220727],[-3.185679,57.22064],[-3.185589,57.220553],[-3.185523,57.220468],[-3.185452,57.220372],[-3.185378,57.220265],[-3.1853,57.220147],[-3.185218,57.220019],[-3.185132,57.219919],[-3.185043,57.219849],[-3.184949,57.219808],[-3.184852,57.219795],[-3.184762,57.219801],[-3.184678,57.219827],[-3.184601,57.219871],[-3.184531,57.219934],[-3.184454,57.219987],[-3.184372,57.22003],[-3.184283,57.220063],[-3.184188,57.220087],[-3.184044,57.220094],[-3.18385,57.220084],[-3.183606,57.220058],[-3.183312,57.220015],[-3.183061,57.219969],[-3.182853,57.219921],[-3.182688,57.219869],[-3.182565,57.219815],[-3.182437,57.219746],[-3.182301,57.219663],[-3.18216,57.219567],[-3.182012,57.219456],[-3.181897,57.219357],[-3.181814,57.219269],[-3.181764,57.219193],[-3.181746,57.219127],[-3.181733,57.219067],[-3.181726,57.21901],[-3.181724,57.218958],[-3.181727,57.21891],[-3.181728,57.21887],[-3.181727,57.218836],[-3.181723,57.21881],[-3.181716,57.218791],[-3.181684,57.218764],[-3.181628,57.218728],[-3.181546,57.218683],[-3.181439,57.21863],[-3.181313,57.218576],[-3.181168,57.218523],[-3.181003,57.218469],[-3.180819,57.218415],[-3.180676,57.218375],[-3.180576,57.218349],[-3.180516,57.218337],[-3.180499,57.218339],[-3.180482,57.218335],[-3.180465,57.218324],[-3.180448,57.218307],[-3.180432,57.218283],[-3.180411,57.218252],[-3.180383,57.218212],[-3.180351,57.218165],[-3.180313,57.21811],[-3.180256,57.218055],[-3.18018,57.218001],[-3.180084,57.217948],[-3.179969,57.217895],[-3.179867,57.21786],[-3.179776,57.217842],[-3.179697,57.217841],[-3.17963,57.217858],[-3.179584,57.217889],[-3.17956,57.217936],[-3.179557,57.217998],[-3.179575,57.218076],[-3.179598,57.218148],[-3.179626,57.218216],[-3.179658,57.218279],[-3.179694,57.218337],[-3.179713,57.218381],[-3.179714,57.218412],[-3.179697,57.21843],[-3.179663,57.218434],[-3.179635,57.218465],[-3.179615,57.218523],[-3.179602,57.218608],[-3.179595,57.21872],[-3.179556,57.218825],[-3.179482,57.218923],[-3.179376,57.219014],[-3.179235,57.219098],[-3.179089,57.219161],[-3.178936,57.219203],[-3.178778,57.219224],[-3.178613,57.219224],[-3.178503,57.219201],[-3.178448,57.219155],[-3.178447,57.219086],[-3.178502,57.218994],[-3.178522,57.218907],[-3.178505,57.218825],[-3.178453,57.218748],[-3.178366,57.218676],[-3.178264,57.218604],[-3.178149,57.218534],[-3.17802,57.218464],[-3.177876,57.218395],[-3.177767,57.218343],[-3.177691,57.21831],[-3.17765,57.218294],[-3.177642,57.218296],[-3.177636,57.218291],[-3.177633,57.21828],[-3.177632,57.218263],[-3.177634,57.218239],[-3.177635,57.2182],[-3.177637,57.218146],[-3.177639,57.218076],[-3.177641,57.217992],[-3.177695,57.217921],[-3.177802,57.217862],[-3.177961,57.217815],[-3.178172,57.217782],[-3.178333,57.217733],[-3.178442,57.217668],[-3.178501,57.217589],[-3.178508,57.217494],[-3.178491,57.21741],[-3.178449,57.217337],[-3.178382,57.217274],[-3.17829,57.217221],[-3.178165,57.217163],[-3.178008,57.217099],[-3.177817,57.217028],[-3.177594,57.216952],[-3.177408,57.216872],[-3.177259,57.216787],[-3.177147,57.216697],[-3.177073,57.216604],[-3.177016,57.216533],[-3.176978,57.216486],[-3.176958,57.216462],[-3.176956,57.216461],[-3.176957,57.216447],[-3.176962,57.216421],[-3.176972,57.216381],[-3.176984,57.216328],[-3.17699,57.216272],[-3.176989,57.216213],[-3.17698,57.21615],[-3.176965,57.216085],[-3.176937,57.216024],[-3.176898,57.215967],[-3.176846,57.215914],[-3.176782,57.215866],[-3.176718,57.215812],[-3.176654,57.215751],[-3.17659,57.215685],[-3.176525,57.215611],[-3.176462,57.215544],[-3.176402,57.215483],[-3.176343,57.215428],[-3.176287,57.21538],[-3.176227,57.215335],[-3.176162,57.215296],[-3.176094,57.215261],[-3.176021,57.21523],[-3.17594,57.215188],[-3.175851,57.215134],[-3.175754,57.215069],[-3.175649,57.214991],[-3.175552,57.214942],[-3.175464,57.214922],[-3.175383,57.21493],[-3.175311,57.214967],[-3.175252,57.215007],[-3.175206,57.215052],[-3.175173,57.2151],[-3.175153,57.215152],[-3.175142,57.215209],[-3.17514,57.21527],[-3.175148,57.215335],[-3.175165,57.215405],[-3.175166,57.215478],[-3.175151,57.215555],[-3.175119,57.215636],[-3.175072,57.215721],[-3.175032,57.215796],[-3.175,57.215862],[-3.174975,57.215919],[-3.174957,57.215966],[-3.174897,57.216009],[-3.174795,57.216047],[-3.174651,57.21608],[-3.174465,57.216109],[-3.174316,57.216138],[-3.174206,57.216167],[-3.174133,57.216197],[-3.174099,57.216228],[-3.17408,57.216265],[-3.174077,57.216308],[-3.17409,57.216358],[-3.17412,57.216415],[-3.174205,57.216469],[-3.174348,57.216523],[-3.174546,57.216575],[-3.174802,57.216626],[-3.175005,57.216676],[-3.175157,57.216725],[-3.175258,57.216772],[-3.175306,57.216819],[-3.175374,57.216853],[-3.175462,57.216874],[-3.175568,57.216882],[-3.175694,57.216876],[-3.175798,57.216877],[-3.17588,57.216884],[-3.17594,57.216896],[-3.175979,57.216914],[-3.176011,57.216937],[-3.176037,57.216964],[-3.176056,57.216995],[-3.176069,57.217031],[-3.176069,57.217082],[-3.176058,57.217147],[-3.176036,57.217227],[-3.176001,57.217322],[-3.175992,57.217401],[-3.176008,57.217465],[-3.176049,57.217514],[-3.176115,57.217546],[-3.17618,57.217571],[-3.176243,57.217588],[-3.176305,57.217598],[-3.176364,57.217599],[-3.176417,57.217612],[-3.176462,57.217635],[-3.176499,57.217671],[-3.17653,57.217717],[-3.176542,57.217771],[-3.176537,57.217833],[-3.176514,57.217904],[-3.176473,57.217982],[-3.176405,57.218057],[-3.176307,57.21813],[-3.176182,57.2182],[-3.176028,57.218268],[-3.175899,57.21831],[-3.175796,57.218326],[-3.175717,57.218318],[-3.175664,57.218284],[-3.175603,57.218231],[-3.175534,57.21816],[-3.175458,57.218071],[-3.175374,57.217963],[-3.175303,57.217869],[-3.175245,57.217789],[-3.175199,57.217722],[-3.175166,57.217668],[-3.175114,57.217608],[-3.175042,57.21754],[-3.17495,57.217464],[-3.174838,57.217382],[-3.174718,57.217312],[-3.174588,57.217256],[-3.17445,57.217213],[-3.174302,57.217184],[-3.174145,57.217167],[-3.173976,57.217161],[-3.173797,57.217168],[-3.173608,57.217187],[-3.173446,57.217254],[-3.17331,57.217368],[-3.173202,57.217529],[-3.173122,57.217737],[-3.173033,57.21792],[-3.172936,57.218078],[-3.172832,57.218211],[-3.17272,57.218318],[-3.172631,57.218428],[-3.172566,57.21854],[-3.172524,57.218653],[-3.172506,57.218768],[-3.172481,57.218873],[-3.172451,57.218966],[-3.172414,57.219048],[-3.172371,57.219119],[-3.172328,57.219191],[-3.172285,57.219262],[-3.172242,57.219334],[-3.1722,57.219407],[-3.172136,57.219476],[-3.172051,57.219541],[-3.171944,57.219603],[-3.171817,57.219662],[-3.171721,57.219734],[-3.171657,57.219821],[-3.171624,57.219921],[-3.171624,57.220036],[-3.171632,57.220168],[-3.17165,57.220318],[-3.171676,57.220486],[-3.171712,57.220673],[-3.171774,57.220832],[-3.171862,57.220966],[-3.171978,57.221073],[-3.17212,57.221153],[-3.172265,57.221196],[-3.172414,57.221202],[-3.172567,57.221171],[-3.172723,57.221102],[-3.172898,57.221044],[-3.173093,57.220998],[-3.173307,57.220963],[-3.173541,57.22094],[-3.173788,57.220922],[-3.174047,57.220911],[-3.174318,57.220907],[-3.174602,57.220909],[-3.174857,57.220917],[-3.17508,57.22093],[-3.175224,57.220942],[-3.175287,57.220952],[-3.175468,57.220935],[-3.175766,57.220891],[-3.176023,57.220864],[-3.176238,57.220851],[-3.176373,57.220871],[-3.176426,57.220923],[-3.176396,57.220973],[-3.176282,57.221023],[-3.176127,57.221046],[-3.175932,57.221042],[-3.17579,57.221045],[-3.175701,57.221056],[-3.17566,57.221063]]]}}