{"type":"Feature","properties":{"id":"298249","COMMUNE":"New Forest","PROVINCE":"Central Hampshire","COUNTRY":"UK","FIREDATE":"2026-03-22 12:38:00","FINALDATE":"2026-03-22 12:38:00","CLASS":"FireSeason","areaHA_geo":4.057},"geometry":{"type":"Polygon","coordinates":[[[-1.714383,50.869648],[-1.71469,50.870259],[-1.714937,50.870569],[-1.715122,50.870579],[-1.715436,50.870528],[-1.715878,50.870416],[-1.716297,50.870239],[-1.716692,50.869997],[-1.717137,50.869746],[-1.717633,50.869484],[-1.717875,50.869239],[-1.717862,50.86901],[-1.717584,50.868842],[-1.71704,50.868735],[-1.71638,50.868654],[-1.715606,50.868599],[-1.715072,50.868562],[-1.714779,50.868544],[-1.714488,50.868569],[-1.714202,50.868637],[-1.714101,50.868839],[-1.714186,50.869175],[-1.714383,50.869648]]]}}