{"type":"Feature","properties":{"id":"298272","COMMUNE":"Inverness and Nairn","PROVINCE":"Inverness & Nairn and Moray, Badenoch & Strathspey","COUNTRY":"UK","FIREDATE":"2026-04-10 11:21:00","FINALDATE":"2026-04-10 13:04:00","CLASS":"FireSeason","areaHA_geo":96.698},"geometry":{"type":"Polygon","coordinates":[[[-4.024823,57.344015],[-4.025237,57.344091],[-4.025622,57.344171],[-4.025978,57.344253],[-4.0265,57.344426],[-4.02719,57.344691],[-4.027601,57.344838],[-4.027734,57.344868],[-4.027852,57.344937],[-4.027954,57.345046],[-4.028058,57.345106],[-4.028164,57.345117],[-4.028187,57.345257],[-4.028127,57.345526],[-4.028297,57.345731],[-4.028697,57.345874],[-4.029026,57.345992],[-4.029284,57.346085],[-4.029463,57.346208],[-4.029562,57.346361],[-4.029591,57.346544],[-4.029551,57.346756],[-4.029584,57.346925],[-4.029692,57.347051],[-4.029733,57.347122],[-4.029705,57.347139],[-4.029438,57.34719],[-4.028932,57.347276],[-4.028488,57.347344],[-4.028104,57.347396],[-4.027897,57.347257],[-4.027867,57.346929],[-4.027627,57.346753],[-4.027176,57.346729],[-4.026925,57.346678],[-4.026877,57.3466],[-4.026673,57.346544],[-4.026314,57.34651],[-4.026098,57.346575],[-4.026026,57.346738],[-4.025933,57.346898],[-4.02582,57.347056],[-4.025476,57.347212],[-4.024901,57.347367],[-4.024553,57.347539],[-4.024433,57.347728],[-4.024276,57.347921],[-4.024082,57.348119],[-4.023749,57.348227],[-4.023275,57.348247],[-4.022727,57.348145],[-4.022103,57.347922],[-4.021562,57.347762],[-4.021102,57.347667],[-4.020738,57.347695],[-4.02047,57.347849],[-4.020245,57.34794],[-4.020064,57.34797],[-4.01987,57.347991],[-4.019663,57.348003],[-4.019432,57.347799],[-4.019176,57.347381],[-4.0189,57.347136],[-4.018603,57.347064],[-4.018368,57.347002],[-4.018194,57.346948],[-4.018049,57.347098],[-4.017934,57.347452],[-4.017877,57.34778],[-4.017876,57.348081],[-4.017509,57.348302],[-4.016774,57.348443],[-4.016157,57.348665],[-4.015657,57.348967],[-4.015336,57.349209],[-4.015194,57.34939],[-4.015087,57.349666],[-4.015017,57.350036],[-4.014924,57.350347],[-4.014809,57.350598],[-4.014815,57.35084],[-4.014943,57.351075],[-4.01508,57.351284],[-4.015226,57.351465],[-4.015414,57.351579],[-4.015644,57.351627],[-4.015879,57.351612],[-4.016118,57.351535],[-4.016277,57.351373],[-4.016356,57.351126],[-4.016647,57.350981],[-4.017149,57.350937],[-4.017539,57.3509],[-4.017816,57.35087],[-4.018065,57.350818],[-4.018287,57.350742],[-4.01845,57.350766],[-4.018554,57.35089],[-4.018713,57.351002],[-4.018925,57.351104],[-4.019298,57.351048],[-4.019832,57.350835],[-4.02027,57.350648],[-4.020612,57.350487],[-4.02103,57.350271],[-4.021522,57.35],[-4.022041,57.349872],[-4.022584,57.349886],[-4.022922,57.350016],[-4.023054,57.350261],[-4.02324,57.350469],[-4.023478,57.35064],[-4.02375,57.350699],[-4.024057,57.350645],[-4.024141,57.350512],[-4.024001,57.350299],[-4.024051,57.349951],[-4.02429,57.34947],[-4.024673,57.349263],[-4.025199,57.349331],[-4.025483,57.349419],[-4.025524,57.349529],[-4.025458,57.349707],[-4.025283,57.349954],[-4.025522,57.350203],[-4.026176,57.350454],[-4.026537,57.350643],[-4.026605,57.350771],[-4.026777,57.350819],[-4.027054,57.35079],[-4.027446,57.350732],[-4.027951,57.350647],[-4.028376,57.350627],[-4.028721,57.350673],[-4.029019,57.350723],[-4.029271,57.350779],[-4.02949,57.350875],[-4.029677,57.35101],[-4.029825,57.351197],[-4.029935,57.351434],[-4.029962,57.351607],[-4.029908,57.351716],[-4.029838,57.351885],[-4.029751,57.352112],[-4.02979,57.352289],[-4.029954,57.352416],[-4.030033,57.352522],[-4.030027,57.352605],[-4.029895,57.352713],[-4.029637,57.352844],[-4.029422,57.352961],[-4.029249,57.353062],[-4.029166,57.353196],[-4.029171,57.353361],[-4.029205,57.353451],[-4.029268,57.353464],[-4.029429,57.353458],[-4.029688,57.35343],[-4.029836,57.353414],[-4.029873,57.35341],[-4.030075,57.353487],[-4.030443,57.353644],[-4.030845,57.353564],[-4.031282,57.353248],[-4.031461,57.352912],[-4.031384,57.352558],[-4.031322,57.352295],[-4.031275,57.352124],[-4.031348,57.351987],[-4.031539,57.351883],[-4.031736,57.351945],[-4.031938,57.352172],[-4.032022,57.352469],[-4.031989,57.352835],[-4.03204,57.353042],[-4.032173,57.35309],[-4.032535,57.352978],[-4.033124,57.352708],[-4.033582,57.352373],[-4.033911,57.351975],[-4.034242,57.351634],[-4.034575,57.351349],[-4.03474,57.350974],[-4.034735,57.350508],[-4.034629,57.35013],[-4.034422,57.349842],[-4.034151,57.349534],[-4.033814,57.349207],[-4.033609,57.348872],[-4.033535,57.348527],[-4.033637,57.348014],[-4.033914,57.347331],[-4.034237,57.346892],[-4.034605,57.346697],[-4.035059,57.346477],[-4.0356,57.346232],[-4.035937,57.346107],[-4.03607,57.346103],[-4.036641,57.346037],[-4.037649,57.345908],[-4.038282,57.345803],[-4.03854,57.345724],[-4.03885,57.345555],[-4.039214,57.345299],[-4.039428,57.34513],[-4.039494,57.345051],[-4.039548,57.344791],[-4.039592,57.344351],[-4.039665,57.344141],[-4.039769,57.344161],[-4.039913,57.344311],[-4.040097,57.344592],[-4.04023,57.344764],[-4.040312,57.344828],[-4.040609,57.344874],[-4.041119,57.344902],[-4.041519,57.344916],[-4.041807,57.344916],[-4.042037,57.344813],[-4.042209,57.344608],[-4.042282,57.344398],[-4.042258,57.344183],[-4.042087,57.343963],[-4.04177,57.343738],[-4.041147,57.343592],[-4.040219,57.343527],[-4.039575,57.343511],[-4.039218,57.343546],[-4.038996,57.343541],[-4.038909,57.343496],[-4.038653,57.343447],[-4.038227,57.343394],[-4.037852,57.343287],[-4.037526,57.343125],[-4.03724,57.342986],[-4.036993,57.342871],[-4.036679,57.342768],[-4.0363,57.342677],[-4.035961,57.342588],[-4.035664,57.3425],[-4.035273,57.34246],[-4.03479,57.342468],[-4.034386,57.342446],[-4.034061,57.342393],[-4.03381,57.342267],[-4.033633,57.342068],[-4.033512,57.341884],[-4.033447,57.341716],[-4.033204,57.341556],[-4.032781,57.341405],[-4.032376,57.341328],[-4.03199,57.341326],[-4.03169,57.341336],[-4.031475,57.341359],[-4.031239,57.341379],[-4.030982,57.341396],[-4.030648,57.341371],[-4.030238,57.341306],[-4.029869,57.341297],[-4.029542,57.341343],[-4.029448,57.341468],[-4.029586,57.341672],[-4.029619,57.341838],[-4.029547,57.341966],[-4.02935,57.342009],[-4.02903,57.341967],[-4.028812,57.341848],[-4.028697,57.341652],[-4.028279,57.341435],[-4.027559,57.341195],[-4.026914,57.341073],[-4.026344,57.341069],[-4.025853,57.341111],[-4.02544,57.341199],[-4.025051,57.341295],[-4.024685,57.3414],[-4.024492,57.341585],[-4.024472,57.34185],[-4.024321,57.3422],[-4.024041,57.342634],[-4.023772,57.342992],[-4.023513,57.343271],[-4.02337,57.343439],[-4.023341,57.343496],[-4.023201,57.343569],[-4.022949,57.343658],[-4.022686,57.343772],[-4.022412,57.34391],[-4.022154,57.344065],[-4.021912,57.344236],[-4.021673,57.344366],[-4.021437,57.344453],[-4.021277,57.344525],[-4.021193,57.34458],[-4.021134,57.344665],[-4.0211,57.344777],[-4.02105,57.34486],[-4.020984,57.344914],[-4.020864,57.345028],[-4.02069,57.345202],[-4.020512,57.345366],[-4.020331,57.34552],[-4.020168,57.345623],[-4.020025,57.345675],[-4.019926,57.345681],[-4.019872,57.34564],[-4.019738,57.34554],[-4.019524,57.345382],[-4.019119,57.345267],[-4.018525,57.345196],[-4.018184,57.345184],[-4.018096,57.345229],[-4.01806,57.345262],[-4.018077,57.345281],[-4.018087,57.345357],[-4.01809,57.345492],[-4.018206,57.345656],[-4.018433,57.345849],[-4.018691,57.346008],[-4.018979,57.346132],[-4.019092,57.346265],[-4.019031,57.346406],[-4.018998,57.346547],[-4.018994,57.346688],[-4.019092,57.346832],[-4.019293,57.346982],[-4.01948,57.347094],[-4.019653,57.347169],[-4.01983,57.347217],[-4.020012,57.347239],[-4.020165,57.347238],[-4.02029,57.347214],[-4.020519,57.347145],[-4.020851,57.347032],[-4.021147,57.346915],[-4.021408,57.346793],[-4.021864,57.34668],[-4.022516,57.346573],[-4.022923,57.346444],[-4.023086,57.346292],[-4.023132,57.346085],[-4.023061,57.345823],[-4.023143,57.345609],[-4.023378,57.345444],[-4.023499,57.345221],[-4.023507,57.344941],[-4.023625,57.344796],[-4.023852,57.344787],[-4.02414,57.344886],[-4.024488,57.345092],[-4.024767,57.345256],[-4.024977,57.345378],[-4.025198,57.345316],[-4.02543,57.345068],[-4.02555,57.344866],[-4.025558,57.34471],[-4.025459,57.344578],[-4.025255,57.34447],[-4.025036,57.344364],[-4.024804,57.34426],[-4.02467,57.34415],[-4.024634,57.344034],[-4.024823,57.344015]]]}}