{"type":"Feature","properties":{"id":"298261","COMMUNE":"Caithness and Sutherland","PROVINCE":"Caithness & Sutherland and Ross & Cromarty","COUNTRY":"UK","FIREDATE":"2026-03-19 11:34:00","FINALDATE":"2026-03-19 13:36:00","CLASS":"FireSeason","areaHA_geo":2.555},"geometry":{"type":"Polygon","coordinates":[[[-4.20566,58.090785],[-4.205861,58.090863],[-4.206071,58.090836],[-4.206291,58.090704],[-4.206421,58.09052],[-4.206463,58.090282],[-4.206807,58.090272],[-4.207455,58.09049],[-4.207992,58.090643],[-4.208418,58.090732],[-4.208682,58.090691],[-4.208783,58.090518],[-4.208474,58.090255],[-4.207756,58.089901],[-4.207036,58.089587],[-4.206316,58.089314],[-4.205667,58.089114],[-4.205089,58.088987],[-4.204607,58.088971],[-4.20422,58.089067],[-4.204044,58.08918],[-4.20408,58.089311],[-4.204257,58.089395],[-4.204578,58.089433],[-4.204811,58.089484],[-4.204956,58.089549],[-4.205161,58.089873],[-4.205427,58.090455],[-4.20566,58.090785]]]}}