{"type":"Feature","properties":{"id":"298290","COMMUNE":"Aberdeenshire","PROVINCE":"Aberdeen City and Aberdeenshire","COUNTRY":"UK","FIREDATE":"2026-03-18 11:51:00","FINALDATE":"2026-03-19 13:48:00","CLASS":"FireSeason","areaHA_geo":37.034},"geometry":{"type":"Polygon","coordinates":[[[-3.165841,57.240494],[-3.165733,57.240547],[-3.165625,57.24059],[-3.165516,57.240623],[-3.165393,57.240616],[-3.165256,57.24057],[-3.165189,57.240517],[-3.165194,57.240455],[-3.165196,57.240419],[-3.165197,57.24041],[-3.165184,57.240355],[-3.165158,57.240254],[-3.165032,57.240169],[-3.164807,57.240099],[-3.16462,57.240085],[-3.164473,57.240125],[-3.164349,57.240118],[-3.164248,57.240065],[-3.164,57.240012],[-3.163603,57.239961],[-3.1631,57.239933],[-3.16249,57.239928],[-3.161983,57.239908],[-3.16158,57.239873],[-3.161281,57.239823],[-3.161085,57.239759],[-3.160884,57.239679],[-3.160677,57.239584],[-3.160466,57.239474],[-3.160248,57.239349],[-3.160002,57.239251],[-3.159725,57.239179],[-3.159419,57.239133],[-3.159083,57.239113],[-3.158811,57.239104],[-3.158601,57.239105],[-3.158455,57.239117],[-3.158373,57.239138],[-3.158209,57.239168],[-3.157963,57.239206],[-3.157636,57.239253],[-3.157228,57.239307],[-3.156862,57.239381],[-3.156539,57.239475],[-3.156258,57.239588],[-3.156019,57.23972],[-3.155837,57.239818],[-3.155711,57.239882],[-3.155643,57.239912],[-3.155631,57.239907],[-3.155611,57.239878],[-3.155583,57.239824],[-3.155547,57.239746],[-3.155502,57.239644],[-3.155466,57.239542],[-3.155438,57.23944],[-3.155418,57.239339],[-3.155407,57.239238],[-3.155437,57.239137],[-3.155508,57.239036],[-3.15562,57.238936],[-3.155774,57.238836],[-3.155934,57.238726],[-3.156101,57.238607],[-3.156275,57.238478],[-3.156456,57.23834],[-3.156626,57.23824],[-3.156786,57.23818],[-3.156934,57.238158],[-3.157072,57.238175],[-3.157198,57.23819],[-3.157314,57.238203],[-3.157418,57.238214],[-3.157512,57.238222],[-3.157594,57.238198],[-3.157664,57.238142],[-3.157723,57.238054],[-3.157771,57.237934],[-3.157806,57.23782],[-3.15783,57.237713],[-3.157842,57.237613],[-3.157841,57.237519],[-3.157827,57.23741],[-3.157798,57.237284],[-3.157756,57.237141],[-3.157699,57.236982],[-3.157653,57.236862],[-3.157617,57.23678],[-3.157592,57.236737],[-3.157576,57.236733],[-3.157568,57.236721],[-3.157567,57.236702],[-3.157572,57.236676],[-3.157584,57.236642],[-3.157567,57.236607],[-3.157519,57.23657],[-3.157441,57.236532],[-3.157333,57.236492],[-3.157239,57.236442],[-3.157158,57.236381],[-3.157091,57.236309],[-3.157037,57.236226],[-3.156968,57.236165],[-3.156882,57.236125],[-3.156781,57.236107],[-3.156664,57.23611],[-3.156572,57.236128],[-3.156504,57.236161],[-3.156461,57.236209],[-3.156443,57.236273],[-3.156433,57.236338],[-3.15643,57.236405],[-3.156434,57.236474],[-3.156447,57.236545],[-3.156454,57.236598],[-3.156455,57.236633],[-3.156452,57.236651],[-3.156443,57.23665],[-3.156408,57.23667],[-3.156348,57.236709],[-3.156262,57.236767],[-3.15615,57.236845],[-3.156025,57.236949],[-3.155886,57.237079],[-3.155733,57.237234],[-3.155568,57.237415],[-3.155401,57.237581],[-3.155232,57.237732],[-3.155063,57.237867],[-3.154891,57.237986],[-3.154729,57.238161],[-3.154577,57.238389],[-3.154433,57.238673],[-3.154298,57.239011],[-3.154145,57.239318],[-3.153971,57.239594],[-3.153779,57.239838],[-3.153567,57.240051],[-3.153375,57.240246],[-3.153204,57.240423],[-3.153053,57.240583],[-3.152923,57.240725],[-3.152836,57.240867],[-3.152792,57.241009],[-3.152791,57.241152],[-3.152834,57.241294],[-3.15288,57.241447],[-3.152929,57.241608],[-3.152982,57.24178],[-3.153038,57.241961],[-3.153113,57.242124],[-3.153205,57.242268],[-3.153315,57.242393],[-3.153444,57.242501],[-3.153612,57.242578],[-3.153818,57.242626],[-3.154063,57.242645],[-3.154347,57.242634],[-3.154597,57.242614],[-3.154813,57.242584],[-3.154996,57.242544],[-3.155145,57.242495],[-3.155272,57.242478],[-3.155376,57.242494],[-3.155459,57.242543],[-3.155518,57.242625],[-3.155566,57.242689],[-3.155603,57.242736],[-3.155627,57.242765],[-3.155639,57.242777],[-3.155697,57.242818],[-3.1558,57.242888],[-3.155948,57.242986],[-3.156142,57.243113],[-3.15629,57.243212],[-3.156393,57.243282],[-3.15645,57.243323],[-3.156463,57.243335],[-3.156583,57.243355],[-3.156811,57.243383],[-3.157147,57.243419],[-3.15759,57.243463],[-3.15803,57.243491],[-3.158466,57.243503],[-3.158898,57.243498],[-3.159326,57.243477],[-3.159662,57.243462],[-3.159905,57.243454],[-3.160041,57.24343],[-3.160069,57.243388],[-3.16004,57.243263],[-3.159956,57.243054],[-3.159986,57.242842],[-3.16013,57.242626],[-3.160406,57.242414],[-3.160814,57.242204],[-3.161098,57.242042],[-3.161258,57.241928],[-3.161322,57.24184],[-3.16129,57.241778],[-3.1612,57.241668],[-3.161053,57.241509],[-3.160893,57.241343],[-3.160721,57.24117],[-3.160694,57.241064],[-3.16081,57.241025],[-3.161203,57.240999],[-3.161872,57.240986],[-3.162467,57.240977],[-3.162988,57.240973],[-3.163426,57.240978],[-3.163783,57.240991],[-3.164184,57.240988],[-3.16463,57.240971],[-3.164945,57.240996],[-3.16513,57.241064],[-3.165212,57.241167],[-3.165191,57.241305],[-3.164979,57.241414],[-3.164575,57.241493],[-3.164303,57.241604],[-3.164163,57.241749],[-3.163705,57.241888],[-3.162929,57.24202],[-3.162348,57.242152],[-3.161962,57.242284],[-3.1617,57.242408],[-3.161561,57.242525],[-3.161385,57.242608],[-3.161171,57.242657],[-3.160918,57.242724],[-3.160626,57.242807],[-3.160472,57.24291],[-3.160455,57.243031],[-3.160469,57.243141],[-3.160514,57.24324],[-3.160558,57.243328],[-3.1606,57.243404],[-3.160631,57.243443],[-3.160649,57.243443],[-3.160754,57.243451],[-3.160945,57.243467],[-3.161116,57.243492],[-3.161268,57.243526],[-3.161408,57.243563],[-3.161538,57.243603],[-3.161656,57.243647],[-3.161763,57.243694],[-3.161889,57.243729],[-3.162033,57.243752],[-3.162195,57.243763],[-3.162376,57.243763],[-3.162613,57.243752],[-3.162906,57.243732],[-3.163254,57.243701],[-3.163659,57.24366],[-3.16398,57.243614],[-3.164217,57.243564],[-3.16437,57.243508],[-3.164439,57.243448],[-3.164492,57.243367],[-3.16453,57.243265],[-3.164552,57.243143],[-3.164559,57.243],[-3.164591,57.242865],[-3.164649,57.242739],[-3.164732,57.242622],[-3.164842,57.242513],[-3.164954,57.242425],[-3.16507,57.242358],[-3.165189,57.242311],[-3.165311,57.242285],[-3.165438,57.242265],[-3.165568,57.242249],[-3.165702,57.242239],[-3.16584,57.242234],[-3.165949,57.242252],[-3.16603,57.242293],[-3.166081,57.242357],[-3.166104,57.242443],[-3.166129,57.242531],[-3.166156,57.242619],[-3.166186,57.242709],[-3.166218,57.242799],[-3.166283,57.242888],[-3.16638,57.242976],[-3.16651,57.243063],[-3.166672,57.243149],[-3.166811,57.243204],[-3.166926,57.243228],[-3.167018,57.243221],[-3.167087,57.243183],[-3.167144,57.243136],[-3.16719,57.24308],[-3.167224,57.243015],[-3.167248,57.242942],[-3.167304,57.242921],[-3.167394,57.242955],[-3.167517,57.243041],[-3.167674,57.243181],[-3.167796,57.243302],[-3.167881,57.243405],[-3.167932,57.243489],[-3.167947,57.243554],[-3.167925,57.243625],[-3.167866,57.243702],[-3.16777,57.243785],[-3.167638,57.243874],[-3.1675,57.243945],[-3.167359,57.243997],[-3.167212,57.244031],[-3.167061,57.244046],[-3.166879,57.244065],[-3.166666,57.244089],[-3.166421,57.244117],[-3.166144,57.24415],[-3.165926,57.244217],[-3.165765,57.24432],[-3.165662,57.244459],[-3.165617,57.244632],[-3.16561,57.244756],[-3.165641,57.244831],[-3.16571,57.244856],[-3.165816,57.244832],[-3.16591,57.244814],[-3.165992,57.244801],[-3.166062,57.244794],[-3.166119,57.244793],[-3.166167,57.244795],[-3.166206,57.2448],[-3.166235,57.244808],[-3.166256,57.244819],[-3.166282,57.244841],[-3.166314,57.244873],[-3.166352,57.244916],[-3.166396,57.244969],[-3.166463,57.245019],[-3.166553,57.245066],[-3.166667,57.245109],[-3.166805,57.245148],[-3.166998,57.245171],[-3.167247,57.245177],[-3.167551,57.245166],[-3.167912,57.245139],[-3.168227,57.245114],[-3.168499,57.245091],[-3.168726,57.24507],[-3.168908,57.245051],[-3.169077,57.245022],[-3.169231,57.244982],[-3.169371,57.244931],[-3.169497,57.24487],[-3.169583,57.244805],[-3.169629,57.244738],[-3.169636,57.244669],[-3.169602,57.244597],[-3.169556,57.244538],[-3.169499,57.244492],[-3.16943,57.24446],[-3.169349,57.244442],[-3.169296,57.244421],[-3.169271,57.244396],[-3.169274,57.244369],[-3.169304,57.24434],[-3.169351,57.24431],[-3.169415,57.244282],[-3.169496,57.244254],[-3.169593,57.244226],[-3.169724,57.244195],[-3.169888,57.244161],[-3.170086,57.244123],[-3.170318,57.244082],[-3.170527,57.244038],[-3.170712,57.243993],[-3.170874,57.243945],[-3.171013,57.243896],[-3.171152,57.243832],[-3.171293,57.243753],[-3.171434,57.24366],[-3.171577,57.243552],[-3.171694,57.243447],[-3.171784,57.243344],[-3.17185,57.243244],[-3.171889,57.243147],[-3.171895,57.243043],[-3.171868,57.242932],[-3.171807,57.242814],[-3.171714,57.24269],[-3.17155,57.242565],[-3.171315,57.242437],[-3.17101,57.242308],[-3.170634,57.242177],[-3.170232,57.242045],[-3.169802,57.241913],[-3.169346,57.24178],[-3.168862,57.241646],[-3.168454,57.241546],[-3.168122,57.24148],[-3.167866,57.241447],[-3.167685,57.241447],[-3.167496,57.241417],[-3.167298,57.241357],[-3.167091,57.241267],[-3.166875,57.241147],[-3.166694,57.241026],[-3.166548,57.240905],[-3.166437,57.240784],[-3.166361,57.240662],[-3.16624,57.240569],[-3.166072,57.240504],[-3.165965,57.24047],[-3.165918,57.240468],[-3.165841,57.240494]],[[-3.15702,57.24284],[-3.156726,57.242804],[-3.156726,57.242804],[-3.156793,57.242428],[-3.156884,57.242288],[-3.157135,57.242089],[-3.157117,57.241982],[-3.156712,57.24186],[-3.156674,57.241755],[-3.156987,57.24156],[-3.157495,57.241237],[-3.15807,57.24082],[-3.158023,57.240521],[-3.157702,57.240521],[-3.157537,57.240679],[-3.15721,57.241114],[-3.156242,57.241331],[-3.155935,57.241373],[-3.155809,57.24181],[-3.155339,57.241901],[-3.155018,57.2419],[-3.154877,57.241675],[-3.154905,57.241357],[-3.155271,57.241201],[-3.155753,57.241087],[-3.155631,57.240969],[-3.155368,57.240908],[-3.154854,57.240819],[-3.154706,57.240573],[-3.154639,57.24033],[-3.154803,57.24028],[-3.155012,57.240303],[-3.15513,57.24041],[-3.155426,57.24062],[-3.155796,57.240756],[-3.155881,57.24077],[-3.156156,57.240524],[-3.156519,57.240303],[-3.157074,57.240225],[-3.157296,57.240398],[-3.157627,57.240311],[-3.157904,57.240185],[-3.158357,57.240161],[-3.158835,57.240091],[-3.159229,57.240182],[-3.159581,57.240494],[-3.159901,57.240657],[-3.159923,57.241003],[-3.15942,57.241282],[-3.158918,57.241452],[-3.158163,57.241985],[-3.15702,57.24284]]]}}