{"type":"Feature","properties":{"id":"298250","COMMUNE":"New Forest","PROVINCE":"Central Hampshire","COUNTRY":"UK","FIREDATE":"2026-03-22 12:38:00","CLASS":"FireSeason","areaHA_geo":2.031},"geometry":{"type":"Polygon","coordinates":[[[-1.72049,50.865982],[-1.720934,50.866052],[-1.721351,50.866047],[-1.721741,50.865969],[-1.722076,50.86594],[-1.722355,50.865959],[-1.722625,50.865946],[-1.722887,50.8659],[-1.723176,50.86587],[-1.723492,50.865857],[-1.723673,50.865762],[-1.723719,50.865585],[-1.723633,50.865455],[-1.723414,50.865372],[-1.723125,50.865373],[-1.722767,50.865457],[-1.722587,50.865408],[-1.722586,50.865226],[-1.722541,50.865078],[-1.72245,50.864962],[-1.722226,50.864918],[-1.721868,50.864945],[-1.721514,50.864986],[-1.721163,50.865041],[-1.720875,50.865104],[-1.72065,50.865175],[-1.72047,50.865395],[-1.720336,50.865763],[-1.72049,50.865982]]]}}