{"type":"Feature","properties":{"id":"298257","COMMUNE":"Scottish Borders","PROVINCE":"Scottish Borders","COUNTRY":"UK","FIREDATE":"2026-03-20 12:55:00","FINALDATE":"2026-03-20 13:16:00","CLASS":"FireSeason","areaHA_geo":6.187},"geometry":{"type":"Polygon","coordinates":[[[-3.169383,55.612139],[-3.16984,55.612186],[-3.170338,55.612134],[-3.170875,55.611982],[-3.171577,55.611743],[-3.172444,55.611415],[-3.173146,55.611128],[-3.173683,55.610882],[-3.174058,55.610653],[-3.17427,55.610442],[-3.174273,55.610278],[-3.174066,55.610164],[-3.173877,55.610086],[-3.173706,55.610044],[-3.173577,55.609957],[-3.17349,55.609824],[-3.173384,55.609696],[-3.173258,55.609573],[-3.173042,55.609492],[-3.172735,55.609453],[-3.172381,55.609449],[-3.171981,55.609479],[-3.171708,55.609463],[-3.171561,55.609401],[-3.171494,55.609325],[-3.171506,55.609235],[-3.171548,55.609127],[-3.171621,55.609001],[-3.171567,55.608903],[-3.171386,55.608833],[-3.171177,55.608837],[-3.170941,55.608915],[-3.170641,55.608991],[-3.170277,55.609065],[-3.170007,55.609105],[-3.16983,55.609111],[-3.169719,55.609156],[-3.169673,55.609237],[-3.169769,55.609287],[-3.170005,55.609303],[-3.170253,55.609307],[-3.170513,55.609298],[-3.17074,55.609348],[-3.170934,55.609458],[-3.170945,55.609566],[-3.170771,55.609674],[-3.170542,55.60976],[-3.17026,55.609825],[-3.169983,55.609878],[-3.169713,55.609918],[-3.169509,55.609983],[-3.169372,55.610075],[-3.169429,55.610167],[-3.169681,55.610259],[-3.169912,55.610338],[-3.170124,55.610405],[-3.170254,55.61051],[-3.170302,55.610653],[-3.170441,55.610801],[-3.170671,55.610955],[-3.170652,55.611055],[-3.170384,55.611101],[-3.170198,55.611188],[-3.170095,55.611318],[-3.170023,55.611449],[-3.169985,55.611584],[-3.169859,55.611647],[-3.169646,55.61164],[-3.169374,55.611689],[-3.169042,55.611795],[-3.168945,55.611915],[-3.169085,55.612048],[-3.169383,55.612139]]]}}