{"type":"Feature","properties":{"id":"298255","COMMUNE":"Rochdale","PROVINCE":"Greater Manchester North East","COUNTRY":"UK","FIREDATE":"2026-04-08 13:08:00","CLASS":"FireSeason","areaHA_geo":344.204},"geometry":{"type":"Polygon","coordinates":[[[-2.003898,53.655613],[-2.003645,53.655623],[-2.003335,53.655547],[-2.002967,53.655387],[-2.002707,53.655259],[-2.002555,53.655164],[-2.002371,53.655028],[-2.002155,53.654853],[-2.00189,53.654726],[-2.001577,53.654646],[-2.001261,53.654539],[-2.000942,53.654405],[-2.00069,53.654286],[-2.000504,53.654181],[-2.000305,53.654066],[-2.000092,53.653939],[-1.999944,53.65393],[-1.99986,53.654036],[-1.999836,53.654152],[-1.999872,53.654278],[-1.999905,53.654447],[-1.999934,53.654659],[-1.999958,53.654832],[-1.999975,53.654965],[-1.999958,53.655068],[-1.999906,53.655141],[-1.999515,53.655081],[-1.998785,53.65489],[-1.998286,53.654776],[-1.998016,53.654742],[-1.997839,53.654778],[-1.997756,53.654884],[-1.99769,53.655017],[-1.997641,53.655175],[-1.997448,53.655225],[-1.997109,53.655166],[-1.996862,53.655102],[-1.996707,53.655031],[-1.996533,53.654984],[-1.996339,53.65496],[-1.996206,53.654986],[-1.996134,53.65506],[-1.996112,53.655164],[-1.996139,53.655297],[-1.996238,53.655407],[-1.996409,53.655494],[-1.996589,53.655599],[-1.99678,53.655722],[-1.996856,53.655825],[-1.996818,53.655908],[-1.996766,53.655963],[-1.9967,53.655988],[-1.996573,53.656016],[-1.996385,53.656047],[-1.996248,53.656005],[-1.996163,53.65589],[-1.995989,53.655769],[-1.995724,53.655642],[-1.995521,53.655515],[-1.995381,53.655387],[-1.995212,53.655342],[-1.995016,53.65538],[-1.994811,53.65541],[-1.994599,53.655431],[-1.994386,53.655375],[-1.994172,53.655243],[-1.993873,53.655143],[-1.993491,53.655077],[-1.992947,53.655029],[-1.992244,53.655001],[-1.991912,53.654895],[-1.991954,53.654713],[-1.992068,53.654588],[-1.992257,53.65452],[-1.99264,53.654464],[-1.993219,53.654418],[-1.993566,53.654378],[-1.993681,53.654342],[-1.993518,53.654155],[-1.993079,53.653818],[-1.992455,53.653505],[-1.991646,53.653216],[-1.991006,53.653031],[-1.990536,53.652948],[-1.990183,53.652968],[-1.989948,53.65309],[-1.989881,53.653219],[-1.989983,53.653357],[-1.990029,53.6535],[-1.990019,53.653648],[-1.990124,53.653779],[-1.990343,53.653892],[-1.99051,53.65402],[-1.990623,53.654163],[-1.990673,53.654321],[-1.990661,53.654494],[-1.990568,53.654626],[-1.990397,53.654717],[-1.990152,53.654658],[-1.989833,53.65445],[-1.989315,53.654329],[-1.9886,53.654296],[-1.987978,53.654281],[-1.987449,53.654284],[-1.986953,53.654275],[-1.98649,53.654253],[-1.986223,53.654301],[-1.986153,53.654418],[-1.986111,53.654527],[-1.986098,53.654627],[-1.986414,53.654768],[-1.987057,53.65495],[-1.987663,53.655141],[-1.988229,53.655343],[-1.988866,53.655572],[-1.989572,53.655828],[-1.989973,53.655979],[-1.99007,53.656024],[-1.990202,53.656107],[-1.990371,53.656225],[-1.990397,53.656633],[-1.99028,53.657331],[-1.989765,53.657729],[-1.988853,53.657827],[-1.988234,53.657857],[-1.987909,53.65782],[-1.987592,53.657929],[-1.987285,53.658184],[-1.987374,53.658428],[-1.98786,53.658659],[-1.988263,53.658991],[-1.988583,53.659425],[-1.988911,53.659676],[-1.989245,53.659743],[-1.989524,53.659712],[-1.989749,53.659581],[-1.990047,53.659501],[-1.990419,53.659472],[-1.990615,53.659514],[-1.990635,53.659629],[-1.990613,53.659782],[-1.99055,53.659975],[-1.990595,53.660087],[-1.990748,53.660118],[-1.991242,53.660127],[-1.992078,53.660114],[-1.992522,53.660095],[-1.992576,53.66007],[-1.992624,53.660058],[-1.992665,53.660057],[-1.992726,53.6602],[-1.992807,53.660486],[-1.993158,53.660621],[-1.993777,53.660604],[-1.994431,53.6606],[-1.99512,53.660607],[-1.995547,53.660696],[-1.995711,53.660868],[-1.995701,53.661035],[-1.995518,53.661196],[-1.995468,53.661378],[-1.995552,53.661581],[-1.995494,53.661737],[-1.995297,53.661847],[-1.995051,53.661924],[-1.994759,53.661968],[-1.994596,53.662045],[-1.994563,53.662153],[-1.994737,53.662226],[-1.995117,53.662264],[-1.995259,53.662382],[-1.995162,53.66258],[-1.994919,53.662687],[-1.994529,53.662703],[-1.994212,53.662749],[-1.993966,53.662826],[-1.993542,53.662921],[-1.992937,53.663034],[-1.99265,53.663119],[-1.992679,53.663176],[-1.992736,53.663287],[-1.992821,53.663452],[-1.993116,53.66357],[-1.99362,53.66364],[-1.994437,53.663627],[-1.995568,53.66353],[-1.996841,53.663441],[-1.998256,53.663361],[-1.999666,53.663349],[-2.00107,53.663406],[-2.002115,53.663344],[-2.002802,53.663163],[-2.003978,53.662824],[-2.005643,53.662327],[-2.006705,53.662016],[-2.007162,53.66189],[-2.007379,53.661866],[-2.007356,53.661945],[-2.007882,53.661994],[-2.008958,53.662012],[-2.010483,53.662006],[-2.012458,53.661976],[-2.01422,53.661967],[-2.015768,53.661979],[-2.016701,53.662079],[-2.017017,53.662265],[-2.017365,53.662376],[-2.017744,53.662411],[-2.018882,53.662309],[-2.020779,53.662068],[-2.021811,53.661903],[-2.021979,53.661814],[-2.02212,53.661723],[-2.022235,53.66163],[-2.022313,53.661594],[-2.022356,53.661615],[-2.023197,53.661423],[-2.024839,53.66102],[-2.027331,53.660493],[-2.030674,53.65984],[-2.032669,53.659462],[-2.033315,53.659358],[-2.033891,53.659252],[-2.0344,53.659146],[-2.034657,53.6591],[-2.034663,53.659116],[-2.034773,53.659143],[-2.034987,53.659181],[-2.035485,53.659182],[-2.036268,53.659144],[-2.036972,53.659094],[-2.037596,53.659032],[-2.038357,53.658946],[-2.039254,53.658837],[-2.039896,53.658748],[-2.040282,53.658682],[-2.040472,53.65866],[-2.040466,53.658683],[-2.040657,53.658738],[-2.041045,53.658824],[-2.04166,53.658837],[-2.042502,53.658777],[-2.043232,53.658692],[-2.043849,53.658584],[-2.044353,53.658452],[-2.044744,53.658295],[-2.044991,53.658172],[-2.045094,53.658083],[-2.045312,53.657957],[-2.045648,53.657795],[-2.045842,53.657511],[-2.045894,53.657106],[-2.045934,53.656772],[-2.04596,53.65651],[-2.046018,53.656244],[-2.04611,53.655975],[-2.046084,53.655768],[-2.045941,53.655622],[-2.04567,53.655414],[-2.045272,53.655144],[-2.04492,53.654925],[-2.044616,53.654759],[-2.044501,53.654632],[-2.044577,53.654545],[-2.044742,53.654417],[-2.044997,53.654247],[-2.045335,53.654043],[-2.045756,53.653805],[-2.046092,53.653592],[-2.046342,53.653403],[-2.046471,53.653299],[-2.046482,53.653281],[-2.046506,53.653269],[-2.046545,53.653264],[-2.046654,53.653132],[-2.046833,53.652874],[-2.04689,53.652629],[-2.046823,53.652396],[-2.046709,53.652207],[-2.04655,53.652063],[-2.046161,53.651972],[-2.045542,53.651934],[-2.044763,53.651926],[-2.043824,53.65195],[-2.043093,53.651963],[-2.04257,53.651965],[-2.042117,53.651975],[-2.041733,53.651993],[-2.041109,53.651965],[-2.040243,53.651892],[-2.039586,53.651867],[-2.039137,53.651892],[-2.038647,53.651891],[-2.038116,53.651863],[-2.037629,53.651902],[-2.037186,53.652006],[-2.036504,53.652104],[-2.035585,53.652195],[-2.034762,53.652272],[-2.034037,53.652334],[-2.033361,53.652392],[-2.032734,53.652444],[-2.032416,53.652472],[-2.032407,53.652474],[-2.032251,53.652427],[-2.031947,53.65233],[-2.03166,53.652274],[-2.031389,53.652259],[-2.03102,53.652149],[-2.030552,53.651943],[-2.030133,53.651785],[-2.029764,53.651674],[-2.029252,53.651562],[-2.028597,53.651448],[-2.028289,53.651242],[-2.028328,53.650944],[-2.028346,53.6506],[-2.028341,53.650211],[-2.028142,53.649889],[-2.027749,53.649634],[-2.027407,53.649558],[-2.027116,53.64966],[-2.026885,53.64972],[-2.026712,53.649737],[-2.026444,53.649701],[-2.02608,53.649611],[-2.025736,53.649587],[-2.02541,53.64963],[-2.025446,53.649132],[-2.025841,53.648093],[-2.026243,53.647417],[-2.026651,53.647103],[-2.026761,53.646745],[-2.026575,53.646343],[-2.026201,53.646091],[-2.025638,53.645989],[-2.025114,53.645959],[-2.024628,53.646],[-2.024347,53.64599],[-2.024273,53.645928],[-2.023967,53.645783],[-2.02343,53.645558],[-2.022874,53.645395],[-2.022298,53.645296],[-2.021733,53.645235],[-2.021179,53.645211],[-2.020423,53.645141],[-2.019464,53.645024],[-2.018829,53.644948],[-2.018516,53.644912],[-2.018129,53.644878],[-2.017667,53.644845],[-2.017223,53.644878],[-2.016798,53.644977],[-2.016479,53.645114],[-2.016266,53.645292],[-2.015955,53.645558],[-2.015546,53.645911],[-2.015337,53.646139],[-2.015329,53.64624],[-2.015305,53.646421],[-2.015266,53.646682],[-2.015169,53.646803],[-2.015013,53.646785],[-2.014808,53.646828],[-2.014554,53.646931],[-2.014485,53.647117],[-2.014599,53.647385],[-2.014784,53.647668],[-2.015039,53.647967],[-2.015347,53.648216],[-2.015706,53.648415],[-2.016081,53.648607],[-2.016474,53.648791],[-2.017055,53.649041],[-2.017825,53.649355],[-2.018493,53.649613],[-2.01906,53.649813],[-2.019519,53.65003],[-2.019869,53.650264],[-2.02032,53.650487],[-2.020872,53.650701],[-2.021333,53.650794],[-2.021703,53.650769],[-2.021947,53.650746],[-2.022065,53.650727],[-2.022304,53.650742],[-2.022664,53.650791],[-2.022997,53.650885],[-2.023303,53.651023],[-2.023554,53.651245],[-2.023748,53.651552],[-2.024,53.651874],[-2.02431,53.652211],[-2.024629,53.652516],[-2.024956,53.652789],[-2.025259,53.652979],[-2.025539,53.653088],[-2.026012,53.653125],[-2.026677,53.653091],[-2.027297,53.65305],[-2.02787,53.653004],[-2.028432,53.653011],[-2.028983,53.653072],[-2.029442,53.653143],[-2.029811,53.653223],[-2.029934,53.653356],[-2.029811,53.653542],[-2.029756,53.653925],[-2.02977,53.654503],[-2.029785,53.655137],[-2.029801,53.655828],[-2.029466,53.656191],[-2.02878,53.656227],[-2.028177,53.656166],[-2.027659,53.656007],[-2.027156,53.655698],[-2.026669,53.655236],[-2.026339,53.654849],[-2.026165,53.654537],[-2.025739,53.654199],[-2.025061,53.653837],[-2.024407,53.653442],[-2.023778,53.653015],[-2.023295,53.652743],[-2.022958,53.652627],[-2.022582,53.652639],[-2.022166,53.652781],[-2.021871,53.6529],[-2.021696,53.652997],[-2.021442,53.653202],[-2.02111,53.653515],[-2.021067,53.653719],[-2.021314,53.653815],[-2.021795,53.654022],[-2.022511,53.65434],[-2.022841,53.654607],[-2.022785,53.654823],[-2.02263,53.655048],[-2.022376,53.655283],[-2.022113,53.655574],[-2.021841,53.655921],[-2.021588,53.656186],[-2.021353,53.65637],[-2.02095,53.656674],[-2.02038,53.657101],[-2.019916,53.657502],[-2.019559,53.657876],[-2.019207,53.65816],[-2.018862,53.658352],[-2.018484,53.658406],[-2.018074,53.658323],[-2.017826,53.658254],[-2.01774,53.6582],[-2.017603,53.65812],[-2.017415,53.658014],[-2.017244,53.657938],[-2.01709,53.657891],[-2.017086,53.657813],[-2.01723,53.657705],[-2.017575,53.657531],[-2.01812,53.65729],[-2.018389,53.657123],[-2.01838,53.65703],[-2.018222,53.656817],[-2.017916,53.656484],[-2.01762,53.656187],[-2.017335,53.655924],[-2.017111,53.655749],[-2.016949,53.655662],[-2.016765,53.65539],[-2.016561,53.654932],[-2.016196,53.654614],[-2.015672,53.654438],[-2.015264,53.654333],[-2.014974,53.6543],[-2.01442,53.654173],[-2.013602,53.653953],[-2.012953,53.653706],[-2.012471,53.653432],[-2.012147,53.653344],[-2.011983,53.653444],[-2.011698,53.653462],[-2.011294,53.653398],[-2.011009,53.653385],[-2.010844,53.653422],[-2.010069,53.653504],[-2.008684,53.653631],[-2.00781,53.653796],[-2.007447,53.653998],[-2.007106,53.654157],[-2.006788,53.654271],[-2.006455,53.654429],[-2.006109,53.65463],[-2.005758,53.654784],[-2.005403,53.654892],[-2.004933,53.655027],[-2.004347,53.655189],[-2.00406,53.655321],[-2.004072,53.655424],[-2.004051,53.655504],[-2.003997,53.655561],[-2.003984,53.655594],[-2.004011,53.655604],[-2.003898,53.655613]],[[-1.998284,53.661392],[-1.997942,53.660831],[-1.997918,53.660804],[-1.998046,53.660675],[-1.998256,53.660605],[-1.998465,53.660584],[-1.998772,53.66068],[-1.999162,53.660661],[-1.999441,53.660829],[-1.999223,53.660987],[-1.999052,53.661082],[-1.999112,53.661349],[-1.99911,53.661573],[-1.998955,53.661608],[-1.998597,53.661624],[-1.998284,53.661392]],[[-1.997847,53.662401],[-1.997446,53.662441],[-1.997451,53.662284],[-1.997547,53.662216],[-1.998044,53.662167],[-1.99881,53.662023],[-1.999355,53.661968],[-1.999449,53.662125],[-1.999051,53.662233],[-1.997847,53.662401]]]}}