{"type":"Feature","properties":{"id":"298278","COMMUNE":"Inverness and Nairn","PROVINCE":"Inverness & Nairn and Moray, Badenoch & Strathspey","COUNTRY":"UK","FIREDATE":"2026-03-18 13:53:00","FINALDATE":"2026-03-18 13:53:00","CLASS":"FireSeason","areaHA_geo":80.17},"geometry":{"type":"Polygon","coordinates":[[[-4.024768,57.334174],[-4.025503,57.334211],[-4.026115,57.334222],[-4.026606,57.334207],[-4.02707,57.334167],[-4.027506,57.334101],[-4.027895,57.333983],[-4.028238,57.333812],[-4.02828,57.333621],[-4.028022,57.333409],[-4.027728,57.333221],[-4.027399,57.333056],[-4.027241,57.332829],[-4.027256,57.33254],[-4.027446,57.332204],[-4.027814,57.33182],[-4.028072,57.331544],[-4.02822,57.331375],[-4.028527,57.331179],[-4.028992,57.330957],[-4.029583,57.330764],[-4.030301,57.330601],[-4.030822,57.330502],[-4.031146,57.330467],[-4.031341,57.330561],[-4.031408,57.330783],[-4.031374,57.330973],[-4.03124,57.331131],[-4.031195,57.331222],[-4.031239,57.331246],[-4.031416,57.331174],[-4.031724,57.331007],[-4.032154,57.330693],[-4.032705,57.330232],[-4.033079,57.329934],[-4.033275,57.329798],[-4.033334,57.329605],[-4.033257,57.329355],[-4.033059,57.329233],[-4.032742,57.329238],[-4.032487,57.329151],[-4.032294,57.328971],[-4.032105,57.328613],[-4.031918,57.328079],[-4.031675,57.327698],[-4.031376,57.327472],[-4.031061,57.327344],[-4.03073,57.327312],[-4.030315,57.327247],[-4.029816,57.327148],[-4.029134,57.327125],[-4.028268,57.32718],[-4.027668,57.327211],[-4.027334,57.327219],[-4.026723,57.327265],[-4.025833,57.327351],[-4.025243,57.327477],[-4.024951,57.327642],[-4.024659,57.327899],[-4.024366,57.328246],[-4.024112,57.32844],[-4.023898,57.328483],[-4.023702,57.32848],[-4.023524,57.328432],[-4.023348,57.328274],[-4.023175,57.328006],[-4.022924,57.327836],[-4.022596,57.327766],[-4.022227,57.327868],[-4.021817,57.328142],[-4.021601,57.328366],[-4.021579,57.328541],[-4.021526,57.328819],[-4.021441,57.329201],[-4.021388,57.329503],[-4.021367,57.329726],[-4.02128,57.329964],[-4.02113,57.33022],[-4.020856,57.330617],[-4.020459,57.331157],[-4.020202,57.331505],[-4.020084,57.331662],[-4.019937,57.331625],[-4.01976,57.331395],[-4.019692,57.331168],[-4.01973,57.330944],[-4.019724,57.330696],[-4.019674,57.330424],[-4.019834,57.330263],[-4.020205,57.330214],[-4.020313,57.330078],[-4.020157,57.329856],[-4.01993,57.329679],[-4.019632,57.329549],[-4.019477,57.329398],[-4.019465,57.329227],[-4.019563,57.328949],[-4.01977,57.328563],[-4.019931,57.32824],[-4.020044,57.327979],[-4.02026,57.327755],[-4.020579,57.327567],[-4.020815,57.326978],[-4.020968,57.325986],[-4.020732,57.325389],[-4.020106,57.325189],[-4.01957,57.324993],[-4.019125,57.324802],[-4.018653,57.324728],[-4.018156,57.324772],[-4.01773,57.324818],[-4.017376,57.324866],[-4.016877,57.324929],[-4.016233,57.325008],[-4.015785,57.325132],[-4.01553,57.325303],[-4.015279,57.32555],[-4.01503,57.325873],[-4.014827,57.326177],[-4.014669,57.326462],[-4.014425,57.326704],[-4.014092,57.326902],[-4.013642,57.32707],[-4.013074,57.327207],[-4.012791,57.32751],[-4.012792,57.327979],[-4.01308,57.328268],[-4.013654,57.328379],[-4.013935,57.328511],[-4.013923,57.328666],[-4.013784,57.32879],[-4.013519,57.328886],[-4.013316,57.328912],[-4.013176,57.32887],[-4.012438,57.32905],[-4.011102,57.329452],[-4.010333,57.329807],[-4.010131,57.330115],[-4.010247,57.330557],[-4.010679,57.331133],[-4.011041,57.331548],[-4.011334,57.331804],[-4.011538,57.33192],[-4.011653,57.331898],[-4.011905,57.332139],[-4.012292,57.332643],[-4.012659,57.332885],[-4.013007,57.332867],[-4.013476,57.332864],[-4.014066,57.332878],[-4.014349,57.333015],[-4.014324,57.333275],[-4.01436,57.333602],[-4.014456,57.333993],[-4.014821,57.334298],[-4.015454,57.334517],[-4.016108,57.334628],[-4.016784,57.334632],[-4.017332,57.334559],[-4.017754,57.334408],[-4.018067,57.33426],[-4.018272,57.334114],[-4.018297,57.333925],[-4.018143,57.333692],[-4.017997,57.333397],[-4.017861,57.333039],[-4.018051,57.332794],[-4.018568,57.332661],[-4.019055,57.33259],[-4.019512,57.332579],[-4.020261,57.332475],[-4.021303,57.332277],[-4.021857,57.33215],[-4.021925,57.332095],[-4.02233,57.332204],[-4.023073,57.332478],[-4.02355,57.332566],[-4.02376,57.332467],[-4.023944,57.332437],[-4.024102,57.332478],[-4.02422,57.33258],[-4.024301,57.332743],[-4.024214,57.33291],[-4.02396,57.333081],[-4.023978,57.333247],[-4.02427,57.333407],[-4.024422,57.333572],[-4.024434,57.333743],[-4.02443,57.33391],[-4.024411,57.334074],[-4.024768,57.334174]]]}}