{"type":"Feature","properties":{"id":"298265","COMMUNE":"Caithness and Sutherland","PROVINCE":"Caithness & Sutherland and Ross & Cromarty","COUNTRY":"UK","FIREDATE":"2026-03-20 14:05:00","CLASS":"FireSeason","areaHA_geo":54.496},"geometry":{"type":"Polygon","coordinates":[[[-3.851343,58.09671],[-3.852805,58.097585],[-3.853977,58.098244],[-3.854861,58.098687],[-3.855598,58.098964],[-3.856189,58.099076],[-3.85689,58.099191],[-3.857702,58.099309],[-3.858436,58.099471],[-3.859091,58.099678],[-3.859607,58.099913],[-3.859983,58.100178],[-3.860544,58.100459],[-3.861289,58.100758],[-3.862346,58.100871],[-3.863715,58.100801],[-3.864648,58.100559],[-3.865145,58.100145],[-3.865475,58.099691],[-3.865639,58.099197],[-3.865538,58.098831],[-3.865172,58.098594],[-3.864762,58.098102],[-3.864308,58.097354],[-3.863812,58.096639],[-3.863273,58.095957],[-3.862522,58.095327],[-3.861559,58.094747],[-3.860847,58.094322],[-3.860386,58.094052],[-3.859773,58.093566],[-3.859009,58.092865],[-3.858262,58.092422],[-3.857534,58.092238],[-3.856633,58.092173],[-3.855559,58.092227],[-3.854388,58.092349],[-3.853121,58.092539],[-3.852103,58.092703],[-3.851336,58.092841],[-3.850811,58.093004],[-3.850528,58.093193],[-3.850206,58.093386],[-3.849844,58.093583],[-3.849696,58.093837],[-3.849762,58.094148],[-3.849938,58.09439],[-3.850224,58.094563],[-3.850428,58.095055],[-3.850551,58.095867],[-3.851343,58.09671]]]}}