{"type":"Feature","properties":{"id":"298295","COMMUNE":"Aberdeenshire","PROVINCE":"Aberdeen City and Aberdeenshire","COUNTRY":"UK","FIREDATE":"2026-03-20 10:56:00","CLASS":"FireSeason","areaHA_geo":23.547},"geometry":{"type":"Polygon","coordinates":[[[-3.180993,57.212747],[-3.181025,57.212615],[-3.180929,57.212472],[-3.180418,57.212411],[-3.179567,57.212481],[-3.178964,57.212582],[-3.178442,57.212659],[-3.178014,57.212582],[-3.177674,57.212464],[-3.177048,57.212455],[-3.176514,57.212332],[-3.176497,57.212285],[-3.176414,57.212053],[-3.176093,57.212069],[-3.175765,57.212271],[-3.175891,57.212459],[-3.176256,57.212607],[-3.176368,57.212757],[-3.176527,57.212909],[-3.176836,57.213027],[-3.176805,57.213151],[-3.176886,57.213237],[-3.177081,57.213264],[-3.177208,57.213342],[-3.177266,57.21347],[-3.177392,57.213581],[-3.177587,57.213676],[-3.177823,57.213746],[-3.178099,57.213791],[-3.178316,57.213773],[-3.178472,57.21369],[-3.178547,57.213568],[-3.178539,57.213408],[-3.178596,57.213288],[-3.178716,57.213209],[-3.178858,57.213208],[-3.179022,57.213285],[-3.17906,57.213409],[-3.178972,57.213579],[-3.178913,57.213709],[-3.178883,57.213799],[-3.178757,57.213933],[-3.178535,57.21411],[-3.178347,57.214313],[-3.178194,57.214543],[-3.178057,57.214819],[-3.177936,57.21514],[-3.177887,57.215369],[-3.177912,57.215508],[-3.178045,57.215585],[-3.178286,57.215601],[-3.17848,57.215625],[-3.178628,57.215657],[-3.178728,57.21571],[-3.178779,57.215786],[-3.178902,57.215817],[-3.179096,57.215804],[-3.179278,57.215759],[-3.179448,57.215681],[-3.179568,57.215669],[-3.179637,57.215722],[-3.179759,57.215753],[-3.179936,57.215762],[-3.18013,57.215837],[-3.180341,57.215976],[-3.18041,57.216154],[-3.180338,57.216369],[-3.180296,57.216565],[-3.180284,57.21674],[-3.180415,57.216898],[-3.180688,57.217038],[-3.180931,57.217128],[-3.181143,57.217167],[-3.18166,57.217158],[-3.182483,57.217101],[-3.183038,57.217059],[-3.183325,57.21703],[-3.183584,57.21701],[-3.183816,57.217],[-3.184049,57.216993],[-3.184284,57.21699],[-3.184443,57.217004],[-3.184529,57.217035],[-3.184601,57.217081],[-3.18466,57.217143],[-3.184626,57.21722],[-3.184498,57.217313],[-3.184447,57.217412],[-3.184472,57.217517],[-3.184486,57.217576],[-3.184491,57.217589],[-3.184297,57.217619],[-3.183905,57.217665],[-3.183383,57.217678],[-3.18273,57.217657],[-3.182249,57.217645],[-3.181939,57.217643],[-3.181716,57.217662],[-3.181582,57.217702],[-3.181463,57.217855],[-3.181359,57.218121],[-3.181521,57.218296],[-3.181947,57.21838],[-3.182258,57.218399],[-3.182452,57.218352],[-3.182652,57.218288],[-3.182859,57.218207],[-3.183071,57.218159],[-3.183288,57.218144],[-3.183593,57.218146],[-3.183985,57.218167],[-3.184272,57.218279],[-3.184456,57.218482],[-3.184675,57.218573],[-3.184928,57.218554],[-3.185122,57.218438],[-3.185256,57.218223],[-3.185299,57.21796],[-3.18525,57.21765],[-3.185182,57.217338],[-3.185095,57.217025],[-3.184964,57.216709],[-3.184789,57.216392],[-3.184671,57.216129],[-3.184609,57.21592],[-3.184722,57.215805],[-3.185012,57.215782],[-3.185251,57.215741],[-3.185441,57.215682],[-3.185594,57.215572],[-3.18571,57.215413],[-3.185831,57.215213],[-3.185956,57.214972],[-3.185981,57.214782],[-3.185906,57.214642],[-3.185729,57.214545],[-3.185451,57.214493],[-3.18525,57.214366],[-3.185129,57.214163],[-3.185236,57.213908],[-3.185572,57.213599],[-3.185731,57.213351],[-3.185714,57.213165],[-3.185765,57.212995],[-3.185884,57.212842],[-3.185935,57.212636],[-3.185916,57.212376],[-3.185973,57.212153],[-3.186104,57.211965],[-3.186239,57.21182],[-3.186376,57.211719],[-3.186541,57.211592],[-3.186734,57.211438],[-3.186764,57.211331],[-3.186631,57.211271],[-3.186434,57.211257],[-3.186174,57.21129],[-3.185851,57.21136],[-3.185468,57.211466],[-3.18515,57.211599],[-3.184897,57.211758],[-3.184735,57.211895],[-3.184664,57.21201],[-3.184668,57.21209],[-3.184746,57.212136],[-3.184753,57.212206],[-3.184687,57.212299],[-3.184614,57.212391],[-3.184534,57.212479],[-3.184483,57.212595],[-3.184459,57.212738],[-3.184364,57.212889],[-3.184197,57.213047],[-3.184082,57.213122],[-3.184017,57.213115],[-3.183966,57.21304],[-3.183927,57.212896],[-3.183896,57.212759],[-3.183874,57.212627],[-3.183771,57.212563],[-3.183587,57.212568],[-3.183465,57.212608],[-3.183404,57.212681],[-3.183385,57.2128],[-3.183406,57.212966],[-3.183394,57.213121],[-3.183347,57.213267],[-3.183172,57.213352],[-3.182871,57.213376],[-3.182678,57.213338],[-3.182593,57.213239],[-3.182543,57.213063],[-3.182527,57.21281],[-3.182449,57.21266],[-3.182308,57.212614],[-3.182086,57.212563],[-3.18178,57.212507],[-3.181597,57.212532],[-3.181536,57.212639],[-3.181401,57.212729],[-3.181193,57.212804],[-3.181059,57.212811],[-3.181,57.21275],[-3.180993,57.212747]]]}}