{"type":"Feature","properties":{"id":"298268","COMMUNE":"Inverness and Nairn","PROVINCE":"Inverness & Nairn and Moray, Badenoch & Strathspey","COUNTRY":"UK","FIREDATE":"2026-03-20 00:00:00","CLASS":"FireSeason","areaHA_geo":1.595},"geometry":{"type":"Polygon","coordinates":[[[-4.625032,57.149018],[-4.62506,57.149165],[-4.625151,57.149303],[-4.625304,57.149431],[-4.625512,57.149461],[-4.625773,57.149392],[-4.626127,57.149243],[-4.626572,57.149014],[-4.626941,57.148839],[-4.627233,57.148717],[-4.627422,57.148597],[-4.62751,57.148481],[-4.627529,57.14832],[-4.627478,57.148114],[-4.627227,57.147961],[-4.626775,57.147861],[-4.626445,57.147873],[-4.626236,57.147997],[-4.625988,57.148125],[-4.625701,57.148258],[-4.625422,57.14848],[-4.625153,57.148789],[-4.625032,57.149018]]]}}