{"type":"Feature","properties":{"id":"298271","COMMUNE":"Inverness and Nairn","PROVINCE":"Inverness & Nairn and Moray, Badenoch & Strathspey","COUNTRY":"UK","FIREDATE":"2026-04-08 13:10:00","CLASS":"FireSeason","areaHA_geo":240.161},"geometry":{"type":"Polygon","coordinates":[[[-4.040985,57.373223],[-4.041203,57.373124],[-4.041816,57.372802],[-4.042018,57.372686],[-4.042152,57.372503],[-4.042518,57.372139],[-4.043085,57.371792],[-4.043593,57.371776],[-4.04379,57.37166],[-4.044247,57.371417],[-4.044607,57.371259],[-4.045012,57.371219],[-4.045462,57.371297],[-4.045856,57.371421],[-4.046193,57.371591],[-4.046586,57.371615],[-4.047034,57.371494],[-4.047517,57.371369],[-4.048037,57.371239],[-4.048464,57.371097],[-4.0488,57.370941],[-4.04912,57.37055],[-4.049425,57.369924],[-4.049675,57.369624],[-4.04987,57.36965],[-4.050076,57.369767],[-4.050292,57.369977],[-4.050624,57.369972],[-4.051071,57.36975],[-4.051403,57.369521],[-4.051622,57.369285],[-4.051768,57.369069],[-4.051842,57.368875],[-4.05205,57.368642],[-4.052391,57.368372],[-4.052722,57.368107],[-4.053043,57.367846],[-4.053345,57.367763],[-4.053629,57.367859],[-4.053722,57.368069],[-4.053623,57.368393],[-4.053534,57.368646],[-4.053456,57.368827],[-4.053699,57.368931],[-4.054266,57.368957],[-4.05476,57.36894],[-4.055182,57.368881],[-4.055497,57.368654],[-4.055704,57.368259],[-4.055833,57.367902],[-4.055885,57.367583],[-4.055947,57.36736],[-4.056022,57.367232],[-4.055987,57.367076],[-4.055842,57.366892],[-4.055845,57.366801],[-4.055994,57.366805],[-4.056192,57.366901],[-4.056436,57.367087],[-4.056681,57.367178],[-4.056926,57.367171],[-4.057057,57.36703],[-4.057076,57.366755],[-4.057125,57.36653],[-4.057207,57.366355],[-4.057401,57.366234],[-4.05771,57.366167],[-4.057807,57.365987],[-4.057695,57.365693],[-4.057388,57.365439],[-4.056886,57.365227],[-4.056346,57.365109],[-4.055768,57.365084],[-4.055297,57.365093],[-4.054934,57.365136],[-4.05447,57.365009],[-4.053904,57.364711],[-4.053462,57.364491],[-4.053145,57.36435],[-4.05266,57.36421],[-4.052005,57.364071],[-4.051438,57.36393],[-4.050957,57.363786],[-4.050504,57.363632],[-4.050078,57.363469],[-4.049673,57.363344],[-4.049289,57.363257],[-4.048992,57.363205],[-4.048781,57.363189],[-4.048657,57.363131],[-4.04862,57.363031],[-4.048254,57.362912],[-4.04756,57.362773],[-4.047102,57.36273],[-4.046883,57.362783],[-4.046556,57.362774],[-4.046121,57.362701],[-4.045573,57.362596],[-4.044911,57.362458],[-4.044339,57.36234],[-4.043858,57.362243],[-4.043453,57.362077],[-4.043124,57.361844],[-4.042952,57.361638],[-4.04294,57.36146],[-4.043043,57.36132],[-4.043262,57.361217],[-4.043597,57.361151],[-4.044048,57.361122],[-4.044364,57.361198],[-4.044543,57.361377],[-4.044628,57.361528],[-4.044619,57.361648],[-4.04469,57.361785],[-4.044841,57.361938],[-4.045144,57.362079],[-4.045601,57.36221],[-4.046117,57.362303],[-4.046693,57.362361],[-4.047321,57.362408],[-4.048,57.362444],[-4.048358,57.362467],[-4.048396,57.362477],[-4.048601,57.362529],[-4.048973,57.362625],[-4.049339,57.362733],[-4.0497,57.362854],[-4.05007,57.362928],[-4.05045,57.362957],[-4.05094,57.363004],[-4.051537,57.363069],[-4.051915,57.363138],[-4.052072,57.36321],[-4.052266,57.363284],[-4.052498,57.363359],[-4.052735,57.363398],[-4.052977,57.363402],[-4.053405,57.36341],[-4.05402,57.363424],[-4.054402,57.363408],[-4.05455,57.363362],[-4.054663,57.363245],[-4.054739,57.363058],[-4.054816,57.36285],[-4.054895,57.362623],[-4.055081,57.362384],[-4.055373,57.362133],[-4.055421,57.361969],[-4.055225,57.36189],[-4.055037,57.361786],[-4.054858,57.361656],[-4.05476,57.361522],[-4.054745,57.361384],[-4.054687,57.361186],[-4.054588,57.360928],[-4.05456,57.360757],[-4.054601,57.360673],[-4.054708,57.360686],[-4.05488,57.360797],[-4.054971,57.360867],[-4.054982,57.360896],[-4.05513,57.36092],[-4.055415,57.360939],[-4.055594,57.360924],[-4.055668,57.360877],[-4.055699,57.360764],[-4.055686,57.360586],[-4.055627,57.360408],[-4.055522,57.36023],[-4.055394,57.360065],[-4.055243,57.359912],[-4.055005,57.359723],[-4.054679,57.359499],[-4.054276,57.359364],[-4.053795,57.359316],[-4.053106,57.359325],[-4.052208,57.359392],[-4.051123,57.359429],[-4.049851,57.359437],[-4.048928,57.359511],[-4.048354,57.359653],[-4.047895,57.359707],[-4.04755,57.359675],[-4.047373,57.35966],[-4.047365,57.359662],[-4.047358,57.359656],[-4.047353,57.359642],[-4.047154,57.359643],[-4.046763,57.359659],[-4.046182,57.359743],[-4.045413,57.359895],[-4.044695,57.360058],[-4.04403,57.360232],[-4.043042,57.360394],[-4.041731,57.360544],[-4.040973,57.360664],[-4.040769,57.360755],[-4.040501,57.361032],[-4.040169,57.361497],[-4.039725,57.361875],[-4.039168,57.362166],[-4.038756,57.362356],[-4.038487,57.362445],[-4.038501,57.362585],[-4.038797,57.362776],[-4.039055,57.362847],[-4.039275,57.362798],[-4.039727,57.362689],[-4.04041,57.362521],[-4.040934,57.362414],[-4.041298,57.362366],[-4.041485,57.362419],[-4.041496,57.362572],[-4.041352,57.362716],[-4.041054,57.362851],[-4.040857,57.362919],[-4.040762,57.362921],[-4.040573,57.362946],[-4.040288,57.362993],[-4.040053,57.363126],[-4.039865,57.363343],[-4.039774,57.36352],[-4.039779,57.363657],[-4.039803,57.363783],[-4.039847,57.363898],[-4.039914,57.36399],[-4.040003,57.364057],[-4.04025,57.364121],[-4.040655,57.36418],[-4.041053,57.364305],[-4.041444,57.364494],[-4.041616,57.364694],[-4.041569,57.364905],[-4.041553,57.365113],[-4.041567,57.365317],[-4.04173,57.365493],[-4.042041,57.365639],[-4.042383,57.365722],[-4.042757,57.365742],[-4.043029,57.365829],[-4.043199,57.365982],[-4.0433,57.3661],[-4.043331,57.366183],[-4.043315,57.366216],[-4.043252,57.3662],[-4.04321,57.366195],[-4.043191,57.366203],[-4.042881,57.366171],[-4.04228,57.366098],[-4.04153,57.365969],[-4.040631,57.365782],[-4.040117,57.365672],[-4.039986,57.365639],[-4.039741,57.365628],[-4.039382,57.365638],[-4.039163,57.365579],[-4.039085,57.365448],[-4.039059,57.36527],[-4.039084,57.365044],[-4.038976,57.364845],[-4.038735,57.364674],[-4.0386,57.364487],[-4.03857,57.364285],[-4.038556,57.364102],[-4.038557,57.363939],[-4.038376,57.363902],[-4.038013,57.363993],[-4.037722,57.364127],[-4.037504,57.364305],[-4.037382,57.364382],[-4.037358,57.364359],[-4.037304,57.364322],[-4.03722,57.364271],[-4.036818,57.364212],[-4.036095,57.364145],[-4.035648,57.364065],[-4.035475,57.363974],[-4.035284,57.363888],[-4.035072,57.363808],[-4.034804,57.363745],[-4.034478,57.3637],[-4.0343,57.363679],[-4.034269,57.363682],[-4.034041,57.363724],[-4.033614,57.363804],[-4.033125,57.363845],[-4.032573,57.363847],[-4.032247,57.363828],[-4.032146,57.363787],[-4.032139,57.363699],[-4.032225,57.363564],[-4.032533,57.363479],[-4.033062,57.363445],[-4.033478,57.363406],[-4.03378,57.363362],[-4.033927,57.363315],[-4.033918,57.363264],[-4.034065,57.363203],[-4.034367,57.36313],[-4.034784,57.36304],[-4.035316,57.362931],[-4.03558,57.362796],[-4.035576,57.362634],[-4.03575,57.362492],[-4.036103,57.362369],[-4.036376,57.362135],[-4.03657,57.361788],[-4.036846,57.361486],[-4.037204,57.361228],[-4.037423,57.361033],[-4.037503,57.360901],[-4.037474,57.360759],[-4.037334,57.360607],[-4.03728,57.360446],[-4.037313,57.360276],[-4.037346,57.360149],[-4.03738,57.360066],[-4.037277,57.360011],[-4.037038,57.359984],[-4.036813,57.360013],[-4.0366,57.360097],[-4.03629,57.36014],[-4.035883,57.360139],[-4.035562,57.360112],[-4.03533,57.360058],[-4.035422,57.359789],[-4.03584,57.359304],[-4.036209,57.358988],[-4.036527,57.358839],[-4.036738,57.358645],[-4.036842,57.358405],[-4.03692,57.358204],[-4.036972,57.35804],[-4.037152,57.357893],[-4.037461,57.357763],[-4.037527,57.357663],[-4.037349,57.357594],[-4.037216,57.357444],[-4.037128,57.357213],[-4.036932,57.356961],[-4.036627,57.356687],[-4.03635,57.356482],[-4.036099,57.356348],[-4.035781,57.35626],[-4.035394,57.356217],[-4.034991,57.356222],[-4.034569,57.356275],[-4.034194,57.356131],[-4.033865,57.355791],[-4.033695,57.35559],[-4.033687,57.35553],[-4.033559,57.355344],[-4.033312,57.355033],[-4.033009,57.35482],[-4.032652,57.354705],[-4.032183,57.354686],[-4.0316,57.354764],[-4.031162,57.354865],[-4.030868,57.354989],[-4.030189,57.355188],[-4.029127,57.355464],[-4.028486,57.355648],[-4.028265,57.355741],[-4.02799,57.355858],[-4.02766,57.356001],[-4.027338,57.355886],[-4.027025,57.355513],[-4.026695,57.35525],[-4.02635,57.355095],[-4.026164,57.354966],[-4.026137,57.354863],[-4.025894,57.354725],[-4.025434,57.354554],[-4.024838,57.354316],[-4.024106,57.354012],[-4.023739,57.35386],[-4.023734,57.353859],[-4.023704,57.353856],[-4.023647,57.353849],[-4.023188,57.353797],[-4.022325,57.353699],[-4.021421,57.353506],[-4.020474,57.353216],[-4.019894,57.352977],[-4.019679,57.352787],[-4.019574,57.352552],[-4.019577,57.352271],[-4.019556,57.35201],[-4.019511,57.351768],[-4.019066,57.351616],[-4.018222,57.351553],[-4.017656,57.351619],[-4.017366,57.351811],[-4.016806,57.352101],[-4.015976,57.352488],[-4.015075,57.352793],[-4.014104,57.353016],[-4.013067,57.353298],[-4.011966,57.353637],[-4.011243,57.353932],[-4.010896,57.354181],[-4.010624,57.354585],[-4.010427,57.355142],[-4.010296,57.355564],[-4.010232,57.355851],[-4.010646,57.356296],[-4.011539,57.356897],[-4.012063,57.357342],[-4.012221,57.357632],[-4.012131,57.358037],[-4.011794,57.358558],[-4.011598,57.358974],[-4.011543,57.359286],[-4.011591,57.359515],[-4.011741,57.35966],[-4.011946,57.359784],[-4.012205,57.359886],[-4.01228,57.359991],[-4.012171,57.360098],[-4.01216,57.360199],[-4.012248,57.360294],[-4.012425,57.360337],[-4.012693,57.360329],[-4.012939,57.360282],[-4.013163,57.360195],[-4.013323,57.360209],[-4.013418,57.360324],[-4.013402,57.360433],[-4.013274,57.360537],[-4.013204,57.360656],[-4.01319,57.360789],[-4.013232,57.361],[-4.013329,57.361288],[-4.013551,57.361431],[-4.013898,57.361428],[-4.014079,57.361277],[-4.014093,57.360977],[-4.014184,57.360776],[-4.014351,57.360675],[-4.014804,57.360613],[-4.015542,57.360589],[-4.016069,57.360619],[-4.016384,57.360703],[-4.016728,57.360694],[-4.017101,57.360591],[-4.01754,57.36044],[-4.018043,57.36024],[-4.018406,57.360045],[-4.01863,57.359854],[-4.018656,57.359671],[-4.018486,57.359495],[-4.018218,57.359434],[-4.017852,57.359487],[-4.017367,57.359601],[-4.016765,57.359777],[-4.016259,57.359887],[-4.015851,57.359931],[-4.01536,57.359977],[-4.014785,57.360024],[-4.014368,57.360062],[-4.014108,57.36009],[-4.013928,57.360065],[-4.013826,57.359986],[-4.013779,57.359947],[-4.013787,57.359946],[-4.014142,57.359874],[-4.014845,57.359731],[-4.015467,57.359604],[-4.016009,57.359495],[-4.016659,57.359255],[-4.017417,57.358885],[-4.018051,57.35854],[-4.01856,57.358222],[-4.019088,57.357974],[-4.019636,57.357796],[-4.020019,57.357704],[-4.020237,57.357697],[-4.020468,57.357702],[-4.020711,57.357719],[-4.021076,57.357705],[-4.021564,57.357661],[-4.02198,57.357531],[-4.022324,57.357316],[-4.022699,57.357101],[-4.023107,57.356887],[-4.023323,57.356774],[-4.023348,57.356761],[-4.023442,57.356863],[-4.023603,57.357079],[-4.023562,57.35729],[-4.023319,57.357497],[-4.023046,57.357759],[-4.022742,57.358076],[-4.022592,57.358308],[-4.022596,57.358453],[-4.02258,57.35858],[-4.022544,57.358688],[-4.022394,57.358884],[-4.022129,57.35917],[-4.022049,57.359414],[-4.022153,57.359618],[-4.022298,57.359745],[-4.022484,57.359794],[-4.022632,57.359896],[-4.022743,57.360051],[-4.022774,57.360218],[-4.022727,57.360397],[-4.022719,57.360495],[-4.022752,57.360512],[-4.022867,57.360545],[-4.023066,57.360593],[-4.023332,57.360599],[-4.023666,57.360563],[-4.023906,57.360364],[-4.024051,57.360001],[-4.02438,57.359532],[-4.024894,57.358956],[-4.025199,57.358524],[-4.025295,57.358236],[-4.025354,57.357969],[-4.025377,57.357724],[-4.025464,57.35743],[-4.025616,57.357087],[-4.025755,57.356851],[-4.025881,57.356721],[-4.026001,57.356597],[-4.026116,57.356479],[-4.026328,57.356372],[-4.026639,57.356276],[-4.02683,57.356252],[-4.0269,57.3563],[-4.026891,57.356495],[-4.026803,57.356838],[-4.026743,57.357037],[-4.026711,57.357093],[-4.026642,57.357215],[-4.026535,57.357403],[-4.026576,57.357577],[-4.026766,57.357737],[-4.026853,57.357929],[-4.026835,57.358153],[-4.026902,57.358344],[-4.027052,57.358502],[-4.027168,57.358704],[-4.02725,57.358952],[-4.027294,57.359111],[-4.027301,57.359179],[-4.027422,57.359335],[-4.027656,57.359577],[-4.02785,57.359738],[-4.028003,57.359819],[-4.028147,57.359908],[-4.02828,57.360004],[-4.0284,57.360082],[-4.028506,57.36014],[-4.028617,57.360187],[-4.028734,57.360223],[-4.02892,57.360235],[-4.029175,57.360224],[-4.029336,57.360274],[-4.0294,57.360386],[-4.029296,57.360575],[-4.029023,57.360842],[-4.028995,57.361003],[-4.029212,57.361059],[-4.029647,57.361065],[-4.030299,57.361021],[-4.030853,57.360935],[-4.03131,57.360807],[-4.031667,57.360804],[-4.031926,57.360925],[-4.032204,57.361014],[-4.032503,57.36107],[-4.032844,57.361086],[-4.033226,57.361063],[-4.033508,57.361054],[-4.03369,57.361061],[-4.033865,57.361112],[-4.034032,57.361209],[-4.034076,57.361323],[-4.033996,57.361454],[-4.033905,57.361622],[-4.033804,57.361827],[-4.033779,57.362038],[-4.03383,57.362256],[-4.033841,57.362367],[-4.033809,57.362369],[-4.033581,57.36237],[-4.033156,57.36237],[-4.032828,57.362388],[-4.032597,57.362424],[-4.032342,57.362423],[-4.032061,57.362384],[-4.031772,57.362378],[-4.031474,57.362404],[-4.031219,57.362446],[-4.031007,57.362503],[-4.030859,57.362577],[-4.030776,57.362666],[-4.030769,57.362758],[-4.030838,57.362854],[-4.031105,57.362914],[-4.031571,57.362938],[-4.031869,57.362952],[-4.031998,57.362955],[-4.032033,57.362992],[-4.031975,57.363061],[-4.031799,57.363103],[-4.031507,57.363117],[-4.031057,57.363151],[-4.030451,57.363205],[-4.030148,57.363275],[-4.030149,57.36336],[-4.03004,57.363478],[-4.029821,57.363628],[-4.029582,57.363782],[-4.029324,57.363942],[-4.029216,57.364062],[-4.029258,57.364144],[-4.029369,57.364226],[-4.02955,57.36431],[-4.029843,57.364396],[-4.030249,57.364484],[-4.030609,57.36462],[-4.030924,57.364804],[-4.031041,57.364986],[-4.030962,57.365167],[-4.030894,57.365351],[-4.030839,57.365541],[-4.030856,57.365682],[-4.030945,57.365776],[-4.031124,57.365814],[-4.031394,57.365796],[-4.031595,57.365726],[-4.031729,57.365603],[-4.031842,57.365453],[-4.031934,57.365277],[-4.032143,57.3651],[-4.032468,57.364921],[-4.032836,57.364856],[-4.033248,57.364904],[-4.033497,57.364986],[-4.033584,57.365102],[-4.033645,57.365262],[-4.03368,57.365464],[-4.033481,57.365583],[-4.033048,57.365618],[-4.032684,57.365709],[-4.032389,57.365855],[-4.032231,57.365941],[-4.032208,57.365966],[-4.032139,57.366063],[-4.032022,57.36623],[-4.03192,57.366407],[-4.031832,57.366594],[-4.031761,57.366702],[-4.031708,57.36673],[-4.031609,57.366804],[-4.031463,57.366923],[-4.031395,57.367008],[-4.031404,57.36706],[-4.031157,57.367145],[-4.030654,57.367264],[-4.030343,57.367317],[-4.030225,57.367304],[-4.030079,57.36732],[-4.029905,57.367365],[-4.029799,57.367462],[-4.029761,57.367612],[-4.0298,57.367704],[-4.029918,57.36774],[-4.029973,57.367769],[-4.029964,57.367794],[-4.03004,57.367855],[-4.030201,57.367954],[-4.030582,57.367987],[-4.031185,57.367955],[-4.031649,57.367963],[-4.031974,57.368011],[-4.032225,57.368005],[-4.032402,57.367945],[-4.032493,57.36786],[-4.032497,57.367752],[-4.032757,57.367608],[-4.033272,57.367429],[-4.033616,57.367284],[-4.03379,57.367175],[-4.034067,57.367037],[-4.03445,57.366872],[-4.034906,57.366761],[-4.035437,57.366703],[-4.035841,57.366594],[-4.036117,57.366432],[-4.036509,57.366452],[-4.037016,57.366654],[-4.037445,57.366872],[-4.037797,57.367108],[-4.038102,57.367245],[-4.038363,57.367283],[-4.038991,57.367298],[-4.039986,57.36729],[-4.040711,57.367357],[-4.041164,57.367499],[-4.041515,57.367631],[-4.041761,57.367753],[-4.04195,57.367823],[-4.04208,57.36784],[-4.042339,57.367875],[-4.042726,57.367926],[-4.043053,57.367978],[-4.04332,57.368032],[-4.043458,57.368113],[-4.043468,57.368219],[-4.043298,57.368296],[-4.042946,57.368342],[-4.042626,57.368327],[-4.042335,57.36825],[-4.04207,57.368185],[-4.04183,57.368132],[-4.041444,57.36819],[-4.040913,57.368357],[-4.040365,57.368444],[-4.039799,57.368452],[-4.039263,57.368506],[-4.03915,57.368529],[-4.038518,57.368297],[-4.038139,57.368],[-4.037244,57.367992],[-4.037013,57.368082],[-4.037178,57.368324],[-4.036878,57.368421],[-4.036007,57.368411],[-4.034727,57.368406],[-4.034552,57.368516],[-4.034607,57.368847],[-4.034939,57.369149],[-4.03502,57.369296],[-4.034109,57.369122],[-4.033218,57.368932],[-4.032991,57.368969],[-4.032798,57.369159],[-4.032969,57.369543],[-4.032394,57.369488],[-4.032372,57.369179],[-4.032727,57.368972],[-4.032724,57.368712],[-4.032285,57.368383],[-4.031871,57.368311],[-4.031516,57.368453],[-4.031097,57.368679],[-4.031331,57.368914],[-4.031711,57.369341],[-4.032149,57.369605],[-4.032429,57.369705],[-4.032996,57.369865],[-4.033494,57.370032],[-4.034302,57.370192],[-4.034622,57.370209],[-4.034697,57.369902],[-4.034746,57.369715],[-4.034955,57.369693],[-4.03576,57.370035],[-4.036016,57.370072],[-4.036111,57.36988],[-4.035757,57.369711],[-4.035861,57.369544],[-4.03646,57.369596],[-4.036702,57.369661],[-4.037085,57.36997],[-4.037268,57.36999],[-4.037212,57.370112],[-4.03694,57.370285],[-4.036767,57.370524],[-4.036251,57.370437],[-4.035942,57.370574],[-4.035782,57.370721],[-4.035445,57.370848],[-4.035475,57.371052],[-4.035785,57.371422],[-4.036016,57.371838],[-4.036233,57.372153],[-4.036741,57.372851],[-4.037648,57.373078],[-4.037816,57.373203],[-4.038444,57.37346],[-4.038676,57.373435],[-4.038581,57.373186],[-4.038454,57.373043],[-4.038602,57.372989],[-4.038846,57.373028],[-4.038832,57.373033],[-4.038847,57.373138],[-4.038858,57.3732],[-4.038866,57.373219],[-4.03907,57.373283],[-4.039072,57.373284],[-4.039079,57.373418],[-4.039441,57.373483],[-4.039609,57.373543],[-4.040086,57.37353],[-4.040355,57.37354],[-4.040836,57.373411],[-4.040985,57.373223]]]}}