{"type":"Feature","properties":{"id":"298251","COMMUNE":"New Forest","PROVINCE":"Central Hampshire","COUNTRY":"UK","FIREDATE":"2026-03-21 12:34:00","FINALDATE":"2026-03-21 13:46:00","CLASS":"FireSeason","areaHA_geo":4.313},"geometry":{"type":"Polygon","coordinates":[[[-1.701856,50.864477],[-1.702017,50.864916],[-1.702183,50.865225],[-1.702353,50.865404],[-1.702636,50.865465],[-1.703033,50.865409],[-1.703331,50.865304],[-1.703528,50.86515],[-1.703647,50.864981],[-1.703688,50.864796],[-1.703529,50.864538],[-1.70317,50.864205],[-1.70298,50.863922],[-1.702958,50.863689],[-1.7028,50.863485],[-1.702506,50.863311],[-1.70229,50.863144],[-1.70215,50.862986],[-1.702208,50.862823],[-1.702464,50.862655],[-1.702531,50.862452],[-1.702408,50.862213],[-1.702306,50.862031],[-1.702224,50.861906],[-1.702096,50.861648],[-1.701922,50.861257],[-1.701763,50.861022],[-1.701618,50.860943],[-1.701476,50.860973],[-1.701337,50.861113],[-1.70123,50.861426],[-1.701154,50.861913],[-1.701098,50.862355],[-1.701062,50.862751],[-1.701226,50.863276],[-1.701592,50.86393],[-1.701856,50.864477]]]}}