{"type":"Feature","properties":{"id":"298256","COMMUNE":"Scottish Borders","PROVINCE":"Scottish Borders","COUNTRY":"UK","FIREDATE":"2026-03-20 12:55:00","CLASS":"FireSeason","areaHA_geo":5.355},"geometry":{"type":"Polygon","coordinates":[[[-3.163204,55.613055],[-3.163524,55.61304],[-3.163835,55.612933],[-3.164137,55.612736],[-3.164546,55.612548],[-3.165064,55.612369],[-3.165574,55.612182],[-3.166075,55.611987],[-3.166478,55.611779],[-3.166782,55.611558],[-3.167141,55.611375],[-3.167555,55.611231],[-3.167968,55.611025],[-3.168382,55.610756],[-3.168495,55.610499],[-3.168307,55.610252],[-3.168063,55.610073],[-3.167763,55.609962],[-3.167548,55.609789],[-3.167416,55.609554],[-3.167347,55.609395],[-3.16734,55.609313],[-3.167439,55.609217],[-3.167644,55.609106],[-3.16783,55.609004],[-3.167998,55.608909],[-3.168135,55.608788],[-3.168243,55.608641],[-3.168434,55.608553],[-3.168708,55.608524],[-3.168931,55.608468],[-3.169103,55.608385],[-3.169083,55.608325],[-3.16887,55.608288],[-3.168617,55.608285],[-3.168323,55.608315],[-3.168111,55.608388],[-3.167981,55.608502],[-3.16784,55.608597],[-3.167687,55.608672],[-3.167433,55.608761],[-3.167079,55.608863],[-3.166795,55.608973],[-3.166582,55.60909],[-3.166338,55.609175],[-3.166061,55.609228],[-3.165874,55.60928],[-3.165776,55.609332],[-3.165797,55.60941],[-3.165937,55.609513],[-3.16605,55.609679],[-3.166137,55.609907],[-3.166075,55.610112],[-3.165863,55.610294],[-3.165761,55.610459],[-3.165769,55.610606],[-3.165808,55.610753],[-3.165878,55.6109],[-3.165731,55.610948],[-3.165367,55.610897],[-3.165118,55.610891],[-3.164984,55.610929],[-3.164883,55.611004],[-3.164817,55.611118],[-3.164839,55.611216],[-3.164951,55.611299],[-3.165138,55.611324],[-3.1654,55.611291],[-3.165576,55.611332],[-3.165668,55.611447],[-3.165722,55.611515],[-3.16574,55.611537],[-3.165307,55.611763],[-3.164422,55.612193],[-3.163863,55.612486],[-3.163632,55.61264],[-3.163413,55.612708],[-3.163206,55.612688],[-3.162932,55.612637],[-3.162589,55.612554],[-3.162371,55.612547],[-3.162279,55.612616],[-3.162226,55.612708],[-3.162211,55.612822],[-3.162222,55.612948],[-3.162258,55.613086],[-3.162468,55.613133],[-3.162852,55.613086],[-3.163204,55.613055]]]}}