{"type":"Feature","properties":{"id":"305139","COMMUNE":"Aberdeenshire","PROVINCE":"Aberdeen City and Aberdeenshire","COUNTRY":"UK","FIREDATE":"2026-04-10 00:00:00","FINALDATE":"2026-04-10 00:00:00","CLASS":"FireSeason","areaHA_geo":10.12},"geometry":{"type":"Polygon","coordinates":[[[-3.408613,57.051152],[-3.409576,57.051117],[-3.410447,57.05101],[-3.411227,57.050833],[-3.411939,57.050655],[-3.412584,57.050476],[-3.413401,57.050199],[-3.414389,57.049823],[-3.414799,57.049503],[-3.41463,57.049239],[-3.414321,57.048938],[-3.413873,57.048598],[-3.413142,57.048437],[-3.412128,57.048453],[-3.411099,57.048531],[-3.410055,57.048671],[-3.409011,57.048852],[-3.407966,57.049072],[-3.407198,57.04928],[-3.406707,57.049476],[-3.406287,57.049684],[-3.405937,57.049905],[-3.405725,57.050096],[-3.40565,57.050256],[-3.405643,57.050402],[-3.405705,57.050532],[-3.405851,57.050609],[-3.406082,57.050634],[-3.406468,57.050578],[-3.407011,57.050441],[-3.407585,57.050289],[-3.40819,57.050122],[-3.408622,57.05005],[-3.408881,57.050071],[-3.409036,57.050152],[-3.409086,57.050291],[-3.408961,57.050457],[-3.408661,57.050649],[-3.408415,57.050851],[-3.408226,57.051063],[-3.408613,57.051152]]]}}