{"type":"Feature","properties":{"id":"305142","COMMUNE":"Aberdeenshire","PROVINCE":"Aberdeen City and Aberdeenshire","COUNTRY":"UK","FIREDATE":"2026-03-16 10:32:00","FINALDATE":"2026-03-18 10:32:00","CLASS":"FireSeason","areaHA_geo":50.66},"geometry":{"type":"Polygon","coordinates":[[[-3.138761,57.211315],[-3.139952,57.211621],[-3.141015,57.21174],[-3.14195,57.211673],[-3.142705,57.211616],[-3.143279,57.211572],[-3.144273,57.211531],[-3.145687,57.211495],[-3.146702,57.211446],[-3.14732,57.211384],[-3.147443,57.211591],[-3.147071,57.212068],[-3.146416,57.21244],[-3.145479,57.212708],[-3.145285,57.213027],[-3.145834,57.213398],[-3.14644,57.21351],[-3.147101,57.213363],[-3.147817,57.213025],[-3.148588,57.212494],[-3.149386,57.212214],[-3.150211,57.212184],[-3.15095,57.212222],[-3.151603,57.212329],[-3.152096,57.212366],[-3.152428,57.212333],[-3.152627,57.212233],[-3.15269,57.212066],[-3.152228,57.211907],[-3.151239,57.211754],[-3.150511,57.211574],[-3.150044,57.211368],[-3.15056,57.211263],[-3.152059,57.211258],[-3.15336,57.21108],[-3.154465,57.210729],[-3.155201,57.210308],[-3.155568,57.209818],[-3.155775,57.209365],[-3.155823,57.208947],[-3.155595,57.208651],[-3.15509,57.208475],[-3.154725,57.208279],[-3.1545,57.208062],[-3.154387,57.207847],[-3.154385,57.207634],[-3.154065,57.207427],[-3.153428,57.207225],[-3.153183,57.20709],[-3.153331,57.207022],[-3.15344,57.206878],[-3.153509,57.206658],[-3.15328,57.206394],[-3.152753,57.206088],[-3.152389,57.206172],[-3.152189,57.206644],[-3.151921,57.206998],[-3.151586,57.207231],[-3.151274,57.207323],[-3.150985,57.207272],[-3.150475,57.207184],[-3.149741,57.207058],[-3.148924,57.207007],[-3.148023,57.207032],[-3.146692,57.207093],[-3.144932,57.207191],[-3.143637,57.207248],[-3.142807,57.207266],[-3.142019,57.207505],[-3.141273,57.207966],[-3.140432,57.208231],[-3.139497,57.208298],[-3.138799,57.208376],[-3.138338,57.208462],[-3.138059,57.20861],[-3.137961,57.20882],[-3.137976,57.209484],[-3.138102,57.210603],[-3.138761,57.211315]]]}}