{"type":"Feature","properties":{"id":"305136","COMMUNE":"Aberdeenshire","PROVINCE":"Aberdeen City and Aberdeenshire","COUNTRY":"UK","FIREDATE":"2026-04-10 10:26:00","FINALDATE":"2026-04-10 10:26:00","CLASS":"FireSeason","areaHA_geo":14.507},"geometry":{"type":"Polygon","coordinates":[[[-3.403611,57.041491],[-3.403638,57.041398],[-3.403721,57.041191],[-3.403859,57.040872],[-3.403836,57.040658],[-3.403652,57.040549],[-3.403567,57.040415],[-3.403582,57.040256],[-3.40385,57.039967],[-3.404369,57.039549],[-3.404463,57.039259],[-3.404133,57.039097],[-3.403672,57.038997],[-3.403079,57.038959],[-3.402754,57.038836],[-3.402696,57.038625],[-3.402673,57.038509],[-3.402683,57.038489],[-3.4026,57.038433],[-3.402423,57.038343],[-3.40228,57.03825],[-3.402173,57.038153],[-3.402275,57.037985],[-3.402587,57.037746],[-3.4028,57.037758],[-3.402913,57.038022],[-3.403055,57.038214],[-3.403225,57.038334],[-3.403521,57.038353],[-3.403944,57.03827],[-3.404126,57.038123],[-3.404068,57.037912],[-3.404045,57.037723],[-3.404057,57.037554],[-3.403903,57.037378],[-3.403583,57.037195],[-3.403267,57.037095],[-3.402953,57.037078],[-3.402483,57.037181],[-3.401858,57.037403],[-3.401358,57.037573],[-3.400984,57.03769],[-3.400722,57.037717],[-3.400573,57.037654],[-3.400319,57.037552],[-3.399961,57.037412],[-3.399684,57.037347],[-3.399489,57.037357],[-3.399371,57.037483],[-3.399331,57.037723],[-3.399337,57.037993],[-3.399391,57.038293],[-3.399422,57.038555],[-3.399431,57.03878],[-3.399485,57.039031],[-3.399584,57.039306],[-3.399522,57.039485],[-3.399298,57.039567],[-3.399116,57.039664],[-3.398976,57.039777],[-3.398945,57.039992],[-3.399022,57.040309],[-3.399109,57.0406],[-3.399205,57.040866],[-3.399397,57.041097],[-3.399685,57.041293],[-3.399959,57.041427],[-3.40022,57.041499],[-3.400391,57.041545],[-3.400471,57.041566],[-3.400563,57.041596],[-3.400668,57.041635],[-3.400774,57.041702],[-3.400881,57.041799],[-3.400971,57.041898],[-3.401043,57.041999],[-3.400931,57.042365],[-3.400633,57.042996],[-3.400667,57.043367],[-3.401033,57.043476],[-3.401277,57.043476],[-3.4014,57.043365],[-3.401547,57.043246],[-3.401719,57.04312],[-3.40199,57.043068],[-3.402359,57.043088],[-3.402613,57.042964],[-3.402751,57.042694],[-3.402857,57.042523],[-3.402933,57.04245],[-3.402906,57.042325],[-3.402776,57.042147],[-3.402813,57.041988],[-3.403017,57.041849],[-3.403238,57.041719],[-3.403478,57.041598],[-3.403611,57.041491]]]}}