{"type":"Feature","properties":{"id":"305129","COMMUNE":"West Moray","PROVINCE":"Inverness & Nairn and Moray, Badenoch & Strathspey","COUNTRY":"UK","FIREDATE":"2026-03-18 13:53:00","CLASS":"FireSeason","areaHA_geo":2.825},"geometry":{"type":"Polygon","coordinates":[[[-3.418172,57.220091],[-3.418659,57.220117],[-3.419133,57.220186],[-3.419593,57.220301],[-3.419901,57.220355],[-3.420059,57.22035],[-3.420351,57.220303],[-3.420777,57.220216],[-3.421152,57.220151],[-3.421474,57.220107],[-3.421663,57.220023],[-3.421717,57.219898],[-3.421889,57.219821],[-3.422177,57.219792],[-3.422491,57.219835],[-3.422832,57.219951],[-3.42306,57.219949],[-3.423176,57.219829],[-3.42316,57.219647],[-3.423012,57.219404],[-3.422661,57.219316],[-3.422108,57.219384],[-3.421663,57.219419],[-3.421325,57.219421],[-3.42097,57.219431],[-3.420598,57.219448],[-3.420258,57.219526],[-3.41995,57.219666],[-3.419663,57.219727],[-3.419399,57.219712],[-3.419378,57.219627],[-3.419602,57.219475],[-3.419931,57.219312],[-3.420365,57.219138],[-3.420622,57.218939],[-3.4207,57.218715],[-3.420712,57.218557],[-3.420659,57.218466],[-3.420525,57.218426],[-3.42031,57.218437],[-3.420112,57.218549],[-3.41993,57.218762],[-3.419622,57.218956],[-3.419187,57.21913],[-3.418803,57.219304],[-3.418468,57.219479],[-3.418194,57.219604],[-3.417983,57.21968],[-3.41789,57.219808],[-3.417916,57.219988],[-3.418172,57.220091]]]}}