{"type":"Feature","properties":{"id":"305133","COMMUNE":"West Moray","PROVINCE":"Inverness & Nairn and Moray, Badenoch & Strathspey","COUNTRY":"UK","FIREDATE":"2026-04-13 00:00:00","CLASS":"FireSeason","areaHA_geo":3.19},"geometry":{"type":"Polygon","coordinates":[[[-3.294576,57.208472],[-3.295248,57.208542],[-3.295741,57.208564],[-3.296055,57.20854],[-3.296361,57.20849],[-3.296658,57.208416],[-3.296961,57.20821],[-3.29727,57.207872],[-3.297497,57.207623],[-3.297642,57.207462],[-3.297685,57.207301],[-3.297626,57.207139],[-3.297562,57.207036],[-3.297493,57.206992],[-3.297476,57.20687],[-3.297511,57.20667],[-3.29749,57.206497],[-3.297411,57.206352],[-3.297095,57.206336],[-3.296544,57.206451],[-3.296047,57.206717],[-3.295604,57.207134],[-3.295158,57.207468],[-3.294709,57.207718],[-3.294363,57.207917],[-3.29412,57.208066],[-3.293958,57.208196],[-3.293876,57.208306],[-3.293937,57.20838],[-3.294139,57.208418],[-3.294576,57.208472]]]}}