{"type":"Feature","properties":{"id":"305128","COMMUNE":"West Moray","PROVINCE":"Inverness & Nairn and Moray, Badenoch & Strathspey","COUNTRY":"UK","FIREDATE":"2026-03-18 13:53:00","CLASS":"FireSeason","areaHA_geo":4.387},"geometry":{"type":"Polygon","coordinates":[[[-3.418228,57.221945],[-3.418804,57.221886],[-3.419232,57.221885],[-3.419512,57.221942],[-3.419914,57.221981],[-3.42044,57.222003],[-3.42102,57.221981],[-3.421653,57.221915],[-3.422149,57.22188],[-3.422506,57.221876],[-3.422805,57.221877],[-3.423047,57.221885],[-3.423283,57.221823],[-3.423514,57.221691],[-3.423617,57.221535],[-3.423591,57.221354],[-3.42336,57.221157],[-3.422924,57.220944],[-3.422679,57.220764],[-3.422626,57.220619],[-3.42231,57.220516],[-3.421731,57.220457],[-3.421067,57.220521],[-3.420317,57.220706],[-3.419806,57.220861],[-3.419533,57.220986],[-3.419276,57.221018],[-3.419034,57.220956],[-3.418674,57.220897],[-3.418194,57.220838],[-3.417916,57.220867],[-3.417839,57.220983],[-3.417835,57.221274],[-3.417905,57.221741],[-3.418228,57.221945]]]}}