{"type":"Feature","properties":{"id":"305138","COMMUNE":"Aberdeenshire","PROVINCE":"Aberdeen City and Aberdeenshire","COUNTRY":"UK","FIREDATE":"2026-04-10 10:26:00","FINALDATE":"2026-04-10 10:26:00","CLASS":"FireSeason","areaHA_geo":11.217},"geometry":{"type":"Polygon","coordinates":[[[-3.408686,57.043683],[-3.408369,57.043685],[-3.408149,57.043643],[-3.408027,57.043557],[-3.408046,57.043399],[-3.408205,57.043168],[-3.408335,57.043032],[-3.408436,57.04299],[-3.408505,57.04293],[-3.408542,57.04285],[-3.408709,57.042656],[-3.409005,57.042345],[-3.40904,57.042041],[-3.408811,57.041744],[-3.408518,57.04156],[-3.40816,57.041491],[-3.407846,57.041354],[-3.407576,57.041152],[-3.407559,57.040936],[-3.407794,57.040706],[-3.408193,57.040574],[-3.408756,57.04054],[-3.409159,57.0404],[-3.409403,57.040153],[-3.409439,57.039939],[-3.409268,57.039759],[-3.409051,57.039555],[-3.408787,57.039328],[-3.408498,57.039218],[-3.408183,57.039225],[-3.407919,57.03929],[-3.407705,57.039411],[-3.407496,57.039543],[-3.407291,57.039688],[-3.406995,57.039813],[-3.40661,57.039919],[-3.40622,57.040054],[-3.405825,57.040218],[-3.405481,57.040439],[-3.405187,57.040716],[-3.404974,57.040923],[-3.404842,57.04106],[-3.404601,57.041274],[-3.404252,57.041565],[-3.404094,57.041755],[-3.404125,57.041842],[-3.404309,57.041954],[-3.404647,57.042092],[-3.404813,57.042301],[-3.404808,57.042582],[-3.404919,57.042764],[-3.405146,57.042847],[-3.405516,57.042866],[-3.406029,57.042822],[-3.406422,57.042797],[-3.406693,57.042794],[-3.406895,57.042872],[-3.407028,57.043031],[-3.40709,57.043181],[-3.40708,57.043322],[-3.40703,57.043434],[-3.406939,57.043517],[-3.406787,57.043895],[-3.406575,57.044567],[-3.40649,57.044959],[-3.40653,57.04507],[-3.406666,57.045154],[-3.406899,57.045212],[-3.407065,57.045294],[-3.407163,57.045399],[-3.407263,57.045508],[-3.407364,57.045621],[-3.407555,57.045626],[-3.407836,57.045523],[-3.408253,57.045253],[-3.408807,57.044818],[-3.409143,57.044491],[-3.409262,57.044273],[-3.409219,57.044051],[-3.409017,57.043825],[-3.408898,57.043704],[-3.408862,57.043689],[-3.408686,57.043683]]]}}