{"type":"Feature","properties":{"id":"306319","COMMUNE":"East Lothian","PROVINCE":"East Lothian and Midlothian","COUNTRY":"UK","FIREDATE":"2026-04-01 12:29:00","FINALDATE":"2026-04-07 11:49:00","CLASS":"FireSeason","areaHA_geo":11.576},"geometry":{"type":"Polygon","coordinates":[[[-2.7055,55.852672],[-2.705783,55.852922],[-2.706104,55.853116],[-2.706461,55.853255],[-2.706735,55.853335],[-2.706926,55.853357],[-2.707132,55.853285],[-2.707353,55.853119],[-2.707395,55.852996],[-2.707259,55.852917],[-2.707099,55.852877],[-2.706915,55.852875],[-2.706713,55.852735],[-2.706495,55.852459],[-2.706695,55.852285],[-2.707313,55.852212],[-2.707852,55.852148],[-2.70831,55.852091],[-2.708822,55.851973],[-2.709387,55.851793],[-2.709999,55.851531],[-2.710657,55.851187],[-2.711179,55.850877],[-2.711566,55.850601],[-2.711918,55.850329],[-2.712234,55.850061],[-2.712411,55.849873],[-2.712449,55.849766],[-2.712417,55.849641],[-2.712315,55.849497],[-2.712064,55.849404],[-2.711665,55.849362],[-2.711289,55.849389],[-2.710936,55.849486],[-2.710533,55.849573],[-2.710081,55.84965],[-2.709852,55.849595],[-2.709847,55.849411],[-2.710067,55.849188],[-2.710514,55.848927],[-2.710946,55.84876],[-2.711362,55.848687],[-2.711465,55.848553],[-2.711255,55.848358],[-2.710838,55.848318],[-2.710215,55.848432],[-2.709665,55.848518],[-2.709188,55.848576],[-2.708714,55.84864],[-2.708241,55.848708],[-2.707889,55.84881],[-2.707658,55.848946],[-2.707514,55.849151],[-2.707457,55.849424],[-2.707352,55.849692],[-2.707199,55.849955],[-2.706989,55.850238],[-2.706721,55.850543],[-2.706409,55.850821],[-2.706051,55.851073],[-2.705744,55.851315],[-2.70549,55.851546],[-2.705363,55.851662],[-2.705363,55.851662],[-2.705361,55.851883],[-2.705359,55.852326],[-2.7055,55.852672]]]}}