{"type":"Feature","properties":{"id":"306320","COMMUNE":"East Lothian","PROVINCE":"East Lothian and Midlothian","COUNTRY":"UK","FIREDATE":"2026-04-07 00:00:00","FINALDATE":"2026-04-07 00:00:00","CLASS":"FireSeason","areaHA_geo":18.302},"geometry":{"type":"Polygon","coordinates":[[[-2.719957,55.856138],[-2.720355,55.85584],[-2.720698,55.855543],[-2.720986,55.855247],[-2.721262,55.855024],[-2.721525,55.854874],[-2.722193,55.854616],[-2.723266,55.854251],[-2.723975,55.854035],[-2.724321,55.85397],[-2.724933,55.853934],[-2.725812,55.853928],[-2.726338,55.853937],[-2.726511,55.85396],[-2.726631,55.854046],[-2.726697,55.854194],[-2.726749,55.854322],[-2.726785,55.854432],[-2.726952,55.854467],[-2.727251,55.854426],[-2.727554,55.854288],[-2.727862,55.854051],[-2.728264,55.853877],[-2.728759,55.853765],[-2.729078,55.853645],[-2.72922,55.853518],[-2.729213,55.853385],[-2.729057,55.853246],[-2.728865,55.853137],[-2.728637,55.853057],[-2.7284,55.853004],[-2.728152,55.852977],[-2.727822,55.852949],[-2.727408,55.852918],[-2.726969,55.852839],[-2.726505,55.852711],[-2.726154,55.852592],[-2.725917,55.852482],[-2.725945,55.852288],[-2.72624,55.852012],[-2.726533,55.851787],[-2.726825,55.851613],[-2.726966,55.851512],[-2.726956,55.851482],[-2.726816,55.851419],[-2.726546,55.851322],[-2.726199,55.851244],[-2.725776,55.851184],[-2.725262,55.851127],[-2.724658,55.851075],[-2.724212,55.851115],[-2.723925,55.851247],[-2.723564,55.851432],[-2.723128,55.851672],[-2.722502,55.851889],[-2.721685,55.852084],[-2.721236,55.852253],[-2.721154,55.852395],[-2.721171,55.852615],[-2.721286,55.852912],[-2.721245,55.853122],[-2.721046,55.853244],[-2.720848,55.853228],[-2.720651,55.853073],[-2.720393,55.852986],[-2.720075,55.852967],[-2.719677,55.852986],[-2.719201,55.853044],[-2.718794,55.85309],[-2.718456,55.853124],[-2.718086,55.853198],[-2.717682,55.85331],[-2.717309,55.853404],[-2.716967,55.85348],[-2.716767,55.853598],[-2.716709,55.853758],[-2.716674,55.853957],[-2.71666,55.854195],[-2.716664,55.854375],[-2.716685,55.854496],[-2.716805,55.854582],[-2.717023,55.854632],[-2.717276,55.854591],[-2.717563,55.854459],[-2.717916,55.854362],[-2.718336,55.854299],[-2.718818,55.854312],[-2.719361,55.854402],[-2.71969,55.854482],[-2.719805,55.854553],[-2.71968,55.854704],[-2.719316,55.854936],[-2.718945,55.855149],[-2.718567,55.855341],[-2.718287,55.855524],[-2.718105,55.855696],[-2.717985,55.855863],[-2.717928,55.856023],[-2.717931,55.856146],[-2.717996,55.856232],[-2.718189,55.856233],[-2.718511,55.856149],[-2.718728,55.85603],[-2.718843,55.855874],[-2.718947,55.855771],[-2.71904,55.855721],[-2.719255,55.855843],[-2.71959,55.856139],[-2.719957,55.856138]]]}}