{"type":"Feature","properties":{"id":"318744","COMMUNE":"Angus","PROVINCE":"Angus and Dundee City","COUNTRY":"UK","FIREDATE":"2026-03-19 11:55:00","FINALDATE":"2026-03-27 12:46:00","CLASS":"FireSeason","areaHA_geo":19.39},"geometry":{"type":"Polygon","coordinates":[[[-2.946257,56.916618],[-2.946445,56.916726],[-2.946669,56.916794],[-2.946928,56.916821],[-2.947222,56.916809],[-2.947471,56.916802],[-2.947673,56.916799],[-2.94783,56.916801],[-2.94794,56.916807],[-2.948033,56.916816],[-2.948111,56.916827],[-2.948171,56.916841],[-2.948215,56.916857],[-2.948281,56.916875],[-2.94837,56.916894],[-2.948482,56.916914],[-2.948617,56.916935],[-2.948741,56.916951],[-2.948856,56.916962],[-2.948962,56.916968],[-2.949057,56.916969],[-2.94916,56.916973],[-2.949271,56.916979],[-2.949388,56.916988],[-2.949513,56.917],[-2.949611,56.917018],[-2.949683,56.917042],[-2.949729,56.917072],[-2.949748,56.917108],[-2.949791,56.917137],[-2.949858,56.917158],[-2.94995,56.917171],[-2.950067,56.917177],[-2.950177,56.917179],[-2.950281,56.917177],[-2.95038,56.917171],[-2.950472,56.917162],[-2.950559,56.91716],[-2.95064,56.917166],[-2.950716,56.917179],[-2.950787,56.9172],[-2.950849,56.917234],[-2.950904,56.91728],[-2.95095,56.91734],[-2.950987,56.917412],[-2.951018,56.917478],[-2.951041,56.917536],[-2.951058,56.917587],[-2.951067,56.917632],[-2.951086,56.917678],[-2.951116,56.917727],[-2.951156,56.917779],[-2.951206,56.917833],[-2.951283,56.91788],[-2.951386,56.91792],[-2.951515,56.917953],[-2.95167,56.917979],[-2.951794,56.918002],[-2.951887,56.918022],[-2.951948,56.918039],[-2.951979,56.918054],[-2.952007,56.918076],[-2.952033,56.918106],[-2.952058,56.918144],[-2.95208,56.918191],[-2.952112,56.918236],[-2.952153,56.918281],[-2.952203,56.918324],[-2.952262,56.918367],[-2.952337,56.918399],[-2.952427,56.918421],[-2.952533,56.918433],[-2.952654,56.918435],[-2.952791,56.918429],[-2.952942,56.918416],[-2.953108,56.918395],[-2.953288,56.918366],[-2.953423,56.918359],[-2.95351,56.918373],[-2.953551,56.918408],[-2.953545,56.918464],[-2.95353,56.918509],[-2.953507,56.918542],[-2.953475,56.918565],[-2.953434,56.918576],[-2.953403,56.918598],[-2.953383,56.918631],[-2.953373,56.918675],[-2.953373,56.918731],[-2.953381,56.918791],[-2.953397,56.918855],[-2.953421,56.918924],[-2.953453,56.918997],[-2.953498,56.919076],[-2.953556,56.919162],[-2.953628,56.919255],[-2.953713,56.919354],[-2.95381,56.919437],[-2.953919,56.919504],[-2.95404,56.919555],[-2.954173,56.919591],[-2.954296,56.919623],[-2.954407,56.919651],[-2.954508,56.919677],[-2.954599,56.919699],[-2.954681,56.91973],[-2.954755,56.919769],[-2.954821,56.919817],[-2.954878,56.919874],[-2.954943,56.919922],[-2.955014,56.919962],[-2.955091,56.919993],[-2.955176,56.920016],[-2.955268,56.920032],[-2.95537,56.92004],[-2.95548,56.920042],[-2.955599,56.920037],[-2.955694,56.920023],[-2.955765,56.919998],[-2.955812,56.919964],[-2.955835,56.91992],[-2.955888,56.919879],[-2.955969,56.919839],[-2.95608,56.919802],[-2.956221,56.919767],[-2.956333,56.919719],[-2.956417,56.919659],[-2.956473,56.919586],[-2.9565,56.9195],[-2.956487,56.919434],[-2.956432,56.919387],[-2.956337,56.91936],[-2.956201,56.919353],[-2.956071,56.919349],[-2.955947,56.919347],[-2.955828,56.919349],[-2.955715,56.919353],[-2.955591,56.919347],[-2.955455,56.919331],[-2.955308,56.919305],[-2.955149,56.919269],[-2.954984,56.919225],[-2.954814,56.919173],[-2.954637,56.919112],[-2.954454,56.919044],[-2.954371,56.918988],[-2.954388,56.918945],[-2.954505,56.918914],[-2.954721,56.918896],[-2.954932,56.918869],[-2.955139,56.918832],[-2.955341,56.918787],[-2.955538,56.918733],[-2.955699,56.918683],[-2.955824,56.91864],[-2.955912,56.918601],[-2.955965,56.918568],[-2.956029,56.918559],[-2.956107,56.918572],[-2.956197,56.918608],[-2.9563,56.918667],[-2.956367,56.918722],[-2.956398,56.918775],[-2.956393,56.918824],[-2.956352,56.91887],[-2.956335,56.918916],[-2.956342,56.918964],[-2.956373,56.919013],[-2.956428,56.919063],[-2.956485,56.919104],[-2.956544,56.919136],[-2.956605,56.91916],[-2.956667,56.919174],[-2.956735,56.919191],[-2.956808,56.91921],[-2.956887,56.91923],[-2.956971,56.919253],[-2.95707,56.919278],[-2.957184,56.919305],[-2.957313,56.919333],[-2.957458,56.919364],[-2.957625,56.919397],[-2.957815,56.919432],[-2.958028,56.919468],[-2.958264,56.919507],[-2.958444,56.919514],[-2.958569,56.91949],[-2.958638,56.919433],[-2.958652,56.919345],[-2.958643,56.919264],[-2.958612,56.919191],[-2.958557,56.919126],[-2.95848,56.919068],[-2.958427,56.919015],[-2.958397,56.918967],[-2.958392,56.918925],[-2.958412,56.918889],[-2.958421,56.918838],[-2.958421,56.918774],[-2.958412,56.918696],[-2.958393,56.918605],[-2.958354,56.918538],[-2.958295,56.918497],[-2.958216,56.918482],[-2.958118,56.918492],[-2.958044,56.91848],[-2.957995,56.918447],[-2.957969,56.918392],[-2.957968,56.918316],[-2.957942,56.918227],[-2.957892,56.918127],[-2.957816,56.918014],[-2.957715,56.917889],[-2.957628,56.917815],[-2.957553,56.917793],[-2.957492,56.917822],[-2.957444,56.917904],[-2.957383,56.917949],[-2.95731,56.917958],[-2.957225,56.917931],[-2.957127,56.917868],[-2.957053,56.917802],[-2.957004,56.917734],[-2.95698,56.917664],[-2.95698,56.917591],[-2.957034,56.91751],[-2.957143,56.917421],[-2.957307,56.917324],[-2.957525,56.917219],[-2.957678,56.917121],[-2.957767,56.917028],[-2.957791,56.916943],[-2.957751,56.916864],[-2.957672,56.916806],[-2.957555,56.916771],[-2.9574,56.916758],[-2.957206,56.916767],[-2.957016,56.916761],[-2.956831,56.91674],[-2.95665,56.916703],[-2.956473,56.916652],[-2.956263,56.91659],[-2.956019,56.916519],[-2.955742,56.916439],[-2.955431,56.916348],[-2.955202,56.916299],[-2.955056,56.916289],[-2.954992,56.91632],[-2.95501,56.916391],[-2.955004,56.916455],[-2.954973,56.916514],[-2.954918,56.916566],[-2.954839,56.916612],[-2.954756,56.916608],[-2.954671,56.916555],[-2.954583,56.916451],[-2.954491,56.916297],[-2.954324,56.916154],[-2.954081,56.916022],[-2.953763,56.915902],[-2.953369,56.915792],[-2.953052,56.915703],[-2.952813,56.915635],[-2.95265,56.915588],[-2.952565,56.915562],[-2.952463,56.915524],[-2.952344,56.915476],[-2.952209,56.915415],[-2.952057,56.915344],[-2.951911,56.915266],[-2.95177,56.915181],[-2.951635,56.91509],[-2.951506,56.914992],[-2.95138,56.914917],[-2.951258,56.914867],[-2.951139,56.914841],[-2.951024,56.914839],[-2.950922,56.914841],[-2.950832,56.914848],[-2.950755,56.91486],[-2.950691,56.914877],[-2.950645,56.914904],[-2.950617,56.914942],[-2.950606,56.91499],[-2.950614,56.915048],[-2.950654,56.915101],[-2.950728,56.915149],[-2.950835,56.915192],[-2.950975,56.91523],[-2.951114,56.915264],[-2.951252,56.915294],[-2.951388,56.915319],[-2.951522,56.91534],[-2.951623,56.915369],[-2.951689,56.915406],[-2.951722,56.91545],[-2.951721,56.915502],[-2.951684,56.915538],[-2.951612,56.915558],[-2.951503,56.915561],[-2.951359,56.915547],[-2.951241,56.915547],[-2.95115,56.91556],[-2.951086,56.915585],[-2.951048,56.915624],[-2.951032,56.915663],[-2.951036,56.915704],[-2.951062,56.915747],[-2.951109,56.915791],[-2.951131,56.915839],[-2.951127,56.915891],[-2.951097,56.915948],[-2.951042,56.916009],[-2.950979,56.916053],[-2.950909,56.916079],[-2.950831,56.916088],[-2.950745,56.916079],[-2.950636,56.916057],[-2.950503,56.916021],[-2.950346,56.915973],[-2.950166,56.915911],[-2.950023,56.915851],[-2.949916,56.915792],[-2.949847,56.915735],[-2.949815,56.915679],[-2.949774,56.915614],[-2.949722,56.915539],[-2.949661,56.915455],[-2.949591,56.915362],[-2.94954,56.915283],[-2.949508,56.915218],[-2.949495,56.915169],[-2.949502,56.915133],[-2.9495,56.915089],[-2.949488,56.915037],[-2.949467,56.914975],[-2.949436,56.914906],[-2.949397,56.914849],[-2.94935,56.914805],[-2.949295,56.914774],[-2.949232,56.914756],[-2.94913,56.914725],[-2.948991,56.91468],[-2.948813,56.914621],[-2.948598,56.914549],[-2.948422,56.914504],[-2.948285,56.914487],[-2.948189,56.914496],[-2.948131,56.914533],[-2.948089,56.914581],[-2.948062,56.914639],[-2.948049,56.914708],[-2.948051,56.914788],[-2.94806,56.914859],[-2.948075,56.914921],[-2.948097,56.914975],[-2.948126,56.915021],[-2.948174,56.915061],[-2.948244,56.915096],[-2.948333,56.915125],[-2.948443,56.915149],[-2.948531,56.915182],[-2.948596,56.915224],[-2.948639,56.915275],[-2.94866,56.915335],[-2.948655,56.915403],[-2.948623,56.915477],[-2.948566,56.915558],[-2.948482,56.915646],[-2.948404,56.915721],[-2.948333,56.915782],[-2.948269,56.915829],[-2.94821,56.915862],[-2.948139,56.915895],[-2.948054,56.915926],[-2.947957,56.915955],[-2.947846,56.915984],[-2.947739,56.916002],[-2.947637,56.916011],[-2.94754,56.916009],[-2.947447,56.915998],[-2.947367,56.915978],[-2.9473,56.91595],[-2.947246,56.915914],[-2.947205,56.915869],[-2.947142,56.915801],[-2.947056,56.915709],[-2.946948,56.915593],[-2.946817,56.915454],[-2.946699,56.91533],[-2.946595,56.91522],[-2.946503,56.915126],[-2.946425,56.915047],[-2.946323,56.914973],[-2.946197,56.914902],[-2.946047,56.914836],[-2.945872,56.914773],[-2.945716,56.914717],[-2.945578,56.914667],[-2.945458,56.914622],[-2.945356,56.914584],[-2.945236,56.914555],[-2.945099,56.914536],[-2.944945,56.914526],[-2.944773,56.914526],[-2.944613,56.914521],[-2.944463,56.914512],[-2.944325,56.914498],[-2.944198,56.914479],[-2.944047,56.914462],[-2.943873,56.914444],[-2.943675,56.914428],[-2.943453,56.914412],[-2.943263,56.914408],[-2.943104,56.914417],[-2.942976,56.914439],[-2.94288,56.914473],[-2.942836,56.914517],[-2.942846,56.914571],[-2.942908,56.914636],[-2.943023,56.914711],[-2.943172,56.91477],[-2.943355,56.914813],[-2.943572,56.914839],[-2.943823,56.914848],[-2.944048,56.91485],[-2.944246,56.914844],[-2.944418,56.91483],[-2.944563,56.914809],[-2.944706,56.914795],[-2.944847,56.91479],[-2.944986,56.914793],[-2.945123,56.914803],[-2.945231,56.914822],[-2.945311,56.914848],[-2.945361,56.914883],[-2.945382,56.914926],[-2.945403,56.914972],[-2.945423,56.91502],[-2.945442,56.915071],[-2.94546,56.915125],[-2.945482,56.915183],[-2.945506,56.915244],[-2.945534,56.91531],[-2.945564,56.91538],[-2.945604,56.91548],[-2.945652,56.91561],[-2.945709,56.915771],[-2.945776,56.915962],[-2.945863,56.916142],[-2.945973,56.916312],[-2.946104,56.91647],[-2.946257,56.916618]]]}}