{"type":"Feature","properties":{"id":"318765","COMMUNE":"Dumfries and Galloway","PROVINCE":"Dumfries & Galloway","COUNTRY":"UK","FIREDATE":"2026-04-07 12:17:00","CLASS":"FireSeason","areaHA_geo":2.067},"geometry":{"type":"Polygon","coordinates":[[[-3.736883,55.32088],[-3.736855,55.320918],[-3.736888,55.32094],[-3.73698,55.320947],[-3.737131,55.320938],[-3.737295,55.320904],[-3.73747,55.320845],[-3.737658,55.320761],[-3.737859,55.320651],[-3.738152,55.32041],[-3.738538,55.320037],[-3.739016,55.319532],[-3.739588,55.318895],[-3.739953,55.318413],[-3.740112,55.318085],[-3.740066,55.31791],[-3.739813,55.31789],[-3.739631,55.317895],[-3.739518,55.317923],[-3.739475,55.317976],[-3.739501,55.318052],[-3.739521,55.31812],[-3.739535,55.318178],[-3.739541,55.318227],[-3.739541,55.318267],[-3.739496,55.318311],[-3.739408,55.318358],[-3.739275,55.31841],[-3.739098,55.318465],[-3.738959,55.31853],[-3.738859,55.318605],[-3.738797,55.318689],[-3.738774,55.318784],[-3.738747,55.318868],[-3.738717,55.318943],[-3.738684,55.319009],[-3.738647,55.319065],[-3.738572,55.319127],[-3.738459,55.319195],[-3.738308,55.319269],[-3.738118,55.31935],[-3.737982,55.319423],[-3.7379,55.319487],[-3.73787,55.319544],[-3.737894,55.319594],[-3.737854,55.319653],[-3.737748,55.319722],[-3.737577,55.319802],[-3.737342,55.319891],[-3.737173,55.319977],[-3.737072,55.320058],[-3.737037,55.320134],[-3.737069,55.320206],[-3.737066,55.320267],[-3.737027,55.320317],[-3.736953,55.320356],[-3.736844,55.320384],[-3.736758,55.320425],[-3.736695,55.320477],[-3.736656,55.320542],[-3.736641,55.32062],[-3.736644,55.320672],[-3.736664,55.3207],[-3.736702,55.320703],[-3.736757,55.320681],[-3.736815,55.32067],[-3.736875,55.320672],[-3.736938,55.320685],[-3.737002,55.32071],[-3.737029,55.320741],[-3.737018,55.32078],[-3.736969,55.320827],[-3.736883,55.32088]]]}}