{"type":"Feature","properties":{"id":"318757","COMMUNE":"Perth and Kinross","PROVINCE":"Perth & Kinross and Stirling","COUNTRY":"UK","FIREDATE":"2026-03-22 13:27:00","FINALDATE":"2026-03-22 13:57:00","CLASS":"FireSeason","areaHA_geo":49.564},"geometry":{"type":"Polygon","coordinates":[[[-4.318337,56.693128],[-4.317842,56.693257],[-4.317509,56.693347],[-4.317339,56.693397],[-4.317332,56.693408],[-4.317281,56.693435],[-4.317185,56.693478],[-4.317046,56.693538],[-4.316862,56.693614],[-4.316706,56.693674],[-4.316577,56.693718],[-4.316477,56.693746],[-4.316404,56.693758],[-4.316348,56.693769],[-4.316309,56.69378],[-4.316287,56.693789],[-4.316283,56.693797],[-4.31624,56.693817],[-4.316159,56.693851],[-4.316039,56.693897],[-4.31588,56.693955],[-4.315722,56.694003],[-4.315563,56.69404],[-4.315404,56.694067],[-4.315245,56.694083],[-4.315034,56.69413],[-4.314771,56.694208],[-4.314456,56.694316],[-4.314089,56.694454],[-4.313631,56.694581],[-4.313082,56.694697],[-4.312443,56.694802],[-4.311712,56.694895],[-4.311104,56.694968],[-4.310618,56.695021],[-4.310254,56.695053],[-4.310012,56.695066],[-4.309806,56.695083],[-4.309636,56.695105],[-4.309503,56.695132],[-4.309405,56.695163],[-4.309288,56.695207],[-4.309154,56.695264],[-4.309002,56.695334],[-4.308832,56.695417],[-4.308663,56.69548],[-4.308496,56.695523],[-4.30833,56.695546],[-4.308166,56.695548],[-4.307946,56.695588],[-4.30767,56.695666],[-4.307337,56.69578],[-4.306949,56.695933],[-4.306535,56.696104],[-4.306097,56.696295],[-4.305634,56.696505],[-4.305147,56.696734],[-4.304778,56.696943],[-4.304527,56.697131],[-4.304393,56.697299],[-4.304378,56.697447],[-4.304379,56.697579],[-4.304398,56.697697],[-4.304432,56.697799],[-4.304484,56.697887],[-4.30452,56.697965],[-4.304541,56.698035],[-4.304546,56.698096],[-4.304536,56.698148],[-4.304532,56.698188],[-4.304533,56.698217],[-4.304541,56.698234],[-4.304555,56.69824],[-4.304578,56.698251],[-4.304612,56.698265],[-4.304656,56.698284],[-4.30471,56.698307],[-4.304773,56.698315],[-4.304843,56.698307],[-4.304921,56.698284],[-4.305007,56.698245],[-4.305107,56.69821],[-4.30522,56.698179],[-4.305346,56.698151],[-4.305486,56.698127],[-4.305609,56.698105],[-4.305716,56.698086],[-4.305807,56.698069],[-4.305882,56.698055],[-4.305943,56.698044],[-4.305991,56.698037],[-4.306026,56.698034],[-4.306049,56.698034],[-4.306078,56.698034],[-4.306116,56.698034],[-4.306161,56.698035],[-4.306213,56.698035],[-4.30627,56.69804],[-4.306333,56.698051],[-4.3064,56.698067],[-4.306471,56.698088],[-4.306547,56.698121],[-4.306628,56.698165],[-4.306712,56.698221],[-4.3068,56.698288],[-4.306894,56.698349],[-4.306992,56.698405],[-4.307096,56.698456],[-4.307204,56.698501],[-4.30729,56.698536],[-4.307353,56.698562],[-4.307392,56.698577],[-4.307409,56.698583],[-4.307427,56.698595],[-4.307447,56.698613],[-4.307469,56.698637],[-4.307493,56.698668],[-4.307532,56.698703],[-4.307585,56.698743],[-4.307653,56.698788],[-4.307735,56.698837],[-4.307826,56.698887],[-4.307926,56.698939],[-4.308034,56.698992],[-4.30815,56.699046],[-4.308259,56.699092],[-4.308362,56.69913],[-4.308457,56.69916],[-4.308545,56.699183],[-4.30864,56.699209],[-4.308743,56.69924],[-4.308852,56.699275],[-4.308968,56.699315],[-4.309089,56.69936],[-4.309214,56.69941],[-4.309344,56.699465],[-4.309479,56.699526],[-4.309629,56.699572],[-4.309795,56.699603],[-4.309975,56.69962],[-4.310171,56.699621],[-4.310356,56.699636],[-4.310531,56.699663],[-4.310696,56.699703],[-4.310851,56.699755],[-4.311061,56.699762],[-4.311326,56.699722],[-4.311646,56.699636],[-4.312021,56.699504],[-4.312301,56.699401],[-4.312486,56.699326],[-4.312575,56.699281],[-4.312568,56.699264],[-4.312595,56.699234],[-4.312656,56.699191],[-4.31275,56.699134],[-4.312878,56.699064],[-4.313013,56.699022],[-4.313157,56.699008],[-4.313308,56.699021],[-4.313467,56.699062],[-4.313603,56.699062],[-4.313715,56.699022],[-4.313804,56.698941],[-4.31387,56.69882],[-4.314193,56.698591],[-4.314775,56.698253],[-4.315614,56.697808],[-4.316712,56.697254],[-4.31758,56.696835],[-4.31822,56.696553],[-4.318631,56.696406],[-4.318812,56.696394],[-4.318933,56.6964],[-4.318993,56.696424],[-4.318991,56.696466],[-4.318929,56.696525],[-4.318887,56.696579],[-4.318865,56.696627],[-4.318864,56.696668],[-4.318883,56.696704],[-4.318873,56.69675],[-4.318836,56.696805],[-4.31877,56.69687],[-4.318676,56.696944],[-4.318611,56.697028],[-4.318575,56.697121],[-4.318567,56.697223],[-4.318588,56.697335],[-4.318635,56.697429],[-4.318707,56.697507],[-4.318805,56.697569],[-4.318929,56.697613],[-4.319107,56.697625],[-4.319341,56.697603],[-4.31963,56.697548],[-4.319974,56.69746],[-4.320215,56.69736],[-4.320354,56.697249],[-4.320389,56.697125],[-4.320321,56.69699],[-4.320342,56.696872],[-4.32045,56.696773],[-4.320646,56.696691],[-4.32093,56.696627],[-4.321171,56.696558],[-4.321368,56.696482],[-4.321522,56.6964],[-4.321632,56.696312],[-4.321732,56.696222],[-4.321822,56.69613],[-4.321902,56.696037],[-4.321972,56.695941],[-4.322032,56.695851],[-4.322082,56.695765],[-4.322121,56.695684],[-4.322151,56.695608],[-4.322225,56.695548],[-4.322344,56.695504],[-4.322507,56.695476],[-4.322716,56.695465],[-4.322904,56.695429],[-4.323073,56.695369],[-4.323222,56.695286],[-4.323351,56.695178],[-4.323491,56.695099],[-4.323642,56.695049],[-4.323804,56.695027],[-4.323977,56.695034],[-4.324127,56.695029],[-4.324253,56.695012],[-4.324356,56.694983],[-4.324437,56.694942],[-4.324469,56.694902],[-4.324455,56.694865],[-4.324393,56.694829],[-4.324285,56.694794],[-4.324198,56.694758],[-4.324133,56.69472],[-4.32409,56.69468],[-4.324068,56.694639],[-4.324042,56.694591],[-4.324011,56.694536],[-4.323974,56.694474],[-4.323932,56.694406],[-4.323945,56.694357],[-4.324013,56.694326],[-4.324136,56.694313],[-4.324314,56.69432],[-4.324415,56.694277],[-4.324438,56.694186],[-4.324385,56.694045],[-4.324254,56.693856],[-4.324206,56.693713],[-4.324241,56.693617],[-4.32436,56.693568],[-4.324561,56.693566],[-4.324698,56.693549],[-4.32477,56.693516],[-4.324779,56.693467],[-4.324722,56.693404],[-4.324714,56.69334],[-4.324753,56.693276],[-4.324841,56.693211],[-4.324975,56.693147],[-4.325058,56.693074],[-4.325089,56.692993],[-4.325067,56.692905],[-4.324993,56.692808],[-4.324961,56.692728],[-4.324971,56.692664],[-4.325023,56.692616],[-4.325118,56.692585],[-4.325156,56.692549],[-4.325137,56.692507],[-4.325062,56.69246],[-4.32493,56.692408],[-4.324798,56.692364],[-4.324665,56.69233],[-4.324532,56.692304],[-4.324398,56.692287],[-4.324252,56.69229],[-4.324096,56.692313],[-4.32393,56.692356],[-4.323752,56.69242],[-4.323609,56.692449],[-4.3235,56.692444],[-4.323426,56.692404],[-4.323387,56.692329],[-4.323149,56.692304],[-4.322711,56.692328],[-4.322075,56.692401],[-4.321238,56.692524],[-4.320447,56.692658],[-4.319699,56.692803],[-4.318996,56.69296],[-4.318337,56.693128]]]}}