{"type":"Feature","properties":{"id":"318741","COMMUNE":"Angus","PROVINCE":"Angus and Dundee City","COUNTRY":"UK","FIREDATE":"2026-04-08 11:28:00","FINALDATE":"2026-04-08 13:59:00","CLASS":"FireSeason","areaHA_geo":14.235},"geometry":{"type":"Polygon","coordinates":[[[-2.992556,56.92204],[-2.992825,56.922047],[-2.992935,56.921946],[-2.992887,56.921737],[-2.99268,56.92142],[-2.99259,56.921175],[-2.992617,56.921003],[-2.992762,56.920904],[-2.993024,56.920878],[-2.993227,56.920876],[-2.99337,56.920898],[-2.993454,56.920945],[-2.993479,56.921017],[-2.993527,56.921028],[-2.993597,56.920979],[-2.993689,56.920869],[-2.993805,56.920699],[-2.993829,56.920517],[-2.993761,56.920323],[-2.993602,56.920117],[-2.993352,56.919899],[-2.993067,56.91965],[-2.992747,56.91937],[-2.992392,56.919059],[-2.992002,56.918718],[-2.991682,56.918451],[-2.991431,56.91826],[-2.99125,56.918143],[-2.991139,56.918102],[-2.991053,56.91805],[-2.990993,56.917987],[-2.990958,56.917914],[-2.990948,56.91783],[-2.990878,56.917782],[-2.990747,56.917768],[-2.990556,56.91779],[-2.990305,56.917847],[-2.990016,56.917881],[-2.989691,56.917893],[-2.989329,56.917882],[-2.98893,56.917848],[-2.988592,56.917839],[-2.988317,56.917856],[-2.988105,56.917899],[-2.987954,56.917967],[-2.987786,56.918],[-2.987601,56.917997],[-2.987399,56.917959],[-2.98718,56.917886],[-2.986917,56.91791],[-2.98661,56.91803],[-2.986259,56.918248],[-2.985865,56.918562],[-2.985525,56.91884],[-2.98524,56.91908],[-2.985011,56.919282],[-2.984836,56.919448],[-2.984785,56.919582],[-2.98486,56.919686],[-2.98506,56.919758],[-2.985384,56.9198],[-2.985667,56.919848],[-2.985909,56.919903],[-2.98611,56.919965],[-2.986269,56.920033],[-2.986461,56.920083],[-2.986684,56.920113],[-2.98694,56.920125],[-2.987228,56.920117],[-2.987499,56.920074],[-2.987753,56.919995],[-2.987989,56.919882],[-2.988209,56.919733],[-2.988443,56.919628],[-2.988693,56.919565],[-2.988958,56.919547],[-2.989238,56.919572],[-2.989409,56.919618],[-2.989471,56.919686],[-2.989425,56.919775],[-2.989269,56.919886],[-2.989171,56.91998],[-2.989131,56.920058],[-2.989147,56.92012],[-2.989221,56.920165],[-2.989229,56.920215],[-2.98917,56.920268],[-2.989044,56.920326],[-2.988853,56.920387],[-2.988699,56.920434],[-2.988585,56.920467],[-2.988509,56.920485],[-2.988471,56.920489],[-2.988404,56.920517],[-2.988305,56.920569],[-2.988177,56.920645],[-2.988018,56.920746],[-2.987884,56.920807],[-2.987776,56.920828],[-2.987692,56.92081],[-2.987633,56.920753],[-2.987561,56.920686],[-2.987477,56.92061],[-2.987379,56.920524],[-2.987269,56.92043],[-2.98719,56.920382],[-2.987141,56.920382],[-2.987123,56.920429],[-2.987137,56.920522],[-2.98714,56.920601],[-2.987133,56.920665],[-2.987116,56.920715],[-2.987089,56.920749],[-2.987049,56.920814],[-2.986995,56.920909],[-2.986927,56.921035],[-2.986846,56.921191],[-2.986829,56.921309],[-2.986876,56.921389],[-2.986987,56.921431],[-2.987163,56.921434],[-2.987379,56.921428],[-2.987635,56.921413],[-2.987932,56.921389],[-2.988269,56.921355],[-2.98857,56.921288],[-2.988835,56.921187],[-2.989065,56.921053],[-2.989258,56.920886],[-2.989457,56.920733],[-2.989662,56.920597],[-2.989871,56.920475],[-2.990086,56.920369],[-2.990229,56.920334],[-2.990299,56.920369],[-2.990297,56.920475],[-2.990223,56.920651],[-2.99019,56.920808],[-2.990199,56.920944],[-2.990249,56.921061],[-2.990341,56.921157],[-2.990447,56.921239],[-2.990567,56.921307],[-2.990702,56.921359],[-2.99085,56.921397],[-2.990988,56.921444],[-2.991114,56.9215],[-2.991229,56.921565],[-2.991332,56.921639],[-2.991516,56.921724],[-2.991782,56.921819],[-2.992128,56.921924],[-2.992556,56.92204]]]}}