{"type":"Feature","properties":{"id":"318747","COMMUNE":"Angus","PROVINCE":"Angus and Dundee City","COUNTRY":"UK","FIREDATE":"2026-04-08 12:00:00","CLASS":"FireSeason","areaHA_geo":26.225},"geometry":{"type":"Polygon","coordinates":[[[-3.008927,56.926439],[-3.009143,56.926365],[-3.009425,56.92634],[-3.009773,56.926364],[-3.010186,56.926438],[-3.010665,56.926562],[-3.011049,56.926603],[-3.011337,56.92656],[-3.01153,56.926435],[-3.011627,56.926227],[-3.011802,56.926051],[-3.012054,56.925907],[-3.012384,56.925794],[-3.012792,56.925714],[-3.013137,56.925606],[-3.013417,56.925473],[-3.013634,56.925312],[-3.013786,56.925125],[-3.013904,56.924905],[-3.013985,56.924652],[-3.014031,56.924367],[-3.014042,56.924049],[-3.014005,56.923768],[-3.01392,56.923526],[-3.013788,56.923321],[-3.013609,56.923154],[-3.01341,56.923019],[-3.013193,56.922915],[-3.012956,56.922843],[-3.012699,56.922803],[-3.012353,56.922729],[-3.011915,56.922621],[-3.011388,56.922479],[-3.010769,56.922303],[-3.010222,56.922157],[-3.009745,56.922039],[-3.009339,56.921951],[-3.009004,56.921893],[-3.008596,56.921818],[-3.008117,56.921727],[-3.007565,56.921621],[-3.006941,56.921499],[-3.006366,56.921395],[-3.00584,56.921309],[-3.005362,56.921241],[-3.004933,56.921192],[-3.00457,56.921122],[-3.004273,56.921033],[-3.004041,56.920925],[-3.003875,56.920796],[-3.003638,56.920671],[-3.003329,56.92055],[-3.00295,56.920433],[-3.002498,56.92032],[-3.002067,56.920244],[-3.001654,56.920206],[-3.00126,56.920206],[-3.000886,56.920244],[-3.000581,56.920308],[-3.000346,56.920397],[-3.00018,56.920513],[-3.000084,56.920655],[-3.000074,56.920781],[-3.000149,56.920893],[-3.000309,56.920989],[-3.000555,56.92107],[-3.000837,56.921147],[-3.001153,56.921221],[-3.001504,56.921292],[-3.001891,56.921359],[-3.002225,56.921467],[-3.002508,56.921617],[-3.002738,56.921809],[-3.002916,56.922042],[-3.003088,56.922259],[-3.003255,56.92246],[-3.003416,56.922646],[-3.003572,56.922815],[-3.003709,56.922983],[-3.003828,56.923149],[-3.003928,56.923314],[-3.004009,56.923478],[-3.00408,56.92363],[-3.00414,56.923769],[-3.00419,56.923896],[-3.00423,56.924011],[-3.004254,56.924131],[-3.004261,56.924255],[-3.004252,56.924385],[-3.004226,56.92452],[-3.004244,56.924607],[-3.004307,56.924647],[-3.004413,56.92464],[-3.004563,56.924585],[-3.004694,56.924509],[-3.004806,56.924412],[-3.004898,56.924294],[-3.004971,56.924154],[-3.005061,56.92403],[-3.005168,56.92392],[-3.005292,56.923825],[-3.005434,56.923745],[-3.005569,56.923714],[-3.005697,56.923735],[-3.005818,56.923805],[-3.005933,56.923926],[-3.006066,56.924031],[-3.006219,56.924122],[-3.00639,56.924197],[-3.006581,56.924257],[-3.006772,56.92432],[-3.006965,56.924387],[-3.007159,56.924456],[-3.007354,56.924529],[-3.007541,56.924597],[-3.00772,56.924658],[-3.00789,56.924713],[-3.008053,56.924763],[-3.008142,56.924847],[-3.008159,56.924964],[-3.008103,56.925115],[-3.007973,56.9253],[-3.007921,56.925447],[-3.007947,56.925557],[-3.008051,56.925629],[-3.008233,56.925663],[-3.008375,56.925742],[-3.008478,56.925863],[-3.008542,56.926029],[-3.008566,56.926238],[-3.008638,56.926376],[-3.008759,56.926443],[-3.008927,56.926439]]]}}