{"type":"Feature","properties":{"id":"318759","COMMUNE":"Inverness and Nairn","PROVINCE":"Inverness & Nairn and Moray, Badenoch & Strathspey","COUNTRY":"UK","FIREDATE":"2026-04-08 14:12:00","FINALDATE":"2026-04-10 14:12:00","CLASS":"FireSeason","areaHA_geo":47.0},"geometry":{"type":"Polygon","coordinates":[[[-4.054012,57.358968],[-4.054137,57.359061],[-4.054389,57.35913],[-4.054765,57.359177],[-4.055268,57.3592],[-4.055716,57.359209],[-4.056108,57.359203],[-4.056446,57.359182],[-4.056728,57.359147],[-4.057009,57.359119],[-4.057289,57.359099],[-4.057567,57.359086],[-4.057843,57.35908],[-4.058079,57.359059],[-4.058277,57.359024],[-4.058434,57.358973],[-4.058553,57.358907],[-4.058689,57.358869],[-4.058842,57.35886],[-4.059013,57.358879],[-4.059202,57.358926],[-4.05941,57.358918],[-4.059637,57.358855],[-4.059883,57.358737],[-4.060149,57.358563],[-4.060343,57.358466],[-4.060465,57.358445],[-4.060516,57.358502],[-4.060495,57.358635],[-4.06051,57.35875],[-4.060561,57.358849],[-4.060648,57.35893],[-4.060772,57.358994],[-4.06092,57.359018],[-4.061093,57.359002],[-4.061292,57.358945],[-4.061515,57.358849],[-4.061731,57.358758],[-4.061941,57.358672],[-4.062144,57.358592],[-4.06234,57.358518],[-4.062518,57.358452],[-4.06268,57.358393],[-4.062824,57.358342],[-4.062951,57.3583],[-4.063116,57.358242],[-4.063317,57.35817],[-4.063555,57.358082],[-4.06383,57.35798],[-4.064016,57.357926],[-4.064112,57.357921],[-4.06412,57.357963],[-4.064038,57.358054],[-4.063923,57.358142],[-4.063776,57.358225],[-4.063595,57.358305],[-4.063382,57.358381],[-4.063224,57.358449],[-4.063121,57.358509],[-4.063074,57.35856],[-4.063081,57.358603],[-4.063068,57.35864],[-4.063036,57.358673],[-4.062984,57.3587],[-4.062911,57.358722],[-4.062839,57.35875],[-4.062766,57.358782],[-4.062693,57.358819],[-4.062619,57.35886],[-4.062542,57.358905],[-4.062461,57.358952],[-4.062377,57.359002],[-4.06229,57.359055],[-4.062246,57.359105],[-4.062245,57.359151],[-4.062289,57.359193],[-4.062375,57.359232],[-4.062479,57.359251],[-4.0626,57.359251],[-4.062738,57.35923],[-4.062893,57.359189],[-4.063053,57.359139],[-4.063219,57.35908],[-4.06339,57.359012],[-4.063567,57.358935],[-4.06376,57.35887],[-4.063969,57.358819],[-4.064195,57.35878],[-4.064436,57.358754],[-4.064663,57.358715],[-4.064877,57.358663],[-4.065076,57.358598],[-4.065262,57.35852],[-4.065498,57.358422],[-4.065785,57.358304],[-4.066122,57.358166],[-4.066511,57.358008],[-4.066829,57.357908],[-4.067078,57.357867],[-4.067257,57.357884],[-4.067367,57.357959],[-4.067491,57.357996],[-4.06763,57.357996],[-4.067784,57.357958],[-4.067952,57.357881],[-4.068084,57.357787],[-4.068181,57.357675],[-4.068241,57.357546],[-4.068265,57.357398],[-4.0683,57.357268],[-4.068347,57.357157],[-4.068406,57.357063],[-4.068476,57.356988],[-4.068481,57.356937],[-4.068421,57.356909],[-4.068296,57.356906],[-4.068107,57.356926],[-4.067959,57.356929],[-4.067855,57.356914],[-4.067793,57.35688],[-4.067773,57.356829],[-4.067812,57.356773],[-4.06791,57.356712],[-4.068066,57.356645],[-4.068281,57.356574],[-4.06844,57.356485],[-4.068543,57.35638],[-4.068591,57.356257],[-4.068582,57.356118],[-4.068623,57.35599],[-4.068713,57.355874],[-4.068852,57.35577],[-4.069041,57.355677],[-4.069173,57.355589],[-4.069249,57.355505],[-4.069269,57.355427],[-4.069232,57.355354],[-4.069152,57.35531],[-4.06903,57.355297],[-4.068866,57.355313],[-4.068659,57.35536],[-4.068564,57.355346],[-4.068581,57.355272],[-4.068709,57.355137],[-4.068948,57.354942],[-4.069184,57.35476],[-4.069415,57.354593],[-4.069644,57.354439],[-4.069868,57.354298],[-4.070019,57.354171],[-4.070096,57.354056],[-4.0701,57.353954],[-4.070029,57.353865],[-4.069926,57.353759],[-4.069789,57.353636],[-4.069619,57.353496],[-4.069415,57.353339],[-4.069196,57.353212],[-4.068962,57.353117],[-4.068713,57.353052],[-4.068448,57.353017],[-4.068206,57.353018],[-4.067987,57.353054],[-4.067789,57.353124],[-4.067615,57.35323],[-4.067462,57.353283],[-4.067332,57.353283],[-4.067224,57.353229],[-4.067138,57.353122],[-4.066988,57.353043],[-4.066776,57.352991],[-4.066499,57.352966],[-4.066159,57.352969],[-4.065814,57.352981],[-4.065463,57.353002],[-4.065106,57.353032],[-4.064744,57.353071],[-4.064348,57.353095],[-4.063916,57.353106],[-4.06345,57.353101],[-4.06295,57.353083],[-4.062457,57.35308],[-4.061973,57.353094],[-4.061498,57.353123],[-4.061031,57.353169],[-4.060679,57.353233],[-4.060441,57.353317],[-4.060319,57.35342],[-4.060312,57.353541],[-4.060289,57.353639],[-4.06025,57.353714],[-4.060195,57.353764],[-4.060125,57.353791],[-4.060017,57.353819],[-4.05987,57.353846],[-4.059686,57.353875],[-4.059464,57.353904],[-4.059236,57.353955],[-4.059004,57.354028],[-4.058767,57.354124],[-4.058525,57.354242],[-4.058306,57.354355],[-4.05811,57.354463],[-4.057936,57.354566],[-4.057785,57.354665],[-4.057625,57.354744],[-4.057455,57.354803],[-4.057275,57.354843],[-4.057085,57.354864],[-4.056928,57.354893],[-4.056803,57.35493],[-4.056711,57.354977],[-4.056651,57.355031],[-4.056564,57.355072],[-4.056448,57.355099],[-4.056305,57.355112],[-4.056134,57.355111],[-4.055998,57.355119],[-4.055896,57.355134],[-4.055829,57.355159],[-4.055797,57.355191],[-4.055738,57.355231],[-4.055653,57.355279],[-4.055542,57.355335],[-4.055405,57.355398],[-4.055295,57.355475],[-4.055214,57.355566],[-4.05516,57.355671],[-4.055133,57.35579],[-4.055106,57.355911],[-4.055077,57.356035],[-4.055047,57.356162],[-4.055016,57.356291],[-4.055001,57.35651],[-4.055003,57.35682],[-4.055021,57.357219],[-4.055056,57.357709],[-4.055068,57.358085],[-4.055056,57.358347],[-4.055021,57.358496],[-4.054963,57.358532],[-4.054885,57.358534],[-4.054788,57.358503],[-4.054672,57.35844],[-4.054536,57.358343],[-4.054429,57.358299],[-4.054352,57.358307],[-4.054303,57.358368],[-4.054284,57.358481],[-4.054254,57.358568],[-4.054214,57.358628],[-4.054164,57.358661],[-4.054104,57.358668],[-4.054058,57.358702],[-4.054028,57.358763],[-4.054013,57.358852],[-4.054012,57.358968]]]}}