{"type":"Feature","properties":{"id":"318764","COMMUNE":"Dumfries and Galloway","PROVINCE":"Dumfries & Galloway","COUNTRY":"UK","FIREDATE":"2026-04-07 12:17:00","CLASS":"FireSeason","areaHA_geo":2.565},"geometry":{"type":"Polygon","coordinates":[[[-3.725108,55.318086],[-3.725215,55.318197],[-3.725366,55.318258],[-3.725561,55.31827],[-3.725801,55.318231],[-3.725987,55.318207],[-3.72612,55.318196],[-3.7262,55.318199],[-3.726227,55.318216],[-3.726265,55.318229],[-3.726313,55.318238],[-3.726373,55.318242],[-3.726443,55.318242],[-3.726543,55.318227],[-3.726673,55.318197],[-3.726832,55.318152],[-3.727022,55.318091],[-3.727151,55.31802],[-3.727221,55.317939],[-3.727231,55.317847],[-3.727182,55.317745],[-3.727127,55.317664],[-3.727068,55.317605],[-3.727004,55.317567],[-3.726936,55.317551],[-3.726871,55.317521],[-3.72681,55.317478],[-3.726754,55.317421],[-3.726701,55.317352],[-3.726684,55.317303],[-3.726703,55.317275],[-3.726757,55.317268],[-3.726846,55.317282],[-3.726938,55.317296],[-3.727034,55.317309],[-3.727133,55.317322],[-3.727236,55.317335],[-3.727312,55.317357],[-3.727362,55.317389],[-3.727385,55.317432],[-3.727382,55.317484],[-3.727404,55.317517],[-3.727452,55.317532],[-3.727524,55.317528],[-3.727621,55.317505],[-3.727721,55.31749],[-3.727824,55.317483],[-3.727929,55.317483],[-3.728037,55.317491],[-3.728157,55.317479],[-3.72829,55.317447],[-3.728435,55.317394],[-3.728592,55.317321],[-3.728723,55.317255],[-3.728829,55.317195],[-3.728909,55.317143],[-3.728963,55.317097],[-3.728907,55.317016],[-3.72874,55.316901],[-3.728464,55.316751],[-3.728077,55.316567],[-3.727753,55.31644],[-3.72749,55.316371],[-3.72729,55.316361],[-3.727152,55.316408],[-3.727025,55.316436],[-3.726909,55.316444],[-3.726803,55.316434],[-3.726709,55.316405],[-3.726625,55.316389],[-3.72655,55.316387],[-3.726486,55.316399],[-3.726432,55.316425],[-3.726409,55.31646],[-3.726418,55.316505],[-3.726458,55.31656],[-3.726529,55.316624],[-3.7266,55.316691],[-3.726671,55.316763],[-3.726741,55.316839],[-3.726811,55.316919],[-3.726852,55.316983],[-3.726866,55.317032],[-3.726851,55.317064],[-3.726807,55.317081],[-3.72675,55.317081],[-3.726677,55.317065],[-3.726591,55.317033],[-3.72649,55.316984],[-3.726397,55.31696],[-3.726313,55.316959],[-3.726236,55.316982],[-3.726169,55.31703],[-3.726131,55.317084],[-3.726124,55.317144],[-3.726148,55.317211],[-3.726201,55.317285],[-3.726229,55.31735],[-3.726231,55.317405],[-3.726207,55.317452],[-3.726157,55.317489],[-3.726081,55.317525],[-3.725981,55.31756],[-3.725856,55.317594],[-3.725706,55.317626],[-3.72558,55.317627],[-3.725478,55.317597],[-3.725401,55.317534],[-3.725347,55.317441],[-3.725293,55.317361],[-3.725239,55.317295],[-3.725184,55.317244],[-3.725129,55.317206],[-3.725081,55.317211],[-3.725042,55.317259],[-3.725011,55.31735],[-3.724987,55.317484],[-3.724985,55.317625],[-3.725005,55.317772],[-3.725046,55.317926],[-3.725108,55.318086]]]}}