{"type":"Feature","properties":{"id":"318767","COMMUNE":"Dumfries and Galloway","PROVINCE":"Dumfries & Galloway","COUNTRY":"UK","FIREDATE":"2026-04-07 12:17:00","FINALDATE":"2026-04-07 13:27:00","CLASS":"FireSeason","areaHA_geo":0.449},"geometry":{"type":"Polygon","coordinates":[[[-3.73012,55.315958],[-3.730194,55.316069],[-3.730279,55.316131],[-3.730375,55.316145],[-3.730482,55.316109],[-3.730558,55.316065],[-3.730602,55.316012],[-3.730616,55.315951],[-3.730599,55.315881],[-3.730626,55.315796],[-3.730696,55.315697],[-3.730811,55.315583],[-3.730969,55.315454],[-3.731069,55.315341],[-3.731109,55.315245],[-3.73109,55.315166],[-3.731012,55.315103],[-3.73092,55.31507],[-3.730814,55.315068],[-3.730694,55.315096],[-3.73056,55.315154],[-3.730456,55.315209],[-3.730383,55.315259],[-3.730339,55.315304],[-3.730325,55.315346],[-3.730294,55.315386],[-3.730244,55.315425],[-3.730177,55.315463],[-3.730091,55.315501],[-3.730043,55.315569],[-3.730032,55.315668],[-3.730058,55.315797],[-3.73012,55.315958]]]}}