{"type":"Feature","properties":{"id":"353313","COMMUNE":"Sheffield","PROVINCE":"Sheffield","COUNTRY":"UK","FIREDATE":"2026-04-23 01:07:00","CLASS":"FireSeason","areaHA_geo":20.036},"geometry":{"type":"Polygon","coordinates":[[[-1.750859,53.473264],[-1.750934,53.473719],[-1.751131,53.473962],[-1.751451,53.473992],[-1.751769,53.473863],[-1.752087,53.473576],[-1.752734,53.473168],[-1.753711,53.472641],[-1.754527,53.472094],[-1.755182,53.471527],[-1.75557,53.470811],[-1.755693,53.469946],[-1.755678,53.469115],[-1.755525,53.468318],[-1.755108,53.467937],[-1.754427,53.467973],[-1.753996,53.46801],[-1.753817,53.468048],[-1.753498,53.468177],[-1.753041,53.468396],[-1.752427,53.468394],[-1.751656,53.468171],[-1.751194,53.46797],[-1.75104,53.46779],[-1.750733,53.46765],[-1.750273,53.467551],[-1.749853,53.46753],[-1.749471,53.467588],[-1.749304,53.467733],[-1.749351,53.467964],[-1.749486,53.468357],[-1.749709,53.468911],[-1.749896,53.46955],[-1.750046,53.470276],[-1.750134,53.470997],[-1.75016,53.471713],[-1.750201,53.47211],[-1.750257,53.472187],[-1.750419,53.472428],[-1.750688,53.472833],[-1.750859,53.473264]]]}}