{"type":"Feature","properties":{"id":"353310","COMMUNE":"Purbeck","PROVINCE":"Dorset","COUNTRY":"UK","FIREDATE":"2026-03-25 12:29:00","FINALDATE":"2026-03-25 13:23:00","CLASS":"FireSeason","areaHA_geo":4.84},"geometry":{"type":"Polygon","coordinates":[[[-2.162607,50.649113],[-2.163724,50.649313],[-2.164529,50.649466],[-2.165022,50.649573],[-2.165433,50.649627],[-2.165762,50.649629],[-2.166035,50.649563],[-2.166252,50.64943],[-2.166499,50.649263],[-2.166775,50.649062],[-2.166988,50.64888],[-2.167139,50.648716],[-2.167124,50.648547],[-2.166942,50.64837],[-2.166443,50.648239],[-2.165627,50.648155],[-2.164724,50.64811],[-2.163736,50.648105],[-2.163116,50.648103],[-2.162865,50.648106],[-2.162589,50.64816],[-2.162287,50.648265],[-2.161969,50.648342],[-2.161633,50.64839],[-2.161423,50.648474],[-2.161338,50.648593],[-2.161484,50.648743],[-2.16186,50.648923],[-2.162607,50.649113]]]}}