{"type":"Feature","properties":{"id":"353314","COMMUNE":"Sheffield","PROVINCE":"Sheffield","COUNTRY":"UK","FIREDATE":"2026-04-22 12:06:00","CLASS":"FireSeason","areaHA_geo":27.949},"geometry":{"type":"Polygon","coordinates":[[[-1.730998,53.446057],[-1.731235,53.446483],[-1.731649,53.446831],[-1.73224,53.447104],[-1.732701,53.44723],[-1.733033,53.44721],[-1.733781,53.447225],[-1.734945,53.447277],[-1.735922,53.447294],[-1.73671,53.447276],[-1.737344,53.447167],[-1.737824,53.446967],[-1.738106,53.446662],[-1.738191,53.446253],[-1.738524,53.445808],[-1.739104,53.445327],[-1.739739,53.444829],[-1.740429,53.444313],[-1.740858,53.443894],[-1.741026,53.443571],[-1.74111,53.443232],[-1.741111,53.442878],[-1.741189,53.442623],[-1.741344,53.442466],[-1.741486,53.442299],[-1.741615,53.442122],[-1.742102,53.441661],[-1.742947,53.440918],[-1.743744,53.440292],[-1.744495,53.439782],[-1.74499,53.439422],[-1.745228,53.43921],[-1.745335,53.438952],[-1.74531,53.438647],[-1.745176,53.438377],[-1.744932,53.438142],[-1.744673,53.43796],[-1.7444,53.437834],[-1.744105,53.437768],[-1.743786,53.437764],[-1.743583,53.43789],[-1.743496,53.438146],[-1.743389,53.438475],[-1.743262,53.438877],[-1.742978,53.439282],[-1.742536,53.43969],[-1.741961,53.440047],[-1.741253,53.440352],[-1.740628,53.440637],[-1.740087,53.440902],[-1.739604,53.441197],[-1.739178,53.441522],[-1.738831,53.44188],[-1.738563,53.442271],[-1.7383,53.44261],[-1.738042,53.442894],[-1.737689,53.443159],[-1.737241,53.443403],[-1.736755,53.443686],[-1.73623,53.444009],[-1.735897,53.444383],[-1.735758,53.444809],[-1.735635,53.445081],[-1.735528,53.445197],[-1.735326,53.445217],[-1.735027,53.44514],[-1.734525,53.444941],[-1.733822,53.444621],[-1.733209,53.444486],[-1.732688,53.444536],[-1.732173,53.444646],[-1.731664,53.444813],[-1.731323,53.444941],[-1.731149,53.445028],[-1.731016,53.445265],[-1.730925,53.445652],[-1.730998,53.446057]]]}}