{"type":"Feature","properties":{"id":"353791","COMMUNE":"High Peak","PROVINCE":"South and West Derbyshire","COUNTRY":"UK","FIREDATE":"2026-04-23 02:30:00","FINALDATE":"2026-04-23 02:30:00","CLASS":"FireSeason","areaHA_geo":35.659},"geometry":{"type":"Polygon","coordinates":[[[-1.841461,53.493839],[-1.845502,53.493674],[-1.847795,53.493568],[-1.848205,53.493528],[-1.848607,53.493306],[-1.849002,53.492903],[-1.84941,53.492327],[-1.849831,53.491577],[-1.850227,53.490866],[-1.8506,53.490195],[-1.850803,53.489669],[-1.850837,53.489291],[-1.850769,53.488954],[-1.850598,53.488659],[-1.85044,53.488411],[-1.850295,53.488213],[-1.850228,53.488037],[-1.85024,53.487884],[-1.850103,53.487676],[-1.849819,53.487413],[-1.849475,53.487374],[-1.849072,53.487559],[-1.848858,53.487736],[-1.848836,53.487905],[-1.848754,53.48803],[-1.848614,53.488112],[-1.848503,53.488154],[-1.848421,53.488157],[-1.84831,53.488167],[-1.848168,53.488185],[-1.8481,53.488191],[-1.848105,53.488187],[-1.847714,53.488218],[-1.846927,53.488285],[-1.846244,53.488509],[-1.845667,53.488888],[-1.844475,53.48926],[-1.842667,53.489625],[-1.841492,53.489939],[-1.840952,53.4902],[-1.840588,53.490496],[-1.840401,53.490827],[-1.83999,53.491081],[-1.839356,53.491258],[-1.838881,53.49144],[-1.838565,53.491627],[-1.838304,53.491819],[-1.838096,53.492016],[-1.838304,53.492569],[-1.838926,53.493476],[-1.839155,53.493511],[-1.839158,53.493849],[-1.840348,53.49402],[-1.841048,53.493969],[-1.841461,53.493839]],[[-1.846482,53.489922],[-1.846584,53.489165],[-1.846617,53.489077],[-1.847247,53.488778],[-1.847617,53.488572],[-1.848465,53.488539],[-1.848521,53.488839],[-1.848613,53.48917],[-1.848104,53.489491],[-1.847701,53.489785],[-1.847163,53.490008],[-1.846482,53.489922]],[[-1.847113,53.490946],[-1.84708,53.490627],[-1.847539,53.490531],[-1.847692,53.490567],[-1.84847,53.490592],[-1.848516,53.490757],[-1.848229,53.490955],[-1.847553,53.49109],[-1.847113,53.490946]]]}}