{"type":"Feature","properties":{"id":"356420","COMMUNE":"Lancaster","PROVINCE":"Lancaster and Wyre","COUNTRY":"UK","FIREDATE":"2026-03-05 11:17:00","CLASS":"FireSeason","areaHA_geo":5.368},"geometry":{"type":"Polygon","coordinates":[[[-2.668934,54.016118],[-2.669343,54.016239],[-2.669675,54.01621],[-2.66993,54.016032],[-2.670092,54.015852],[-2.67016,54.015669],[-2.670214,54.015506],[-2.670252,54.015363],[-2.670259,54.015265],[-2.670232,54.015213],[-2.670145,54.015129],[-2.669995,54.015011],[-2.669693,54.015003],[-2.669239,54.015105],[-2.668976,54.015156],[-2.668904,54.015158],[-2.6688,54.01512],[-2.668663,54.015044],[-2.668494,54.014982],[-2.668294,54.014937],[-2.668103,54.014917],[-2.667919,54.014924],[-2.667719,54.014945],[-2.667502,54.01498],[-2.667238,54.014959],[-2.666925,54.014882],[-2.666412,54.014824],[-2.665697,54.014783],[-2.665201,54.014732],[-2.664924,54.01467],[-2.664608,54.014684],[-2.664254,54.014776],[-2.66402,54.01487],[-2.663905,54.014967],[-2.663813,54.015121],[-2.663744,54.015335],[-2.663745,54.015559],[-2.663817,54.015793],[-2.663922,54.015985],[-2.664061,54.016134],[-2.664368,54.016245],[-2.664844,54.016316],[-2.66521,54.01633],[-2.665464,54.016285],[-2.665801,54.016186],[-2.666219,54.016034],[-2.666519,54.015951],[-2.666701,54.015938],[-2.666919,54.015925],[-2.667172,54.01591],[-2.667346,54.015853],[-2.667439,54.015752],[-2.66758,54.015638],[-2.667767,54.015509],[-2.667874,54.015504],[-2.6679,54.015623],[-2.667917,54.015694],[-2.667924,54.015717],[-2.668128,54.015811],[-2.668529,54.015975],[-2.668934,54.016118]]]}}