{"type":"Feature","properties":{"id":"356462","COMMUNE":"Aberdeenshire","PROVINCE":"Aberdeen City and Aberdeenshire","COUNTRY":"UK","FIREDATE":"2026-03-30 00:00:00","CLASS":"FireSeason","areaHA_geo":3.977},"geometry":{"type":"Polygon","coordinates":[[[-3.216208,57.209116],[-3.216305,57.209303],[-3.216432,57.209496],[-3.216591,57.209692],[-3.216692,57.209959],[-3.216733,57.210296],[-3.216769,57.210617],[-3.2168,57.210923],[-3.216906,57.211261],[-3.217088,57.211631],[-3.217315,57.211856],[-3.21759,57.211934],[-3.217815,57.212015],[-3.217993,57.212099],[-3.218105,57.212234],[-3.218152,57.212421],[-3.218393,57.212532],[-3.218829,57.212568],[-3.219176,57.212684],[-3.219433,57.212882],[-3.219596,57.213006],[-3.219664,57.213058],[-3.219824,57.213052],[-3.220077,57.212989],[-3.220143,57.212831],[-3.220023,57.212577],[-3.219849,57.21227],[-3.219622,57.211909],[-3.219375,57.211591],[-3.219109,57.211314],[-3.218876,57.21117],[-3.218675,57.211159],[-3.218415,57.211134],[-3.218097,57.211097],[-3.217912,57.211007],[-3.217861,57.210863],[-3.217942,57.210706],[-3.218157,57.210535],[-3.218225,57.210397],[-3.218149,57.210293],[-3.217986,57.210099],[-3.217737,57.209816],[-3.217582,57.209602],[-3.217521,57.20946],[-3.217415,57.209287],[-3.217264,57.209084],[-3.217086,57.208944],[-3.216883,57.208869],[-3.21665,57.208824],[-3.216388,57.208808],[-3.216233,57.208855],[-3.216185,57.208967],[-3.216208,57.209116]]]}}