{"type":"Feature","properties":{"id":"356463","COMMUNE":"Aberdeenshire","PROVINCE":"Aberdeen City and Aberdeenshire","COUNTRY":"UK","FIREDATE":"2026-03-30 00:00:00","FINALDATE":"2026-03-30 00:00:00","CLASS":"FireSeason","areaHA_geo":19.971},"geometry":{"type":"Polygon","coordinates":[[[-3.225545,57.220905],[-3.225807,57.221297],[-3.226076,57.221651],[-3.226353,57.221968],[-3.226611,57.222198],[-3.226853,57.222343],[-3.22709,57.222399],[-3.227323,57.222368],[-3.227566,57.222366],[-3.227819,57.222391],[-3.228066,57.222436],[-3.228306,57.2225],[-3.22861,57.222498],[-3.22898,57.222431],[-3.229193,57.222233],[-3.229252,57.221904],[-3.229256,57.221669],[-3.229205,57.221528],[-3.2292,57.221304],[-3.22924,57.220999],[-3.229427,57.220841],[-3.229762,57.220829],[-3.230022,57.220703],[-3.230208,57.220464],[-3.23028,57.220288],[-3.23024,57.220175],[-3.230244,57.220035],[-3.230293,57.219869],[-3.230559,57.219816],[-3.231042,57.219877],[-3.231373,57.219854],[-3.231551,57.219748],[-3.231552,57.219598],[-3.231374,57.219403],[-3.231068,57.219306],[-3.230634,57.219306],[-3.230239,57.219415],[-3.229884,57.219635],[-3.22954,57.219773],[-3.229207,57.219828],[-3.229079,57.219717],[-3.229156,57.219437],[-3.22951,57.219141],[-3.230144,57.218827],[-3.230494,57.218575],[-3.230562,57.218385],[-3.230637,57.218234],[-3.230719,57.218123],[-3.230908,57.217913],[-3.231204,57.217604],[-3.231434,57.217412],[-3.231597,57.217336],[-3.231686,57.217188],[-3.231701,57.216966],[-3.231576,57.216806],[-3.231311,57.216709],[-3.23087,57.216555],[-3.230253,57.216346],[-3.229551,57.216242],[-3.228764,57.216241],[-3.228272,57.216305],[-3.228075,57.216435],[-3.227819,57.216498],[-3.227505,57.216493],[-3.227023,57.216605],[-3.226373,57.216832],[-3.225823,57.217171],[-3.225373,57.21762],[-3.224952,57.218074],[-3.22456,57.218532],[-3.224367,57.218918],[-3.224371,57.219233],[-3.224438,57.219649],[-3.224568,57.220164],[-3.224828,57.220493],[-3.225219,57.220637],[-3.225545,57.220905]]]}}