{"type":"Feature","properties":{"id":"356468","COMMUNE":"Aberdeenshire","PROVINCE":"Aberdeen City and Aberdeenshire","COUNTRY":"UK","FIREDATE":"2026-03-18 15:35:00","FINALDATE":"2026-03-18 15:35:00","CLASS":"FireSeason","areaHA_geo":6.254},"geometry":{"type":"Polygon","coordinates":[[[-3.211556,57.23312],[-3.21188,57.233556],[-3.212106,57.233934],[-3.212234,57.234254],[-3.212387,57.234466],[-3.212563,57.234569],[-3.212807,57.234586],[-3.213118,57.234517],[-3.21323,57.234225],[-3.213145,57.233712],[-3.213027,57.233266],[-3.212878,57.232888],[-3.212909,57.232544],[-3.21312,57.232235],[-3.213379,57.23208],[-3.213687,57.232079],[-3.213911,57.231985],[-3.214054,57.231796],[-3.214041,57.231605],[-3.213874,57.23141],[-3.213828,57.231184],[-3.213903,57.230926],[-3.21389,57.230674],[-3.213788,57.230427],[-3.213591,57.230171],[-3.213301,57.229906],[-3.212953,57.229774],[-3.212549,57.229778],[-3.2123,57.229882],[-3.212206,57.230088],[-3.212103,57.230231],[-3.211991,57.230311],[-3.211765,57.230459],[-3.211423,57.230675],[-3.211174,57.230938],[-3.21102,57.231249],[-3.210856,57.231436],[-3.210682,57.231499],[-3.210545,57.231641],[-3.210442,57.231864],[-3.210642,57.232207],[-3.211143,57.23267],[-3.211556,57.23312]]]}}