{"type":"Feature","properties":{"id":"356452","COMMUNE":"Aberdeenshire","PROVINCE":"Aberdeen City and Aberdeenshire","COUNTRY":"UK","FIREDATE":"2026-03-21 12:57:00","CLASS":"FireSeason","areaHA_geo":2.88},"geometry":{"type":"Polygon","coordinates":[[[-3.185376,57.189502],[-3.185596,57.189536],[-3.186002,57.189518],[-3.186593,57.189448],[-3.187039,57.189421],[-3.187338,57.189437],[-3.187475,57.189528],[-3.187449,57.189695],[-3.187414,57.189835],[-3.187369,57.189947],[-3.187385,57.190059],[-3.187462,57.190169],[-3.187679,57.190206],[-3.188036,57.19017],[-3.188399,57.190084],[-3.188768,57.189949],[-3.189104,57.189828],[-3.189407,57.18972],[-3.189667,57.189614],[-3.189886,57.18951],[-3.18986,57.189343],[-3.189589,57.189114],[-3.189031,57.188947],[-3.188188,57.188842],[-3.187472,57.188761],[-3.186882,57.188702],[-3.186286,57.188691],[-3.185682,57.188726],[-3.185234,57.188785],[-3.18494,57.188866],[-3.184911,57.189051],[-3.185147,57.18934],[-3.185376,57.189502]]]}}