{"type":"Feature","properties":{"id":"356421","COMMUNE":"Lancaster","PROVINCE":"Lancaster and Wyre","COUNTRY":"UK","FIREDATE":"2026-03-05 12:06:00","CLASS":"FireSeason","areaHA_geo":0.888},"geometry":{"type":"Polygon","coordinates":[[[-2.667172,54.014254],[-2.667201,54.014318],[-2.667378,54.014387],[-2.6677,54.014463],[-2.668012,54.014521],[-2.668314,54.014562],[-2.668558,54.0145],[-2.668745,54.014336],[-2.668851,54.014173],[-2.668874,54.014013],[-2.668896,54.013866],[-2.668917,54.01373],[-2.668871,54.01365],[-2.668761,54.013625],[-2.668641,54.013656],[-2.668512,54.013742],[-2.668425,54.013778],[-2.66838,54.013765],[-2.668256,54.013732],[-2.668055,54.013681],[-2.66784,54.013655],[-2.667613,54.013654],[-2.667414,54.013796],[-2.667242,54.01408],[-2.667172,54.014254]]]}}