{"type":"Feature","properties":{"id":"356458","COMMUNE":"Aberdeenshire","PROVINCE":"Aberdeen City and Aberdeenshire","COUNTRY":"UK","FIREDATE":"2026-03-24 11:40:00","CLASS":"FireSeason","areaHA_geo":7.337},"geometry":{"type":"Polygon","coordinates":[[[-3.211478,57.206317],[-3.211212,57.206377],[-3.210926,57.206423],[-3.210619,57.206454],[-3.210473,57.206555],[-3.210489,57.206725],[-3.210732,57.206877],[-3.211203,57.207009],[-3.211607,57.207058],[-3.211943,57.207024],[-3.212262,57.206943],[-3.212564,57.206814],[-3.213002,57.206876],[-3.213577,57.207129],[-3.214219,57.207273],[-3.214927,57.207307],[-3.215406,57.20725],[-3.215656,57.207102],[-3.215766,57.206944],[-3.215736,57.206774],[-3.215918,57.206608],[-3.216314,57.206445],[-3.216584,57.206164],[-3.216729,57.205764],[-3.216747,57.205496],[-3.216638,57.20536],[-3.216362,57.205183],[-3.215921,57.204965],[-3.21547,57.204867],[-3.215009,57.20489],[-3.214691,57.20493],[-3.214515,57.204989],[-3.214327,57.205139],[-3.214125,57.205381],[-3.213976,57.205449],[-3.213878,57.205345],[-3.213807,57.205188],[-3.213762,57.204979],[-3.213639,57.204783],[-3.213437,57.204599],[-3.213173,57.204453],[-3.212848,57.204347],[-3.212609,57.204334],[-3.212456,57.204415],[-3.212371,57.204559],[-3.212354,57.204766],[-3.212293,57.204891],[-3.212188,57.204934],[-3.212004,57.205289],[-3.211742,57.205955],[-3.211478,57.206317]]]}}