{"type":"Feature","properties":{"id":"356453","COMMUNE":"Aberdeenshire","PROVINCE":"Aberdeen City and Aberdeenshire","COUNTRY":"UK","FIREDATE":"2026-03-24 13:42:00","FINALDATE":"2026-04-10 13:23:00","CLASS":"FireSeason","areaHA_geo":18.48},"geometry":{"type":"Polygon","coordinates":[[[-3.194343,57.186497],[-3.194038,57.186269],[-3.192965,57.186569],[-3.192055,57.186826],[-3.191839,57.186853],[-3.191839,57.186888],[-3.191987,57.187054],[-3.191877,57.18726],[-3.191801,57.187575],[-3.191768,57.18777],[-3.191779,57.187846],[-3.191985,57.187983],[-3.192387,57.188181],[-3.192507,57.188429],[-3.192345,57.188727],[-3.192257,57.188948],[-3.192243,57.18909],[-3.19233,57.189179],[-3.192518,57.189216],[-3.192685,57.189261],[-3.19283,57.189314],[-3.192957,57.189361],[-3.193066,57.189401],[-3.193147,57.189538],[-3.193198,57.189772],[-3.193079,57.189968],[-3.192789,57.190125],[-3.192621,57.190214],[-3.192576,57.190235],[-3.192524,57.190287],[-3.192464,57.190371],[-3.192498,57.190526],[-3.192626,57.190752],[-3.192697,57.190886],[-3.192712,57.190927],[-3.192443,57.191765],[-3.191891,57.1934],[-3.191764,57.19428],[-3.19206,57.194404],[-3.192332,57.194414],[-3.192579,57.194312],[-3.192795,57.194077],[-3.192979,57.193709],[-3.193301,57.19333],[-3.193761,57.192942],[-3.194263,57.192204],[-3.194805,57.191116],[-3.195294,57.190324],[-3.195732,57.189827],[-3.196256,57.189462],[-3.196866,57.189229],[-3.197369,57.188961],[-3.197765,57.188656],[-3.197905,57.188364],[-3.19779,57.188086],[-3.197929,57.187769],[-3.198322,57.187413],[-3.198602,57.187158],[-3.198768,57.187005],[-3.198888,57.186877],[-3.198962,57.186776],[-3.198795,57.186618],[-3.198388,57.186403],[-3.197992,57.186243],[-3.197607,57.186137],[-3.197172,57.186108],[-3.196685,57.186157],[-3.196217,57.186282],[-3.195768,57.186481],[-3.195412,57.186543],[-3.195148,57.186467],[-3.19472,57.186459],[-3.194343,57.186497]]]}}