{"type":"Feature","properties":{"id":"356456","COMMUNE":"Aberdeenshire","PROVINCE":"Aberdeen City and Aberdeenshire","COUNTRY":"UK","FIREDATE":"2026-03-24 11:40:00","CLASS":"FireSeason","areaHA_geo":8.196},"geometry":{"type":"Polygon","coordinates":[[[-3.206995,57.199222],[-3.207566,57.199512],[-3.208102,57.199689],[-3.208603,57.199752],[-3.209047,57.199751],[-3.209432,57.199686],[-3.209871,57.199689],[-3.210364,57.19976],[-3.211032,57.199736],[-3.211878,57.199619],[-3.212717,57.199483],[-3.21355,57.199329],[-3.214045,57.19926],[-3.214202,57.199275],[-3.214054,57.199417],[-3.213601,57.199684],[-3.213239,57.199898],[-3.212969,57.200058],[-3.213029,57.200159],[-3.213418,57.200202],[-3.213847,57.200178],[-3.214316,57.200086],[-3.214634,57.199993],[-3.214799,57.199901],[-3.215002,57.199766],[-3.215243,57.19959],[-3.215611,57.19941],[-3.216106,57.199227],[-3.216322,57.199047],[-3.216259,57.19887],[-3.21608,57.19873],[-3.215786,57.198627],[-3.215426,57.198582],[-3.214998,57.198594],[-3.214295,57.198554],[-3.213317,57.198464],[-3.212619,57.198408],[-3.212203,57.198387],[-3.211855,57.198378],[-3.211576,57.198381],[-3.211106,57.19834],[-3.210445,57.198256],[-3.210035,57.198218],[-3.209875,57.198228],[-3.209684,57.198282],[-3.209463,57.198381],[-3.20906,57.198447],[-3.208476,57.198481],[-3.208142,57.198363],[-3.208058,57.198093],[-3.207828,57.197955],[-3.207452,57.197949],[-3.207164,57.197959],[-3.206963,57.197986],[-3.20677,57.19805],[-3.206584,57.198151],[-3.206546,57.198421],[-3.206655,57.198858],[-3.206995,57.199222]]]}}