{"type":"Feature","properties":{"id":"356441","COMMUNE":"Scottish Borders","PROVINCE":"Scottish Borders","COUNTRY":"UK","FIREDATE":"2026-04-10 13:23:00","FINALDATE":"2026-04-10 13:23:00","CLASS":"FireSeason","areaHA_geo":7.512},"geometry":{"type":"Polygon","coordinates":[[[-3.179763,55.604724],[-3.180009,55.604892],[-3.18026,55.60509],[-3.180514,55.605317],[-3.180733,55.605525],[-3.180915,55.605714],[-3.181039,55.605838],[-3.181107,55.605898],[-3.181214,55.605933],[-3.18136,55.605945],[-3.181469,55.60581],[-3.18154,55.605528],[-3.181583,55.605319],[-3.181596,55.605184],[-3.181724,55.605087],[-3.181965,55.605028],[-3.182253,55.604984],[-3.182588,55.604956],[-3.183001,55.604826],[-3.183492,55.604593],[-3.183828,55.604357],[-3.184008,55.604118],[-3.18413,55.603794],[-3.184195,55.603385],[-3.184246,55.603079],[-3.184283,55.602874],[-3.184502,55.602643],[-3.184903,55.602387],[-3.185188,55.602177],[-3.185358,55.602012],[-3.185412,55.601785],[-3.18535,55.601497],[-3.185117,55.601351],[-3.184712,55.601346],[-3.18441,55.601365],[-3.18421,55.601406],[-3.18407,55.601447],[-3.183989,55.601489],[-3.183638,55.601767],[-3.183016,55.602281],[-3.18253,55.602636],[-3.182182,55.602833],[-3.181704,55.603088],[-3.181096,55.603399],[-3.180615,55.603697],[-3.18026,55.603982],[-3.179972,55.604253],[-3.17975,55.604511],[-3.179763,55.604724]]]}}