{"type":"Feature","properties":{"id":"356470","COMMUNE":"Aberdeenshire","PROVINCE":"Aberdeen City and Aberdeenshire","COUNTRY":"UK","FIREDATE":"2026-04-10 00:00:00","CLASS":"FireSeason","areaHA_geo":26.098},"geometry":{"type":"Polygon","coordinates":[[[-3.169445,57.245102],[-3.169256,57.244973],[-3.169231,57.244982],[-3.169077,57.245022],[-3.168908,57.245051],[-3.168726,57.24507],[-3.168499,57.245091],[-3.168492,57.245091],[-3.1686,57.245343],[-3.168588,57.24535],[-3.168357,57.245615],[-3.168087,57.246037],[-3.16789,57.246323],[-3.167767,57.246474],[-3.167977,57.246614],[-3.168521,57.246744],[-3.169182,57.246938],[-3.169959,57.247194],[-3.17058,57.247368],[-3.171043,57.247459],[-3.171332,57.247414],[-3.171445,57.247235],[-3.17169,57.247163],[-3.172067,57.247197],[-3.17242,57.247179],[-3.172749,57.24711],[-3.172991,57.247121],[-3.173146,57.247213],[-3.173386,57.247374],[-3.173711,57.247605],[-3.173981,57.247757],[-3.174195,57.247831],[-3.1745,57.247878],[-3.174894,57.247898],[-3.175154,57.247961],[-3.175281,57.248068],[-3.175384,57.248216],[-3.175462,57.248406],[-3.175576,57.248475],[-3.175723,57.248424],[-3.175826,57.248372],[-3.175885,57.248318],[-3.175947,57.248246],[-3.176015,57.248155],[-3.176122,57.248037],[-3.176268,57.247891],[-3.176395,57.247766],[-3.176501,57.247664],[-3.176703,57.247651],[-3.177001,57.247729],[-3.177399,57.247888],[-3.177896,57.248129],[-3.178312,57.248361],[-3.178645,57.248584],[-3.178905,57.248738],[-3.179094,57.248821],[-3.179215,57.248873],[-3.17927,57.248893],[-3.179263,57.248963],[-3.179194,57.249081],[-3.178901,57.249213],[-3.178383,57.24936],[-3.177969,57.249509],[-3.177659,57.24966],[-3.177394,57.249828],[-3.177175,57.250013],[-3.177084,57.250224],[-3.177121,57.25046],[-3.177176,57.250681],[-3.17725,57.250888],[-3.177547,57.251145],[-3.178069,57.251452],[-3.17859,57.251716],[-3.179113,57.251937],[-3.179589,57.252116],[-3.180017,57.252253],[-3.180338,57.252396],[-3.18055,57.252546],[-3.180811,57.252678],[-3.181121,57.252792],[-3.181396,57.252919],[-3.181635,57.253057],[-3.181822,57.253137],[-3.181956,57.253157],[-3.182068,57.253095],[-3.182159,57.252949],[-3.182279,57.252688],[-3.182431,57.252313],[-3.182743,57.25199],[-3.183217,57.251719],[-3.183456,57.251524],[-3.18346,57.251404],[-3.183434,57.251218],[-3.183376,57.250967],[-3.183448,57.250702],[-3.183649,57.250425],[-3.183982,57.250049],[-3.184446,57.249573],[-3.184626,57.249123],[-3.184521,57.248696],[-3.184512,57.248359],[-3.184597,57.248111],[-3.1847,57.247912],[-3.184821,57.247762],[-3.184849,57.247618],[-3.184783,57.247479],[-3.184692,57.247377],[-3.184573,57.247312],[-3.184411,57.247213],[-3.184205,57.247079],[-3.183915,57.246933],[-3.183542,57.246774],[-3.183284,57.24674],[-3.183143,57.246831],[-3.182984,57.247096],[-3.182807,57.247533],[-3.182711,57.247997],[-3.182696,57.248487],[-3.182649,57.248886],[-3.182568,57.249194],[-3.182249,57.249209],[-3.181691,57.248931],[-3.181271,57.248708],[-3.180989,57.24854],[-3.180669,57.248311],[-3.180313,57.248021],[-3.180009,57.247812],[-3.179757,57.247683],[-3.17926,57.24749],[-3.178518,57.247231],[-3.177919,57.247038],[-3.177463,57.246913],[-3.176873,57.246836],[-3.17615,57.246806],[-3.17577,57.246853],[-3.175735,57.246977],[-3.175732,57.247055],[-3.17576,57.247089],[-3.175468,57.247144],[-3.174856,57.247219],[-3.174464,57.247235],[-3.174294,57.247193],[-3.174085,57.247118],[-3.173837,57.247012],[-3.173592,57.246914],[-3.17335,57.246825],[-3.173039,57.24676],[-3.17266,57.246721],[-3.172418,57.246599],[-3.172312,57.246394],[-3.172217,57.246269],[-3.172135,57.246224],[-3.17198,57.246147],[-3.171753,57.246038],[-3.171409,57.245848],[-3.170948,57.245578],[-3.170515,57.24534],[-3.17011,57.245136],[-3.16965,57.245072],[-3.169445,57.245102]]]}}