{"type":"Feature","properties":{"id":"356471","COMMUNE":"Aberdeenshire","PROVINCE":"Aberdeen City and Aberdeenshire","COUNTRY":"UK","FIREDATE":"2026-04-10 00:00:00","CLASS":"FireSeason","areaHA_geo":1.37},"geometry":{"type":"Polygon","coordinates":[[[-3.166901,57.245172],[-3.166898,57.245159],[-3.166805,57.245148],[-3.166667,57.245109],[-3.166553,57.245066],[-3.166463,57.245019],[-3.166396,57.244969],[-3.166352,57.244916],[-3.166314,57.244873],[-3.166282,57.244841],[-3.166256,57.244819],[-3.166235,57.244808],[-3.166206,57.2448],[-3.166167,57.244795],[-3.166119,57.244793],[-3.166062,57.244794],[-3.165992,57.244801],[-3.16591,57.244814],[-3.165816,57.244832],[-3.16571,57.244856],[-3.165641,57.244831],[-3.16561,57.244756],[-3.165617,57.244632],[-3.165662,57.244459],[-3.165708,57.244397],[-3.165484,57.244349],[-3.165287,57.244418],[-3.165286,57.244426],[-3.165285,57.244426],[-3.165246,57.244445],[-3.165207,57.244489],[-3.165167,57.244557],[-3.165141,57.24464],[-3.165129,57.244736],[-3.165067,57.244822],[-3.164956,57.244898],[-3.164708,57.24495],[-3.164322,57.244979],[-3.164,57.245007],[-3.163743,57.245033],[-3.163585,57.245056],[-3.163528,57.245077],[-3.163463,57.245165],[-3.16339,57.245322],[-3.163604,57.24538],[-3.164105,57.24534],[-3.164513,57.245346],[-3.164826,57.245399],[-3.165133,57.245483],[-3.165431,57.245597],[-3.165722,57.245677],[-3.166006,57.245723],[-3.166241,57.245687],[-3.166429,57.245568],[-3.166518,57.245455],[-3.166509,57.245364],[-3.166653,57.245356],[-3.166901,57.245172]]]}}