{"type":"Feature","properties":{"id":"356436","COMMUNE":"Scottish Borders","PROVINCE":"Scottish Borders","COUNTRY":"UK","FIREDATE":"2026-04-10 00:00:00","FINALDATE":"2026-04-10 00:00:00","CLASS":"FireSeason","areaHA_geo":5.587},"geometry":{"type":"Polygon","coordinates":[[[-3.211562,55.607256],[-3.211322,55.607455],[-3.211277,55.607693],[-3.211428,55.60797],[-3.211774,55.608253],[-3.212314,55.608544],[-3.212595,55.608693],[-3.212617,55.608702],[-3.212813,55.608627],[-3.213183,55.608469],[-3.213502,55.608446],[-3.213771,55.608559],[-3.213996,55.608654],[-3.214176,55.608733],[-3.214382,55.608744],[-3.214613,55.608687],[-3.214756,55.608515],[-3.214813,55.608227],[-3.214889,55.60791],[-3.214983,55.607564],[-3.215047,55.60721],[-3.215079,55.606848],[-3.215109,55.606596],[-3.215137,55.606452],[-3.215015,55.606291],[-3.214744,55.606113],[-3.214431,55.606011],[-3.214075,55.605983],[-3.213775,55.60595],[-3.213531,55.60591],[-3.213326,55.605899],[-3.213158,55.605917],[-3.213056,55.605928],[-3.213019,55.605931],[-3.212671,55.606239],[-3.212012,55.606851],[-3.211562,55.607256]]]}}