{"type":"Feature","properties":{"id":"356457","COMMUNE":"Aberdeenshire","PROVINCE":"Aberdeen City and Aberdeenshire","COUNTRY":"UK","FIREDATE":"2026-03-24 11:40:00","FINALDATE":"2026-03-24 11:40:00","CLASS":"FireSeason","areaHA_geo":6.305},"geometry":{"type":"Polygon","coordinates":[[[-3.214361,57.203555],[-3.214347,57.203831],[-3.214423,57.204042],[-3.214588,57.20419],[-3.214917,57.204227],[-3.215408,57.204153],[-3.215725,57.203904],[-3.215866,57.203481],[-3.215934,57.203151],[-3.215928,57.202914],[-3.21607,57.202696],[-3.216358,57.202496],[-3.216666,57.202318],[-3.216994,57.202163],[-3.21717,57.202011],[-3.217196,57.201862],[-3.217216,57.201635],[-3.21723,57.201328],[-3.217339,57.201082],[-3.217543,57.200897],[-3.217706,57.200737],[-3.217827,57.200603],[-3.217713,57.20052],[-3.217364,57.200489],[-3.217171,57.200408],[-3.217136,57.200277],[-3.217271,57.200166],[-3.217576,57.200074],[-3.217935,57.199867],[-3.218349,57.199544],[-3.218614,57.199295],[-3.218731,57.199118],[-3.218743,57.198992],[-3.218648,57.198917],[-3.21834,57.198859],[-3.21782,57.198821],[-3.217438,57.198838],[-3.217194,57.198912],[-3.216984,57.199034],[-3.216809,57.199204],[-3.216698,57.199413],[-3.216652,57.199662],[-3.216613,57.199931],[-3.216581,57.200221],[-3.216409,57.200433],[-3.216098,57.200568],[-3.215849,57.200676],[-3.215664,57.200756],[-3.215444,57.200897],[-3.21519,57.2011],[-3.215,57.201277],[-3.214874,57.20143],[-3.214725,57.201659],[-3.214552,57.201963],[-3.214417,57.20215],[-3.214318,57.202221],[-3.214294,57.202547],[-3.214344,57.203127],[-3.214361,57.203555]]]}}