{"type":"Feature","properties":{"id":"356447","COMMUNE":"East Lothian","PROVINCE":"East Lothian and Midlothian","COUNTRY":"UK","FIREDATE":"2026-03-19 13:14:00","CLASS":"FireSeason","areaHA_geo":11.929},"geometry":{"type":"Polygon","coordinates":[[[-2.447649,55.902501],[-2.447796,55.90296],[-2.449014,55.902919],[-2.451373,55.90249],[-2.452475,55.902086],[-2.452669,55.901377],[-2.453257,55.901674],[-2.454156,55.901408],[-2.45492,55.900939],[-2.454699,55.900468],[-2.453711,55.900349],[-2.452689,55.900233],[-2.451783,55.899711],[-2.449209,55.899688],[-2.447633,55.900257],[-2.44699,55.900556],[-2.447649,55.902501]]]}}