{"type":"Feature","properties":{"id":"356439","COMMUNE":"Scottish Borders","PROVINCE":"Scottish Borders","COUNTRY":"UK","FIREDATE":"2026-04-10 00:00:00","CLASS":"FireSeason","areaHA_geo":2.535},"geometry":{"type":"Polygon","coordinates":[[[-3.196421,55.613167],[-3.196969,55.613269],[-3.197509,55.613307],[-3.19804,55.61328],[-3.19863,55.61324],[-3.19928,55.613186],[-3.199648,55.613133],[-3.199733,55.61308],[-3.199808,55.612978],[-3.199873,55.612826],[-3.199808,55.612692],[-3.199614,55.612574],[-3.199164,55.612593],[-3.198458,55.612747],[-3.197994,55.612745],[-3.197774,55.612586],[-3.197638,55.612394],[-3.197587,55.612167],[-3.197548,55.611954],[-3.197519,55.611754],[-3.197438,55.61161],[-3.197306,55.611523],[-3.197131,55.61148],[-3.196913,55.611481],[-3.196674,55.611517],[-3.196415,55.611587],[-3.196218,55.611746],[-3.196082,55.611992],[-3.196079,55.612174],[-3.196209,55.61229],[-3.196242,55.612541],[-3.196178,55.612924],[-3.196421,55.613167]]]}}