{"type":"Feature","properties":{"id":"356472","COMMUNE":"Aberdeenshire","PROVINCE":"Aberdeen City and Aberdeenshire","COUNTRY":"UK","FIREDATE":"2026-04-10 00:00:00","FINALDATE":"2026-04-10 00:00:00","CLASS":"FireSeason","areaHA_geo":20.94},"geometry":{"type":"Polygon","coordinates":[[[-3.155876,57.237063],[-3.155118,57.23713],[-3.155017,57.237071],[-3.154828,57.236969],[-3.154689,57.236809],[-3.154599,57.236589],[-3.154508,57.236406],[-3.154414,57.23626],[-3.154399,57.236125],[-3.15446,57.236002],[-3.154492,57.235876],[-3.154494,57.235749],[-3.154369,57.235697],[-3.154119,57.235719],[-3.153949,57.235784],[-3.153858,57.235891],[-3.153773,57.236039],[-3.153693,57.236228],[-3.153573,57.236369],[-3.153413,57.236461],[-3.153374,57.236584],[-3.153458,57.236738],[-3.153494,57.236929],[-3.153482,57.237159],[-3.153433,57.237399],[-3.153346,57.237649],[-3.153268,57.237901],[-3.1532,57.238155],[-3.153167,57.238288],[-3.153169,57.2383],[-3.153113,57.238326],[-3.152998,57.238367],[-3.152928,57.23845],[-3.152903,57.238573],[-3.152854,57.238772],[-3.152782,57.239046],[-3.152647,57.239554],[-3.152448,57.240296],[-3.152282,57.240858],[-3.152147,57.241238],[-3.152102,57.241491],[-3.152147,57.241616],[-3.152156,57.241728],[-3.152129,57.241826],[-3.152115,57.241898],[-3.152113,57.241943],[-3.152072,57.24197],[-3.15199,57.241979],[-3.151876,57.242042],[-3.151729,57.242159],[-3.151608,57.242298],[-3.151511,57.242461],[-3.151583,57.242626],[-3.151825,57.242795],[-3.15213,57.242991],[-3.152499,57.243216],[-3.15282,57.243392],[-3.153095,57.243521],[-3.153342,57.24362],[-3.153561,57.243688],[-3.153677,57.243724],[-3.153691,57.243728],[-3.153689,57.243762],[-3.153671,57.243826],[-3.153704,57.243938],[-3.153786,57.244099],[-3.153937,57.244365],[-3.154156,57.244735],[-3.154303,57.245024],[-3.154377,57.245233],[-3.154448,57.245432],[-3.154515,57.245621],[-3.154563,57.245755],[-3.154591,57.245834],[-3.154961,57.245959],[-3.155672,57.24613],[-3.156384,57.246322],[-3.157097,57.246534],[-3.157718,57.246698],[-3.158247,57.246814],[-3.158976,57.247],[-3.159905,57.247258],[-3.160532,57.247421],[-3.160857,57.24749],[-3.161146,57.247599],[-3.161399,57.24775],[-3.161622,57.247883],[-3.161813,57.247999],[-3.162076,57.248036],[-3.162412,57.247996],[-3.16265,57.247873],[-3.16279,57.24767],[-3.162785,57.247481],[-3.162635,57.247307],[-3.162129,57.247165],[-3.161265,57.247057],[-3.16049,57.246918],[-3.159806,57.246751],[-3.15941,57.246588],[-3.159304,57.24643],[-3.159369,57.246315],[-3.159606,57.246243],[-3.159859,57.246198],[-3.160126,57.246177],[-3.160252,57.24609],[-3.160234,57.245937],[-3.160391,57.24585],[-3.160721,57.24583],[-3.160944,57.245858],[-3.161059,57.245935],[-3.16116,57.246009],[-3.161248,57.246081],[-3.161551,57.246159],[-3.162068,57.246242],[-3.162619,57.246331],[-3.163204,57.246428],[-3.163545,57.246492],[-3.163643,57.246522],[-3.163912,57.246539],[-3.164351,57.246542],[-3.16459,57.246494],[-3.16463,57.246395],[-3.164519,57.246278],[-3.164258,57.246142],[-3.163845,57.246001],[-3.163281,57.245856],[-3.162833,57.245738],[-3.162501,57.24565],[-3.162178,57.245497],[-3.161863,57.245279],[-3.161663,57.245086],[-3.161578,57.244919],[-3.161411,57.2448],[-3.161161,57.244731],[-3.160944,57.244753],[-3.160759,57.244866],[-3.160403,57.244865],[-3.159874,57.244749],[-3.15948,57.244644],[-3.159221,57.244548],[-3.159034,57.244391],[-3.158918,57.244173],[-3.158653,57.243953],[-3.158236,57.243731],[-3.158151,57.243712],[-3.158211,57.243496],[-3.15803,57.243491],[-3.15759,57.243463],[-3.157147,57.243419],[-3.156811,57.243383],[-3.156583,57.243355],[-3.156463,57.243335],[-3.15645,57.243323],[-3.156393,57.243282],[-3.15629,57.243212],[-3.156142,57.243113],[-3.155948,57.242986],[-3.1558,57.242888],[-3.155697,57.242818],[-3.155639,57.242777],[-3.155627,57.242765],[-3.155603,57.242736],[-3.155586,57.242714],[-3.155276,57.242866],[-3.155117,57.24281],[-3.154868,57.242771],[-3.154719,57.242769],[-3.154739,57.242653],[-3.154701,57.242599],[-3.154597,57.242614],[-3.154347,57.242634],[-3.154063,57.242645],[-3.153818,57.242626],[-3.153612,57.242578],[-3.153444,57.242501],[-3.153315,57.242393],[-3.153205,57.242268],[-3.153113,57.242124],[-3.153038,57.241961],[-3.152982,57.24178],[-3.152929,57.241608],[-3.15288,57.241447],[-3.152834,57.241294],[-3.152791,57.241152],[-3.152792,57.241009],[-3.152836,57.240867],[-3.152923,57.240725],[-3.153053,57.240583],[-3.153204,57.240423],[-3.153375,57.240246],[-3.153567,57.240051],[-3.153686,57.239931],[-3.153665,57.239919],[-3.153709,57.239908],[-3.153779,57.239838],[-3.153971,57.239594],[-3.154145,57.239318],[-3.154298,57.239011],[-3.154433,57.238673],[-3.154577,57.238389],[-3.154729,57.238161],[-3.154891,57.237986],[-3.155063,57.237867],[-3.155232,57.237732],[-3.155401,57.237581],[-3.155568,57.237415],[-3.155733,57.237234],[-3.155886,57.237079],[-3.155892,57.237073],[-3.155876,57.237063]],[[-3.157849,57.246252],[-3.15731,57.246231],[-3.157016,57.246069],[-3.156462,57.245731],[-3.154944,57.244787],[-3.154882,57.244612],[-3.154831,57.244414],[-3.154832,57.244308],[-3.155099,57.244281],[-3.155641,57.244365],[-3.156004,57.244499],[-3.155967,57.244673],[-3.156214,57.244925],[-3.156943,57.245256],[-3.157804,57.245627],[-3.15818,57.245962],[-3.158151,57.246104],[-3.157849,57.246252]]]}}