{"type":"Feature","properties":{"id":"356469","COMMUNE":"West Moray","PROVINCE":"Inverness & Nairn and Moray, Badenoch & Strathspey","COUNTRY":"UK","FIREDATE":"2026-03-30 00:00:00","FINALDATE":"2026-03-30 00:00:00","CLASS":"FireSeason","areaHA_geo":10.72},"geometry":{"type":"Polygon","coordinates":[[[-3.257847,57.23195],[-3.257879,57.232207],[-3.257949,57.232359],[-3.258055,57.232405],[-3.258363,57.232362],[-3.258872,57.232228],[-3.259207,57.232072],[-3.259368,57.231893],[-3.259382,57.231554],[-3.259248,57.231055],[-3.259349,57.230666],[-3.259685,57.230388],[-3.260111,57.230129],[-3.260627,57.229889],[-3.261025,57.229597],[-3.261307,57.22925],[-3.261567,57.228947],[-3.261804,57.228687],[-3.262056,57.228446],[-3.262322,57.228224],[-3.26237,57.227938],[-3.2622,57.227589],[-3.262066,57.227342],[-3.261969,57.227198],[-3.262131,57.227063],[-3.262553,57.226939],[-3.262916,57.2268],[-3.263222,57.226647],[-3.263309,57.226492],[-3.263178,57.226334],[-3.263001,57.226177],[-3.262779,57.226021],[-3.262522,57.225827],[-3.262229,57.225597],[-3.261894,57.22546],[-3.261518,57.225417],[-3.261187,57.225459],[-3.260901,57.225585],[-3.260667,57.225686],[-3.260484,57.225762],[-3.260355,57.225698],[-3.260282,57.225494],[-3.260136,57.225358],[-3.259916,57.225291],[-3.259719,57.225287],[-3.259545,57.225345],[-3.259459,57.225484],[-3.259463,57.225703],[-3.259683,57.226002],[-3.260119,57.226381],[-3.260445,57.226661],[-3.260661,57.226843],[-3.260685,57.227076],[-3.260516,57.227362],[-3.260122,57.227666],[-3.259501,57.22799],[-3.259074,57.228265],[-3.25884,57.228493],[-3.25865,57.22876],[-3.258505,57.229068],[-3.258293,57.229484],[-3.258015,57.230009],[-3.257786,57.23048],[-3.257604,57.230897],[-3.257593,57.231284],[-3.257752,57.231643],[-3.257847,57.23195]]]}}