{"type":"Feature","properties":{"id":"356450","COMMUNE":"Aberdeenshire","PROVINCE":"Aberdeen City and Aberdeenshire","COUNTRY":"UK","FIREDATE":"2026-03-24 11:40:00","CLASS":"FireSeason","areaHA_geo":50.208},"geometry":{"type":"Polygon","coordinates":[[[-3.204712,57.190341],[-3.204698,57.190181],[-3.204616,57.19005],[-3.204466,57.18995],[-3.204263,57.189859],[-3.204007,57.189777],[-3.203813,57.189631],[-3.203681,57.189422],[-3.203792,57.189276],[-3.204147,57.189193],[-3.204446,57.189117],[-3.204691,57.189046],[-3.204962,57.188891],[-3.205261,57.188653],[-3.205409,57.188492],[-3.205408,57.188408],[-3.205596,57.188458],[-3.205974,57.188642],[-3.206092,57.188911],[-3.205948,57.189265],[-3.205872,57.189511],[-3.205865,57.18965],[-3.206013,57.189747],[-3.206317,57.189801],[-3.206591,57.189753],[-3.206837,57.189605],[-3.206949,57.189444],[-3.20693,57.189269],[-3.206958,57.18865],[-3.207033,57.187588],[-3.207004,57.186829],[-3.20687,57.186374],[-3.206759,57.186104],[-3.206673,57.18602],[-3.206521,57.185955],[-3.206306,57.185908],[-3.206064,57.185828],[-3.205797,57.185717],[-3.205473,57.185684],[-3.205092,57.185731],[-3.204841,57.185845],[-3.204721,57.186026],[-3.204546,57.186271],[-3.204315,57.186579],[-3.204129,57.186856],[-3.20399,57.187101],[-3.203891,57.187361],[-3.203832,57.187636],[-3.203736,57.187842],[-3.2036,57.187979],[-3.20346,57.188105],[-3.203316,57.18822],[-3.2031,57.188291],[-3.202812,57.188321],[-3.202599,57.188319],[-3.202459,57.188287],[-3.202381,57.188187],[-3.202364,57.18802],[-3.202422,57.187902],[-3.202554,57.187835],[-3.202643,57.187745],[-3.202688,57.187633],[-3.202633,57.187538],[-3.202478,57.187462],[-3.202373,57.187426],[-3.202318,57.187432],[-3.202219,57.187434],[-3.202077,57.187433],[-3.201861,57.187505],[-3.201572,57.18765],[-3.201319,57.187899],[-3.201104,57.188251],[-3.2009,57.188595],[-3.200707,57.18893],[-3.200618,57.18924],[-3.200634,57.189523],[-3.200642,57.189822],[-3.20064,57.190138],[-3.200624,57.190332],[-3.200593,57.190404],[-3.200578,57.19046],[-3.200577,57.190498],[-3.200703,57.190512],[-3.200955,57.190502],[-3.201172,57.190541],[-3.201355,57.19063],[-3.201305,57.190756],[-3.201023,57.19092],[-3.200754,57.191089],[-3.200496,57.191263],[-3.200421,57.191501],[-3.200529,57.191804],[-3.200791,57.192057],[-3.201206,57.192258],[-3.201263,57.192451],[-3.200962,57.192636],[-3.200618,57.192834],[-3.200232,57.193046],[-3.199969,57.193221],[-3.199828,57.193357],[-3.199697,57.193588],[-3.199577,57.193915],[-3.199527,57.194189],[-3.199547,57.194411],[-3.199656,57.194599],[-3.199852,57.194752],[-3.200007,57.194871],[-3.20012,57.194956],[-3.200206,57.195031],[-3.200265,57.195095],[-3.200017,57.195494],[-3.199463,57.196227],[-3.199335,57.196667],[-3.199634,57.196814],[-3.199994,57.196867],[-3.200417,57.196824],[-3.20074,57.196732],[-3.200963,57.196591],[-3.201179,57.196354],[-3.201389,57.196021],[-3.201435,57.195691],[-3.201318,57.195362],[-3.201523,57.195015],[-3.202049,57.19465],[-3.202519,57.194432],[-3.202931,57.194361],[-3.20326,57.194594],[-3.203507,57.195132],[-3.203689,57.195566],[-3.203806,57.195895],[-3.203826,57.196219],[-3.203749,57.196538],[-3.203891,57.196746],[-3.204254,57.196842],[-3.204784,57.196833],[-3.205482,57.196718],[-3.206354,57.196592],[-3.2074,57.196456],[-3.208252,57.196392],[-3.208912,57.196399],[-3.209368,57.196412],[-3.209621,57.196431],[-3.209537,57.19658],[-3.209117,57.19686],[-3.208951,57.197084],[-3.209039,57.197253],[-3.209097,57.197418],[-3.209127,57.197578],[-3.209171,57.197662],[-3.209229,57.197671],[-3.209459,57.197626],[-3.209861,57.197525],[-3.210337,57.19744],[-3.210886,57.19737],[-3.211361,57.197358],[-3.211761,57.197407],[-3.212043,57.19743],[-3.212207,57.197428],[-3.212529,57.197373],[-3.21301,57.197265],[-3.213253,57.197063],[-3.213256,57.196766],[-3.21319,57.196543],[-3.213055,57.196394],[-3.212688,57.196172],[-3.21209,57.195877],[-3.21136,57.195632],[-3.210497,57.195438],[-3.20973,57.195205],[-3.209058,57.194932],[-3.208571,57.194641],[-3.208269,57.194331],[-3.208319,57.194126],[-3.208721,57.194025],[-3.209082,57.194004],[-3.209403,57.19406],[-3.210067,57.194091],[-3.211075,57.194096],[-3.211741,57.194124],[-3.212067,57.194174],[-3.212302,57.194169],[-3.212447,57.19411],[-3.212508,57.194017],[-3.212487,57.193891],[-3.212326,57.193772],[-3.212026,57.193662],[-3.211545,57.193576],[-3.210884,57.193515],[-3.210409,57.193476],[-3.210119,57.193461],[-3.209943,57.193366],[-3.209881,57.193193],[-3.209961,57.193018],[-3.210182,57.192842],[-3.210354,57.192661],[-3.210478,57.192475],[-3.210495,57.192275],[-3.210406,57.192059],[-3.21012,57.191854],[-3.209636,57.19166],[-3.209355,57.191486],[-3.209277,57.191334],[-3.209184,57.191106],[-3.209075,57.190803],[-3.208917,57.190658],[-3.208709,57.190673],[-3.208308,57.190743],[-3.207713,57.190867],[-3.207323,57.19082],[-3.207139,57.190602],[-3.206786,57.190525],[-3.206265,57.190591],[-3.205876,57.19063],[-3.205621,57.190643],[-3.205299,57.190593],[-3.204913,57.190479],[-3.204712,57.190341]],[[-3.202971,57.192291],[-3.202017,57.191926],[-3.202026,57.191633],[-3.202205,57.191337],[-3.202679,57.191074],[-3.203388,57.19091],[-3.204077,57.191009],[-3.204206,57.191211],[-3.204526,57.191471],[-3.205207,57.191787],[-3.205232,57.192015],[-3.205046,57.19245],[-3.204744,57.192481],[-3.204027,57.192461],[-3.202971,57.192291]]]}}