{"type":"Feature","properties":{"id":"356444","COMMUNE":"East Lothian","PROVINCE":"East Lothian and Midlothian","COUNTRY":"UK","FIREDATE":"2026-03-20 12:55:00","FINALDATE":"2026-03-20 13:16:00","CLASS":"FireSeason","areaHA_geo":10.593},"geometry":{"type":"Polygon","coordinates":[[[-2.539665,55.857026],[-2.539774,55.857261],[-2.539982,55.857383],[-2.540288,55.85739],[-2.540701,55.857335],[-2.541219,55.857217],[-2.541679,55.857072],[-2.542079,55.8569],[-2.542572,55.856653],[-2.54316,55.85633],[-2.543509,55.856002],[-2.543621,55.855669],[-2.543729,55.855507],[-2.543833,55.855515],[-2.54405,55.855508],[-2.54438,55.855485],[-2.544583,55.855356],[-2.544659,55.855121],[-2.544847,55.854842],[-2.545148,55.854519],[-2.545449,55.854173],[-2.545752,55.853802],[-2.546018,55.85353],[-2.546248,55.853355],[-2.546148,55.853096],[-2.545716,55.852751],[-2.545395,55.852489],[-2.545186,55.852311],[-2.544879,55.852223],[-2.544475,55.852226],[-2.544149,55.852286],[-2.543901,55.852406],[-2.543704,55.852605],[-2.543558,55.852884],[-2.54339,55.853095],[-2.543199,55.853237],[-2.542885,55.853386],[-2.542446,55.853543],[-2.542005,55.853771],[-2.541562,55.854071],[-2.541242,55.854282],[-2.541046,55.854406],[-2.540949,55.854576],[-2.540952,55.854794],[-2.540966,55.855019],[-2.54099,55.855253],[-2.541018,55.855444],[-2.541049,55.855593],[-2.540701,55.855977],[-2.539974,55.856598],[-2.539665,55.857026]]]}}