{"type":"Feature","properties":{"id":"356467","COMMUNE":"Aberdeenshire","PROVINCE":"Aberdeen City and Aberdeenshire","COUNTRY":"UK","FIREDATE":"2026-03-30 00:00:00","FINALDATE":"2026-03-30 00:00:00","CLASS":"FireSeason","areaHA_geo":3.366},"geometry":{"type":"Polygon","coordinates":[[[-3.190061,57.22805],[-3.189823,57.228018],[-3.189608,57.228043],[-3.189463,57.22806],[-3.189388,57.228068],[-3.189265,57.228084],[-3.189093,57.228106],[-3.188887,57.228122],[-3.188648,57.228132],[-3.18841,57.228173],[-3.188175,57.228245],[-3.188065,57.22832],[-3.188078,57.228396],[-3.188066,57.228439],[-3.188029,57.228448],[-3.188126,57.228496],[-3.188355,57.228585],[-3.188589,57.228634],[-3.188826,57.228644],[-3.189134,57.228674],[-3.189511,57.228724],[-3.189817,57.228773],[-3.19005,57.228822],[-3.190212,57.228847],[-3.190302,57.228848],[-3.190525,57.228818],[-3.190882,57.228758],[-3.191179,57.228759],[-3.191418,57.228823],[-3.191752,57.228927],[-3.192182,57.229074],[-3.192678,57.229165],[-3.193239,57.2292],[-3.193628,57.229207],[-3.193845,57.229185],[-3.193993,57.229158],[-3.194072,57.229126],[-3.194057,57.229047],[-3.193949,57.228922],[-3.193724,57.228871],[-3.193382,57.228896],[-3.19293,57.228852],[-3.192368,57.228739],[-3.191906,57.228591],[-3.191544,57.228408],[-3.191409,57.228281],[-3.1915,57.228208],[-3.191778,57.228131],[-3.192244,57.22805],[-3.192602,57.228009],[-3.192854,57.228008],[-3.192998,57.227957],[-3.193033,57.227856],[-3.193029,57.227769],[-3.192985,57.227695],[-3.192851,57.227636],[-3.192628,57.22759],[-3.192301,57.227543],[-3.19187,57.227494],[-3.191716,57.227378],[-3.19184,57.227195],[-3.192088,57.226995],[-3.19246,57.226777],[-3.192758,57.226594],[-3.192984,57.226444],[-3.193037,57.226302],[-3.192917,57.226169],[-3.192794,57.22614],[-3.192668,57.226216],[-3.192495,57.226321],[-3.192273,57.226455],[-3.191874,57.226688],[-3.1913,57.227019],[-3.191032,57.227301],[-3.191071,57.227536],[-3.191034,57.22771],[-3.190922,57.227824],[-3.190833,57.227942],[-3.190769,57.228066],[-3.190666,57.228142],[-3.190524,57.228171],[-3.190322,57.22814],[-3.190061,57.22805]]]}}