{"type":"Feature","properties":{"id":"356459","COMMUNE":"Aberdeenshire","PROVINCE":"Aberdeen City and Aberdeenshire","COUNTRY":"UK","FIREDATE":"2026-03-24 00:00:00","FINALDATE":"2026-03-24 00:00:00","CLASS":"FireSeason","areaHA_geo":1.942},"geometry":{"type":"Polygon","coordinates":[[[-3.216483,57.207595],[-3.216526,57.207812],[-3.216561,57.207929],[-3.21659,57.207945],[-3.216781,57.207906],[-3.217134,57.207814],[-3.217419,57.207665],[-3.217638,57.207459],[-3.217997,57.207255],[-3.218498,57.207052],[-3.218983,57.206905],[-3.219452,57.206813],[-3.219663,57.206668],[-3.219616,57.20647],[-3.2195,57.206276],[-3.219315,57.206086],[-3.219054,57.205961],[-3.218717,57.2059],[-3.218445,57.20589],[-3.218237,57.20593],[-3.218115,57.20598],[-3.218078,57.206041],[-3.21766,57.206425],[-3.216861,57.207133],[-3.216483,57.207595]]]}}