{"type":"Feature","properties":{"id":"356440","COMMUNE":"Scottish Borders","PROVINCE":"Scottish Borders","COUNTRY":"UK","FIREDATE":"2026-04-10 00:00:00","CLASS":"FireSeason","areaHA_geo":6.063},"geometry":{"type":"Polygon","coordinates":[[[-3.193587,55.61254],[-3.193831,55.612652],[-3.19405,55.612713],[-3.194246,55.612721],[-3.194375,55.612722],[-3.194437,55.612716],[-3.194486,55.612576],[-3.194523,55.612304],[-3.194529,55.612017],[-3.194504,55.611715],[-3.1948,55.611449],[-3.195416,55.611217],[-3.195779,55.611034],[-3.195888,55.6109],[-3.196064,55.610642],[-3.196309,55.610261],[-3.196604,55.610107],[-3.196949,55.610179],[-3.197269,55.610211],[-3.197561,55.610202],[-3.19787,55.610166],[-3.198196,55.610103],[-3.198373,55.610019],[-3.198402,55.609914],[-3.198296,55.609846],[-3.198053,55.609813],[-3.197873,55.609734],[-3.197753,55.609609],[-3.197936,55.609503],[-3.198421,55.609416],[-3.1987,55.609368],[-3.198775,55.609361],[-3.19884,55.609267],[-3.198895,55.609087],[-3.198838,55.608901],[-3.198671,55.608708],[-3.198442,55.608584],[-3.198153,55.608527],[-3.197937,55.608513],[-3.197792,55.608543],[-3.197664,55.60864],[-3.197552,55.608804],[-3.197484,55.608963],[-3.197459,55.609118],[-3.197305,55.609232],[-3.197021,55.609305],[-3.196805,55.609274],[-3.196656,55.609137],[-3.196481,55.608942],[-3.196279,55.608687],[-3.196174,55.608546],[-3.196165,55.608518],[-3.196244,55.60843],[-3.196413,55.608282],[-3.196638,55.608189],[-3.196922,55.608152],[-3.197105,55.608068],[-3.197189,55.607936],[-3.197136,55.607836],[-3.196947,55.607769],[-3.196626,55.607734],[-3.196175,55.607731],[-3.195717,55.607782],[-3.195252,55.607889],[-3.194974,55.607962],[-3.194885,55.608],[-3.194838,55.608052],[-3.194834,55.608118],[-3.194913,55.608218],[-3.195074,55.608354],[-3.195176,55.608597],[-3.195217,55.608948],[-3.195233,55.609243],[-3.195224,55.609483],[-3.195163,55.60978],[-3.19505,55.610132],[-3.194942,55.610419],[-3.194836,55.61064],[-3.194782,55.610766],[-3.194779,55.610795],[-3.19479,55.610884],[-3.194815,55.611034],[-3.194743,55.611147],[-3.194576,55.611222],[-3.19439,55.611282],[-3.194186,55.611325],[-3.193962,55.611385],[-3.193718,55.611461],[-3.193519,55.611518],[-3.193365,55.611556],[-3.193332,55.611802],[-3.193421,55.612257],[-3.193587,55.61254]]]}}