{"type":"Feature","properties":{"id":"417497","COMMUNE":"Merthyr Tydfil","PROVINCE":"Central Valleys","COUNTRY":"UK","FIREDATE":"2026-04-23 12:17:00","CLASS":"FireSeason","areaHA_geo":11.09},"geometry":{"type":"Polygon","coordinates":[[[-3.402082,51.79739],[-3.402082,51.797319],[-3.402064,51.797201],[-3.402031,51.797035],[-3.401982,51.79688],[-3.401917,51.796738],[-3.401854,51.796594],[-3.401793,51.796448],[-3.401735,51.7963],[-3.401679,51.79615],[-3.401595,51.796027],[-3.401483,51.795931],[-3.401344,51.795862],[-3.401177,51.79582],[-3.401042,51.795811],[-3.400939,51.795837],[-3.400869,51.795896],[-3.400831,51.795989],[-3.400743,51.796064],[-3.400605,51.79612],[-3.400418,51.796159],[-3.400182,51.796179],[-3.39993,51.796195],[-3.399663,51.796205],[-3.39938,51.79621],[-3.399082,51.796211],[-3.398852,51.796198],[-3.39869,51.796172],[-3.398596,51.796134],[-3.398569,51.796082],[-3.398561,51.796027],[-3.398571,51.795968],[-3.398592,51.795915],[-3.398625,51.795868],[-3.398699,51.79582],[-3.398815,51.795771],[-3.39913,51.79568],[-3.399646,51.795549],[-3.399894,51.795405],[-3.399873,51.795247],[-3.399867,51.79511],[-3.399877,51.794992],[-3.399941,51.794847],[-3.400058,51.794673],[-3.400144,51.794556],[-3.400197,51.794494],[-3.400228,51.794389],[-3.400236,51.794239],[-3.400208,51.79404],[-3.400143,51.793794],[-3.400039,51.793582],[-3.399896,51.793405],[-3.399754,51.793319],[-3.399612,51.793325],[-3.399492,51.793358],[-3.399394,51.793419],[-3.399356,51.79347],[-3.399377,51.793512],[-3.399463,51.793604],[-3.399614,51.793747],[-3.399693,51.793859],[-3.399699,51.793941],[-3.399707,51.794043],[-3.399717,51.794163],[-3.399725,51.794234],[-3.399731,51.794255],[-3.399589,51.794261],[-3.3993,51.79425],[-3.399058,51.794236],[-3.398865,51.79422],[-3.398678,51.794222],[-3.398496,51.794243],[-3.398325,51.794271],[-3.398166,51.794306],[-3.398081,51.794365],[-3.39807,51.794449],[-3.398083,51.79455],[-3.398118,51.794667],[-3.398195,51.794775],[-3.398314,51.794871],[-3.39848,51.794979],[-3.398695,51.795098],[-3.398818,51.795192],[-3.398847,51.79526],[-3.398856,51.795348],[-3.398843,51.795454],[-3.398748,51.795542],[-3.398572,51.795612],[-3.398323,51.79566],[-3.397999,51.795686],[-3.397792,51.795696],[-3.397701,51.79569],[-3.397655,51.795722],[-3.397656,51.795791],[-3.397628,51.795833],[-3.397573,51.795846],[-3.39748,51.7959],[-3.397348,51.795993],[-3.397227,51.796114],[-3.397118,51.796263],[-3.397086,51.796432],[-3.397131,51.79662],[-3.397127,51.796726],[-3.397074,51.79675],[-3.397009,51.7968],[-3.396933,51.796875],[-3.396934,51.796966],[-3.397011,51.797073],[-3.397102,51.797181],[-3.397206,51.797291],[-3.397267,51.797352],[-3.397285,51.797366],[-3.397315,51.797471],[-3.397357,51.797669],[-3.397352,51.797854],[-3.397301,51.798028],[-3.397245,51.798166],[-3.397186,51.798269],[-3.397226,51.79836],[-3.397366,51.79844],[-3.397568,51.798484],[-3.397829,51.798494],[-3.3981,51.798555],[-3.39838,51.798666],[-3.398638,51.798816],[-3.398876,51.799004],[-3.399064,51.79909],[-3.399202,51.799075],[-3.399322,51.798957],[-3.399424,51.798738],[-3.399458,51.79857],[-3.399423,51.798454],[-3.399393,51.798356],[-3.399369,51.798276],[-3.399338,51.798172],[-3.399299,51.798044],[-3.399278,51.797932],[-3.399276,51.797837],[-3.399314,51.797792],[-3.399394,51.797799],[-3.399457,51.797816],[-3.399504,51.797842],[-3.399604,51.797919],[-3.399759,51.798045],[-3.399855,51.798157],[-3.399893,51.798255],[-3.399992,51.798319],[-3.400152,51.798347],[-3.400357,51.798364],[-3.400607,51.798369],[-3.400876,51.798358],[-3.401166,51.798332],[-3.401332,51.798312],[-3.401374,51.798298],[-3.401442,51.798287],[-3.401538,51.798277],[-3.401715,51.798211],[-3.401973,51.798087],[-3.402163,51.79796],[-3.402285,51.79783],[-3.402356,51.797709],[-3.402376,51.797596],[-3.402315,51.797512],[-3.402173,51.797457],[-3.402097,51.797428],[-3.402087,51.797426],[-3.402082,51.79739]]]}}