{"type":"Feature","properties":{"id":"417499","COMMUNE":"Rhondda Cynon Taf","PROVINCE":"Central Valleys","COUNTRY":"UK","FIREDATE":"2026-04-23 01:07:00","CLASS":"FireSeason","areaHA_geo":19.65},"geometry":{"type":"Polygon","coordinates":[[[-3.444846,51.639531],[-3.444798,51.639487],[-3.444619,51.639366],[-3.444309,51.639167],[-3.444173,51.638979],[-3.444211,51.638801],[-3.444118,51.638671],[-3.443897,51.638589],[-3.443736,51.638483],[-3.443637,51.638354],[-3.443567,51.638212],[-3.443528,51.638057],[-3.443463,51.637891],[-3.443372,51.637713],[-3.443209,51.63746],[-3.442974,51.637131],[-3.442707,51.636801],[-3.442411,51.636469],[-3.442218,51.63628],[-3.442128,51.636234],[-3.441975,51.636254],[-3.441758,51.636341],[-3.441614,51.636442],[-3.441543,51.636558],[-3.441568,51.636754],[-3.441689,51.637031],[-3.441768,51.637306],[-3.441804,51.637578],[-3.441821,51.637762],[-3.441819,51.637856],[-3.441895,51.637995],[-3.442049,51.638179],[-3.442096,51.638349],[-3.442037,51.638506],[-3.442041,51.638693],[-3.442106,51.638911],[-3.442247,51.639178],[-3.442464,51.639496],[-3.442827,51.639796],[-3.443337,51.64008],[-3.443669,51.640264],[-3.443823,51.640349],[-3.444136,51.640436],[-3.444608,51.640523],[-3.44485,51.640574],[-3.444861,51.640588],[-3.444942,51.640627],[-3.445094,51.640692],[-3.44523,51.640748],[-3.445351,51.640795],[-3.445456,51.640834],[-3.445546,51.640864],[-3.445628,51.640917],[-3.445702,51.640993],[-3.445768,51.641091],[-3.445827,51.641211],[-3.445917,51.64133],[-3.446041,51.641448],[-3.446197,51.641564],[-3.446386,51.641678],[-3.446642,51.641798],[-3.446966,51.641922],[-3.447357,51.64205],[-3.447815,51.642183],[-3.448237,51.642302],[-3.44862,51.642405],[-3.448966,51.642493],[-3.449275,51.642566],[-3.449568,51.642632],[-3.449847,51.642691],[-3.45011,51.642742],[-3.450358,51.642786],[-3.450585,51.642815],[-3.450791,51.642827],[-3.450976,51.642824],[-3.451139,51.642805],[-3.451305,51.642752],[-3.451473,51.642664],[-3.451644,51.642542],[-3.451817,51.642386],[-3.451959,51.642236],[-3.452071,51.642094],[-3.452151,51.641958],[-3.452201,51.64183],[-3.452184,51.641671],[-3.452102,51.641483],[-3.451954,51.641265],[-3.45174,51.641017],[-3.451512,51.640814],[-3.451269,51.640656],[-3.451013,51.640542],[-3.450743,51.640474],[-3.45047,51.64038],[-3.450196,51.640262],[-3.44992,51.640119],[-3.449642,51.639951],[-3.449404,51.639778],[-3.449207,51.639598],[-3.44905,51.639413],[-3.448934,51.639222],[-3.448801,51.639067],[-3.448651,51.638948],[-3.448485,51.638865],[-3.448302,51.638818],[-3.448124,51.638777],[-3.447953,51.638742],[-3.447786,51.638714],[-3.447625,51.638692],[-3.447455,51.638674],[-3.447274,51.638661],[-3.447084,51.638652],[-3.446885,51.638648],[-3.446675,51.638664],[-3.446455,51.638701],[-3.446224,51.638758],[-3.445983,51.638836],[-3.445736,51.638948],[-3.445482,51.639093],[-3.445234,51.639263],[-3.444991,51.639456],[-3.444846,51.639531]]]}}