{"type":"Feature","properties":{"id":"417508","COMMUNE":"Derry City and Strabane","PROVINCE":"Derry City and Strabane","COUNTRY":"UK","FIREDATE":"2026-04-24 12:00:00","FINALDATE":"2026-04-24 13:59:00","CLASS":"FireSeason","areaHA_geo":22.714},"geometry":{"type":"Polygon","coordinates":[[[-7.031509,54.798956],[-7.031532,54.798963],[-7.031587,54.798982],[-7.031675,54.799013],[-7.031762,54.799057],[-7.03185,54.799114],[-7.031914,54.799189],[-7.031954,54.799283],[-7.031911,54.799345],[-7.031786,54.799375],[-7.031684,54.799385],[-7.031606,54.799374],[-7.031421,54.799413],[-7.03113,54.799502],[-7.030867,54.799574],[-7.030632,54.79963],[-7.030447,54.79969],[-7.030314,54.799755],[-7.030165,54.799845],[-7.030002,54.79996],[-7.029847,54.800089],[-7.0297,54.800231],[-7.029641,54.800383],[-7.02967,54.800544],[-7.029823,54.800788],[-7.030102,54.801116],[-7.030291,54.801486],[-7.030392,54.801897],[-7.030489,54.802232],[-7.030582,54.80249],[-7.030737,54.802669],[-7.030954,54.802769],[-7.031061,54.802821],[-7.031057,54.802825],[-7.031074,54.802931],[-7.031112,54.803137],[-7.031224,54.803378],[-7.031409,54.803654],[-7.031589,54.803939],[-7.031765,54.804232],[-7.031936,54.804534],[-7.032102,54.804844],[-7.032266,54.805142],[-7.032427,54.805428],[-7.032586,54.805701],[-7.032742,54.805962],[-7.032898,54.806241],[-7.033054,54.806541],[-7.03321,54.806859],[-7.033365,54.807197],[-7.033521,54.807517],[-7.033679,54.807819],[-7.033837,54.808103],[-7.033995,54.80837],[-7.034156,54.808582],[-7.034318,54.808739],[-7.034466,54.808837],[-7.0346,54.808875],[-7.034669,54.808901],[-7.034674,54.808915],[-7.034662,54.808965],[-7.034632,54.80905],[-7.034785,54.809078],[-7.035121,54.809047],[-7.035385,54.808981],[-7.035577,54.808878],[-7.035678,54.808794],[-7.035687,54.808728],[-7.03575,54.808622],[-7.035867,54.808476],[-7.036007,54.808329],[-7.036171,54.808182],[-7.036236,54.807873],[-7.036205,54.807402],[-7.036174,54.807109],[-7.036143,54.806994],[-7.036077,54.806871],[-7.035973,54.806739],[-7.035874,54.806602],[-7.035778,54.806458],[-7.0358,54.806358],[-7.035938,54.8063],[-7.036073,54.806214],[-7.036203,54.8061],[-7.036293,54.805972],[-7.036345,54.80583],[-7.036367,54.805699],[-7.03636,54.805578],[-7.036324,54.805467],[-7.036259,54.805367],[-7.036165,54.805273],[-7.036043,54.805184],[-7.035893,54.805101],[-7.035714,54.805023],[-7.035572,54.804976],[-7.035467,54.804961],[-7.03541,54.804934],[-7.035402,54.804897],[-7.035396,54.804821],[-7.035393,54.804706],[-7.035316,54.804587],[-7.035165,54.804462],[-7.034932,54.804267],[-7.034617,54.804001],[-7.034437,54.803823],[-7.034393,54.803734],[-7.034338,54.803603],[-7.03427,54.803431],[-7.034274,54.803292],[-7.034349,54.803186],[-7.034397,54.803036],[-7.034417,54.802842],[-7.0344,54.802715],[-7.034343,54.802654],[-7.034331,54.802599],[-7.034361,54.802551],[-7.034361,54.80245],[-7.03433,54.802296],[-7.034268,54.801996],[-7.034175,54.80155],[-7.034102,54.801239],[-7.034049,54.801061],[-7.033995,54.800915],[-7.033939,54.800801],[-7.033892,54.800704],[-7.033853,54.800623],[-7.033846,54.800491],[-7.03387,54.800306],[-7.033888,54.800173],[-7.0339,54.800092],[-7.033859,54.800024],[-7.033763,54.799967],[-7.033668,54.799906],[-7.033574,54.79984],[-7.033481,54.79977],[-7.03339,54.799695],[-7.033301,54.799617],[-7.033214,54.799535],[-7.033129,54.799449],[-7.033047,54.799359],[-7.032967,54.799271],[-7.032892,54.799185],[-7.03282,54.799101],[-7.032752,54.79902],[-7.032688,54.79894],[-7.032627,54.798863],[-7.03257,54.798788],[-7.032516,54.798715],[-7.032452,54.798652],[-7.032377,54.798602],[-7.03229,54.798562],[-7.032193,54.798533],[-7.032085,54.798515],[-7.031966,54.798508],[-7.031836,54.798513],[-7.031694,54.798528],[-7.031588,54.798569],[-7.031517,54.798636],[-7.031481,54.798729],[-7.03148,54.798848],[-7.031484,54.798919],[-7.031494,54.798941],[-7.031509,54.798956]]]}}