{"type":"Feature","properties":{"id":"417505","COMMUNE":"Newry, Mourne and Down","PROVINCE":"Newry, Mourne and Down","COUNTRY":"UK","FIREDATE":"2026-04-26 02:41:00","CLASS":"FireSeason","areaHA_geo":763.714},"geometry":{"type":"Polygon","coordinates":[[[-5.892549,54.155551],[-5.89267,54.155743],[-5.89277,54.155919],[-5.892849,54.156079],[-5.893059,54.156287],[-5.893399,54.156544],[-5.893916,54.156656],[-5.894609,54.156626],[-5.895079,54.156685],[-5.895326,54.156833],[-5.895604,54.156907],[-5.895914,54.156906],[-5.896352,54.156929],[-5.896921,54.156975],[-5.89732,54.157073],[-5.89755,54.157223],[-5.897719,54.157392],[-5.897826,54.157578],[-5.898115,54.157791],[-5.898586,54.15803],[-5.898883,54.158196],[-5.899006,54.158291],[-5.899024,54.158404],[-5.898938,54.158535],[-5.898827,54.158605],[-5.898693,54.158612],[-5.898539,54.158593],[-5.898365,54.158545],[-5.898212,54.15846],[-5.898078,54.158337],[-5.89775,54.1582],[-5.897226,54.158048],[-5.896892,54.157941],[-5.896748,54.15788],[-5.896627,54.1579],[-5.89653,54.158004],[-5.896548,54.158116],[-5.896681,54.158239],[-5.896871,54.15835],[-5.897115,54.158448],[-5.897348,54.158538],[-5.897569,54.158619],[-5.89773,54.158769],[-5.897832,54.158986],[-5.897904,54.159172],[-5.897947,54.159327],[-5.89795,54.159467],[-5.897913,54.159592],[-5.897834,54.159743],[-5.897713,54.159919],[-5.897622,54.160061],[-5.897561,54.160169],[-5.897488,54.160224],[-5.897402,54.160225],[-5.8973,54.160184],[-5.897181,54.160099],[-5.897036,54.159947],[-5.896865,54.159729],[-5.89669,54.159521],[-5.89651,54.159324],[-5.896394,54.159179],[-5.89634,54.159086],[-5.896122,54.158924],[-5.89574,54.158693],[-5.895212,54.158352],[-5.894537,54.157899],[-5.894001,54.157493],[-5.893603,54.157134],[-5.89322,54.156833],[-5.89285,54.156591],[-5.8924,54.156372],[-5.89187,54.156176],[-5.891513,54.15607],[-5.891328,54.156054],[-5.890521,54.156068],[-5.889092,54.156111],[-5.888071,54.156044],[-5.88746,54.155865],[-5.8871,54.15576],[-5.886993,54.155729],[-5.886922,54.155727],[-5.886887,54.155754],[-5.886825,54.155768],[-5.886737,54.15577],[-5.886566,54.155766],[-5.886312,54.155757],[-5.885976,54.155742],[-5.885557,54.155722],[-5.885161,54.155694],[-5.884788,54.155659],[-5.884439,54.155616],[-5.884113,54.155566],[-5.883849,54.155547],[-5.883647,54.155561],[-5.883482,54.155536],[-5.883353,54.155473],[-5.883156,54.155482],[-5.88289,54.155562],[-5.882649,54.155685],[-5.882431,54.15585],[-5.882269,54.156136],[-5.882161,54.156542],[-5.88212,54.156778],[-5.882146,54.156845],[-5.8822,54.156984],[-5.882281,54.157195],[-5.882333,54.157408],[-5.882354,54.157624],[-5.882295,54.157874],[-5.882155,54.158156],[-5.882073,54.158409],[-5.88205,54.15863],[-5.882029,54.158838],[-5.88201,54.159032],[-5.881913,54.159204],[-5.881737,54.159355],[-5.881639,54.159605],[-5.881618,54.159954],[-5.881572,54.160238],[-5.881501,54.160457],[-5.881355,54.160645],[-5.881134,54.160801],[-5.880898,54.160911],[-5.880646,54.160973],[-5.880521,54.161085],[-5.880522,54.161249],[-5.880534,54.161441],[-5.880557,54.161662],[-5.880501,54.161788],[-5.880366,54.161817],[-5.880234,54.161986],[-5.880104,54.162294],[-5.880084,54.162607],[-5.880176,54.162923],[-5.88039,54.163178],[-5.880725,54.16337],[-5.880895,54.163498],[-5.880897,54.163561],[-5.880888,54.163678],[-5.880866,54.163851],[-5.880829,54.164013],[-5.880777,54.164162],[-5.880718,54.164319],[-5.880652,54.164481],[-5.880608,54.164588],[-5.880584,54.164639],[-5.880595,54.164752],[-5.88064,54.164927],[-5.880707,54.165169],[-5.880795,54.165476],[-5.880719,54.165664],[-5.88048,54.165731],[-5.880282,54.165758],[-5.880127,54.165743],[-5.879883,54.16572],[-5.879552,54.165689],[-5.879186,54.165759],[-5.878783,54.165931],[-5.87862,54.166134],[-5.878696,54.16637],[-5.878763,54.166562],[-5.87882,54.166709],[-5.878953,54.166829],[-5.87916,54.16692],[-5.879484,54.166968],[-5.879926,54.166972],[-5.880216,54.166975],[-5.880355,54.166977],[-5.880587,54.167011],[-5.88091,54.167078],[-5.881105,54.167139],[-5.881174,54.167194],[-5.881351,54.167248],[-5.881638,54.167302],[-5.881993,54.167351],[-5.882417,54.167396],[-5.882736,54.167413],[-5.882951,54.167403],[-5.883157,54.167331],[-5.883355,54.167196],[-5.883599,54.166918],[-5.883888,54.166497],[-5.884275,54.166164],[-5.884758,54.165919],[-5.885295,54.165853],[-5.885886,54.165967],[-5.88622,54.166042],[-5.886297,54.166077],[-5.886357,54.166133],[-5.886403,54.166209],[-5.886426,54.166311],[-5.886429,54.166438],[-5.886408,54.166545],[-5.886364,54.166633],[-5.886322,54.166766],[-5.886282,54.166945],[-5.886304,54.167101],[-5.886388,54.167236],[-5.886522,54.167401],[-5.886707,54.167595],[-5.886936,54.167743],[-5.88721,54.167844],[-5.88742,54.167921],[-5.887566,54.167975],[-5.887615,54.168078],[-5.887569,54.16823],[-5.887555,54.168308],[-5.887575,54.168313],[-5.887576,54.168325],[-5.88756,54.168345],[-5.887559,54.16839],[-5.887574,54.16846],[-5.887757,54.168595],[-5.888107,54.168795],[-5.888389,54.168961],[-5.888602,54.169093],[-5.888772,54.169179],[-5.888899,54.16922],[-5.88898,54.169267],[-5.889013,54.169321],[-5.889097,54.169393],[-5.889232,54.169484],[-5.88936,54.169558],[-5.889481,54.169614],[-5.889523,54.169659],[-5.889487,54.169693],[-5.889322,54.1697],[-5.889029,54.169681],[-5.888817,54.1696],[-5.888688,54.169457],[-5.88849,54.169331],[-5.888224,54.169222],[-5.888026,54.16924],[-5.887897,54.169387],[-5.887871,54.169543],[-5.887947,54.169706],[-5.888117,54.169811],[-5.888383,54.169855],[-5.888508,54.169937],[-5.888492,54.170055],[-5.888428,54.170114],[-5.888316,54.170114],[-5.88816,54.170095],[-5.887958,54.170056],[-5.887746,54.170069],[-5.887523,54.170134],[-5.887344,54.170136],[-5.887208,54.170074],[-5.887121,54.169977],[-5.887082,54.169845],[-5.887063,54.16975],[-5.887066,54.169691],[-5.886948,54.169645],[-5.886712,54.169611],[-5.886454,54.169587],[-5.886175,54.169573],[-5.886019,54.169619],[-5.885986,54.169724],[-5.88602,54.169828],[-5.886122,54.169931],[-5.886258,54.170025],[-5.886428,54.170111],[-5.886553,54.17024],[-5.886631,54.17041],[-5.886679,54.170516],[-5.886695,54.170558],[-5.886784,54.170611],[-5.886946,54.170677],[-5.887123,54.170766],[-5.887316,54.170878],[-5.887427,54.170972],[-5.887456,54.171048],[-5.887595,54.171102],[-5.887844,54.171134],[-5.88811,54.171165],[-5.888394,54.171193],[-5.888558,54.17128],[-5.888603,54.171426],[-5.888782,54.171551],[-5.889095,54.171654],[-5.889647,54.171813],[-5.890439,54.172028],[-5.890974,54.172143],[-5.891252,54.172157],[-5.891517,54.172137],[-5.891769,54.172082],[-5.891896,54.171993],[-5.891898,54.17187],[-5.891787,54.171729],[-5.891564,54.17157],[-5.891474,54.171419],[-5.891518,54.171276],[-5.891687,54.171232],[-5.891982,54.171287],[-5.892371,54.17133],[-5.892854,54.171361],[-5.893523,54.171371],[-5.894375,54.171361],[-5.894999,54.171337],[-5.895394,54.1713],[-5.895682,54.171228],[-5.895862,54.171122],[-5.89604,54.171079],[-5.896213,54.171099],[-5.896377,54.171118],[-5.89653,54.171133],[-5.896632,54.171142],[-5.896681,54.171142],[-5.896829,54.171088],[-5.897075,54.170979],[-5.897419,54.170815],[-5.897862,54.170596],[-5.898159,54.170448],[-5.898309,54.170371],[-5.898546,54.17036],[-5.89887,54.170415],[-5.899296,54.170488],[-5.899825,54.170581],[-5.900249,54.170722],[-5.900569,54.170913],[-5.900924,54.171015],[-5.901314,54.171027],[-5.902219,54.170863],[-5.903641,54.170524],[-5.90462,54.170253],[-5.905156,54.170048],[-5.905714,54.169782],[-5.906295,54.169455],[-5.90671,54.169217],[-5.906959,54.169067],[-5.907101,54.168937],[-5.907134,54.168825],[-5.907192,54.168579],[-5.907276,54.168201],[-5.907615,54.167986],[-5.908211,54.167935],[-5.908594,54.167912],[-5.908765,54.167916],[-5.908998,54.167823],[-5.909293,54.167632],[-5.90944,54.167335],[-5.909439,54.166932],[-5.909454,54.166726],[-5.909485,54.166715],[-5.909491,54.166699],[-5.909473,54.166679],[-5.909672,54.166584],[-5.910087,54.166413],[-5.910363,54.16626],[-5.910498,54.166126],[-5.910566,54.165939],[-5.910567,54.1657],[-5.910726,54.165566],[-5.911044,54.165538],[-5.911384,54.165521],[-5.911746,54.165514],[-5.912115,54.165452],[-5.912492,54.165334],[-5.91287,54.165251],[-5.91325,54.165201],[-5.913823,54.165074],[-5.91459,54.164871],[-5.91534,54.164776],[-5.916073,54.164789],[-5.916531,54.164818],[-5.916713,54.164863],[-5.917045,54.164857],[-5.917528,54.164801],[-5.917957,54.164816],[-5.918332,54.164904],[-5.918601,54.164992],[-5.918764,54.16508],[-5.918837,54.165133],[-5.91882,54.165152],[-5.918786,54.165187],[-5.918738,54.165239],[-5.918592,54.165257],[-5.918351,54.16524],[-5.918161,54.165279],[-5.918021,54.165373],[-5.918015,54.165493],[-5.918143,54.165641],[-5.918308,54.165794],[-5.918511,54.165952],[-5.918755,54.166081],[-5.91904,54.16618],[-5.919364,54.166258],[-5.919726,54.166313],[-5.920039,54.166453],[-5.920303,54.166679],[-5.920481,54.166803],[-5.920572,54.166825],[-5.920692,54.166819],[-5.920841,54.166785],[-5.920926,54.166794],[-5.920946,54.166846],[-5.92111,54.166908],[-5.921417,54.166978],[-5.921699,54.167067],[-5.921956,54.167174],[-5.922312,54.167338],[-5.922766,54.16756],[-5.923075,54.1677],[-5.923238,54.16776],[-5.923716,54.167816],[-5.924511,54.167867],[-5.925077,54.167952],[-5.925415,54.16807],[-5.92578,54.168211],[-5.926174,54.168374],[-5.926528,54.168549],[-5.926842,54.168737],[-5.927122,54.1689],[-5.927366,54.169038],[-5.92754,54.169111],[-5.927645,54.169119],[-5.927788,54.16913],[-5.927972,54.169143],[-5.928126,54.169283],[-5.928253,54.169548],[-5.928323,54.169686],[-5.928337,54.169699],[-5.9284,54.169771],[-5.928513,54.169903],[-5.92849,54.170261],[-5.928331,54.170844],[-5.928205,54.171325],[-5.928111,54.171703],[-5.928061,54.171977],[-5.928054,54.172147],[-5.928319,54.17233],[-5.928855,54.172527],[-5.929392,54.172759],[-5.92993,54.173026],[-5.930268,54.173242],[-5.930405,54.173407],[-5.930695,54.173594],[-5.931139,54.173803],[-5.931596,54.174046],[-5.932066,54.174322],[-5.93238,54.174477],[-5.932539,54.174513],[-5.932725,54.174495],[-5.932939,54.174425],[-5.933165,54.174353],[-5.933402,54.17428],[-5.933871,54.174338],[-5.934573,54.174527],[-5.934943,54.174618],[-5.934982,54.174611],[-5.935051,54.174652],[-5.93515,54.17474],[-5.935193,54.174965],[-5.93518,54.175326],[-5.935189,54.175684],[-5.935221,54.176039],[-5.935226,54.176326],[-5.935204,54.176543],[-5.935039,54.176745],[-5.934732,54.176931],[-5.934527,54.177075],[-5.934425,54.177179],[-5.934397,54.177276],[-5.934444,54.177366],[-5.934699,54.177485],[-5.93516,54.177632],[-5.935704,54.177779],[-5.936331,54.177925],[-5.936868,54.178038],[-5.937315,54.178117],[-5.937924,54.178172],[-5.938696,54.178202],[-5.939354,54.178185],[-5.939899,54.178121],[-5.940543,54.177991],[-5.941287,54.177797],[-5.941826,54.177566],[-5.942162,54.177301],[-5.942414,54.177064],[-5.942582,54.176855],[-5.942836,54.176655],[-5.943178,54.176465],[-5.943498,54.176236],[-5.943797,54.175969],[-5.944093,54.175508],[-5.944383,54.174854],[-5.94454,54.174373],[-5.944563,54.174065],[-5.944603,54.173849],[-5.944661,54.173724],[-5.94462,54.173648],[-5.94448,54.173623],[-5.944451,54.17355],[-5.944535,54.173428],[-5.944577,54.173308],[-5.944578,54.173188],[-5.944381,54.172978],[-5.943987,54.172677],[-5.943729,54.172181],[-5.943606,54.17149],[-5.943581,54.17089],[-5.943654,54.17038],[-5.943741,54.170015],[-5.943843,54.169794],[-5.943796,54.169509],[-5.943599,54.169158],[-5.943541,54.168959],[-5.943624,54.16891],[-5.943677,54.168781],[-5.943702,54.168573],[-5.943724,54.168439],[-5.943744,54.168382],[-5.943772,54.168303],[-5.943808,54.168203],[-5.943827,54.168146],[-5.943831,54.168132],[-5.943852,54.16805],[-5.94389,54.167901],[-5.944005,54.167725],[-5.944196,54.167522],[-5.944395,54.167281],[-5.944602,54.167],[-5.944741,54.166814],[-5.944811,54.166723],[-5.944796,54.16664],[-5.944696,54.166564],[-5.944523,54.166488],[-5.944277,54.166413],[-5.944144,54.166373],[-5.944123,54.166366],[-5.944096,54.166304],[-5.944061,54.166185],[-5.944131,54.166063],[-5.944305,54.165938],[-5.944398,54.165873],[-5.944409,54.165867],[-5.944484,54.165834],[-5.944622,54.165771],[-5.944702,54.165708],[-5.944724,54.165643],[-5.944722,54.165562],[-5.944695,54.165462],[-5.944676,54.165406],[-5.944665,54.165392],[-5.944805,54.1651],[-5.945097,54.164528],[-5.945371,54.164239],[-5.945627,54.164232],[-5.945909,54.164245],[-5.946216,54.164278],[-5.946547,54.16425],[-5.946901,54.16416],[-5.947047,54.164061],[-5.946984,54.163953],[-5.946889,54.163858],[-5.946762,54.163777],[-5.94657,54.163729],[-5.946312,54.163713],[-5.94606,54.163716],[-5.945815,54.163736],[-5.94566,54.163721],[-5.945595,54.163673],[-5.945528,54.163623],[-5.945461,54.163573],[-5.945486,54.163417],[-5.945605,54.163157],[-5.945741,54.162991],[-5.945895,54.162922],[-5.946047,54.162853],[-5.946197,54.162784],[-5.946394,54.162645],[-5.946638,54.162435],[-5.946985,54.162233],[-5.947436,54.162039],[-5.947656,54.161863],[-5.947647,54.161705],[-5.947653,54.161505],[-5.947674,54.161263],[-5.947768,54.161073],[-5.947935,54.160935],[-5.94793,54.160828],[-5.947754,54.160753],[-5.947592,54.160689],[-5.947445,54.160634],[-5.947321,54.160541],[-5.947221,54.160408],[-5.947306,54.160318],[-5.947576,54.16027],[-5.947878,54.160197],[-5.948212,54.160097],[-5.948329,54.15991],[-5.948231,54.159636],[-5.948206,54.159374],[-5.948256,54.159125],[-5.948314,54.158918],[-5.948379,54.158753],[-5.948496,54.15862],[-5.948664,54.158517],[-5.948905,54.158437],[-5.949221,54.158381],[-5.949365,54.158296],[-5.949338,54.158183],[-5.949298,54.158047],[-5.949245,54.157888],[-5.94911,54.157787],[-5.948895,54.157745],[-5.948659,54.157695],[-5.948403,54.157638],[-5.948252,54.157571],[-5.948207,54.157493],[-5.948217,54.157429],[-5.948284,54.157378],[-5.948411,54.157349],[-5.948599,54.157342],[-5.948781,54.157318],[-5.948956,54.157278],[-5.949156,54.15717],[-5.949382,54.156995],[-5.949724,54.156723],[-5.950183,54.156354],[-5.950397,54.156094],[-5.950368,54.155944],[-5.950291,54.155616],[-5.950167,54.155109],[-5.950058,54.154717],[-5.949964,54.154438],[-5.949873,54.154129],[-5.949784,54.153789],[-5.949671,54.1535],[-5.949534,54.153261],[-5.949337,54.152927],[-5.949082,54.152498],[-5.94895,54.152254],[-5.948942,54.152195],[-5.948763,54.152077],[-5.948415,54.1519],[-5.948166,54.151731],[-5.948015,54.151571],[-5.947823,54.151532],[-5.947591,54.151614],[-5.947424,54.151658],[-5.947323,54.151662],[-5.94705,54.151527],[-5.946605,54.151251],[-5.94628,54.15108],[-5.946078,54.151012],[-5.945719,54.151016],[-5.945205,54.151093],[-5.944805,54.151252],[-5.944518,54.151496],[-5.944221,54.151864],[-5.943914,54.152359],[-5.943649,54.152715],[-5.943425,54.152933],[-5.94337,54.153261],[-5.943482,54.153701],[-5.9437,54.154088],[-5.944021,54.154422],[-5.944293,54.154686],[-5.944516,54.15488],[-5.944822,54.155062],[-5.945212,54.155234],[-5.945544,54.155387],[-5.945817,54.155523],[-5.946115,54.15574],[-5.946438,54.156041],[-5.946672,54.156301],[-5.946817,54.156522],[-5.947026,54.1567],[-5.947299,54.156836],[-5.947437,54.15698],[-5.947438,54.157134],[-5.947481,54.15726],[-5.947567,54.157357],[-5.947557,54.157427],[-5.947451,54.157471],[-5.947359,54.157601],[-5.947279,54.157818],[-5.947109,54.157982],[-5.946849,54.158092],[-5.946681,54.158182],[-5.946605,54.158253],[-5.946573,54.158383],[-5.946587,54.158573],[-5.946555,54.158703],[-5.946479,54.158774],[-5.946242,54.158853],[-5.945843,54.15894],[-5.945607,54.159016],[-5.945532,54.15908],[-5.94537,54.15911],[-5.945121,54.159106],[-5.944734,54.159145],[-5.944208,54.159227],[-5.943943,54.159301],[-5.943938,54.15937],[-5.943909,54.159544],[-5.943857,54.159825],[-5.943821,54.159962],[-5.943801,54.159954],[-5.943637,54.15989],[-5.943327,54.159772],[-5.942991,54.159678],[-5.942628,54.159609],[-5.942383,54.159574],[-5.942256,54.159572],[-5.942097,54.159596],[-5.941906,54.159646],[-5.941682,54.159733],[-5.941426,54.159859],[-5.941108,54.160014],[-5.940728,54.160199],[-5.940318,54.160415],[-5.939879,54.160663],[-5.939575,54.160881],[-5.939406,54.161068],[-5.939426,54.161348],[-5.939633,54.161719],[-5.939736,54.161997],[-5.939735,54.162181],[-5.939735,54.162327],[-5.939737,54.162436],[-5.939585,54.162672],[-5.939281,54.163033],[-5.938906,54.163442],[-5.938461,54.163897],[-5.938076,54.164275],[-5.93775,54.164577],[-5.937577,54.164736],[-5.937558,54.164754],[-5.937543,54.164763],[-5.937532,54.164765],[-5.937445,54.164841],[-5.937281,54.164993],[-5.937182,54.165115],[-5.937148,54.165209],[-5.936948,54.165291],[-5.936583,54.165363],[-5.936339,54.16546],[-5.936216,54.165581],[-5.93601,54.165689],[-5.935721,54.165786],[-5.93535,54.16593],[-5.934897,54.166121],[-5.934535,54.166257],[-5.934264,54.166336],[-5.933982,54.166322],[-5.933689,54.166214],[-5.933568,54.166098],[-5.93362,54.165974],[-5.933919,54.165839],[-5.934466,54.165694],[-5.934712,54.165552],[-5.934658,54.165413],[-5.934547,54.165193],[-5.93438,54.164893],[-5.934416,54.164631],[-5.934656,54.164409],[-5.934623,54.16426],[-5.934317,54.164183],[-5.933822,54.164138],[-5.933138,54.164125],[-5.932546,54.164122],[-5.932046,54.164129],[-5.931547,54.164041],[-5.931048,54.163858],[-5.930731,54.163657],[-5.930596,54.163441],[-5.9306,54.163189],[-5.930743,54.162904],[-5.930726,54.162745],[-5.930549,54.162712],[-5.930545,54.162652],[-5.930715,54.162566],[-5.930847,54.162394],[-5.930941,54.162137],[-5.930979,54.161779],[-5.930961,54.16132],[-5.930904,54.160946],[-5.930808,54.160658],[-5.930721,54.160476],[-5.930644,54.160402],[-5.930494,54.160431],[-5.930271,54.160564],[-5.930022,54.160794],[-5.929746,54.161122],[-5.929391,54.161413],[-5.928958,54.161668],[-5.92862,54.161858],[-5.928379,54.161984],[-5.928157,54.162089],[-5.927954,54.162175],[-5.927711,54.162277],[-5.927429,54.162397],[-5.927123,54.162407],[-5.926794,54.162309],[-5.926562,54.162189],[-5.926426,54.162047],[-5.926424,54.16195],[-5.926557,54.161898],[-5.926648,54.161863],[-5.926697,54.161844],[-5.926749,54.161779],[-5.926803,54.161668],[-5.926789,54.161571],[-5.926708,54.161488],[-5.926324,54.161435],[-5.925637,54.161412],[-5.925294,54.1614],[-5.925294,54.1614],[-5.925094,54.16133],[-5.924696,54.161188],[-5.924394,54.16105],[-5.924188,54.160916],[-5.92419,54.160796],[-5.924402,54.16069],[-5.924388,54.160374],[-5.924148,54.159848],[-5.923923,54.159381],[-5.923711,54.158973],[-5.923639,54.158653],[-5.923705,54.158421],[-5.923743,54.158295],[-5.923752,54.158273],[-5.92375,54.158254],[-5.923737,54.158238],[-5.923964,54.158079],[-5.92443,54.157779],[-5.924741,54.157566],[-5.924897,54.157439],[-5.925064,54.157233],[-5.925242,54.156947],[-5.925297,54.156696],[-5.925227,54.156479],[-5.92518,54.156327],[-5.925154,54.156242],[-5.925083,54.156196],[-5.924966,54.156189],[-5.924854,54.156343],[-5.924749,54.156659],[-5.924687,54.156871],[-5.924669,54.15698],[-5.924569,54.157124],[-5.924387,54.157304],[-5.924119,54.157465],[-5.923764,54.15761],[-5.923549,54.157724],[-5.923473,54.15781],[-5.923412,54.157821],[-5.923364,54.15776],[-5.92322,54.157834],[-5.92298,54.158045],[-5.922824,54.158137],[-5.92275,54.158111],[-5.922635,54.158046],[-5.922481,54.157942],[-5.92237,54.157883],[-5.922304,54.15787],[-5.922141,54.157882],[-5.921882,54.157921],[-5.921726,54.157966],[-5.921672,54.158017],[-5.92133,54.158114],[-5.920698,54.158259],[-5.920233,54.158219],[-5.919936,54.157994],[-5.919807,54.15787],[-5.919847,54.157845],[-5.919927,54.157751],[-5.920047,54.157589],[-5.920238,54.157493],[-5.9205,54.157463],[-5.920751,54.157432],[-5.92099,54.157401],[-5.92123,54.157341],[-5.921469,54.157251],[-5.921551,54.157119],[-5.921474,54.156942],[-5.921336,54.156832],[-5.921136,54.156787],[-5.920838,54.156775],[-5.920442,54.156796],[-5.920126,54.156746],[-5.919889,54.156626],[-5.91976,54.156481],[-5.919739,54.156311],[-5.91986,54.156179],[-5.920121,54.156087],[-5.920451,54.155918],[-5.920849,54.15567],[-5.921078,54.155496],[-5.921138,54.155395],[-5.921217,54.155284],[-5.921315,54.155164],[-5.921497,54.155075],[-5.921761,54.155019],[-5.922002,54.154913],[-5.922221,54.154757],[-5.922433,54.154616],[-5.922638,54.15449],[-5.92275,54.154309],[-5.922767,54.154073],[-5.922814,54.153865],[-5.922889,54.153686],[-5.923112,54.153494],[-5.923481,54.15329],[-5.9237,54.153088],[-5.923768,54.152888],[-5.923748,54.152682],[-5.923641,54.152469],[-5.923468,54.152305],[-5.923228,54.152187],[-5.922994,54.152133],[-5.922767,54.152142],[-5.922615,54.152218],[-5.922538,54.152363],[-5.922296,54.15249],[-5.92189,54.1526],[-5.921536,54.152547],[-5.921234,54.152332],[-5.920996,54.152127],[-5.920822,54.15193],[-5.920826,54.151629],[-5.921008,54.151223],[-5.921062,54.150926],[-5.920989,54.150737],[-5.92071,54.150583],[-5.920226,54.150462],[-5.919641,54.150362],[-5.918955,54.150283],[-5.918464,54.150237],[-5.918169,54.150227],[-5.917809,54.150299],[-5.917384,54.150453],[-5.917044,54.150625],[-5.91679,54.150814],[-5.916527,54.151012],[-5.916255,54.151217],[-5.916161,54.151396],[-5.916244,54.151547],[-5.916397,54.151658],[-5.916618,54.151728],[-5.916802,54.15181],[-5.916948,54.151904],[-5.91706,54.152021],[-5.917138,54.152159],[-5.917164,54.152258],[-5.917139,54.152318],[-5.917114,54.152376],[-5.917089,54.152431],[-5.917053,54.15251],[-5.917006,54.152613],[-5.916962,54.15272],[-5.91692,54.152831],[-5.916745,54.152911],[-5.916436,54.152958],[-5.916089,54.152954],[-5.915703,54.152899],[-5.915587,54.152787],[-5.915739,54.152618],[-5.915854,54.152476],[-5.91593,54.15236],[-5.915953,54.152248],[-5.915923,54.152141],[-5.915809,54.152096],[-5.915609,54.152113],[-5.91538,54.152099],[-5.91512,54.152056],[-5.91493,54.151957],[-5.914809,54.151803],[-5.914646,54.151679],[-5.91444,54.151586],[-5.914323,54.151396],[-5.914296,54.15111],[-5.914078,54.150859],[-5.913666,54.150644],[-5.913314,54.150471],[-5.91302,54.15034],[-5.912698,54.150276],[-5.912347,54.150279],[-5.912096,54.150213],[-5.911944,54.150078],[-5.91179,54.149983],[-5.911635,54.149929],[-5.911638,54.149784],[-5.911799,54.149551],[-5.911922,54.149374],[-5.912006,54.149255],[-5.912042,54.149166],[-5.912031,54.149109],[-5.912022,54.149061],[-5.912015,54.149023],[-5.911927,54.148873],[-5.91176,54.148612],[-5.91157,54.148351],[-5.911357,54.148091],[-5.911145,54.147833],[-5.910933,54.147578],[-5.91078,54.147413],[-5.910686,54.147338],[-5.910454,54.147173],[-5.910083,54.146916],[-5.909868,54.146675],[-5.909808,54.146449],[-5.909702,54.146295],[-5.90955,54.146212],[-5.909485,54.146143],[-5.909506,54.146087],[-5.909489,54.145856],[-5.909434,54.14545],[-5.909308,54.145179],[-5.909111,54.145043],[-5.908938,54.144849],[-5.908789,54.144599],[-5.908522,54.144203],[-5.908136,54.14366],[-5.90803,54.143269],[-5.908205,54.14303],[-5.908101,54.142816],[-5.907719,54.142626],[-5.907469,54.142532],[-5.907351,54.142531],[-5.907302,54.142445],[-5.907321,54.142272],[-5.907343,54.142108],[-5.90737,54.141953],[-5.907416,54.141805],[-5.907483,54.141665],[-5.907442,54.141504],[-5.907293,54.141321],[-5.907228,54.141098],[-5.907246,54.140833],[-5.907234,54.14067],[-5.907194,54.14061],[-5.907115,54.140552],[-5.906998,54.140496],[-5.906882,54.140489],[-5.906768,54.140529],[-5.906648,54.140653],[-5.906521,54.140862],[-5.906413,54.141008],[-5.906324,54.14109],[-5.906106,54.141209],[-5.90576,54.141366],[-5.905526,54.141399],[-5.905404,54.141309],[-5.905285,54.141236],[-5.905168,54.141181],[-5.905062,54.141164],[-5.904967,54.141187],[-5.904937,54.141267],[-5.904973,54.141403],[-5.904989,54.141545],[-5.904986,54.141692],[-5.904936,54.14182],[-5.90484,54.141929],[-5.904724,54.142009],[-5.904589,54.142062],[-5.904323,54.142115],[-5.903928,54.142167],[-5.903481,54.142187],[-5.902983,54.142177],[-5.902538,54.142167],[-5.902144,54.142158],[-5.901755,54.142227],[-5.901371,54.142373],[-5.90119,54.142488],[-5.901214,54.142571],[-5.901311,54.142687],[-5.901481,54.142836],[-5.901681,54.142936],[-5.901908,54.142987],[-5.902064,54.142964],[-5.902147,54.142867],[-5.902407,54.142768],[-5.902844,54.142665],[-5.903166,54.142613],[-5.903373,54.142611],[-5.903507,54.142676],[-5.903567,54.142809],[-5.903427,54.142932],[-5.903087,54.143044],[-5.902865,54.143137],[-5.90276,54.143211],[-5.902635,54.143365],[-5.90249,54.1436],[-5.902174,54.143857],[-5.901686,54.144137],[-5.901392,54.144319],[-5.901292,54.144404],[-5.901433,54.144542],[-5.901815,54.144731],[-5.902115,54.144857],[-5.902334,54.144918],[-5.902488,54.144997],[-5.902577,54.145093],[-5.902552,54.145186],[-5.902412,54.145276],[-5.902057,54.145368],[-5.901487,54.145461],[-5.901204,54.145528],[-5.90121,54.145569],[-5.901125,54.145772],[-5.900948,54.146137],[-5.900864,54.146385],[-5.900874,54.146515],[-5.900761,54.146596],[-5.900527,54.146627],[-5.900265,54.146682],[-5.899978,54.146761],[-5.899714,54.146916],[-5.899474,54.147145],[-5.899264,54.147371],[-5.899083,54.147592],[-5.898901,54.147748],[-5.89872,54.147837],[-5.898368,54.148015],[-5.897845,54.148282],[-5.897499,54.148504],[-5.897332,54.148682],[-5.897238,54.148916],[-5.897217,54.149206],[-5.897247,54.149376],[-5.897328,54.149426],[-5.897456,54.149491],[-5.89763,54.149574],[-5.897793,54.149651],[-5.897947,54.149724],[-5.898044,54.149772],[-5.898084,54.149797],[-5.898137,54.149853],[-5.898202,54.149941],[-5.898188,54.150011],[-5.898096,54.150065],[-5.897886,54.150103],[-5.897559,54.150124],[-5.897271,54.150057],[-5.897025,54.149901],[-5.896764,54.149746],[-5.89649,54.14959],[-5.896204,54.149445],[-5.895905,54.149312],[-5.895621,54.149277],[-5.89535,54.149342],[-5.89499,54.149494],[-5.894542,54.149735],[-5.894207,54.150014],[-5.893984,54.15033],[-5.893895,54.150614],[-5.893937,54.150865],[-5.893969,54.151052],[-5.89399,54.151176],[-5.893964,54.151377],[-5.893892,54.151655],[-5.893737,54.151977],[-5.893502,54.152343],[-5.893304,54.15268],[-5.893145,54.152989],[-5.893054,54.153221],[-5.893033,54.153377],[-5.892889,54.153955],[-5.892622,54.154955],[-5.892549,54.155551]]]}}