{"type":"Feature","properties":{"id":"417506","COMMUNE":"Newry, Mourne and Down","PROVINCE":"Newry, Mourne and Down","COUNTRY":"UK","FIREDATE":"2026-04-26 02:41:00","FINALDATE":"2026-04-27 02:41:00","CLASS":"FireSeason","areaHA_geo":1468.133},"geometry":{"type":"Polygon","coordinates":[[[-6.098082,54.166439],[-6.09786,54.166566],[-6.097617,54.167],[-6.097353,54.167742],[-6.097253,54.168174],[-6.097317,54.168297],[-6.09732,54.168414],[-6.097262,54.168525],[-6.097113,54.168884],[-6.096872,54.169492],[-6.096701,54.170044],[-6.096598,54.17054],[-6.096592,54.171154],[-6.096681,54.171886],[-6.096867,54.172735],[-6.097149,54.173702],[-6.097616,54.174488],[-6.098268,54.175092],[-6.098854,54.175455],[-6.099373,54.175577],[-6.099785,54.175719],[-6.100091,54.175881],[-6.10058,54.176072],[-6.10125,54.176292],[-6.101794,54.176503],[-6.10221,54.176706],[-6.102651,54.176905],[-6.103118,54.177101],[-6.103459,54.177246],[-6.103673,54.177342],[-6.104104,54.177537],[-6.104752,54.177833],[-6.10518,54.178111],[-6.105389,54.178372],[-6.105634,54.178432],[-6.105915,54.178292],[-6.106086,54.178181],[-6.106148,54.178098],[-6.106188,54.178061],[-6.106206,54.178068],[-6.106375,54.178115],[-6.106693,54.178202],[-6.106884,54.178307],[-6.106945,54.17843],[-6.107325,54.178522],[-6.108022,54.178584],[-6.108718,54.178554],[-6.109412,54.178431],[-6.110138,54.178185],[-6.110895,54.177816],[-6.111574,54.177474],[-6.112175,54.177157],[-6.112476,54.176981],[-6.112479,54.176948],[-6.112545,54.176898],[-6.112676,54.176832],[-6.112902,54.176713],[-6.113223,54.17654],[-6.113456,54.176405],[-6.1136,54.176309],[-6.113653,54.176191],[-6.113615,54.176051],[-6.113485,54.17589],[-6.113263,54.175707],[-6.113052,54.175541],[-6.112852,54.175391],[-6.112662,54.175259],[-6.112483,54.175144],[-6.112398,54.175034],[-6.112407,54.174928],[-6.112512,54.174826],[-6.112711,54.174729],[-6.112843,54.174636],[-6.112908,54.174547],[-6.112906,54.174462],[-6.112837,54.174382],[-6.112803,54.174292],[-6.112804,54.174194],[-6.11284,54.174087],[-6.11291,54.173972],[-6.113021,54.173905],[-6.113174,54.173888],[-6.113329,54.173907],[-6.113487,54.173961],[-6.113591,54.174104],[-6.113639,54.174333],[-6.114031,54.174528],[-6.114766,54.174688],[-6.115286,54.174692],[-6.115591,54.174539],[-6.115949,54.174413],[-6.116359,54.174314],[-6.116962,54.173982],[-6.117759,54.173417],[-6.118734,54.172623],[-6.119889,54.171601],[-6.120842,54.170689],[-6.121595,54.169889],[-6.122148,54.1692],[-6.1225,54.168622],[-6.122881,54.167982],[-6.123292,54.167281],[-6.123732,54.166517],[-6.124202,54.165692],[-6.124502,54.165046],[-6.124632,54.164579],[-6.124594,54.164292],[-6.124385,54.164185],[-6.124136,54.164078],[-6.123845,54.163972],[-6.123514,54.163866],[-6.123141,54.163761],[-6.122839,54.163647],[-6.122608,54.163523],[-6.122447,54.16339],[-6.122358,54.163247],[-6.122222,54.163154],[-6.122039,54.163111],[-6.121809,54.163117],[-6.121533,54.163173],[-6.121301,54.163232],[-6.121112,54.163292],[-6.120967,54.163355],[-6.120865,54.163421],[-6.120786,54.163468],[-6.12073,54.163497],[-6.120695,54.163507],[-6.120683,54.163499],[-6.120621,54.163545],[-6.120509,54.163646],[-6.120346,54.163799],[-6.120134,54.164007],[-6.119909,54.164186],[-6.119672,54.164337],[-6.119422,54.164458],[-6.119161,54.164551],[-6.118854,54.164676],[-6.118502,54.164834],[-6.118105,54.165024],[-6.117662,54.165247],[-6.117258,54.165463],[-6.116893,54.165671],[-6.116566,54.165871],[-6.116278,54.166064],[-6.115885,54.166244],[-6.115387,54.166411],[-6.114785,54.166566],[-6.114079,54.166708],[-6.113483,54.166826],[-6.112998,54.166919],[-6.112624,54.166989],[-6.11236,54.167033],[-6.112123,54.167065],[-6.111915,54.167083],[-6.111735,54.167087],[-6.111582,54.167079],[-6.111428,54.167036],[-6.111274,54.16696],[-6.111119,54.16685],[-6.110963,54.166707],[-6.110837,54.166545],[-6.110741,54.166365],[-6.110675,54.166166],[-6.110639,54.165948],[-6.110567,54.165745],[-6.11046,54.165557],[-6.110316,54.165383],[-6.110137,54.165223],[-6.110064,54.165069],[-6.110096,54.164919],[-6.110234,54.164776],[-6.110478,54.164637],[-6.110706,54.164532],[-6.110918,54.16446],[-6.111114,54.164422],[-6.111294,54.164418],[-6.111619,54.164411],[-6.112088,54.164402],[-6.1127,54.16439],[-6.113457,54.164377],[-6.114115,54.164352],[-6.114672,54.164317],[-6.11513,54.16427],[-6.115489,54.164213],[-6.115812,54.164151],[-6.116101,54.164083],[-6.116354,54.164011],[-6.116572,54.163934],[-6.116809,54.163864],[-6.117066,54.163801],[-6.117342,54.163745],[-6.117638,54.163696],[-6.117898,54.163639],[-6.118121,54.163576],[-6.118309,54.163505],[-6.11846,54.163427],[-6.118577,54.163315],[-6.11866,54.163169],[-6.118709,54.162988],[-6.118724,54.162774],[-6.118735,54.162613],[-6.118743,54.162505],[-6.118747,54.16245],[-6.118747,54.162449],[-6.118717,54.16244],[-6.118657,54.162424],[-6.118567,54.1624],[-6.118447,54.162369],[-6.11835,54.162319],[-6.118277,54.162249],[-6.118227,54.16216],[-6.118201,54.162052],[-6.11816,54.161925],[-6.118106,54.16178],[-6.118038,54.161617],[-6.117957,54.161435],[-6.117871,54.161258],[-6.117783,54.161084],[-6.117691,54.160915],[-6.117596,54.160749],[-6.117497,54.160588],[-6.117395,54.160431],[-6.11729,54.160278],[-6.117181,54.160129],[-6.117097,54.159978],[-6.11704,54.159825],[-6.117007,54.159671],[-6.117001,54.159514],[-6.117019,54.159355],[-6.117064,54.159195],[-6.117133,54.159032],[-6.117229,54.158868],[-6.117291,54.158695],[-6.117319,54.158513],[-6.117314,54.158323],[-6.117275,54.158123],[-6.117203,54.157916],[-6.117098,54.157699],[-6.116959,54.157474],[-6.116787,54.15724],[-6.116606,54.157004],[-6.116417,54.156767],[-6.11622,54.156527],[-6.116015,54.156286],[-6.115801,54.156043],[-6.11558,54.155798],[-6.11535,54.155552],[-6.115111,54.155303],[-6.114896,54.155074],[-6.114703,54.154865],[-6.114533,54.154675],[-6.114386,54.154505],[-6.114262,54.154355],[-6.11416,54.154224],[-6.114081,54.154112],[-6.114025,54.154021],[-6.114029,54.153898],[-6.114093,54.153743],[-6.114217,54.153557],[-6.114402,54.15334],[-6.114647,54.153092],[-6.114952,54.152812],[-6.115317,54.152501],[-6.115743,54.152158],[-6.116127,54.151828],[-6.116469,54.151509],[-6.11677,54.151203],[-6.11703,54.150909],[-6.117247,54.150627],[-6.117424,54.150357],[-6.117558,54.150099],[-6.117652,54.149853],[-6.117707,54.14962],[-6.117725,54.149398],[-6.117705,54.149189],[-6.117648,54.148993],[-6.117552,54.148808],[-6.11742,54.148636],[-6.117249,54.148477],[-6.117041,54.148329],[-6.116817,54.148185],[-6.116579,54.148045],[-6.116326,54.147908],[-6.116058,54.147774],[-6.115775,54.147644],[-6.115478,54.147517],[-6.115165,54.147394],[-6.114837,54.147274],[-6.114554,54.147179],[-6.114316,54.147108],[-6.114121,54.147061],[-6.113972,54.147039],[-6.11387,54.146988],[-6.113818,54.146909],[-6.113813,54.1468],[-6.113858,54.146663],[-6.113867,54.146547],[-6.113841,54.146452],[-6.113781,54.146378],[-6.113685,54.146324],[-6.113606,54.146246],[-6.113544,54.146143],[-6.113498,54.146016],[-6.113469,54.145865],[-6.113444,54.145701],[-6.113425,54.145526],[-6.11341,54.145339],[-6.1134,54.145141],[-6.113367,54.144881],[-6.113309,54.14456],[-6.113226,54.144178],[-6.11312,54.143735],[-6.112983,54.143362],[-6.112814,54.14306],[-6.112615,54.142829],[-6.112384,54.142669],[-6.112157,54.142529],[-6.111935,54.14241],[-6.111717,54.142311],[-6.111503,54.142233],[-6.111314,54.142154],[-6.11115,54.142076],[-6.111011,54.141998],[-6.110896,54.14192],[-6.110804,54.141806],[-6.110733,54.141655],[-6.110684,54.141469],[-6.110657,54.141246],[-6.11068,54.141081],[-6.110752,54.140973],[-6.110873,54.140924],[-6.111044,54.140932],[-6.111201,54.140934],[-6.111343,54.140928],[-6.111472,54.140915],[-6.111586,54.140896],[-6.111681,54.140868],[-6.111758,54.140831],[-6.111816,54.140785],[-6.111856,54.140731],[-6.111912,54.140685],[-6.111984,54.140646],[-6.112073,54.140616],[-6.112178,54.140593],[-6.112282,54.14061],[-6.112385,54.140668],[-6.112486,54.140765],[-6.112586,54.140903],[-6.112691,54.141023],[-6.1128,54.141126],[-6.112914,54.141212],[-6.113033,54.141281],[-6.113157,54.141347],[-6.113289,54.141409],[-6.113426,54.141469],[-6.113571,54.141525],[-6.113721,54.141574],[-6.113878,54.141615],[-6.114042,54.141649],[-6.114212,54.141675],[-6.114375,54.141696],[-6.114531,54.14171],[-6.114678,54.141719],[-6.114819,54.141723],[-6.11496,54.141726],[-6.115102,54.141729],[-6.115246,54.141732],[-6.11539,54.141736],[-6.115543,54.141713],[-6.115706,54.141665],[-6.115878,54.141591],[-6.11606,54.141492],[-6.116251,54.141363],[-6.116452,54.141205],[-6.116662,54.141019],[-6.116881,54.140803],[-6.117078,54.140607],[-6.117252,54.14043],[-6.117404,54.140274],[-6.117533,54.140137],[-6.117628,54.140027],[-6.11769,54.139944],[-6.117718,54.139888],[-6.117713,54.13986],[-6.117751,54.139808],[-6.117834,54.139733],[-6.117959,54.139635],[-6.118129,54.139514],[-6.118288,54.139426],[-6.118437,54.13937],[-6.118575,54.139348],[-6.118702,54.13936],[-6.1189,54.139361],[-6.119169,54.139353],[-6.119509,54.139335],[-6.11992,54.139308],[-6.120349,54.139267],[-6.120796,54.139213],[-6.121262,54.139146],[-6.121745,54.139065],[-6.122158,54.138958],[-6.122499,54.138826],[-6.122769,54.138667],[-6.122968,54.138482],[-6.123164,54.138291],[-6.123357,54.138093],[-6.123549,54.137888],[-6.123737,54.137678],[-6.123903,54.137479],[-6.124045,54.137294],[-6.124164,54.137121],[-6.12426,54.13696],[-6.124366,54.136813],[-6.124481,54.136677],[-6.124606,54.136554],[-6.12474,54.136443],[-6.124838,54.1363],[-6.1249,54.136125],[-6.124926,54.135918],[-6.124916,54.135679],[-6.124902,54.135482],[-6.124882,54.135326],[-6.124858,54.135212],[-6.12483,54.135139],[-6.124798,54.135076],[-6.124763,54.135023],[-6.124726,54.134979],[-6.124685,54.134946],[-6.124725,54.134881],[-6.124846,54.134785],[-6.125047,54.134657],[-6.125329,54.134499],[-6.125615,54.13434],[-6.125904,54.13418],[-6.126197,54.13402],[-6.126494,54.13386],[-6.126787,54.133704],[-6.127074,54.133553],[-6.127356,54.133407],[-6.127634,54.133265],[-6.127839,54.133111],[-6.127972,54.132946],[-6.128033,54.13277],[-6.128022,54.132582],[-6.128145,54.132368],[-6.128401,54.132126],[-6.12879,54.131857],[-6.129313,54.131562],[-6.129929,54.131279],[-6.130638,54.131009],[-6.131439,54.130751],[-6.132334,54.130506],[-6.133089,54.130263],[-6.133707,54.130024],[-6.134185,54.129786],[-6.134525,54.129552],[-6.134831,54.129335],[-6.135104,54.129136],[-6.135343,54.128954],[-6.135549,54.128791],[-6.135881,54.128524],[-6.136339,54.128156],[-6.136923,54.127685],[-6.137634,54.127113],[-6.138179,54.126659],[-6.138557,54.126326],[-6.138769,54.126113],[-6.138814,54.126019],[-6.138872,54.125941],[-6.138944,54.125878],[-6.139028,54.125831],[-6.139125,54.125799],[-6.139192,54.125766],[-6.139227,54.125732],[-6.139232,54.125697],[-6.139207,54.12566],[-6.139218,54.125595],[-6.139266,54.125501],[-6.139352,54.125379],[-6.139475,54.125228],[-6.139617,54.125085],[-6.139779,54.124949],[-6.139961,54.12482],[-6.140162,54.124698],[-6.140379,54.124599],[-6.140613,54.124523],[-6.140863,54.12447],[-6.141129,54.124441],[-6.141374,54.124442],[-6.141599,54.124475],[-6.141803,54.124539],[-6.141987,54.124634],[-6.142145,54.124716],[-6.142277,54.124785],[-6.142385,54.124841],[-6.142467,54.124884],[-6.142599,54.124957],[-6.142783,54.12506],[-6.143017,54.125193],[-6.143302,54.125356],[-6.143544,54.125521],[-6.143744,54.125687],[-6.143902,54.125855],[-6.144016,54.126024],[-6.144107,54.126181],[-6.144174,54.126326],[-6.144217,54.126459],[-6.144236,54.126579],[-6.14431,54.126664],[-6.14444,54.126714],[-6.144625,54.126729],[-6.144866,54.126708],[-6.145141,54.12665],[-6.145449,54.126556],[-6.14579,54.126425],[-6.146165,54.126258],[-6.146492,54.12611],[-6.146772,54.12598],[-6.147004,54.125869],[-6.147188,54.125778],[-6.14733,54.125702],[-6.147431,54.125641],[-6.14749,54.125595],[-6.147506,54.125565],[-6.147492,54.125522],[-6.147446,54.125467],[-6.147369,54.125399],[-6.14726,54.125318],[-6.14711,54.125253],[-6.146918,54.125203],[-6.146684,54.125168],[-6.146408,54.125149],[-6.146156,54.125142],[-6.145928,54.125148],[-6.145724,54.125165],[-6.145544,54.125195],[-6.145452,54.12518],[-6.145448,54.125122],[-6.145532,54.12502],[-6.145705,54.124874],[-6.145951,54.124696],[-6.14627,54.124485],[-6.146663,54.124243],[-6.14713,54.123968],[-6.147706,54.123618],[-6.14839,54.123191],[-6.149184,54.122688],[-6.150086,54.122109],[-6.150895,54.121493],[-6.151609,54.120839],[-6.15223,54.120146],[-6.152756,54.119416],[-6.153107,54.118869],[-6.153284,54.118504],[-6.153285,54.118322],[-6.153112,54.118322],[-6.153012,54.118303],[-6.152986,54.118266],[-6.153034,54.118209],[-6.153156,54.118133],[-6.153242,54.118016],[-6.153292,54.117859],[-6.153307,54.11766],[-6.153285,54.117421],[-6.153192,54.117161],[-6.153026,54.11688],[-6.152788,54.116579],[-6.152478,54.116257],[-6.152136,54.115957],[-6.151764,54.115679],[-6.151361,54.115423],[-6.150927,54.115189],[-6.150581,54.114995],[-6.150325,54.11484],[-6.150158,54.114725],[-6.150079,54.11465],[-6.149875,54.114588],[-6.149544,54.11454],[-6.149088,54.114505],[-6.148505,54.114482],[-6.147907,54.114466],[-6.147292,54.114455],[-6.146661,54.11445],[-6.146015,54.114451],[-6.145364,54.11441],[-6.144708,54.114326],[-6.144048,54.1142],[-6.143384,54.114032],[-6.142714,54.113837],[-6.14204,54.113613],[-6.141361,54.113362],[-6.140677,54.113082],[-6.140046,54.112814],[-6.139469,54.112556],[-6.138944,54.112309],[-6.138472,54.112073],[-6.138071,54.111891],[-6.13774,54.111764],[-6.13748,54.111692],[-6.13729,54.111675],[-6.137116,54.111666],[-6.136957,54.111666],[-6.136814,54.111674],[-6.136686,54.111691],[-6.136518,54.11172],[-6.136308,54.111763],[-6.136058,54.111817],[-6.135768,54.111884],[-6.13547,54.111974],[-6.135166,54.112086],[-6.134856,54.112219],[-6.134539,54.112376],[-6.134278,54.112524],[-6.134071,54.112666],[-6.133919,54.1128],[-6.133823,54.112927],[-6.133768,54.11305],[-6.133754,54.113169],[-6.133781,54.113285],[-6.13385,54.113397],[-6.133932,54.113505],[-6.134028,54.11361],[-6.134138,54.113711],[-6.134262,54.113808],[-6.134436,54.113947],[-6.13466,54.114128],[-6.134933,54.114349],[-6.135257,54.114613],[-6.135504,54.114815],[-6.135676,54.114956],[-6.135772,54.115035],[-6.135791,54.115054],[-6.135793,54.115123],[-6.135778,54.115243],[-6.135745,54.115412],[-6.135695,54.115632],[-6.135652,54.115798],[-6.135615,54.11591],[-6.135586,54.115968],[-6.135564,54.115973],[-6.135549,54.115979],[-6.135542,54.115989],[-6.135542,54.116001],[-6.13555,54.116015],[-6.135547,54.116045],[-6.135533,54.11609],[-6.135508,54.11615],[-6.135472,54.116225],[-6.13536,54.116293],[-6.135172,54.116354],[-6.134908,54.116406],[-6.134568,54.116452],[-6.134282,54.116483],[-6.134049,54.116499],[-6.133869,54.116501],[-6.133743,54.116489],[-6.133596,54.116485],[-6.133427,54.116488],[-6.133236,54.116499],[-6.133023,54.116518],[-6.132818,54.116559],[-6.132621,54.116624],[-6.132431,54.116712],[-6.132249,54.116823],[-6.132098,54.116933],[-6.131979,54.117042],[-6.131891,54.11715],[-6.131834,54.117257],[-6.131807,54.117391],[-6.13181,54.117551],[-6.131842,54.117737],[-6.131904,54.117951],[-6.131983,54.118154],[-6.132078,54.118347],[-6.13219,54.118529],[-6.132319,54.118701],[-6.132457,54.11886],[-6.132605,54.119006],[-6.132763,54.119138],[-6.132931,54.119257],[-6.133094,54.119404],[-6.133251,54.119579],[-6.133403,54.119782],[-6.133549,54.120013],[-6.133649,54.120205],[-6.133704,54.120358],[-6.133714,54.120473],[-6.133677,54.120548],[-6.133643,54.120609],[-6.133612,54.120655],[-6.133583,54.120686],[-6.133556,54.120702],[-6.133504,54.120712],[-6.133426,54.120716],[-6.133322,54.120714],[-6.133192,54.120706],[-6.133094,54.120699],[-6.133029,54.120695],[-6.132996,54.120693],[-6.132996,54.120693],[-6.132995,54.120692],[-6.132994,54.12069],[-6.132992,54.120687],[-6.13299,54.120683],[-6.132946,54.120674],[-6.13286,54.120658],[-6.132733,54.120637],[-6.132565,54.120609],[-6.132415,54.120577],[-6.132283,54.12054],[-6.132171,54.120498],[-6.132077,54.120451],[-6.131974,54.120401],[-6.131863,54.120349],[-6.131744,54.120294],[-6.131616,54.120236],[-6.131473,54.120169],[-6.131315,54.120093],[-6.131143,54.120008],[-6.130955,54.119913],[-6.130808,54.119825],[-6.1307,54.119742],[-6.130633,54.119666],[-6.130605,54.119595],[-6.13058,54.119524],[-6.130557,54.119453],[-6.130537,54.119382],[-6.13052,54.11931],[-6.130488,54.119218],[-6.130441,54.119105],[-6.130379,54.118972],[-6.130301,54.118819],[-6.130222,54.118676],[-6.13014,54.118544],[-6.130055,54.118423],[-6.129967,54.118313],[-6.129894,54.118212],[-6.129836,54.11812],[-6.129792,54.118038],[-6.129764,54.117964],[-6.129749,54.11788],[-6.12975,54.117783],[-6.129765,54.117675],[-6.129795,54.117556],[-6.129828,54.117443],[-6.129865,54.117337],[-6.129904,54.117238],[-6.129947,54.117146],[-6.129972,54.117077],[-6.129978,54.11703],[-6.129966,54.117006],[-6.129936,54.117006],[-6.129944,54.116967],[-6.129991,54.116892],[-6.130077,54.116778],[-6.130202,54.116628],[-6.130315,54.116467],[-6.130416,54.116297],[-6.130505,54.116116],[-6.130582,54.115926],[-6.130685,54.115725],[-6.130814,54.115514],[-6.13097,54.115293],[-6.131153,54.115062],[-6.131332,54.114836],[-6.131508,54.114614],[-6.131681,54.114398],[-6.131851,54.114186],[-6.132008,54.113973],[-6.132154,54.113759],[-6.132288,54.113543],[-6.13241,54.113326],[-6.132523,54.113121],[-6.132627,54.112928],[-6.132722,54.112748],[-6.132807,54.11258],[-6.132863,54.112441],[-6.132888,54.112331],[-6.132883,54.11225],[-6.132847,54.112199],[-6.132807,54.112124],[-6.132763,54.112025],[-6.132715,54.111902],[-6.132662,54.111755],[-6.13262,54.111646],[-6.132589,54.111573],[-6.132569,54.111537],[-6.132559,54.111538],[-6.13253,54.111547],[-6.132483,54.111562],[-6.132417,54.111584],[-6.132332,54.111613],[-6.132262,54.111646],[-6.132206,54.111683],[-6.132164,54.111724],[-6.132136,54.111769],[-6.132095,54.11184],[-6.132042,54.111935],[-6.131976,54.112056],[-6.131897,54.112203],[-6.131817,54.112338],[-6.131736,54.112461],[-6.131655,54.112572],[-6.131572,54.112672],[-6.13152,54.112762],[-6.131496,54.112844],[-6.131502,54.112916],[-6.131537,54.112979],[-6.131571,54.113046],[-6.131604,54.113117],[-6.131636,54.113192],[-6.131667,54.113271],[-6.131684,54.11334],[-6.131688,54.1134],[-6.131677,54.113451],[-6.131653,54.113493],[-6.131615,54.113538],[-6.131563,54.113586],[-6.131498,54.113638],[-6.131418,54.113693],[-6.131338,54.113747],[-6.131258,54.1138],[-6.131177,54.113853],[-6.131097,54.113905],[-6.131028,54.113963],[-6.130972,54.114027],[-6.130929,54.114096],[-6.130898,54.114171],[-6.130869,54.114252],[-6.130842,54.114338],[-6.130817,54.11443],[-6.130795,54.114528],[-6.130763,54.114618],[-6.130722,54.1147],[-6.130672,54.114774],[-6.130612,54.114842],[-6.130558,54.114897],[-6.13051,54.114942],[-6.130468,54.114976],[-6.130431,54.114999],[-6.13035,54.115051],[-6.130226,54.115132],[-6.130057,54.115244],[-6.129844,54.115384],[-6.129686,54.115504],[-6.129583,54.115604],[-6.129536,54.115682],[-6.129543,54.11574],[-6.129566,54.115802],[-6.129604,54.115866],[-6.129658,54.115933],[-6.129726,54.116004],[-6.129769,54.116078],[-6.129786,54.116154],[-6.129778,54.116232],[-6.129744,54.116314],[-6.129696,54.11639],[-6.129633,54.116462],[-6.129556,54.116529],[-6.129464,54.116592],[-6.129385,54.116657],[-6.129319,54.116726],[-6.129266,54.116798],[-6.129226,54.116872],[-6.129181,54.116928],[-6.129129,54.116965],[-6.129073,54.116982],[-6.12901,54.11698],[-6.128963,54.116988],[-6.128931,54.117005],[-6.128914,54.117031],[-6.128912,54.117066],[-6.128892,54.117117],[-6.128852,54.117185],[-6.128793,54.117268],[-6.128716,54.117367],[-6.128648,54.117467],[-6.128589,54.11757],[-6.128541,54.117674],[-6.128501,54.117779],[-6.128473,54.117878],[-6.128456,54.117971],[-6.128451,54.118056],[-6.128457,54.118135],[-6.128457,54.118209],[-6.128451,54.118278],[-6.128439,54.118342],[-6.128422,54.1184],[-6.128393,54.118449],[-6.128353,54.118488],[-6.128301,54.118518],[-6.128238,54.118538],[-6.128179,54.118551],[-6.128123,54.118557],[-6.128071,54.118556],[-6.128022,54.118548],[-6.127966,54.118519],[-6.127904,54.11847],[-6.127834,54.1184],[-6.127758,54.11831],[-6.127692,54.118212],[-6.127635,54.118107],[-6.127589,54.117995],[-6.127552,54.117876],[-6.127523,54.117774],[-6.127502,54.11769],[-6.12749,54.117623],[-6.127485,54.117573],[-6.127472,54.11752],[-6.12745,54.117464],[-6.127419,54.117405],[-6.127379,54.117342],[-6.127347,54.117281],[-6.127324,54.117222],[-6.127309,54.117165],[-6.127303,54.11711],[-6.127306,54.117063],[-6.127318,54.117024],[-6.12734,54.116993],[-6.127371,54.116971],[-6.127423,54.116934],[-6.127494,54.116883],[-6.127585,54.116818],[-6.127696,54.116739],[-6.127754,54.116656],[-6.12776,54.116568],[-6.127714,54.116476],[-6.127615,54.11638],[-6.12753,54.116303],[-6.12746,54.116246],[-6.127403,54.116208],[-6.127361,54.11619],[-6.127293,54.11615],[-6.1272,54.116087],[-6.127081,54.116002],[-6.126937,54.115894],[-6.126786,54.115797],[-6.126629,54.115712],[-6.126464,54.115637],[-6.126292,54.115575],[-6.126151,54.115508],[-6.12604,54.115439],[-6.125959,54.115366],[-6.125909,54.11529],[-6.125867,54.115203],[-6.125834,54.115106],[-6.125809,54.114998],[-6.125792,54.114879],[-6.125756,54.114764],[-6.1257,54.114653],[-6.125623,54.114546],[-6.125527,54.114444],[-6.125417,54.114357],[-6.125293,54.114287],[-6.125155,54.114232],[-6.125003,54.114193],[-6.124874,54.114174],[-6.124768,54.114175],[-6.124685,54.114196],[-6.124625,54.114236],[-6.124556,54.114282],[-6.124477,54.114334],[-6.12439,54.114391],[-6.124293,54.114455],[-6.124175,54.114526],[-6.124034,54.114607],[-6.123872,54.114697],[-6.123688,54.114795],[-6.123522,54.114884],[-6.123374,54.114965],[-6.123243,54.115036],[-6.123131,54.115098],[-6.12304,54.115158],[-6.122969,54.115217],[-6.122919,54.115273],[-6.12289,54.115327],[-6.122882,54.115377],[-6.122895,54.115424],[-6.12293,54.115468],[-6.122986,54.115508],[-6.123064,54.115539],[-6.123165,54.115563],[-6.123288,54.115578],[-6.123432,54.115586],[-6.123561,54.115595],[-6.123675,54.115607],[-6.123773,54.11562],[-6.123855,54.115636],[-6.123922,54.115656],[-6.123975,54.115682],[-6.124014,54.115712],[-6.124038,54.115747],[-6.124049,54.115795],[-6.124048,54.115856],[-6.124034,54.11593],[-6.124007,54.116016],[-6.123981,54.1161],[-6.123956,54.116183],[-6.123933,54.116263],[-6.12391,54.116341],[-6.123857,54.116392],[-6.123775,54.116414],[-6.123663,54.116409],[-6.123522,54.116376],[-6.123377,54.116357],[-6.123227,54.116353],[-6.123074,54.116363],[-6.122917,54.116387],[-6.122753,54.116413],[-6.122582,54.116439],[-6.122404,54.116466],[-6.122218,54.116494],[-6.122058,54.116525],[-6.121922,54.116559],[-6.121812,54.116595],[-6.121726,54.116634],[-6.121659,54.116675],[-6.12161,54.116718],[-6.12158,54.116763],[-6.121569,54.11681],[-6.121555,54.11685],[-6.121538,54.116883],[-6.121519,54.11691],[-6.121497,54.11693],[-6.12145,54.116945],[-6.121376,54.116955],[-6.121277,54.11696],[-6.121152,54.116959],[-6.121046,54.116944],[-6.12096,54.116916],[-6.120895,54.116873],[-6.120848,54.116817],[-6.120813,54.116743],[-6.120789,54.11665],[-6.120775,54.11654],[-6.120772,54.116412],[-6.120763,54.116295],[-6.120749,54.11619],[-6.120728,54.116095],[-6.120701,54.116012],[-6.120674,54.115936],[-6.120647,54.115869],[-6.120621,54.115809],[-6.120594,54.115757],[-6.12053,54.115729],[-6.120427,54.115725],[-6.120286,54.115746],[-6.120108,54.11579],[-6.119962,54.115837],[-6.119851,54.115887],[-6.119773,54.115939],[-6.119729,54.115993],[-6.119688,54.116043],[-6.119649,54.116088],[-6.119613,54.116129],[-6.119579,54.116164],[-6.119548,54.116202],[-6.119519,54.11624],[-6.119491,54.11628],[-6.119466,54.116322],[-6.119449,54.116381],[-6.11944,54.116457],[-6.119439,54.116549],[-6.119447,54.11666],[-6.119456,54.116758],[-6.119467,54.116845],[-6.119479,54.116921],[-6.119492,54.116985],[-6.119503,54.117058],[-6.119511,54.117138],[-6.119516,54.117227],[-6.119518,54.117324],[-6.119523,54.117405],[-6.119529,54.11747],[-6.119538,54.117518],[-6.119548,54.117551],[-6.119559,54.117587],[-6.119571,54.117625],[-6.119584,54.117666],[-6.119598,54.11771],[-6.119588,54.117754],[-6.119553,54.117799],[-6.119494,54.117845],[-6.119411,54.11789],[-6.119305,54.117927],[-6.119176,54.117955],[-6.119024,54.117973],[-6.118849,54.117982],[-6.118715,54.117985],[-6.118622,54.117982],[-6.118569,54.117973],[-6.118557,54.117957],[-6.118544,54.117931],[-6.118531,54.117895],[-6.118518,54.117848],[-6.118505,54.117791],[-6.118491,54.117734],[-6.118477,54.117677],[-6.118464,54.11762],[-6.11845,54.117562],[-6.118442,54.117493],[-6.118439,54.117414],[-6.118441,54.117323],[-6.118448,54.117221],[-6.118434,54.117123],[-6.118396,54.117029],[-6.118337,54.116939],[-6.118255,54.116853],[-6.118174,54.116789],[-6.118092,54.116748],[-6.11801,54.116729],[-6.117928,54.116733],[-6.117864,54.116743],[-6.117817,54.11676],[-6.117787,54.116783],[-6.117775,54.116813],[-6.117767,54.116856],[-6.117763,54.116914],[-6.117763,54.116986],[-6.117767,54.117072],[-6.117753,54.117164],[-6.117719,54.11726],[-6.117667,54.117362],[-6.117596,54.117468],[-6.117541,54.11755],[-6.117501,54.117608],[-6.117477,54.117641],[-6.117468,54.117649],[-6.117385,54.117675],[-6.117227,54.117721],[-6.116995,54.117785],[-6.116688,54.117867],[-6.116451,54.117936],[-6.116283,54.117993],[-6.116186,54.118036],[-6.116158,54.118066],[-6.116079,54.118107],[-6.11595,54.118159],[-6.115769,54.118222],[-6.115538,54.118295],[-6.115335,54.118352],[-6.11516,54.118394],[-6.115012,54.118419],[-6.114893,54.118428],[-6.114791,54.118445],[-6.114705,54.118469],[-6.114635,54.118501],[-6.114582,54.11854],[-6.11453,54.118568],[-6.11448,54.118584],[-6.114431,54.118588],[-6.114383,54.11858],[-6.114288,54.118566],[-6.114146,54.118544],[-6.113958,54.118516],[-6.113722,54.11848],[-6.113518,54.11846],[-6.113343,54.118454],[-6.1132,54.118463],[-6.113087,54.118487],[-6.112963,54.118495],[-6.112827,54.118489],[-6.112679,54.118467],[-6.112519,54.118431],[-6.112362,54.118406],[-6.112208,54.118393],[-6.112057,54.118392],[-6.111909,54.118403],[-6.111759,54.11842],[-6.111608,54.118445],[-6.111457,54.118476],[-6.111304,54.118514],[-6.111127,54.118528],[-6.110928,54.118516],[-6.110706,54.11848],[-6.11046,54.118419],[-6.110218,54.118381],[-6.109979,54.118366],[-6.109744,54.118374],[-6.109512,54.118405],[-6.109327,54.118445],[-6.10919,54.118495],[-6.1091,54.118553],[-6.109059,54.118621],[-6.109023,54.118687],[-6.108995,54.118751],[-6.108974,54.118813],[-6.108959,54.118873],[-6.108948,54.11894],[-6.108939,54.119015],[-6.108934,54.119098],[-6.108932,54.119188],[-6.108922,54.11926],[-6.108905,54.119312],[-6.10888,54.119345],[-6.108847,54.11936],[-6.108793,54.119382],[-6.108715,54.119411],[-6.108616,54.119449],[-6.108493,54.119494],[-6.108396,54.119521],[-6.108322,54.11953],[-6.108274,54.11952],[-6.108249,54.119493],[-6.108199,54.119463],[-6.108122,54.119431],[-6.10802,54.119396],[-6.107891,54.11936],[-6.107775,54.119322],[-6.107671,54.119282],[-6.107581,54.119241],[-6.107502,54.119198],[-6.107451,54.119146],[-6.107427,54.119084],[-6.10743,54.119014],[-6.10746,54.118934],[-6.107474,54.118839],[-6.107472,54.118727],[-6.107454,54.1186],[-6.107421,54.118458],[-6.107376,54.118334],[-6.107319,54.118228],[-6.10725,54.11814],[-6.107169,54.11807],[-6.10707,54.118002],[-6.106952,54.117935],[-6.106815,54.11787],[-6.10666,54.117806],[-6.106494,54.117743],[-6.106318,54.117682],[-6.10613,54.117623],[-6.105931,54.117564],[-6.10576,54.117478],[-6.105616,54.117363],[-6.105498,54.117221],[-6.105408,54.11705],[-6.105341,54.116915],[-6.105297,54.116814],[-6.105276,54.116749],[-6.105278,54.116719],[-6.10529,54.116691],[-6.105313,54.116665],[-6.105346,54.11664],[-6.10539,54.116618],[-6.105433,54.116579],[-6.105475,54.116523],[-6.105517,54.116449],[-6.105557,54.116359],[-6.105579,54.116272],[-6.10558,54.116189],[-6.105563,54.116109],[-6.105526,54.116033],[-6.105446,54.115945],[-6.105323,54.115844],[-6.105157,54.11573],[-6.104948,54.115604],[-6.104769,54.115475],[-6.10462,54.115343],[-6.104501,54.115208],[-6.104412,54.115071],[-6.104267,54.114864],[-6.104065,54.11459],[-6.103807,54.114247],[-6.103492,54.113835],[-6.10324,54.113493],[-6.103048,54.113219],[-6.102919,54.113013],[-6.102851,54.112877],[-6.102772,54.112767],[-6.102679,54.112685],[-6.102575,54.11263],[-6.102459,54.112602],[-6.102368,54.112574],[-6.102304,54.112547],[-6.102266,54.11252],[-6.102253,54.112494],[-6.102263,54.112445],[-6.102294,54.112374],[-6.102347,54.112279],[-6.102421,54.112162],[-6.102485,54.112045],[-6.102537,54.111929],[-6.102579,54.111814],[-6.10261,54.111698],[-6.102628,54.111592],[-6.102634,54.111495],[-6.102628,54.111407],[-6.10261,54.111328],[-6.102577,54.111256],[-6.102529,54.11119],[-6.102466,54.111131],[-6.102388,54.111078],[-6.102304,54.111027],[-6.102215,54.110978],[-6.10212,54.110931],[-6.10202,54.110885],[-6.101953,54.110841],[-6.101921,54.110799],[-6.101923,54.110759],[-6.101959,54.110721],[-6.102014,54.110676],[-6.102088,54.110623],[-6.102182,54.110564],[-6.102295,54.110497],[-6.102365,54.110432],[-6.102391,54.110369],[-6.102373,54.110309],[-6.102312,54.11025],[-6.102247,54.110201],[-6.102178,54.110162],[-6.102105,54.110133],[-6.102027,54.110114],[-6.101896,54.110095],[-6.101712,54.110077],[-6.101473,54.11006],[-6.101181,54.110043],[-6.100883,54.110043],[-6.100579,54.110059],[-6.100268,54.110092],[-6.099951,54.110142],[-6.099703,54.110194],[-6.099521,54.11025],[-6.099408,54.110308],[-6.099363,54.11037],[-6.09932,54.110439],[-6.09928,54.110514],[-6.099243,54.110597],[-6.099208,54.110687],[-6.099142,54.110753],[-6.099045,54.110795],[-6.098916,54.110814],[-6.098755,54.11081],[-6.098612,54.110787],[-6.098485,54.110747],[-6.098375,54.110688],[-6.098281,54.110612],[-6.098172,54.110536],[-6.098047,54.11046],[-6.097906,54.110384],[-6.09775,54.110308],[-6.097552,54.110238],[-6.097314,54.110174],[-6.097036,54.110115],[-6.096717,54.110061],[-6.096433,54.11001],[-6.096186,54.109961],[-6.095974,54.109915],[-6.095799,54.109872],[-6.095645,54.109816],[-6.095514,54.109749],[-6.095405,54.109669],[-6.095318,54.109577],[-6.095205,54.109496],[-6.095067,54.109428],[-6.094904,54.109371],[-6.094715,54.109325],[-6.094518,54.109298],[-6.094315,54.109288],[-6.094104,54.109296],[-6.093885,54.109321],[-6.09368,54.109344],[-6.093488,54.109363],[-6.093309,54.109381],[-6.093144,54.109395],[-6.092939,54.109425],[-6.092693,54.109471],[-6.092408,54.109532],[-6.092083,54.109608],[-6.091739,54.10971],[-6.091377,54.109838],[-6.090997,54.109991],[-6.090598,54.11017],[-6.09024,54.110337],[-6.089924,54.110492],[-6.089648,54.110635],[-6.089414,54.110766],[-6.089219,54.110911],[-6.089063,54.111071],[-6.088946,54.111244],[-6.088868,54.111432],[-6.088811,54.111602],[-6.088775,54.111753],[-6.088761,54.111885],[-6.088767,54.111999],[-6.088758,54.112124],[-6.088732,54.112261],[-6.088691,54.112409],[-6.088633,54.112568],[-6.088581,54.112698],[-6.088535,54.112799],[-6.088494,54.11287],[-6.08846,54.112911],[-6.088377,54.112973],[-6.088244,54.113056],[-6.088062,54.113159],[-6.087832,54.113282],[-6.087644,54.113399],[-6.087499,54.11351],[-6.087396,54.113616],[-6.087336,54.113716],[-6.087247,54.113788],[-6.08713,54.113832],[-6.086984,54.113848],[-6.08681,54.113837],[-6.086607,54.113823],[-6.086375,54.113805],[-6.086115,54.113784],[-6.085826,54.113759],[-6.085558,54.113751],[-6.085311,54.113759],[-6.085084,54.113783],[-6.084878,54.113823],[-6.084686,54.113867],[-6.084509,54.113916],[-6.084345,54.113969],[-6.084196,54.114026],[-6.084074,54.114087],[-6.083978,54.114152],[-6.083908,54.114221],[-6.083865,54.114293],[-6.083791,54.114383],[-6.083687,54.114491],[-6.083552,54.114617],[-6.083387,54.11476],[-6.083256,54.114874],[-6.083161,54.11496],[-6.083101,54.115017],[-6.083077,54.115045],[-6.083041,54.115101],[-6.082995,54.115184],[-6.082939,54.115295],[-6.082872,54.115433],[-6.082828,54.115554],[-6.082807,54.115657],[-6.08281,54.115742],[-6.082837,54.115809],[-6.082887,54.115883],[-6.082962,54.115963],[-6.08306,54.116049],[-6.083182,54.116141],[-6.083288,54.116238],[-6.083378,54.116339],[-6.083451,54.116444],[-6.083509,54.116553],[-6.083553,54.11668],[-6.083584,54.116826],[-6.083603,54.11699],[-6.083609,54.117172],[-6.083599,54.117315],[-6.083575,54.117418],[-6.083536,54.117483],[-6.083482,54.117508],[-6.083435,54.117556],[-6.083397,54.117628],[-6.083366,54.117724],[-6.083343,54.117844],[-6.083356,54.118035],[-6.083404,54.118297],[-6.083487,54.11863],[-6.083606,54.119034],[-6.083722,54.119351],[-6.083835,54.11958],[-6.083945,54.119723],[-6.084052,54.119779],[-6.084154,54.119833],[-6.084251,54.119884],[-6.084344,54.119933],[-6.084433,54.119979],[-6.084513,54.120027],[-6.084584,54.120076],[-6.084648,54.120126],[-6.084703,54.120177],[-6.084705,54.12022],[-6.084654,54.120256],[-6.08455,54.120284],[-6.084393,54.120305],[-6.084255,54.120328],[-6.084135,54.120353],[-6.084033,54.120379],[-6.083949,54.120408],[-6.083908,54.120455],[-6.083909,54.120522],[-6.083953,54.120608],[-6.084039,54.120714],[-6.084151,54.120816],[-6.084288,54.120916],[-6.08445,54.121013],[-6.084637,54.121108],[-6.084824,54.121175],[-6.08501,54.121213],[-6.085196,54.121224],[-6.085382,54.121206],[-6.085519,54.121197],[-6.085609,54.121196],[-6.085651,54.121204],[-6.085644,54.12122],[-6.085622,54.12125],[-6.085584,54.121293],[-6.085531,54.12135],[-6.085463,54.12142],[-6.08533,54.12149],[-6.085133,54.12156],[-6.084873,54.121631],[-6.084548,54.121702],[-6.084268,54.121778],[-6.084031,54.121859],[-6.083838,54.121944],[-6.083689,54.122034],[-6.083568,54.122163],[-6.083474,54.122332],[-6.083408,54.122541],[-6.083369,54.122789],[-6.083381,54.123001],[-6.083442,54.123178],[-6.083553,54.123318],[-6.083715,54.123423],[-6.083857,54.12355],[-6.08398,54.1237],[-6.084084,54.123872],[-6.084168,54.124066],[-6.084224,54.124239],[-6.084251,54.124389],[-6.08425,54.124518],[-6.08422,54.124625],[-6.084167,54.12473],[-6.084091,54.124834],[-6.083993,54.124935],[-6.083872,54.125036],[-6.083832,54.125249],[-6.083872,54.125575],[-6.083993,54.126015],[-6.084195,54.126568],[-6.084385,54.127032],[-6.084565,54.127408],[-6.084734,54.127695],[-6.084892,54.127894],[-6.085126,54.128094],[-6.085433,54.128297],[-6.085816,54.1285],[-6.086274,54.128706],[-6.086685,54.128881],[-6.08705,54.129024],[-6.087368,54.129136],[-6.08764,54.129217],[-6.087894,54.129285],[-6.088128,54.12934],[-6.088343,54.129383],[-6.088539,54.129413],[-6.088687,54.129435],[-6.088788,54.129448],[-6.08884,54.129453],[-6.088844,54.12945],[-6.088848,54.129447],[-6.08885,54.129446],[-6.088851,54.129445],[-6.088852,54.129445],[-6.088881,54.129465],[-6.088941,54.129504],[-6.08903,54.129562],[-6.089149,54.12964],[-6.08927,54.129716],[-6.089391,54.129789],[-6.089513,54.129859],[-6.089636,54.129927],[-6.089746,54.129992],[-6.089843,54.130054],[-6.089927,54.130114],[-6.089997,54.13017],[-6.090075,54.130241],[-6.090161,54.130325],[-6.090254,54.130424],[-6.090355,54.130538],[-6.090444,54.130648],[-6.090523,54.130754],[-6.09059,54.130858],[-6.090645,54.130959],[-6.090714,54.131057],[-6.090797,54.131154],[-6.090892,54.131249],[-6.091001,54.131343],[-6.091126,54.13143],[-6.091267,54.131513],[-6.091424,54.131589],[-6.091597,54.13166],[-6.091785,54.13173],[-6.091989,54.131799],[-6.092209,54.131867],[-6.092444,54.131934],[-6.092666,54.132007],[-6.092873,54.132085],[-6.093067,54.132168],[-6.093247,54.132257],[-6.09346,54.132365],[-6.093707,54.132491],[-6.093987,54.132637],[-6.094301,54.132802],[-6.094586,54.132957],[-6.09484,54.133104],[-6.095065,54.133242],[-6.095261,54.133371],[-6.095439,54.133481],[-6.095599,54.133572],[-6.095743,54.133644],[-6.095868,54.133698],[-6.096001,54.133751],[-6.096142,54.133802],[-6.096291,54.133853],[-6.096447,54.133902],[-6.096604,54.133958],[-6.096761,54.134019],[-6.096918,54.134086],[-6.097075,54.134159],[-6.09721,54.134233],[-6.097324,54.134308],[-6.097415,54.134384],[-6.097484,54.134461],[-6.097524,54.134529],[-6.097536,54.134587],[-6.097518,54.134635],[-6.097471,54.134674],[-6.097369,54.134707],[-6.097212,54.134732],[-6.097,54.134751],[-6.096734,54.134763],[-6.096511,54.134764],[-6.096332,54.134756],[-6.096196,54.134737],[-6.096105,54.134708],[-6.096014,54.134677],[-6.095925,54.134642],[-6.095837,54.134603],[-6.095751,54.134562],[-6.09566,54.134537],[-6.095567,54.134529],[-6.09547,54.134538],[-6.095369,54.134563],[-6.095233,54.134594],[-6.095062,54.134632],[-6.094856,54.134675],[-6.094614,54.134725],[-6.094379,54.13476],[-6.094152,54.134782],[-6.093931,54.134789],[-6.093717,54.134782],[-6.093531,54.134786],[-6.093371,54.134802],[-6.093238,54.134828],[-6.093132,54.134866],[-6.093062,54.13491],[-6.093027,54.134962],[-6.093027,54.13502],[-6.093063,54.135086],[-6.093139,54.135164],[-6.093255,54.135254],[-6.093411,54.135356],[-6.093607,54.135471],[-6.093761,54.135588],[-6.093873,54.135708],[-6.093944,54.13583],[-6.093973,54.135955],[-6.09407,54.136137],[-6.094234,54.136376],[-6.094466,54.136672],[-6.094766,54.137025],[-6.094992,54.137305],[-6.095144,54.137514],[-6.095223,54.13765],[-6.095228,54.137713],[-6.095211,54.137815],[-6.09517,54.137955],[-6.095107,54.138134],[-6.095022,54.13835],[-6.094981,54.138571],[-6.094984,54.138796],[-6.095031,54.139026],[-6.095124,54.139259],[-6.095234,54.139501],[-6.095362,54.139751],[-6.095509,54.140008],[-6.095674,54.140273],[-6.095854,54.140496],[-6.096051,54.140677],[-6.096264,54.140815],[-6.096492,54.140911],[-6.096654,54.140988],[-6.096748,54.141045],[-6.096775,54.141082],[-6.096735,54.141101],[-6.096714,54.141138],[-6.096713,54.141193],[-6.09673,54.141268],[-6.096767,54.141361],[-6.096827,54.141467],[-6.09691,54.141585],[-6.097017,54.141715],[-6.097147,54.141857],[-6.097287,54.14198],[-6.097438,54.142084],[-6.097599,54.142168],[-6.09777,54.142233],[-6.097869,54.142298],[-6.097895,54.142364],[-6.097849,54.14243],[-6.09773,54.142497],[-6.097702,54.142615],[-6.097763,54.142784],[-6.097915,54.143005],[-6.098157,54.143278],[-6.098309,54.143506],[-6.098371,54.143691],[-6.098344,54.143831],[-6.098227,54.143928],[-6.098094,54.144032],[-6.097947,54.144145],[-6.097784,54.144265],[-6.097605,54.144394],[-6.09744,54.144498],[-6.097288,54.144578],[-6.097148,54.144633],[-6.097022,54.144664],[-6.096874,54.144725],[-6.096706,54.144817],[-6.096517,54.144938],[-6.096307,54.14509],[-6.096097,54.145236],[-6.095886,54.145376],[-6.095675,54.14551],[-6.095464,54.145638],[-6.095286,54.145766],[-6.095141,54.145895],[-6.095028,54.146024],[-6.094949,54.146154],[-6.094759,54.146305],[-6.09446,54.146479],[-6.09405,54.146673],[-6.093531,54.14689],[-6.092991,54.147115],[-6.092429,54.147349],[-6.091846,54.147592],[-6.091243,54.147844],[-6.090733,54.148065],[-6.090318,54.148256],[-6.089997,54.148417],[-6.08977,54.148547],[-6.089609,54.148661],[-6.089513,54.14876],[-6.089482,54.148842],[-6.089517,54.148909],[-6.089567,54.14897],[-6.089634,54.149026],[-6.089717,54.149076],[-6.089816,54.14912],[-6.089899,54.149168],[-6.089964,54.149221],[-6.090014,54.149279],[-6.090047,54.149342],[-6.090089,54.149407],[-6.090141,54.149477],[-6.090202,54.14955],[-6.090273,54.149626],[-6.090333,54.149684],[-6.090381,54.149725],[-6.090419,54.149748],[-6.090445,54.149752],[-6.090441,54.149783],[-6.090408,54.149841],[-6.090345,54.149924],[-6.090253,54.150034],[-6.090185,54.150117],[-6.090143,54.150174],[-6.090125,54.150203],[-6.090133,54.150207],[-6.090153,54.150245],[-6.090186,54.150317],[-6.09023,54.150425],[-6.090286,54.150568],[-6.090321,54.150689],[-6.090335,54.150787],[-6.090328,54.150863],[-6.090301,54.150917],[-6.090273,54.150994],[-6.090245,54.151094],[-6.090217,54.151217],[-6.090188,54.151364],[-6.090152,54.151484],[-6.090106,54.151576],[-6.090051,54.151641],[-6.089987,54.151679],[-6.089921,54.151719],[-6.089851,54.15176],[-6.089779,54.151803],[-6.089703,54.151848],[-6.089623,54.151901],[-6.089539,54.151962],[-6.089451,54.152031],[-6.089358,54.152107],[-6.089284,54.152191],[-6.089227,54.15228],[-6.089188,54.152377],[-6.089168,54.15248],[-6.089175,54.152591],[-6.08921,54.152712],[-6.089273,54.152841],[-6.089364,54.152979],[-6.089509,54.153105],[-6.089707,54.153218],[-6.089958,54.153319],[-6.090263,54.153407],[-6.09052,54.153484],[-6.09073,54.153549],[-6.090892,54.153603],[-6.091007,54.153645],[-6.091105,54.1537],[-6.091187,54.153768],[-6.091253,54.153848],[-6.091302,54.153942],[-6.091374,54.154054],[-6.091468,54.154184],[-6.091585,54.154333],[-6.091725,54.154501],[-6.09187,54.154644],[-6.092021,54.154764],[-6.092179,54.154859],[-6.092342,54.154931],[-6.092515,54.154997],[-6.092699,54.155058],[-6.092893,54.155115],[-6.093097,54.155166],[-6.093289,54.15521],[-6.093467,54.155246],[-6.093632,54.155275],[-6.093785,54.155296],[-6.093987,54.155323],[-6.09424,54.155358],[-6.094543,54.155399],[-6.094897,54.155447],[-6.095193,54.15547],[-6.095433,54.155468],[-6.095616,54.15544],[-6.095743,54.155388],[-6.095866,54.155359],[-6.095987,54.155353],[-6.096105,54.155372],[-6.09622,54.155414],[-6.096367,54.155523],[-6.096547,54.155699],[-6.096759,54.155943],[-6.097005,54.156254],[-6.097229,54.156505],[-6.097433,54.156696],[-6.097617,54.156827],[-6.09778,54.156898],[-6.097945,54.156975],[-6.098112,54.157056],[-6.098282,54.157143],[-6.098453,54.157235],[-6.098551,54.157322],[-6.098578,54.157404],[-6.098532,54.157482],[-6.098413,54.157555],[-6.098294,54.157634],[-6.098175,54.15772],[-6.098055,54.157812],[-6.097935,54.15791],[-6.097855,54.157991],[-6.097815,54.158055],[-6.097815,54.158101],[-6.097855,54.158131],[-6.097901,54.158192],[-6.097952,54.158286],[-6.098009,54.158413],[-6.098072,54.158572],[-6.098173,54.158722],[-6.098312,54.158863],[-6.09849,54.158995],[-6.098705,54.159119],[-6.098908,54.159253],[-6.099097,54.159397],[-6.099273,54.159551],[-6.099436,54.159715],[-6.099605,54.159832],[-6.09978,54.159902],[-6.099961,54.159925],[-6.100147,54.1599],[-6.100336,54.159871],[-6.100525,54.159839],[-6.100717,54.159803],[-6.10091,54.159763],[-6.101096,54.159731],[-6.101277,54.159707],[-6.101452,54.159691],[-6.10162,54.159683],[-6.101738,54.159717],[-6.101806,54.159794],[-6.101822,54.159914],[-6.101788,54.160076],[-6.101645,54.160322],[-6.101395,54.160652],[-6.101037,54.161066],[-6.10057,54.161564],[-6.100208,54.161956],[-6.099949,54.162243],[-6.099793,54.162424],[-6.099742,54.162499],[-6.099597,54.16271],[-6.099359,54.163056],[-6.099028,54.163538],[-6.098604,54.164156],[-6.098311,54.164702],[-6.098149,54.165179],[-6.098118,54.165584],[-6.098218,54.165919],[-6.098249,54.166159],[-6.098211,54.166304],[-6.098082,54.166439]],[[-6.129775,54.120826],[-6.129645,54.12078],[-6.129534,54.120745],[-6.129441,54.120721],[-6.129366,54.120708],[-6.129309,54.120706],[-6.12924,54.120707],[-6.12916,54.120711],[-6.129067,54.120718],[-6.128963,54.120728],[-6.12886,54.120722],[-6.128757,54.1207],[-6.128656,54.120663],[-6.128556,54.120609],[-6.12847,54.120549],[-6.128398,54.120483],[-6.12834,54.12041],[-6.128296,54.120332],[-6.128262,54.120261],[-6.128239,54.120198],[-6.128226,54.120143],[-6.128224,54.120095],[-6.128222,54.120046],[-6.128222,54.119994],[-6.128222,54.11994],[-6.128223,54.119885],[-6.128242,54.119832],[-6.12828,54.119782],[-6.128336,54.119734],[-6.12841,54.11969],[-6.128476,54.119656],[-6.128533,54.119633],[-6.128581,54.119621],[-6.128619,54.11962],[-6.128666,54.11962],[-6.128722,54.119623],[-6.128785,54.119627],[-6.128856,54.119633],[-6.12893,54.119643],[-6.129007,54.119659],[-6.129086,54.11968],[-6.129169,54.119705],[-6.12924,54.119738],[-6.1293,54.119778],[-6.129349,54.119825],[-6.129387,54.119879],[-6.129422,54.119925],[-6.129455,54.119962],[-6.129485,54.11999],[-6.129512,54.120009],[-6.129557,54.120022],[-6.129619,54.120029],[-6.129698,54.12003],[-6.129795,54.120025],[-6.129881,54.120015],[-6.129957,54.12],[-6.130023,54.11998],[-6.130079,54.119956],[-6.130156,54.119945],[-6.130252,54.119948],[-6.130369,54.119966],[-6.130506,54.119998],[-6.130628,54.120033],[-6.130733,54.120071],[-6.130823,54.120114],[-6.130897,54.120159],[-6.130977,54.120212],[-6.131063,54.120273],[-6.131156,54.12034],[-6.131254,54.120416],[-6.131359,54.120486],[-6.131471,54.120552],[-6.131588,54.120613],[-6.131713,54.120669],[-6.131838,54.120721],[-6.131963,54.12077],[-6.13209,54.120814],[-6.132218,54.120855],[-6.132294,54.120896],[-6.132319,54.120939],[-6.132293,54.120983],[-6.132215,54.121027],[-6.132143,54.121068],[-6.132075,54.121104],[-6.132011,54.121135],[-6.131953,54.121162],[-6.13188,54.121183],[-6.131792,54.121197],[-6.131689,54.121206],[-6.131572,54.121208],[-6.131395,54.12119],[-6.131158,54.121151],[-6.130861,54.121093],[-6.130505,54.121014],[-6.130205,54.120943],[-6.129962,54.12088],[-6.129775,54.120826]],[[-6.099801,54.117179],[-6.099105,54.116947],[-6.098752,54.116803],[-6.098743,54.116747],[-6.098737,54.116654],[-6.098735,54.116525],[-6.098775,54.116376],[-6.098857,54.116206],[-6.098966,54.11603],[-6.099104,54.115846],[-6.099369,54.115674],[-6.099762,54.115514],[-6.099988,54.115397],[-6.100046,54.115325],[-6.10021,54.115224],[-6.10048,54.115094],[-6.100862,54.115],[-6.101357,54.114942],[-6.101681,54.11487],[-6.101832,54.114785],[-6.102052,54.114731],[-6.102338,54.114707],[-6.102527,54.114747],[-6.102617,54.11485],[-6.10261,54.114941],[-6.102505,54.11502],[-6.10251,54.115113],[-6.102627,54.11522],[-6.102716,54.11529],[-6.102779,54.115325],[-6.102851,54.115445],[-6.102932,54.115651],[-6.102857,54.11579],[-6.102627,54.115864],[-6.102542,54.115962],[-6.102603,54.116083],[-6.102697,54.116182],[-6.102826,54.116259],[-6.102923,54.116379],[-6.102987,54.116543],[-6.103045,54.116737],[-6.103096,54.116961],[-6.103033,54.117145],[-6.102856,54.117291],[-6.102629,54.117357],[-6.102352,54.117344],[-6.102113,54.1173],[-6.101911,54.117226],[-6.101658,54.117195],[-6.101354,54.117206],[-6.100939,54.117233],[-6.100412,54.117274],[-6.099801,54.117179]],[[-6.098315,54.119939],[-6.098215,54.120377],[-6.098139,54.120621],[-6.098085,54.120672],[-6.097931,54.120721],[-6.097679,54.120769],[-6.097474,54.120828],[-6.097317,54.1209],[-6.097071,54.120965],[-6.096736,54.121024],[-6.096403,54.120992],[-6.096071,54.120871],[-6.095962,54.120813],[-6.096076,54.12082],[-6.09642,54.12077],[-6.096996,54.120665],[-6.097356,54.120545],[-6.097501,54.120411],[-6.097561,54.120234],[-6.097536,54.120014],[-6.097306,54.119713],[-6.096872,54.119332],[-6.096476,54.119031],[-6.096119,54.118813],[-6.095752,54.118602],[-6.095377,54.1184],[-6.095047,54.118095],[-6.094762,54.117686],[-6.094381,54.117406],[-6.093901,54.117253],[-6.093391,54.117116],[-6.092849,54.116993],[-6.09227,54.116948],[-6.091653,54.116979],[-6.091245,54.116947],[-6.091047,54.116851],[-6.090872,54.116673],[-6.09072,54.116412],[-6.090609,54.116161],[-6.090538,54.115918],[-6.090463,54.115744],[-6.090385,54.115639],[-6.090228,54.115506],[-6.089991,54.115343],[-6.089851,54.115192],[-6.089809,54.115054],[-6.089861,54.114935],[-6.090008,54.114836],[-6.090439,54.114819],[-6.091155,54.114882],[-6.091952,54.115043],[-6.092831,54.1153],[-6.093627,54.115522],[-6.094342,54.115708],[-6.09515,54.115849],[-6.096052,54.115945],[-6.096769,54.116138],[-6.097303,54.116427],[-6.097545,54.116651],[-6.097496,54.116808],[-6.097526,54.116995],[-6.097636,54.117211],[-6.097768,54.117312],[-6.097923,54.117299],[-6.098114,54.117252],[-6.098342,54.117171],[-6.098628,54.117176],[-6.098972,54.117267],[-6.099274,54.117393],[-6.099535,54.117553],[-6.099716,54.11773],[-6.099817,54.117925],[-6.099889,54.118186],[-6.099931,54.118511],[-6.099829,54.118802],[-6.099584,54.119058],[-6.099331,54.119246],[-6.09907,54.119367],[-6.098796,54.119501],[-6.098508,54.119647],[-6.098315,54.119939]]]}}