{"type":"Feature","properties":{"id":"417502","COMMUNE":"Ceredigion","PROVINCE":"South West Wales","COUNTRY":"UK","FIREDATE":"2026-04-08 13:08:00","FINALDATE":"2026-04-08 14:12:00","CLASS":"FireSeason","areaHA_geo":152.078},"geometry":{"type":"Polygon","coordinates":[[[-3.84434,52.152486],[-3.844225,52.152239],[-3.844282,52.151984],[-3.844513,52.15172],[-3.844837,52.151458],[-3.845254,52.1512],[-3.84542,52.151022],[-3.845334,52.150925],[-3.845188,52.150858],[-3.844982,52.15082],[-3.844812,52.150809],[-3.844679,52.150825],[-3.84454,52.150852],[-3.844395,52.150892],[-3.844214,52.15099],[-3.843995,52.151146],[-3.843781,52.151256],[-3.84357,52.15132],[-3.843245,52.151257],[-3.842807,52.151066],[-3.842432,52.150785],[-3.842122,52.150415],[-3.841905,52.150139],[-3.841783,52.149956],[-3.841992,52.149798],[-3.842532,52.149667],[-3.843105,52.14952],[-3.843709,52.149358],[-3.844201,52.149102],[-3.84458,52.148752],[-3.84481,52.148485],[-3.84489,52.148301],[-3.84493,52.148192],[-3.844928,52.148158],[-3.844664,52.148124],[-3.844136,52.148091],[-3.843632,52.148218],[-3.84315,52.148506],[-3.842509,52.148817],[-3.841709,52.149148],[-3.840807,52.149464],[-3.839802,52.149763],[-3.839029,52.150021],[-3.838488,52.150238],[-3.838139,52.150463],[-3.837982,52.150696],[-3.837841,52.150865],[-3.837717,52.15097],[-3.837633,52.151084],[-3.837589,52.151208],[-3.837377,52.151445],[-3.836998,52.151795],[-3.836606,52.152061],[-3.836203,52.152244],[-3.835843,52.152391],[-3.835527,52.152502],[-3.835202,52.152645],[-3.83487,52.15282],[-3.834733,52.152971],[-3.834792,52.1531],[-3.834948,52.1532],[-3.835201,52.153272],[-3.835423,52.153347],[-3.835614,52.153426],[-3.835791,52.153445],[-3.835953,52.153403],[-3.836211,52.153313],[-3.836565,52.153176],[-3.837076,52.153039],[-3.837744,52.152904],[-3.838712,52.152781],[-3.839979,52.152671],[-3.840647,52.152623],[-3.840716,52.152637],[-3.840699,52.152772],[-3.840595,52.153027],[-3.840435,52.153196],[-3.840221,52.153277],[-3.840116,52.153424],[-3.840119,52.153635],[-3.839991,52.15384],[-3.839731,52.154037],[-3.839448,52.154272],[-3.839139,52.154543],[-3.838793,52.154739],[-3.83841,52.154859],[-3.838027,52.154957],[-3.837645,52.155033],[-3.837406,52.155005],[-3.837311,52.154871],[-3.836898,52.154821],[-3.836168,52.154853],[-3.835383,52.15485],[-3.834542,52.154811],[-3.833834,52.154895],[-3.833259,52.155101],[-3.832714,52.155342],[-3.832198,52.155618],[-3.831873,52.15594],[-3.831738,52.156309],[-3.83153,52.156506],[-3.83125,52.156532],[-3.831006,52.156534],[-3.830798,52.156512],[-3.83067,52.156424],[-3.830621,52.156268],[-3.830521,52.156111],[-3.830371,52.155952],[-3.830215,52.155856],[-3.830053,52.155821],[-3.83,52.155751],[-3.830054,52.155644],[-3.83004,52.155519],[-3.829957,52.155376],[-3.829887,52.155292],[-3.829829,52.155268],[-3.829709,52.155305],[-3.829527,52.155403],[-3.829439,52.155602],[-3.829445,52.155901],[-3.829307,52.156339],[-3.829024,52.156917],[-3.82873,52.157558],[-3.828425,52.158262],[-3.828291,52.158754],[-3.828329,52.159033],[-3.828479,52.159273],[-3.828743,52.159472],[-3.828966,52.159622],[-3.829148,52.159723],[-3.829325,52.159906],[-3.829496,52.16017],[-3.829715,52.160267],[-3.829981,52.160197],[-3.830356,52.160091],[-3.830838,52.15995],[-3.831368,52.159799],[-3.831945,52.159639],[-3.832333,52.159474],[-3.832531,52.159305],[-3.832762,52.159124],[-3.833028,52.158931],[-3.833189,52.158805],[-3.833245,52.158745],[-3.833322,52.158609],[-3.833419,52.158398],[-3.833565,52.158127],[-3.833763,52.157797],[-3.833911,52.157549],[-3.834009,52.157384],[-3.834197,52.157162],[-3.834473,52.156884],[-3.834747,52.156698],[-3.835019,52.156605],[-3.835265,52.156568],[-3.835484,52.156588],[-3.835622,52.156606],[-3.835677,52.156623],[-3.835669,52.156678],[-3.835598,52.15677],[-3.835383,52.156984],[-3.835024,52.157318],[-3.834845,52.157608],[-3.834847,52.157853],[-3.834737,52.158062],[-3.834515,52.158234],[-3.834407,52.158488],[-3.834413,52.158825],[-3.834407,52.159126],[-3.834389,52.159389],[-3.8341,52.159726],[-3.83354,52.160138],[-3.833366,52.160476],[-3.833579,52.160741],[-3.833617,52.160898],[-3.833481,52.160948],[-3.833409,52.161091],[-3.833401,52.16133],[-3.833385,52.161502],[-3.833363,52.161606],[-3.833143,52.1617],[-3.832725,52.161784],[-3.832379,52.161833],[-3.832106,52.161848],[-3.831941,52.161851],[-3.831882,52.161841],[-3.831937,52.161885],[-3.832107,52.161984],[-3.832291,52.162081],[-3.832487,52.162177],[-3.832639,52.162218],[-3.832746,52.162205],[-3.832856,52.162201],[-3.832968,52.162205],[-3.833032,52.162231],[-3.833048,52.16228],[-3.832969,52.162383],[-3.832796,52.162539],[-3.832591,52.162682],[-3.832354,52.162812],[-3.832036,52.162858],[-3.831635,52.162821],[-3.83136,52.162785],[-3.831211,52.162752],[-3.831064,52.162769],[-3.830918,52.162837],[-3.830633,52.163032],[-3.830207,52.163354],[-3.829846,52.163354],[-3.82955,52.163033],[-3.829326,52.162762],[-3.829174,52.162542],[-3.829077,52.162367],[-3.829036,52.162236],[-3.828975,52.162175],[-3.828894,52.162185],[-3.828754,52.162269],[-3.828555,52.162429],[-3.828451,52.162585],[-3.828444,52.162739],[-3.828477,52.162888],[-3.82855,52.163032],[-3.828788,52.163259],[-3.829191,52.163568],[-3.829493,52.163821],[-3.829694,52.164018],[-3.830126,52.164332],[-3.830789,52.164763],[-3.831284,52.165188],[-3.83161,52.165608],[-3.831856,52.165902],[-3.832019,52.166069],[-3.832278,52.166098],[-3.832633,52.165988],[-3.832987,52.165836],[-3.833342,52.165641],[-3.833818,52.165432],[-3.834414,52.165209],[-3.83492,52.16492],[-3.835336,52.164565],[-3.83556,52.164131],[-3.835593,52.163618],[-3.835533,52.163252],[-3.835381,52.163032],[-3.835209,52.16284],[-3.835018,52.162676],[-3.835152,52.162439],[-3.83561,52.16213],[-3.836127,52.161856],[-3.836702,52.161616],[-3.837093,52.161461],[-3.8373,52.161392],[-3.83756,52.161316],[-3.837872,52.161235],[-3.838173,52.161168],[-3.838465,52.161115],[-3.838697,52.161093],[-3.83887,52.161101],[-3.839018,52.161173],[-3.839142,52.161307],[-3.839309,52.161532],[-3.839519,52.161847],[-3.839704,52.161995],[-3.839865,52.161976],[-3.839947,52.161963],[-3.83995,52.161956],[-3.839989,52.161955],[-3.840065,52.16196],[-3.840193,52.161894],[-3.840375,52.161757],[-3.840522,52.161627],[-3.840636,52.161504],[-3.840722,52.161436],[-3.840781,52.161424],[-3.840858,52.161429],[-3.840955,52.16145],[-3.841045,52.161566],[-3.841129,52.161775],[-3.841134,52.161977],[-3.841061,52.162172],[-3.840896,52.162302],[-3.840638,52.162365],[-3.840423,52.162379],[-3.84025,52.162345],[-3.840076,52.162333],[-3.8399,52.162342],[-3.839781,52.162406],[-3.839719,52.162523],[-3.839662,52.162741],[-3.83961,52.16306],[-3.839587,52.163257],[-3.839592,52.163335],[-3.839424,52.163412],[-3.839081,52.16349],[-3.838825,52.163599],[-3.838654,52.16374],[-3.83851,52.163894],[-3.838392,52.164062],[-3.838238,52.164242],[-3.838048,52.164434],[-3.837908,52.16456],[-3.837819,52.16462],[-3.837556,52.164638],[-3.837117,52.164613],[-3.836654,52.164665],[-3.836165,52.164794],[-3.835783,52.164905],[-3.835508,52.164997],[-3.835288,52.165097],[-3.835124,52.165204],[-3.834946,52.165335],[-3.834752,52.16549],[-3.834582,52.165631],[-3.834433,52.165758],[-3.834203,52.165952],[-3.833891,52.166214],[-3.833729,52.166398],[-3.833717,52.166503],[-3.833802,52.166586],[-3.833983,52.166647],[-3.834235,52.166637],[-3.834559,52.166555],[-3.83485,52.166569],[-3.83511,52.166681],[-3.835363,52.166731],[-3.83561,52.166718],[-3.835847,52.166786],[-3.836073,52.166935],[-3.836211,52.167031],[-3.836261,52.167075],[-3.836344,52.167084],[-3.836462,52.167059],[-3.836518,52.166981],[-3.836513,52.16685],[-3.836464,52.166667],[-3.836372,52.166431],[-3.836422,52.166233],[-3.836613,52.166073],[-3.836776,52.166005],[-3.836908,52.166028],[-3.837162,52.166107],[-3.837537,52.166244],[-3.837914,52.166301],[-3.838292,52.166278],[-3.838766,52.16603],[-3.839334,52.165557],[-3.839806,52.165148],[-3.840181,52.164802],[-3.84042,52.164576],[-3.840523,52.16447],[-3.840636,52.164416],[-3.840759,52.164413],[-3.841022,52.164352],[-3.841424,52.164233],[-3.841852,52.164012],[-3.842306,52.16369],[-3.842572,52.163503],[-3.842648,52.163451],[-3.842702,52.163436],[-3.842735,52.163458],[-3.842888,52.163418],[-3.843162,52.163318],[-3.843715,52.163134],[-3.844546,52.162866],[-3.845072,52.162727],[-3.845291,52.162718],[-3.845575,52.162651],[-3.845924,52.162525],[-3.846517,52.162115],[-3.847354,52.161422],[-3.848129,52.160711],[-3.848843,52.159981],[-3.84922,52.159603],[-3.849261,52.159576],[-3.84954,52.159462],[-3.850055,52.159263],[-3.850463,52.159036],[-3.850765,52.158783],[-3.850898,52.158516],[-3.850864,52.158236],[-3.851021,52.158062],[-3.851368,52.157994],[-3.851604,52.157969],[-3.851729,52.157985],[-3.851937,52.157958],[-3.852228,52.157887],[-3.852447,52.157693],[-3.852592,52.157375],[-3.852975,52.156964],[-3.853596,52.156461],[-3.854203,52.15606],[-3.854795,52.155762],[-3.855301,52.15551],[-3.855719,52.155305],[-3.856127,52.155202],[-3.856525,52.155202],[-3.85685,52.155143],[-3.857101,52.155025],[-3.857364,52.154893],[-3.85764,52.154746],[-3.857814,52.154534],[-3.857888,52.154256],[-3.857808,52.154084],[-3.857575,52.154018],[-3.857172,52.154081],[-3.856597,52.154274],[-3.856161,52.154408],[-3.855863,52.154485],[-3.855602,52.154492],[-3.85538,52.154431],[-3.855253,52.154324],[-3.855222,52.154172],[-3.855233,52.153992],[-3.855286,52.153783],[-3.85541,52.153642],[-3.855607,52.153567],[-3.855683,52.153524],[-3.855637,52.153514],[-3.855426,52.153557],[-3.85505,52.153653],[-3.854774,52.1538],[-3.854599,52.153997],[-3.854393,52.154218],[-3.854157,52.154464],[-3.853929,52.154654],[-3.853709,52.154789],[-3.853356,52.154838],[-3.85287,52.154803],[-3.852453,52.15481],[-3.852105,52.154862],[-3.851779,52.154958],[-3.851476,52.155097],[-3.851278,52.155209],[-3.851186,52.155292],[-3.851123,52.155551],[-3.85109,52.155985],[-3.851055,52.156264],[-3.851018,52.156387],[-3.850818,52.156546],[-3.850455,52.156739],[-3.850201,52.156873],[-3.850057,52.156948],[-3.849951,52.15697],[-3.849884,52.156939],[-3.849666,52.156912],[-3.849298,52.156888],[-3.849102,52.156878],[-3.849079,52.156884],[-3.849072,52.156884],[-3.849079,52.156876],[-3.849023,52.156792],[-3.848904,52.156629],[-3.848763,52.156558],[-3.848599,52.156577],[-3.848383,52.15667],[-3.848113,52.156837],[-3.847858,52.156968],[-3.847617,52.157064],[-3.847438,52.157072],[-3.847319,52.156993],[-3.847202,52.156875],[-3.847084,52.156718],[-3.847246,52.156559],[-3.847687,52.156398],[-3.848055,52.156168],[-3.84835,52.155868],[-3.848709,52.155634],[-3.84913,52.155465],[-3.849466,52.155348],[-3.849716,52.155282],[-3.849914,52.155077],[-3.85006,52.154733],[-3.850225,52.154449],[-3.850409,52.154226],[-3.850556,52.154006],[-3.850666,52.153791],[-3.850673,52.153585],[-3.850577,52.153389],[-3.85035,52.1533],[-3.849991,52.153316],[-3.849641,52.153376],[-3.8493,52.153478],[-3.84905,52.153637],[-3.848889,52.153853],[-3.848732,52.154066],[-3.848577,52.154276],[-3.848424,52.154476],[-3.848272,52.154665],[-3.848018,52.154814],[-3.847663,52.154923],[-3.847204,52.155053],[-3.846641,52.155202],[-3.846236,52.15533],[-3.84599,52.155437],[-3.845792,52.155533],[-3.845641,52.155619],[-3.845633,52.155674],[-3.845768,52.155699],[-3.845857,52.155728],[-3.845901,52.155759],[-3.845914,52.155827],[-3.845897,52.155933],[-3.845804,52.156001],[-3.845635,52.156031],[-3.845491,52.156046],[-3.845372,52.156044],[-3.845111,52.156129],[-3.844708,52.156302],[-3.844371,52.156471],[-3.844102,52.156637],[-3.843729,52.156814],[-3.843254,52.156999],[-3.84295,52.157178],[-3.842818,52.157349],[-3.842731,52.157465],[-3.842692,52.157527],[-3.84258,52.157665],[-3.842396,52.15788],[-3.84225,52.15796],[-3.842143,52.157905],[-3.842066,52.157872],[-3.842018,52.15786],[-3.841938,52.157907],[-3.841825,52.158015],[-3.841679,52.158182],[-3.841502,52.15841],[-3.841385,52.158532],[-3.841329,52.158548],[-3.841236,52.158638],[-3.841106,52.158802],[-3.840942,52.158869],[-3.840746,52.158841],[-3.840675,52.158763],[-3.840729,52.158637],[-3.840832,52.158533],[-3.840986,52.158451],[-3.841047,52.158382],[-3.841018,52.158323],[-3.841004,52.158273],[-3.841005,52.158233],[-3.841073,52.158193],[-3.841206,52.158154],[-3.841351,52.158084],[-3.841508,52.157986],[-3.841616,52.157855],[-3.841678,52.157693],[-3.841685,52.157523],[-3.841639,52.157346],[-3.841749,52.157072],[-3.842017,52.156702],[-3.84224,52.156489],[-3.84242,52.156434],[-3.842926,52.156167],[-3.84376,52.155691],[-3.844187,52.155397],[-3.844208,52.155285],[-3.843943,52.154993],[-3.843391,52.154519],[-3.843201,52.154141],[-3.843374,52.153856],[-3.843615,52.15367],[-3.843925,52.153582],[-3.844175,52.153573],[-3.844365,52.153642],[-3.84473,52.153728],[-3.845268,52.15383],[-3.845642,52.153872],[-3.845851,52.153853],[-3.846185,52.153679],[-3.846644,52.15335],[-3.847062,52.153042],[-3.847441,52.152757],[-3.847703,52.15258],[-3.84785,52.152511],[-3.847825,52.15243],[-3.847628,52.152339],[-3.84741,52.152288],[-3.847172,52.152276],[-3.84689,52.152317],[-3.846564,52.152413],[-3.846267,52.152526],[-3.845999,52.152655],[-3.84577,52.152791],[-3.84558,52.152934],[-3.84538,52.15298],[-3.845167,52.152931],[-3.844937,52.152826],[-3.84469,52.152666],[-3.844524,52.152592],[-3.84444,52.152603],[-3.84434,52.152486]],[[-3.830447,52.157815],[-3.830506,52.157574],[-3.830355,52.157592],[-3.83009,52.15761],[-3.829862,52.157527],[-3.829824,52.157407],[-3.830046,52.157326],[-3.830171,52.157366],[-3.830414,52.157352],[-3.830701,52.157194],[-3.830918,52.157168],[-3.8311,52.157174],[-3.830986,52.157312],[-3.831242,52.157556],[-3.831332,52.157628],[-3.831327,52.157752],[-3.831017,52.157913],[-3.830447,52.157815]],[[-3.837663,52.155959],[-3.837523,52.15566],[-3.837702,52.155583],[-3.837823,52.155542],[-3.838162,52.155474],[-3.838493,52.155311],[-3.838997,52.155128],[-3.839529,52.154749],[-3.840007,52.154624],[-3.8402,52.154738],[-3.840224,52.154956],[-3.839865,52.155245],[-3.839726,52.15566],[-3.839866,52.15596],[-3.839158,52.15614],[-3.838874,52.156022],[-3.838361,52.155822],[-3.837663,52.155959]],[[-3.84031,52.155729],[-3.840556,52.155439],[-3.840756,52.15536],[-3.841094,52.155293],[-3.841076,52.15502],[-3.841058,52.154678],[-3.841006,52.154299],[-3.841186,52.154086],[-3.841658,52.154016],[-3.841895,52.154126],[-3.841979,52.154391],[-3.841975,52.154735],[-3.841965,52.154846],[-3.842243,52.155157],[-3.842444,52.155298],[-3.84226,52.155498],[-3.842069,52.155604],[-3.841689,52.15547],[-3.841591,52.155371],[-3.841475,52.155289],[-3.841069,52.15557],[-3.840763,52.155882],[-3.84037,52.155777],[-3.84031,52.155729]]]}}