{"type":"Feature","properties":{"id":"432071","COMMUNE":"Powys","PROVINCE":"Powys","COUNTRY":"UK","FIREDATE":"2026-04-24 13:40:00","FINALDATE":"2026-04-24 13:40:00","CLASS":"FireSeason","areaHA_geo":0.955},"geometry":{"type":"Polygon","coordinates":[[[-3.580511,51.894926],[-3.58061,51.894915],[-3.580703,51.894913],[-3.58079,51.894923],[-3.580869,51.894943],[-3.580942,51.894974],[-3.58112,51.89497],[-3.581402,51.894932],[-3.581789,51.89486],[-3.58228,51.894754],[-3.58262,51.894667],[-3.58281,51.894598],[-3.582848,51.894549],[-3.582736,51.894518],[-3.582648,51.894479],[-3.582586,51.894433],[-3.58255,51.894378],[-3.582539,51.894316],[-3.582502,51.894267],[-3.582439,51.89423],[-3.58235,51.894206],[-3.582236,51.894195],[-3.582131,51.894178],[-3.582037,51.894155],[-3.581953,51.894126],[-3.581878,51.89409],[-3.581772,51.894087],[-3.581634,51.894115],[-3.581464,51.894175],[-3.581262,51.894267],[-3.581111,51.894359],[-3.581012,51.894451],[-3.580965,51.894543],[-3.58097,51.894636],[-3.580956,51.894695],[-3.580924,51.89472],[-3.580874,51.894713],[-3.580806,51.894672],[-3.580737,51.894641],[-3.580667,51.89462],[-3.580596,51.894608],[-3.580524,51.894607],[-3.580461,51.894616],[-3.580407,51.894634],[-3.580363,51.894663],[-3.580327,51.894701],[-3.580305,51.894741],[-3.580298,51.894784],[-3.580306,51.894828],[-3.580328,51.894874],[-3.58037,51.894906],[-3.580431,51.894923],[-3.580511,51.894926]]]}}