{"type":"Feature","properties":{"id":"432072","COMMUNE":"Powys","PROVINCE":"Powys","COUNTRY":"UK","FIREDATE":"2026-04-24 13:40:00","FINALDATE":"2026-04-24 13:40:00","CLASS":"FireSeason","areaHA_geo":0.996},"geometry":{"type":"Polygon","coordinates":[[[-3.578204,51.896001],[-3.578375,51.895922],[-3.578468,51.895863],[-3.578483,51.895822],[-3.578421,51.8958],[-3.57829,51.895795],[-3.578092,51.895809],[-3.577826,51.89584],[-3.577491,51.895888],[-3.577222,51.895922],[-3.577017,51.895941],[-3.576878,51.895945],[-3.576803,51.895934],[-3.576752,51.89591],[-3.576724,51.895871],[-3.57672,51.895819],[-3.57674,51.895754],[-3.576759,51.895695],[-3.576779,51.895644],[-3.5768,51.8956],[-3.57682,51.895563],[-3.576808,51.895543],[-3.576763,51.895538],[-3.576685,51.89555],[-3.576574,51.895577],[-3.576479,51.895614],[-3.576397,51.89566],[-3.576331,51.895716],[-3.576279,51.89578],[-3.576233,51.895848],[-3.576191,51.895919],[-3.576154,51.895993],[-3.576122,51.89607],[-3.576078,51.896126],[-3.576021,51.896162],[-3.575952,51.896177],[-3.575871,51.896172],[-3.575791,51.896161],[-3.57571,51.896143],[-3.575629,51.89612],[-3.575549,51.89609],[-3.575479,51.896077],[-3.575421,51.896082],[-3.575374,51.896103],[-3.575338,51.896141],[-3.575331,51.896175],[-3.575351,51.896205],[-3.575401,51.896229],[-3.575478,51.89625],[-3.575548,51.896271],[-3.575611,51.896293],[-3.575665,51.896316],[-3.575712,51.89634],[-3.575732,51.896372],[-3.575724,51.896412],[-3.575689,51.89646],[-3.575627,51.896516],[-3.575649,51.896556],[-3.575756,51.89658],[-3.575947,51.896588],[-3.576223,51.896581],[-3.576453,51.896555],[-3.576638,51.896512],[-3.576778,51.89645],[-3.576873,51.896371],[-3.576979,51.896311],[-3.577098,51.89627],[-3.577228,51.896249],[-3.577371,51.896247],[-3.577539,51.896221],[-3.577735,51.896171],[-3.577956,51.896098],[-3.578204,51.896001]]]}}