{"type":"Feature","properties":{"id":"438856","COMMUNE":"Merthyr Tydfil","PROVINCE":"Central Valleys","COUNTRY":"UK","FIREDATE":"2026-04-29 14:05:00","FINALDATE":"2026-04-30 13:46:00","CLASS":"FireSeason","areaHA_geo":1016.923},"geometry":{"type":"Polygon","coordinates":[[[-3.406517,51.836039],[-3.406523,51.836059],[-3.406413,51.836141],[-3.406186,51.836286],[-3.406042,51.836564],[-3.405982,51.836974],[-3.405971,51.837274],[-3.406009,51.837463],[-3.406119,51.837581],[-3.406299,51.837628],[-3.406414,51.837734],[-3.406464,51.837899],[-3.406646,51.838015],[-3.406961,51.838081],[-3.407272,51.838227],[-3.40758,51.838453],[-3.407784,51.838639],[-3.407884,51.838787],[-3.408041,51.838939],[-3.408254,51.839097],[-3.40838,51.839239],[-3.408418,51.839365],[-3.408477,51.839455],[-3.408558,51.839508],[-3.408699,51.839608],[-3.4089,51.839755],[-3.409168,51.83995],[-3.409501,51.840191],[-3.409679,51.840333],[-3.4097,51.840375],[-3.409557,51.840507],[-3.409252,51.840728],[-3.408957,51.840925],[-3.408673,51.8411],[-3.408365,51.841256],[-3.408034,51.841392],[-3.407796,51.8416],[-3.407649,51.841879],[-3.407451,51.842043],[-3.4072,51.842094],[-3.407082,51.842173],[-3.407097,51.842281],[-3.407301,51.842487],[-3.407694,51.842791],[-3.408088,51.84292],[-3.408482,51.842875],[-3.409049,51.8427],[-3.409791,51.842397],[-3.410685,51.84207],[-3.411731,51.84172],[-3.41227,51.841539],[-3.412302,51.841527],[-3.41229,51.841478],[-3.412236,51.841393],[-3.412149,51.841205],[-3.412029,51.840914],[-3.412008,51.840631],[-3.412085,51.840357],[-3.41227,51.840203],[-3.412563,51.840169],[-3.412897,51.840298],[-3.413272,51.840589],[-3.413581,51.840841],[-3.413822,51.841053],[-3.414021,51.841149],[-3.414175,51.841129],[-3.414518,51.841137],[-3.415048,51.841173],[-3.415307,51.841209],[-3.415295,51.841244],[-3.415365,51.841367],[-3.415517,51.841579],[-3.415809,51.841928],[-3.416239,51.842413],[-3.416764,51.842801],[-3.417383,51.84309],[-3.418147,51.843215],[-3.419056,51.843175],[-3.419574,51.843092],[-3.419701,51.842964],[-3.419728,51.842806],[-3.419656,51.842618],[-3.419705,51.842465],[-3.419877,51.842347],[-3.420069,51.842374],[-3.42028,51.842546],[-3.420417,51.842629],[-3.420479,51.842622],[-3.420525,51.842712],[-3.420554,51.8429],[-3.420759,51.84307],[-3.421138,51.843221],[-3.421632,51.843163],[-3.422243,51.842896],[-3.42269,51.84285],[-3.422973,51.843025],[-3.423318,51.842991],[-3.423723,51.842747],[-3.423964,51.842283],[-3.42404,51.841597],[-3.424124,51.841219],[-3.424214,51.841151],[-3.424291,51.841092],[-3.424354,51.841045],[-3.424361,51.840928],[-3.424313,51.840741],[-3.424351,51.840562],[-3.424474,51.840391],[-3.424668,51.840344],[-3.424931,51.840422],[-3.425089,51.840522],[-3.425141,51.840643],[-3.425169,51.840715],[-3.42517,51.840735],[-3.425297,51.840728],[-3.42555,51.840694],[-3.425738,51.840729],[-3.42586,51.840834],[-3.425961,51.840878],[-3.42604,51.840862],[-3.426106,51.840812],[-3.426158,51.840728],[-3.426388,51.840623],[-3.426797,51.840497],[-3.427056,51.840428],[-3.427164,51.840415],[-3.427364,51.840477],[-3.427655,51.840612],[-3.42786,51.840706],[-3.427976,51.84076],[-3.428035,51.840816],[-3.428037,51.840875],[-3.42815,51.840931],[-3.428373,51.840984],[-3.428588,51.840851],[-3.428795,51.840532],[-3.428909,51.840291],[-3.428929,51.840128],[-3.428971,51.840006],[-3.429035,51.839926],[-3.429312,51.839563],[-3.429801,51.838915],[-3.430108,51.838458],[-3.430233,51.83819],[-3.430316,51.837965],[-3.430357,51.837782],[-3.430331,51.837652],[-3.430238,51.837574],[-3.430165,51.837513],[-3.430113,51.837469],[-3.429992,51.837418],[-3.429802,51.837358],[-3.429616,51.837338],[-3.429435,51.837359],[-3.429309,51.837409],[-3.42924,51.837488],[-3.429163,51.837527],[-3.429081,51.837526],[-3.428915,51.837456],[-3.428667,51.837316],[-3.428624,51.837071],[-3.428786,51.836724],[-3.429087,51.836584],[-3.429525,51.836651],[-3.430102,51.836623],[-3.430818,51.836498],[-3.43131,51.836314],[-3.431579,51.836072],[-3.431849,51.83583],[-3.432118,51.835588],[-3.432276,51.835317],[-3.432322,51.835016],[-3.432382,51.834795],[-3.432455,51.834653],[-3.432551,51.83456],[-3.43267,51.834515],[-3.432844,51.834381],[-3.433073,51.834157],[-3.433247,51.833956],[-3.433365,51.833778],[-3.433426,51.833665],[-3.433428,51.833616],[-3.433502,51.833574],[-3.433648,51.833542],[-3.433902,51.833635],[-3.434265,51.833854],[-3.434444,51.833968],[-3.434438,51.833975],[-3.434356,51.834028],[-3.434198,51.834128],[-3.433991,51.834282],[-3.433733,51.83449],[-3.433646,51.834666],[-3.433728,51.834811],[-3.433839,51.834911],[-3.433978,51.834967],[-3.434044,51.834998],[-3.434036,51.835005],[-3.434081,51.835172],[-3.43418,51.835498],[-3.434599,51.83564],[-3.43534,51.835597],[-3.435753,51.835537],[-3.435838,51.83546],[-3.435851,51.835369],[-3.435791,51.835265],[-3.435698,51.83517],[-3.43557,51.835083],[-3.435418,51.834995],[-3.435242,51.834904],[-3.435258,51.834852],[-3.435464,51.834837],[-3.435635,51.834847],[-3.43577,51.834879],[-3.435944,51.834939],[-3.436157,51.835025],[-3.436287,51.835078],[-3.436332,51.835097],[-3.43657,51.835093],[-3.437,51.835067],[-3.437345,51.83498],[-3.437605,51.834829],[-3.437704,51.834704],[-3.437643,51.834605],[-3.437517,51.834526],[-3.437327,51.834466],[-3.43713,51.834386],[-3.436926,51.834287],[-3.436848,51.833988],[-3.436897,51.83349],[-3.437125,51.833006],[-3.437531,51.832537],[-3.438078,51.831968],[-3.438766,51.831297],[-3.439208,51.830719],[-3.439403,51.830232],[-3.439483,51.82959],[-3.439447,51.828792],[-3.439642,51.828305],[-3.440068,51.828129],[-3.440453,51.827983],[-3.440797,51.827865],[-3.440956,51.827733],[-3.440929,51.827585],[-3.440905,51.827437],[-3.440884,51.827287],[-3.440801,51.827148],[-3.440655,51.827018],[-3.440479,51.826856],[-3.440272,51.826662],[-3.440129,51.826488],[-3.44005,51.826335],[-3.439961,51.82619],[-3.439861,51.826052],[-3.439623,51.825942],[-3.439249,51.82586],[-3.438911,51.825931],[-3.438609,51.826156],[-3.438357,51.826211],[-3.438156,51.826096],[-3.437864,51.825993],[-3.437483,51.8259],[-3.437035,51.825858],[-3.43652,51.825867],[-3.436207,51.825925],[-3.436095,51.826033],[-3.435823,51.82609],[-3.435391,51.826095],[-3.434976,51.826346],[-3.434579,51.826841],[-3.434244,51.827007],[-3.433973,51.826846],[-3.433828,51.826719],[-3.433809,51.826629],[-3.433774,51.826527],[-3.433723,51.826414],[-3.433666,51.826327],[-3.433603,51.826265],[-3.433551,51.826164],[-3.433509,51.826025],[-3.433722,51.825823],[-3.434189,51.825558],[-3.43463,51.825317],[-3.435044,51.8251],[-3.435346,51.824854],[-3.435537,51.824579],[-3.435519,51.824426],[-3.435291,51.824394],[-3.435153,51.824341],[-3.435105,51.824264],[-3.434995,51.824192],[-3.434823,51.824124],[-3.434553,51.824062],[-3.434185,51.824007],[-3.433465,51.824036],[-3.432394,51.824149],[-3.431851,51.824211],[-3.431838,51.824223],[-3.431737,51.824289],[-3.431547,51.824409],[-3.431371,51.824548],[-3.431209,51.824706],[-3.431208,51.824827],[-3.431368,51.824912],[-3.431478,51.824968],[-3.43154,51.824995],[-3.431525,51.825095],[-3.431434,51.825267],[-3.431289,51.825364],[-3.431091,51.825387],[-3.430979,51.825406],[-3.430953,51.825422],[-3.430881,51.825399],[-3.430761,51.825339],[-3.430689,51.825313],[-3.430666,51.825321],[-3.430556,51.825414],[-3.430359,51.825591],[-3.430027,51.825906],[-3.42956,51.826357],[-3.429347,51.826636],[-3.429387,51.826742],[-3.429372,51.826833],[-3.429303,51.82691],[-3.429197,51.826956],[-3.429055,51.826973],[-3.428912,51.826958],[-3.428767,51.826912],[-3.428537,51.826877],[-3.428221,51.826855],[-3.427863,51.826938],[-3.427461,51.827126],[-3.42723,51.827264],[-3.42717,51.827354],[-3.427211,51.827449],[-3.427352,51.82755],[-3.427346,51.827765],[-3.427192,51.828095],[-3.427014,51.828315],[-3.42681,51.828426],[-3.426654,51.828603],[-3.426545,51.828844],[-3.426556,51.82898],[-3.426687,51.829011],[-3.42693,51.829245],[-3.427283,51.829682],[-3.427551,51.829928],[-3.427735,51.829983],[-3.427867,51.830037],[-3.42795,51.830092],[-3.42801,51.830181],[-3.428047,51.830305],[-3.427833,51.830408],[-3.427367,51.830491],[-3.427131,51.830533],[-3.427128,51.830533],[-3.427059,51.830541],[-3.426926,51.830556],[-3.426874,51.830597],[-3.426904,51.830664],[-3.426921,51.830701],[-3.426925,51.830708],[-3.426884,51.830751],[-3.426797,51.830829],[-3.426606,51.830873],[-3.42631,51.830884],[-3.426126,51.830786],[-3.426055,51.830578],[-3.426007,51.830418],[-3.425982,51.830304],[-3.426012,51.830181],[-3.426095,51.830049],[-3.426079,51.829888],[-3.425965,51.829697],[-3.425891,51.829595],[-3.425859,51.829582],[-3.425737,51.829663],[-3.425525,51.829838],[-3.425374,51.830025],[-3.425282,51.830222],[-3.425222,51.830319],[-3.425192,51.830316],[-3.425123,51.830243],[-3.425013,51.830098],[-3.424941,51.82997],[-3.424907,51.829857],[-3.424963,51.829743],[-3.425107,51.829627],[-3.425083,51.829531],[-3.42489,51.829454],[-3.424641,51.829399],[-3.424338,51.829364],[-3.423947,51.829307],[-3.42347,51.829228],[-3.42281,51.829123],[-3.421968,51.828993],[-3.421501,51.828951],[-3.421411,51.828996],[-3.421276,51.829035],[-3.421097,51.829067],[-3.420953,51.829061],[-3.420845,51.829015],[-3.420754,51.828918],[-3.420681,51.828769],[-3.42042,51.828703],[-3.419972,51.82872],[-3.41965,51.828844],[-3.419456,51.829076],[-3.41934,51.829271],[-3.419302,51.82943],[-3.4191,51.829526],[-3.418732,51.82956],[-3.418334,51.829555],[-3.417905,51.829511],[-3.417621,51.829509],[-3.417481,51.829548],[-3.417338,51.829713],[-3.417189,51.830004],[-3.417001,51.830162],[-3.416772,51.830189],[-3.416605,51.830307],[-3.416498,51.830517],[-3.416367,51.830661],[-3.41621,51.830737],[-3.415999,51.830709],[-3.415732,51.830576],[-3.415693,51.830432],[-3.415882,51.830277],[-3.41605,51.830126],[-3.416195,51.829982],[-3.416263,51.829846],[-3.416253,51.829719],[-3.416311,51.829584],[-3.416438,51.829441],[-3.41656,51.829264],[-3.416675,51.829053],[-3.416726,51.828782],[-3.416711,51.828452],[-3.416755,51.828205],[-3.416857,51.828042],[-3.416933,51.827889],[-3.416982,51.827747],[-3.416885,51.827497],[-3.416642,51.82714],[-3.416606,51.826938],[-3.416777,51.826892],[-3.41694,51.826852],[-3.417094,51.826819],[-3.417216,51.826799],[-3.417307,51.826792],[-3.417405,51.82679],[-3.417511,51.826791],[-3.417624,51.826796],[-3.417744,51.826805],[-3.417856,51.826802],[-3.417961,51.826789],[-3.418057,51.826763],[-3.418144,51.826726],[-3.418242,51.826665],[-3.41835,51.826581],[-3.418467,51.826472],[-3.418594,51.826339],[-3.418701,51.826206],[-3.418788,51.826074],[-3.418855,51.825943],[-3.418902,51.825811],[-3.418946,51.825686],[-3.418988,51.825567],[-3.419026,51.825454],[-3.419062,51.825346],[-3.419137,51.825237],[-3.419252,51.825124],[-3.419406,51.825009],[-3.419599,51.824892],[-3.419738,51.824788],[-3.419823,51.8247],[-3.419854,51.824626],[-3.41983,51.824566],[-3.419885,51.824504],[-3.42002,51.824438],[-3.420235,51.824369],[-3.420529,51.824297],[-3.420831,51.824201],[-3.421141,51.824079],[-3.42146,51.823933],[-3.421786,51.823762],[-3.422045,51.823638],[-3.422236,51.82356],[-3.422359,51.823528],[-3.422415,51.823542],[-3.42248,51.823542],[-3.422555,51.823527],[-3.422641,51.823497],[-3.422737,51.823452],[-3.422844,51.823401],[-3.422963,51.823344],[-3.423094,51.82328],[-3.423237,51.82321],[-3.423343,51.823147],[-3.423414,51.823092],[-3.423449,51.823044],[-3.423447,51.823004],[-3.42354,51.822968],[-3.423727,51.822936],[-3.424008,51.822909],[-3.424384,51.822886],[-3.424695,51.822885],[-3.424942,51.822907],[-3.425124,51.822952],[-3.425243,51.823019],[-3.425397,51.82307],[-3.425588,51.823105],[-3.425815,51.823125],[-3.426078,51.823128],[-3.426288,51.8231],[-3.426445,51.823042],[-3.426549,51.822952],[-3.4266,51.822832],[-3.426684,51.822721],[-3.426801,51.82262],[-3.426951,51.822529],[-3.427134,51.822448],[-3.42727,51.822356],[-3.42736,51.822255],[-3.427403,51.822144],[-3.427399,51.822023],[-3.427469,51.821939],[-3.427613,51.821893],[-3.427831,51.821883],[-3.428123,51.821909],[-3.428416,51.821874],[-3.428708,51.821776],[-3.429001,51.821616],[-3.429294,51.821394],[-3.429553,51.821194],[-3.429778,51.821017],[-3.429969,51.820862],[-3.430126,51.82073],[-3.430283,51.820629],[-3.430443,51.82056],[-3.430604,51.820523],[-3.430766,51.820518],[-3.430935,51.820481],[-3.431111,51.820414],[-3.431294,51.820316],[-3.431484,51.820186],[-3.431704,51.820053],[-3.431952,51.819917],[-3.432229,51.819777],[-3.432535,51.819634],[-3.432789,51.819509],[-3.432992,51.819401],[-3.433142,51.819312],[-3.43324,51.81924],[-3.433284,51.81914],[-3.433273,51.819014],[-3.433208,51.81886],[-3.433087,51.818678],[-3.432943,51.818517],[-3.432774,51.818375],[-3.432582,51.818252],[-3.432365,51.818149],[-3.432137,51.818044],[-3.431897,51.817937],[-3.431646,51.817828],[-3.431383,51.817717],[-3.431218,51.817585],[-3.431149,51.817431],[-3.431178,51.817256],[-3.431305,51.81706],[-3.431442,51.81691],[-3.431591,51.816805],[-3.43175,51.816746],[-3.431921,51.816733],[-3.432119,51.81671],[-3.432344,51.816678],[-3.432596,51.816635],[-3.432875,51.816583],[-3.433093,51.816529],[-3.433251,51.816474],[-3.433349,51.816417],[-3.433386,51.816359],[-3.433423,51.816303],[-3.433461,51.816248],[-3.4335,51.816194],[-3.433539,51.816143],[-3.433632,51.816119],[-3.433781,51.816122],[-3.433984,51.816152],[-3.434241,51.81621],[-3.434547,51.816235],[-3.434899,51.816228],[-3.435299,51.816189],[-3.435747,51.816117],[-3.436122,51.816074],[-3.436423,51.816059],[-3.436651,51.816073],[-3.436806,51.816116],[-3.437012,51.816111],[-3.437269,51.816057],[-3.437577,51.815956],[-3.437935,51.815807],[-3.438235,51.815641],[-3.438474,51.815459],[-3.438654,51.81526],[-3.438775,51.815044],[-3.438865,51.814855],[-3.438925,51.814694],[-3.438956,51.814559],[-3.438956,51.814451],[-3.438876,51.814359],[-3.438717,51.814283],[-3.438478,51.814224],[-3.438159,51.81418],[-3.437853,51.814161],[-3.43756,51.814168],[-3.437281,51.8142],[-3.437014,51.814258],[-3.436749,51.81432],[-3.436486,51.814388],[-3.436224,51.81446],[-3.435963,51.814537],[-3.435697,51.814612],[-3.435423,51.814684],[-3.435144,51.814753],[-3.434859,51.81482],[-3.434633,51.814871],[-3.434467,51.814907],[-3.434362,51.814928],[-3.434316,51.814934],[-3.434277,51.814925],[-3.434243,51.814901],[-3.434215,51.814863],[-3.434192,51.81481],[-3.434178,51.814747],[-3.434171,51.814673],[-3.434173,51.814588],[-3.434182,51.814492],[-3.434188,51.814407],[-3.43419,51.814332],[-3.434189,51.814267],[-3.434184,51.814214],[-3.434273,51.814151],[-3.434458,51.814079],[-3.434737,51.813999],[-3.435112,51.81391],[-3.43544,51.813818],[-3.435723,51.813724],[-3.43596,51.813627],[-3.436151,51.813528],[-3.436329,51.813437],[-3.436495,51.813353],[-3.43665,51.813276],[-3.436792,51.813206],[-3.436898,51.81312],[-3.436967,51.813017],[-3.437002,51.812941],[-3.437001,51.812891],[-3.437071,51.812841],[-3.437212,51.812791],[-3.437369,51.812745],[-3.437542,51.812703],[-3.437602,51.812655],[-3.43755,51.812602],[-3.437463,51.812561],[-3.43734,51.812531],[-3.437243,51.812518],[-3.437173,51.812522],[-3.43712,51.812531],[-3.437087,51.812543],[-3.437036,51.812562],[-3.436967,51.812587],[-3.436883,51.812596],[-3.436785,51.812589],[-3.436693,51.812561],[-3.436606,51.812512],[-3.436638,51.812467],[-3.436788,51.812428],[-3.436914,51.81238],[-3.437017,51.812324],[-3.437073,51.812242],[-3.437082,51.812134],[-3.437117,51.812032],[-3.437178,51.811936],[-3.437229,51.811838],[-3.437271,51.811737],[-3.437318,51.811665],[-3.437371,51.811622],[-3.437439,51.811581],[-3.437523,51.811542],[-3.437592,51.811491],[-3.437645,51.81143],[-3.437679,51.811383],[-3.437692,51.811351],[-3.437704,51.811321],[-3.437715,51.811295],[-3.43769,51.811273],[-3.437628,51.811254],[-3.437545,51.811228],[-3.437442,51.811196],[-3.437344,51.811176],[-3.437252,51.811168],[-3.437192,51.811162],[-3.437164,51.811157],[-3.437148,51.811167],[-3.437144,51.811192],[-3.437148,51.811258],[-3.437161,51.811363],[-3.437126,51.811503],[-3.437045,51.811678],[-3.436916,51.811888],[-3.436741,51.812133],[-3.436534,51.812328],[-3.436295,51.812474],[-3.436105,51.812558],[-3.435964,51.812579],[-3.435864,51.812615],[-3.435803,51.812664],[-3.435767,51.812718],[-3.435754,51.812774],[-3.435742,51.812835],[-3.435732,51.812899],[-3.435683,51.812956],[-3.435596,51.813007],[-3.435534,51.813009],[-3.435496,51.812961],[-3.435466,51.812904],[-3.435446,51.812836],[-3.435404,51.812785],[-3.43534,51.812752],[-3.435259,51.812732],[-3.435161,51.812725],[-3.43509,51.81269],[-3.435048,51.812629],[-3.435028,51.812589],[-3.435032,51.812571],[-3.435024,51.812557],[-3.435004,51.812547],[-3.434996,51.8125],[-3.434999,51.812416],[-3.435016,51.812357],[-3.435046,51.812322],[-3.435016,51.81223],[-3.434929,51.812082],[-3.434892,51.811974],[-3.434908,51.811906],[-3.434958,51.811876],[-3.435045,51.811885],[-3.435132,51.811895],[-3.435219,51.811907],[-3.435309,51.811897],[-3.435401,51.811864],[-3.435458,51.811824],[-3.43548,51.811777],[-3.435489,51.811717],[-3.435484,51.811644],[-3.435507,51.81158],[-3.435557,51.811527],[-3.435643,51.811478],[-3.435765,51.811433],[-3.435833,51.811409],[-3.435845,51.811404],[-3.435909,51.811383],[-3.436023,51.811344],[-3.436108,51.8113],[-3.436166,51.811253],[-3.436184,51.811185],[-3.436163,51.811095],[-3.436104,51.811046],[-3.436006,51.811039],[-3.435837,51.811057],[-3.435598,51.811099],[-3.435445,51.811124],[-3.435378,51.811132],[-3.435323,51.811138],[-3.43528,51.811143],[-3.435176,51.811138],[-3.43501,51.811124],[-3.434914,51.811102],[-3.434887,51.811073],[-3.43486,51.811043],[-3.434832,51.811012],[-3.434742,51.810991],[-3.434589,51.810979],[-3.434504,51.810974],[-3.434489,51.810976],[-3.434428,51.810983],[-3.434322,51.810995],[-3.434227,51.810982],[-3.434144,51.810944],[-3.434112,51.810897],[-3.434131,51.810843],[-3.434155,51.810794],[-3.434184,51.81075],[-3.434202,51.810702],[-3.43421,51.81065],[-3.434239,51.810611],[-3.434287,51.810585],[-3.434323,51.810566],[-3.434347,51.810554],[-3.434378,51.810508],[-3.434414,51.81043],[-3.434429,51.81036],[-3.434422,51.810298],[-3.434378,51.810241],[-3.434296,51.810187],[-3.434275,51.81014],[-3.434317,51.810098],[-3.434366,51.810054],[-3.434424,51.810006],[-3.43442,51.809953],[-3.434354,51.809894],[-3.434271,51.809858],[-3.434171,51.809843],[-3.434113,51.809811],[-3.434098,51.809761],[-3.434124,51.809708],[-3.434191,51.809653],[-3.434355,51.809591],[-3.434616,51.809524],[-3.434847,51.809444],[-3.435046,51.809351],[-3.435182,51.809283],[-3.435253,51.809242],[-3.435284,51.809144],[-3.435273,51.80899],[-3.435304,51.808874],[-3.435376,51.808796],[-3.435452,51.808711],[-3.435533,51.808621],[-3.435528,51.808525],[-3.435438,51.808425],[-3.435359,51.808364],[-3.435293,51.808342],[-3.435213,51.808316],[-3.43512,51.808286],[-3.435057,51.808275],[-3.435023,51.808282],[-3.435003,51.808305],[-3.434997,51.808343],[-3.434989,51.808406],[-3.43498,51.808496],[-3.434954,51.808589],[-3.434912,51.808687],[-3.434809,51.808734],[-3.434646,51.80873],[-3.434484,51.80874],[-3.434323,51.808762],[-3.43421,51.808773],[-3.434144,51.808773],[-3.434101,51.808749],[-3.43408,51.8087],[-3.434011,51.808661],[-3.433895,51.808634],[-3.433762,51.808611],[-3.433613,51.808591],[-3.433488,51.808585],[-3.433388,51.808594],[-3.433326,51.808599],[-3.433304,51.808601],[-3.433246,51.808596],[-3.433153,51.808585],[-3.433103,51.808541],[-3.433098,51.808464],[-3.433076,51.808409],[-3.433036,51.808377],[-3.432956,51.808379],[-3.432835,51.808415],[-3.432698,51.808438],[-3.432545,51.808448],[-3.432457,51.808414],[-3.432433,51.808335],[-3.432503,51.808268],[-3.432666,51.808213],[-3.432793,51.808148],[-3.432885,51.808075],[-3.432937,51.807989],[-3.432949,51.807892],[-3.432981,51.807832],[-3.433031,51.807809],[-3.433058,51.807747],[-3.433063,51.807646],[-3.433082,51.807585],[-3.433116,51.807566],[-3.433169,51.807539],[-3.433243,51.807505],[-3.433295,51.807468],[-3.433324,51.807427],[-3.433333,51.807388],[-3.433321,51.807348],[-3.433273,51.807317],[-3.433188,51.807294],[-3.433142,51.807277],[-3.433135,51.807267],[-3.433125,51.807251],[-3.43311,51.807231],[-3.433109,51.807199],[-3.43312,51.807157],[-3.433144,51.807118],[-3.433181,51.80708],[-3.433212,51.807036],[-3.433239,51.806985],[-3.433251,51.806908],[-3.43325,51.806804],[-3.433257,51.806719],[-3.433272,51.80665],[-3.433324,51.806613],[-3.433412,51.806607],[-3.433503,51.806611],[-3.433597,51.806626],[-3.433656,51.806636],[-3.433682,51.80664],[-3.433735,51.806636],[-3.433815,51.806623],[-3.433862,51.806601],[-3.433877,51.80657],[-3.433885,51.806528],[-3.433888,51.806476],[-3.433839,51.806443],[-3.433739,51.806429],[-3.43363,51.806406],[-3.433513,51.806375],[-3.433409,51.806339],[-3.433319,51.806298],[-3.433229,51.806247],[-3.433139,51.806187],[-3.433037,51.806148],[-3.432923,51.806127],[-3.432859,51.806118],[-3.432845,51.806118],[-3.432762,51.806087],[-3.432611,51.806024],[-3.432444,51.805958],[-3.432261,51.805887],[-3.432152,51.805857],[-3.432116,51.805868],[-3.43204,51.805893],[-3.431926,51.805932],[-3.431821,51.805939],[-3.431723,51.805913],[-3.431606,51.805873],[-3.43147,51.805819],[-3.431386,51.805778],[-3.431354,51.805752],[-3.431305,51.805719],[-3.431239,51.805679],[-3.431164,51.805649],[-3.43108,51.805629],[-3.430999,51.80562],[-3.430922,51.805621],[-3.430855,51.805648],[-3.430799,51.805698],[-3.430755,51.805744],[-3.430726,51.805784],[-3.430678,51.805836],[-3.430613,51.805899],[-3.430577,51.805957],[-3.430569,51.806009],[-3.430578,51.806067],[-3.430603,51.806131],[-3.430661,51.806167],[-3.430754,51.806175],[-3.430825,51.806142],[-3.430875,51.80607],[-3.43094,51.806027],[-3.43102,51.806015],[-3.431063,51.806037],[-3.431068,51.806096],[-3.431044,51.806154],[-3.43099,51.806212],[-3.430957,51.806254],[-3.430948,51.806281],[-3.430944,51.80631],[-3.430947,51.806339],[-3.43097,51.806386],[-3.431012,51.806451],[-3.431101,51.806498],[-3.431237,51.806527],[-3.431369,51.806526],[-3.431498,51.806497],[-3.431586,51.806461],[-3.431633,51.806418],[-3.431691,51.806371],[-3.431759,51.806319],[-3.431912,51.806261],[-3.43215,51.806196],[-3.432305,51.806173],[-3.432376,51.806191],[-3.432465,51.806237],[-3.432572,51.806314],[-3.432679,51.806383],[-3.432788,51.806444],[-3.432869,51.806496],[-3.432924,51.806537],[-3.432886,51.80659],[-3.432755,51.806653],[-3.432646,51.806678],[-3.432558,51.806666],[-3.432508,51.806619],[-3.432495,51.806535],[-3.432444,51.806476],[-3.432356,51.806442],[-3.432282,51.806416],[-3.432222,51.806397],[-3.432132,51.806416],[-3.432012,51.806474],[-3.431923,51.806535],[-3.431864,51.806597],[-3.431792,51.806637],[-3.431707,51.806654],[-3.431648,51.806688],[-3.431616,51.80674],[-3.431577,51.80678],[-3.431531,51.806809],[-3.431512,51.806833],[-3.431522,51.806851],[-3.431516,51.806881],[-3.431493,51.806924],[-3.431448,51.80696],[-3.431381,51.806989],[-3.431319,51.806996],[-3.43126,51.806979],[-3.431201,51.806971],[-3.431141,51.80697],[-3.431104,51.806989],[-3.431092,51.807027],[-3.431085,51.807052],[-3.431082,51.807061],[-3.431076,51.80709],[-3.431066,51.807137],[-3.431041,51.807166],[-3.431003,51.807178],[-3.430946,51.80719],[-3.430872,51.807202],[-3.430811,51.807217],[-3.430762,51.807234],[-3.430718,51.807248],[-3.43068,51.80726],[-3.430627,51.807253],[-3.430559,51.807227],[-3.430495,51.807198],[-3.430434,51.807164],[-3.430398,51.807144],[-3.430387,51.807138],[-3.430382,51.807128],[-3.430384,51.807113],[-3.430428,51.8071],[-3.430515,51.80709],[-3.430586,51.807077],[-3.43064,51.807059],[-3.430637,51.807039],[-3.430577,51.807017],[-3.4305,51.807002],[-3.430408,51.806994],[-3.430322,51.806978],[-3.430243,51.806954],[-3.430173,51.806941],[-3.430113,51.806941],[-3.430055,51.806955],[-3.429998,51.806984],[-3.429939,51.807018],[-3.429879,51.807058],[-3.429849,51.807079],[-3.429847,51.80708],[-3.429833,51.807084],[-3.429807,51.807089],[-3.429764,51.807099],[-3.429702,51.807112],[-3.42965,51.807123],[-3.429608,51.807132],[-3.429584,51.807137],[-3.42958,51.807139],[-3.429556,51.807174],[-3.429512,51.807241],[-3.42947,51.8073],[-3.429431,51.807348],[-3.429377,51.807388],[-3.429308,51.807418],[-3.429246,51.807442],[-3.429192,51.807459],[-3.429094,51.807483],[-3.428955,51.807513],[-3.428788,51.80758],[-3.428595,51.807684],[-3.428384,51.80779],[-3.428157,51.807901],[-3.427963,51.808006],[-3.4278,51.808105],[-3.427671,51.808198],[-3.427573,51.808285],[-3.42748,51.808371],[-3.427392,51.808455],[-3.427308,51.808538],[-3.427228,51.808619],[-3.427167,51.808679],[-3.427125,51.808719],[-3.427102,51.808738],[-3.427098,51.808736],[-3.427088,51.808737],[-3.427073,51.808741],[-3.427056,51.808757],[-3.427036,51.808786],[-3.426985,51.80884],[-3.426901,51.80892],[-3.42678,51.808995],[-3.426621,51.809065],[-3.426486,51.809114],[-3.426375,51.809141],[-3.426259,51.809166],[-3.42614,51.809187],[-3.426043,51.809205],[-3.42597,51.809221],[-3.425888,51.809247],[-3.425797,51.809284],[-3.425703,51.809317],[-3.425604,51.809347],[-3.425523,51.809387],[-3.425461,51.809439],[-3.425401,51.80949],[-3.425345,51.809541],[-3.42528,51.809563],[-3.425206,51.809557],[-3.425146,51.809527],[-3.4251,51.809473],[-3.424999,51.809446],[-3.424843,51.809445],[-3.42472,51.809434],[-3.424629,51.809411],[-3.424555,51.809386],[-3.424498,51.809359],[-3.424432,51.809364],[-3.424358,51.809402],[-3.424319,51.809421],[-3.424316,51.809422],[-3.424314,51.809425],[-3.424311,51.80943],[-3.424302,51.809448],[-3.424285,51.809479],[-3.424314,51.809519],[-3.424389,51.80957],[-3.424455,51.809619],[-3.424512,51.809668],[-3.424543,51.809722],[-3.424549,51.80978],[-3.424509,51.809838],[-3.424425,51.809896],[-3.424261,51.809959],[-3.424018,51.810028],[-3.423815,51.810098],[-3.42365,51.810168],[-3.423504,51.81022],[-3.423376,51.810253],[-3.423141,51.810329],[-3.422799,51.810446],[-3.422571,51.810531],[-3.422455,51.810585],[-3.422355,51.810639],[-3.422269,51.810693],[-3.422175,51.81073],[-3.422073,51.810749],[-3.421991,51.810755],[-3.421929,51.810747],[-3.421857,51.810746],[-3.421775,51.810752],[-3.421703,51.810784],[-3.421643,51.810843],[-3.421591,51.810889],[-3.421548,51.810924],[-3.421489,51.810958],[-3.421416,51.810993],[-3.421321,51.811026],[-3.421205,51.811058],[-3.421117,51.811064],[-3.421057,51.811045],[-3.421008,51.811035],[-3.420969,51.811034],[-3.420933,51.811032],[-3.420899,51.811031],[-3.420858,51.811039],[-3.420809,51.811055],[-3.420759,51.81108],[-3.420709,51.811111],[-3.420678,51.811133],[-3.420667,51.811143],[-3.420641,51.811157],[-3.420599,51.811174],[-3.42057,51.811191],[-3.420552,51.811208],[-3.420547,51.811239],[-3.420554,51.811282],[-3.420597,51.811305],[-3.420675,51.811307],[-3.42078,51.811306],[-3.42091,51.811302],[-3.421021,51.811323],[-3.421113,51.811368],[-3.421207,51.811401],[-3.421303,51.811423],[-3.421474,51.811433],[-3.421719,51.811431],[-3.421901,51.811428],[-3.42202,51.811426],[-3.422164,51.811427],[-3.422334,51.811434],[-3.42243,51.811447],[-3.422454,51.811466],[-3.422495,51.811502],[-3.422553,51.811554],[-3.42255,51.811593],[-3.422486,51.811619],[-3.422405,51.811621],[-3.422309,51.811599],[-3.422212,51.811595],[-3.422114,51.81161],[-3.422,51.811627],[-3.421868,51.811646],[-3.421727,51.811666],[-3.421577,51.811687],[-3.421442,51.811705],[-3.42132,51.811719],[-3.421229,51.811735],[-3.421169,51.811753],[-3.42112,51.811788],[-3.421081,51.81184],[-3.421026,51.811876],[-3.420954,51.811896],[-3.420897,51.811885],[-3.420856,51.811846],[-3.420831,51.811786],[-3.420825,51.811705],[-3.420763,51.811659],[-3.420646,51.811647],[-3.420512,51.811642],[-3.420363,51.811644],[-3.420255,51.811653],[-3.420188,51.811668],[-3.42012,51.81167],[-3.420051,51.81166],[-3.42004,51.811633],[-3.420087,51.811591],[-3.420127,51.811557],[-3.420161,51.811531],[-3.420137,51.811499],[-3.420053,51.81146],[-3.419963,51.811448],[-3.419865,51.811463],[-3.419758,51.811496],[-3.419642,51.811546],[-3.419544,51.81158],[-3.419465,51.811596],[-3.419392,51.811595],[-3.419325,51.811575],[-3.419289,51.811564],[-3.419284,51.811563],[-3.419235,51.811549],[-3.419143,51.811522],[-3.419083,51.811511],[-3.419054,51.811514],[-3.419031,51.811539],[-3.419015,51.811584],[-3.419005,51.811611],[-3.419002,51.81162],[-3.418994,51.811641],[-3.41898,51.811676],[-3.418906,51.811709],[-3.418771,51.811739],[-3.418639,51.811758],[-3.41851,51.811765],[-3.418398,51.811782],[-3.418304,51.811808],[-3.418204,51.811816],[-3.418099,51.811807],[-3.418025,51.811817],[-3.41798,51.811847],[-3.417906,51.8119],[-3.417803,51.811974],[-3.417743,51.812033],[-3.417726,51.812076],[-3.417683,51.812101],[-3.417614,51.812109],[-3.41757,51.812114],[-3.417552,51.812116],[-3.417515,51.812131],[-3.417458,51.81216],[-3.417404,51.812199],[-3.417353,51.81225],[-3.417345,51.812293],[-3.41738,51.81233],[-3.41745,51.812344],[-3.417554,51.812335],[-3.417613,51.81233],[-3.417625,51.812329],[-3.417706,51.812338],[-3.417856,51.812358],[-3.417962,51.812403],[-3.418025,51.812473],[-3.418048,51.812539],[-3.418031,51.8126],[-3.418002,51.812664],[-3.417963,51.812732],[-3.417932,51.812809],[-3.41791,51.812896],[-3.417866,51.812979],[-3.4178,51.813057],[-3.417737,51.813107],[-3.417678,51.813128],[-3.417625,51.813126],[-3.417578,51.813099],[-3.417527,51.813069],[-3.417473,51.813038],[-3.417422,51.813025],[-3.417376,51.81303],[-3.41734,51.813053],[-3.417316,51.813092],[-3.417287,51.813153],[-3.417252,51.813235],[-3.417222,51.813298],[-3.417197,51.813344],[-3.417175,51.813387],[-3.417153,51.813428],[-3.4171,51.813475],[-3.417014,51.81353],[-3.416907,51.813553],[-3.416779,51.813546],[-3.416693,51.813525],[-3.41665,51.813491],[-3.416607,51.813457],[-3.416564,51.813423],[-3.416495,51.813386],[-3.416398,51.813346],[-3.416329,51.813322],[-3.416285,51.813316],[-3.416219,51.813326],[-3.41613,51.813351],[-3.416048,51.81338],[-3.415972,51.813415],[-3.415897,51.813439],[-3.415825,51.813453],[-3.415685,51.813481],[-3.415477,51.813523],[-3.415287,51.813552],[-3.415114,51.813569],[-3.41496,51.813573],[-3.414823,51.813565],[-3.414718,51.81355],[-3.414643,51.813526],[-3.4146,51.813494],[-3.414588,51.813454],[-3.414592,51.813395],[-3.414612,51.813319],[-3.414649,51.813225],[-3.414701,51.813112],[-3.414759,51.813012],[-3.414823,51.812924],[-3.414892,51.812847],[-3.414966,51.812783],[-3.415062,51.812723],[-3.415178,51.812667],[-3.415315,51.812614],[-3.415473,51.812566],[-3.415627,51.812512],[-3.415778,51.812455],[-3.415925,51.812392],[-3.416069,51.812325],[-3.416183,51.812263],[-3.416269,51.812206],[-3.416325,51.812153],[-3.416351,51.812106],[-3.41637,51.812057],[-3.41638,51.812005],[-3.416381,51.811951],[-3.416375,51.811895],[-3.416357,51.811853],[-3.416328,51.811825],[-3.416288,51.81181],[-3.416236,51.81181],[-3.416176,51.811814],[-3.416107,51.811822],[-3.416028,51.811834],[-3.415941,51.81185],[-3.415832,51.811886],[-3.4157,51.811943],[-3.415546,51.812019],[-3.41537,51.812115],[-3.415203,51.812172],[-3.415045,51.81219],[-3.414895,51.81217],[-3.414754,51.81211],[-3.414613,51.812058],[-3.414472,51.812015],[-3.414384,51.811989],[-3.41435,51.811983],[-3.414228,51.812022],[-3.414017,51.812108],[-3.413827,51.812198],[-3.413657,51.812291],[-3.41347,51.812335],[-3.413264,51.812329],[-3.413112,51.812328],[-3.413013,51.812332],[-3.412915,51.812336],[-3.412819,51.81234],[-3.412711,51.812363],[-3.412593,51.812406],[-3.412469,51.812434],[-3.412341,51.812445],[-3.41227,51.812448],[-3.412258,51.812445],[-3.412232,51.812437],[-3.412191,51.812424],[-3.41215,51.812398],[-3.412108,51.812359],[-3.412084,51.812321],[-3.412077,51.812284],[-3.412063,51.812265],[-3.412042,51.812262],[-3.412032,51.81226],[-3.412032,51.81226],[-3.412071,51.812217],[-3.412148,51.812132],[-3.412264,51.812005],[-3.412418,51.811836],[-3.412531,51.811703],[-3.412604,51.811606],[-3.412637,51.811545],[-3.41263,51.811521],[-3.412558,51.81151],[-3.41242,51.811514],[-3.412218,51.811531],[-3.411951,51.811561],[-3.411708,51.811572],[-3.41149,51.811562],[-3.411296,51.811532],[-3.411128,51.811482],[-3.410979,51.81143],[-3.410852,51.811376],[-3.410745,51.811319],[-3.410658,51.81126],[-3.410595,51.811209],[-3.410557,51.811166],[-3.410538,51.811143],[-3.410539,51.811141],[-3.410522,51.811133],[-3.410489,51.811121],[-3.410463,51.811084],[-3.410444,51.811023],[-3.410459,51.810972],[-3.410506,51.810929],[-3.410571,51.810898],[-3.410655,51.810877],[-3.410714,51.810846],[-3.41075,51.810805],[-3.410773,51.810742],[-3.410783,51.810655],[-3.410809,51.810593],[-3.410851,51.810555],[-3.410964,51.81052],[-3.411146,51.810488],[-3.411281,51.810471],[-3.41137,51.810468],[-3.411529,51.810479],[-3.411759,51.810504],[-3.411985,51.810519],[-3.412207,51.810523],[-3.412356,51.810508],[-3.412429,51.810473],[-3.412506,51.810429],[-3.412585,51.810376],[-3.412658,51.810318],[-3.412723,51.810255],[-3.412861,51.810228],[-3.413074,51.810237],[-3.413227,51.810219],[-3.413321,51.810175],[-3.413448,51.810086],[-3.413605,51.809954],[-3.413699,51.809876],[-3.413728,51.809855],[-3.413805,51.809852],[-3.413928,51.809868],[-3.413991,51.809874],[-3.413994,51.809869],[-3.413984,51.809795],[-3.413962,51.809653],[-3.413936,51.809524],[-3.413907,51.809411],[-3.413875,51.809312],[-3.413839,51.809228],[-3.413748,51.809155],[-3.413601,51.809092],[-3.413399,51.809042],[-3.413141,51.809002],[-3.41289,51.808986],[-3.412647,51.808995],[-3.412411,51.809029],[-3.412183,51.809087],[-3.411966,51.809107],[-3.411761,51.80909],[-3.411568,51.809035],[-3.411386,51.808942],[-3.411221,51.80886],[-3.411071,51.808789],[-3.410938,51.808728],[-3.41082,51.808678],[-3.41073,51.808642],[-3.410666,51.808617],[-3.410629,51.808606],[-3.410619,51.808607],[-3.410585,51.808612],[-3.410525,51.808621],[-3.410441,51.808634],[-3.410332,51.808651],[-3.410221,51.808625],[-3.410108,51.808556],[-3.409993,51.808444],[-3.409876,51.808289],[-3.409743,51.808168],[-3.409595,51.808082],[-3.409431,51.80803],[-3.409252,51.808013],[-3.409044,51.808019],[-3.408807,51.80805],[-3.408542,51.808104],[-3.408248,51.808182],[-3.408002,51.808217],[-3.407805,51.808208],[-3.407656,51.808155],[-3.407555,51.80806],[-3.407425,51.807979],[-3.407266,51.807913],[-3.407077,51.807862],[-3.406859,51.807826],[-3.40669,51.807772],[-3.406569,51.8077],[-3.406496,51.807611],[-3.406472,51.807504],[-3.406479,51.807416],[-3.406516,51.807348],[-3.406584,51.807299],[-3.406682,51.807269],[-3.406818,51.807248],[-3.406992,51.807236],[-3.407204,51.807232],[-3.407453,51.807236],[-3.40768,51.807235],[-3.407882,51.807228],[-3.408061,51.807216],[-3.408216,51.807198],[-3.408324,51.807168],[-3.408385,51.807127],[-3.408398,51.807073],[-3.408364,51.807008],[-3.408315,51.806948],[-3.408252,51.806892],[-3.408174,51.806841],[-3.408082,51.806794],[-3.408017,51.80673],[-3.407977,51.806647],[-3.407964,51.806547],[-3.407977,51.806428],[-3.408006,51.806333],[-3.40805,51.806262],[-3.40811,51.806215],[-3.408186,51.806191],[-3.408283,51.806189],[-3.408401,51.80621],[-3.40854,51.806254],[-3.408701,51.806319],[-3.408852,51.806384],[-3.408993,51.806447],[-3.409124,51.806509],[-3.409245,51.80657],[-3.409351,51.806627],[-3.409442,51.80668],[-3.409519,51.806728],[-3.409581,51.806772],[-3.409651,51.806809],[-3.409731,51.806839],[-3.409819,51.806862],[-3.409917,51.806877],[-3.409994,51.806874],[-3.41005,51.806851],[-3.410086,51.806808],[-3.410101,51.806746],[-3.410103,51.806662],[-3.410089,51.806553],[-3.410062,51.806422],[-3.41002,51.806268],[-3.409999,51.806128],[-3.409998,51.806004],[-3.410017,51.805894],[-3.410057,51.8058],[-3.410103,51.805713],[-3.410154,51.805633],[-3.410212,51.805561],[-3.410275,51.805497],[-3.410323,51.805427],[-3.410356,51.805351],[-3.410374,51.805269],[-3.410377,51.805182],[-3.410384,51.8051],[-3.410393,51.805023],[-3.410406,51.804951],[-3.410423,51.804884],[-3.41045,51.804833],[-3.410487,51.804796],[-3.410535,51.804774],[-3.410593,51.804766],[-3.410655,51.80478],[-3.410722,51.804816],[-3.410794,51.804873],[-3.41087,51.804952],[-3.410954,51.805021],[-3.411047,51.805079],[-3.411148,51.805126],[-3.411258,51.805164],[-3.411463,51.805199],[-3.411762,51.805231],[-3.412117,51.805259],[-3.412526,51.805282],[-3.412757,51.805329],[-3.412811,51.805398],[-3.412767,51.805494],[-3.412624,51.805615],[-3.412419,51.805746],[-3.412151,51.805888],[-3.412059,51.806095],[-3.412141,51.806367],[-3.412079,51.80654],[-3.411873,51.806614],[-3.411805,51.806768],[-3.411875,51.807001],[-3.411929,51.807181],[-3.411967,51.807307],[-3.412008,51.807469],[-3.412051,51.807665],[-3.412112,51.807814],[-3.412192,51.807915],[-3.412463,51.808005],[-3.412927,51.808082],[-3.413435,51.808089],[-3.413987,51.808026],[-3.414768,51.80791],[-3.415779,51.807744],[-3.416593,51.807605],[-3.417213,51.807493],[-3.417599,51.807287],[-3.417754,51.806988],[-3.417835,51.80683],[-3.417844,51.806814],[-3.417908,51.806826],[-3.418028,51.806865],[-3.418206,51.806886],[-3.418442,51.806891],[-3.418728,51.806875],[-3.419064,51.806839],[-3.419357,51.806774],[-3.419609,51.80668],[-3.419819,51.806558],[-3.419987,51.806407],[-3.420159,51.806268],[-3.420335,51.806141],[-3.420514,51.806026],[-3.420697,51.805923],[-3.420866,51.805844],[-3.421022,51.805787],[-3.421165,51.805754],[-3.421295,51.805745],[-3.421472,51.805705],[-3.421697,51.805636],[-3.421969,51.805536],[-3.422289,51.805407],[-3.422577,51.80529],[-3.422832,51.805184],[-3.423054,51.80509],[-3.423244,51.805007],[-3.423469,51.804948],[-3.423728,51.804912],[-3.424023,51.804899],[-3.424352,51.80491],[-3.424657,51.80491],[-3.424937,51.804901],[-3.425194,51.804881],[-3.425426,51.804852],[-3.425634,51.804821],[-3.425818,51.804789],[-3.425978,51.804756],[-3.426114,51.804722],[-3.426254,51.804692],[-3.426399,51.804666],[-3.426549,51.804644],[-3.426703,51.804626],[-3.42686,51.804593],[-3.427019,51.804546],[-3.427182,51.804483],[-3.427348,51.804406],[-3.427516,51.804331],[-3.427686,51.804258],[-3.427857,51.804188],[-3.42803,51.80412],[-3.428183,51.804053],[-3.428316,51.803988],[-3.428429,51.803923],[-3.428522,51.803859],[-3.428577,51.803794],[-3.428596,51.803726],[-3.428577,51.803658],[-3.428521,51.803587],[-3.428444,51.803511],[-3.428344,51.80343],[-3.428222,51.803343],[-3.428078,51.803251],[-3.427941,51.803145],[-3.42781,51.803026],[-3.427686,51.802894],[-3.427569,51.802748],[-3.427486,51.802623],[-3.427437,51.802519],[-3.427423,51.802435],[-3.427442,51.802371],[-3.427478,51.802313],[-3.427531,51.802259],[-3.4276,51.80221],[-3.427686,51.802166],[-3.427803,51.802115],[-3.427951,51.802058],[-3.428131,51.801995],[-3.428343,51.801925],[-3.428518,51.801865],[-3.428657,51.801813],[-3.42876,51.80177],[-3.428828,51.801735],[-3.428875,51.801701],[-3.428903,51.801666],[-3.428912,51.80163],[-3.428901,51.801594],[-3.42878,51.801521],[-3.428548,51.801409],[-3.428207,51.80126],[-3.427754,51.801074],[-3.42736,51.800914],[-3.427022,51.80078],[-3.426743,51.800673],[-3.42652,51.800592],[-3.426319,51.800527],[-3.426138,51.800478],[-3.425979,51.800444],[-3.42584,51.800425],[-3.42574,51.800396],[-3.425681,51.800355],[-3.425661,51.800303],[-3.42568,51.80024],[-3.425716,51.800175],[-3.425767,51.800109],[-3.425834,51.800043],[-3.425917,51.799975],[-3.425957,51.799917],[-3.425956,51.799869],[-3.425912,51.799832],[-3.425827,51.799805],[-3.425743,51.799796],[-3.425663,51.799807],[-3.425585,51.799837],[-3.425509,51.799885],[-3.425441,51.79994],[-3.425383,51.800001],[-3.425332,51.800069],[-3.42529,51.800143],[-3.425224,51.80022],[-3.425134,51.800301],[-3.425021,51.800385],[-3.424883,51.800472],[-3.424728,51.800562],[-3.424553,51.800653],[-3.42436,51.800747],[-3.424148,51.800843],[-3.42399,51.800931],[-3.423887,51.801011],[-3.423839,51.801082],[-3.423845,51.801145],[-3.423831,51.801198],[-3.423796,51.80124],[-3.423741,51.801272],[-3.423666,51.801294],[-3.423594,51.801308],[-3.423525,51.801313],[-3.423458,51.80131],[-3.423395,51.801299],[-3.423338,51.8013],[-3.423288,51.801312],[-3.423244,51.801336],[-3.423208,51.801372],[-3.423193,51.801418],[-3.423199,51.801474],[-3.423226,51.80154],[-3.423274,51.801616],[-3.423295,51.801672],[-3.423288,51.80171],[-3.423254,51.801728],[-3.423192,51.801727],[-3.423125,51.801742],[-3.423052,51.801772],[-3.422973,51.801817],[-3.422888,51.801878],[-3.422841,51.801942],[-3.422832,51.802009],[-3.42286,51.802079],[-3.422926,51.802152],[-3.422998,51.802206],[-3.423078,51.802241],[-3.423165,51.802256],[-3.423259,51.802253],[-3.423337,51.802271],[-3.423398,51.802312],[-3.423444,51.802374],[-3.423473,51.802459],[-3.423489,51.802531],[-3.423491,51.802591],[-3.42348,51.802638],[-3.423455,51.802672],[-3.423409,51.802706],[-3.423344,51.802738],[-3.423258,51.802768],[-3.423152,51.802797],[-3.42307,51.802844],[-3.423012,51.802908],[-3.422978,51.80299],[-3.422968,51.803088],[-3.422984,51.803181],[-3.423026,51.803266],[-3.423093,51.803345],[-3.423186,51.803417],[-3.423258,51.803487],[-3.423308,51.803553],[-3.423336,51.803616],[-3.423342,51.803676],[-3.42331,51.803737],[-3.423239,51.803798],[-3.423129,51.803858],[-3.422982,51.803919],[-3.422855,51.803958],[-3.422749,51.803974],[-3.422663,51.803967],[-3.422599,51.803938],[-3.422533,51.803906],[-3.422465,51.803871],[-3.422395,51.803833],[-3.422324,51.803793],[-3.422253,51.803754],[-3.422183,51.803719],[-3.422113,51.803685],[-3.422044,51.803654],[-3.421961,51.803634],[-3.421864,51.803626],[-3.421752,51.803629],[-3.421625,51.803644],[-3.421493,51.803651],[-3.421355,51.803652],[-3.421211,51.803646],[-3.421061,51.803634],[-3.420935,51.803598],[-3.420832,51.803541],[-3.420753,51.80346],[-3.420698,51.803358],[-3.420644,51.803274],[-3.420592,51.803211],[-3.420541,51.803167],[-3.420491,51.803143],[-3.420446,51.803112],[-3.420407,51.803072],[-3.420372,51.803025],[-3.420343,51.80297],[-3.420302,51.802921],[-3.420251,51.802875],[-3.420188,51.802835],[-3.420114,51.8028],[-3.420015,51.802767],[-3.419891,51.802738],[-3.419743,51.802711],[-3.419569,51.802687],[-3.419416,51.802668],[-3.419282,51.802655],[-3.419169,51.802646],[-3.419075,51.802643],[-3.419,51.802623],[-3.418944,51.802587],[-3.418906,51.802534],[-3.418886,51.802465],[-3.41887,51.802391],[-3.418857,51.802313],[-3.418848,51.80223],[-3.418841,51.802143],[-3.418848,51.802056],[-3.418869,51.801968],[-3.418904,51.80188],[-3.418953,51.801791],[-3.419002,51.801707],[-3.419053,51.801626],[-3.419106,51.80155],[-3.419159,51.801478],[-3.419251,51.801422],[-3.419381,51.801381],[-3.41955,51.801356],[-3.419757,51.801347],[-3.419904,51.801325],[-3.41999,51.801291],[-3.420017,51.801244],[-3.419983,51.801184],[-3.419933,51.801133],[-3.419867,51.801091],[-3.419784,51.801057],[-3.419686,51.801031],[-3.419589,51.800992],[-3.419493,51.800938],[-3.419399,51.80087],[-3.419307,51.800788],[-3.419226,51.800708],[-3.419155,51.800631],[-3.419095,51.800556],[-3.419045,51.800484],[-3.418975,51.800423],[-3.418883,51.800374],[-3.418769,51.800336],[-3.418635,51.80031],[-3.418514,51.800291],[-3.418408,51.800279],[-3.418315,51.800274],[-3.418236,51.800276],[-3.418174,51.800309],[-3.418128,51.800374],[-3.418099,51.800471],[-3.418086,51.800599],[-3.418078,51.800724],[-3.418073,51.800846],[-3.418072,51.800964],[-3.418074,51.801078],[-3.41807,51.801187],[-3.418058,51.801291],[-3.418038,51.80139],[-3.418011,51.801483],[-3.417963,51.801569],[-3.417894,51.801646],[-3.417804,51.801715],[-3.417693,51.801775],[-3.417595,51.80182],[-3.417509,51.801848],[-3.417435,51.801859],[-3.417374,51.801855],[-3.417299,51.801845],[-3.41721,51.801829],[-3.417108,51.801809],[-3.416992,51.801782],[-3.416866,51.801766],[-3.416729,51.80176],[-3.416582,51.801764],[-3.416425,51.801778],[-3.416285,51.801791],[-3.416163,51.801801],[-3.41606,51.801811],[-3.415975,51.801819],[-3.415907,51.801848],[-3.415857,51.8019],[-3.415824,51.801973],[-3.415809,51.802068],[-3.41579,51.80217],[-3.415766,51.802278],[-3.415739,51.802392],[-3.415708,51.802512],[-3.415698,51.80261],[-3.415708,51.802686],[-3.41574,51.80274],[-3.415792,51.802772],[-3.415835,51.802798],[-3.415868,51.802818],[-3.415891,51.802832],[-3.415905,51.80284],[-3.415931,51.802863],[-3.41597,51.8029],[-3.416021,51.802951],[-3.416084,51.803016],[-3.416145,51.803087],[-3.416201,51.803163],[-3.416254,51.803243],[-3.416304,51.803329],[-3.41633,51.803406],[-3.416334,51.803474],[-3.416315,51.803534],[-3.416273,51.803584],[-3.416208,51.803619],[-3.416121,51.803637],[-3.416011,51.80364],[-3.415879,51.803626],[-3.415773,51.803603],[-3.415694,51.803571],[-3.415641,51.803531],[-3.415615,51.803482],[-3.415592,51.803438],[-3.415573,51.803401],[-3.415556,51.80337],[-3.415543,51.803345],[-3.415533,51.803306],[-3.415526,51.803254],[-3.415522,51.803188],[-3.415522,51.803109],[-3.415506,51.803041],[-3.415475,51.802984],[-3.415427,51.802938],[-3.415364,51.802903],[-3.415314,51.802875],[-3.415277,51.802855],[-3.415253,51.802841],[-3.415242,51.802835],[-3.415212,51.802819],[-3.415165,51.802792],[-3.415099,51.802756],[-3.415015,51.802709],[-3.414858,51.802678],[-3.414626,51.802662],[-3.41432,51.802661],[-3.41394,51.802676],[-3.41365,51.802689],[-3.413451,51.8027],[-3.413344,51.80271],[-3.413326,51.802718],[-3.413282,51.802722],[-3.41321,51.802721],[-3.41311,51.802715],[-3.412983,51.802705],[-3.412857,51.802699],[-3.412731,51.8027],[-3.412606,51.802705],[-3.412482,51.802716],[-3.412349,51.802739],[-3.412208,51.802775],[-3.412058,51.802824],[-3.4119,51.802885],[-3.411752,51.802929],[-3.411614,51.802958],[-3.411487,51.80297],[-3.411369,51.802965],[-3.411251,51.802953],[-3.411132,51.802933],[-3.411012,51.802905],[-3.410891,51.802869],[-3.410793,51.802841],[-3.410717,51.802821],[-3.410664,51.802809],[-3.410634,51.802805],[-3.410597,51.802795],[-3.410553,51.802778],[-3.410501,51.802755],[-3.410443,51.802724],[-3.410382,51.802703],[-3.41032,51.802689],[-3.410255,51.802684],[-3.410189,51.802688],[-3.41013,51.802699],[-3.410078,51.802717],[-3.410034,51.802743],[-3.409997,51.802777],[-3.409968,51.802809],[-3.409949,51.802841],[-3.40994,51.802872],[-3.409939,51.802901],[-3.409919,51.802935],[-3.40988,51.802971],[-3.409822,51.803011],[-3.409745,51.803053],[-3.409686,51.803114],[-3.409643,51.803193],[-3.409617,51.803291],[-3.409608,51.803406],[-3.409603,51.803517],[-3.4096,51.803624],[-3.4096,51.803726],[-3.409604,51.803824],[-3.409596,51.803914],[-3.409578,51.803997],[-3.409548,51.804071],[-3.409507,51.804139],[-3.409472,51.804204],[-3.409443,51.804267],[-3.409419,51.804327],[-3.4094,51.804386],[-3.40936,51.804439],[-3.4093,51.804485],[-3.409219,51.804526],[-3.409117,51.804561],[-3.409011,51.804585],[-3.4089,51.804597],[-3.408784,51.804598],[-3.408664,51.804588],[-3.408533,51.804565],[-3.408391,51.804528],[-3.408302,51.804504],[-3.408267,51.80449],[-3.408174,51.804476],[-3.408024,51.804461],[-3.407921,51.804429],[-3.407864,51.80438],[-3.407805,51.804302],[-3.407742,51.804195],[-3.407682,51.804113],[-3.407623,51.804057],[-3.407586,51.804004],[-3.407571,51.803954],[-3.407572,51.803918],[-3.407589,51.803894],[-3.407608,51.803868],[-3.407629,51.803839],[-3.407648,51.803794],[-3.407666,51.803733],[-3.407673,51.803665],[-3.407669,51.803592],[-3.407598,51.803556],[-3.40746,51.803557],[-3.407394,51.803565],[-3.407398,51.803579],[-3.407381,51.803589],[-3.407343,51.803595],[-3.407249,51.803609],[-3.407098,51.803633],[-3.406908,51.803654],[-3.406681,51.803673],[-3.40651,51.80369],[-3.406397,51.803706],[-3.406334,51.803716],[-3.406321,51.803717],[-3.406294,51.80373],[-3.406255,51.803753],[-3.406196,51.803788],[-3.406119,51.803833],[-3.406062,51.803895],[-3.406025,51.803973],[-3.405995,51.80403],[-3.40597,51.804067],[-3.405888,51.8041],[-3.405749,51.80413],[-3.405679,51.804146],[-3.405677,51.804146],[-3.405641,51.804169],[-3.405571,51.804214],[-3.405484,51.804272],[-3.405379,51.804343],[-3.405329,51.804415],[-3.405333,51.804489],[-3.405357,51.804578],[-3.405401,51.804684],[-3.405474,51.804768],[-3.405575,51.804831],[-3.40563,51.804914],[-3.405637,51.805018],[-3.405615,51.805079],[-3.405561,51.805099],[-3.405491,51.805113],[-3.405405,51.805123],[-3.405295,51.805116],[-3.405161,51.80509],[-3.405046,51.805078],[-3.404951,51.805078],[-3.404855,51.805089],[-3.40476,51.805111],[-3.404677,51.805144],[-3.404607,51.805189],[-3.404534,51.805244],[-3.404457,51.805308],[-3.404436,51.805358],[-3.404471,51.805395],[-3.40448,51.805453],[-3.404462,51.805533],[-3.404415,51.805597],[-3.40434,51.805647],[-3.404288,51.805701],[-3.404258,51.805759],[-3.404223,51.805834],[-3.404184,51.805923],[-3.40419,51.805993],[-3.404241,51.806042],[-3.404293,51.806036],[-3.404346,51.805975],[-3.404428,51.805937],[-3.404538,51.805925],[-3.40469,51.805931],[-3.404883,51.805957],[-3.405014,51.805962],[-3.405081,51.805947],[-3.405155,51.805935],[-3.405237,51.805926],[-3.405297,51.805919],[-3.405338,51.805914],[-3.405374,51.805947],[-3.405407,51.806017],[-3.405449,51.806095],[-3.405499,51.806182],[-3.405525,51.80626],[-3.405529,51.80633],[-3.405504,51.806388],[-3.405452,51.806434],[-3.405358,51.80646],[-3.405222,51.806465],[-3.405077,51.806463],[-3.404925,51.806455],[-3.404785,51.806456],[-3.404656,51.806467],[-3.404533,51.806494],[-3.404414,51.806537],[-3.404184,51.80661],[-3.403844,51.806712],[-3.403652,51.806739],[-3.403608,51.806691],[-3.403577,51.806655],[-3.403557,51.806633],[-3.403478,51.806601],[-3.403339,51.806558],[-3.403264,51.806533],[-3.403253,51.806526],[-3.403228,51.806511],[-3.403187,51.806486],[-3.403148,51.806441],[-3.40311,51.806375],[-3.403118,51.806327],[-3.40317,51.806297],[-3.403182,51.806219],[-3.403153,51.806094],[-3.403079,51.806003],[-3.402958,51.805945],[-3.402871,51.805922],[-3.402818,51.805935],[-3.40273,51.805946],[-3.402607,51.805957],[-3.40253,51.805952],[-3.402498,51.805933],[-3.402472,51.805918],[-3.402453,51.805906],[-3.402401,51.805888],[-3.402316,51.805865],[-3.40225,51.805865],[-3.402203,51.805889],[-3.402188,51.805928],[-3.402204,51.805981],[-3.402217,51.806024],[-3.402227,51.806056],[-3.402248,51.806109],[-3.402283,51.806183],[-3.402314,51.806257],[-3.402342,51.806331],[-3.402345,51.806399],[-3.402321,51.806461],[-3.402273,51.806509],[-3.4022,51.806543],[-3.40209,51.806556],[-3.401943,51.806547],[-3.401799,51.806547],[-3.401658,51.806555],[-3.401392,51.806675],[-3.401,51.806905],[-3.400775,51.807034],[-3.400718,51.807063],[-3.400575,51.807055],[-3.400346,51.807011],[-3.400168,51.807017],[-3.400041,51.807072],[-3.399911,51.807148],[-3.399778,51.807245],[-3.399642,51.80741],[-3.399503,51.807644],[-3.39935,51.80784],[-3.399182,51.808],[-3.399023,51.808087],[-3.398871,51.808101],[-3.398777,51.808065],[-3.398739,51.807981],[-3.398702,51.807906],[-3.398664,51.80784],[-3.398566,51.807824],[-3.398408,51.807856],[-3.398271,51.807918],[-3.398155,51.808009],[-3.39805,51.808119],[-3.397957,51.808248],[-3.397866,51.808362],[-3.397776,51.808461],[-3.397766,51.808549],[-3.397837,51.808626],[-3.397888,51.808696],[-3.397919,51.808759],[-3.397914,51.808801],[-3.397871,51.808823],[-3.397853,51.808836],[-3.397858,51.808841],[-3.397894,51.808879],[-3.397961,51.808948],[-3.39785,51.808974],[-3.397561,51.808956],[-3.397316,51.808913],[-3.397117,51.808846],[-3.396843,51.808832],[-3.396496,51.808872],[-3.396156,51.808826],[-3.395822,51.808693],[-3.395506,51.808674],[-3.395209,51.808769],[-3.394895,51.808946],[-3.394565,51.809205],[-3.394368,51.809474],[-3.394306,51.809753],[-3.39424,51.810022],[-3.394171,51.810281],[-3.394204,51.81054],[-3.394338,51.810796],[-3.394427,51.810946],[-3.394472,51.810989],[-3.394563,51.81106],[-3.3947,51.811158],[-3.394773,51.81121],[-3.394782,51.811216],[-3.394815,51.811236],[-3.394873,51.811271],[-3.394923,51.811264],[-3.394967,51.811214],[-3.395007,51.811169],[-3.395044,51.811128],[-3.395086,51.811077],[-3.395134,51.811016],[-3.395167,51.810938],[-3.395187,51.810844],[-3.395227,51.81078],[-3.395289,51.810747],[-3.395354,51.810784],[-3.395422,51.810891],[-3.395499,51.810949],[-3.395583,51.810959],[-3.395655,51.810967],[-3.395713,51.810974],[-3.395783,51.810925],[-3.395865,51.810819],[-3.395907,51.810739],[-3.395907,51.810684],[-3.395909,51.810608],[-3.39591,51.810512],[-3.395892,51.81039],[-3.395853,51.810243],[-3.395881,51.810156],[-3.395975,51.810131],[-3.396108,51.810132],[-3.396278,51.810161],[-3.396387,51.810215],[-3.396435,51.810294],[-3.396423,51.810395],[-3.396352,51.810518],[-3.396309,51.810605],[-3.396294,51.810656],[-3.396368,51.810747],[-3.396533,51.810879],[-3.39652,51.811062],[-3.396329,51.811296],[-3.396166,51.811525],[-3.396032,51.81175],[-3.395936,51.811959],[-3.395879,51.812153],[-3.395839,51.812326],[-3.395816,51.812477],[-3.39581,51.812606],[-3.395822,51.812714],[-3.395852,51.812824],[-3.395899,51.812936],[-3.395964,51.813049],[-3.396046,51.813163],[-3.396129,51.813261],[-3.396211,51.813342],[-3.396261,51.813388],[-3.396277,51.813397],[-3.396037,51.813635],[-3.395541,51.814101],[-3.395272,51.814329],[-3.395228,51.814316],[-3.395078,51.814304],[-3.39482,51.814291],[-3.394518,51.814304],[-3.394172,51.814344],[-3.393569,51.814488],[-3.392708,51.814736],[-3.391927,51.81494],[-3.391225,51.815099],[-3.390699,51.815213],[-3.39035,51.815282],[-3.390065,51.815311],[-3.389842,51.815301],[-3.389559,51.815262],[-3.389216,51.815195],[-3.388865,51.815239],[-3.388508,51.815394],[-3.388211,51.81552],[-3.387975,51.815619],[-3.387725,51.815708],[-3.387461,51.815788],[-3.387306,51.815888],[-3.387261,51.816007],[-3.387178,51.816152],[-3.387056,51.816322],[-3.386833,51.816483],[-3.386509,51.816634],[-3.386192,51.816692],[-3.385881,51.816657],[-3.385572,51.816646],[-3.385264,51.81666],[-3.384965,51.816683],[-3.384675,51.816717],[-3.384363,51.816753],[-3.384028,51.816791],[-3.383791,51.816847],[-3.383651,51.81692],[-3.383519,51.816985],[-3.383395,51.817043],[-3.383187,51.817099],[-3.382894,51.817153],[-3.382618,51.81717],[-3.382358,51.81715],[-3.382125,51.81722],[-3.381919,51.817379],[-3.381672,51.817421],[-3.381384,51.817348],[-3.381084,51.81729],[-3.380771,51.817247],[-3.380542,51.817234],[-3.380397,51.817251],[-3.38032,51.817303],[-3.380311,51.817389],[-3.380373,51.81746],[-3.380506,51.817516],[-3.380737,51.817575],[-3.381067,51.817637],[-3.381331,51.817688],[-3.381528,51.81773],[-3.381652,51.817854],[-3.381703,51.818062],[-3.381636,51.818472],[-3.38145,51.819084],[-3.381391,51.819443],[-3.381458,51.819549],[-3.382065,51.819917],[-3.383213,51.820547],[-3.3841,51.821039],[-3.384726,51.821394],[-3.385128,51.82164],[-3.385307,51.821775],[-3.385452,51.821913],[-3.385564,51.822052],[-3.385887,51.822237],[-3.386421,51.822467],[-3.386854,51.822798],[-3.387188,51.823229],[-3.38795,51.824045],[-3.389138,51.825248],[-3.390028,51.826051],[-3.390621,51.826454],[-3.39094,51.826799],[-3.390986,51.827087],[-3.391131,51.827415],[-3.391375,51.827782],[-3.39165,51.828255],[-3.391957,51.828831],[-3.39254,51.829358],[-3.393398,51.829834],[-3.394174,51.830159],[-3.394868,51.830333],[-3.395422,51.830564],[-3.395836,51.830852],[-3.396119,51.831066],[-3.39627,51.831206],[-3.396388,51.831263],[-3.396475,51.831239],[-3.396582,51.831362],[-3.396709,51.831633],[-3.397084,51.831938],[-3.397706,51.832276],[-3.398125,51.832495],[-3.398343,51.832594],[-3.39854,51.832674],[-3.398717,51.832734],[-3.39885,51.83291],[-3.398938,51.833202],[-3.398938,51.833371],[-3.398851,51.833417],[-3.398783,51.833456],[-3.398735,51.833488],[-3.398736,51.833586],[-3.398785,51.833749],[-3.39894,51.833856],[-3.399201,51.833906],[-3.399416,51.833914],[-3.399586,51.833879],[-3.399703,51.833884],[-3.399767,51.833927],[-3.400267,51.833944],[-3.401205,51.833935],[-3.401785,51.834007],[-3.402006,51.834161],[-3.402299,51.834386],[-3.402663,51.834683],[-3.403,51.83495],[-3.403311,51.835187],[-3.403549,51.835389],[-3.403714,51.835556],[-3.403843,51.83579],[-3.403933,51.83609],[-3.40399,51.836294],[-3.404013,51.836401],[-3.404198,51.836409],[-3.404543,51.83632],[-3.404812,51.836183],[-3.405004,51.835997],[-3.405082,51.83583],[-3.405046,51.835681],[-3.405154,51.835628],[-3.405406,51.83567],[-3.405626,51.835724],[-3.405814,51.835789],[-3.40606,51.835874],[-3.406363,51.835978],[-3.406517,51.836039]]]}}