{"type":"Feature","properties":{"id":"438833","COMMUNE":"Skye and Lochalsh","PROVINCE":"Lochaber, Skye & Lochalsh, Arran & Cumbrae and Argyll & Bute","COUNTRY":"UK","FIREDATE":"2026-04-25 12:49:00","CLASS":"FireSeason","areaHA_geo":24.308},"geometry":{"type":"Polygon","coordinates":[[[-6.448445,57.380227],[-6.448756,57.380462],[-6.448981,57.380735],[-6.449122,57.381047],[-6.449365,57.381208],[-6.44971,57.381219],[-6.450243,57.381175],[-6.450963,57.381074],[-6.451499,57.380906],[-6.451852,57.380669],[-6.452159,57.38052],[-6.45242,57.38046],[-6.452766,57.380471],[-6.453194,57.380554],[-6.453954,57.380636],[-6.455046,57.380717],[-6.455943,57.380727],[-6.456647,57.380665],[-6.457053,57.38049],[-6.457161,57.380202],[-6.457446,57.379855],[-6.457909,57.379449],[-6.45794,57.379121],[-6.457537,57.37887],[-6.457234,57.378707],[-6.45703,57.378632],[-6.457124,57.378501],[-6.457516,57.378315],[-6.457829,57.378197],[-6.458062,57.378149],[-6.458174,57.377888],[-6.458164,57.377414],[-6.458167,57.377139],[-6.458184,57.377064],[-6.457852,57.376818],[-6.45717,57.376401],[-6.456551,57.376141],[-6.455994,57.376038],[-6.455529,57.376024],[-6.455154,57.376099],[-6.454858,57.376196],[-6.45464,57.376315],[-6.454163,57.376371],[-6.453428,57.376363],[-6.452753,57.376376],[-6.452139,57.376408],[-6.451744,57.376513],[-6.451569,57.37669],[-6.451336,57.376967],[-6.451046,57.377342],[-6.450727,57.377652],[-6.450379,57.377897],[-6.44991,57.378158],[-6.44932,57.378434],[-6.448931,57.378666],[-6.448744,57.378854],[-6.448535,57.37905],[-6.448303,57.379253],[-6.448019,57.379472],[-6.447683,57.379706],[-6.447709,57.379895],[-6.448096,57.380038],[-6.448445,57.380227]]]}}