{"type":"Feature","properties":{"id":"438822","COMMUNE":"Dumfries and Galloway","PROVINCE":"Dumfries & Galloway","COUNTRY":"UK","FIREDATE":"2026-04-28 00:00:00","CLASS":"FireSeason","areaHA_geo":3.748},"geometry":{"type":"Polygon","coordinates":[[[-4.58006,54.949359],[-4.580609,54.949734],[-4.580985,54.949942],[-4.581187,54.949982],[-4.581557,54.949891],[-4.582093,54.949666],[-4.582435,54.949449],[-4.582583,54.949238],[-4.582673,54.948997],[-4.582705,54.948725],[-4.582706,54.948473],[-4.582677,54.94824],[-4.582555,54.948035],[-4.58234,54.947856],[-4.582077,54.947726],[-4.581767,54.947645],[-4.581523,54.947695],[-4.581346,54.947877],[-4.581177,54.948031],[-4.581017,54.948157],[-4.580724,54.948304],[-4.580298,54.948472],[-4.579969,54.948442],[-4.579735,54.948212],[-4.57956,54.948066],[-4.579444,54.948005],[-4.579256,54.947952],[-4.578996,54.947907],[-4.578827,54.947932],[-4.57875,54.948027],[-4.578979,54.948349],[-4.579517,54.948897],[-4.58006,54.949359]]]}}