{"type":"Feature","properties":{"id":"438838","COMMUNE":"Lochaber","PROVINCE":"Lochaber, Skye & Lochalsh, Arran & Cumbrae and Argyll & Bute","COUNTRY":"UK","FIREDATE":"2026-04-25 00:00:00","CLASS":"FireSeason","areaHA_geo":19.859},"geometry":{"type":"Polygon","coordinates":[[[-5.567103,56.965347],[-5.567686,56.965526],[-5.568024,56.965727],[-5.568118,56.96595],[-5.568191,56.966184],[-5.568242,56.966426],[-5.568659,56.966452],[-5.569443,56.96626],[-5.569947,56.965916],[-5.57017,56.965419],[-5.57029,56.964644],[-5.570305,56.963592],[-5.570617,56.962821],[-5.571226,56.962333],[-5.572033,56.961834],[-5.57304,56.961326],[-5.573582,56.960832],[-5.57366,56.960352],[-5.573217,56.959963],[-5.572253,56.959665],[-5.571224,56.959513],[-5.570128,56.959507],[-5.569326,56.959624],[-5.568817,56.959866],[-5.568434,56.960133],[-5.568176,56.960427],[-5.567459,56.961232],[-5.566284,56.96255],[-5.565672,56.963301],[-5.565622,56.963487],[-5.565754,56.96392],[-5.566065,56.964601],[-5.566368,56.965021],[-5.566663,56.965179],[-5.567103,56.965347]]]}}