{"type":"Feature","properties":{"id":"438837","COMMUNE":"Lochaber","PROVINCE":"Lochaber, Skye & Lochalsh, Arran & Cumbrae and Argyll & Bute","COUNTRY":"UK","FIREDATE":"2026-04-25 12:49:00","CLASS":"FireSeason","areaHA_geo":38.911},"geometry":{"type":"Polygon","coordinates":[[[-5.531789,56.966691],[-5.533033,56.967043],[-5.534331,56.967107],[-5.53568,56.966881],[-5.53677,56.966554],[-5.5376,56.966124],[-5.538039,56.965828],[-5.538086,56.965665],[-5.538306,56.965364],[-5.5387,56.964924],[-5.53875,56.964423],[-5.538457,56.963862],[-5.538102,56.963394],[-5.537685,56.96302],[-5.537159,56.962762],[-5.536521,56.962619],[-5.536074,56.962241],[-5.535817,56.961628],[-5.535399,56.96094],[-5.53482,56.960178],[-5.534069,56.959452],[-5.533145,56.958762],[-5.532436,56.958172],[-5.531942,56.957682],[-5.531161,56.957541],[-5.530093,56.957748],[-5.529063,56.957872],[-5.52807,56.957913],[-5.527526,56.958096],[-5.527431,56.958422],[-5.527432,56.958838],[-5.527529,56.959344],[-5.528006,56.960001],[-5.528863,56.960809],[-5.529636,56.961517],[-5.530324,56.962125],[-5.530831,56.962613],[-5.531159,56.962982],[-5.531351,56.963234],[-5.531408,56.963368],[-5.531368,56.964205],[-5.531234,56.965745],[-5.531789,56.966691]]]}}