{"type":"Feature","properties":{"id":"438821","COMMUNE":"Dumfries and Galloway","PROVINCE":"Dumfries & Galloway","COUNTRY":"UK","FIREDATE":"2026-04-28 00:00:00","CLASS":"FireSeason","areaHA_geo":2.91},"geometry":{"type":"Polygon","coordinates":[[[-4.59459,54.937303],[-4.594811,54.93751],[-4.595139,54.937554],[-4.595574,54.937435],[-4.595752,54.937204],[-4.595672,54.936862],[-4.595428,54.936515],[-4.59502,54.936164],[-4.594367,54.935838],[-4.59347,54.935535],[-4.592677,54.935271],[-4.59199,54.935046],[-4.591544,54.934977],[-4.591341,54.935064],[-4.591335,54.935173],[-4.591528,54.935305],[-4.591782,54.93548],[-4.592096,54.935697],[-4.59281,54.936154],[-4.593923,54.936851],[-4.59459,54.937303]]]}}