{"type":"Feature","properties":{"id":"438834","COMMUNE":"Skye and Lochalsh","PROVINCE":"Lochaber, Skye & Lochalsh, Arran & Cumbrae and Argyll & Bute","COUNTRY":"UK","FIREDATE":"2026-04-25 12:49:00","CLASS":"FireSeason","areaHA_geo":13.586},"geometry":{"type":"Polygon","coordinates":[[[-6.436818,57.390823],[-6.437141,57.390768],[-6.43753,57.390754],[-6.437985,57.390783],[-6.438363,57.390922],[-6.438663,57.391172],[-6.438974,57.391313],[-6.439296,57.391344],[-6.439653,57.391335],[-6.440046,57.391285],[-6.440542,57.391168],[-6.441142,57.390985],[-6.441481,57.390683],[-6.441559,57.390263],[-6.441543,57.389959],[-6.441431,57.389771],[-6.441204,57.389595],[-6.440862,57.38943],[-6.440664,57.389185],[-6.440612,57.388861],[-6.440742,57.388571],[-6.441055,57.388315],[-6.441183,57.388094],[-6.441125,57.387907],[-6.440931,57.387773],[-6.4406,57.387693],[-6.440322,57.387685],[-6.440097,57.387749],[-6.439861,57.38788],[-6.439615,57.388076],[-6.439293,57.388135],[-6.438896,57.388056],[-6.438606,57.387902],[-6.438422,57.387673],[-6.43821,57.387499],[-6.437968,57.387378],[-6.437759,57.3873],[-6.437582,57.387265],[-6.437325,57.387215],[-6.436988,57.387149],[-6.436604,57.38713],[-6.436174,57.387155],[-6.435794,57.387264],[-6.435466,57.387457],[-6.435291,57.387706],[-6.435268,57.388011],[-6.435142,57.388488],[-6.434912,57.389135],[-6.434809,57.38953],[-6.434832,57.389671],[-6.43492,57.389746],[-6.435071,57.389756],[-6.435177,57.389857],[-6.435238,57.390051],[-6.435286,57.390218],[-6.435323,57.390357],[-6.43567,57.390533],[-6.436327,57.390745],[-6.436818,57.390823]]]}}