{"type":"Feature","properties":{"id":"438839","COMMUNE":"Dumfries and Galloway","PROVINCE":"Dumfries & Galloway","COUNTRY":"UK","FIREDATE":"2026-04-25 11:42:00","FINALDATE":"2026-04-25 15:09:00","CLASS":"FireSeason","areaHA_geo":36.634},"geometry":{"type":"Polygon","coordinates":[[[-4.29306,54.93205],[-4.29688,54.931305],[-4.298984,54.930782],[-4.299373,54.93048],[-4.299559,54.930215],[-4.299541,54.929988],[-4.299561,54.929751],[-4.299617,54.929506],[-4.299728,54.929231],[-4.299891,54.928928],[-4.29999,54.928622],[-4.300025,54.928315],[-4.30002,54.9281],[-4.299976,54.927977],[-4.300068,54.927741],[-4.300296,54.927393],[-4.300539,54.927154],[-4.300797,54.927023],[-4.301142,54.926937],[-4.301576,54.926896],[-4.301943,54.926868],[-4.302241,54.926851],[-4.302359,54.926732],[-4.302295,54.92651],[-4.301978,54.92634],[-4.301407,54.926222],[-4.301074,54.926096],[-4.300977,54.92596],[-4.3009,54.925813],[-4.300844,54.925654],[-4.300708,54.9255],[-4.300495,54.92535],[-4.300328,54.925199],[-4.30021,54.925048],[-4.300189,54.924899],[-4.300265,54.924752],[-4.300205,54.924451],[-4.30001,54.923996],[-4.299905,54.923701],[-4.299888,54.923565],[-4.299832,54.923498],[-4.299737,54.9235],[-4.299624,54.923522],[-4.299495,54.923565],[-4.299405,54.923626],[-4.299353,54.923705],[-4.29922,54.923803],[-4.299006,54.92392],[-4.298885,54.92403],[-4.298858,54.924134],[-4.298777,54.924268],[-4.298643,54.92443],[-4.298344,54.924579],[-4.29788,54.924716],[-4.297481,54.924854],[-4.297146,54.924993],[-4.296906,54.92504],[-4.296761,54.924992],[-4.296444,54.924932],[-4.295953,54.92486],[-4.295446,54.924855],[-4.294923,54.924915],[-4.294572,54.924942],[-4.294394,54.924935],[-4.294215,54.924795],[-4.294038,54.924522],[-4.293922,54.924287],[-4.293868,54.924091],[-4.293569,54.923951],[-4.293027,54.923867],[-4.292632,54.923839],[-4.292386,54.923868],[-4.292217,54.923933],[-4.292125,54.924036],[-4.291936,54.92409],[-4.29165,54.924095],[-4.291413,54.92415],[-4.291226,54.924254],[-4.291059,54.924347],[-4.290912,54.924428],[-4.2907,54.924554],[-4.290425,54.924724],[-4.290592,54.924879],[-4.291203,54.925019],[-4.291785,54.925122],[-4.292337,54.925187],[-4.292708,54.92535],[-4.292898,54.925613],[-4.293082,54.925927],[-4.29326,54.926292],[-4.293332,54.926536],[-4.293296,54.92666],[-4.293267,54.927095],[-4.293245,54.927841],[-4.293278,54.928448],[-4.293365,54.928915],[-4.293436,54.929316],[-4.293491,54.929649],[-4.293536,54.929864],[-4.293571,54.929962],[-4.293496,54.930089],[-4.293313,54.930248],[-4.293265,54.930406],[-4.293352,54.930561],[-4.293561,54.930697],[-4.293892,54.930815],[-4.293938,54.931012],[-4.2937,54.931287],[-4.293384,54.931457],[-4.292991,54.931521],[-4.292554,54.931576],[-4.292073,54.931622],[-4.29158,54.931744],[-4.291073,54.93194],[-4.290902,54.932134],[-4.291067,54.932326],[-4.29306,54.93205]]]}}