{"type":"Feature","properties":{"id":"438820","COMMUNE":"Dumfries and Galloway","PROVINCE":"Dumfries & Galloway","COUNTRY":"UK","FIREDATE":"2026-04-28 13:33:00","CLASS":"FireSeason","areaHA_geo":11.608},"geometry":{"type":"Polygon","coordinates":[[[-4.60692,54.946031],[-4.606855,54.945726],[-4.606885,54.945206],[-4.60701,54.944472],[-4.60708,54.944007],[-4.607096,54.943809],[-4.607022,54.943639],[-4.606856,54.943499],[-4.606696,54.943442],[-4.606541,54.943468],[-4.606372,54.943578],[-4.60619,54.943774],[-4.605993,54.943859],[-4.60578,54.943833],[-4.605642,54.943766],[-4.605577,54.943658],[-4.605626,54.94355],[-4.60579,54.943444],[-4.605862,54.943345],[-4.605841,54.943253],[-4.605718,54.943176],[-4.605493,54.943116],[-4.605301,54.943077],[-4.605142,54.943059],[-4.604962,54.943051],[-4.60476,54.943054],[-4.604455,54.942999],[-4.604046,54.942887],[-4.603676,54.942829],[-4.603345,54.942825],[-4.602999,54.942833],[-4.602639,54.942854],[-4.60237,54.942933],[-4.602192,54.94307],[-4.602119,54.943235],[-4.602152,54.943427],[-4.602255,54.943553],[-4.602428,54.943612],[-4.602688,54.943647],[-4.603034,54.943657],[-4.60327,54.943607],[-4.603395,54.943498],[-4.603601,54.943405],[-4.60389,54.943327],[-4.604173,54.943304],[-4.604451,54.943337],[-4.60463,54.94341],[-4.60471,54.943524],[-4.604756,54.943599],[-4.604769,54.943633],[-4.60487,54.943788],[-4.60506,54.944064],[-4.605183,54.944245],[-4.605241,54.944333],[-4.605265,54.944417],[-4.605257,54.944498],[-4.605141,54.944631],[-4.604917,54.944818],[-4.604715,54.945027],[-4.604533,54.945259],[-4.604434,54.945456],[-4.604417,54.945617],[-4.604356,54.945762],[-4.604251,54.945891],[-4.604098,54.945993],[-4.603897,54.946067],[-4.6037,54.94617],[-4.603507,54.946302],[-4.603435,54.946485],[-4.603482,54.946719],[-4.603536,54.947003],[-4.603595,54.947337],[-4.603706,54.947695],[-4.603871,54.948075],[-4.604077,54.948257],[-4.604325,54.948242],[-4.604529,54.948298],[-4.60469,54.948424],[-4.604837,54.948585],[-4.604972,54.948779],[-4.605287,54.948844],[-4.605783,54.948778],[-4.606192,54.948788],[-4.606515,54.948873],[-4.606823,54.948971],[-4.607117,54.949082],[-4.607447,54.949133],[-4.607812,54.949126],[-4.607913,54.949002],[-4.607748,54.94876],[-4.607624,54.948524],[-4.60754,54.948295],[-4.607503,54.948092],[-4.607515,54.947916],[-4.607357,54.947674],[-4.607028,54.947364],[-4.606923,54.947129],[-4.607042,54.94697],[-4.607094,54.946855],[-4.607079,54.946784],[-4.607058,54.946743],[-4.60703,54.946732],[-4.606963,54.946649],[-4.606856,54.946495],[-4.60684,54.946359],[-4.606915,54.946242],[-4.60692,54.946031]],[[-4.604461,54.947159],[-4.604497,54.946632],[-4.604942,54.946463],[-4.60508,54.946563],[-4.60532,54.946665],[-4.605785,54.946756],[-4.605714,54.946909],[-4.605356,54.947039],[-4.605227,54.947243],[-4.604701,54.947261],[-4.604461,54.947159]]]}}