{"type":"Feature","properties":{"id":"457513","COMMUNE":"Powys","PROVINCE":"Powys","COUNTRY":"UK","FIREDATE":"2026-04-27 01:34:00","CLASS":"FireSeason","areaHA_geo":1480.143},"geometry":{"type":"Polygon","coordinates":[[[-3.695091,52.242802],[-3.695103,52.242823],[-3.69514,52.242983],[-3.695202,52.243281],[-3.695091,52.243525],[-3.694806,52.243716],[-3.694501,52.2441],[-3.694173,52.244677],[-3.694081,52.245193],[-3.694223,52.245649],[-3.694315,52.246067],[-3.694356,52.246449],[-3.694315,52.246668],[-3.694192,52.246725],[-3.693993,52.246839],[-3.693718,52.24701],[-3.693615,52.24718],[-3.693683,52.24735],[-3.693506,52.24753],[-3.693084,52.24772],[-3.692976,52.247841],[-3.693182,52.247892],[-3.693397,52.247928],[-3.693621,52.247948],[-3.693859,52.248039],[-3.694108,52.248201],[-3.694375,52.248327],[-3.694659,52.248415],[-3.694862,52.248548],[-3.694984,52.248725],[-3.694921,52.248874],[-3.694675,52.248996],[-3.694387,52.249061],[-3.694057,52.249071],[-3.693856,52.249004],[-3.693783,52.248862],[-3.693575,52.248756],[-3.69323,52.248686],[-3.692987,52.248683],[-3.692845,52.248746],[-3.692734,52.248906],[-3.692654,52.249165],[-3.692774,52.249322],[-3.693095,52.249377],[-3.693376,52.249443],[-3.693618,52.249519],[-3.69374,52.249559],[-3.693742,52.249565],[-3.693745,52.249651],[-3.69375,52.249819],[-3.693632,52.250004],[-3.693392,52.250205],[-3.693034,52.250459],[-3.69256,52.250763],[-3.692032,52.251094],[-3.691451,52.251451],[-3.690766,52.251917],[-3.689977,52.25249],[-3.689609,52.252906],[-3.689662,52.253166],[-3.689525,52.253443],[-3.689199,52.253736],[-3.688768,52.254134],[-3.688232,52.254637],[-3.687785,52.254952],[-3.687427,52.255081],[-3.687006,52.255208],[-3.686523,52.255334],[-3.685958,52.255545],[-3.68531,52.255841],[-3.684843,52.256109],[-3.684558,52.256351],[-3.684485,52.256496],[-3.684623,52.256543],[-3.684965,52.256535],[-3.685511,52.256472],[-3.685952,52.256598],[-3.686287,52.256913],[-3.686677,52.257048],[-3.68712,52.257003],[-3.687763,52.256957],[-3.688607,52.256913],[-3.689689,52.256807],[-3.691011,52.256641],[-3.691964,52.256545],[-3.69255,52.256518],[-3.693281,52.256519],[-3.694157,52.256548],[-3.694905,52.256573],[-3.695526,52.256596],[-3.696185,52.256724],[-3.696881,52.256958],[-3.697399,52.257242],[-3.697737,52.257577],[-3.698214,52.257932],[-3.698827,52.258306],[-3.699164,52.258573],[-3.699224,52.258733],[-3.699216,52.258912],[-3.699142,52.259111],[-3.6993,52.259318],[-3.699689,52.259535],[-3.699899,52.259691],[-3.699929,52.259789],[-3.699935,52.259854],[-3.699916,52.259886],[-3.699738,52.260019],[-3.699403,52.260255],[-3.699041,52.260469],[-3.698654,52.260663],[-3.698293,52.260913],[-3.69796,52.26122],[-3.697856,52.261451],[-3.697979,52.261607],[-3.697949,52.261676],[-3.697764,52.261656],[-3.697662,52.261662],[-3.697642,52.261692],[-3.697604,52.26178],[-3.697546,52.261923],[-3.697478,52.262044],[-3.697401,52.262141],[-3.69732,52.262165],[-3.697234,52.262115],[-3.697186,52.262065],[-3.697175,52.262015],[-3.697147,52.261897],[-3.697103,52.261711],[-3.697078,52.26161],[-3.697072,52.261592],[-3.697038,52.261581],[-3.696977,52.261574],[-3.69684,52.261484],[-3.696627,52.261309],[-3.696435,52.261123],[-3.696264,52.260926],[-3.696108,52.260815],[-3.695965,52.260791],[-3.695885,52.260745],[-3.695868,52.260676],[-3.695871,52.260622],[-3.695896,52.260582],[-3.696071,52.260511],[-3.696395,52.260411],[-3.696566,52.260322],[-3.696584,52.260246],[-3.696566,52.260158],[-3.696512,52.260059],[-3.69645,52.260005],[-3.696382,52.259996],[-3.696244,52.259982],[-3.696037,52.259963],[-3.695917,52.259996],[-3.695882,52.26008],[-3.695812,52.260184],[-3.695705,52.260307],[-3.69559,52.260451],[-3.695464,52.260616],[-3.695371,52.260693],[-3.695311,52.260683],[-3.69522,52.260693],[-3.695099,52.260724],[-3.695019,52.260626],[-3.694982,52.260399],[-3.694877,52.260137],[-3.694706,52.25984],[-3.694555,52.259585],[-3.694425,52.259369],[-3.694316,52.259248],[-3.694228,52.25922],[-3.69413,52.259231],[-3.69402,52.259282],[-3.69382,52.259373],[-3.693531,52.259503],[-3.693277,52.259647],[-3.69306,52.259807],[-3.692996,52.260006],[-3.693087,52.260245],[-3.69286,52.260348],[-3.692315,52.260316],[-3.692001,52.260166],[-3.691917,52.259897],[-3.691934,52.259674],[-3.692051,52.259498],[-3.692136,52.259315],[-3.692187,52.259127],[-3.692146,52.258944],[-3.692012,52.258768],[-3.691723,52.258773],[-3.691278,52.258959],[-3.690824,52.259017],[-3.690362,52.258946],[-3.690115,52.258913],[-3.690085,52.258916],[-3.690024,52.258971],[-3.689931,52.259078],[-3.689834,52.259219],[-3.689731,52.259394],[-3.689759,52.259583],[-3.689916,52.259785],[-3.689964,52.259938],[-3.689902,52.260041],[-3.689801,52.26012],[-3.689661,52.260175],[-3.689492,52.260089],[-3.689296,52.259862],[-3.689087,52.259671],[-3.688865,52.259514],[-3.688683,52.259411],[-3.688541,52.25936],[-3.688308,52.259368],[-3.687983,52.259435],[-3.687752,52.2595],[-3.687615,52.259564],[-3.687526,52.259608],[-3.687486,52.259632],[-3.687429,52.259725],[-3.687354,52.259887],[-3.687413,52.26],[-3.687606,52.260064],[-3.687837,52.260123],[-3.688105,52.260178],[-3.688364,52.260302],[-3.688613,52.260494],[-3.688815,52.260715],[-3.688972,52.260965],[-3.689211,52.261225],[-3.689531,52.261495],[-3.689856,52.261706],[-3.690187,52.26186],[-3.690409,52.26198],[-3.690522,52.262066],[-3.690569,52.262113],[-3.690552,52.262121],[-3.690594,52.262209],[-3.690697,52.262379],[-3.690672,52.262617],[-3.690521,52.262925],[-3.690561,52.263147],[-3.690791,52.263283],[-3.691032,52.263452],[-3.691283,52.263652],[-3.691436,52.263858],[-3.691492,52.264069],[-3.691465,52.264284],[-3.691355,52.264502],[-3.691778,52.264682],[-3.692734,52.264825],[-3.693401,52.264931],[-3.69378,52.265002],[-3.694142,52.265132],[-3.694489,52.265321],[-3.694766,52.265479],[-3.694974,52.265606],[-3.695263,52.265723],[-3.695634,52.265831],[-3.695826,52.265884],[-3.695839,52.265883],[-3.695818,52.265897],[-3.695762,52.265925],[-3.69601,52.266004],[-3.696562,52.266135],[-3.697246,52.266289],[-3.69806,52.266467],[-3.698681,52.266554],[-3.699109,52.266548],[-3.69943,52.266522],[-3.699643,52.266475],[-3.699777,52.26642],[-3.699831,52.266358],[-3.699994,52.266297],[-3.700268,52.266237],[-3.700516,52.266225],[-3.700737,52.266261],[-3.70093,52.266249],[-3.701094,52.266191],[-3.701257,52.266111],[-3.701416,52.266009],[-3.701603,52.26592],[-3.701818,52.265845],[-3.702019,52.26586],[-3.702207,52.265967],[-3.702313,52.266085],[-3.702336,52.266216],[-3.702286,52.266406],[-3.702162,52.266655],[-3.702251,52.266792],[-3.702552,52.266819],[-3.702794,52.26679],[-3.702978,52.266707],[-3.703103,52.266609],[-3.703168,52.266496],[-3.703177,52.266364],[-3.70313,52.266213],[-3.70319,52.266083],[-3.703357,52.265975],[-3.703481,52.265917],[-3.703562,52.265909],[-3.703622,52.266028],[-3.70366,52.266273],[-3.703835,52.266496],[-3.704146,52.266698],[-3.704487,52.266782],[-3.704857,52.266749],[-3.705279,52.266757],[-3.705753,52.266803],[-3.706216,52.266834],[-3.706669,52.266848],[-3.707176,52.266995],[-3.707739,52.267275],[-3.708183,52.267527],[-3.708509,52.267751],[-3.708763,52.267978],[-3.708945,52.268208],[-3.709023,52.268385],[-3.708999,52.268511],[-3.708918,52.268604],[-3.708782,52.268665],[-3.70853,52.268708],[-3.708164,52.268734],[-3.707868,52.26871],[-3.707644,52.268636],[-3.70749,52.268595],[-3.707405,52.268588],[-3.707278,52.26865],[-3.707109,52.268782],[-3.706873,52.268846],[-3.706571,52.268842],[-3.706417,52.268759],[-3.706412,52.268598],[-3.706433,52.268431],[-3.70648,52.268259],[-3.706452,52.268083],[-3.706351,52.267906],[-3.706242,52.26779],[-3.706124,52.267737],[-3.706013,52.267716],[-3.705907,52.267729],[-3.705811,52.267801],[-3.705725,52.267934],[-3.705622,52.268044],[-3.705503,52.26813],[-3.705383,52.268244],[-3.705263,52.268387],[-3.705128,52.268539],[-3.704978,52.268702],[-3.704879,52.268942],[-3.704833,52.269259],[-3.704872,52.26943],[-3.704999,52.269455],[-3.705128,52.269473],[-3.70526,52.269486],[-3.705445,52.269626],[-3.705684,52.269893],[-3.705838,52.270048],[-3.705906,52.27009],[-3.706058,52.270167],[-3.706294,52.270279],[-3.706492,52.270401],[-3.706652,52.270533],[-3.706835,52.27059],[-3.707039,52.270572],[-3.707202,52.270538],[-3.707324,52.270491],[-3.7075,52.270423],[-3.707728,52.270335],[-3.707972,52.270354],[-3.70823,52.27048],[-3.708517,52.270536],[-3.708833,52.270521],[-3.709022,52.270482],[-3.709084,52.270419],[-3.709153,52.270316],[-3.709227,52.270174],[-3.709334,52.270036],[-3.709475,52.269902],[-3.709623,52.269804],[-3.709777,52.269742],[-3.709951,52.269654],[-3.710144,52.269543],[-3.710255,52.269429],[-3.710283,52.269315],[-3.710274,52.269212],[-3.710228,52.269123],[-3.710103,52.268987],[-3.709899,52.268804],[-3.709878,52.268662],[-3.710037,52.26856],[-3.710161,52.268531],[-3.710248,52.268577],[-3.71037,52.268674],[-3.710527,52.268823],[-3.710721,52.268967],[-3.710954,52.269107],[-3.711064,52.269183],[-3.711053,52.269196],[-3.710988,52.269246],[-3.710869,52.269333],[-3.710787,52.269479],[-3.710742,52.269685],[-3.710769,52.269815],[-3.710868,52.269871],[-3.710984,52.269874],[-3.711115,52.269825],[-3.711276,52.269742],[-3.711468,52.269625],[-3.711807,52.269454],[-3.712295,52.26923],[-3.712733,52.26907],[-3.713124,52.268974],[-3.713309,52.26888],[-3.713289,52.268788],[-3.713258,52.268704],[-3.713217,52.268629],[-3.713264,52.268557],[-3.7134,52.268488],[-3.713594,52.26846],[-3.713847,52.268474],[-3.713993,52.268489],[-3.714034,52.268506],[-3.714496,52.268625],[-3.715381,52.268846],[-3.716265,52.269067],[-3.71715,52.269288],[-3.717939,52.269261],[-3.718632,52.268985],[-3.719416,52.268883],[-3.720288,52.268954],[-3.721348,52.268603],[-3.722595,52.26783],[-3.723406,52.267703],[-3.723781,52.268221],[-3.724177,52.268467],[-3.724594,52.26844],[-3.724886,52.268751],[-3.725055,52.269402],[-3.725211,52.269957],[-3.725355,52.270416],[-3.725752,52.270608],[-3.726401,52.270532],[-3.726731,52.270396],[-3.72674,52.2702],[-3.727464,52.270472],[-3.728901,52.271212],[-3.73006,52.271574],[-3.730941,52.271558],[-3.731637,52.271347],[-3.732148,52.270941],[-3.732909,52.270257],[-3.733919,52.269296],[-3.734539,52.268617],[-3.73477,52.268223],[-3.735344,52.267626],[-3.736263,52.266826],[-3.737421,52.26628],[-3.738818,52.265986],[-3.741058,52.265443],[-3.74414,52.26465],[-3.745926,52.264127],[-3.746414,52.263875],[-3.746323,52.263529],[-3.745653,52.263088],[-3.744897,52.262719],[-3.744056,52.262422],[-3.743504,52.262256],[-3.74324,52.26222],[-3.74331,52.261952],[-3.743712,52.261453],[-3.744394,52.260695],[-3.745356,52.259679],[-3.745861,52.259119],[-3.745909,52.259016],[-3.745846,52.258815],[-3.745672,52.258518],[-3.745473,52.258267],[-3.745249,52.258061],[-3.745182,52.257849],[-3.745274,52.257631],[-3.745359,52.257486],[-3.745437,52.257416],[-3.745383,52.257245],[-3.745198,52.256974],[-3.744135,52.256329],[-3.742195,52.255311],[-3.741025,52.254739],[-3.740626,52.254615],[-3.740153,52.254542],[-3.739606,52.254521],[-3.739123,52.254577],[-3.738705,52.254712],[-3.738239,52.254821],[-3.737726,52.254906],[-3.737137,52.255005],[-3.736472,52.25512],[-3.736005,52.255193],[-3.735735,52.255224],[-3.735565,52.255354],[-3.735497,52.255582],[-3.735315,52.255737],[-3.735021,52.255821],[-3.734794,52.255829],[-3.734633,52.255762],[-3.734497,52.25568],[-3.734387,52.255583],[-3.73406,52.25553],[-3.733516,52.25552],[-3.732864,52.255578],[-3.732103,52.255704],[-3.7315,52.255823],[-3.731056,52.255936],[-3.730677,52.255975],[-3.730366,52.255938],[-3.730178,52.255935],[-3.730113,52.255967],[-3.729988,52.255925],[-3.729801,52.255809],[-3.729536,52.255651],[-3.729195,52.255451],[-3.729077,52.255256],[-3.729182,52.255066],[-3.729304,52.254889],[-3.729443,52.254726],[-3.729679,52.254509],[-3.730012,52.254238],[-3.730197,52.253938],[-3.730233,52.253609],[-3.730284,52.253305],[-3.730349,52.253027],[-3.730346,52.252714],[-3.730275,52.252366],[-3.730151,52.252071],[-3.729974,52.251829],[-3.729778,52.251608],[-3.729563,52.251409],[-3.729244,52.251199],[-3.72882,52.250978],[-3.728257,52.25068],[-3.727557,52.250305],[-3.72717,52.250121],[-3.727097,52.250127],[-3.727016,52.250012],[-3.726927,52.249778],[-3.72695,52.249453],[-3.727084,52.249038],[-3.727453,52.248568],[-3.728056,52.248045],[-3.72859,52.247659],[-3.729054,52.247413],[-3.729386,52.247209],[-3.729587,52.247047],[-3.729699,52.246862],[-3.729721,52.246652],[-3.729674,52.246523],[-3.729559,52.246475],[-3.729306,52.24647],[-3.728915,52.246508],[-3.728683,52.246531],[-3.72861,52.24654],[-3.728417,52.246405],[-3.728103,52.246127],[-3.727942,52.245911],[-3.727932,52.245759],[-3.728026,52.245617],[-3.728224,52.245487],[-3.728295,52.245232],[-3.72824,52.244855],[-3.727949,52.24447],[-3.727424,52.244079],[-3.726858,52.243799],[-3.726253,52.243632],[-3.725711,52.243611],[-3.725235,52.243736],[-3.724797,52.243825],[-3.724399,52.243879],[-3.723969,52.243914],[-3.723509,52.24393],[-3.72327,52.243981],[-3.723254,52.244069],[-3.722692,52.24391],[-3.721584,52.243506],[-3.720567,52.242731],[-3.719641,52.241588],[-3.719175,52.240882],[-3.71917,52.240613],[-3.718776,52.240033],[-3.717992,52.239143],[-3.717406,52.23858],[-3.717018,52.238347],[-3.714322,52.238248],[-3.709318,52.238284],[-3.70633,52.238435],[-3.705357,52.238703],[-3.704516,52.238979],[-3.703805,52.239264],[-3.703342,52.239404],[-3.703126,52.239399],[-3.702843,52.239011],[-3.702491,52.23824],[-3.702256,52.237877],[-3.702139,52.237924],[-3.702129,52.237737],[-3.702224,52.237316],[-3.703266,52.236323],[-3.705253,52.234757],[-3.708055,52.233117],[-3.711671,52.231405],[-3.713826,52.230337],[-3.714519,52.229915],[-3.714866,52.229549],[-3.714865,52.229237],[-3.714763,52.228871],[-3.714559,52.22845],[-3.714257,52.228108],[-3.713859,52.227843],[-3.713597,52.227473],[-3.713473,52.226998],[-3.71361,52.226582],[-3.714008,52.226224],[-3.714104,52.225991],[-3.713898,52.225884],[-3.713849,52.225766],[-3.713957,52.225639],[-3.71414,52.225432],[-3.714396,52.225146],[-3.714796,52.224271],[-3.71534,52.222807],[-3.715957,52.221812],[-3.716648,52.221286],[-3.717085,52.220762],[-3.717268,52.22024],[-3.717318,52.21979],[-3.717236,52.21941],[-3.716984,52.219012],[-3.716562,52.218594],[-3.716103,52.218436],[-3.715607,52.218539],[-3.715277,52.218589],[-3.715112,52.218586],[-3.714994,52.218499],[-3.714923,52.21833],[-3.714805,52.218071],[-3.714642,52.217723],[-3.714397,52.217552],[-3.714071,52.217556],[-3.713722,52.217603],[-3.713349,52.217691],[-3.712982,52.217856],[-3.71262,52.218099],[-3.71237,52.218317],[-3.712231,52.218511],[-3.712102,52.218682],[-3.711984,52.218829],[-3.711872,52.219053],[-3.711766,52.219355],[-3.711667,52.219678],[-3.711574,52.220022],[-3.711373,52.220279],[-3.711061,52.220449],[-3.710819,52.220461],[-3.710646,52.220314],[-3.710635,52.220104],[-3.710786,52.219831],[-3.710713,52.219656],[-3.710416,52.219579],[-3.710092,52.219562],[-3.709741,52.219603],[-3.709402,52.219742],[-3.709076,52.219981],[-3.708806,52.220162],[-3.70859,52.220288],[-3.708389,52.220372],[-3.708202,52.220416],[-3.708067,52.220304],[-3.707983,52.220036],[-3.707932,52.219842],[-3.707912,52.219722],[-3.707782,52.219654],[-3.70754,52.219638],[-3.707254,52.219682],[-3.706923,52.219788],[-3.706761,52.21994],[-3.706768,52.220139],[-3.706736,52.220354],[-3.706662,52.220585],[-3.706588,52.220755],[-3.706513,52.220864],[-3.706437,52.22109],[-3.706362,52.221432],[-3.706296,52.221629],[-3.70624,52.22168],[-3.706044,52.221725],[-3.705711,52.221764],[-3.705432,52.221774],[-3.705207,52.221756],[-3.704985,52.221598],[-3.704765,52.221302],[-3.704253,52.221178],[-3.703449,52.221227],[-3.7029,52.221625],[-3.702605,52.222371],[-3.702311,52.222945],[-3.702018,52.223346],[-3.701633,52.22363],[-3.701157,52.223797],[-3.700653,52.224017],[-3.700119,52.224291],[-3.699739,52.224529],[-3.699513,52.224733],[-3.699208,52.224723],[-3.698825,52.2245],[-3.698029,52.223965],[-3.696819,52.22312],[-3.695978,52.222546],[-3.695506,52.222244],[-3.695099,52.222097],[-3.694758,52.222106],[-3.694348,52.222169],[-3.693869,52.222288],[-3.693375,52.222356],[-3.692865,52.222374],[-3.692359,52.222459],[-3.691856,52.222613],[-3.690584,52.222667],[-3.688541,52.222621],[-3.687392,52.22263],[-3.687136,52.222691],[-3.686867,52.222791],[-3.686583,52.222929],[-3.686267,52.223018],[-3.685919,52.223059],[-3.685692,52.223048],[-3.685587,52.222987],[-3.685629,52.222846],[-3.685818,52.222624],[-3.685959,52.222498],[-3.686052,52.222466],[-3.686022,52.222396],[-3.685867,52.222288],[-3.68569,52.222214],[-3.685488,52.222174],[-3.685302,52.222213],[-3.685129,52.222329],[-3.684989,52.222108],[-3.684879,52.221549],[-3.685056,52.221202],[-3.685517,52.221065],[-3.685756,52.220916],[-3.685774,52.220754],[-3.685654,52.22065],[-3.685397,52.220603],[-3.685245,52.220472],[-3.685198,52.220259],[-3.685419,52.220085],[-3.685911,52.219951],[-3.686352,52.21981],[-3.686742,52.219664],[-3.687169,52.21954],[-3.687631,52.219439],[-3.687867,52.219388],[-3.687877,52.219387],[-3.687829,52.21936],[-3.687726,52.219307],[-3.687562,52.219216],[-3.687338,52.219088],[-3.687183,52.218982],[-3.687099,52.218897],[-3.686993,52.218853],[-3.686866,52.21885],[-3.686726,52.218867],[-3.686572,52.218903],[-3.686455,52.218978],[-3.686375,52.219094],[-3.686289,52.219161],[-3.686198,52.219177],[-3.686102,52.219182],[-3.686003,52.219176],[-3.685869,52.219008],[-3.685698,52.218679],[-3.685375,52.218527],[-3.684898,52.218553],[-3.684543,52.218612],[-3.68431,52.218705],[-3.68407,52.218718],[-3.683821,52.218653],[-3.68371,52.218497],[-3.683738,52.218251],[-3.683954,52.217995],[-3.68436,52.217727],[-3.68473,52.217478],[-3.685065,52.217247],[-3.685279,52.217037],[-3.685371,52.216849],[-3.685416,52.216655],[-3.685412,52.216456],[-3.685261,52.216364],[-3.684962,52.216377],[-3.684684,52.216456],[-3.684427,52.2166],[-3.684182,52.216674],[-3.683951,52.21668],[-3.683781,52.216636],[-3.68367,52.216542],[-3.68348,52.216511],[-3.68321,52.216543],[-3.682966,52.216635],[-3.682746,52.216789],[-3.682603,52.216983],[-3.682537,52.217218],[-3.682344,52.217479],[-3.682026,52.217765],[-3.681807,52.217975],[-3.681686,52.21811],[-3.681625,52.218306],[-3.681623,52.218562],[-3.681596,52.218753],[-3.681542,52.21888],[-3.68155,52.219036],[-3.681619,52.21922],[-3.681673,52.219391],[-3.68171,52.21955],[-3.681653,52.219738],[-3.681499,52.219955],[-3.681332,52.220128],[-3.681151,52.220255],[-3.68107,52.220375],[-3.68109,52.220485],[-3.681067,52.220566],[-3.680999,52.220617],[-3.680891,52.220814],[-3.680741,52.221156],[-3.680639,52.221345],[-3.680586,52.221383],[-3.680237,52.22145],[-3.679592,52.221546],[-3.679114,52.221637],[-3.678804,52.221723],[-3.678375,52.221784],[-3.677827,52.221819],[-3.677402,52.221855],[-3.677098,52.22189],[-3.676698,52.221987],[-3.6762,52.222144],[-3.675762,52.222252],[-3.675385,52.22231],[-3.674932,52.222313],[-3.674404,52.222261],[-3.673874,52.222206],[-3.673344,52.222147],[-3.672816,52.222077],[-3.67229,52.221996],[-3.671812,52.221973],[-3.671381,52.222009],[-3.671141,52.222068],[-3.671092,52.22215],[-3.670954,52.22216],[-3.670727,52.222098],[-3.670448,52.221968],[-3.670119,52.221771],[-3.669837,52.221589],[-3.669601,52.221423],[-3.669221,52.221441],[-3.668699,52.221645],[-3.668089,52.221916],[-3.667391,52.222253],[-3.666769,52.22254],[-3.666224,52.222777],[-3.665839,52.222965],[-3.665614,52.223104],[-3.665523,52.223268],[-3.665565,52.223457],[-3.665556,52.223831],[-3.665496,52.22439],[-3.665555,52.224848],[-3.665734,52.225206],[-3.665905,52.225487],[-3.66607,52.225693],[-3.666301,52.22587],[-3.666598,52.22602],[-3.666836,52.226058],[-3.667015,52.225986],[-3.667163,52.225898],[-3.66728,52.225792],[-3.667446,52.225681],[-3.667661,52.225564],[-3.667833,52.225579],[-3.667963,52.225728],[-3.667971,52.225885],[-3.667855,52.226052],[-3.667604,52.226265],[-3.667216,52.226525],[-3.666879,52.226759],[-3.666592,52.226966],[-3.666428,52.227138],[-3.666387,52.227276],[-3.666529,52.227489],[-3.666853,52.227779],[-3.667412,52.22823],[-3.668206,52.228843],[-3.668802,52.229197],[-3.6692,52.229294],[-3.669544,52.229402],[-3.669832,52.229522],[-3.670073,52.229678],[-3.670267,52.22987],[-3.670373,52.229996],[-3.670391,52.230055],[-3.670464,52.230128],[-3.670592,52.230215],[-3.670918,52.230295],[-3.671443,52.230367],[-3.67194,52.230375],[-3.67241,52.23032],[-3.672647,52.230298],[-3.672649,52.230308],[-3.672862,52.230483],[-3.673285,52.230821],[-3.673831,52.231129],[-3.674502,52.231407],[-3.675056,52.231627],[-3.675496,52.231788],[-3.675815,52.231926],[-3.676014,52.23204],[-3.6761,52.232183],[-3.676072,52.232356],[-3.675796,52.232441],[-3.675274,52.232439],[-3.674795,52.232379],[-3.674359,52.232261],[-3.673878,52.232199],[-3.673354,52.232191],[-3.672936,52.23223],[-3.672626,52.232317],[-3.672465,52.232384],[-3.672455,52.232433],[-3.672351,52.232518],[-3.672153,52.232638],[-3.67178,52.232804],[-3.671231,52.233016],[-3.670684,52.233203],[-3.67014,52.233365],[-3.669883,52.233573],[-3.669912,52.233828],[-3.670167,52.234002],[-3.67065,52.234093],[-3.671227,52.234328],[-3.671899,52.234705],[-3.672697,52.235034],[-3.673621,52.235314],[-3.674425,52.235629],[-3.675109,52.23598],[-3.675562,52.236125],[-3.675784,52.236062],[-3.67596,52.23598],[-3.67609,52.235878],[-3.676305,52.235792],[-3.676605,52.23572],[-3.67689,52.235745],[-3.67716,52.235868],[-3.677364,52.23605],[-3.6775,52.236293],[-3.677696,52.236648],[-3.677953,52.237117],[-3.678199,52.237371],[-3.678434,52.237412],[-3.678848,52.23748],[-3.679443,52.237577],[-3.67982,52.237721],[-3.679981,52.237912],[-3.68009,52.238084],[-3.680148,52.238237],[-3.680271,52.238404],[-3.680458,52.238585],[-3.680879,52.23882],[-3.681533,52.239106],[-3.682099,52.239336],[-3.682576,52.239508],[-3.683003,52.239698],[-3.683381,52.239907],[-3.68393,52.240116],[-3.684652,52.240328],[-3.68518,52.240423],[-3.685517,52.240402],[-3.685708,52.240369],[-3.685754,52.240323],[-3.686073,52.240423],[-3.686665,52.240668],[-3.687076,52.240852],[-3.687308,52.240973],[-3.688184,52.24156],[-3.689703,52.242613],[-3.690728,52.243213],[-3.691259,52.243358],[-3.691875,52.243427],[-3.692577,52.24342],[-3.693297,52.243313],[-3.694034,52.243109],[-3.694574,52.242953],[-3.694914,52.242845],[-3.695091,52.242802]]]}}