{"type":"Feature","properties":{"id":"462421","COMMUNE":"Neath Port Talbot","PROVINCE":"Bridgend and Neath Port Talbot","COUNTRY":"UK","FIREDATE":"2026-04-27 12:44:00","FINALDATE":"2026-04-27 12:44:00","CLASS":"FireSeason","areaHA_geo":7.661},"geometry":{"type":"Polygon","coordinates":[[[-3.681156,51.669298],[-3.681193,51.669507],[-3.681295,51.669559],[-3.681463,51.669455],[-3.68157,51.669316],[-3.681616,51.669143],[-3.681685,51.668983],[-3.681777,51.668838],[-3.682106,51.668847],[-3.682673,51.66901],[-3.683042,51.66909],[-3.683213,51.669086],[-3.683275,51.668978],[-3.683228,51.668765],[-3.683174,51.668513],[-3.683112,51.668223],[-3.683077,51.668006],[-3.683069,51.667861],[-3.683066,51.667716],[-3.683066,51.66757],[-3.683125,51.667496],[-3.683242,51.667493],[-3.683568,51.667595],[-3.684103,51.667801],[-3.684456,51.667858],[-3.684627,51.667765],[-3.684856,51.667493],[-3.685145,51.667044],[-3.685319,51.666783],[-3.685378,51.666709],[-3.685224,51.666665],[-3.684857,51.666652],[-3.68471,51.666541],[-3.684781,51.66633],[-3.684908,51.666167],[-3.68509,51.66605],[-3.685138,51.665957],[-3.685054,51.665889],[-3.684799,51.665826],[-3.684374,51.66577],[-3.683991,51.665765],[-3.683652,51.66581],[-3.683348,51.665885],[-3.683081,51.66599],[-3.682784,51.666072],[-3.682458,51.666133],[-3.682059,51.666236],[-3.681587,51.666382],[-3.681254,51.666508],[-3.68106,51.666615],[-3.680899,51.666802],[-3.680773,51.667069],[-3.680694,51.667359],[-3.680662,51.667671],[-3.68067,51.66792],[-3.680718,51.668105],[-3.680841,51.668446],[-3.681039,51.668944],[-3.681156,51.669298]]]}}