{"type":"Feature","properties":{"id":"462431","COMMUNE":"Rhondda Cynon Taf","PROVINCE":"Central Valleys","COUNTRY":"UK","FIREDATE":"2026-04-25 13:21:00","CLASS":"FireSeason","areaHA_geo":24.885},"geometry":{"type":"Polygon","coordinates":[[[-3.407937,51.644561],[-3.407815,51.644636],[-3.407686,51.644724],[-3.407549,51.644824],[-3.407415,51.644965],[-3.407282,51.645146],[-3.407146,51.645282],[-3.407007,51.645373],[-3.406851,51.645424],[-3.406677,51.645434],[-3.406551,51.645402],[-3.406473,51.645327],[-3.406472,51.645264],[-3.406548,51.645215],[-3.406647,51.645183],[-3.406769,51.645169],[-3.406857,51.645115],[-3.406909,51.645022],[-3.40695,51.64492],[-3.406977,51.644811],[-3.407017,51.644742],[-3.40707,51.644714],[-3.407121,51.644683],[-3.407171,51.644649],[-3.407262,51.644583],[-3.407394,51.644483],[-3.407513,51.644409],[-3.407619,51.644359],[-3.407683,51.644323],[-3.407703,51.644302],[-3.407711,51.64429],[-3.407708,51.644286],[-3.407662,51.644262],[-3.407574,51.644217],[-3.407482,51.644189],[-3.407385,51.644178],[-3.407257,51.644175],[-3.4071,51.644179],[-3.406913,51.644191],[-3.406695,51.64421],[-3.406502,51.644231],[-3.406333,51.644256],[-3.406189,51.644283],[-3.406068,51.644313],[-3.405971,51.644329],[-3.405897,51.644332],[-3.405847,51.644321],[-3.40582,51.644296],[-3.40579,51.644276],[-3.405757,51.644262],[-3.40572,51.644253],[-3.40568,51.64425],[-3.405643,51.644248],[-3.405607,51.644248],[-3.405574,51.64425],[-3.405542,51.644254],[-3.405504,51.64426],[-3.405458,51.644269],[-3.405405,51.644282],[-3.405345,51.644297],[-3.405276,51.644316],[-3.405197,51.64434],[-3.40511,51.644369],[-3.405013,51.644402],[-3.404912,51.64442],[-3.404808,51.644423],[-3.4047,51.644411],[-3.404588,51.644384],[-3.4045,51.644359],[-3.404435,51.644335],[-3.404393,51.644313],[-3.404374,51.644294],[-3.404355,51.644275],[-3.404335,51.644259],[-3.404315,51.644243],[-3.404295,51.64423],[-3.404245,51.644219],[-3.404165,51.644211],[-3.404055,51.644206],[-3.403915,51.644204],[-3.403821,51.644221],[-3.403772,51.644257],[-3.403768,51.644311],[-3.403809,51.644385],[-3.403869,51.644475],[-3.403946,51.644582],[-3.404041,51.644706],[-3.404155,51.644847],[-3.404287,51.644958],[-3.404439,51.645037],[-3.40461,51.645086],[-3.404799,51.645104],[-3.404962,51.645116],[-3.405098,51.645121],[-3.405207,51.64512],[-3.405289,51.645113],[-3.405367,51.645116],[-3.405443,51.645129],[-3.405514,51.645153],[-3.405583,51.645187],[-3.405634,51.645227],[-3.405667,51.645275],[-3.405683,51.645328],[-3.405682,51.645389],[-3.405666,51.645449],[-3.405636,51.645509],[-3.405591,51.64557],[-3.405532,51.645631],[-3.405482,51.645685],[-3.405441,51.645733],[-3.40541,51.645774],[-3.405388,51.645809],[-3.405375,51.645846],[-3.405371,51.645887],[-3.405375,51.64593],[-3.405389,51.645977],[-3.405412,51.646017],[-3.405443,51.646052],[-3.405483,51.64608],[-3.405532,51.646102],[-3.405575,51.646134],[-3.405611,51.646173],[-3.405641,51.646222],[-3.405664,51.646279],[-3.405688,51.646341],[-3.405713,51.646406],[-3.405738,51.646475],[-3.405763,51.646548],[-3.405797,51.646623],[-3.405841,51.646699],[-3.405894,51.646776],[-3.405957,51.646855],[-3.406021,51.646922],[-3.406086,51.646978],[-3.406153,51.647021],[-3.406221,51.647053],[-3.406274,51.647084],[-3.406313,51.647113],[-3.406336,51.647141],[-3.406345,51.647167],[-3.406398,51.647231],[-3.406496,51.647332],[-3.406639,51.64747],[-3.406826,51.647646],[-3.406994,51.647824],[-3.407144,51.648004],[-3.407276,51.648187],[-3.407389,51.648371],[-3.407554,51.648571],[-3.407769,51.648786],[-3.408035,51.649017],[-3.408352,51.649263],[-3.408607,51.649448],[-3.4088,51.64957],[-3.408932,51.64963],[-3.409002,51.649628],[-3.409098,51.64967],[-3.409222,51.649754],[-3.409372,51.649882],[-3.409548,51.650053],[-3.409698,51.65021],[-3.40982,51.650354],[-3.409915,51.650484],[-3.409982,51.6506],[-3.410038,51.650694],[-3.410083,51.650766],[-3.410117,51.650817],[-3.41014,51.650846],[-3.410177,51.650873],[-3.410228,51.650897],[-3.410294,51.650919],[-3.410374,51.650938],[-3.410458,51.65092],[-3.410546,51.650864],[-3.410637,51.65077],[-3.410733,51.650638],[-3.410813,51.650529],[-3.410877,51.650442],[-3.410927,51.650378],[-3.410961,51.650337],[-3.411,51.650301],[-3.411044,51.65027],[-3.411093,51.650244],[-3.411148,51.650223],[-3.411222,51.650205],[-3.411318,51.65019],[-3.411434,51.650177],[-3.41157,51.650167],[-3.4117,51.650158],[-3.411823,51.65015],[-3.411939,51.650142],[-3.412049,51.650135],[-3.412138,51.65013],[-3.412206,51.650126],[-3.412255,51.650124],[-3.412282,51.650124],[-3.41233,51.65014],[-3.412398,51.650172],[-3.412486,51.650221],[-3.412594,51.650286],[-3.412664,51.650354],[-3.412696,51.650423],[-3.412691,51.650495],[-3.412648,51.650569],[-3.412613,51.650643],[-3.412587,51.650717],[-3.412568,51.65079],[-3.412557,51.650863],[-3.412552,51.650934],[-3.412552,51.651003],[-3.412557,51.65107],[-3.412567,51.651135],[-3.412587,51.651206],[-3.412617,51.651283],[-3.412657,51.651366],[-3.412707,51.651455],[-3.41278,51.651551],[-3.412876,51.651654],[-3.412995,51.651763],[-3.413136,51.651879],[-3.413297,51.651997],[-3.413478,51.652117],[-3.413677,51.652239],[-3.413896,51.652364],[-3.414094,51.65246],[-3.414273,51.652529],[-3.414431,51.652569],[-3.41457,51.652582],[-3.41469,51.652599],[-3.414792,51.652621],[-3.414875,51.652646],[-3.41494,51.652676],[-3.415003,51.652713],[-3.415065,51.652756],[-3.415125,51.652806],[-3.415184,51.652862],[-3.415229,51.652905],[-3.415262,51.652934],[-3.41528,51.65295],[-3.415286,51.652953],[-3.415293,51.652983],[-3.415304,51.65304],[-3.415317,51.653126],[-3.415332,51.653239],[-3.415433,51.653327],[-3.415619,51.653391],[-3.415891,51.653429],[-3.416248,51.653442],[-3.416373,51.653299],[-3.416264,51.652998],[-3.415922,51.65254],[-3.415347,51.651924],[-3.414784,51.651326],[-3.414232,51.650744],[-3.413693,51.650178],[-3.413166,51.649629],[-3.412719,51.649162],[-3.412353,51.648778],[-3.412067,51.648475],[-3.411861,51.648254],[-3.4117,51.648089],[-3.411584,51.64798],[-3.411513,51.647927],[-3.411487,51.647929],[-3.411448,51.647896],[-3.411395,51.647826],[-3.41133,51.64772],[-3.411252,51.647577],[-3.411103,51.647385],[-3.410882,51.647141],[-3.410589,51.646848],[-3.410225,51.646504],[-3.409948,51.646246],[-3.40976,51.646073],[-3.40966,51.645986],[-3.409648,51.645985],[-3.409642,51.645963],[-3.409643,51.645918],[-3.409651,51.645852],[-3.409665,51.645764],[-3.409603,51.645552],[-3.409465,51.645216],[-3.409252,51.644755],[-3.408964,51.64417],[-3.408737,51.643721],[-3.408572,51.643409],[-3.40847,51.643233],[-3.408429,51.643194],[-3.408363,51.643158],[-3.408273,51.643127],[-3.408158,51.643099],[-3.408018,51.643075],[-3.40787,51.643061],[-3.407713,51.643057],[-3.407549,51.643063],[-3.407375,51.643079],[-3.407205,51.643104],[-3.407037,51.643139],[-3.406873,51.643182],[-3.406711,51.643235],[-3.406539,51.643283],[-3.406358,51.643326],[-3.406167,51.643364],[-3.405967,51.643397],[-3.405777,51.643426],[-3.405599,51.643452],[-3.405432,51.643474],[-3.405275,51.643492],[-3.405139,51.643511],[-3.405022,51.64353],[-3.404924,51.64355],[-3.404846,51.643571],[-3.404805,51.643597],[-3.404799,51.643628],[-3.40483,51.643663],[-3.404897,51.643704],[-3.404977,51.643736],[-3.40507,51.64376],[-3.405176,51.643777],[-3.405295,51.643785],[-3.405459,51.643775],[-3.405668,51.643748],[-3.405921,51.643704],[-3.406219,51.643641],[-3.406494,51.643589],[-3.406745,51.643548],[-3.406973,51.643518],[-3.407178,51.643498],[-3.407357,51.643501],[-3.407512,51.643526],[-3.407642,51.643574],[-3.407747,51.643644],[-3.407841,51.643711],[-3.407923,51.643776],[-3.407994,51.643837],[-3.408054,51.643897],[-3.408106,51.643961],[-3.408149,51.644031],[-3.408185,51.644107],[-3.408212,51.644188],[-3.408232,51.644265],[-3.408245,51.644338],[-3.40825,51.644382],[-3.40825,51.644395],[-3.408336,51.644447],[-3.408509,51.644538],[-3.408614,51.644662],[-3.408651,51.644821],[-3.408703,51.644985],[-3.408769,51.645155],[-3.408776,51.645295],[-3.408722,51.645404],[-3.408665,51.645472],[-3.408602,51.645498],[-3.408527,51.645528],[-3.408442,51.645563],[-3.408277,51.645542],[-3.408031,51.645464],[-3.407966,51.645356],[-3.408081,51.645217],[-3.408204,51.645106],[-3.408335,51.645023],[-3.408392,51.644925],[-3.408374,51.644815],[-3.408346,51.644721],[-3.408308,51.644645],[-3.408276,51.644583],[-3.40825,51.644537],[-3.40822,51.644525],[-3.408185,51.644549],[-3.40813,51.644554],[-3.408055,51.644541],[-3.408012,51.644532],[-3.408003,51.644526],[-3.407937,51.644561]],[[-3.410164,51.649359],[-3.410095,51.64923],[-3.41013,51.649151],[-3.41027,51.649122],[-3.410456,51.649099],[-3.410687,51.649082],[-3.410893,51.649033],[-3.411074,51.648952],[-3.41127,51.648886],[-3.411481,51.648836],[-3.411688,51.648833],[-3.411891,51.648876],[-3.412,51.648932],[-3.412015,51.649],[-3.412059,51.649086],[-3.412131,51.649189],[-3.4122,51.649293],[-3.412268,51.6494],[-3.412277,51.64947],[-3.412225,51.649505],[-3.412124,51.649456],[-3.411971,51.649325],[-3.411755,51.649256],[-3.411476,51.64925],[-3.411275,51.649262],[-3.41115,51.649292],[-3.410973,51.649359],[-3.410742,51.649462],[-3.410519,51.649491],[-3.410306,51.649445],[-3.410164,51.649359]]]}}