{"type":"Feature","properties":{"id":"462435","COMMUNE":"Powys","PROVINCE":"Powys","COUNTRY":"UK","FIREDATE":"2026-04-29 00:00:00","FINALDATE":"2026-04-29 00:00:00","CLASS":"FireSeason","areaHA_geo":22.559},"geometry":{"type":"Polygon","coordinates":[[[-3.510819,51.801868],[-3.510976,51.801781],[-3.511107,51.801682],[-3.511213,51.801571],[-3.511146,51.801382],[-3.510905,51.801115],[-3.510727,51.800889],[-3.510611,51.800705],[-3.510617,51.800495],[-3.510745,51.800259],[-3.510843,51.800056],[-3.510912,51.799888],[-3.510966,51.799574],[-3.511006,51.799114],[-3.51118,51.798601],[-3.511488,51.798035],[-3.511547,51.797671],[-3.511358,51.797509],[-3.511102,51.79739],[-3.51078,51.797317],[-3.510502,51.797257],[-3.510269,51.79721],[-3.510191,51.79725],[-3.510269,51.797376],[-3.510349,51.797539],[-3.510429,51.797739],[-3.510338,51.797898],[-3.510074,51.798015],[-3.50981,51.798101],[-3.509547,51.798156],[-3.509378,51.798059],[-3.509302,51.797809],[-3.509029,51.797699],[-3.508559,51.797729],[-3.50828,51.797798],[-3.508193,51.797907],[-3.508153,51.798071],[-3.50816,51.798292],[-3.50814,51.798455],[-3.508092,51.798559],[-3.507936,51.798639],[-3.507673,51.798694],[-3.507329,51.798746],[-3.506905,51.798795],[-3.506685,51.798925],[-3.506669,51.799137],[-3.506631,51.799406],[-3.506571,51.799733],[-3.506475,51.800009],[-3.506343,51.800234],[-3.506151,51.800422],[-3.505897,51.800575],[-3.505503,51.800559],[-3.504968,51.800375],[-3.504586,51.800302],[-3.504358,51.800341],[-3.504218,51.800437],[-3.504165,51.800591],[-3.504128,51.800768],[-3.504109,51.800967],[-3.503988,51.801129],[-3.503766,51.801253],[-3.503651,51.801365],[-3.503641,51.801465],[-3.503647,51.80155],[-3.503668,51.801622],[-3.503731,51.801695],[-3.503833,51.801769],[-3.503926,51.802306],[-3.50401,51.803306],[-3.50443,51.803768],[-3.505187,51.803692],[-3.50563,51.803672],[-3.50576,51.803707],[-3.506013,51.803751],[-3.506389,51.803806],[-3.506718,51.803805],[-3.507,51.803748],[-3.507164,51.803661],[-3.507207,51.803545],[-3.50723,51.803487],[-3.507231,51.803487],[-3.507384,51.803235],[-3.507691,51.802732],[-3.50796,51.802473],[-3.508193,51.80246],[-3.508377,51.802506],[-3.508512,51.802612],[-3.508795,51.802684],[-3.509225,51.80272],[-3.509751,51.80261],[-3.510372,51.802353],[-3.5107,51.802148],[-3.510733,51.801997],[-3.510748,51.801918],[-3.510743,51.801914],[-3.510819,51.801868]]]}}