{"type":"Feature","properties":{"id":"462413","COMMUNE":"Bridgend","PROVINCE":"Bridgend and Neath Port Talbot","COUNTRY":"UK","FIREDATE":"2026-04-24 00:00:00","FINALDATE":"2026-04-24 00:00:00","CLASS":"FireSeason","areaHA_geo":18.293},"geometry":{"type":"Polygon","coordinates":[[[-3.657913,51.644487],[-3.658102,51.644581],[-3.65836,51.644606],[-3.658686,51.644562],[-3.658891,51.644427],[-3.658974,51.644202],[-3.65906,51.643912],[-3.659149,51.643559],[-3.659267,51.643288],[-3.659415,51.643099],[-3.659687,51.642937],[-3.660084,51.642802],[-3.660589,51.642701],[-3.661203,51.642634],[-3.661708,51.642547],[-3.662104,51.64244],[-3.662346,51.642309],[-3.662433,51.642155],[-3.662656,51.642051],[-3.663015,51.641998],[-3.663283,51.641941],[-3.663462,51.641882],[-3.66361,51.641812],[-3.663729,51.641731],[-3.663871,51.641629],[-3.664039,51.641504],[-3.66433,51.641404],[-3.664744,51.641327],[-3.665113,51.641248],[-3.665437,51.641165],[-3.665591,51.641012],[-3.665576,51.640787],[-3.665502,51.640649],[-3.66537,51.640598],[-3.665181,51.640576],[-3.664933,51.640583],[-3.664758,51.64054],[-3.664658,51.640447],[-3.664495,51.64035],[-3.664268,51.64025],[-3.664024,51.640171],[-3.663765,51.640113],[-3.663607,51.640062],[-3.663549,51.640019],[-3.663513,51.639988],[-3.663498,51.639967],[-3.663381,51.639964],[-3.663162,51.639979],[-3.662994,51.640002],[-3.662878,51.640032],[-3.662802,51.64006],[-3.662766,51.640087],[-3.662709,51.640151],[-3.662634,51.640254],[-3.662509,51.640343],[-3.662336,51.640419],[-3.662035,51.640488],[-3.661607,51.640549],[-3.661099,51.640612],[-3.660511,51.640676],[-3.660106,51.640756],[-3.659886,51.640854],[-3.659655,51.640961],[-3.659414,51.641078],[-3.658997,51.641133],[-3.658405,51.641125],[-3.657881,51.641093],[-3.657426,51.641036],[-3.657098,51.641],[-3.656897,51.640985],[-3.656697,51.640887],[-3.656499,51.640705],[-3.656143,51.640551],[-3.65563,51.640423],[-3.655136,51.640368],[-3.654658,51.640386],[-3.654279,51.640416],[-3.653998,51.640461],[-3.653769,51.640518],[-3.653594,51.640588],[-3.653471,51.640683],[-3.6534,51.640802],[-3.653325,51.640963],[-3.653244,51.641166],[-3.653156,51.641334],[-3.653063,51.641466],[-3.653067,51.641554],[-3.65317,51.641598],[-3.653418,51.641709],[-3.653813,51.64189],[-3.654211,51.642022],[-3.654612,51.642108],[-3.65493,51.642198],[-3.655165,51.642292],[-3.655313,51.642354],[-3.655376,51.642386],[-3.655529,51.642445],[-3.65577,51.642533],[-3.655932,51.642682],[-3.656014,51.642894],[-3.656075,51.64305],[-3.656115,51.64315],[-3.656143,51.643213],[-3.65616,51.643239],[-3.656194,51.643249],[-3.656246,51.643243],[-3.656318,51.643171],[-3.65641,51.643033],[-3.656536,51.642979],[-3.656698,51.64301],[-3.656877,51.643041],[-3.657074,51.643073],[-3.657253,51.643132],[-3.657414,51.643219],[-3.657572,51.643313],[-3.657729,51.643416],[-3.657832,51.643507],[-3.657883,51.643584],[-3.657945,51.643643],[-3.65802,51.643683],[-3.658139,51.643722],[-3.658302,51.643758],[-3.6584,51.643843],[-3.658432,51.643978],[-3.658319,51.644074],[-3.658059,51.644132],[-3.657902,51.644231],[-3.657846,51.64437],[-3.657913,51.644487]]]}}