{"type":"Feature","properties":{"id":"462425","COMMUNE":"Bridgend","PROVINCE":"Bridgend and Neath Port Talbot","COUNTRY":"UK","FIREDATE":"2026-04-29 00:00:00","CLASS":"FireSeason","areaHA_geo":12.853},"geometry":{"type":"Polygon","coordinates":[[[-3.518206,51.624362],[-3.518246,51.624154],[-3.518245,51.623881],[-3.518201,51.623545],[-3.518144,51.623316],[-3.518073,51.623193],[-3.517938,51.623118],[-3.517739,51.623091],[-3.517558,51.62309],[-3.517395,51.623115],[-3.517292,51.623151],[-3.517249,51.623199],[-3.517149,51.623252],[-3.516994,51.623313],[-3.516759,51.623376],[-3.516446,51.623442],[-3.516242,51.623513],[-3.51615,51.623589],[-3.516111,51.623682],[-3.516127,51.623792],[-3.516197,51.623914],[-3.516319,51.62405],[-3.516502,51.624203],[-3.516745,51.624375],[-3.516983,51.624521],[-3.517216,51.624642],[-3.517391,51.624735],[-3.517505,51.624802],[-3.51754,51.624854],[-3.517494,51.624891],[-3.517478,51.624964],[-3.517493,51.625073],[-3.517553,51.62519],[-3.51766,51.625315],[-3.517766,51.625465],[-3.517873,51.625639],[-3.517931,51.625763],[-3.51794,51.625838],[-3.517965,51.625907],[-3.518006,51.62597],[-3.517998,51.626026],[-3.517939,51.626077],[-3.517965,51.626257],[-3.518075,51.626568],[-3.518331,51.626861],[-3.518731,51.627138],[-3.519007,51.627381],[-3.519159,51.62759],[-3.519248,51.627736],[-3.519273,51.627819],[-3.519287,51.627866],[-3.51929,51.627876],[-3.519296,51.627884],[-3.519303,51.627891],[-3.519276,51.627925],[-3.519213,51.627987],[-3.519411,51.628255],[-3.51987,51.628729],[-3.520192,51.628981],[-3.520376,51.62901],[-3.520511,51.629186],[-3.520597,51.629509],[-3.5208,51.629815],[-3.521121,51.630103],[-3.521394,51.630234],[-3.52162,51.630208],[-3.521786,51.629982],[-3.521891,51.629557],[-3.521944,51.629269],[-3.521945,51.629117],[-3.521829,51.628986],[-3.521597,51.628875],[-3.521468,51.62872],[-3.521443,51.628521],[-3.521471,51.62834],[-3.52155,51.628179],[-3.521566,51.62796],[-3.521518,51.627684],[-3.521522,51.627484],[-3.521578,51.627362],[-3.521596,51.627266],[-3.521575,51.627196],[-3.521551,51.627061],[-3.521526,51.626862],[-3.521492,51.62675],[-3.52145,51.626726],[-3.521389,51.626717],[-3.521309,51.626723],[-3.521241,51.626682],[-3.521184,51.626593],[-3.521127,51.626544],[-3.521068,51.626534],[-3.520923,51.626513],[-3.520691,51.626481],[-3.520438,51.626389],[-3.520164,51.626235],[-3.520004,51.626082],[-3.519958,51.625929],[-3.519945,51.625849],[-3.519965,51.625844],[-3.520055,51.625847],[-3.520214,51.625859],[-3.520348,51.625869],[-3.520456,51.625878],[-3.520585,51.625864],[-3.520736,51.625829],[-3.520767,51.625738],[-3.520678,51.62559],[-3.520632,51.625516],[-3.520629,51.625516],[-3.520681,51.625478],[-3.520788,51.625402],[-3.520938,51.625335],[-3.52113,51.625279],[-3.521317,51.625211],[-3.521497,51.62513],[-3.521592,51.625031],[-3.521602,51.624911],[-3.521595,51.624837],[-3.521573,51.624809],[-3.521472,51.624694],[-3.521293,51.624492],[-3.521136,51.624372],[-3.521002,51.624334],[-3.520813,51.62429],[-3.52057,51.624239],[-3.520379,51.62418],[-3.52024,51.624111],[-3.520043,51.624085],[-3.519788,51.6241],[-3.519466,51.624134],[-3.519076,51.624185],[-3.518872,51.624242],[-3.518855,51.624306],[-3.51885,51.624358],[-3.518857,51.624396],[-3.518796,51.624413],[-3.518667,51.624409],[-3.518499,51.624421],[-3.518291,51.624451],[-3.518206,51.624362]]]}}