{"type":"Feature","properties":{"id":"462415","COMMUNE":"Bridgend","PROVINCE":"Bridgend and Neath Port Talbot","COUNTRY":"UK","FIREDATE":"2026-04-24 00:00:00","CLASS":"FireSeason","areaHA_geo":2.56},"geometry":{"type":"Polygon","coordinates":[[[-3.648556,51.643859],[-3.648993,51.643508],[-3.649224,51.643252],[-3.649248,51.643092],[-3.649217,51.642912],[-3.649132,51.642713],[-3.64913,51.642548],[-3.649212,51.642419],[-3.649256,51.642328],[-3.649264,51.642274],[-3.649243,51.642127],[-3.649194,51.641886],[-3.649125,51.641759],[-3.649037,51.641747],[-3.648779,51.641833],[-3.648351,51.642019],[-3.647968,51.642228],[-3.647628,51.642463],[-3.647293,51.642633],[-3.646962,51.64274],[-3.646741,51.642908],[-3.64663,51.643138],[-3.64657,51.64328],[-3.646562,51.643333],[-3.646706,51.643387],[-3.647001,51.643443],[-3.647228,51.643431],[-3.647385,51.643353],[-3.647682,51.643494],[-3.648119,51.643854],[-3.648556,51.643859]]]}}