{"type":"Feature","properties":{"id":"462423","COMMUNE":"Bridgend","PROVINCE":"Bridgend and Neath Port Talbot","COUNTRY":"UK","FIREDATE":"2026-04-28 00:00:00","CLASS":"FireSeason","areaHA_geo":2.296},"geometry":{"type":"Polygon","coordinates":[[[-3.526911,51.636337],[-3.527777,51.63629],[-3.528355,51.636241],[-3.528647,51.636189],[-3.528798,51.636081],[-3.528807,51.635916],[-3.528802,51.635804],[-3.528783,51.635742],[-3.52858,51.63558],[-3.528193,51.635317],[-3.527846,51.63514],[-3.52754,51.635048],[-3.527171,51.635064],[-3.526739,51.635187],[-3.52631,51.635319],[-3.525884,51.635459],[-3.52561,51.635572],[-3.52549,51.635659],[-3.525692,51.635867],[-3.526216,51.636196],[-3.526911,51.636337]]]}}