{"type":"Feature","properties":{"id":"462433","COMMUNE":"Swansea","PROVINCE":"Swansea","COUNTRY":"UK","FIREDATE":"2026-04-29 12:25:00","CLASS":"FireSeason","areaHA_geo":14.519},"geometry":{"type":"Polygon","coordinates":[[[-4.095719,51.604755],[-4.096066,51.60468],[-4.096474,51.604614],[-4.096943,51.604557],[-4.09748,51.604548],[-4.098085,51.604585],[-4.098599,51.604687],[-4.099021,51.604852],[-4.099441,51.604974],[-4.099858,51.605055],[-4.100036,51.604948],[-4.099975,51.604654],[-4.099943,51.604382],[-4.099938,51.604134],[-4.099937,51.603895],[-4.099939,51.603665],[-4.099905,51.603472],[-4.099834,51.603317],[-4.099689,51.603207],[-4.099467,51.603142],[-4.099251,51.60308],[-4.099042,51.60302],[-4.098649,51.602999],[-4.098072,51.603017],[-4.097611,51.602998],[-4.097265,51.602942],[-4.097152,51.60287],[-4.097273,51.602783],[-4.097475,51.602736],[-4.097758,51.602727],[-4.098262,51.602745],[-4.098985,51.602788],[-4.099599,51.602857],[-4.100106,51.602953],[-4.100716,51.603023],[-4.101429,51.603067],[-4.102064,51.603069],[-4.102623,51.603027],[-4.102926,51.602797],[-4.102974,51.602378],[-4.102986,51.602013],[-4.102962,51.601701],[-4.102926,51.601404],[-4.10288,51.601121],[-4.102804,51.600983],[-4.1027,51.600989],[-4.102392,51.601052],[-4.10188,51.601174],[-4.101443,51.601283],[-4.101082,51.601379],[-4.100735,51.601471],[-4.100402,51.601557],[-4.100055,51.601615],[-4.099694,51.601646],[-4.099416,51.601654],[-4.09922,51.601638],[-4.098993,51.601538],[-4.098733,51.601354],[-4.098565,51.601256],[-4.098488,51.601246],[-4.098354,51.601259],[-4.098164,51.601295],[-4.098051,51.601322],[-4.098014,51.601339],[-4.098079,51.60141],[-4.098245,51.601534],[-4.098437,51.601622],[-4.098655,51.601674],[-4.09884,51.60176],[-4.098994,51.601879],[-4.098861,51.601977],[-4.098441,51.602054],[-4.09818,51.602116],[-4.098077,51.602161],[-4.097971,51.602161],[-4.097862,51.602115],[-4.09784,51.602046],[-4.097906,51.601952],[-4.09794,51.601893],[-4.097942,51.601866],[-4.097926,51.601799],[-4.097892,51.601692],[-4.097793,51.601612],[-4.097629,51.60156],[-4.097498,51.601514],[-4.0974,51.601473],[-4.097351,51.601453],[-4.097351,51.601453],[-4.097334,51.601498],[-4.097298,51.601587],[-4.097242,51.601676],[-4.097163,51.601764],[-4.097102,51.601804],[-4.097057,51.601797],[-4.097008,51.601724],[-4.096954,51.601586],[-4.09691,51.601513],[-4.096875,51.601504],[-4.096842,51.601498],[-4.096809,51.601496],[-4.096631,51.601501],[-4.096307,51.601514],[-4.096041,51.601579],[-4.095834,51.601696],[-4.095654,51.601813],[-4.095501,51.60193],[-4.095413,51.602072],[-4.095391,51.602239],[-4.095375,51.60244],[-4.095366,51.602678],[-4.095329,51.602898],[-4.095267,51.603103],[-4.095152,51.603244],[-4.094987,51.603324],[-4.094842,51.6034],[-4.094717,51.603474],[-4.094877,51.603832],[-4.095322,51.604472],[-4.095719,51.604755]]]}}