{"type":"Feature","properties":{"id":"462461","COMMUNE":"High Peak","PROVINCE":"South and West Derbyshire","COUNTRY":"UK","FIREDATE":"2026-05-01 01:05:00","CLASS":"FireSeason","areaHA_geo":200.073},"geometry":{"type":"Polygon","coordinates":[[[-1.856037,53.430365],[-1.856199,53.430167],[-1.856429,53.42995],[-1.856581,53.429665],[-1.856655,53.429313],[-1.856727,53.428816],[-1.856798,53.428175],[-1.856979,53.427784],[-1.857269,53.427643],[-1.857523,53.4276],[-1.857742,53.427653],[-1.857868,53.42771],[-1.857901,53.427772],[-1.857926,53.427863],[-1.857944,53.427983],[-1.857881,53.428091],[-1.857736,53.42819],[-1.857606,53.428342],[-1.857492,53.42855],[-1.85746,53.4288],[-1.857511,53.429094],[-1.857659,53.429289],[-1.857906,53.429386],[-1.858066,53.42937],[-1.85814,53.429241],[-1.858246,53.429114],[-1.858383,53.428989],[-1.858508,53.428958],[-1.858619,53.429022],[-1.858701,53.429088],[-1.858752,53.429158],[-1.858715,53.429278],[-1.85859,53.429449],[-1.858513,53.429592],[-1.858482,53.429707],[-1.85848,53.429894],[-1.858505,53.430152],[-1.858559,53.430343],[-1.85864,53.430466],[-1.858873,53.430513],[-1.859257,53.430484],[-1.859467,53.430472],[-1.859503,53.430477],[-1.859448,53.430586],[-1.859302,53.430798],[-1.858908,53.43099],[-1.858268,53.431161],[-1.857831,53.431284],[-1.857599,53.431361],[-1.85741,53.431493],[-1.857263,53.43168],[-1.857216,53.431835],[-1.857269,53.43196],[-1.85751,53.431979],[-1.857939,53.431894],[-1.858628,53.431863],[-1.859577,53.431889],[-1.860416,53.431973],[-1.861145,53.432117],[-1.861684,53.432231],[-1.862033,53.432315],[-1.862714,53.43235],[-1.863724,53.432337],[-1.864372,53.432354],[-1.864657,53.432401],[-1.864859,53.432441],[-1.864976,53.432472],[-1.86518,53.432587],[-1.865471,53.432784],[-1.865859,53.432876],[-1.866344,53.43286],[-1.866692,53.432777],[-1.866904,53.432627],[-1.86699,53.432452],[-1.866952,53.432251],[-1.866842,53.432051],[-1.86666,53.431854],[-1.866435,53.431698],[-1.866167,53.431584],[-1.866012,53.431449],[-1.865967,53.431291],[-1.865998,53.431143],[-1.866104,53.431003],[-1.866254,53.430956],[-1.866448,53.431001],[-1.866556,53.431034],[-1.86658,53.431053],[-1.866849,53.431204],[-1.867363,53.431488],[-1.867656,53.431594],[-1.867726,53.431522],[-1.867735,53.431424],[-1.867682,53.4313],[-1.867591,53.431072],[-1.867461,53.43074],[-1.867342,53.430444],[-1.867233,53.430186],[-1.867117,53.429998],[-1.866994,53.429881],[-1.866923,53.429819],[-1.866906,53.429811],[-1.866931,53.429801],[-1.866999,53.429786],[-1.866997,53.42968],[-1.866926,53.429481],[-1.866796,53.429158],[-1.866608,53.42871],[-1.866165,53.427998],[-1.865468,53.427022],[-1.864384,53.425925],[-1.862914,53.424708],[-1.861845,53.423941],[-1.861176,53.423625],[-1.860692,53.423359],[-1.860393,53.423144],[-1.860352,53.422907],[-1.860569,53.422649],[-1.860824,53.422344],[-1.861118,53.421992],[-1.861311,53.421632],[-1.861404,53.421264],[-1.861444,53.421058],[-1.861431,53.421013],[-1.861502,53.420938],[-1.861657,53.420833],[-1.86177,53.420691],[-1.861841,53.42051],[-1.861785,53.420295],[-1.861602,53.420045],[-1.861573,53.419809],[-1.861696,53.419588],[-1.861734,53.419353],[-1.861687,53.419103],[-1.861725,53.418873],[-1.861849,53.418664],[-1.861942,53.41843],[-1.862003,53.41817],[-1.862213,53.417895],[-1.862571,53.417605],[-1.862895,53.417345],[-1.863183,53.417113],[-1.863458,53.416806],[-1.863717,53.416425],[-1.863821,53.416142],[-1.863769,53.415959],[-1.863653,53.415807],[-1.863473,53.415687],[-1.863236,53.415557],[-1.862941,53.415419],[-1.862674,53.415253],[-1.862437,53.415059],[-1.862203,53.414922],[-1.861974,53.414843],[-1.861712,53.414821],[-1.861419,53.414856],[-1.861167,53.414848],[-1.860958,53.414795],[-1.860813,53.414779],[-1.860734,53.414802],[-1.860568,53.41484],[-1.860316,53.414894],[-1.859898,53.41492],[-1.859315,53.41492],[-1.858644,53.414907],[-1.857884,53.41488],[-1.857212,53.414824],[-1.856629,53.414736],[-1.856256,53.414677],[-1.856092,53.414644],[-1.855874,53.414601],[-1.8556,53.414546],[-1.855345,53.414574],[-1.855109,53.414684],[-1.854961,53.414893],[-1.854902,53.415203],[-1.854707,53.41546],[-1.854376,53.415666],[-1.854224,53.415875],[-1.85425,53.416085],[-1.854168,53.416275],[-1.853978,53.416443],[-1.853806,53.416561],[-1.853651,53.416628],[-1.853514,53.416687],[-1.853396,53.416739],[-1.853256,53.416751],[-1.853096,53.416726],[-1.852904,53.416637],[-1.85268,53.416485],[-1.852571,53.416405],[-1.852578,53.416398],[-1.852632,53.416343],[-1.852734,53.41624],[-1.852874,53.416109],[-1.853053,53.41595],[-1.853063,53.415787],[-1.852905,53.41562],[-1.852663,53.415528],[-1.852337,53.41551],[-1.852005,53.415518],[-1.851666,53.415552],[-1.851439,53.415562],[-1.851323,53.415548],[-1.851184,53.415624],[-1.851022,53.415789],[-1.850925,53.415914],[-1.850894,53.415997],[-1.85059,53.416021],[-1.850013,53.415988],[-1.84963,53.415894],[-1.849442,53.41574],[-1.849305,53.415655],[-1.849216,53.415639],[-1.848645,53.415637],[-1.847589,53.41565],[-1.846801,53.415624],[-1.846281,53.415559],[-1.845959,53.415479],[-1.845835,53.415383],[-1.845663,53.415317],[-1.845444,53.415281],[-1.845239,53.415272],[-1.845049,53.41529],[-1.844388,53.415368],[-1.843255,53.415504],[-1.842516,53.415801],[-1.84217,53.416258],[-1.841895,53.416696],[-1.841692,53.417114],[-1.84161,53.41752],[-1.841651,53.417914],[-1.841924,53.418269],[-1.84243,53.418584],[-1.842902,53.418948],[-1.843338,53.419362],[-1.843567,53.419683],[-1.84359,53.419913],[-1.84367,53.420125],[-1.843808,53.420319],[-1.8441,53.420402],[-1.844546,53.420374],[-1.844843,53.420283],[-1.84499,53.420129],[-1.845204,53.420161],[-1.845483,53.420379],[-1.845842,53.420662],[-1.846279,53.421009],[-1.84661,53.421367],[-1.846834,53.421735],[-1.847173,53.422208],[-1.847626,53.422784],[-1.848144,53.423247],[-1.848727,53.423594],[-1.849023,53.423925],[-1.849032,53.424241],[-1.84912,53.424469],[-1.849287,53.42461],[-1.849357,53.424719],[-1.849331,53.424798],[-1.84926,53.425023],[-1.849146,53.425395],[-1.849048,53.425781],[-1.848965,53.426179],[-1.848971,53.426591],[-1.849065,53.427015],[-1.849223,53.427361],[-1.849443,53.427628],[-1.849469,53.427893],[-1.8493,53.428155],[-1.849205,53.428598],[-1.849185,53.429222],[-1.849238,53.429672],[-1.849364,53.429949],[-1.84954,53.430054],[-1.849764,53.429989],[-1.849979,53.429975],[-1.850184,53.430012],[-1.850249,53.430114],[-1.850174,53.430281],[-1.849983,53.430422],[-1.849676,53.430539],[-1.849715,53.430671],[-1.850102,53.430817],[-1.850402,53.430963],[-1.850614,53.431109],[-1.850855,53.431211],[-1.851125,53.431271],[-1.851624,53.431373],[-1.852353,53.431517],[-1.852881,53.431589],[-1.853207,53.431589],[-1.853431,53.431583],[-1.853555,53.431571],[-1.853746,53.431476],[-1.854004,53.4313],[-1.854123,53.431174],[-1.854102,53.431099],[-1.854336,53.430997],[-1.854825,53.430868],[-1.855233,53.43078],[-1.85556,53.430733],[-1.855767,53.430691],[-1.855854,53.430654],[-1.855944,53.430545],[-1.856037,53.430365]]]}}