{"type":"Feature","properties":{"id":"462414","COMMUNE":"Neath Port Talbot","PROVINCE":"Bridgend and Neath Port Talbot","COUNTRY":"UK","FIREDATE":"2026-04-24 00:00:00","FINALDATE":"2026-04-24 00:00:00","CLASS":"FireSeason","areaHA_geo":3.152},"geometry":{"type":"Polygon","coordinates":[[[-3.641849,51.64708],[-3.642106,51.647365],[-3.642381,51.647475],[-3.642676,51.64741],[-3.643036,51.647181],[-3.64346,51.646786],[-3.643826,51.646421],[-3.644135,51.646086],[-3.644183,51.645825],[-3.643969,51.645641],[-3.643772,51.645529],[-3.643591,51.645491],[-3.643419,51.645384],[-3.643256,51.645208],[-3.643011,51.645136],[-3.642681,51.645167],[-3.642464,51.645189],[-3.642359,51.645201],[-3.642145,51.645234],[-3.641822,51.645287],[-3.641676,51.64572],[-3.641706,51.646532],[-3.641849,51.64708]]]}}