{"type":"Feature","properties":{"id":"462420","COMMUNE":"Neath Port Talbot","PROVINCE":"Bridgend and Neath Port Talbot","COUNTRY":"UK","FIREDATE":"2026-04-28 00:00:00","CLASS":"FireSeason","areaHA_geo":38.031},"geometry":{"type":"Polygon","coordinates":[[[-3.631831,51.669743],[-3.631842,51.669275],[-3.631769,51.669041],[-3.631611,51.669039],[-3.631447,51.668981],[-3.631279,51.668868],[-3.63114,51.668749],[-3.63103,51.668623],[-3.630901,51.668551],[-3.630752,51.668533],[-3.630358,51.668573],[-3.62972,51.668672],[-3.629238,51.668798],[-3.628912,51.668951],[-3.628652,51.669117],[-3.628459,51.669297],[-3.628305,51.669436],[-3.628192,51.669535],[-3.628032,51.669642],[-3.627824,51.669758],[-3.627622,51.669894],[-3.627426,51.67005],[-3.627218,51.670229],[-3.626998,51.670432],[-3.626888,51.670546],[-3.626889,51.67057],[-3.626861,51.670596],[-3.626805,51.670624],[-3.626651,51.670732],[-3.626397,51.67092],[-3.626173,51.671145],[-3.625977,51.671407],[-3.625855,51.671643],[-3.625809,51.671853],[-3.625812,51.672045],[-3.625865,51.672218],[-3.625931,51.672379],[-3.626011,51.672527],[-3.626073,51.672661],[-3.626116,51.67278],[-3.626086,51.672907],[-3.625982,51.673043],[-3.625927,51.673128],[-3.625921,51.673161],[-3.625898,51.673181],[-3.625858,51.673187],[-3.625715,51.673237],[-3.625471,51.67333],[-3.625149,51.67333],[-3.624751,51.673236],[-3.624468,51.673124],[-3.624301,51.672993],[-3.624019,51.672887],[-3.623621,51.672806],[-3.623273,51.672819],[-3.622975,51.672926],[-3.622676,51.673032],[-3.622376,51.673135],[-3.622225,51.673226],[-3.622221,51.673303],[-3.622167,51.673347],[-3.62206,51.67336],[-3.621887,51.67351],[-3.621649,51.673797],[-3.621411,51.674064],[-3.621172,51.674311],[-3.621096,51.674672],[-3.621183,51.675148],[-3.621323,51.675579],[-3.621517,51.675966],[-3.621659,51.676254],[-3.621749,51.676442],[-3.62179,51.676539],[-3.621782,51.676546],[-3.62179,51.67662],[-3.621814,51.67676],[-3.621917,51.676933],[-3.622099,51.677139],[-3.622218,51.677326],[-3.622275,51.677493],[-3.622294,51.677686],[-3.622273,51.677905],[-3.622158,51.678069],[-3.621947,51.678178],[-3.621823,51.678282],[-3.621784,51.678379],[-3.622042,51.678702],[-3.622596,51.679251],[-3.623328,51.679491],[-3.624238,51.679423],[-3.624772,51.679291],[-3.624931,51.679095],[-3.625138,51.678771],[-3.625394,51.67832],[-3.625788,51.677932],[-3.626319,51.677608],[-3.626669,51.677343],[-3.626838,51.677137],[-3.626868,51.676653],[-3.62676,51.67589],[-3.626612,51.675518],[-3.626425,51.675538],[-3.626369,51.675382],[-3.626445,51.67505],[-3.626496,51.674776],[-3.626524,51.674561],[-3.626824,51.674477],[-3.627397,51.674525],[-3.627822,51.674518],[-3.6281,51.674457],[-3.628278,51.674279],[-3.628358,51.673986],[-3.628378,51.673735],[-3.628341,51.673526],[-3.628366,51.673377],[-3.628454,51.673289],[-3.628558,51.67317],[-3.628677,51.673019],[-3.628947,51.67284],[-3.629367,51.672633],[-3.629659,51.672447],[-3.629823,51.672283],[-3.630071,51.672079],[-3.630404,51.671835],[-3.630755,51.671593],[-3.631123,51.671353],[-3.631501,51.671132],[-3.631888,51.670928],[-3.632201,51.670723],[-3.632442,51.670516],[-3.632466,51.670323],[-3.632273,51.670145],[-3.632089,51.670036],[-3.631913,51.669996],[-3.631831,51.669743]]]}}