{"type":"Feature","properties":{"id":"462417","COMMUNE":"Neath Port Talbot","PROVINCE":"Bridgend and Neath Port Talbot","COUNTRY":"UK","FIREDATE":"2026-04-26 01:34:00","CLASS":"FireSeason","areaHA_geo":28.578},"geometry":{"type":"Polygon","coordinates":[[[-3.64434,51.65741],[-3.644869,51.657334],[-3.645205,51.657209],[-3.645348,51.657035],[-3.645393,51.656845],[-3.645342,51.656638],[-3.645255,51.656431],[-3.645135,51.656224],[-3.645109,51.655764],[-3.645179,51.655051],[-3.645194,51.654459],[-3.645154,51.653987],[-3.644724,51.653635],[-3.643905,51.653404],[-3.642685,51.653081],[-3.641062,51.652667],[-3.63964,51.652474],[-3.638418,51.652504],[-3.637595,51.65254],[-3.63717,51.652583],[-3.636625,51.652661],[-3.635957,51.652775],[-3.635309,51.652837],[-3.634679,51.652847],[-3.634084,51.652935],[-3.633525,51.6531],[-3.633339,51.65351],[-3.633527,51.654164],[-3.633557,51.654922],[-3.633429,51.655784],[-3.633561,51.656217],[-3.633954,51.656221],[-3.634335,51.656133],[-3.634707,51.655955],[-3.635056,51.6558],[-3.635385,51.655669],[-3.635571,51.6556],[-3.635615,51.655595],[-3.635679,51.655766],[-3.635762,51.656112],[-3.635674,51.656371],[-3.635416,51.656544],[-3.635086,51.656746],[-3.634685,51.656979],[-3.634384,51.657085],[-3.634183,51.657066],[-3.633943,51.657073],[-3.633665,51.657106],[-3.633478,51.657152],[-3.633382,51.657214],[-3.633327,51.657281],[-3.633315,51.657353],[-3.633394,51.657404],[-3.633564,51.657434],[-3.633707,51.657432],[-3.633823,51.657397],[-3.633881,51.657379],[-3.633881,51.657379],[-3.633952,51.657442],[-3.634094,51.657568],[-3.634501,51.65758],[-3.635172,51.65748],[-3.635604,51.65733],[-3.635796,51.657129],[-3.635915,51.656916],[-3.635961,51.65669],[-3.636033,51.656511],[-3.63613,51.656378],[-3.636234,51.656188],[-3.636342,51.65594],[-3.636507,51.655651],[-3.636728,51.655319],[-3.63689,51.655097],[-3.636994,51.654985],[-3.637164,51.654901],[-3.6374,51.654844],[-3.637761,51.65482],[-3.638246,51.654827],[-3.638595,51.654839],[-3.638808,51.654857],[-3.639206,51.654974],[-3.63979,51.65519],[-3.640184,51.655311],[-3.640387,51.655337],[-3.64061,51.655332],[-3.640852,51.655297],[-3.641044,51.655228],[-3.641186,51.655126],[-3.641387,51.655031],[-3.641648,51.654943],[-3.641801,51.654954],[-3.641845,51.655062],[-3.641855,51.6553],[-3.641828,51.655666],[-3.641868,51.656021],[-3.641973,51.656364],[-3.642155,51.65666],[-3.642414,51.656907],[-3.642927,51.657135],[-3.643693,51.657344],[-3.64434,51.65741]]]}}