{"type":"Feature","properties":{"id":"462428","COMMUNE":"Rhondda Cynon Taf","PROVINCE":"Central Valleys","COUNTRY":"UK","FIREDATE":"2026-04-28 01:13:00","CLASS":"FireSeason","areaHA_geo":27.623},"geometry":{"type":"Polygon","coordinates":[[[-3.466288,51.637393],[-3.467367,51.637401],[-3.468313,51.637303],[-3.469125,51.637099],[-3.469939,51.637004],[-3.470754,51.63702],[-3.471258,51.636969],[-3.471451,51.636853],[-3.47158,51.636673],[-3.471646,51.63643],[-3.47165,51.63621],[-3.47159,51.636013],[-3.47167,51.635898],[-3.471888,51.635865],[-3.472263,51.635935],[-3.472797,51.636108],[-3.473114,51.636068],[-3.473214,51.635813],[-3.473316,51.635499],[-3.473419,51.635127],[-3.473348,51.634849],[-3.473103,51.634666],[-3.472995,51.634518],[-3.473025,51.634405],[-3.472819,51.634331],[-3.472378,51.634296],[-3.472068,51.634171],[-3.471889,51.633956],[-3.471758,51.633772],[-3.471673,51.633617],[-3.471538,51.633484],[-3.471352,51.633372],[-3.471285,51.633129],[-3.471337,51.632755],[-3.471095,51.63254],[-3.47056,51.632484],[-3.46999,51.632464],[-3.469387,51.63248],[-3.468796,51.632493],[-3.468217,51.632506],[-3.467839,51.632534],[-3.467663,51.632578],[-3.467589,51.632712],[-3.467618,51.632936],[-3.467648,51.633159],[-3.467677,51.633383],[-3.467667,51.633667],[-3.467619,51.634009],[-3.467552,51.634229],[-3.467467,51.634325],[-3.467293,51.634357],[-3.46703,51.634325],[-3.466802,51.634304],[-3.466609,51.634295],[-3.466374,51.634185],[-3.466095,51.633974],[-3.465796,51.633758],[-3.465476,51.633537],[-3.465227,51.633425],[-3.465049,51.633422],[-3.464862,51.633412],[-3.464667,51.633396],[-3.464362,51.633372],[-3.463948,51.633342],[-3.463606,51.633319],[-3.463335,51.633303],[-3.463091,51.633355],[-3.462874,51.633474],[-3.462722,51.633621],[-3.462635,51.633796],[-3.462572,51.63405],[-3.462533,51.634384],[-3.462512,51.634586],[-3.462508,51.634657],[-3.462653,51.634781],[-3.462947,51.634959],[-3.463207,51.635066],[-3.463433,51.635102],[-3.463613,51.635152],[-3.463746,51.635215],[-3.463865,51.635295],[-3.46397,51.635393],[-3.463989,51.635496],[-3.46392,51.635606],[-3.463741,51.635643],[-3.463452,51.635606],[-3.463292,51.635601],[-3.463262,51.635628],[-3.463297,51.635745],[-3.463398,51.635953],[-3.463543,51.63614],[-3.463732,51.636306],[-3.463859,51.636413],[-3.463924,51.63646],[-3.464405,51.63671],[-3.465301,51.637163],[-3.466288,51.637393]]]}}