{"type":"Feature","properties":{"id":"462418","COMMUNE":"Neath Port Talbot","PROVINCE":"Bridgend and Neath Port Talbot","COUNTRY":"UK","FIREDATE":"2026-04-28 00:00:00","FINALDATE":"2026-04-28 00:00:00","CLASS":"FireSeason","areaHA_geo":4.055},"geometry":{"type":"Polygon","coordinates":[[[-3.618312,51.655809],[-3.618929,51.655767],[-3.61962,51.655745],[-3.620385,51.655743],[-3.620843,51.655775],[-3.620994,51.655841],[-3.621291,51.655809],[-3.621735,51.655679],[-3.622067,51.655577],[-3.622285,51.655501],[-3.622401,51.655408],[-3.622412,51.655298],[-3.622433,51.655158],[-3.622462,51.65499],[-3.622576,51.654877],[-3.622775,51.654819],[-3.622929,51.654779],[-3.623038,51.654757],[-3.623139,51.654706],[-3.62323,51.654627],[-3.62328,51.654526],[-3.623288,51.654404],[-3.623218,51.654307],[-3.623071,51.654237],[-3.622916,51.654209],[-3.622754,51.654222],[-3.622665,51.654276],[-3.622649,51.654371],[-3.622552,51.654426],[-3.622375,51.654441],[-3.622257,51.654366],[-3.622196,51.654201],[-3.622136,51.654045],[-3.622076,51.653896],[-3.622006,51.6538],[-3.621927,51.653756],[-3.621822,51.653716],[-3.621689,51.653678],[-3.621578,51.653701],[-3.621487,51.653783],[-3.621376,51.653807],[-3.621245,51.653773],[-3.621175,51.653742],[-3.621167,51.653715],[-3.621117,51.653693],[-3.621026,51.653675],[-3.620888,51.653668],[-3.620703,51.653671],[-3.620553,51.653701],[-3.620439,51.653758],[-3.620368,51.653913],[-3.62034,51.654165],[-3.620309,51.654362],[-3.620276,51.654503],[-3.620305,51.654589],[-3.620395,51.654619],[-3.620492,51.654673],[-3.620596,51.654751],[-3.620632,51.654812],[-3.6206,51.654856],[-3.620403,51.654893],[-3.620039,51.654924],[-3.619795,51.654949],[-3.619671,51.65497],[-3.619592,51.655002],[-3.61956,51.655047],[-3.619549,51.65514],[-3.619557,51.655282],[-3.619549,51.655372],[-3.619525,51.655409],[-3.619425,51.655452],[-3.619248,51.655501],[-3.619058,51.655529],[-3.618854,51.655538],[-3.618657,51.655555],[-3.618469,51.65558],[-3.618282,51.655652],[-3.618096,51.65577],[-3.618312,51.655809]]]}}