{"type":"Feature","properties":{"id":"462768","COMMUNE":"Ceredigion","PROVINCE":"South West Wales","COUNTRY":"UK","FIREDATE":"2026-04-08 13:40:00","CLASS":"FireSeason","areaHA_geo":15.291},"geometry":{"type":"Polygon","coordinates":[[[-4.054724,52.264894],[-4.054871,52.264801],[-4.055009,52.264665],[-4.055138,52.264485],[-4.055145,52.264345],[-4.05503,52.264245],[-4.054853,52.264162],[-4.054614,52.264096],[-4.054419,52.26404],[-4.05427,52.263995],[-4.05406,52.264067],[-4.05379,52.264258],[-4.053532,52.264441],[-4.053288,52.264615],[-4.052955,52.264725],[-4.052533,52.264769],[-4.052191,52.264718],[-4.051926,52.264573],[-4.051657,52.264491],[-4.051381,52.264474],[-4.051155,52.26451],[-4.050977,52.264601],[-4.050806,52.264701],[-4.050644,52.264809],[-4.05044,52.264899],[-4.050194,52.264973],[-4.049977,52.265072],[-4.049789,52.265196],[-4.049744,52.265283],[-4.049844,52.265335],[-4.05005,52.265395],[-4.050362,52.265465],[-4.050521,52.265503],[-4.050526,52.26551],[-4.050527,52.265513],[-4.050524,52.265513],[-4.050487,52.265612],[-4.050416,52.26581],[-4.050218,52.266033],[-4.049893,52.26628],[-4.049757,52.26647],[-4.04981,52.266603],[-4.049847,52.266682],[-4.049868,52.266708],[-4.049898,52.266745],[-4.049937,52.266795],[-4.050107,52.266842],[-4.050407,52.266889],[-4.050649,52.266987],[-4.050831,52.267135],[-4.051031,52.267289],[-4.051247,52.267446],[-4.05147,52.267622],[-4.051698,52.267816],[-4.052033,52.267874],[-4.052474,52.267796],[-4.052793,52.267691],[-4.052989,52.26756],[-4.053127,52.267392],[-4.053206,52.267186],[-4.05337,52.266986],[-4.053619,52.266792],[-4.053782,52.266735],[-4.053859,52.266814],[-4.053933,52.266979],[-4.054003,52.26723],[-4.054119,52.26738],[-4.05428,52.267431],[-4.054444,52.267569],[-4.05461,52.267796],[-4.054724,52.26794],[-4.054785,52.268003],[-4.05489,52.268056],[-4.05504,52.268102],[-4.055213,52.268109],[-4.055411,52.268079],[-4.055649,52.267997],[-4.055927,52.267863],[-4.056082,52.267651],[-4.056114,52.267363],[-4.056374,52.267091],[-4.056862,52.266837],[-4.057283,52.266533],[-4.057637,52.266181],[-4.057771,52.265906],[-4.057687,52.265707],[-4.057527,52.265502],[-4.057293,52.26529],[-4.057093,52.265086],[-4.056927,52.264891],[-4.056739,52.264774],[-4.05653,52.264736],[-4.056308,52.264804],[-4.056073,52.264977],[-4.055832,52.265082],[-4.055585,52.265118],[-4.055169,52.265149],[-4.054587,52.265174],[-4.054372,52.265137],[-4.054527,52.265036],[-4.054616,52.264974],[-4.054639,52.264951],[-4.054724,52.264894]]]}}