{"type":"Feature","properties":{"id":"475959","COMMUNE":"Skye and Lochalsh","PROVINCE":"Lochaber, Skye & Lochalsh, Arran & Cumbrae and Argyll & Bute","COUNTRY":"UK","FIREDATE":"2026-04-30 15:05:00","CLASS":"FireSeason","areaHA_geo":4.315},"geometry":{"type":"Polygon","coordinates":[[[-5.162452,57.284528],[-5.162882,57.284606],[-5.163238,57.284635],[-5.163519,57.284614],[-5.163676,57.284539],[-5.16371,57.28441],[-5.163875,57.284293],[-5.164172,57.284188],[-5.164294,57.284063],[-5.164241,57.283917],[-5.164115,57.283771],[-5.163918,57.283626],[-5.163632,57.283433],[-5.163257,57.283192],[-5.162904,57.28302],[-5.162572,57.282918],[-5.162271,57.282775],[-5.161999,57.282592],[-5.161644,57.28246],[-5.161205,57.282378],[-5.160792,57.282403],[-5.160405,57.282534],[-5.160084,57.282695],[-5.159829,57.282884],[-5.159692,57.283078],[-5.159672,57.283276],[-5.159773,57.283502],[-5.159994,57.283758],[-5.160638,57.284036],[-5.161703,57.284338],[-5.162452,57.284528]]]}}