{"type":"Feature","properties":{"id":"484994","COMMUNE":"Cornwall","PROVINCE":"Cornwall and Isles of Scilly","COUNTRY":"UK","FIREDATE":"2026-04-29 02:38:00","FINALDATE":"2026-04-29 02:38:00","CLASS":"FireSeason","areaHA_geo":3.059},"geometry":{"type":"Polygon","coordinates":[[[-4.430729,50.517441],[-4.431,50.517479],[-4.431207,50.517544],[-4.43135,50.517635],[-4.431477,50.51773],[-4.431587,50.51783],[-4.431711,50.517903],[-4.431847,50.517949],[-4.432015,50.517958],[-4.432214,50.517928],[-4.432393,50.517891],[-4.432552,50.517848],[-4.432636,50.517772],[-4.432645,50.517661],[-4.432646,50.517552],[-4.432641,50.517443],[-4.432566,50.517376],[-4.432421,50.517348],[-4.432323,50.517345],[-4.432272,50.517365],[-4.43221,50.517407],[-4.432136,50.517471],[-4.43201,50.517494],[-4.431832,50.517476],[-4.431704,50.517399],[-4.431626,50.517263],[-4.431572,50.517147],[-4.431542,50.517051],[-4.431464,50.51694],[-4.431339,50.516815],[-4.431171,50.516761],[-4.430961,50.516778],[-4.430788,50.516753],[-4.430651,50.516684],[-4.430611,50.516566],[-4.430667,50.516399],[-4.430629,50.5163],[-4.430496,50.516266],[-4.430358,50.516202],[-4.430213,50.516107],[-4.430127,50.51604],[-4.430101,50.516002],[-4.429921,50.515896],[-4.429586,50.51572],[-4.429333,50.515599],[-4.429162,50.515535],[-4.429028,50.515452],[-4.428932,50.51535],[-4.42884,50.515252],[-4.428754,50.515159],[-4.428662,50.515084],[-4.428565,50.515028],[-4.428479,50.514971],[-4.428404,50.514912],[-4.42838,50.51486],[-4.428409,50.514816],[-4.42847,50.514756],[-4.428561,50.51468],[-4.428675,50.514597],[-4.428813,50.514507],[-4.428927,50.514427],[-4.42902,50.514356],[-4.429069,50.51427],[-4.429073,50.514169],[-4.429038,50.514101],[-4.428962,50.514065],[-4.428885,50.514036],[-4.428806,50.514014],[-4.428755,50.514034],[-4.428731,50.514096],[-4.4287,50.51418],[-4.428661,50.514285],[-4.42861,50.514353],[-4.428548,50.514384],[-4.428459,50.514397],[-4.428343,50.514394],[-4.428249,50.514404],[-4.428177,50.514426],[-4.428116,50.514498],[-4.428068,50.514618],[-4.428028,50.514698],[-4.427997,50.514738],[-4.427987,50.514785],[-4.427996,50.514838],[-4.428024,50.514915],[-4.428069,50.515014],[-4.428116,50.515094],[-4.428164,50.515156],[-4.42819,50.51523],[-4.428196,50.515316],[-4.428185,50.515408],[-4.428158,50.515507],[-4.428136,50.51562],[-4.428117,50.515745],[-4.428105,50.515842],[-4.428097,50.515911],[-4.428125,50.515987],[-4.428187,50.516071],[-4.428313,50.516177],[-4.428505,50.516308],[-4.428669,50.516396],[-4.428805,50.516443],[-4.428937,50.51646],[-4.429062,50.516449],[-4.429173,50.516389],[-4.429269,50.516281],[-4.42936,50.516192],[-4.429445,50.516122],[-4.429553,50.516099],[-4.429683,50.516124],[-4.42976,50.516139],[-4.429783,50.516145],[-4.429817,50.516196],[-4.429861,50.51629],[-4.429804,50.516352],[-4.429648,50.516381],[-4.429609,50.516429],[-4.429688,50.516497],[-4.429798,50.516549],[-4.429938,50.516585],[-4.430034,50.516614],[-4.430083,50.516635],[-4.43023,50.51684],[-4.430473,50.517227],[-4.430729,50.517441]]]}}