{"type":"Feature","properties":{"id":"486393","COMMUNE":"West Devon","PROVINCE":"Devon CC","COUNTRY":"UK","FIREDATE":"2026-05-10 01:37:00","CLASS":"FireSeason","areaHA_geo":2.739},"geometry":{"type":"Polygon","coordinates":[[[-3.993735,50.540846],[-3.993873,50.540789],[-3.99394,50.540726],[-3.993939,50.540656],[-3.993867,50.540579],[-3.993818,50.540514],[-3.993793,50.540462],[-3.993791,50.540423],[-3.993812,50.540396],[-3.993848,50.540371],[-3.993899,50.54035],[-3.993966,50.540331],[-3.994048,50.540314],[-3.994103,50.540282],[-3.994132,50.540232],[-3.994134,50.540166],[-3.994109,50.540083],[-3.994096,50.540017],[-3.994096,50.539968],[-3.994108,50.539936],[-3.994132,50.539921],[-3.994169,50.539906],[-3.994217,50.539891],[-3.994278,50.539876],[-3.994351,50.53986],[-3.994416,50.539828],[-3.994473,50.539778],[-3.994523,50.539711],[-3.994565,50.539626],[-3.99454,50.539535],[-3.994448,50.53944],[-3.99429,50.539338],[-3.994064,50.539231],[-3.993878,50.539153],[-3.993733,50.539103],[-3.993627,50.539083],[-3.993562,50.539091],[-3.993501,50.539089],[-3.993445,50.539078],[-3.993392,50.539056],[-3.993344,50.539026],[-3.993236,50.539042],[-3.993066,50.539106],[-3.992836,50.539217],[-3.992546,50.539375],[-3.992312,50.539513],[-3.992134,50.539629],[-3.992013,50.539726],[-3.991949,50.539801],[-3.991892,50.539877],[-3.991843,50.539953],[-3.991801,50.54003],[-3.991766,50.540108],[-3.991759,50.540187],[-3.991778,50.540268],[-3.991825,50.540349],[-3.991898,50.540432],[-3.991986,50.540505],[-3.992087,50.54057],[-3.992203,50.540624],[-3.992333,50.54067],[-3.992473,50.540718],[-3.992624,50.54077],[-3.992786,50.540825],[-3.992958,50.540884],[-3.993139,50.540915],[-3.993329,50.540919],[-3.993528,50.540896],[-3.993735,50.540846]]]}}