{"type":"Feature","properties":{"id":"491897","COMMUNE":"Aberdeenshire","PROVINCE":"Aberdeen City and Aberdeenshire","COUNTRY":"UK","FIREDATE":"2026-04-14 11:47:00","FINALDATE":"2026-04-14 12:55:00","CLASS":"FireSeason","areaHA_geo":0.263},"geometry":{"type":"Polygon","coordinates":[[[-2.267088,57.018734],[-2.267238,57.018825],[-2.267362,57.018869],[-2.267462,57.018865],[-2.267536,57.018814],[-2.267532,57.018736],[-2.267449,57.018632],[-2.267288,57.0185],[-2.267048,57.018341],[-2.266837,57.018216],[-2.266657,57.018125],[-2.266506,57.018068],[-2.266386,57.018044],[-2.266295,57.018042],[-2.266234,57.018061],[-2.266203,57.018101],[-2.266202,57.018162],[-2.266229,57.018217],[-2.266285,57.018264],[-2.266369,57.018304],[-2.266482,57.018338],[-2.266611,57.018397],[-2.266754,57.018483],[-2.266914,57.018595],[-2.267088,57.018734]]]}}