{"type":"Feature","properties":{"id":"491896","COMMUNE":"Aberdeenshire","PROVINCE":"Aberdeen City and Aberdeenshire","COUNTRY":"UK","FIREDATE":"2026-04-14 11:47:00","FINALDATE":"2026-04-14 12:55:00","CLASS":"FireSeason","areaHA_geo":4.138},"geometry":{"type":"Polygon","coordinates":[[[-2.263725,57.020205],[-2.263836,57.020253],[-2.263947,57.02027],[-2.264057,57.020257],[-2.264166,57.020215],[-2.26426,57.020202],[-2.264338,57.020218],[-2.2644,57.020263],[-2.264446,57.020338],[-2.264461,57.020395],[-2.264445,57.020436],[-2.264397,57.020461],[-2.264319,57.020468],[-2.264285,57.020495],[-2.264295,57.020543],[-2.26435,57.02061],[-2.264448,57.020697],[-2.264536,57.02076],[-2.264613,57.020798],[-2.264679,57.020811],[-2.264735,57.0208],[-2.264876,57.020798],[-2.265104,57.020804],[-2.265418,57.020819],[-2.265818,57.020843],[-2.266124,57.020842],[-2.266336,57.020818],[-2.266454,57.020769],[-2.266479,57.020697],[-2.26645,57.020624],[-2.266366,57.02055],[-2.266229,57.020475],[-2.266037,57.020399],[-2.265885,57.020332],[-2.265771,57.020272],[-2.265697,57.020221],[-2.265661,57.020177],[-2.265614,57.020141],[-2.265556,57.020111],[-2.265487,57.020089],[-2.265406,57.020073],[-2.265305,57.02007],[-2.265182,57.02008],[-2.265037,57.020103],[-2.264872,57.020139],[-2.264741,57.020155],[-2.264646,57.020149],[-2.264585,57.020123],[-2.264558,57.020075],[-2.264556,57.020019],[-2.264578,57.019954],[-2.264623,57.019881],[-2.264693,57.019798],[-2.264811,57.019737],[-2.264978,57.019698],[-2.265194,57.01968],[-2.265459,57.019685],[-2.265648,57.019671],[-2.265761,57.01964],[-2.265799,57.019591],[-2.265761,57.019525],[-2.265774,57.019477],[-2.26584,57.019449],[-2.265958,57.01944],[-2.266128,57.01945],[-2.266233,57.019438],[-2.266272,57.019402],[-2.266246,57.019343],[-2.266155,57.019261],[-2.266021,57.019174],[-2.265846,57.019082],[-2.265629,57.018986],[-2.26537,57.018884],[-2.265166,57.018795],[-2.265017,57.018717],[-2.264923,57.01865],[-2.264883,57.018595],[-2.264816,57.018537],[-2.26472,57.018476],[-2.264597,57.018412],[-2.264446,57.018344],[-2.264277,57.018289],[-2.264091,57.018245],[-2.263887,57.018213],[-2.263666,57.018193],[-2.263547,57.018209],[-2.263532,57.018262],[-2.263621,57.018351],[-2.263812,57.018476],[-2.263958,57.018589],[-2.264059,57.018691],[-2.264114,57.018781],[-2.264123,57.018859],[-2.264089,57.018918],[-2.264011,57.018959],[-2.26389,57.018982],[-2.263725,57.018986],[-2.263558,57.018964],[-2.263389,57.018917],[-2.263219,57.018845],[-2.263047,57.018747],[-2.262892,57.018684],[-2.262754,57.018656],[-2.262633,57.018663],[-2.262529,57.018705],[-2.262448,57.018717],[-2.262391,57.018699],[-2.262358,57.018651],[-2.262348,57.018573],[-2.262372,57.0185],[-2.262431,57.018432],[-2.262522,57.018368],[-2.262648,57.018309],[-2.26272,57.018248],[-2.262736,57.018185],[-2.262699,57.01812],[-2.262607,57.018053],[-2.262515,57.018006],[-2.262423,57.01798],[-2.262331,57.017974],[-2.262239,57.017988],[-2.262179,57.017985],[-2.262151,57.017964],[-2.262154,57.017926],[-2.26219,57.01787],[-2.262196,57.017819],[-2.262173,57.017773],[-2.26212,57.017732],[-2.262038,57.017696],[-2.261908,57.017696],[-2.261729,57.017731],[-2.261502,57.017803],[-2.261226,57.017911],[-2.26103,57.018012],[-2.260916,57.018104],[-2.260882,57.018189],[-2.260929,57.018267],[-2.260984,57.018325],[-2.261047,57.018362],[-2.261119,57.018381],[-2.261199,57.018379],[-2.261342,57.018442],[-2.261548,57.01857],[-2.261817,57.018764],[-2.262149,57.019022],[-2.262445,57.019198],[-2.262704,57.019292],[-2.262927,57.019304],[-2.263113,57.019234],[-2.263272,57.019209],[-2.263402,57.01923],[-2.263505,57.019297],[-2.263579,57.01941],[-2.263619,57.019505],[-2.263622,57.01958],[-2.26359,57.019637],[-2.263522,57.019676],[-2.263473,57.019722],[-2.263442,57.019776],[-2.26343,57.019838],[-2.263437,57.019908],[-2.26347,57.019979],[-2.263529,57.020053],[-2.263614,57.020128],[-2.263725,57.020205]]]}}