{"type":"Feature","properties":{"id":"491898","COMMUNE":"Aberdeenshire","PROVINCE":"Aberdeen City and Aberdeenshire","COUNTRY":"UK","FIREDATE":"2026-04-14 11:47:00","FINALDATE":"2026-04-14 12:55:00","CLASS":"FireSeason","areaHA_geo":0.726},"geometry":{"type":"Polygon","coordinates":[[[-2.266113,57.017779],[-2.266254,57.017716],[-2.266317,57.017649],[-2.266301,57.017579],[-2.266209,57.017505],[-2.266038,57.017428],[-2.265888,57.017366],[-2.265757,57.01732],[-2.265646,57.017289],[-2.265555,57.017274],[-2.265482,57.017248],[-2.265426,57.017209],[-2.265388,57.017158],[-2.265368,57.017096],[-2.265313,57.017039],[-2.265223,57.016988],[-2.2651,57.016941],[-2.264941,57.016901],[-2.264813,57.016855],[-2.264716,57.016804],[-2.264649,57.016749],[-2.264613,57.016688],[-2.264572,57.016641],[-2.264527,57.016609],[-2.264477,57.016591],[-2.264422,57.016587],[-2.264369,57.01657],[-2.264319,57.01654],[-2.264271,57.016496],[-2.264225,57.016439],[-2.264193,57.016386],[-2.264174,57.016336],[-2.264169,57.016291],[-2.264176,57.016249],[-2.264154,57.016209],[-2.264101,57.01617],[-2.264017,57.016133],[-2.263903,57.016097],[-2.263807,57.016053],[-2.263729,57.016002],[-2.263668,57.015943],[-2.263624,57.015877],[-2.263561,57.01582],[-2.263479,57.015773],[-2.263376,57.015734],[-2.263253,57.015705],[-2.263154,57.015693],[-2.263078,57.015698],[-2.263025,57.015722],[-2.262996,57.015763],[-2.263003,57.015799],[-2.263045,57.015832],[-2.263125,57.01586],[-2.26324,57.015884],[-2.263326,57.015917],[-2.263383,57.015959],[-2.26341,57.016009],[-2.263408,57.016067],[-2.26344,57.016122],[-2.263508,57.016173],[-2.263611,57.016219],[-2.263748,57.016262],[-2.263872,57.016323],[-2.263981,57.016404],[-2.264077,57.016503],[-2.264159,57.016621],[-2.264252,57.016734],[-2.264358,57.016843],[-2.264475,57.016946],[-2.264605,57.017045],[-2.264729,57.017135],[-2.26485,57.017216],[-2.264966,57.017288],[-2.265078,57.01735],[-2.265175,57.017405],[-2.265258,57.017451],[-2.265325,57.017489],[-2.265378,57.017519],[-2.265446,57.017561],[-2.265528,57.017615],[-2.265624,57.01768],[-2.265736,57.017757],[-2.265854,57.0178],[-2.26598,57.017807],[-2.266113,57.017779]]]}}