{"type":"Feature","properties":{"id":"491903","COMMUNE":"Aberdeenshire","PROVINCE":"Aberdeen City and Aberdeenshire","COUNTRY":"UK","FIREDATE":"2026-03-28 13:16:00","FINALDATE":"2026-03-31 11:11:00","CLASS":"FireSeason","areaHA_geo":3.37},"geometry":{"type":"Polygon","coordinates":[[[-2.330372,56.999836],[-2.330459,56.999907],[-2.330554,56.999958],[-2.330658,56.99999],[-2.330769,57.000002],[-2.330877,56.999995],[-2.330982,56.999968],[-2.331084,56.99992],[-2.331183,56.999852],[-2.331287,56.999804],[-2.331395,56.999774],[-2.331507,56.999763],[-2.331624,56.999772],[-2.331746,56.999774],[-2.331873,56.999769],[-2.332005,56.999759],[-2.332143,56.999742],[-2.332249,56.999714],[-2.332326,56.999676],[-2.332372,56.999627],[-2.332388,56.999567],[-2.332394,56.999509],[-2.33239,56.999453],[-2.332375,56.999399],[-2.332351,56.999347],[-2.332366,56.999306],[-2.332421,56.999278],[-2.332516,56.999261],[-2.332649,56.999256],[-2.33277,56.999253],[-2.332877,56.999253],[-2.33297,56.999255],[-2.33305,56.999259],[-2.333128,56.999248],[-2.333205,56.999221],[-2.333281,56.999179],[-2.333354,56.999121],[-2.333425,56.999082],[-2.333494,56.999062],[-2.333559,56.999061],[-2.333622,56.999078],[-2.333741,56.999091],[-2.333915,56.9991],[-2.334145,56.999104],[-2.33443,56.999104],[-2.334673,56.999106],[-2.334874,56.999108],[-2.335032,56.999111],[-2.335148,56.999116],[-2.335231,56.999104],[-2.335282,56.999076],[-2.335302,56.999031],[-2.335289,56.99897],[-2.334977,56.998912],[-2.334366,56.998855],[-2.333455,56.998801],[-2.332246,56.998748],[-2.331289,56.998713],[-2.330583,56.998694],[-2.33013,56.998693],[-2.329928,56.998708],[-2.329773,56.998687],[-2.329664,56.998629],[-2.329603,56.998535],[-2.329588,56.998404],[-2.32955,56.998306],[-2.329489,56.998239],[-2.329405,56.998206],[-2.329297,56.998204],[-2.329215,56.998215],[-2.329159,56.998238],[-2.329127,56.998273],[-2.329121,56.99832],[-2.329094,56.998366],[-2.329044,56.998409],[-2.328972,56.998451],[-2.328878,56.998491],[-2.328803,56.998529],[-2.328748,56.998566],[-2.328711,56.9986],[-2.328693,56.998633],[-2.328648,56.998653],[-2.328575,56.99866],[-2.328475,56.998654],[-2.328347,56.998635],[-2.328288,56.99866],[-2.328297,56.998729],[-2.328373,56.998842],[-2.328518,56.998999],[-2.328687,56.999143],[-2.328879,56.999272],[-2.329096,56.999388],[-2.329336,56.999489],[-2.329546,56.999564],[-2.329726,56.999611],[-2.329875,56.999631],[-2.329994,56.999623],[-2.330103,56.99964],[-2.330203,56.999681],[-2.330292,56.999747],[-2.330372,56.999836]]]}}