{"type":"Feature","properties":{"id":"491902","COMMUNE":"Aberdeenshire","PROVINCE":"Aberdeen City and Aberdeenshire","COUNTRY":"UK","FIREDATE":"2026-03-28 13:16:00","FINALDATE":"2026-03-31 13:10:00","CLASS":"FireSeason","areaHA_geo":4.881},"geometry":{"type":"Polygon","coordinates":[[[-2.321599,57.003198],[-2.321745,57.00299],[-2.321791,57.002812],[-2.321739,57.002663],[-2.321587,57.002544],[-2.321336,57.002455],[-2.321074,57.002335],[-2.320799,57.002185],[-2.320513,57.002003],[-2.320214,57.00179],[-2.319943,57.001634],[-2.3197,57.001535],[-2.319484,57.001492],[-2.319296,57.001506],[-2.319144,57.00156],[-2.319029,57.001655],[-2.318951,57.00179],[-2.318908,57.001965],[-2.318864,57.002121],[-2.318817,57.00226],[-2.318767,57.00238],[-2.318715,57.002483],[-2.318635,57.002574],[-2.318526,57.002654],[-2.318388,57.002724],[-2.318222,57.002782],[-2.318062,57.002819],[-2.31791,57.002833],[-2.317765,57.002825],[-2.317627,57.002796],[-2.31753,57.002751],[-2.317475,57.002693],[-2.317461,57.002619],[-2.317489,57.002531],[-2.317483,57.00244],[-2.317441,57.002347],[-2.317365,57.002251],[-2.317254,57.002153],[-2.317143,57.002061],[-2.317033,57.001976],[-2.316924,57.001898],[-2.316815,57.001827],[-2.316683,57.001786],[-2.31653,57.001775],[-2.316354,57.001795],[-2.316157,57.001845],[-2.316005,57.001904],[-2.315899,57.001972],[-2.315839,57.00205],[-2.315825,57.002137],[-2.315865,57.002215],[-2.315959,57.002283],[-2.316107,57.002343],[-2.316309,57.002394],[-2.31646,57.002451],[-2.316559,57.002513],[-2.316607,57.002582],[-2.316603,57.002656],[-2.316618,57.002741],[-2.316653,57.002837],[-2.316708,57.002943],[-2.316783,57.003061],[-2.31686,57.003154],[-2.31694,57.003224],[-2.317023,57.003271],[-2.317109,57.003294],[-2.317193,57.003308],[-2.317273,57.003314],[-2.317351,57.003312],[-2.317426,57.003301],[-2.317515,57.003296],[-2.317619,57.003298],[-2.317738,57.003306],[-2.317871,57.003321],[-2.31798,57.003327],[-2.318065,57.003325],[-2.318126,57.003314],[-2.318162,57.003295],[-2.318208,57.003276],[-2.318262,57.003257],[-2.318326,57.003239],[-2.318398,57.00322],[-2.318475,57.003205],[-2.318557,57.003193],[-2.318644,57.003185],[-2.318735,57.00318],[-2.318829,57.003162],[-2.318925,57.003129],[-2.319024,57.003083],[-2.319126,57.003023],[-2.319217,57.003013],[-2.319298,57.003054],[-2.319369,57.003145],[-2.319431,57.003287],[-2.319503,57.003404],[-2.319587,57.003495],[-2.319681,57.003561],[-2.319788,57.003601],[-2.319884,57.003677],[-2.31997,57.003787],[-2.320047,57.003933],[-2.320113,57.004113],[-2.320181,57.004246],[-2.320249,57.004333],[-2.320317,57.004373],[-2.320386,57.004367],[-2.320439,57.004293],[-2.320474,57.004152],[-2.320493,57.003943],[-2.320494,57.003667],[-2.320522,57.00348],[-2.320576,57.003384],[-2.320656,57.003377],[-2.320762,57.00346],[-2.320842,57.003551],[-2.320895,57.003649],[-2.320923,57.003754],[-2.320924,57.003867],[-2.320958,57.003948],[-2.321025,57.003998],[-2.321124,57.004017],[-2.321255,57.004004],[-2.321368,57.003994],[-2.321461,57.003985],[-2.321536,57.003978],[-2.321591,57.003973],[-2.321654,57.003975],[-2.321726,57.003986],[-2.321805,57.004005],[-2.321892,57.004031],[-2.321959,57.004027],[-2.322004,57.003992],[-2.322029,57.003925],[-2.322032,57.003828],[-2.321994,57.003744],[-2.321914,57.003674],[-2.321791,57.003617],[-2.321627,57.003575],[-2.321541,57.00349],[-2.321531,57.003365],[-2.321599,57.003198]]]}}