{"type":"Feature","properties":{"id":"491901","COMMUNE":"Aberdeenshire","PROVINCE":"Aberdeen City and Aberdeenshire","COUNTRY":"UK","FIREDATE":"2026-03-31 11:10:00","FINALDATE":"2026-03-31 13:10:00","CLASS":"FireSeason","areaHA_geo":14.303},"geometry":{"type":"Polygon","coordinates":[[[-2.305656,57.003346],[-2.305835,57.00331],[-2.305987,57.003241],[-2.306113,57.00314],[-2.306212,57.003006],[-2.306351,57.002904],[-2.306532,57.002835],[-2.306753,57.002797],[-2.307015,57.002792],[-2.30722,57.002763],[-2.307367,57.002712],[-2.307457,57.002639],[-2.30749,57.002542],[-2.307511,57.002445],[-2.307522,57.002347],[-2.307521,57.002248],[-2.30751,57.002148],[-2.307473,57.00208],[-2.307412,57.002045],[-2.307325,57.002043],[-2.307214,57.002073],[-2.307126,57.002084],[-2.307063,57.002077],[-2.307024,57.00205],[-2.307009,57.002005],[-2.30697,57.001917],[-2.306906,57.001787],[-2.306817,57.001615],[-2.306703,57.0014],[-2.306687,57.00121],[-2.306768,57.001045],[-2.306946,57.000905],[-2.307222,57.000789],[-2.307445,57.000669],[-2.307614,57.000544],[-2.307731,57.000415],[-2.307793,57.00028],[-2.307877,57.000183],[-2.307982,57.000122],[-2.308108,57.000099],[-2.308255,57.000112],[-2.308423,57.000112],[-2.308611,57.000098],[-2.30882,57.00007],[-2.309049,57.000029],[-2.309189,56.99999],[-2.309242,56.999954],[-2.309206,56.999921],[-2.309081,56.99989],[-2.30897,56.999851],[-2.308873,56.999804],[-2.308789,56.999749],[-2.308718,56.999685],[-2.308708,56.999623],[-2.308759,56.999562],[-2.308871,56.999502],[-2.309044,56.999442],[-2.309129,56.999379],[-2.309124,56.999311],[-2.309031,56.99924],[-2.308849,56.999164],[-2.308763,56.999093],[-2.308774,56.999028],[-2.308881,56.998968],[-2.309084,56.998914],[-2.309243,56.998897],[-2.309357,56.998917],[-2.309426,56.998975],[-2.30945,56.99907],[-2.309516,56.999119],[-2.309624,56.999122],[-2.309774,56.99908],[-2.309966,56.998992],[-2.310146,56.998867],[-2.310314,56.998705],[-2.31047,56.998506],[-2.310614,56.998271],[-2.31071,56.998076],[-2.310759,56.997922],[-2.310761,56.997808],[-2.310715,56.997735],[-2.310647,56.997684],[-2.310555,56.997656],[-2.310441,56.99765],[-2.310304,56.997667],[-2.310192,56.997721],[-2.310104,56.997813],[-2.310042,56.997943],[-2.310004,56.998109],[-2.309941,56.998226],[-2.309852,56.998293],[-2.309738,56.99831],[-2.309598,56.998276],[-2.30951,56.998229],[-2.309472,56.998169],[-2.309485,56.998094],[-2.309549,56.998007],[-2.309531,56.997903],[-2.309431,56.997785],[-2.309249,56.99765],[-2.308986,56.9975],[-2.308733,56.997403],[-2.308489,56.997358],[-2.308256,56.997365],[-2.308033,56.997425],[-2.307878,56.997489],[-2.307789,56.997556],[-2.307768,56.997626],[-2.307813,56.997699],[-2.307807,56.997745],[-2.307749,56.997764],[-2.307639,56.997756],[-2.307478,56.997721],[-2.307255,56.997694],[-2.30697,56.997674],[-2.306624,56.997662],[-2.306215,56.997658],[-2.305887,56.997669],[-2.305639,56.997694],[-2.30547,56.997735],[-2.305381,56.99779],[-2.305399,56.997867],[-2.305525,56.997966],[-2.305757,56.998086],[-2.306097,56.998229],[-2.306369,56.998356],[-2.306573,56.998467],[-2.306709,56.998562],[-2.306778,56.998641],[-2.30687,56.998719],[-2.306984,56.998795],[-2.307122,56.998871],[-2.307282,56.998945],[-2.30734,56.999009],[-2.307298,56.999064],[-2.307154,56.999109],[-2.306908,56.999144],[-2.306716,56.999161],[-2.306577,56.99916],[-2.30649,56.999142],[-2.306457,56.999107],[-2.306404,56.99907],[-2.306331,56.999032],[-2.306238,56.998993],[-2.306125,56.998953],[-2.305952,56.998928],[-2.30572,56.998917],[-2.305429,56.99892],[-2.305078,56.998938],[-2.304788,56.998978],[-2.304559,56.999041],[-2.30439,56.999126],[-2.304283,56.999233],[-2.304166,56.999343],[-2.304039,56.999456],[-2.303902,56.999572],[-2.303756,56.999691],[-2.303607,56.999781],[-2.303456,56.999842],[-2.303302,56.999874],[-2.303146,56.999877],[-2.302984,56.999867],[-2.302816,56.999844],[-2.302642,56.999808],[-2.302462,56.999759],[-2.302384,56.999788],[-2.302408,56.999895],[-2.302535,57.000079],[-2.302764,57.000341],[-2.302994,57.00059],[-2.303225,57.000824],[-2.303456,57.001045],[-2.303689,57.001253],[-2.30383,57.001421],[-2.30388,57.00155],[-2.303838,57.001641],[-2.303705,57.001692],[-2.303656,57.001747],[-2.303689,57.001806],[-2.303806,57.001869],[-2.304007,57.001936],[-2.304229,57.002042],[-2.304473,57.002188],[-2.30474,57.002374],[-2.305028,57.002599],[-2.305215,57.002781],[-2.305299,57.002918],[-2.305282,57.003012],[-2.305163,57.003062],[-2.305084,57.003114],[-2.305044,57.003166],[-2.305044,57.00322],[-2.305083,57.003274],[-2.305164,57.003314],[-2.305287,57.003339],[-2.305451,57.00335],[-2.305656,57.003346]]]}}