{"type":"Feature","properties":{"id":"534930","COMMUNE":"East Lothian","PROVINCE":"East Lothian and Midlothian","COUNTRY":"UK","FIREDATE":"2026-05-27 13:25:00","FINALDATE":"2026-05-27 13:25:00","CLASS":"FireSeason","areaHA_geo":6.83},"geometry":{"type":"Polygon","coordinates":[[[-2.626328,55.91591],[-2.626513,55.915977],[-2.626728,55.916008],[-2.626972,55.916002],[-2.627245,55.915959],[-2.627546,55.91588],[-2.627821,55.915767],[-2.628068,55.91562],[-2.628287,55.915439],[-2.62848,55.915225],[-2.628631,55.914985],[-2.628741,55.91472],[-2.628811,55.91443],[-2.628839,55.914116],[-2.628914,55.913859],[-2.629035,55.913661],[-2.629202,55.91352],[-2.629415,55.913438],[-2.62964,55.913324],[-2.629877,55.913178],[-2.630124,55.913],[-2.630384,55.912791],[-2.630558,55.912613],[-2.630647,55.912467],[-2.63065,55.912352],[-2.630568,55.912268],[-2.630441,55.912186],[-2.630267,55.912106],[-2.630048,55.912027],[-2.629782,55.911949],[-2.629574,55.911904],[-2.629422,55.911892],[-2.629328,55.911912],[-2.62929,55.911964],[-2.62923,55.912015],[-2.629148,55.912063],[-2.629043,55.912108],[-2.628915,55.912152],[-2.628798,55.912171],[-2.628693,55.912166],[-2.628599,55.912137],[-2.628516,55.912085],[-2.628481,55.912036],[-2.628494,55.911992],[-2.628555,55.911952],[-2.628664,55.911917],[-2.628719,55.91186],[-2.62872,55.91178],[-2.628668,55.911678],[-2.628562,55.911554],[-2.628412,55.911479],[-2.628218,55.911452],[-2.627979,55.911475],[-2.627697,55.911546],[-2.627451,55.911621],[-2.627242,55.9117],[-2.627069,55.911782],[-2.626934,55.911869],[-2.626838,55.911994],[-2.626781,55.912155],[-2.626764,55.912354],[-2.626787,55.91259],[-2.626822,55.912776],[-2.626872,55.912912],[-2.626935,55.912997],[-2.627012,55.913032],[-2.627062,55.913085],[-2.627086,55.913156],[-2.627082,55.913246],[-2.627051,55.913353],[-2.627044,55.913472],[-2.62706,55.913605],[-2.627099,55.913751],[-2.627162,55.91391],[-2.627195,55.914081],[-2.6272,55.914264],[-2.627177,55.914459],[-2.627124,55.914666],[-2.627063,55.914849],[-2.626995,55.915009],[-2.626919,55.915145],[-2.626836,55.915257],[-2.626741,55.915352],[-2.626636,55.91543],[-2.626519,55.91549],[-2.626391,55.915534],[-2.626286,55.915579],[-2.626203,55.915627],[-2.626143,55.915678],[-2.626106,55.91573],[-2.626124,55.915787],[-2.626198,55.915846],[-2.626328,55.91591]]]}}