{"type":"Feature","properties":{"id":"534926","COMMUNE":"Mid and East Antrim","PROVINCE":"Mid and East Antrim","COUNTRY":"UK","FIREDATE":"2026-05-27 12:02:00","FINALDATE":"2026-05-28 03:32:00","CLASS":"FireSeason","areaHA_geo":0.978},"geometry":{"type":"Polygon","coordinates":[[[-6.458483,54.789582],[-6.458577,54.789587],[-6.458669,54.789603],[-6.458758,54.789629],[-6.458846,54.789667],[-6.458932,54.789716],[-6.459022,54.78975],[-6.459117,54.789768],[-6.459217,54.789772],[-6.459322,54.78976],[-6.459448,54.78974],[-6.459595,54.78971],[-6.459764,54.789671],[-6.459954,54.789623],[-6.460075,54.789577],[-6.460127,54.789532],[-6.460109,54.789489],[-6.460022,54.789448],[-6.459939,54.789397],[-6.459859,54.789336],[-6.459783,54.789266],[-6.45971,54.789185],[-6.459654,54.789109],[-6.459613,54.789038],[-6.459589,54.788971],[-6.459581,54.78891],[-6.459551,54.788852],[-6.459499,54.788799],[-6.459424,54.78875],[-6.459327,54.788705],[-6.459241,54.788671],[-6.459168,54.788647],[-6.459107,54.788633],[-6.459057,54.78863],[-6.45901,54.788614],[-6.458966,54.788586],[-6.458924,54.788546],[-6.458885,54.788493],[-6.458848,54.788456],[-6.458813,54.788435],[-6.458779,54.788428],[-6.458748,54.788438],[-6.458713,54.788454],[-6.458675,54.788476],[-6.458632,54.788506],[-6.458586,54.788542],[-6.458553,54.788601],[-6.458534,54.788681],[-6.458528,54.788784],[-6.458535,54.788908],[-6.458528,54.789031],[-6.458506,54.789154],[-6.45847,54.789275],[-6.458419,54.789394],[-6.458404,54.789486],[-6.458425,54.789548],[-6.458483,54.789582]]]}}