{"type":"Feature","properties":{"id":"549569","COMMUNE":"Wiltshire","PROVINCE":"Wiltshire CC","COUNTRY":"UK","FIREDATE":"2026-06-22 00:00:00","FINALDATE":"2026-06-22 00:00:00","CLASS":"FireSeason","areaHA_geo":23.226},"geometry":{"type":"Polygon","coordinates":[[[-1.923287,51.28609],[-1.923338,51.286022],[-1.923464,51.286007],[-1.92354,51.285959],[-1.923567,51.285877],[-1.923836,51.285794],[-1.924348,51.285711],[-1.924733,51.285618],[-1.924991,51.285516],[-1.925126,51.28543],[-1.925138,51.285361],[-1.92511,51.285301],[-1.925043,51.285251],[-1.924901,51.285173],[-1.924685,51.285067],[-1.924568,51.284954],[-1.924548,51.284835],[-1.924522,51.284699],[-1.924488,51.284548],[-1.924354,51.284372],[-1.92412,51.284173],[-1.923879,51.283971],[-1.923631,51.283765],[-1.923516,51.283614],[-1.923533,51.283517],[-1.923591,51.283459],[-1.923689,51.28344],[-1.923735,51.283393],[-1.92373,51.283317],[-1.923759,51.283249],[-1.923822,51.283188],[-1.923959,51.283149],[-1.924171,51.283132],[-1.924393,51.283062],[-1.924627,51.282939],[-1.924776,51.282836],[-1.924841,51.282753],[-1.924913,51.282604],[-1.924993,51.282389],[-1.925024,51.282217],[-1.925004,51.282089],[-1.924981,51.28193],[-1.924952,51.28174],[-1.924929,51.281625],[-1.924912,51.281587],[-1.924824,51.281513],[-1.924666,51.281403],[-1.924509,51.281284],[-1.924353,51.281157],[-1.924122,51.2811],[-1.923817,51.281113],[-1.923571,51.281136],[-1.923385,51.281169],[-1.923263,51.281249],[-1.923202,51.281377],[-1.923121,51.281493],[-1.92302,51.281598],[-1.922865,51.281692],[-1.922657,51.281777],[-1.922424,51.28185],[-1.922167,51.281912],[-1.921895,51.282055],[-1.921608,51.282278],[-1.921346,51.282525],[-1.921108,51.282797],[-1.920761,51.282985],[-1.920304,51.283091],[-1.920063,51.283124],[-1.92004,51.283085],[-1.919976,51.283071],[-1.919872,51.283081],[-1.919785,51.283071],[-1.919716,51.28304],[-1.919336,51.283108],[-1.918646,51.283275],[-1.917997,51.28348],[-1.917388,51.283724],[-1.916908,51.283902],[-1.916555,51.284015],[-1.916284,51.284148],[-1.916095,51.284301],[-1.916077,51.284465],[-1.91623,51.28464],[-1.916368,51.284932],[-1.91649,51.285339],[-1.916705,51.285493],[-1.917012,51.285393],[-1.917171,51.285349],[-1.917184,51.285361],[-1.917249,51.285397],[-1.917368,51.285456],[-1.917568,51.285504],[-1.91785,51.285539],[-1.918046,51.285604],[-1.918156,51.285699],[-1.9183,51.28581],[-1.91848,51.28594],[-1.918657,51.286048],[-1.918831,51.286136],[-1.918956,51.286185],[-1.91903,51.286195],[-1.919067,51.286209],[-1.919066,51.286226],[-1.919039,51.286292],[-1.918986,51.286408],[-1.918837,51.286494],[-1.91859,51.286549],[-1.918413,51.28666],[-1.918306,51.286827],[-1.918324,51.286938],[-1.918469,51.286991],[-1.918607,51.287041],[-1.918739,51.287086],[-1.918896,51.28714],[-1.91908,51.287202],[-1.919339,51.287146],[-1.919674,51.286971],[-1.919967,51.286853],[-1.920217,51.286792],[-1.920473,51.286773],[-1.920736,51.286798],[-1.921033,51.286866],[-1.921364,51.286975],[-1.921532,51.287028],[-1.921536,51.287024],[-1.921694,51.286939],[-1.922005,51.286773],[-1.922253,51.286661],[-1.922436,51.286603],[-1.922551,51.286565],[-1.922599,51.286548],[-1.922798,51.286472],[-1.923149,51.286338],[-1.923312,51.28621],[-1.923287,51.28609]]]}}