{"type":"Feature","properties":{"id":"549570","COMMUNE":"Wiltshire","PROVINCE":"Wiltshire CC","COUNTRY":"UK","FIREDATE":"2026-06-22 00:00:00","FINALDATE":"2026-06-22 00:00:00","CLASS":"FireSeason","areaHA_geo":3.214},"geometry":{"type":"Polygon","coordinates":[[[-1.923539,51.289556],[-1.923761,51.289545],[-1.923941,51.289489],[-1.924081,51.289386],[-1.924176,51.289298],[-1.924228,51.289225],[-1.924296,51.289206],[-1.924382,51.289241],[-1.924481,51.289323],[-1.924591,51.289452],[-1.924748,51.289523],[-1.92495,51.289538],[-1.925119,51.289435],[-1.925253,51.289213],[-1.925362,51.289104],[-1.925446,51.289107],[-1.92558,51.28912],[-1.925765,51.28914],[-1.925978,51.289062],[-1.92622,51.288885],[-1.92632,51.288705],[-1.926278,51.288522],[-1.926203,51.288369],[-1.926095,51.288249],[-1.925895,51.288209],[-1.925605,51.288251],[-1.9254,51.288252],[-1.925281,51.288212],[-1.92515,51.288154],[-1.925008,51.288077],[-1.924824,51.28802],[-1.924596,51.287983],[-1.92438,51.287903],[-1.924175,51.287781],[-1.92396,51.287693],[-1.923734,51.28764],[-1.923624,51.287684],[-1.923629,51.287823],[-1.923588,51.287925],[-1.923503,51.28799],[-1.923425,51.288034],[-1.923354,51.288057],[-1.923296,51.288079],[-1.92325,51.2881],[-1.923173,51.288138],[-1.923066,51.288193],[-1.92297,51.288255],[-1.922886,51.288324],[-1.922859,51.288414],[-1.922888,51.288527],[-1.922898,51.288602],[-1.922889,51.288639],[-1.922936,51.28872],[-1.923039,51.288846],[-1.923098,51.288936],[-1.923112,51.28899],[-1.923124,51.289037],[-1.923135,51.289076],[-1.923212,51.289212],[-1.923357,51.289445],[-1.923539,51.289556]]]}}