{"type":"Feature","properties":{"id":"549573","COMMUNE":"Wiltshire","PROVINCE":"Wiltshire CC","COUNTRY":"UK","FIREDATE":"2026-06-22 00:00:00","CLASS":"FireSeason","areaHA_geo":11.703},"geometry":{"type":"Polygon","coordinates":[[[-1.870369,51.272503],[-1.870405,51.272497],[-1.870435,51.272493],[-1.870458,51.272492],[-1.870474,51.272493],[-1.870493,51.272493],[-1.870517,51.27249],[-1.870543,51.272485],[-1.870574,51.272479],[-1.870611,51.272475],[-1.870655,51.272473],[-1.870705,51.272474],[-1.870761,51.272478],[-1.870818,51.272472],[-1.870876,51.272458],[-1.870934,51.272434],[-1.870993,51.272402],[-1.871041,51.272362],[-1.871079,51.272316],[-1.871106,51.272262],[-1.871122,51.272201],[-1.87114,51.272146],[-1.87116,51.272097],[-1.871182,51.272053],[-1.871205,51.272015],[-1.871223,51.271986],[-1.871235,51.271966],[-1.871242,51.271955],[-1.871243,51.271954],[-1.871249,51.271948],[-1.871261,51.271939],[-1.871279,51.271927],[-1.871302,51.27191],[-1.871341,51.271898],[-1.871396,51.271889],[-1.871467,51.271884],[-1.871553,51.271883],[-1.871642,51.27188],[-1.871733,51.271877],[-1.871826,51.271871],[-1.871921,51.271865],[-1.872004,51.271874],[-1.872074,51.271901],[-1.872132,51.271943],[-1.872177,51.272002],[-1.872218,51.272048],[-1.872254,51.272082],[-1.872286,51.272103],[-1.872313,51.272111],[-1.872346,51.272119],[-1.872385,51.272126],[-1.872431,51.272134],[-1.872482,51.272141],[-1.872526,51.272153],[-1.872563,51.27217],[-1.872593,51.272192],[-1.872615,51.27222],[-1.872624,51.272243],[-1.872622,51.272262],[-1.872607,51.272276],[-1.87258,51.272287],[-1.872526,51.272294],[-1.872445,51.272299],[-1.872337,51.2723],[-1.872203,51.272298],[-1.872091,51.272301],[-1.872002,51.272309],[-1.871936,51.272321],[-1.871894,51.272338],[-1.871863,51.272362],[-1.871844,51.272395],[-1.871837,51.272435],[-1.871842,51.272482],[-1.87184,51.272519],[-1.871832,51.272546],[-1.871818,51.272562],[-1.871797,51.272567],[-1.871769,51.272564],[-1.871736,51.272554],[-1.871696,51.272536],[-1.87165,51.27251],[-1.871612,51.272489],[-1.871583,51.272472],[-1.871562,51.272461],[-1.87155,51.272454],[-1.871532,51.272449],[-1.871508,51.272447],[-1.871477,51.272447],[-1.87144,51.272449],[-1.871407,51.27247],[-1.871376,51.272511],[-1.871349,51.27257],[-1.871325,51.272649],[-1.871312,51.272717],[-1.871311,51.272774],[-1.871321,51.272821],[-1.871343,51.272857],[-1.871361,51.272888],[-1.871377,51.272913],[-1.871389,51.272934],[-1.871398,51.272949],[-1.871411,51.272978],[-1.871427,51.273022],[-1.871447,51.273079],[-1.871471,51.273152],[-1.871488,51.27321],[-1.871498,51.273254],[-1.871501,51.273285],[-1.871498,51.273302],[-1.871501,51.273318],[-1.871511,51.273335],[-1.871528,51.273351],[-1.871552,51.273367],[-1.871578,51.273384],[-1.871607,51.273403],[-1.871638,51.273423],[-1.871672,51.273444],[-1.871709,51.273461],[-1.87175,51.273473],[-1.871794,51.27348],[-1.871842,51.273482],[-1.871887,51.273488],[-1.87193,51.273499],[-1.87197,51.273514],[-1.872007,51.273534],[-1.872036,51.273551],[-1.872056,51.273566],[-1.872067,51.273579],[-1.87207,51.273589],[-1.872073,51.273603],[-1.872076,51.273619],[-1.87208,51.273637],[-1.872084,51.273659],[-1.872109,51.273676],[-1.872155,51.27369],[-1.872223,51.273699],[-1.872312,51.273704],[-1.872381,51.2737],[-1.872429,51.273685],[-1.872457,51.273661],[-1.872464,51.273627],[-1.87249,51.273599],[-1.872535,51.273575],[-1.8726,51.273557],[-1.872683,51.273543],[-1.872757,51.273532],[-1.872822,51.273522],[-1.872877,51.273514],[-1.872923,51.273508],[-1.872975,51.273499],[-1.873032,51.273488],[-1.873097,51.273474],[-1.873167,51.273457],[-1.873233,51.273442],[-1.873295,51.273429],[-1.873354,51.273417],[-1.873408,51.273407],[-1.873459,51.273393],[-1.873506,51.273377],[-1.873548,51.273357],[-1.873587,51.273335],[-1.87363,51.273316],[-1.873677,51.273301],[-1.873728,51.27329],[-1.873784,51.273283],[-1.873831,51.273285],[-1.87387,51.273296],[-1.873901,51.273317],[-1.873924,51.273348],[-1.873945,51.273374],[-1.873966,51.273396],[-1.873986,51.273413],[-1.874004,51.273427],[-1.874025,51.273433],[-1.874048,51.273431],[-1.874074,51.273422],[-1.874102,51.273405],[-1.87413,51.273388],[-1.874159,51.27337],[-1.874188,51.273352],[-1.874218,51.273334],[-1.874259,51.273319],[-1.874309,51.273307],[-1.87437,51.273299],[-1.874441,51.273295],[-1.874508,51.273293],[-1.874572,51.273294],[-1.874631,51.273297],[-1.874687,51.273302],[-1.874739,51.273305],[-1.874785,51.273308],[-1.874827,51.273308],[-1.874864,51.273308],[-1.874902,51.27331],[-1.87494,51.273316],[-1.874978,51.273325],[-1.875017,51.273338],[-1.875047,51.273348],[-1.875069,51.273355],[-1.875082,51.273359],[-1.875087,51.273361],[-1.875109,51.273361],[-1.875149,51.273359],[-1.875208,51.273356],[-1.875283,51.273352],[-1.875345,51.273344],[-1.875392,51.273333],[-1.875426,51.27332],[-1.875445,51.273303],[-1.87546,51.27329],[-1.875471,51.27328],[-1.875478,51.273274],[-1.875481,51.273271],[-1.87549,51.273263],[-1.875505,51.273249],[-1.875525,51.27323],[-1.875551,51.273206],[-1.875577,51.273186],[-1.875602,51.27317],[-1.875627,51.273158],[-1.875652,51.27315],[-1.875671,51.273143],[-1.875684,51.273136],[-1.875692,51.273129],[-1.875693,51.273124],[-1.875707,51.273109],[-1.875735,51.273084],[-1.875775,51.273051],[-1.875829,51.273008],[-1.875894,51.272967],[-1.875971,51.272928],[-1.876059,51.272891],[-1.876159,51.272856],[-1.876244,51.272826],[-1.876313,51.272801],[-1.876367,51.272782],[-1.876405,51.272767],[-1.87644,51.272754],[-1.87647,51.272742],[-1.876497,51.272732],[-1.87652,51.272723],[-1.876552,51.272707],[-1.876595,51.272684],[-1.876647,51.272654],[-1.87671,51.272616],[-1.876753,51.272575],[-1.876779,51.27253],[-1.876786,51.27248],[-1.876774,51.272427],[-1.876762,51.272381],[-1.876748,51.272341],[-1.876732,51.272308],[-1.876715,51.272282],[-1.876694,51.272251],[-1.876669,51.272215],[-1.876638,51.272173],[-1.876604,51.272127],[-1.876571,51.272087],[-1.876538,51.272053],[-1.876507,51.272025],[-1.876476,51.272004],[-1.876438,51.271983],[-1.876393,51.271963],[-1.876341,51.271943],[-1.876281,51.271924],[-1.876226,51.271904],[-1.876174,51.271882],[-1.876126,51.271859],[-1.876082,51.271834],[-1.876036,51.271805],[-1.875986,51.271772],[-1.875933,51.271735],[-1.875878,51.271694],[-1.875828,51.271658],[-1.875784,51.271628],[-1.875746,51.271603],[-1.875713,51.271583],[-1.875681,51.27157],[-1.875648,51.271566],[-1.875615,51.271568],[-1.875583,51.271578],[-1.875551,51.271588],[-1.875522,51.271597],[-1.875493,51.271606],[-1.875466,51.271615],[-1.875429,51.271625],[-1.875381,51.271637],[-1.875324,51.271652],[-1.875256,51.271668],[-1.875193,51.271688],[-1.875135,51.271713],[-1.875081,51.271742],[-1.875033,51.271775],[-1.87498,51.271804],[-1.874923,51.271829],[-1.874862,51.27185],[-1.874797,51.271868],[-1.874734,51.271868],[-1.874672,51.271851],[-1.874613,51.271817],[-1.874554,51.271766],[-1.874507,51.271719],[-1.87447,51.271677],[-1.874443,51.27164],[-1.874427,51.271607],[-1.874418,51.271577],[-1.874416,51.271549],[-1.87442,51.271524],[-1.874432,51.271501],[-1.874431,51.271473],[-1.874419,51.27144],[-1.874395,51.271402],[-1.874359,51.27136],[-1.874334,51.271319],[-1.874322,51.271279],[-1.874321,51.271242],[-1.874331,51.271207],[-1.874353,51.271182],[-1.874384,51.271166],[-1.874427,51.27116],[-1.87448,51.271164],[-1.87453,51.271177],[-1.874575,51.271198],[-1.874617,51.271229],[-1.874654,51.271269],[-1.874686,51.271308],[-1.874713,51.271347],[-1.874734,51.271386],[-1.874749,51.271425],[-1.874773,51.271453],[-1.874806,51.271471],[-1.874848,51.271478],[-1.874899,51.271474],[-1.874945,51.271462],[-1.874985,51.271441],[-1.87502,51.271411],[-1.875049,51.271373],[-1.875068,51.271343],[-1.875077,51.27132],[-1.875077,51.271306],[-1.875067,51.271299],[-1.87505,51.271284],[-1.875025,51.271261],[-1.874993,51.271231],[-1.874954,51.271193],[-1.874917,51.271162],[-1.874884,51.271136],[-1.874853,51.271117],[-1.874824,51.271105],[-1.874798,51.271088],[-1.874775,51.271067],[-1.874754,51.271042],[-1.874735,51.271012],[-1.874711,51.27098],[-1.874683,51.270946],[-1.87465,51.270909],[-1.874612,51.270869],[-1.874562,51.270843],[-1.8745,51.27083],[-1.874427,51.27083],[-1.874341,51.270844],[-1.874268,51.270856],[-1.874209,51.270866],[-1.874164,51.270875],[-1.874132,51.270883],[-1.874098,51.270891],[-1.874063,51.270899],[-1.874026,51.270907],[-1.873988,51.270916],[-1.873947,51.270924],[-1.873902,51.270932],[-1.873854,51.270938],[-1.873804,51.270943],[-1.873749,51.270944],[-1.873691,51.270939],[-1.873629,51.270931],[-1.873563,51.270917],[-1.873501,51.270906],[-1.873443,51.270897],[-1.873388,51.270891],[-1.873338,51.270887],[-1.873309,51.270878],[-1.873303,51.270864],[-1.873319,51.270844],[-1.873358,51.27082],[-1.873397,51.270793],[-1.873436,51.270764],[-1.873476,51.270731],[-1.873517,51.270696],[-1.873549,51.270657],[-1.873574,51.270614],[-1.873591,51.270567],[-1.8736,51.270517],[-1.873591,51.270474],[-1.873565,51.270438],[-1.87352,51.270411],[-1.873458,51.270391],[-1.8734,51.270371],[-1.873346,51.270351],[-1.873297,51.27033],[-1.873252,51.27031],[-1.873222,51.270285],[-1.873208,51.270256],[-1.87321,51.270221],[-1.873227,51.270182],[-1.873243,51.270142],[-1.873259,51.270101],[-1.873273,51.270059],[-1.873286,51.270015],[-1.873286,51.269974],[-1.873272,51.269934],[-1.873244,51.269895],[-1.873202,51.269858],[-1.873169,51.26983],[-1.873146,51.26981],[-1.873131,51.269799],[-1.873125,51.269797],[-1.873098,51.269789],[-1.873048,51.269775],[-1.872978,51.269756],[-1.872885,51.269731],[-1.872803,51.269712],[-1.872731,51.269699],[-1.872669,51.26969],[-1.872617,51.269688],[-1.872577,51.26969],[-1.87255,51.269696],[-1.872535,51.269707],[-1.872532,51.269722],[-1.872522,51.269743],[-1.872505,51.269769],[-1.872482,51.269801],[-1.872452,51.269838],[-1.872415,51.269872],[-1.872371,51.269904],[-1.87232,51.269933],[-1.872263,51.269959],[-1.872209,51.269984],[-1.872161,51.270007],[-1.872116,51.270028],[-1.872077,51.270047],[-1.872041,51.270069],[-1.87201,51.270092],[-1.871983,51.270118],[-1.871961,51.270145],[-1.871941,51.270178],[-1.871925,51.270217],[-1.871913,51.270261],[-1.871904,51.270312],[-1.871889,51.270361],[-1.871869,51.270409],[-1.871844,51.270456],[-1.871814,51.270501],[-1.871769,51.270536],[-1.871711,51.270561],[-1.871639,51.270576],[-1.871552,51.270581],[-1.871485,51.270587],[-1.871436,51.270595],[-1.871407,51.270605],[-1.871396,51.270616],[-1.871383,51.270624],[-1.871369,51.270629],[-1.871354,51.270631],[-1.871337,51.27063],[-1.871311,51.270631],[-1.871276,51.270634],[-1.871232,51.270639],[-1.871179,51.270645],[-1.871118,51.270654],[-1.871047,51.270665],[-1.870967,51.270677],[-1.870879,51.270691],[-1.870785,51.270708],[-1.870688,51.270728],[-1.870586,51.270751],[-1.870479,51.270776],[-1.870368,51.270805],[-1.870252,51.270835],[-1.870132,51.270869],[-1.870007,51.270906],[-1.869893,51.270942],[-1.869791,51.27098],[-1.869699,51.271018],[-1.869619,51.271056],[-1.86955,51.271095],[-1.869492,51.271134],[-1.869445,51.271174],[-1.86941,51.271215],[-1.86938,51.271256],[-1.869356,51.271298],[-1.869339,51.271342],[-1.869327,51.271386],[-1.869322,51.271432],[-1.869323,51.271478],[-1.869329,51.271526],[-1.869342,51.271574],[-1.869363,51.271626],[-1.869392,51.271681],[-1.869429,51.271738],[-1.869474,51.271799],[-1.869528,51.271863],[-1.869589,51.27193],[-1.869659,51.272001],[-1.869737,51.272074],[-1.869795,51.272129],[-1.869835,51.272166],[-1.869855,51.272185],[-1.869855,51.272185],[-1.869855,51.272189],[-1.869854,51.272194],[-1.869853,51.272203],[-1.86985,51.272214],[-1.869851,51.272231],[-1.869855,51.272253],[-1.869863,51.272281],[-1.869874,51.272314],[-1.869893,51.272346],[-1.86992,51.272378],[-1.869954,51.272408],[-1.869997,51.272438],[-1.870041,51.272463],[-1.870088,51.272483],[-1.870136,51.272498],[-1.870186,51.272509],[-1.870234,51.272514],[-1.87028,51.272515],[-1.870325,51.272511],[-1.870369,51.272503]]]}}