{"type":"Feature","properties":{"id":"549572","COMMUNE":"Wiltshire","PROVINCE":"Wiltshire CC","COUNTRY":"UK","FIREDATE":"2026-06-22 00:00:00","CLASS":"FireSeason","areaHA_geo":0.377},"geometry":{"type":"Polygon","coordinates":[[[-1.92001,51.288493],[-1.920028,51.288564],[-1.920027,51.288658],[-1.920007,51.288777],[-1.919978,51.288861],[-1.919941,51.288913],[-1.919933,51.288976],[-1.919955,51.289048],[-1.920039,51.289065],[-1.920187,51.289027],[-1.920303,51.288978],[-1.92039,51.288917],[-1.920501,51.288926],[-1.920637,51.289004],[-1.920745,51.289036],[-1.920825,51.289024],[-1.920889,51.288989],[-1.920938,51.288932],[-1.920957,51.28887],[-1.920946,51.288804],[-1.920895,51.288731],[-1.920804,51.288652],[-1.920703,51.288573],[-1.920592,51.288492],[-1.920515,51.28844],[-1.92047,51.288417],[-1.920389,51.288389],[-1.920272,51.288357],[-1.920178,51.288355],[-1.920109,51.288382],[-1.920055,51.288411],[-1.920019,51.288442],[-1.92001,51.288493]]]}}