{"type":"Feature","properties":{"id":"549568","COMMUNE":"Wiltshire","PROVINCE":"Wiltshire CC","COUNTRY":"UK","FIREDATE":"2026-06-22 12:59:00","CLASS":"FireSeason","areaHA_geo":39.508},"geometry":{"type":"Polygon","coordinates":[[[-1.925421,51.276694],[-1.925591,51.276777],[-1.925817,51.276742],[-1.926099,51.276586],[-1.926419,51.276448],[-1.926777,51.276327],[-1.926985,51.276197],[-1.927042,51.276056],[-1.927214,51.276018],[-1.927499,51.276081],[-1.927739,51.276199],[-1.927932,51.276372],[-1.928212,51.276566],[-1.928578,51.27678],[-1.928859,51.276982],[-1.929057,51.277172],[-1.929184,51.277373],[-1.92924,51.277585],[-1.929568,51.277757],[-1.930167,51.277889],[-1.930596,51.278013],[-1.930856,51.278129],[-1.931056,51.278226],[-1.931198,51.278303],[-1.931482,51.278618],[-1.93191,51.279171],[-1.932439,51.279494],[-1.933069,51.279589],[-1.933748,51.279666],[-1.934477,51.279725],[-1.934996,51.279705],[-1.935307,51.279606],[-1.935825,51.279401],[-1.93655,51.279091],[-1.936828,51.278894],[-1.936658,51.278811],[-1.936599,51.278712],[-1.936649,51.278597],[-1.936779,51.278529],[-1.936989,51.278508],[-1.937542,51.278514],[-1.938439,51.278547],[-1.939198,51.278595],[-1.93982,51.278656],[-1.940446,51.278684],[-1.941076,51.278678],[-1.941379,51.278525],[-1.941354,51.278225],[-1.941274,51.277998],[-1.94114,51.277844],[-1.941014,51.277647],[-1.940897,51.277407],[-1.940833,51.277266],[-1.940822,51.277225],[-1.940793,51.277165],[-1.940745,51.277086],[-1.940531,51.277091],[-1.940151,51.277181],[-1.939605,51.277355],[-1.938893,51.277614],[-1.938545,51.27762],[-1.938561,51.277375],[-1.938524,51.277156],[-1.938433,51.276964],[-1.938271,51.276833],[-1.938038,51.276765],[-1.937673,51.27671],[-1.937178,51.276669],[-1.93686,51.276584],[-1.936719,51.276456],[-1.936247,51.276274],[-1.935445,51.276037],[-1.93485,51.275897],[-1.934462,51.275853],[-1.934197,51.275641],[-1.934057,51.275261],[-1.933916,51.274952],[-1.933772,51.274715],[-1.933531,51.274538],[-1.933191,51.274422],[-1.932953,51.274362],[-1.932818,51.274359],[-1.932561,51.274378],[-1.932181,51.274417],[-1.931722,51.274309],[-1.931184,51.274053],[-1.930781,51.273902],[-1.930513,51.273854],[-1.930127,51.273894],[-1.929622,51.274021],[-1.929275,51.274083],[-1.929085,51.274077],[-1.928984,51.274075],[-1.928971,51.274076],[-1.9289,51.274113],[-1.928771,51.274185],[-1.928715,51.274229],[-1.928732,51.274244],[-1.928606,51.274328],[-1.928337,51.274482],[-1.928207,51.274625],[-1.928215,51.274759],[-1.928113,51.274833],[-1.927902,51.274846],[-1.927687,51.274847],[-1.927469,51.274836],[-1.927395,51.274709],[-1.927466,51.274467],[-1.92752,51.274289],[-1.927557,51.274176],[-1.927478,51.274104],[-1.927282,51.274074],[-1.926976,51.274064],[-1.926562,51.274073],[-1.926326,51.274021],[-1.92627,51.27391],[-1.926229,51.273805],[-1.926203,51.273706],[-1.926128,51.273626],[-1.926004,51.273563],[-1.925879,51.273572],[-1.925752,51.273652],[-1.925651,51.273755],[-1.925577,51.27388],[-1.92546,51.274002],[-1.925303,51.274119],[-1.924997,51.274259],[-1.924542,51.274424],[-1.924189,51.274515],[-1.923939,51.274532],[-1.923752,51.274514],[-1.92363,51.274459],[-1.923477,51.274441],[-1.923294,51.27446],[-1.923143,51.274476],[-1.923026,51.274488],[-1.922919,51.274516],[-1.922822,51.274559],[-1.922812,51.274699],[-1.922887,51.274935],[-1.922881,51.275116],[-1.922793,51.275243],[-1.922802,51.275351],[-1.922906,51.275441],[-1.923046,51.27554],[-1.923223,51.275648],[-1.923493,51.27578],[-1.923856,51.275936],[-1.924135,51.27605],[-1.924329,51.276122],[-1.924653,51.276282],[-1.925108,51.276529],[-1.925421,51.276694]]]}}