{"type":"Feature","properties":{"id":"549897","COMMUNE":"Conwy","PROVINCE":"Conwy and Denbighshire","COUNTRY":"UK","FIREDATE":"2026-06-27 14:01:00","CLASS":"FireSeason","areaHA_geo":0.435},"geometry":{"type":"Polygon","coordinates":[[[-3.934824,53.235546],[-3.934959,53.235608],[-3.935143,53.235635],[-3.935377,53.235625],[-3.935486,53.235563],[-3.93547,53.235446],[-3.935513,53.235366],[-3.935613,53.235322],[-3.935608,53.235239],[-3.935499,53.235115],[-3.935424,53.235014],[-3.935383,53.234937],[-3.93535,53.23487],[-3.935324,53.234814],[-3.935256,53.23476],[-3.935148,53.234709],[-3.935022,53.234685],[-3.934878,53.234688],[-3.934813,53.234734],[-3.934827,53.234824],[-3.934854,53.234907],[-3.934895,53.234984],[-3.934919,53.235057],[-3.934926,53.235124],[-3.934854,53.235197],[-3.934703,53.235273],[-3.93466,53.235363],[-3.934724,53.235465],[-3.934824,53.235546]]]}}