{"type":"Feature","properties":{"id":"549898","COMMUNE":"Conwy","PROVINCE":"Conwy and Denbighshire","COUNTRY":"UK","FIREDATE":"2026-06-27 14:01:00","CLASS":"FireSeason","areaHA_geo":4.118},"geometry":{"type":"Polygon","coordinates":[[[-3.938235,53.234206],[-3.938357,53.234296],[-3.938539,53.234341],[-3.938783,53.23434],[-3.938957,53.234263],[-3.939059,53.234109],[-3.939207,53.233851],[-3.9394,53.233486],[-3.939527,53.233235],[-3.939588,53.233095],[-3.93966,53.232918],[-3.939742,53.232704],[-3.94006,53.232487],[-3.940614,53.232267],[-3.940966,53.232073],[-3.941117,53.231906],[-3.941177,53.231691],[-3.941144,53.231431],[-3.94101,53.231241],[-3.940772,53.231123],[-3.940621,53.231068],[-3.940554,53.231076],[-3.940407,53.231056],[-3.940178,53.23101],[-3.939854,53.230989],[-3.939435,53.230992],[-3.93916,53.231015],[-3.939029,53.231058],[-3.938989,53.231158],[-3.939041,53.231316],[-3.939062,53.231471],[-3.93905,53.231622],[-3.938988,53.231723],[-3.938875,53.231773],[-3.938687,53.231852],[-3.938425,53.23196],[-3.938297,53.232048],[-3.938304,53.232115],[-3.938332,53.232212],[-3.938381,53.232338],[-3.938405,53.232445],[-3.938403,53.232532],[-3.938375,53.232669],[-3.938323,53.232858],[-3.938214,53.233039],[-3.93805,53.233213],[-3.937949,53.233334],[-3.93791,53.233403],[-3.937962,53.233618],[-3.938104,53.233979],[-3.938235,53.234206]]]}}