{"type":"Feature","properties":{"id":"561265","COMMUNE":"Gwynedd","PROVINCE":"Gwynedd","COUNTRY":"UK","FIREDATE":"2026-07-12 20:00:00","CLASS":"30DAYS","areaHA_geo":992.027},"geometry":{"type":"Polygon","coordinates":[[[-3.990184,52.856226],[-3.990728,52.855897],[-3.991313,52.855295],[-3.991291,52.855198],[-3.991407,52.855107],[-3.991887,52.854789],[-3.992481,52.854443],[-3.993048,52.854232],[-3.99359,52.854158],[-3.994038,52.85403],[-3.994393,52.853847],[-3.994717,52.853815],[-3.99501,52.853934],[-3.995455,52.854045],[-3.996053,52.854148],[-3.99692,52.85417],[-3.998055,52.854112],[-3.998933,52.85395],[-3.999554,52.853684],[-3.999915,52.853548],[-4.000016,52.853541],[-4.000364,52.853423],[-4.000961,52.853193],[-4.001392,52.853052],[-4.001657,52.852999],[-4.001914,52.852984],[-4.002162,52.853008],[-4.002542,52.853099],[-4.003053,52.853258],[-4.003988,52.85357],[-4.005349,52.854034],[-4.006247,52.854292],[-4.006682,52.854344],[-4.007529,52.854468],[-4.008786,52.854664],[-4.009476,52.85476],[-4.009599,52.854755],[-4.009815,52.85473],[-4.010126,52.854684],[-4.010522,52.854688],[-4.011005,52.854743],[-4.011461,52.85481],[-4.01189,52.85489],[-4.012221,52.854901],[-4.012452,52.854843],[-4.012571,52.85483],[-4.012579,52.854862],[-4.0127,52.854864],[-4.012934,52.854836],[-4.013172,52.854839],[-4.013414,52.854873],[-4.013524,52.854961],[-4.013501,52.855103],[-4.013445,52.855249],[-4.013355,52.855399],[-4.013292,52.85556],[-4.013255,52.855731],[-4.013302,52.855945],[-4.013432,52.856201],[-4.013522,52.856406],[-4.013572,52.856561],[-4.013473,52.856684],[-4.013226,52.856776],[-4.012994,52.856897],[-4.012777,52.857048],[-4.012784,52.857301],[-4.013016,52.857657],[-4.013216,52.857915],[-4.013385,52.858076],[-4.013549,52.858262],[-4.013711,52.858473],[-4.013815,52.858704],[-4.013863,52.858956],[-4.013985,52.859172],[-4.014182,52.85935],[-4.014455,52.85944],[-4.014802,52.859441],[-4.015036,52.859396],[-4.015157,52.859305],[-4.015393,52.859169],[-4.015746,52.858989],[-4.015928,52.858971],[-4.015939,52.859115],[-4.015965,52.859335],[-4.016003,52.85963],[-4.016112,52.860052],[-4.016292,52.860602],[-4.016616,52.861027],[-4.017084,52.861326],[-4.017456,52.861474],[-4.017732,52.861469],[-4.01807,52.861443],[-4.018472,52.861396],[-4.018717,52.861349],[-4.018806,52.861304],[-4.018944,52.861176],[-4.01913,52.860966],[-4.01941,52.860763],[-4.019785,52.860565],[-4.020274,52.860396],[-4.020876,52.860255],[-4.021383,52.860143],[-4.021795,52.86006],[-4.022076,52.859999],[-4.022225,52.85996],[-4.022371,52.859892],[-4.022514,52.859794],[-4.022708,52.859752],[-4.022954,52.859765],[-4.023157,52.85974],[-4.023315,52.859676],[-4.02342,52.859649],[-4.02347,52.859661],[-4.023569,52.859618],[-4.023716,52.859521],[-4.023963,52.85949],[-4.02431,52.859526],[-4.024497,52.859584],[-4.024523,52.859664],[-4.024539,52.859754],[-4.024545,52.859853],[-4.024787,52.859956],[-4.025265,52.860063],[-4.026165,52.860302],[-4.027485,52.860674],[-4.028556,52.860845],[-4.029378,52.860818],[-4.029915,52.860699],[-4.030169,52.860488],[-4.03024,52.860324],[-4.030127,52.860207],[-4.030064,52.860142],[-4.030051,52.860129],[-4.030023,52.8601],[-4.02998,52.860055],[-4.029933,52.860037],[-4.029882,52.860046],[-4.029741,52.860019],[-4.029512,52.859955],[-4.029406,52.859825],[-4.029423,52.859628],[-4.029438,52.859526],[-4.029452,52.859519],[-4.029483,52.859504],[-4.029532,52.85948],[-4.029545,52.859456],[-4.029522,52.859432],[-4.029552,52.859401],[-4.029634,52.859362],[-4.029879,52.859248],[-4.030289,52.859058],[-4.030497,52.858962],[-4.030505,52.858962],[-4.030558,52.858957],[-4.030658,52.858948],[-4.03078,52.858937],[-4.030925,52.858924],[-4.031072,52.858926],[-4.031219,52.858944],[-4.031374,52.858986],[-4.031538,52.859052],[-4.031644,52.859119],[-4.031693,52.859188],[-4.031908,52.859296],[-4.03229,52.859444],[-4.032599,52.859542],[-4.032835,52.85959],[-4.033114,52.859578],[-4.033438,52.859505],[-4.033683,52.859354],[-4.033851,52.859125],[-4.033953,52.858952],[-4.033987,52.858834],[-4.034008,52.858774],[-4.034015,52.858773],[-4.034103,52.858727],[-4.034274,52.858636],[-4.034371,52.858501],[-4.034395,52.85832],[-4.03435,52.858166],[-4.034237,52.858037],[-4.034049,52.857967],[-4.033786,52.857956],[-4.033653,52.858017],[-4.03365,52.858153],[-4.033649,52.858233],[-4.033649,52.85826],[-4.033519,52.8583],[-4.033258,52.858355],[-4.032992,52.858479],[-4.032719,52.858671],[-4.032503,52.858735],[-4.032343,52.85867],[-4.032243,52.858594],[-4.032204,52.858506],[-4.032324,52.85843],[-4.032605,52.858366],[-4.032764,52.858198],[-4.032801,52.857927],[-4.032829,52.857744],[-4.032847,52.857649],[-4.032825,52.857569],[-4.032761,52.857504],[-4.032607,52.857472],[-4.032363,52.857471],[-4.032188,52.857363],[-4.032082,52.857147],[-4.032166,52.856989],[-4.03244,52.856888],[-4.032577,52.856805],[-4.032579,52.85674],[-4.032647,52.85667],[-4.032781,52.856595],[-4.03295,52.856516],[-4.033155,52.856433],[-4.033405,52.856301],[-4.033699,52.856119],[-4.033884,52.856013],[-4.033959,52.855982],[-4.034041,52.8559],[-4.03413,52.855767],[-4.03401,52.85566],[-4.033681,52.855577],[-4.033358,52.855481],[-4.03304,52.855371],[-4.03282,52.855222],[-4.032697,52.855032],[-4.032297,52.854816],[-4.031619,52.854573],[-4.031206,52.854423],[-4.031057,52.854368],[-4.030919,52.854185],[-4.030794,52.853874],[-4.03051,52.853513],[-4.030068,52.853101],[-4.029646,52.852815],[-4.029247,52.852653],[-4.028733,52.852378],[-4.028105,52.851988],[-4.027376,52.851645],[-4.026547,52.851349],[-4.026142,52.851014],[-4.02616,52.850641],[-4.025787,52.850352],[-4.025022,52.850147],[-4.024741,52.849856],[-4.024944,52.849477],[-4.025014,52.849191],[-4.02495,52.848997],[-4.024837,52.84887],[-4.024672,52.84881],[-4.02458,52.84875],[-4.024561,52.84869],[-4.024487,52.848558],[-4.024359,52.848356],[-4.024149,52.848219],[-4.023856,52.848147],[-4.023677,52.848057],[-4.02361,52.847946],[-4.023579,52.847818],[-4.023585,52.847672],[-4.023558,52.847581],[-4.023498,52.847545],[-4.023455,52.847444],[-4.02343,52.84728],[-4.023449,52.847193],[-4.023513,52.847185],[-4.023605,52.847181],[-4.023724,52.847181],[-4.023952,52.847173],[-4.024289,52.847157],[-4.024486,52.847115],[-4.024543,52.847046],[-4.024564,52.847003],[-4.024549,52.846986],[-4.024574,52.846975],[-4.02464,52.846969],[-4.024533,52.846774],[-4.024253,52.84639],[-4.024024,52.846035],[-4.023846,52.84571],[-4.023663,52.845501],[-4.023475,52.845408],[-4.0234,52.845299],[-4.023439,52.845175],[-4.023584,52.845095],[-4.023835,52.845061],[-4.024035,52.84506],[-4.024184,52.845091],[-4.02433,52.845122],[-4.024471,52.845152],[-4.02464,52.845174],[-4.024835,52.845189],[-4.024962,52.845163],[-4.02502,52.845096],[-4.025059,52.84505],[-4.02508,52.845026],[-4.025128,52.84497],[-4.025206,52.84488],[-4.025219,52.84478],[-4.025167,52.844671],[-4.024871,52.844433],[-4.024329,52.844067],[-4.023926,52.843868],[-4.023662,52.843837],[-4.023343,52.843874],[-4.022969,52.843979],[-4.022751,52.844041],[-4.022687,52.844059],[-4.022546,52.843988],[-4.022327,52.843827],[-4.022198,52.843641],[-4.022161,52.84343],[-4.022252,52.843308],[-4.022472,52.843274],[-4.022612,52.843253],[-4.022673,52.843244],[-4.022841,52.843199],[-4.023117,52.843118],[-4.023273,52.842965],[-4.02331,52.842738],[-4.023344,52.842612],[-4.023375,52.842586],[-4.023685,52.84241],[-4.024272,52.842085],[-4.024978,52.841828],[-4.025802,52.841638],[-4.026358,52.841514],[-4.026648,52.841457],[-4.026983,52.841561],[-4.027365,52.841826],[-4.027564,52.841965],[-4.027581,52.841977],[-4.027924,52.841859],[-4.028592,52.841611],[-4.028905,52.841462],[-4.028863,52.841411],[-4.028971,52.841328],[-4.029227,52.841213],[-4.029426,52.841131],[-4.029569,52.841082],[-4.02952,52.840968],[-4.029279,52.84079],[-4.02899,52.840699],[-4.028654,52.840696],[-4.028396,52.840669],[-4.028216,52.840618],[-4.028067,52.840527],[-4.027948,52.840397],[-4.027899,52.840298],[-4.027921,52.84023],[-4.028161,52.840149],[-4.02862,52.840056],[-4.028878,52.839947],[-4.028936,52.839822],[-4.028964,52.83971],[-4.028965,52.839612],[-4.028914,52.839542],[-4.02881,52.8395],[-4.028704,52.839457],[-4.028594,52.839412],[-4.028497,52.839395],[-4.028413,52.839405],[-4.028245,52.839454],[-4.027994,52.839541],[-4.027764,52.83962],[-4.027556,52.839692],[-4.027286,52.839771],[-4.026955,52.839856],[-4.026687,52.839901],[-4.026481,52.839906],[-4.02636,52.839865],[-4.026322,52.83978],[-4.025983,52.839748],[-4.025342,52.839771],[-4.024359,52.839756],[-4.023032,52.839704],[-4.022191,52.839561],[-4.021836,52.839328],[-4.021594,52.839192],[-4.021466,52.839153],[-4.021301,52.839073],[-4.021098,52.838953],[-4.021035,52.838875],[-4.02111,52.83884],[-4.021249,52.838816],[-4.02145,52.838805],[-4.021836,52.838611],[-4.022407,52.838234],[-4.022902,52.838114],[-4.023321,52.83825],[-4.023726,52.83835],[-4.024117,52.838416],[-4.024461,52.838486],[-4.024758,52.838563],[-4.025067,52.838624],[-4.025387,52.838672],[-4.025577,52.838653],[-4.025636,52.838567],[-4.025663,52.838519],[-4.025657,52.838508],[-4.025619,52.838438],[-4.025549,52.838306],[-4.025482,52.838182],[-4.025419,52.838065],[-4.025368,52.837914],[-4.025329,52.837728],[-4.025185,52.837568],[-4.024934,52.837434],[-4.024671,52.837246],[-4.024396,52.837003],[-4.024172,52.8368],[-4.023999,52.836637],[-4.023812,52.836499],[-4.023612,52.836385],[-4.023418,52.836309],[-4.023232,52.836272],[-4.023054,52.836281],[-4.022882,52.836335],[-4.022636,52.836414],[-4.022314,52.836516],[-4.022019,52.836606],[-4.02175,52.836683],[-4.021178,52.83678],[-4.020302,52.836897],[-4.019651,52.837004],[-4.019225,52.8371],[-4.018834,52.837119],[-4.018478,52.837061],[-4.018103,52.836999],[-4.01771,52.836935],[-4.01729,52.836793],[-4.016843,52.836572],[-4.016954,52.836305],[-4.017623,52.835995],[-4.017413,52.835648],[-4.016326,52.835266],[-4.015668,52.835015],[-4.015439,52.834893],[-4.015322,52.834843],[-4.015314,52.834866],[-4.015241,52.834992],[-4.015101,52.835222],[-4.014888,52.835382],[-4.014603,52.835472],[-4.014276,52.835532],[-4.013907,52.835561],[-4.013721,52.835571],[-4.013718,52.835561],[-4.013666,52.835455],[-4.013565,52.835253],[-4.013567,52.835106],[-4.01367,52.835013],[-4.013849,52.834937],[-4.014104,52.834879],[-4.014235,52.834792],[-4.014244,52.834675],[-4.014258,52.834575],[-4.014277,52.834492],[-4.014309,52.834434],[-4.014354,52.8344],[-4.014417,52.834352],[-4.014498,52.834291],[-4.01459,52.834203],[-4.014693,52.834089],[-4.014696,52.833973],[-4.014599,52.833855],[-4.014518,52.833775],[-4.014452,52.833734],[-4.01436,52.833738],[-4.014242,52.833787],[-4.013984,52.833887],[-4.013585,52.834039],[-4.013376,52.83412],[-4.013355,52.83413],[-4.013242,52.834184],[-4.013035,52.834282],[-4.012766,52.83439],[-4.012432,52.83451],[-4.012149,52.834667],[-4.011914,52.834859],[-4.011631,52.834943],[-4.011297,52.83492],[-4.011073,52.834876],[-4.010959,52.834812],[-4.010903,52.83476],[-4.010905,52.834719],[-4.010865,52.83471],[-4.010785,52.834732],[-4.011126,52.834372],[-4.011889,52.83363],[-4.012309,52.833252],[-4.012387,52.83324],[-4.012489,52.833147],[-4.012615,52.832973],[-4.012693,52.832843],[-4.012722,52.832757],[-4.012721,52.832649],[-4.012688,52.83252],[-4.012807,52.832329],[-4.01308,52.832074],[-4.013354,52.831758],[-4.013629,52.831379],[-4.01387,52.830984],[-4.014075,52.830571],[-4.014095,52.830254],[-4.013929,52.830034],[-4.013608,52.82968],[-4.013133,52.829192],[-4.012805,52.828844],[-4.012624,52.828635],[-4.012547,52.828485],[-4.012572,52.828393],[-4.012562,52.828265],[-4.012516,52.828099],[-4.012324,52.827797],[-4.011986,52.827358],[-4.011754,52.827132],[-4.011628,52.827117],[-4.011467,52.827109],[-4.011272,52.827108],[-4.011111,52.82712],[-4.010985,52.827147],[-4.010801,52.827125],[-4.010558,52.827056],[-4.010376,52.827032],[-4.010254,52.827053],[-4.010131,52.827107],[-4.010006,52.827192],[-4.009762,52.827233],[-4.009397,52.827228],[-4.009266,52.827182],[-4.009369,52.827095],[-4.009461,52.827002],[-4.009543,52.826904],[-4.009513,52.826815],[-4.009373,52.826734],[-4.009242,52.826703],[-4.009118,52.826722],[-4.008881,52.82679],[-4.008529,52.826904],[-4.008339,52.826969],[-4.00831,52.826983],[-4.008131,52.826974],[-4.007803,52.826943],[-4.007606,52.826971],[-4.00754,52.827056],[-4.00741,52.82716],[-4.007215,52.827282],[-4.006519,52.827374],[-4.00532,52.827438],[-4.004712,52.827552],[-4.004696,52.827717],[-4.004559,52.827818],[-4.004301,52.827855],[-4.004077,52.827906],[-4.003887,52.827971],[-4.003521,52.828036],[-4.00298,52.8281],[-4.002618,52.828068],[-4.002435,52.827941],[-4.002212,52.827922],[-4.001948,52.82801],[-4.001699,52.828074],[-4.001466,52.828116],[-4.001332,52.828135],[-4.001296,52.828132],[-4.001225,52.82813],[-4.001119,52.828129],[-4.001017,52.828123],[-4.00092,52.828113],[-4.000538,52.828271],[-3.99987,52.828597],[-3.9993,52.828845],[-3.998828,52.829013],[-3.998309,52.829166],[-3.997744,52.829304],[-3.996912,52.829451],[-3.995815,52.829609],[-3.995152,52.829751],[-3.994923,52.829877],[-3.994678,52.830206],[-3.994418,52.830738],[-3.994302,52.831084],[-3.99433,52.831243],[-3.994243,52.831444],[-3.994041,52.831686],[-3.993913,52.831832],[-3.993861,52.831881],[-3.993765,52.831933],[-3.993625,52.831988],[-3.993446,52.832113],[-3.993228,52.832308],[-3.993087,52.832523],[-3.993022,52.832757],[-3.993016,52.832955],[-3.99307,52.833119],[-3.993168,52.833227],[-3.99331,52.833281],[-3.993405,52.833305],[-3.99345,52.833298],[-3.993506,52.833349],[-3.993572,52.83346],[-3.993576,52.833529],[-3.993517,52.833557],[-3.993458,52.83362],[-3.993399,52.833718],[-3.993316,52.833834],[-3.993208,52.833968],[-3.99315,52.834035],[-3.993141,52.834036],[-3.992964,52.833917],[-3.99262,52.833677],[-3.992393,52.833413],[-3.992284,52.833127],[-3.992203,52.832929],[-3.992151,52.832819],[-3.9919,52.83281],[-3.991449,52.832902],[-3.991069,52.833014],[-3.99076,52.833147],[-3.990592,52.833225],[-3.990568,52.833247],[-3.990462,52.833318],[-3.990276,52.833436],[-3.990069,52.833514],[-3.989841,52.83355],[-3.989719,52.83357],[-3.989703,52.833571],[-3.989626,52.83358],[-3.989487,52.833597],[-3.989027,52.833637],[-3.988246,52.8337],[-3.987555,52.833767],[-3.986953,52.833838],[-3.986267,52.833948],[-3.985498,52.834096],[-3.984918,52.834111],[-3.984527,52.833993],[-3.984052,52.833938],[-3.983494,52.833946],[-3.983063,52.834002],[-3.982954,52.834039],[-3.982654,52.834067],[-3.982588,52.834132],[-3.982968,52.834583],[-3.983367,52.834627],[-3.983575,52.83476],[-3.983626,52.835002],[-3.982258,52.835229],[-3.981147,52.835484],[-3.980252,52.835771],[-3.979756,52.836144],[-3.9791,52.836577],[-3.978109,52.836991],[-3.977108,52.837291],[-3.976735,52.837492],[-3.976463,52.837756],[-3.97612,52.838135],[-3.975537,52.838328],[-3.974894,52.83847],[-3.974589,52.839252],[-3.974584,52.839433],[-3.975816,52.83956],[-3.976315,52.840347],[-3.975783,52.840702],[-3.975486,52.840786],[-3.975319,52.840936],[-3.975329,52.840967],[-3.975407,52.841039],[-3.975787,52.841629],[-3.976364,52.84174],[-3.976513,52.841868],[-3.975516,52.84262],[-3.975628,52.842964],[-3.975521,52.84366],[-3.975788,52.843783],[-3.975375,52.844405],[-3.975214,52.845353],[-3.975215,52.846523],[-3.975578,52.847019],[-3.977578,52.847739],[-3.979491,52.848052],[-3.980762,52.848454],[-3.981149,52.848733],[-3.980351,52.849146],[-3.980435,52.84938],[-3.980033,52.849577],[-3.979599,52.849581],[-3.979491,52.849591],[-3.978844,52.849651],[-3.97806,52.849678],[-3.977057,52.849703],[-3.976479,52.84979],[-3.976403,52.849892],[-3.976282,52.850094],[-3.976057,52.850598],[-3.976559,52.850848],[-3.976779,52.851089],[-3.976898,52.85122],[-3.976977,52.851463],[-3.977268,52.851785],[-3.977378,52.851978],[-3.97726,52.852094],[-3.976209,52.852209],[-3.976104,52.852211],[-3.976113,52.852391],[-3.976851,52.852788],[-3.976856,52.853338],[-3.976174,52.85385],[-3.975652,52.854383],[-3.975405,52.855092],[-3.975348,52.855452],[-3.975292,52.855747],[-3.975115,52.855958],[-3.975227,52.855939],[-3.975073,52.856798],[-3.974445,52.857162],[-3.974024,52.857719],[-3.973694,52.857888],[-3.973167,52.857675],[-3.973089,52.85751],[-3.972841,52.857191],[-3.972626,52.857084],[-3.972582,52.857062],[-3.971933,52.857139],[-3.971858,52.857205],[-3.971987,52.857379],[-3.972167,52.857474],[-3.972684,52.857746],[-3.973335,52.858191],[-3.973325,52.858308],[-3.973201,52.858816],[-3.972323,52.859398],[-3.972033,52.859591],[-3.971511,52.859914],[-3.971533,52.860201],[-3.97198,52.86054],[-3.972682,52.860994],[-3.973589,52.861191],[-3.974297,52.861369],[-3.974504,52.861634],[-3.974518,52.861656],[-3.974286,52.861772],[-3.973935,52.861981],[-3.973466,52.862073],[-3.973062,52.86224],[-3.972639,52.86241],[-3.972449,52.862684],[-3.972428,52.862987],[-3.972284,52.86328],[-3.971808,52.863348],[-3.971343,52.863451],[-3.970874,52.863542],[-3.970668,52.86383],[-3.970502,52.864114],[-3.970557,52.864407],[-3.970513,52.864701],[-3.970438,52.865021],[-3.970667,52.865294],[-3.971107,52.865423],[-3.971182,52.865714],[-3.971276,52.866003],[-3.971466,52.86628],[-3.971953,52.866367],[-3.972434,52.866251],[-3.972922,52.866037],[-3.973193,52.865765],[-3.973383,52.865491],[-3.973484,52.865191],[-3.973609,52.8649],[-3.973845,52.864584],[-3.974077,52.864317],[-3.974244,52.864033],[-3.974288,52.86374],[-3.974352,52.863445],[-3.974618,52.863161],[-3.975049,52.863014],[-3.97551,52.8629],[-3.975938,52.86277],[-3.976258,52.862967],[-3.977641,52.863986],[-3.978973,52.864564],[-3.979465,52.86432],[-3.979643,52.86401],[-3.979842,52.864052],[-3.980818,52.863965],[-3.981326,52.86358],[-3.981873,52.863171],[-3.98269,52.862833],[-3.983553,52.862778],[-3.983881,52.862646],[-3.984209,52.862561],[-3.984756,52.862627],[-3.985672,52.862593],[-3.986066,52.862472],[-3.986071,52.862109],[-3.985612,52.861838],[-3.98498,52.861466],[-3.984841,52.860849],[-3.984434,52.860293],[-3.984795,52.860094],[-3.986157,52.859658],[-3.986423,52.85942],[-3.987555,52.85908],[-3.98772,52.858834],[-3.988217,52.858353],[-3.988952,52.858099],[-3.988955,52.858097],[-3.989199,52.858221],[-3.989628,52.858493],[-3.989902,52.858812],[-3.989535,52.859104],[-3.988912,52.859133],[-3.988573,52.859437],[-3.98913,52.859576],[-3.989748,52.859459],[-3.990316,52.859334],[-3.990776,52.859104],[-3.991203,52.858849],[-3.99171,52.858613],[-3.991862,52.858259],[-3.991607,52.857923],[-3.991182,52.857665],[-3.990969,52.85731],[-3.991023,52.856952],[-3.990908,52.856599],[-3.990441,52.856362],[-3.990184,52.856226]]]}}