{"type":"Feature","properties":{"id":"561290","COMMUNE":"Hambleton","PROVINCE":"North Yorkshire CC","COUNTRY":"UK","FIREDATE":"2026-07-09 12:42:00","FINALDATE":"2026-07-09 13:38:00","CLASS":"FireSeason","areaHA_geo":2.118},"geometry":{"type":"Polygon","coordinates":[[[-1.110202,54.396751],[-1.110218,54.39679],[-1.110249,54.396807],[-1.110296,54.396803],[-1.110359,54.396778],[-1.110409,54.396752],[-1.110447,54.396724],[-1.110472,54.396696],[-1.110483,54.396666],[-1.11051,54.396644],[-1.110552,54.396632],[-1.110608,54.396628],[-1.110679,54.396633],[-1.110752,54.396643],[-1.110828,54.396656],[-1.110905,54.396674],[-1.110984,54.396696],[-1.11108,54.396706],[-1.111195,54.396704],[-1.111327,54.396691],[-1.111476,54.396666],[-1.111619,54.396645],[-1.111756,54.396627],[-1.111886,54.396614],[-1.11201,54.396605],[-1.112111,54.396578],[-1.112189,54.396535],[-1.112244,54.396473],[-1.112276,54.396395],[-1.112314,54.396332],[-1.112357,54.396283],[-1.112406,54.39625],[-1.112461,54.396231],[-1.112518,54.396224],[-1.112577,54.396227],[-1.112639,54.396241],[-1.112702,54.396267],[-1.112765,54.396274],[-1.112827,54.396264],[-1.112888,54.396235],[-1.112949,54.396189],[-1.112991,54.396169],[-1.113016,54.396174],[-1.113023,54.396206],[-1.113012,54.396263],[-1.113069,54.396302],[-1.113194,54.396322],[-1.113388,54.396325],[-1.11365,54.396309],[-1.113838,54.396287],[-1.113951,54.396259],[-1.113991,54.396225],[-1.113957,54.396186],[-1.113919,54.396146],[-1.113876,54.396105],[-1.11383,54.396064],[-1.113778,54.396022],[-1.113724,54.395987],[-1.113666,54.395958],[-1.113605,54.395936],[-1.113541,54.395921],[-1.113492,54.395899],[-1.113458,54.39587],[-1.113438,54.395834],[-1.113433,54.395792],[-1.113401,54.395761],[-1.113343,54.39574],[-1.113257,54.39573],[-1.113144,54.39573],[-1.113033,54.395715],[-1.112925,54.395683],[-1.112818,54.395635],[-1.112715,54.395571],[-1.11259,54.39552],[-1.112445,54.395483],[-1.11228,54.395459],[-1.112094,54.395449],[-1.111941,54.395446],[-1.111819,54.39545],[-1.111729,54.395461],[-1.111671,54.39548],[-1.111601,54.395493],[-1.111519,54.395499],[-1.111426,54.395499],[-1.111322,54.395493],[-1.111229,54.395511],[-1.111149,54.395552],[-1.111081,54.395617],[-1.111025,54.395705],[-1.110984,54.395784],[-1.110958,54.395854],[-1.110947,54.395915],[-1.110951,54.395967],[-1.110936,54.396002],[-1.1109,54.39602],[-1.110846,54.39602],[-1.110771,54.396004],[-1.11069,54.395997],[-1.1106,54.395999],[-1.110504,54.396011],[-1.1104,54.396032],[-1.110312,54.396075],[-1.11024,54.396142],[-1.110184,54.396231],[-1.110145,54.396343],[-1.110122,54.396433],[-1.110117,54.3965],[-1.11013,54.396545],[-1.110159,54.396567],[-1.110181,54.396599],[-1.110195,54.39664],[-1.110202,54.396691],[-1.110202,54.396751]]]}}