{"type":"Feature","properties":{"id":"561570","COMMUNE":"Badenoch and Strathspey","PROVINCE":"Inverness & Nairn and Moray, Badenoch & Strathspey","COUNTRY":"UK","FIREDATE":"2026-07-15 11:47:00","FINALDATE":"2026-07-27 03:53:00","CLASS":"30DAYS","areaHA_geo":3347.213},"geometry":{"type":"Polygon","coordinates":[[[-3.592699,57.15161],[-3.592073,57.151646],[-3.590938,57.15168],[-3.589884,57.151508],[-3.589842,57.151498],[-3.589846,57.15178],[-3.589554,57.151767],[-3.589249,57.151779],[-3.58916,57.151739],[-3.588678,57.151563],[-3.588105,57.151496],[-3.587568,57.151524],[-3.58704,57.151579],[-3.586513,57.151634],[-3.585985,57.151689],[-3.585473,57.151785],[-3.584985,57.151949],[-3.584463,57.152018],[-3.583926,57.151975],[-3.583449,57.151813],[-3.582937,57.151697],[-3.582399,57.151725],[-3.582067,57.151957],[-3.582413,57.15219],[-3.582925,57.152306],[-3.583432,57.152408],[-3.583814,57.152666],[-3.583517,57.152923],[-3.583727,57.153064],[-3.583863,57.153155],[-3.5844,57.153127],[-3.584918,57.153045],[-3.585421,57.152922],[-3.585923,57.152799],[-3.58639,57.152651],[-3.586948,57.152607],[-3.587491,57.152592],[-3.58752,57.152886],[-3.587078,57.153102],[-3.58663,57.153304],[-3.586173,57.153479],[-3.58571,57.153641],[-3.585243,57.153789],[-3.58474,57.153912],[-3.584343,57.154109],[-3.584016,57.154355],[-3.583519,57.154492],[-3.582991,57.154547],[-3.582474,57.15463],[-3.582303,57.154647],[-3.581946,57.154685],[-3.581418,57.15474],[-3.580891,57.154795],[-3.580378,57.154891],[-3.579881,57.155028],[-3.579383,57.155165],[-3.578921,57.155326],[-3.578753,57.155402],[-3.578473,57.155528],[-3.578111,57.15575],[-3.577649,57.155911],[-3.577146,57.156035],[-3.576638,57.156144],[-3.576111,57.156199],[-3.575553,57.156243],[-3.575,57.156301],[-3.574448,57.156359],[-3.573925,57.156427],[-3.573368,57.156401],[-3.573345,57.156395],[-3.572003,57.156769],[-3.570588,57.15738],[-3.569167,57.157776],[-3.568947,57.158125],[-3.568098,57.158214],[-3.567947,57.158218],[-3.567184,57.158241],[-3.566295,57.15822],[-3.565454,57.158103],[-3.565113,57.158548],[-3.565816,57.158861],[-3.566681,57.158816],[-3.567295,57.158865],[-3.567102,57.159199],[-3.567004,57.159238],[-3.566469,57.159612],[-3.567261,57.159826],[-3.568086,57.159671],[-3.56838,57.159578],[-3.568716,57.159662],[-3.570432,57.159482],[-3.572067,57.15908],[-3.574278,57.158695],[-3.575967,57.158441],[-3.577738,57.158024],[-3.579496,57.157763],[-3.580537,57.157533],[-3.580454,57.157674],[-3.580663,57.15813],[-3.581544,57.158129],[-3.582079,57.157755],[-3.582767,57.157455],[-3.583584,57.157279],[-3.584473,57.157186],[-3.585395,57.157181],[-3.586212,57.157004],[-3.58668,57.156626],[-3.588214,57.156466],[-3.588996,57.156522],[-3.589971,57.156591],[-3.590156,57.156627],[-3.590417,57.156564],[-3.59121,57.156322],[-3.591995,57.156058],[-3.592787,57.155816],[-3.593636,57.155955],[-3.594266,57.156298],[-3.594354,57.156767],[-3.594564,57.157223],[-3.594401,57.157695],[-3.594024,57.157926],[-3.593819,57.158052],[-3.593675,57.158129],[-3.593187,57.158391],[-3.592338,57.15848],[-3.591463,57.158444],[-3.5914,57.158442],[-3.590519,57.158443],[-3.589662,57.15851],[-3.588805,57.158576],[-3.587931,57.158713],[-3.5873,57.159052],[-3.587995,57.159344],[-3.588705,57.159679],[-3.589336,57.160023],[-3.58953,57.160023],[-3.590217,57.160022],[-3.591123,57.159973],[-3.592093,57.159985],[-3.592222,57.160449],[-3.591405,57.160626],[-3.591253,57.160667],[-3.592036,57.16105],[-3.592048,57.162053],[-3.592152,57.162532],[-3.59189,57.162759],[-3.591717,57.163073],[-3.591889,57.163382],[-3.592342,57.1636],[-3.592918,57.16368],[-3.593466,57.163841],[-3.593986,57.164005],[-3.594562,57.164085],[-3.59515,57.163961],[-3.595366,57.163908],[-3.595367,57.163908],[-3.596959,57.16436],[-3.597563,57.164727],[-3.59794,57.164745],[-3.598532,57.16487],[-3.598936,57.165108],[-3.599218,57.165406],[-3.599555,57.165698],[-3.599871,57.166008],[-3.600225,57.166267],[-3.600789,57.166395],[-3.601404,57.166424],[-3.601986,57.166363],[-3.602579,57.166254],[-3.603271,57.166104],[-3.603847,57.166028],[-3.604429,57.165967],[-3.605066,57.165978],[-3.605498,57.165746],[-3.605354,57.165434],[-3.605239,57.165119],[-3.605411,57.164804],[-3.605777,57.164548],[-3.605688,57.16423],[-3.605595,57.163897],[-3.605617,57.163567],[-3.605978,57.163296],[-3.606454,57.163106],[-3.607008,57.16297],[-3.607058,57.162637],[-3.606943,57.162322],[-3.60691,57.161998],[-3.607491,57.161937],[-3.608189,57.162036],[-3.608798,57.162128],[-3.609357,57.162241],[-3.609667,57.162535],[-3.609971,57.162815],[-3.610309,57.163107],[-3.610663,57.163366],[-3.611072,57.16362],[-3.611354,57.163917],[-3.611476,57.164247],[-3.611592,57.164563],[-3.611763,57.164872],[-3.612023,57.165188],[-3.612305,57.165485],[-3.612659,57.165744],[-3.613013,57.166003],[-3.613345,57.16628],[-3.61365,57.16656],[-3.614054,57.166876],[-3.614358,57.167156],[-3.61469,57.167433],[-3.614778,57.167751],[-3.614641,57.167914],[-3.614815,57.168035],[-3.615834,57.168515],[-3.615488,57.169147],[-3.615602,57.169455],[-3.616164,57.169787],[-3.616812,57.170131],[-3.617343,57.170488],[-3.617906,57.170819],[-3.618329,57.171209],[-3.61853,57.171643],[-3.619061,57.172],[-3.619261,57.172435],[-3.619307,57.172885],[-3.619314,57.17334],[-3.619322,57.173795],[-3.618913,57.174207],[-3.618072,57.174208],[-3.617239,57.17423],[-3.616352,57.174215],[-3.615473,57.17422],[-3.61481,57.173942],[-3.61414,57.173644],[-3.613508,57.173341],[-3.613076,57.17293],[-3.612606,57.172524],[-3.612451,57.172284],[-3.611925,57.172119],[-3.610721,57.171952],[-3.609516,57.171785],[-3.608276,57.171686],[-3.606979,57.171757],[-3.60567,57.171633],[-3.604442,57.171403],[-3.603214,57.171499],[-3.601974,57.1714],[-3.600631,57.171182],[-3.599403,57.170952],[-3.598163,57.170854],[-3.596831,57.17083],[-3.595487,57.170775],[-3.594283,57.170608],[-3.594135,57.170578],[-3.593942,57.170664],[-3.592527,57.171233],[-3.591003,57.171698],[-3.58929,57.171839],[-3.58755,57.171906],[-3.585741,57.171981],[-3.583878,57.171907],[-3.582138,57.171783],[-3.580398,57.171659],[-3.578617,57.171615],[-3.576876,57.171874],[-3.575461,57.172442],[-3.574317,57.173174],[-3.573513,57.174061],[-3.572315,57.174836],[-3.571013,57.174804],[-3.570534,57.174793],[-3.568698,57.174793],[-3.567012,57.175007],[-3.565135,57.175279],[-3.56338,57.175309],[-3.561627,57.175148],[-3.560214,57.174569],[-3.559223,57.173792],[-3.557606,57.173425],[-3.556707,57.174246],[-3.55684,57.175188],[-3.55677,57.176152],[-3.55757,57.176986],[-3.559133,57.177397],[-3.560668,57.177926],[-3.561849,57.178644],[-3.562297,57.178936],[-3.560524,57.179477],[-3.558843,57.179615],[-3.55711,57.179796],[-3.55535,57.179904],[-3.553656,57.180005],[-3.551963,57.180107],[-3.55027,57.180208],[-3.549534,57.181035],[-3.550398,57.181882],[-3.550996,57.182758],[-3.55154,57.183676],[-3.552217,57.18458],[-3.553069,57.185391],[-3.554107,57.186146],[-3.555559,57.186707],[-3.557144,57.187067],[-3.55865,57.187585],[-3.559821,57.188325],[-3.560286,57.189214],[-3.558259,57.18935],[-3.556591,57.189524],[-3.554937,57.189734],[-3.553256,57.190059],[-3.551549,57.190124],[-3.549841,57.190377],[-3.548653,57.191101],[-3.54781,57.192014],[-3.547381,57.192921],[-3.547845,57.19381],[-3.548696,57.194621],[-3.549921,57.195319],[-3.550224,57.195353],[-3.550296,57.195687],[-3.551457,57.196794],[-3.553548,57.197343],[-3.555583,57.198],[-3.557328,57.198893],[-3.558762,57.199971],[-3.560671,57.200795],[-3.561941,57.201941],[-3.563194,57.203038],[-3.563919,57.204241],[-3.564371,57.205472],[-3.565005,57.206685],[-3.566331,57.207723],[-3.567401,57.208026],[-3.568441,57.208321],[-3.570095,57.209223],[-3.570264,57.209682],[-3.571421,57.210145],[-3.574948,57.211127],[-3.575014,57.211109],[-3.57562,57.210846],[-3.576127,57.210513],[-3.57674,57.210268],[-3.577482,57.210171],[-3.578081,57.209888],[-3.578509,57.209543],[-3.578887,57.209163],[-3.579152,57.208775],[-3.57953,57.208395],[-3.579908,57.208015],[-3.580571,57.207806],[-3.581284,57.207631],[-3.581577,57.20722],[-3.582218,57.207454],[-3.582545,57.20784],[-3.582117,57.208185],[-3.581653,57.208534],[-3.581545,57.208946],[-3.581359,57.209346],[-3.580675,57.209598],[-3.580119,57.209896],[-3.579697,57.21026],[-3.579433,57.210648],[-3.579005,57.210994],[-3.578491,57.211307],[-3.578603,57.211713],[-3.581258,57.211779],[-3.583572,57.21186],[-3.585293,57.211949],[-3.587129,57.211946],[-3.589081,57.21185],[-3.591597,57.211264],[-3.592504,57.210948],[-3.592566,57.210539],[-3.593115,57.210221],[-3.593678,57.209942],[-3.594284,57.209679],[-3.594926,57.209411],[-3.59544,57.209097],[-3.595704,57.208709],[-3.595847,57.208294],[-3.596068,57.20789],[-3.596496,57.207545],[-3.597053,57.207246],[-3.597523,57.206917],[-3.597481,57.206501],[-3.597368,57.206092],[-3.597361,57.205672],[-3.597359,57.20551],[-3.597355,57.205252],[-3.597206,57.204847],[-3.596508,57.20466],[-3.595802,57.204661],[-3.595731,57.204661],[-3.595005,57.204496],[-3.594328,57.204267],[-3.594144,57.203865],[-3.594757,57.203621],[-3.595519,57.203481],[-3.596303,57.203499],[-3.596915,57.203756],[-3.597405,57.20399],[-3.598686,57.203941],[-3.598757,57.203965],[-3.599299,57.204192],[-3.599734,57.204484],[-3.600226,57.204751],[-3.600774,57.204995],[-3.601323,57.20524],[-3.601796,57.205545],[-3.602148,57.20588],[-3.602564,57.206209],[-3.602949,57.206542],[-3.603333,57.206874],[-3.603894,57.207152],[-3.604487,57.207338],[-3.605168,57.207409],[-3.606039,57.207371],[-3.606701,57.207302],[-3.607244,57.207085],[-3.60751,57.206739],[-3.607775,57.206392],[-3.608078,57.206058],[-3.60876,57.205952],[-3.609106,57.20627],[-3.609251,57.206663],[-3.609661,57.206975],[-3.610304,57.20712],[-3.61096,57.207034],[-3.611661,57.20689],[-3.612267,57.206667],[-3.612797,57.206416],[-3.613207,57.206107],[-3.613781,57.205887],[-3.61445,57.205746],[-3.615106,57.20566],[-3.615763,57.205485],[-3.616444,57.20529],[-3.617088,57.205169],[-3.617775,57.205079],[-3.618419,57.204959],[-3.618754,57.204622],[-3.619019,57.204275],[-3.619379,57.203918],[-3.619903,57.203651],[-3.620401,57.203403],[-3.6209,57.203156],[-3.620986,57.203062],[-3.62204,57.202866],[-3.622039,57.202772],[-3.622031,57.202299],[-3.621862,57.201842],[-3.621533,57.201402],[-3.620867,57.201065],[-3.620498,57.20063],[-3.620369,57.200169],[-3.62,57.199733],[-3.619832,57.199276],[-3.620306,57.198865],[-3.621142,57.198755],[-3.621897,57.198992],[-3.622338,57.199398],[-3.622547,57.19985],[-3.622836,57.200294],[-3.622884,57.200764],[-3.622932,57.201233],[-3.623663,57.201518],[-3.624289,57.201859],[-3.624547,57.202131],[-3.624698,57.202291],[-3.624626,57.202773],[-3.624248,57.203219],[-3.624087,57.203687],[-3.624745,57.204002],[-3.625565,57.203849],[-3.626313,57.203612],[-3.626835,57.203219],[-3.627133,57.202781],[-3.627511,57.202335],[-3.627889,57.201889],[-3.628459,57.201513],[-3.629215,57.201185],[-3.629898,57.200887],[-3.630613,57.200564],[-3.631304,57.200288],[-3.631425,57.199824],[-3.631417,57.19935],[-3.631538,57.198886],[-3.631964,57.198457],[-3.632398,57.19805],[-3.632873,57.197639],[-3.633307,57.197232],[-3.633741,57.196825],[-3.63411,57.196357],[-3.63444,57.195893],[-3.634541,57.195694],[-3.634442,57.195541],[-3.634072,57.195271],[-3.633673,57.195004],[-3.63335,57.194697],[-3.6332,57.194371],[-3.63335,57.194047],[-3.633593,57.193729],[-3.634044,57.193487],[-3.634495,57.193732],[-3.634638,57.193906],[-3.634766,57.194061],[-3.634916,57.194387],[-3.635124,57.194706],[-3.635361,57.195023],[-3.635708,57.195311],[-3.63606,57.195616],[-3.636557,57.195824],[-3.637193,57.195757],[-3.637794,57.195678],[-3.638274,57.195432],[-3.638586,57.19514],[-3.638575,57.194783],[-3.638592,57.194424],[-3.638737,57.194084],[-3.638916,57.193756],[-3.639153,57.193422],[-3.63924,57.193088],[-3.639049,57.192734],[-3.638812,57.192418],[-3.638691,57.192089],[-3.638466,57.191723],[-3.638553,57.191389],[-3.638928,57.191106],[-3.639235,57.190797],[-3.639253,57.190675],[-3.639469,57.190553],[-3.639468,57.190524],[-3.639447,57.190176],[-3.639437,57.189856],[-3.639484,57.189545],[-3.639422,57.189231],[-3.639287,57.188938],[-3.639126,57.188649],[-3.639017,57.188354],[-3.639095,57.188054],[-3.639287,57.187772],[-3.639422,57.187481],[-3.639365,57.18718],[-3.639256,57.186886],[-3.639334,57.186586],[-3.639303,57.186283],[-3.639298,57.185977],[-3.639345,57.185666],[-3.639464,57.185333],[-3.639568,57.18503],[-3.639672,57.184728],[-3.639833,57.184434],[-3.639854,57.184125],[-3.639522,57.183883],[-3.639237,57.183621],[-3.639771,57.183536],[-3.640367,57.183546],[-3.640963,57.183557],[-3.641539,57.183584],[-3.641678,57.183595],[-3.641921,57.183324],[-3.643001,57.183022],[-3.644076,57.182775],[-3.644341,57.182727],[-3.644881,57.182815],[-3.645683,57.182561],[-3.646416,57.182242],[-3.647158,57.181946],[-3.647778,57.181565],[-3.648468,57.181129],[-3.649253,57.180707],[-3.649813,57.180285],[-3.650227,57.179829],[-3.650641,57.179373],[-3.650865,57.178889],[-3.651038,57.178385],[-3.6514,57.177911],[-3.651805,57.177432],[-3.652202,57.176929],[-3.652564,57.176455],[-3.653021,57.175994],[-3.653417,57.175492],[-3.653771,57.174994],[-3.654038,57.174505],[-3.65421,57.174002],[-3.654478,57.173513],[-3.654797,57.173043],[-3.655538,57.172747],[-3.655943,57.172268],[-3.656202,57.171755],[-3.656503,57.171238],[-3.656581,57.170721],[-3.656064,57.17029],[-3.655185,57.170092],[-3.654656,57.170006],[-3.654846,57.169757],[-3.6552,57.169349],[-3.655415,57.168955],[-3.65563,57.168561],[-3.656393,57.168384],[-3.657101,57.168251],[-3.657815,57.168137],[-3.658474,57.167872],[-3.658974,57.167566],[-3.65939,57.167229],[-3.659806,57.166795],[-3.660424,57.166515],[-3.661069,57.166311],[-3.661693,57.16605],[-3.662234,57.165759],[-3.662678,57.1654],[-3.663191,57.165034],[-3.663517,57.164648],[-3.663774,57.16427],[-3.663836,57.163853],[-3.663975,57.163448],[-3.664224,57.163051],[-3.664183,57.162645],[-3.663787,57.162257],[-3.663468,57.161881],[-3.663107,57.161489],[-3.66274,57.161079],[-3.662545,57.16065],[-3.6624,57.160256],[-3.662358,57.15985],[-3.661949,57.159424],[-3.66185,57.159377],[-3.662685,57.15929],[-3.664156,57.159135],[-3.665626,57.15898],[-3.666732,57.158431],[-3.666942,57.15762],[-3.667068,57.156779],[-3.666774,57.155982],[-3.665625,57.155433],[-3.664477,57.154883],[-3.663623,57.154145],[-3.662908,57.153393],[-3.66176,57.152843],[-3.660892,57.152527],[-3.660703,57.152276],[-3.660621,57.152207],[-3.660426,57.152044],[-3.660393,57.151761],[-3.660412,57.151486],[-3.660384,57.151215],[-3.660902,57.151187],[-3.661356,57.151308],[-3.661701,57.151453],[-3.662418,57.151276],[-3.662334,57.150457],[-3.661942,57.149592],[-3.660374,57.149481],[-3.658918,57.149673],[-3.658333,57.149889],[-3.658248,57.149442],[-3.658066,57.148948],[-3.657831,57.148436],[-3.657424,57.147942],[-3.657017,57.147448],[-3.656531,57.146986],[-3.656055,57.146548],[-3.655422,57.146175],[-3.654746,57.145807],[-3.654191,57.145402],[-3.653628,57.144973],[-3.652917,57.144632],[-3.652163,57.144297],[-3.651296,57.1439],[-3.650664,57.143527],[-3.650031,57.143154],[-3.649399,57.142781],[-3.648688,57.142441],[-3.647804,57.142729],[-3.647076,57.143074],[-3.64633,57.143372],[-3.645524,57.143627],[-3.644623,57.143869],[-3.643712,57.143964],[-3.642759,57.143942],[-3.64184,57.14377],[-3.640896,57.143528],[-3.639951,57.143407],[-3.63898,57.143338],[-3.638053,57.143387],[-3.636892,57.143533],[-3.635886,57.143736],[-3.635019,57.143949],[-3.6341,57.144163],[-3.634278,57.143574],[-3.633699,57.142559],[-3.632923,57.141751],[-3.631883,57.14097],[-3.630738,57.140274],[-3.629171,57.13992],[-3.627473,57.139764],[-3.6258,57.139865],[-3.624154,57.140038],[-3.622838,57.139434],[-3.622444,57.138549],[-3.621918,57.137677],[-3.621011,57.136882],[-3.619537,57.136407],[-3.617772,57.136443],[-3.615903,57.13638],[-3.614126,57.136195],[-3.613227,57.136131],[-3.613154,57.135932],[-3.613007,57.135256],[-3.612861,57.134579],[-3.613068,57.133893],[-3.613433,57.133218],[-3.613856,57.132564],[-3.614221,57.131889],[-3.614271,57.131192],[-3.614478,57.130505],[-3.614577,57.129803],[-3.614627,57.129105],[-3.61453,57.128423],[-3.614334,57.127752],[-3.614138,57.12708],[-3.613795,57.126424],[-3.612566,57.126553],[-3.611239,57.126553],[-3.610011,57.126405],[-3.608822,57.126641],[-3.607867,57.127101],[-3.6071,57.127652],[-3.607463,57.128361],[-3.606695,57.128912],[-3.606055,57.129533],[-3.606399,57.130189],[-3.605916,57.130821],[-3.604883,57.131206],[-3.605561,57.1318],[-3.606327,57.132356],[-3.60667,57.133012],[-3.606914,57.133679],[-3.606648,57.134344],[-3.606008,57.134964],[-3.604867,57.135333],[-3.6041,57.135884],[-3.604502,57.136562],[-3.605042,57.137197],[-3.605434,57.137849],[-3.606105,57.138065],[-3.606145,57.138106],[-3.606986,57.138908],[-3.606708,57.139827],[-3.607036,57.14072],[-3.60743,57.141605],[-3.605797,57.141813],[-3.60427,57.14138],[-3.602572,57.141224],[-3.600847,57.141368],[-3.599214,57.141576],[-3.597567,57.141748],[-3.596079,57.142163],[-3.596472,57.143049],[-3.597841,57.14361],[-3.599407,57.143965],[-3.599826,57.144093],[-3.600947,57.144435],[-3.601855,57.145229],[-3.601708,57.146135],[-3.600588,57.146808],[-3.600086,57.147676],[-3.600151,57.148596],[-3.600479,57.149489],[-3.600806,57.150382],[-3.601068,57.151281],[-3.599593,57.151732],[-3.597867,57.15169],[-3.596181,57.151755],[-3.594482,57.151599],[-3.592783,57.151629],[-3.592699,57.15161]]]}}