{"type":"Feature","properties":{"id":"561637","COMMUNE":"High Peak","PROVINCE":"South and West Derbyshire","COUNTRY":"UK","FIREDATE":"2026-07-12 01:09:00","CLASS":"30DAYS","areaHA_geo":654.287},"geometry":{"type":"Polygon","coordinates":[[[-1.967444,53.50642],[-1.967491,53.506442],[-1.967593,53.506436],[-1.967725,53.506391],[-1.967886,53.506307],[-1.968014,53.506235],[-1.968107,53.506175],[-1.968167,53.506127],[-1.968192,53.506091],[-1.968269,53.506046],[-1.968396,53.505993],[-1.968575,53.505932],[-1.968805,53.505863],[-1.96901,53.505795],[-1.969191,53.505728],[-1.969347,53.505663],[-1.969479,53.505599],[-1.969605,53.505553],[-1.969726,53.505527],[-1.969841,53.505518],[-1.969951,53.505529],[-1.970121,53.505506],[-1.970352,53.505452],[-1.970643,53.505365],[-1.970994,53.505245],[-1.97121,53.505135],[-1.971292,53.505033],[-1.971239,53.504941],[-1.971052,53.504858],[-1.970958,53.504767],[-1.970958,53.504667],[-1.971053,53.50456],[-1.971241,53.504443],[-1.971412,53.504324],[-1.971566,53.5042],[-1.971703,53.504074],[-1.971823,53.503943],[-1.97192,53.503802],[-1.971995,53.503651],[-1.972047,53.503489],[-1.972076,53.503316],[-1.972126,53.503134],[-1.972196,53.50294],[-1.972286,53.502737],[-1.972396,53.502522],[-1.972498,53.50237],[-1.97259,53.502281],[-1.972673,53.502253],[-1.972747,53.502288],[-1.972816,53.502292],[-1.97288,53.502265],[-1.972938,53.502206],[-1.972991,53.502116],[-1.973026,53.502009],[-1.973044,53.501884],[-1.973045,53.501742],[-1.973028,53.501583],[-1.972991,53.501456],[-1.972932,53.501363],[-1.972852,53.501302],[-1.972752,53.501274],[-1.972674,53.501227],[-1.97262,53.501163],[-1.97259,53.50108],[-1.972583,53.500979],[-1.972622,53.500879],[-1.972708,53.500779],[-1.97284,53.50068],[-1.973019,53.500582],[-1.973167,53.500526],[-1.973285,53.500512],[-1.973371,53.500541],[-1.973427,53.500611],[-1.97349,53.500646],[-1.973561,53.500646],[-1.97364,53.500609],[-1.973727,53.500537],[-1.973783,53.500453],[-1.973809,53.500358],[-1.973805,53.50025],[-1.973772,53.50013],[-1.973772,53.500033],[-1.973808,53.499957],[-1.973878,53.499904],[-1.973984,53.499872],[-1.974074,53.499859],[-1.974151,53.499864],[-1.974213,53.499888],[-1.97426,53.499929],[-1.974326,53.499956],[-1.974411,53.499966],[-1.974515,53.499961],[-1.974638,53.499941],[-1.97478,53.499927],[-1.974942,53.499919],[-1.975123,53.499918],[-1.975324,53.499923],[-1.975516,53.499925],[-1.975697,53.499924],[-1.975869,53.49992],[-1.976031,53.499912],[-1.976195,53.499899],[-1.976361,53.499881],[-1.976528,53.499857],[-1.976698,53.499827],[-1.976852,53.499798],[-1.97699,53.499769],[-1.977112,53.499741],[-1.977219,53.499714],[-1.977348,53.499699],[-1.977501,53.499696],[-1.977677,53.499707],[-1.977876,53.499729],[-1.978089,53.499766],[-1.978318,53.499818],[-1.978561,53.499883],[-1.978819,53.499964],[-1.979041,53.500023],[-1.979227,53.500062],[-1.979376,53.50008],[-1.97949,53.500077],[-1.979661,53.500083],[-1.97989,53.500099],[-1.980177,53.500123],[-1.980521,53.500157],[-1.980785,53.500174],[-1.980967,53.500175],[-1.981068,53.500159],[-1.981087,53.500128],[-1.981132,53.500103],[-1.981202,53.500086],[-1.981297,53.500075],[-1.981417,53.500072],[-1.981529,53.500057],[-1.981631,53.500029],[-1.981726,53.49999],[-1.981811,53.49994],[-1.981897,53.499909],[-1.981983,53.499898],[-1.982069,53.499907],[-1.982156,53.499937],[-1.982265,53.499956],[-1.982395,53.499964],[-1.982548,53.499962],[-1.982723,53.499948],[-1.982878,53.499944],[-1.983015,53.499947],[-1.983132,53.499959],[-1.98323,53.499978],[-1.98332,53.499967],[-1.983401,53.499925],[-1.983473,53.499853],[-1.983536,53.499749],[-1.983553,53.499666],[-1.983525,53.499603],[-1.98345,53.499561],[-1.98333,53.499539],[-1.983233,53.499511],[-1.98316,53.499478],[-1.983109,53.49944],[-1.983083,53.499396],[-1.983085,53.499334],[-1.983116,53.499255],[-1.983176,53.499158],[-1.983264,53.499043],[-1.983289,53.49895],[-1.983251,53.498877],[-1.983149,53.498826],[-1.982984,53.498796],[-1.982833,53.498775],[-1.982698,53.498763],[-1.982578,53.49876],[-1.982473,53.498766],[-1.9824,53.498742],[-1.982359,53.498686],[-1.982351,53.4986],[-1.982374,53.498484],[-1.982357,53.498403],[-1.982298,53.498358],[-1.982197,53.498349],[-1.982055,53.498376],[-1.981932,53.498384],[-1.98183,53.498373],[-1.981746,53.498343],[-1.981682,53.498294],[-1.981607,53.498261],[-1.98152,53.498245],[-1.981422,53.498244],[-1.981312,53.498259],[-1.981204,53.498286],[-1.981097,53.498324],[-1.980992,53.498373],[-1.980888,53.498434],[-1.980786,53.498483],[-1.980685,53.498518],[-1.980587,53.498541],[-1.98049,53.49855],[-1.980429,53.498544],[-1.980404,53.498521],[-1.980416,53.498481],[-1.980465,53.498426],[-1.980512,53.498378],[-1.980557,53.498337],[-1.980601,53.498304],[-1.980644,53.498279],[-1.980703,53.498246],[-1.980777,53.498207],[-1.980868,53.498161],[-1.980974,53.498108],[-1.981064,53.498051],[-1.981139,53.497988],[-1.981199,53.497921],[-1.981242,53.497849],[-1.98134,53.497784],[-1.981491,53.497727],[-1.981696,53.497677],[-1.981955,53.497634],[-1.982156,53.497589],[-1.9823,53.497543],[-1.982386,53.497496],[-1.982415,53.497446],[-1.982472,53.497395],[-1.982557,53.497342],[-1.982669,53.497288],[-1.98281,53.497231],[-1.982971,53.497177],[-1.983153,53.497125],[-1.983354,53.497075],[-1.983576,53.497028],[-1.98378,53.49698],[-1.983966,53.496932],[-1.984134,53.496884],[-1.984284,53.496835],[-1.984449,53.496787],[-1.984628,53.496739],[-1.984821,53.496692],[-1.985029,53.496646],[-1.985195,53.496613],[-1.985317,53.496592],[-1.985397,53.496584],[-1.985434,53.496589],[-1.985476,53.496588],[-1.985524,53.496581],[-1.985578,53.496569],[-1.985637,53.49655],[-1.985701,53.496539],[-1.985772,53.496537],[-1.985848,53.496542],[-1.98593,53.496555],[-1.986003,53.496554],[-1.986067,53.496539],[-1.986121,53.49651],[-1.986166,53.496468],[-1.986232,53.496437],[-1.986319,53.496417],[-1.986428,53.49641],[-1.986557,53.496414],[-1.986667,53.496406],[-1.986758,53.496387],[-1.986829,53.496355],[-1.986881,53.496312],[-1.986951,53.496274],[-1.987038,53.496242],[-1.987143,53.496216],[-1.987265,53.496195],[-1.987372,53.49617],[-1.987463,53.49614],[-1.987539,53.496105],[-1.987599,53.496065],[-1.987678,53.496037],[-1.987777,53.496021],[-1.987895,53.496016],[-1.988033,53.496024],[-1.988162,53.496019],[-1.988282,53.496003],[-1.988393,53.495975],[-1.988496,53.495935],[-1.988575,53.495887],[-1.98863,53.495831],[-1.988662,53.495766],[-1.98867,53.495694],[-1.988728,53.495608],[-1.988835,53.495511],[-1.988993,53.495401],[-1.989201,53.495279],[-1.989388,53.49516],[-1.989556,53.495046],[-1.989703,53.494936],[-1.989829,53.494831],[-1.989979,53.494718],[-1.990152,53.494599],[-1.990348,53.494474],[-1.990568,53.494342],[-1.990745,53.494207],[-1.99088,53.494069],[-1.990974,53.493927],[-1.991025,53.493782],[-1.991069,53.493653],[-1.991104,53.493539],[-1.991132,53.493441],[-1.991151,53.493359],[-1.99113,53.49329],[-1.991068,53.493235],[-1.990965,53.493193],[-1.990821,53.493165],[-1.990692,53.493154],[-1.990576,53.493162],[-1.990475,53.493187],[-1.990387,53.493229],[-1.990278,53.493265],[-1.990147,53.493295],[-1.989995,53.493319],[-1.989822,53.493336],[-1.989627,53.493366],[-1.989411,53.493409],[-1.989174,53.493464],[-1.988915,53.493532],[-1.988665,53.493604],[-1.988422,53.493679],[-1.988188,53.493757],[-1.987961,53.493839],[-1.987769,53.493904],[-1.987612,53.493951],[-1.987488,53.493981],[-1.987399,53.493994],[-1.987318,53.494015],[-1.987244,53.494044],[-1.987178,53.49408],[-1.987119,53.494124],[-1.987041,53.494163],[-1.986944,53.494198],[-1.986828,53.494229],[-1.986693,53.494255],[-1.986588,53.494284],[-1.986515,53.494314],[-1.986473,53.494347],[-1.986461,53.494382],[-1.986463,53.494414],[-1.986478,53.494442],[-1.986507,53.494466],[-1.986548,53.494488],[-1.986567,53.494521],[-1.986562,53.494566],[-1.986533,53.494623],[-1.986481,53.494691],[-1.986454,53.494751],[-1.986451,53.494802],[-1.986472,53.494845],[-1.986517,53.494878],[-1.986576,53.494904],[-1.986649,53.494922],[-1.986735,53.494933],[-1.986836,53.494936],[-1.986931,53.494949],[-1.98702,53.494974],[-1.987103,53.495011],[-1.987181,53.495058],[-1.987226,53.495103],[-1.987238,53.495147],[-1.987218,53.495188],[-1.987165,53.495227],[-1.987108,53.495254],[-1.987048,53.495268],[-1.986985,53.49527],[-1.986917,53.49526],[-1.986855,53.495246],[-1.986796,53.495229],[-1.986742,53.495208],[-1.986692,53.495183],[-1.986621,53.495156],[-1.986527,53.495127],[-1.986411,53.495096],[-1.986273,53.495064],[-1.986149,53.495027],[-1.986038,53.494987],[-1.98594,53.494944],[-1.985856,53.494898],[-1.98577,53.494861],[-1.985684,53.494833],[-1.985597,53.494815],[-1.985509,53.494807],[-1.985417,53.494798],[-1.985322,53.494789],[-1.985223,53.494778],[-1.98512,53.494767],[-1.985,53.494758],[-1.984862,53.494751],[-1.984707,53.494745],[-1.984535,53.494741],[-1.984389,53.494737],[-1.984271,53.494734],[-1.984179,53.494732],[-1.984114,53.49473],[-1.984019,53.494744],[-1.983892,53.494776],[-1.983735,53.494825],[-1.983547,53.49489],[-1.983403,53.49495],[-1.983305,53.495004],[-1.983251,53.495053],[-1.983242,53.495096],[-1.983209,53.495131],[-1.983152,53.495158],[-1.983072,53.495176],[-1.982968,53.495187],[-1.982868,53.495187],[-1.982773,53.495178],[-1.982682,53.495158],[-1.982595,53.495129],[-1.982524,53.495117],[-1.982468,53.495122],[-1.982428,53.495145],[-1.982404,53.495186],[-1.98235,53.495214],[-1.982266,53.495231],[-1.982151,53.495236],[-1.982007,53.495229],[-1.98189,53.495239],[-1.981801,53.495265],[-1.98174,53.495307],[-1.981707,53.495365],[-1.981665,53.495412],[-1.981614,53.495446],[-1.981554,53.495469],[-1.981486,53.49548],[-1.981391,53.495495],[-1.981267,53.495514],[-1.981117,53.495536],[-1.980939,53.495562],[-1.980784,53.495576],[-1.980653,53.495579],[-1.980545,53.495569],[-1.980461,53.495548],[-1.980393,53.495518],[-1.980343,53.495478],[-1.98031,53.49543],[-1.980293,53.495372],[-1.9803,53.495327],[-1.98033,53.495294],[-1.980383,53.495274],[-1.980459,53.495267],[-1.980544,53.495252],[-1.980638,53.49523],[-1.98074,53.495201],[-1.980851,53.495164],[-1.980968,53.495131],[-1.981092,53.495102],[-1.981222,53.495077],[-1.981358,53.495054],[-1.981428,53.495025],[-1.981432,53.494989],[-1.98137,53.494945],[-1.981241,53.494895],[-1.981163,53.494845],[-1.981135,53.494797],[-1.981158,53.49475],[-1.98123,53.494705],[-1.981291,53.494656],[-1.98134,53.494602],[-1.981377,53.494544],[-1.981403,53.494483],[-1.981458,53.494432],[-1.981542,53.494391],[-1.981657,53.494362],[-1.981802,53.494343],[-1.981901,53.494317],[-1.981955,53.494281],[-1.981964,53.494238],[-1.981928,53.494187],[-1.981861,53.494149],[-1.981761,53.494125],[-1.98163,53.494115],[-1.981467,53.494118],[-1.981301,53.494133],[-1.981134,53.494158],[-1.980964,53.494194],[-1.980792,53.49424],[-1.980643,53.494306],[-1.980517,53.494391],[-1.980415,53.494494],[-1.980335,53.494616],[-1.980241,53.494705],[-1.980132,53.49476],[-1.980008,53.494782],[-1.979869,53.49477],[-1.979741,53.494784],[-1.979624,53.494823],[-1.979518,53.494888],[-1.979422,53.494978],[-1.979351,53.495061],[-1.979305,53.495138],[-1.979284,53.495208],[-1.979288,53.495271],[-1.979269,53.495326],[-1.979229,53.495372],[-1.979167,53.49541],[-1.979082,53.495439],[-1.979015,53.495517],[-1.978965,53.495643],[-1.978933,53.495816],[-1.978917,53.496038],[-1.978856,53.496217],[-1.978748,53.496353],[-1.978594,53.496445],[-1.978394,53.496495],[-1.97824,53.496496],[-1.97813,53.49645],[-1.978066,53.496356],[-1.978047,53.496214],[-1.977967,53.496107],[-1.977826,53.496037],[-1.977623,53.496002],[-1.97736,53.496002],[-1.977154,53.495986],[-1.977005,53.495952],[-1.976914,53.495901],[-1.97688,53.495832],[-1.976829,53.495784],[-1.976761,53.495757],[-1.976675,53.495751],[-1.976572,53.495765],[-1.976464,53.495759],[-1.976349,53.495732],[-1.976229,53.495685],[-1.976103,53.495617],[-1.976015,53.495559],[-1.975966,53.495511],[-1.975955,53.495473],[-1.975982,53.495445],[-1.976039,53.495431],[-1.976125,53.495431],[-1.976239,53.495445],[-1.976382,53.495473],[-1.976505,53.495483],[-1.976606,53.495475],[-1.976686,53.495449],[-1.976745,53.495405],[-1.976723,53.49536],[-1.976621,53.495316],[-1.976439,53.49527],[-1.976176,53.495224],[-1.97595,53.495204],[-1.975759,53.495211],[-1.975604,53.495243],[-1.975485,53.495301],[-1.975375,53.495347],[-1.975274,53.495381],[-1.975182,53.495401],[-1.975099,53.49541],[-1.975034,53.495432],[-1.974987,53.495468],[-1.974959,53.495519],[-1.974949,53.495583],[-1.974904,53.495646],[-1.974825,53.495707],[-1.974712,53.495766],[-1.974564,53.495823],[-1.974447,53.495883],[-1.974362,53.495947],[-1.974308,53.496013],[-1.974285,53.496083],[-1.974228,53.496134],[-1.974136,53.496164],[-1.974011,53.496174],[-1.973852,53.496165],[-1.973714,53.49617],[-1.973598,53.49619],[-1.973505,53.496224],[-1.973433,53.496274],[-1.973357,53.496321],[-1.973277,53.496365],[-1.973193,53.496406],[-1.973104,53.496444],[-1.973018,53.496487],[-1.972935,53.496533],[-1.972854,53.496583],[-1.972777,53.496638],[-1.972694,53.496683],[-1.972604,53.496719],[-1.972509,53.496747],[-1.972407,53.496765],[-1.972345,53.496762],[-1.972324,53.496737],[-1.972343,53.496689],[-1.972401,53.49662],[-1.972449,53.496562],[-1.972486,53.496516],[-1.972512,53.496482],[-1.972527,53.496459],[-1.972507,53.496445],[-1.972452,53.49644],[-1.972362,53.496444],[-1.972237,53.496456],[-1.972132,53.49648],[-1.972046,53.496516],[-1.971979,53.496564],[-1.971932,53.496624],[-1.971901,53.496684],[-1.971886,53.496745],[-1.971887,53.496806],[-1.971905,53.496868],[-1.971901,53.496937],[-1.971877,53.497014],[-1.971831,53.497098],[-1.971764,53.497189],[-1.971731,53.497285],[-1.97173,53.497384],[-1.971763,53.497488],[-1.97183,53.497596],[-1.971908,53.497695],[-1.971998,53.497786],[-1.972099,53.497868],[-1.972213,53.497941],[-1.972301,53.498026],[-1.972365,53.498124],[-1.972403,53.498233],[-1.972416,53.498355],[-1.972441,53.498457],[-1.972479,53.49854],[-1.972529,53.498604],[-1.972592,53.498649],[-1.972629,53.498704],[-1.972641,53.498771],[-1.972627,53.498849],[-1.972588,53.498937],[-1.972544,53.499003],[-1.972496,53.499046],[-1.972443,53.499066],[-1.972385,53.499063],[-1.972324,53.499042],[-1.972259,53.499002],[-1.97219,53.498943],[-1.972118,53.498865],[-1.972067,53.49879],[-1.972035,53.498717],[-1.972024,53.498646],[-1.972033,53.498577],[-1.972037,53.498508],[-1.972035,53.498438],[-1.972027,53.498368],[-1.972014,53.498297],[-1.971983,53.498232],[-1.971934,53.498171],[-1.971866,53.498115],[-1.971781,53.498064],[-1.971696,53.498023],[-1.971612,53.497991],[-1.971529,53.497969],[-1.971447,53.497956],[-1.97137,53.497962],[-1.971299,53.497988],[-1.971234,53.498034],[-1.971174,53.498099],[-1.971118,53.498148],[-1.971067,53.498181],[-1.97102,53.498197],[-1.970977,53.498197],[-1.970948,53.498184],[-1.970934,53.498158],[-1.970933,53.498119],[-1.970947,53.498067],[-1.970963,53.498016],[-1.970982,53.497968],[-1.971002,53.497921],[-1.971025,53.497877],[-1.971051,53.49783],[-1.97108,53.49778],[-1.971111,53.497728],[-1.971146,53.497674],[-1.971165,53.497617],[-1.97117,53.497557],[-1.971159,53.497495],[-1.971134,53.49743],[-1.97111,53.49736],[-1.971089,53.497286],[-1.971071,53.497207],[-1.971054,53.497124],[-1.971044,53.497043],[-1.971039,53.496963],[-1.97104,53.496884],[-1.971046,53.496807],[-1.971052,53.496741],[-1.971058,53.496686],[-1.971063,53.496641],[-1.971068,53.496606],[-1.971084,53.496577],[-1.971113,53.496553],[-1.971154,53.496534],[-1.971207,53.49652],[-1.971226,53.496473],[-1.97121,53.496392],[-1.97116,53.496277],[-1.971075,53.496129],[-1.970987,53.496002],[-1.970897,53.495897],[-1.970803,53.495813],[-1.970707,53.49575],[-1.970627,53.495675],[-1.970563,53.495586],[-1.970514,53.495484],[-1.970481,53.495368],[-1.970438,53.495266],[-1.970384,53.495176],[-1.970319,53.495099],[-1.970244,53.495034],[-1.970205,53.494966],[-1.970203,53.494894],[-1.970236,53.494819],[-1.970307,53.49474],[-1.970372,53.494668],[-1.970432,53.494603],[-1.970486,53.494544],[-1.970536,53.494493],[-1.970515,53.494457],[-1.970424,53.494436],[-1.970262,53.494431],[-1.970029,53.494441],[-1.969839,53.494435],[-1.96969,53.494412],[-1.969582,53.494371],[-1.969516,53.494314],[-1.969489,53.494276],[-1.969501,53.494256],[-1.969552,53.494254],[-1.969642,53.49427],[-1.969713,53.494267],[-1.969764,53.494245],[-1.969795,53.494204],[-1.969806,53.494144],[-1.969848,53.494082],[-1.969919,53.49402],[-1.970021,53.493957],[-1.970152,53.493893],[-1.970209,53.493842],[-1.970191,53.493804],[-1.970098,53.493778],[-1.96993,53.493765],[-1.969761,53.493777],[-1.969589,53.493813],[-1.969416,53.493873],[-1.96924,53.493958],[-1.969113,53.494002],[-1.969035,53.494003],[-1.969006,53.493963],[-1.969026,53.49388],[-1.969004,53.493824],[-1.968942,53.493794],[-1.96884,53.493791],[-1.968696,53.493813],[-1.968572,53.493846],[-1.968466,53.493888],[-1.968379,53.49394],[-1.968311,53.494002],[-1.968208,53.494064],[-1.968069,53.494127],[-1.967894,53.49419],[-1.967684,53.494253],[-1.967531,53.494309],[-1.967434,53.494359],[-1.967395,53.494402],[-1.967412,53.494439],[-1.967371,53.494483],[-1.967272,53.494535],[-1.967114,53.494595],[-1.966898,53.494663],[-1.966685,53.494729],[-1.966475,53.494792],[-1.966268,53.494853],[-1.966063,53.494911],[-1.965923,53.494932],[-1.965846,53.494914],[-1.965834,53.494858],[-1.965886,53.494764],[-1.965887,53.494693],[-1.965838,53.494645],[-1.965738,53.49462],[-1.965588,53.494618],[-1.965481,53.494601],[-1.965419,53.494569],[-1.9654,53.494522],[-1.965425,53.49446],[-1.965357,53.494432],[-1.965194,53.494437],[-1.964938,53.494477],[-1.964588,53.494549],[-1.96431,53.494592],[-1.964103,53.494604],[-1.963967,53.494586],[-1.963904,53.494537],[-1.96384,53.494501],[-1.963776,53.494478],[-1.963713,53.494467],[-1.963649,53.494469],[-1.963613,53.494455],[-1.963604,53.494424],[-1.963623,53.494376],[-1.963669,53.494312],[-1.963726,53.494257],[-1.963795,53.49421],[-1.963875,53.494171],[-1.963966,53.494141],[-1.964103,53.494107],[-1.964285,53.49407],[-1.964512,53.49403],[-1.964785,53.493986],[-1.96504,53.493937],[-1.965278,53.493884],[-1.965499,53.493826],[-1.965702,53.493763],[-1.965877,53.493696],[-1.966025,53.493624],[-1.966144,53.493548],[-1.966235,53.493467],[-1.966237,53.493418],[-1.96615,53.493401],[-1.965975,53.493417],[-1.96571,53.493464],[-1.965482,53.493509],[-1.965291,53.493551],[-1.965136,53.493591],[-1.965018,53.493628],[-1.964906,53.493651],[-1.964797,53.493659],[-1.964694,53.493654],[-1.964596,53.493634],[-1.964536,53.493604],[-1.964514,53.493564],[-1.96453,53.493513],[-1.964584,53.493453],[-1.964585,53.493412],[-1.964532,53.493389],[-1.964426,53.493386],[-1.964266,53.493402],[-1.964118,53.493425],[-1.96398,53.493456],[-1.963854,53.493494],[-1.963738,53.493539],[-1.963611,53.493581],[-1.963473,53.49362],[-1.963323,53.493656],[-1.963161,53.493689],[-1.963008,53.493722],[-1.962863,53.493753],[-1.962728,53.493783],[-1.962601,53.493813],[-1.962486,53.493841],[-1.962383,53.493868],[-1.962292,53.493894],[-1.962214,53.493919],[-1.962155,53.493944],[-1.962115,53.493969],[-1.962096,53.493994],[-1.962096,53.49402],[-1.962055,53.494044],[-1.961972,53.494067],[-1.961848,53.494089],[-1.961683,53.494109],[-1.961533,53.49414],[-1.961398,53.494181],[-1.961279,53.494232],[-1.961175,53.494293],[-1.961088,53.494344],[-1.961018,53.494385],[-1.960964,53.494416],[-1.960927,53.494436],[-1.960897,53.494475],[-1.960874,53.494533],[-1.960858,53.494608],[-1.960849,53.494702],[-1.960818,53.494756],[-1.960765,53.49477],[-1.96069,53.494744],[-1.960592,53.494677],[-1.960506,53.494631],[-1.960431,53.494604],[-1.960367,53.494598],[-1.960314,53.494612],[-1.960272,53.494636],[-1.960243,53.49467],[-1.960226,53.494716],[-1.96022,53.494771],[-1.960173,53.494809],[-1.960086,53.494828],[-1.959958,53.494829],[-1.959789,53.494812],[-1.959667,53.494782],[-1.95959,53.494738],[-1.95956,53.494682],[-1.959576,53.494613],[-1.959603,53.494556],[-1.95964,53.494512],[-1.959688,53.494481],[-1.959747,53.494462],[-1.95982,53.494441],[-1.959906,53.494418],[-1.960006,53.494392],[-1.960119,53.494364],[-1.960205,53.494323],[-1.960264,53.494268],[-1.960297,53.4942],[-1.960303,53.494119],[-1.96035,53.494041],[-1.960439,53.493967],[-1.960571,53.493896],[-1.960744,53.493828],[-1.960889,53.493759],[-1.961005,53.493691],[-1.961092,53.493622],[-1.961151,53.493552],[-1.96116,53.493503],[-1.961119,53.493473],[-1.961029,53.493463],[-1.960889,53.493472],[-1.960786,53.493466],[-1.960719,53.493443],[-1.960688,53.493403],[-1.960693,53.493348],[-1.96065,53.493321],[-1.960558,53.493324],[-1.960418,53.493356],[-1.960228,53.493417],[-1.960069,53.493457],[-1.959939,53.493477],[-1.959838,53.493475],[-1.959768,53.493452],[-1.959737,53.493414],[-1.959747,53.49336],[-1.959797,53.493291],[-1.959887,53.493205],[-1.959987,53.49312],[-1.960099,53.493035],[-1.960221,53.49295],[-1.960353,53.492865],[-1.960477,53.492796],[-1.96059,53.492745],[-1.960695,53.49271],[-1.960789,53.492692],[-1.960876,53.492683],[-1.960954,53.492681],[-1.961023,53.492688],[-1.961085,53.492703],[-1.961152,53.492701],[-1.961225,53.492681],[-1.961303,53.492643],[-1.961387,53.492589],[-1.961458,53.492548],[-1.961514,53.492521],[-1.961557,53.492508],[-1.961586,53.49251],[-1.96161,53.492525],[-1.961629,53.492555],[-1.961643,53.492599],[-1.961653,53.492657],[-1.961685,53.492708],[-1.96174,53.492752],[-1.961818,53.492787],[-1.961919,53.492815],[-1.962039,53.492819],[-1.96218,53.492799],[-1.96234,53.492755],[-1.96252,53.492686],[-1.962653,53.492621],[-1.962739,53.492559],[-1.962778,53.492501],[-1.96277,53.492447],[-1.962835,53.492388],[-1.962973,53.492323],[-1.963185,53.492253],[-1.963471,53.492179],[-1.963691,53.492107],[-1.963846,53.492039],[-1.963936,53.491973],[-1.963962,53.491912],[-1.964044,53.491836],[-1.964182,53.491746],[-1.964377,53.491642],[-1.964629,53.491524],[-1.964815,53.491421],[-1.964937,53.491335],[-1.964994,53.491265],[-1.964986,53.491211],[-1.964917,53.491188],[-1.964787,53.491197],[-1.964597,53.491237],[-1.964347,53.491308],[-1.96418,53.491342],[-1.964097,53.491337],[-1.964097,53.491295],[-1.964181,53.491214],[-1.96416,53.491172],[-1.964034,53.491168],[-1.963803,53.491201],[-1.963467,53.491273],[-1.963167,53.491347],[-1.962904,53.491424],[-1.962677,53.491503],[-1.962486,53.491586],[-1.962252,53.491665],[-1.961974,53.491741],[-1.961653,53.491815],[-1.961288,53.491885],[-1.961101,53.491904],[-1.961092,53.491874],[-1.961262,53.491792],[-1.961609,53.49166],[-1.961941,53.491542],[-1.962257,53.491436],[-1.962557,53.491344],[-1.962841,53.491265],[-1.963101,53.491189],[-1.963337,53.491117],[-1.96355,53.491048],[-1.963738,53.490983],[-1.963934,53.490928],[-1.964139,53.490882],[-1.964351,53.490846],[-1.964572,53.49082],[-1.964762,53.490781],[-1.964922,53.490729],[-1.965052,53.490664],[-1.965151,53.490587],[-1.965333,53.490486],[-1.965597,53.490362],[-1.965944,53.490216],[-1.966374,53.490046],[-1.966672,53.489916],[-1.966839,53.489825],[-1.966874,53.489774],[-1.966778,53.489762],[-1.966548,53.489807],[-1.966185,53.489909],[-1.965688,53.490067],[-1.965058,53.490282],[-1.96452,53.490453],[-1.964074,53.49058],[-1.963722,53.490663],[-1.963462,53.490701],[-1.963252,53.490742],[-1.963094,53.490785],[-1.962985,53.490831],[-1.962928,53.490879],[-1.962811,53.490932],[-1.962635,53.49099],[-1.962399,53.491052],[-1.962105,53.49112],[-1.961874,53.491186],[-1.961707,53.491251],[-1.961604,53.491316],[-1.961565,53.491379],[-1.961497,53.491435],[-1.961401,53.491485],[-1.961276,53.491528],[-1.961122,53.491565],[-1.96096,53.491588],[-1.960788,53.491599],[-1.960607,53.491597],[-1.960418,53.491581],[-1.960324,53.491558],[-1.960325,53.491526],[-1.960423,53.491486],[-1.960616,53.491437],[-1.960774,53.491387],[-1.960899,53.491337],[-1.96099,53.491285],[-1.961046,53.491233],[-1.961072,53.491186],[-1.961067,53.491144],[-1.961032,53.491108],[-1.960966,53.491076],[-1.960875,53.491059],[-1.96076,53.491055],[-1.960621,53.491066],[-1.960457,53.491091],[-1.960323,53.491122],[-1.96022,53.49116],[-1.960147,53.491204],[-1.960104,53.491255],[-1.960058,53.491301],[-1.960009,53.491341],[-1.959957,53.491377],[-1.959902,53.491408],[-1.959834,53.491441],[-1.959755,53.491477],[-1.959664,53.491514],[-1.959562,53.491554],[-1.959482,53.491586],[-1.959424,53.491611],[-1.95939,53.491628],[-1.959379,53.491638],[-1.959364,53.491663],[-1.959347,53.491703],[-1.959327,53.491757],[-1.959304,53.491828],[-1.959269,53.491874],[-1.959222,53.491898],[-1.959164,53.491899],[-1.959093,53.491876],[-1.959036,53.49185],[-1.958992,53.49182],[-1.958961,53.491787],[-1.958944,53.491751],[-1.958897,53.491737],[-1.95882,53.491744],[-1.958715,53.491774],[-1.95858,53.491825],[-1.958484,53.491892],[-1.958429,53.491974],[-1.958414,53.49207],[-1.958438,53.492182],[-1.95844,53.492275],[-1.958418,53.49235],[-1.958373,53.492405],[-1.958305,53.492441],[-1.958226,53.492471],[-1.958137,53.492495],[-1.958036,53.492512],[-1.957925,53.492523],[-1.957831,53.492518],[-1.957754,53.492496],[-1.957693,53.492457],[-1.957649,53.492403],[-1.957589,53.492344],[-1.957515,53.492281],[-1.957425,53.492215],[-1.957319,53.492145],[-1.95728,53.492082],[-1.957307,53.492027],[-1.9574,53.491978],[-1.95756,53.491937],[-1.957707,53.491896],[-1.957841,53.491855],[-1.957963,53.491814],[-1.958073,53.491774],[-1.958214,53.491724],[-1.958386,53.491664],[-1.958589,53.491596],[-1.958824,53.491517],[-1.958967,53.491448],[-1.959017,53.491388],[-1.958976,53.491337],[-1.958843,53.491295],[-1.958692,53.491286],[-1.958524,53.491309],[-1.958339,53.491364],[-1.958135,53.491452],[-1.957966,53.491516],[-1.957831,53.491554],[-1.95773,53.491569],[-1.957663,53.491558],[-1.957599,53.491547],[-1.957538,53.491534],[-1.957481,53.491519],[-1.957426,53.491503],[-1.957358,53.491496],[-1.957277,53.491498],[-1.957182,53.491509],[-1.957073,53.491528],[-1.956973,53.491553],[-1.956882,53.491583],[-1.956799,53.491619],[-1.956726,53.49166],[-1.95666,53.491699],[-1.956603,53.491737],[-1.956554,53.491772],[-1.956514,53.491806],[-1.956434,53.491834],[-1.956316,53.491856],[-1.956159,53.491873],[-1.955962,53.491884],[-1.955816,53.491879],[-1.955722,53.491859],[-1.955678,53.491823],[-1.955684,53.491772],[-1.95564,53.491735],[-1.955545,53.491712],[-1.955398,53.491705],[-1.9552,53.491712],[-1.955048,53.491719],[-1.954939,53.491728],[-1.954876,53.491737],[-1.954858,53.491748],[-1.954841,53.491776],[-1.954825,53.491822],[-1.954811,53.491886],[-1.954799,53.491967],[-1.954768,53.492042],[-1.95472,53.492111],[-1.954654,53.492172],[-1.954569,53.492227],[-1.954482,53.492266],[-1.954392,53.492287],[-1.954299,53.492292],[-1.954203,53.492281],[-1.954115,53.492278],[-1.954035,53.492283],[-1.953962,53.492298],[-1.953897,53.492321],[-1.953849,53.492347],[-1.953818,53.492376],[-1.953804,53.492407],[-1.953806,53.492441],[-1.953782,53.492488],[-1.953732,53.492551],[-1.953656,53.492627],[-1.953553,53.492718],[-1.953445,53.492802],[-1.953332,53.492881],[-1.953214,53.492955],[-1.953091,53.493022],[-1.953002,53.493088],[-1.952949,53.493152],[-1.952931,53.493216],[-1.952949,53.493277],[-1.952941,53.493343],[-1.952907,53.493412],[-1.952847,53.493484],[-1.952762,53.493561],[-1.952669,53.493617],[-1.952569,53.493655],[-1.952462,53.493673],[-1.952348,53.493672],[-1.952229,53.493679],[-1.952105,53.493696],[-1.951977,53.493721],[-1.951844,53.493755],[-1.951737,53.493755],[-1.951656,53.493721],[-1.951601,53.493652],[-1.951572,53.493549],[-1.951576,53.493471],[-1.951614,53.493416],[-1.951686,53.493386],[-1.951791,53.493379],[-1.9519,53.493362],[-1.952013,53.493334],[-1.952131,53.493295],[-1.952252,53.493245],[-1.9523,53.493194],[-1.952275,53.493144],[-1.952177,53.493093],[-1.952006,53.493043],[-1.951802,53.493042],[-1.951566,53.49309],[-1.951298,53.493189],[-1.950998,53.493337],[-1.950761,53.493437],[-1.950587,53.493488],[-1.950475,53.493491],[-1.950426,53.493445],[-1.950383,53.493418],[-1.950346,53.493412],[-1.950314,53.493424],[-1.950287,53.493457],[-1.95027,53.49349],[-1.950262,53.493525],[-1.950263,53.493561],[-1.950274,53.493598],[-1.950263,53.493638],[-1.950233,53.493681],[-1.950182,53.493727],[-1.95011,53.493777],[-1.950055,53.493833],[-1.950016,53.493896],[-1.949993,53.493966],[-1.949986,53.494043],[-1.949933,53.494114],[-1.949834,53.494179],[-1.949688,53.494238],[-1.949497,53.494291],[-1.949366,53.494315],[-1.949298,53.494312],[-1.94929,53.49428],[-1.949344,53.494219],[-1.949232,53.494155],[-1.948952,53.494087],[-1.948739,53.494053],[-1.948588,53.494099],[-1.948346,53.494172],[-1.948178,53.494224],[-1.948082,53.494255],[-1.948059,53.494265],[-1.948025,53.494274],[-1.947979,53.494283],[-1.947922,53.494291],[-1.947853,53.494299],[-1.947767,53.494317],[-1.947663,53.494347],[-1.947542,53.494387],[-1.947404,53.494438],[-1.947274,53.49449],[-1.947154,53.494542],[-1.947043,53.494594],[-1.94694,53.494647],[-1.946842,53.494697],[-1.946747,53.494744],[-1.946656,53.494788],[-1.946568,53.494829],[-1.946471,53.494877],[-1.946365,53.494932],[-1.94625,53.494995],[-1.946125,53.495066],[-1.946008,53.495119],[-1.945898,53.495155],[-1.945795,53.495173],[-1.945699,53.495174],[-1.945621,53.495179],[-1.945561,53.495188],[-1.945518,53.495201],[-1.945493,53.495218],[-1.94545,53.495238],[-1.945387,53.495259],[-1.945305,53.495283],[-1.945204,53.495309],[-1.945099,53.495334],[-1.944989,53.495358],[-1.944874,53.495382],[-1.944754,53.495404],[-1.944657,53.495437],[-1.944584,53.495479],[-1.944533,53.495531],[-1.944505,53.495592],[-1.944479,53.495651],[-1.944454,53.495707],[-1.944431,53.49576],[-1.944409,53.49581],[-1.944367,53.495851],[-1.944303,53.495881],[-1.944219,53.495902],[-1.944114,53.495912],[-1.944018,53.495931],[-1.943931,53.495958],[-1.943853,53.495994],[-1.943785,53.496038],[-1.943721,53.496075],[-1.943662,53.496105],[-1.943607,53.496128],[-1.943558,53.496144],[-1.943493,53.496161],[-1.943412,53.496179],[-1.943317,53.4962],[-1.943206,53.496221],[-1.943101,53.496232],[-1.943001,53.496231],[-1.942908,53.496219],[-1.94282,53.496195],[-1.942694,53.496181],[-1.94256,53.496177],[-1.942495,53.496202],[-1.942396,53.496233],[-1.94227,53.49627],[-1.942114,53.496313],[-1.94193,53.496362],[-1.941718,53.496417],[-1.941508,53.496475],[-1.9413,53.496535],[-1.941095,53.496599],[-1.940893,53.496666],[-1.940675,53.496733],[-1.940441,53.496801],[-1.940191,53.496869],[-1.939926,53.496937],[-1.939716,53.496997],[-1.939563,53.497048],[-1.939466,53.497091],[-1.939426,53.497124],[-1.939398,53.49717],[-1.939382,53.497226],[-1.939378,53.497294],[-1.939386,53.497374],[-1.939366,53.497447],[-1.939317,53.497513],[-1.939239,53.497573],[-1.939133,53.497626],[-1.93905,53.497654],[-1.93899,53.497658],[-1.938954,53.497637],[-1.938941,53.497592],[-1.938937,53.497544],[-1.93894,53.497492],[-1.938952,53.497438],[-1.938971,53.497381],[-1.938948,53.497339],[-1.938884,53.497312],[-1.938777,53.497299],[-1.938628,53.497301],[-1.938494,53.497303],[-1.938377,53.497304],[-1.938275,53.497304],[-1.93819,53.497304],[-1.938098,53.497314],[-1.938001,53.497334],[-1.937897,53.497365],[-1.937787,53.497405],[-1.937679,53.497451],[-1.937572,53.497502],[-1.937467,53.497558],[-1.937363,53.497619],[-1.937255,53.497678],[-1.937143,53.497736],[-1.937027,53.497792],[-1.936907,53.497846],[-1.936779,53.497904],[-1.936643,53.497966],[-1.936499,53.498033],[-1.936348,53.498103],[-1.936201,53.49815],[-1.936058,53.498175],[-1.93592,53.498177],[-1.935786,53.498156],[-1.935664,53.498135],[-1.935555,53.498114],[-1.935458,53.498093],[-1.935373,53.498072],[-1.935269,53.498055],[-1.935144,53.498042],[-1.934999,53.498033],[-1.934833,53.498028],[-1.934732,53.498003],[-1.934694,53.497958],[-1.93472,53.497893],[-1.93481,53.497808],[-1.934885,53.497723],[-1.934943,53.497639],[-1.934973,53.49758],[-1.934886,53.497591],[-1.934802,53.49761],[-1.934799,53.497611],[-1.934781,53.497603],[-1.934494,53.497496],[-1.934423,53.49747],[-1.934296,53.497494],[-1.934123,53.497526],[-1.933975,53.497552],[-1.933853,53.497573],[-1.933731,53.497591],[-1.933611,53.497607],[-1.933492,53.497621],[-1.933374,53.497633],[-1.933264,53.497652],[-1.933161,53.497679],[-1.933066,53.497714],[-1.932978,53.497757],[-1.932889,53.497783],[-1.9328,53.497794],[-1.932709,53.497789],[-1.932618,53.497769],[-1.932565,53.497741],[-1.932552,53.497707],[-1.932578,53.497665],[-1.932642,53.497616],[-1.932713,53.497566],[-1.932791,53.497513],[-1.932876,53.49746],[-1.932967,53.497404],[-1.933007,53.497356],[-1.932995,53.497314],[-1.932932,53.49728],[-1.932818,53.497254],[-1.932722,53.497237],[-1.932645,53.497229],[-1.932587,53.497232],[-1.932548,53.497244],[-1.932479,53.497279],[-1.932381,53.497335],[-1.932253,53.497413],[-1.932096,53.497513],[-1.931942,53.497604],[-1.93179,53.497685],[-1.931641,53.497755],[-1.931494,53.497817],[-1.931332,53.497869],[-1.931155,53.497911],[-1.930964,53.497945],[-1.930757,53.49797],[-1.930584,53.497984],[-1.930446,53.497987],[-1.930342,53.497979],[-1.930273,53.497961],[-1.930248,53.497929],[-1.930267,53.497885],[-1.930331,53.497828],[-1.93044,53.497758],[-1.930462,53.497702],[-1.930396,53.497659],[-1.930244,53.497631],[-1.930004,53.497617],[-1.929849,53.497591],[-1.929778,53.497553],[-1.929791,53.497504],[-1.929888,53.497444],[-1.929957,53.49738],[-1.929999,53.497312],[-1.930012,53.497241],[-1.929998,53.497166],[-1.930001,53.497095],[-1.930021,53.497027],[-1.930059,53.496963],[-1.930113,53.496903],[-1.930184,53.496857],[-1.930271,53.496825],[-1.930375,53.496807],[-1.930495,53.496804],[-1.930579,53.496793],[-1.930628,53.496776],[-1.93064,53.496751],[-1.930617,53.49672],[-1.930573,53.496691],[-1.930509,53.496666],[-1.930424,53.496643],[-1.930319,53.496624],[-1.930278,53.496585],[-1.9303,53.496526],[-1.930387,53.496446],[-1.930537,53.496346],[-1.93064,53.496264],[-1.930696,53.496199],[-1.930706,53.496152],[-1.930669,53.496122],[-1.930601,53.496114],[-1.930501,53.496128],[-1.930371,53.496164],[-1.930209,53.496222],[-1.930064,53.496271],[-1.929937,53.496312],[-1.929826,53.496343],[-1.929733,53.496365],[-1.929641,53.49638],[-1.929551,53.496389],[-1.929462,53.496391],[-1.929375,53.496387],[-1.929247,53.496363],[-1.929147,53.496336],[-1.929138,53.496378],[-1.929079,53.496461],[-1.928982,53.496519],[-1.928849,53.496551],[-1.92868,53.496557],[-1.928523,53.496575],[-1.928378,53.496606],[-1.928246,53.496648],[-1.928127,53.496703],[-1.928006,53.496732],[-1.927886,53.496736],[-1.927765,53.496715],[-1.927644,53.496668],[-1.927521,53.496624],[-1.927397,53.496582],[-1.927271,53.496544],[-1.927144,53.496508],[-1.926993,53.496486],[-1.926819,53.496476],[-1.926622,53.49648],[-1.926402,53.496496],[-1.92622,53.496524],[-1.926078,53.496562],[-1.925974,53.496611],[-1.92591,53.496671],[-1.925873,53.496729],[-1.925862,53.496786],[-1.925878,53.496842],[-1.92592,53.496897],[-1.925994,53.496934],[-1.926098,53.496953],[-1.926234,53.496954],[-1.9264,53.496938],[-1.926524,53.496938],[-1.926605,53.496954],[-1.926644,53.496986],[-1.926639,53.497035],[-1.926614,53.497081],[-1.926568,53.497126],[-1.926501,53.497169],[-1.926414,53.497209],[-1.926336,53.497245],[-1.926268,53.497276],[-1.92621,53.497302],[-1.926162,53.497323],[-1.926103,53.497338],[-1.926034,53.497347],[-1.925954,53.497351],[-1.925863,53.497349],[-1.92577,53.497352],[-1.925672,53.497359],[-1.925572,53.49737],[-1.925468,53.497386],[-1.925359,53.49739],[-1.925244,53.497383],[-1.925124,53.497364],[-1.924999,53.497333],[-1.924877,53.497316],[-1.924758,53.497312],[-1.924644,53.49732],[-1.924533,53.497342],[-1.924433,53.497364],[-1.924345,53.497386],[-1.924268,53.497408],[-1.924202,53.497431],[-1.92411,53.497424],[-1.923991,53.497387],[-1.923847,53.497322],[-1.923676,53.497226],[-1.923543,53.497139],[-1.923448,53.49706],[-1.923392,53.496989],[-1.923375,53.496927],[-1.923358,53.49686],[-1.923343,53.496789],[-1.923328,53.496715],[-1.923315,53.496636],[-1.923298,53.496558],[-1.923276,53.496483],[-1.923251,53.496409],[-1.923222,53.496337],[-1.92319,53.496273],[-1.923157,53.496218],[-1.923121,53.496171],[-1.923083,53.496132],[-1.923032,53.496095],[-1.922968,53.496061],[-1.922892,53.49603],[-1.922803,53.496001],[-1.922721,53.495968],[-1.922647,53.49593],[-1.922581,53.495887],[-1.922523,53.495839],[-1.922478,53.495793],[-1.922447,53.495748],[-1.92243,53.495704],[-1.922427,53.495661],[-1.922447,53.495627],[-1.922489,53.495602],[-1.922554,53.495584],[-1.922642,53.495576],[-1.922712,53.495554],[-1.922766,53.495519],[-1.922802,53.495472],[-1.922821,53.495411],[-1.922832,53.49534],[-1.922836,53.49526],[-1.922833,53.495169],[-1.922823,53.495068],[-1.922804,53.494971],[-1.922778,53.494877],[-1.922743,53.494787],[-1.922701,53.4947],[-1.922675,53.494632],[-1.922665,53.494582],[-1.922672,53.494551],[-1.922695,53.494538],[-1.922733,53.494513],[-1.922786,53.494475],[-1.922853,53.494426],[-1.922935,53.494364],[-1.922995,53.494305],[-1.923032,53.494248],[-1.923048,53.494192],[-1.923042,53.49414],[-1.923026,53.494098],[-1.923,53.494069],[-1.922963,53.494051],[-1.922917,53.494045],[-1.922864,53.494042],[-1.922806,53.494043],[-1.922741,53.494046],[-1.922671,53.494053],[-1.922597,53.494028],[-1.922518,53.493972],[-1.922434,53.493884],[-1.922346,53.493764],[-1.922288,53.493662],[-1.92226,53.493576],[-1.922261,53.493508],[-1.922291,53.493457],[-1.922295,53.493405],[-1.922271,53.493354],[-1.922221,53.493303],[-1.922143,53.493252],[-1.922062,53.493189],[-1.921978,53.493114],[-1.921891,53.493028],[-1.9218,53.49293],[-1.921727,53.492831],[-1.921672,53.492733],[-1.921635,53.492633],[-1.921616,53.492533],[-1.921603,53.492449],[-1.921598,53.49238],[-1.921598,53.492327],[-1.921605,53.492288],[-1.921607,53.492239],[-1.921603,53.492178],[-1.921594,53.492105],[-1.921579,53.492021],[-1.921559,53.49195],[-1.921535,53.491894],[-1.921505,53.491852],[-1.921469,53.491823],[-1.92144,53.491783],[-1.921417,53.491732],[-1.921399,53.491669],[-1.921387,53.491596],[-1.921372,53.491526],[-1.921354,53.491461],[-1.921332,53.4914],[-1.921307,53.491344],[-1.921275,53.491286],[-1.921235,53.491225],[-1.921189,53.491163],[-1.921134,53.491099],[-1.921074,53.491045],[-1.921007,53.491],[-1.920935,53.490966],[-1.920856,53.490942],[-1.92081,53.490906],[-1.920797,53.490859],[-1.920816,53.490801],[-1.920869,53.490732],[-1.920911,53.490658],[-1.920943,53.49058],[-1.920965,53.490498],[-1.920976,53.490411],[-1.921002,53.490335],[-1.921042,53.490269],[-1.921096,53.490214],[-1.921165,53.49017],[-1.921223,53.49013],[-1.921271,53.490093],[-1.921309,53.490059],[-1.921337,53.49003],[-1.921355,53.489997],[-1.921363,53.489962],[-1.921361,53.489923],[-1.921349,53.489882],[-1.921345,53.489837],[-1.92135,53.489788],[-1.921362,53.489736],[-1.921368,53.489719],[-1.921229,53.489718],[-1.921079,53.489697],[-1.920985,53.489656],[-1.920948,53.489594],[-1.920967,53.489511],[-1.920936,53.489432],[-1.920854,53.489355],[-1.920721,53.489282],[-1.920537,53.489211],[-1.920348,53.48916],[-1.920154,53.489128],[-1.919954,53.489116],[-1.91975,53.489124],[-1.919556,53.48914],[-1.919374,53.489164],[-1.919204,53.489197],[-1.919044,53.489238],[-1.918928,53.489232],[-1.918857,53.48918],[-1.918829,53.489081],[-1.918845,53.488936],[-1.918803,53.488806],[-1.918703,53.488694],[-1.918546,53.488597],[-1.918331,53.488517],[-1.918127,53.488451],[-1.917934,53.4884],[-1.917753,53.488364],[-1.917583,53.488343],[-1.917442,53.488317],[-1.917331,53.488288],[-1.917248,53.488255],[-1.917195,53.488218],[-1.917136,53.488192],[-1.917071,53.488177],[-1.917001,53.488174],[-1.916925,53.488181],[-1.916863,53.488198],[-1.916817,53.488224],[-1.916786,53.488258],[-1.91677,53.488302],[-1.916734,53.488327],[-1.916679,53.488333],[-1.916604,53.488319],[-1.916509,53.488286],[-1.916428,53.48827],[-1.91636,53.48827],[-1.916306,53.488287],[-1.916265,53.48832],[-1.916235,53.488356],[-1.916108,53.488213],[-1.916059,53.488041],[-1.915955,53.487874],[-1.915672,53.487826],[-1.91538,53.487847],[-1.915089,53.487875],[-1.914751,53.487883],[-1.914449,53.487871],[-1.914145,53.487851],[-1.913846,53.487846],[-1.913561,53.487891],[-1.913257,53.487922],[-1.912957,53.487917],[-1.912663,53.487879],[-1.912368,53.487841],[-1.912085,53.487793],[-1.911792,53.487763],[-1.911493,53.487758],[-1.911134,53.487794],[-1.910841,53.487814],[-1.910551,53.487843],[-1.910261,53.487872],[-1.909959,53.48791],[-1.909662,53.487965],[-1.909428,53.48814],[-1.909403,53.488185],[-1.909378,53.488188],[-1.90934,53.48823],[-1.909279,53.488259],[-1.909195,53.488276],[-1.909087,53.48828],[-1.908957,53.488272],[-1.90883,53.488296],[-1.908707,53.488353],[-1.908588,53.488442],[-1.908472,53.488563],[-1.908354,53.488658],[-1.908234,53.488725],[-1.908112,53.488764],[-1.907987,53.488776],[-1.907838,53.488824],[-1.907666,53.488907],[-1.907469,53.489025],[-1.907248,53.489178],[-1.907069,53.489293],[-1.90693,53.48937],[-1.906833,53.489409],[-1.906776,53.489411],[-1.906658,53.489436],[-1.90648,53.489485],[-1.90624,53.489559],[-1.90594,53.489656],[-1.905644,53.489736],[-1.905351,53.489799],[-1.905063,53.489844],[-1.904779,53.489873],[-1.904514,53.489953],[-1.90427,53.490085],[-1.904046,53.490269],[-1.903841,53.490505],[-1.903743,53.490672],[-1.903673,53.490691],[-1.903455,53.490953],[-1.903444,53.491234],[-1.903456,53.491513],[-1.903467,53.491791],[-1.903293,53.492049],[-1.902859,53.491945],[-1.902593,53.491718],[-1.902241,53.491899],[-1.901943,53.492115],[-1.90147,53.492189],[-1.900997,53.492182],[-1.900498,53.492165],[-1.900032,53.492184],[-1.899858,53.492441],[-1.899978,53.492709],[-1.900306,53.492917],[-1.900754,53.492833],[-1.90098,53.493077],[-1.900758,53.493325],[-1.900682,53.493613],[-1.90093,53.493855],[-1.901181,53.49411],[-1.901345,53.494374],[-1.901509,53.494638],[-1.901633,53.494919],[-1.90171,53.495191],[-1.901787,53.495463],[-1.901889,53.495747],[-1.902144,53.495964],[-1.902143,53.496021],[-1.90219,53.496114],[-1.902261,53.496231],[-1.902354,53.496372],[-1.90247,53.496537],[-1.902609,53.496727],[-1.902727,53.496892],[-1.902824,53.497033],[-1.902899,53.497149],[-1.902954,53.497241],[-1.903016,53.497335],[-1.903085,53.497429],[-1.903162,53.497526],[-1.903247,53.497623],[-1.903348,53.497719],[-1.903468,53.497813],[-1.903604,53.497905],[-1.903758,53.497996],[-1.903876,53.498074],[-1.903959,53.49814],[-1.904006,53.498194],[-1.904018,53.498235],[-1.904071,53.498308],[-1.904165,53.498413],[-1.904299,53.49855],[-1.904475,53.498719],[-1.904649,53.498867],[-1.90482,53.498994],[-1.904989,53.4991],[-1.905156,53.499186],[-1.905292,53.499243],[-1.905396,53.499273],[-1.90547,53.499275],[-1.905513,53.49925],[-1.905569,53.499248],[-1.905639,53.499268],[-1.905723,53.499312],[-1.90582,53.499378],[-1.905897,53.499438],[-1.905955,53.499492],[-1.905993,53.499539],[-1.906012,53.49958],[-1.90608,53.499631],[-1.906197,53.499694],[-1.906364,53.499767],[-1.906581,53.499852],[-1.906754,53.499934],[-1.906883,53.500014],[-1.90697,53.500093],[-1.907012,53.500169],[-1.90704,53.500235],[-1.907052,53.500291],[-1.907049,53.500337],[-1.907031,53.500373],[-1.907041,53.500409],[-1.90708,53.500445],[-1.907147,53.500482],[-1.907243,53.500519],[-1.907322,53.50056],[-1.907385,53.500604],[-1.907431,53.500653],[-1.907459,53.500705],[-1.907532,53.500766],[-1.907648,53.500835],[-1.907807,53.500912],[-1.908009,53.500998],[-1.908191,53.501088],[-1.908353,53.501182],[-1.908495,53.50128],[-1.908617,53.501383],[-1.908713,53.50149],[-1.908784,53.501601],[-1.908829,53.501717],[-1.908849,53.501838],[-1.908861,53.501927],[-1.908867,53.501984],[-1.908865,53.502008],[-1.908855,53.502001],[-1.908889,53.50203],[-1.908964,53.502097],[-1.909083,53.5022],[-1.909244,53.502341],[-1.909396,53.502458],[-1.909539,53.502549],[-1.909674,53.502616],[-1.9098,53.502659],[-1.909909,53.50271],[-1.910001,53.502768],[-1.910075,53.502835],[-1.910131,53.50291],[-1.910196,53.502969],[-1.910269,53.503013],[-1.91035,53.503041],[-1.910439,53.503053],[-1.91052,53.503074],[-1.910592,53.503103],[-1.910656,53.50314],[-1.910712,53.503185],[-1.910792,53.503229],[-1.910897,53.503272],[-1.911026,53.503313],[-1.91118,53.503353],[-1.911305,53.503417],[-1.911401,53.503505],[-1.911468,53.503616],[-1.911506,53.503752],[-1.911537,53.503879],[-1.911559,53.503995],[-1.911573,53.504102],[-1.911579,53.504198],[-1.911614,53.504279],[-1.911678,53.504342],[-1.911772,53.504389],[-1.911894,53.504419],[-1.912003,53.504458],[-1.912099,53.504506],[-1.912181,53.504562],[-1.912249,53.504628],[-1.912356,53.504685],[-1.912502,53.504734],[-1.912686,53.504775],[-1.91291,53.504808],[-1.913121,53.504832],[-1.913321,53.504846],[-1.91351,53.50485],[-1.913687,53.504846],[-1.913831,53.504858],[-1.913943,53.504887],[-1.914022,53.504933],[-1.914068,53.504996],[-1.914043,53.50504],[-1.913946,53.505064],[-1.913778,53.505069],[-1.913539,53.505055],[-1.913388,53.505069],[-1.913325,53.505111],[-1.91335,53.505182],[-1.913464,53.50528],[-1.913566,53.505365],[-1.913657,53.505434],[-1.913736,53.505489],[-1.913805,53.505528],[-1.913882,53.505593],[-1.913967,53.505682],[-1.914062,53.505795],[-1.914165,53.505933],[-1.914265,53.506065],[-1.914361,53.506191],[-1.914454,53.506311],[-1.914543,53.506425],[-1.914625,53.506526],[-1.914699,53.506614],[-1.914767,53.506689],[-1.914827,53.506751],[-1.914926,53.506861],[-1.915063,53.507019],[-1.915239,53.507225],[-1.915453,53.507479],[-1.915633,53.507703],[-1.915777,53.507899],[-1.915886,53.508065],[-1.915961,53.508201],[-1.916037,53.508314],[-1.916115,53.508401],[-1.916195,53.508464],[-1.916275,53.508501],[-1.916333,53.508583],[-1.916527,53.508756],[-1.91675,53.508916],[-1.917002,53.509064],[-1.917267,53.509201],[-1.917553,53.509355],[-1.917844,53.50947],[-1.918106,53.509598],[-1.918355,53.509736],[-1.918636,53.509929],[-1.918843,53.510091],[-1.919035,53.510254],[-1.919184,53.510441],[-1.919347,53.510617],[-1.919541,53.51079],[-1.919764,53.51095],[-1.919985,53.511101],[-1.920205,53.511252],[-1.920538,53.511286],[-1.920852,53.511197],[-1.920993,53.511011],[-1.920938,53.510815],[-1.920995,53.510617],[-1.921278,53.510474],[-1.921532,53.510343],[-1.921806,53.51023],[-1.922129,53.510169],[-1.92249,53.510133],[-1.92282,53.510101],[-1.92315,53.510068],[-1.92347,53.509998],[-1.923786,53.509919],[-1.92408,53.509813],[-1.92435,53.509691],[-1.924407,53.509684],[-1.924476,53.509662],[-1.924498,53.509634],[-1.924474,53.509598],[-1.924493,53.509564],[-1.924555,53.509533],[-1.924661,53.509503],[-1.92481,53.509476],[-1.924936,53.509436],[-1.925039,53.509383],[-1.925119,53.509318],[-1.925175,53.509241],[-1.925185,53.509186],[-1.925147,53.509154],[-1.925062,53.509144],[-1.924931,53.509157],[-1.924869,53.509141],[-1.924878,53.509096],[-1.924956,53.509021],[-1.925105,53.508917],[-1.925229,53.508843],[-1.925326,53.508797],[-1.925398,53.50878],[-1.925445,53.508793],[-1.925529,53.508783],[-1.925652,53.508752],[-1.925814,53.508699],[-1.926014,53.508624],[-1.926154,53.508559],[-1.926234,53.508502],[-1.926255,53.508454],[-1.926227,53.508427],[-1.926259,53.508415],[-1.926591,53.508307],[-1.926943,53.508208],[-1.927293,53.508098],[-1.927618,53.507969],[-1.927903,53.507822],[-1.927985,53.507599],[-1.927923,53.507379],[-1.927808,53.507165],[-1.927608,53.506969],[-1.92744,53.50676],[-1.927448,53.506533],[-1.927439,53.506308],[-1.927541,53.506094],[-1.927661,53.505878],[-1.927599,53.505658],[-1.927537,53.505438],[-1.927601,53.505217],[-1.927968,53.505169],[-1.928344,53.505218],[-1.928609,53.505386],[-1.928809,53.505581],[-1.929194,53.505597],[-1.929502,53.50547],[-1.92966,53.50526],[-1.930001,53.505377],[-1.930248,53.505546],[-1.930586,53.505653],[-1.930971,53.505668],[-1.931341,53.505632],[-1.931714,53.505606],[-1.932078,53.505548],[-1.932384,53.50541],[-1.932427,53.50518],[-1.932568,53.504973],[-1.932708,53.504765],[-1.932611,53.504549],[-1.932475,53.504326],[-1.932378,53.504109],[-1.932316,53.503889],[-1.932163,53.503668],[-1.931822,53.503551],[-1.931446,53.503502],[-1.93115,53.503498],[-1.931144,53.503476],[-1.931074,53.503467],[-1.930942,53.50348],[-1.930837,53.503477],[-1.930761,53.503457],[-1.930711,53.503421],[-1.930689,53.503368],[-1.930638,53.503321],[-1.930589,53.503295],[-1.930593,53.503179],[-1.93073,53.503057],[-1.930892,53.502946],[-1.93092,53.502801],[-1.931019,53.50267],[-1.931258,53.502626],[-1.93147,53.502693],[-1.931565,53.502826],[-1.931735,53.502944],[-1.93197,53.502928],[-1.93222,53.502923],[-1.932458,53.502961],[-1.932686,53.502999],[-1.932915,53.502963],[-1.93312,53.502882],[-1.933231,53.502749],[-1.933423,53.502662],[-1.933656,53.502639],[-1.933794,53.502524],[-1.933857,53.502382],[-1.934047,53.502289],[-1.934269,53.502226],[-1.9345,53.502156],[-1.93451,53.502152],[-1.934512,53.502187],[-1.93451,53.502306],[-1.934528,53.502399],[-1.934565,53.502468],[-1.934621,53.502511],[-1.934698,53.502529],[-1.934776,53.502579],[-1.934857,53.502662],[-1.934939,53.502778],[-1.935024,53.502926],[-1.935116,53.503036],[-1.935214,53.503106],[-1.935319,53.503138],[-1.935432,53.503131],[-1.93552,53.503133],[-1.935583,53.503144],[-1.935622,53.503163],[-1.935638,53.503191],[-1.935631,53.503224],[-1.935602,53.503261],[-1.935551,53.503302],[-1.935478,53.503347],[-1.935439,53.50339],[-1.935433,53.503431],[-1.93546,53.50347],[-1.93552,53.503506],[-1.935584,53.50352],[-1.935653,53.503511],[-1.935726,53.503479],[-1.935803,53.503425],[-1.935873,53.503387],[-1.935935,53.503366],[-1.935989,53.503362],[-1.936035,53.503374],[-1.936066,53.503396],[-1.936082,53.503426],[-1.936082,53.503465],[-1.936067,53.503513],[-1.936062,53.503563],[-1.936066,53.503616],[-1.93608,53.503671],[-1.936103,53.503728],[-1.936147,53.503775],[-1.936211,53.503813],[-1.936296,53.503842],[-1.936401,53.503861],[-1.936486,53.503865],[-1.93655,53.503852],[-1.936593,53.503823],[-1.936617,53.503779],[-1.93664,53.503765],[-1.936666,53.503892],[-1.93666,53.504059],[-1.936599,53.504224],[-1.936632,53.504388],[-1.936936,53.504517],[-1.937216,53.504513],[-1.9375,53.504477],[-1.937759,53.504539],[-1.937907,53.504683],[-1.937901,53.504851],[-1.938036,53.504996],[-1.93832,53.505008],[-1.938593,53.504981],[-1.938884,53.505015],[-1.939164,53.505059],[-1.939425,53.505129],[-1.939683,53.505191],[-1.939948,53.505133],[-1.94008,53.504985],[-1.940323,53.504897],[-1.940581,53.504816],[-1.940623,53.504741],[-1.940633,53.504742],[-1.940689,53.504716],[-1.940743,53.504685],[-1.940794,53.50465],[-1.940842,53.504612],[-1.940887,53.504569],[-1.940925,53.504533],[-1.940956,53.504505],[-1.94098,53.504484],[-1.940998,53.504469],[-1.941016,53.504438],[-1.941034,53.504389],[-1.941053,53.504324],[-1.941072,53.504242],[-1.941116,53.504183],[-1.941185,53.504149],[-1.941278,53.504139],[-1.941396,53.504152],[-1.941492,53.504149],[-1.941565,53.504129],[-1.941615,53.504092],[-1.941642,53.504039],[-1.941674,53.504006],[-1.94171,53.503994],[-1.94175,53.504003],[-1.941794,53.504032],[-1.941876,53.504071],[-1.941997,53.504118],[-1.942155,53.504175],[-1.942352,53.50424],[-1.942503,53.5043],[-1.942607,53.504355],[-1.942666,53.504406],[-1.942679,53.504451],[-1.942684,53.5045],[-1.942681,53.504553],[-1.942671,53.50461],[-1.942652,53.504672],[-1.942647,53.504735],[-1.942655,53.504799],[-1.942675,53.504866],[-1.942709,53.504935],[-1.942743,53.504962],[-1.942761,53.505054],[-1.942992,53.505105],[-1.943239,53.505094],[-1.943384,53.505208],[-1.943322,53.505349],[-1.943136,53.505455],[-1.942958,53.505547],[-1.942764,53.505627],[-1.942613,53.505737],[-1.94263,53.505877],[-1.942702,53.506011],[-1.942905,53.506086],[-1.943132,53.506124],[-1.943366,53.506108],[-1.943572,53.506033],[-1.943659,53.505896],[-1.943808,53.50578],[-1.944031,53.505725],[-1.944239,53.505657],[-1.944417,53.505565],[-1.944553,53.505443],[-1.94457,53.5053],[-1.944424,53.505186],[-1.944278,53.505072],[-1.944206,53.504938],[-1.944198,53.50479],[-1.944212,53.504748],[-1.944252,53.504748],[-1.944399,53.504757],[-1.94456,53.504775],[-1.944687,53.50478],[-1.944778,53.504773],[-1.944833,53.504754],[-1.944852,53.504723],[-1.944838,53.50469],[-1.944789,53.504657],[-1.944706,53.504623],[-1.94459,53.504588],[-1.944506,53.50455],[-1.944456,53.504511],[-1.944438,53.504469],[-1.944454,53.504425],[-1.944535,53.504401],[-1.94468,53.504398],[-1.94489,53.504414],[-1.945164,53.50445],[-1.945369,53.504459],[-1.945506,53.504439],[-1.945575,53.504391],[-1.945575,53.504314],[-1.945584,53.504266],[-1.945603,53.504245],[-1.945632,53.504252],[-1.94567,53.504286],[-1.945729,53.504304],[-1.945808,53.504307],[-1.945908,53.504294],[-1.946028,53.504265],[-1.946133,53.504258],[-1.946222,53.504272],[-1.946297,53.504308],[-1.946356,53.504366],[-1.946422,53.504403],[-1.946494,53.504419],[-1.946573,53.504415],[-1.946658,53.504389],[-1.946737,53.504353],[-1.946809,53.504305],[-1.946875,53.504247],[-1.946934,53.504178],[-1.94702,53.504129],[-1.947133,53.504101],[-1.947273,53.504093],[-1.947441,53.504106],[-1.94763,53.504101],[-1.947841,53.504078],[-1.948074,53.504037],[-1.948328,53.503978],[-1.948533,53.503945],[-1.948688,53.503938],[-1.948793,53.503957],[-1.948849,53.504003],[-1.948918,53.504032],[-1.949,53.504045],[-1.949095,53.504042],[-1.949204,53.504023],[-1.949283,53.503987],[-1.949332,53.503936],[-1.949352,53.503868],[-1.949343,53.503784],[-1.949312,53.503717],[-1.949258,53.503668],[-1.949183,53.503635],[-1.949086,53.503619],[-1.949023,53.503603],[-1.948993,53.503587],[-1.948997,53.503571],[-1.949035,53.503554],[-1.949102,53.503539],[-1.949198,53.503525],[-1.949323,53.503513],[-1.949477,53.503502],[-1.949591,53.503477],[-1.949666,53.503438],[-1.949701,53.503385],[-1.949696,53.503317],[-1.949722,53.503261],[-1.949781,53.503215],[-1.949871,53.503179],[-1.949992,53.503155],[-1.950069,53.503149],[-1.950101,53.503163],[-1.950089,53.503196],[-1.950033,53.503248],[-1.95001,53.503299],[-1.95002,53.503349],[-1.950064,53.503397],[-1.950142,53.503445],[-1.950233,53.503478],[-1.950338,53.503497],[-1.950458,53.503502],[-1.950591,53.503493],[-1.950678,53.503475],[-1.95072,53.503448],[-1.950717,53.503411],[-1.950668,53.503365],[-1.950639,53.503319],[-1.95063,53.503273],[-1.95064,53.503228],[-1.95067,53.503183],[-1.950724,53.503154],[-1.950803,53.503142],[-1.950906,53.503147],[-1.951033,53.503168],[-1.951133,53.503199],[-1.951205,53.503241],[-1.95125,53.503292],[-1.951268,53.503354],[-1.95131,53.503395],[-1.951376,53.503413],[-1.951466,53.503411],[-1.95158,53.503387],[-1.951674,53.50338],[-1.951748,53.503389],[-1.951802,53.503416],[-1.951836,53.503459],[-1.951947,53.50353],[-1.952136,53.50363],[-1.952402,53.503758],[-1.952746,53.503915],[-1.953031,53.50404],[-1.953257,53.504134],[-1.953331,53.504162],[-1.953362,53.50419],[-1.953504,53.504242],[-1.953678,53.504267],[-1.953857,53.504282],[-1.95402,53.504299],[-1.954149,53.504361],[-1.954257,53.504436],[-1.954399,53.504488],[-1.954557,53.504514],[-1.954735,53.504468],[-1.954892,53.504434],[-1.955051,53.504409],[-1.955185,53.504348],[-1.955306,53.50427],[-1.955428,53.504197],[-1.955516,53.504152],[-1.955528,53.504158],[-1.955611,53.504226],[-1.955744,53.504277],[-1.955925,53.504312],[-1.956155,53.504331],[-1.956433,53.504333],[-1.95665,53.504322],[-1.956803,53.504298],[-1.956895,53.504262],[-1.956923,53.504212],[-1.956991,53.50418],[-1.957097,53.504165],[-1.957242,53.504168],[-1.957426,53.504188],[-1.957561,53.504217],[-1.957647,53.504255],[-1.957683,53.504302],[-1.957671,53.504358],[-1.957698,53.504405],[-1.957766,53.504443],[-1.957874,53.504472],[-1.958022,53.504491],[-1.958147,53.504503],[-1.958248,53.504508],[-1.958326,53.504505],[-1.95838,53.504496],[-1.958457,53.504503],[-1.958556,53.504527],[-1.958678,53.504568],[-1.958823,53.504625],[-1.958937,53.504681],[-1.95902,53.504734],[-1.959072,53.504785],[-1.959093,53.504834],[-1.959139,53.504866],[-1.959212,53.504882],[-1.95931,53.504882],[-1.959433,53.504865],[-1.959539,53.504867],[-1.959626,53.504886],[-1.959695,53.504922],[-1.959746,53.504976],[-1.959817,53.50503],[-1.959906,53.505082],[-1.960016,53.505134],[-1.960144,53.505185],[-1.96026,53.505221],[-1.960362,53.505242],[-1.960451,53.505249],[-1.960528,53.505242],[-1.960602,53.505251],[-1.960673,53.505278],[-1.960743,53.505322],[-1.96081,53.505383],[-1.960904,53.505445],[-1.961025,53.505507],[-1.961173,53.50557],[-1.961348,53.505633],[-1.961505,53.505671],[-1.961644,53.505685],[-1.961766,53.505674],[-1.96187,53.505638],[-1.96205,53.505631],[-1.962305,53.505652],[-1.962463,53.505676],[-1.962471,53.505741],[-1.962358,53.505857],[-1.962313,53.505991],[-1.962234,53.506116],[-1.962108,53.506221],[-1.961918,53.506283],[-1.961704,53.506335],[-1.961499,53.50638],[-1.961292,53.506456],[-1.961115,53.506529],[-1.960977,53.506629],[-1.960887,53.506749],[-1.960796,53.506869],[-1.960862,53.506992],[-1.961064,53.507046],[-1.961287,53.507061],[-1.961508,53.50707],[-1.96173,53.507085],[-1.961946,53.507113],[-1.962141,53.50718],[-1.962362,53.507226],[-1.962588,53.507253],[-1.962795,53.507288],[-1.963013,53.507322],[-1.963242,53.507361],[-1.963442,53.507409],[-1.963658,53.5074],[-1.963862,53.507349],[-1.964062,53.507286],[-1.964266,53.507235],[-1.964478,53.507213],[-1.9647,53.507191],[-1.964914,53.507176],[-1.965119,53.507131],[-1.965276,53.507023],[-1.965452,53.50695],[-1.965629,53.506877],[-1.965831,53.50682],[-1.966036,53.506775],[-1.96625,53.506723],[-1.966467,53.506683],[-1.966668,53.50662],[-1.966871,53.506569],[-1.967078,53.50653],[-1.967282,53.506479],[-1.967444,53.50642]]]}}