{"type":"Feature","properties":{"id":"562249","COMMUNE":"Torfaen","PROVINCE":"Torfaen","COUNTRY":"UK","FIREDATE":"2026-07-20 00:00:00","FINALDATE":"2026-07-27 00:00:00","CLASS":"FireSeason","areaHA_geo":178.686},"geometry":{"type":"Polygon","coordinates":[[[-3.050309,51.748892],[-3.050789,51.748514],[-3.05111,51.747626],[-3.051271,51.74623],[-3.051046,51.745214],[-3.050432,51.744579],[-3.049735,51.744144],[-3.048954,51.743909],[-3.048263,51.743737],[-3.047661,51.743628],[-3.047058,51.743432],[-3.046453,51.743148],[-3.045979,51.743007],[-3.045638,51.74301],[-3.045093,51.742852],[-3.044344,51.742531],[-3.043385,51.742319],[-3.042215,51.742215],[-3.040859,51.742367],[-3.039316,51.742775],[-3.03802,51.743213],[-3.03697,51.743683],[-3.036078,51.744369],[-3.035345,51.745273],[-3.035136,51.746264],[-3.035451,51.747343],[-3.035698,51.748269],[-3.035876,51.74904],[-3.036087,51.749926],[-3.036331,51.750925],[-3.037048,51.751915],[-3.038237,51.752897],[-3.039109,51.753388],[-3.039664,51.753389],[-3.040187,51.753621],[-3.040678,51.754083],[-3.041296,51.75458],[-3.042041,51.755112],[-3.042702,51.755464],[-3.043278,51.755637],[-3.043522,51.755788],[-3.043435,51.75592],[-3.043926,51.756351],[-3.044994,51.757081],[-3.046164,51.757669],[-3.047434,51.758113],[-3.048607,51.758715],[-3.049684,51.759474],[-3.050689,51.760065],[-3.05162,51.760489],[-3.053405,51.760421],[-3.056044,51.759861],[-3.057552,51.759413],[-3.057929,51.759077],[-3.058164,51.75842],[-3.058257,51.757442],[-3.057951,51.756641],[-3.057246,51.756016],[-3.056371,51.755381],[-3.055327,51.754735],[-3.054298,51.754134],[-3.053283,51.753578],[-3.052704,51.753174],[-3.052562,51.75292],[-3.052125,51.75247],[-3.051392,51.751825],[-3.050823,51.751217],[-3.050418,51.750646],[-3.050177,51.750113],[-3.0501,51.749618],[-3.050064,51.749298],[-3.050068,51.749153],[-3.050309,51.748892]]]}}