{"type":"Feature","properties":{"id":"562701","COMMUNE":"Powys","PROVINCE":"Powys","COUNTRY":"UK","FIREDATE":"2026-07-22 11:57:00","FINALDATE":"2026-07-25 13:18:00","CLASS":"30DAYS","areaHA_geo":39.167},"geometry":{"type":"Polygon","coordinates":[[[-3.099288,52.208977],[-3.099328,52.208964],[-3.099434,52.208929],[-3.099664,52.208851],[-3.099821,52.208765],[-3.09999,52.208624],[-3.100071,52.208506],[-3.100108,52.208346],[-3.100113,52.208222],[-3.100087,52.208063],[-3.100078,52.207937],[-3.100083,52.207775],[-3.100099,52.207649],[-3.100136,52.20749],[-3.100234,52.207388],[-3.100447,52.207287],[-3.100622,52.207219],[-3.100854,52.207148],[-3.101047,52.207098],[-3.101305,52.207044],[-3.101497,52.206992],[-3.101728,52.206914],[-3.101815,52.206818],[-3.101808,52.206651],[-3.101755,52.20653],[-3.101629,52.206389],[-3.101573,52.206271],[-3.101557,52.206112],[-3.101658,52.206062],[-3.101933,52.206096],[-3.102064,52.206049],[-3.102123,52.205893],[-3.102165,52.20577],[-3.102212,52.205609],[-3.102276,52.205488],[-3.10239,52.20534],[-3.102484,52.205223],[-3.102608,52.205073],[-3.102711,52.204958],[-3.102847,52.204813],[-3.102858,52.204698],[-3.10275,52.204548],[-3.102678,52.20443],[-3.1026,52.204277],[-3.10247,52.204203],[-3.102217,52.204166],[-3.102043,52.204196],[-3.101854,52.204307],[-3.101682,52.20437],[-3.101432,52.204417],[-3.101235,52.204452],[-3.100983,52.204493],[-3.100858,52.204448],[-3.100791,52.204294],[-3.100719,52.204178],[-3.100602,52.204036],[-3.100455,52.203974],[-3.100197,52.203958],[-3.099991,52.203963],[-3.099725,52.203992],[-3.099516,52.204016],[-3.09925,52.204045],[-3.099046,52.204068],[-3.09879,52.204097],[-3.098589,52.204119],[-3.098334,52.204148],[-3.098149,52.204196],[-3.097934,52.204291],[-3.097804,52.204384],[-3.097688,52.204526],[-3.097563,52.204622],[-3.09736,52.204722],[-3.097176,52.204758],[-3.096909,52.204749],[-3.096713,52.204773],[-3.096481,52.204844],[-3.096336,52.204929],[-3.096199,52.205073],[-3.096144,52.205194],[-3.096139,52.205355],[-3.096089,52.205478],[-3.095964,52.205627],[-3.095861,52.20574],[-3.095722,52.205878],[-3.095599,52.205981],[-3.095425,52.206104],[-3.095271,52.206116],[-3.095053,52.206024],[-3.094865,52.205992],[-3.094604,52.206001],[-3.094405,52.206031],[-3.094161,52.206097],[-3.094001,52.206173],[-3.093838,52.206301],[-3.09371,52.206402],[-3.093548,52.20653],[-3.093426,52.206635],[-3.093277,52.206774],[-3.093155,52.206879],[-3.092992,52.207007],[-3.092869,52.207109],[-3.092719,52.207242],[-3.09261,52.207351],[-3.092483,52.207494],[-3.092343,52.207578],[-3.09211,52.20765],[-3.091934,52.207712],[-3.091717,52.207801],[-3.091568,52.207886],[-3.091406,52.208014],[-3.091287,52.208119],[-3.091149,52.208257],[-3.091032,52.208358],[-3.090871,52.208478],[-3.090804,52.208523],[-3.090793,52.208518],[-3.090746,52.208512],[-3.090637,52.208503],[-3.090544,52.208506],[-3.090415,52.208524],[-3.090336,52.208564],[-3.090267,52.208647],[-3.090237,52.208738],[-3.090228,52.208886],[-3.090244,52.208984],[-3.090292,52.209086],[-3.090352,52.209149],[-3.090456,52.209205],[-3.090538,52.209232],[-3.090641,52.209244],[-3.090722,52.209235],[-3.090823,52.209203],[-3.090882,52.209178],[-3.090929,52.20915],[-3.090945,52.209129],[-3.090938,52.209105],[-3.090934,52.209088],[-3.090931,52.209071],[-3.090959,52.209082],[-3.091035,52.209127],[-3.091122,52.209177],[-3.091266,52.209259],[-3.091364,52.209333],[-3.091467,52.209439],[-3.091571,52.20951],[-3.091729,52.209585],[-3.091869,52.209631],[-3.092066,52.209673],[-3.092217,52.209706],[-3.092406,52.209749],[-3.092554,52.20978],[-3.092742,52.209818],[-3.092885,52.209854],[-3.093061,52.209908],[-3.093187,52.209961],[-3.093332,52.210043],[-3.093441,52.210112],[-3.093573,52.210205],[-3.093668,52.210281],[-3.093778,52.210381],[-3.09385,52.210466],[-3.093924,52.21058],[-3.093972,52.210679],[-3.094021,52.210815],[-3.094052,52.21092],[-3.094083,52.211048],[-3.094099,52.211147],[-3.094111,52.211268],[-3.094115,52.211364],[-3.094111,52.211487],[-3.094102,52.211582],[-3.094082,52.211702],[-3.094088,52.211797],[-3.094125,52.211921],[-3.094196,52.212001],[-3.094341,52.212083],[-3.094467,52.212138],[-3.094645,52.212197],[-3.094791,52.212232],[-3.094985,52.212265],[-3.095079,52.212231],[-3.095124,52.212113],[-3.095173,52.212023],[-3.095252,52.211912],[-3.095331,52.21183],[-3.095455,52.211732],[-3.095578,52.21168],[-3.095767,52.211644],[-3.095918,52.211622],[-3.096112,52.2116],[-3.096265,52.211574],[-3.096459,52.211527],[-3.096613,52.211493],[-3.096809,52.211451],[-3.096961,52.211425],[-3.097154,52.211398],[-3.097305,52.211376],[-3.097496,52.211345],[-3.097645,52.211316],[-3.097833,52.211276],[-3.09796,52.211225],[-3.098094,52.211137],[-3.09821,52.211074],[-3.098373,52.211002],[-3.098489,52.210935],[-3.09862,52.210837],[-3.098702,52.210753],[-3.098779,52.210636],[-3.098833,52.210542],[-3.098892,52.210418],[-3.098939,52.210322],[-3.099,52.210202],[-3.099048,52.21011],[-3.09911,52.209996],[-3.099155,52.209904],[-3.099208,52.209785],[-3.099258,52.209689],[-3.099333,52.209563],[-3.099373,52.209467],[-3.099401,52.209346],[-3.099401,52.209251],[-3.099374,52.209132],[-3.099343,52.209062],[-3.099293,52.209005],[-3.099288,52.208977]]]}}