{"type":"Feature","properties":{"id":"581092","COMMUNE":"Suffolk Coastal","PROVINCE":"Suffolk","COUNTRY":"UK","FIREDATE":"2026-07-29 19:36:00","CLASS":"30DAYS","areaHA_geo":149.889},"geometry":{"type":"Polygon","coordinates":[[[1.607667,52.255894],[1.607682,52.255634],[1.607844,52.255191],[1.608243,52.254322],[1.608861,52.253732],[1.610035,52.253098],[1.611045,52.252747],[1.612441,52.252488],[1.613621,52.252332],[1.615228,52.252195],[1.616432,52.252154],[1.61789,52.252185],[1.61903,52.252238],[1.620474,52.25234],[1.62118,52.252461],[1.621532,52.252665],[1.621847,52.252702],[1.622297,52.25259],[1.622942,52.252748],[1.624133,52.253263],[1.624767,52.253801],[1.625191,52.254656],[1.62536,52.255344],[1.625366,52.256241],[1.625325,52.256943],[1.625216,52.257832],[1.62522,52.258537],[1.625342,52.259442],[1.625347,52.260147],[1.625237,52.261036],[1.625128,52.261732],[1.624961,52.262617],[1.624519,52.263248],[1.623563,52.263969],[1.622653,52.264398],[1.621295,52.264768],[1.62024,52.264749],[1.618913,52.264333],[1.618301,52.264007],[1.618071,52.263597],[1.61751,52.263402],[1.616311,52.263317],[1.615277,52.263342],[1.613843,52.263491],[1.612728,52.263426],[1.611323,52.263112],[1.610331,52.262759],[1.609212,52.262178],[1.608411,52.26167],[1.607491,52.260959],[1.606771,52.260387],[1.605859,52.259641],[1.605382,52.259001],[1.605081,52.258119],[1.605273,52.25747],[1.606063,52.256701],[1.606656,52.256311],[1.607377,52.256085],[1.607667,52.255894]]]}}