{"type":"Feature","properties":{"id":"595315","COMMUNE":"Rhondda Cynon Taf","PROVINCE":"Central Valleys","COUNTRY":"UK","FIREDATE":"2026-08-03 01:43:00","FINALDATE":"2026-08-04 02:19:00","CLASS":"30DAYS","areaHA_geo":61.028},"geometry":{"type":"Polygon","coordinates":[[[-3.431572,51.667753],[-3.433052,51.667975],[-3.434193,51.66817],[-3.435617,51.668442],[-3.436654,51.668751],[-3.437868,51.669266],[-3.438504,51.669811],[-3.438907,51.670682],[-3.439499,51.671265],[-3.440603,51.671881],[-3.441541,51.672322],[-3.442824,51.672829],[-3.443827,51.67321],[-3.445097,51.673675],[-3.445956,51.673576],[-3.446871,51.672858],[-3.447345,51.672219],[-3.447637,51.671312],[-3.44762,51.67061],[-3.447285,51.669731],[-3.446598,51.669295],[-3.445187,51.669065],[-3.444296,51.668688],[-3.44344,51.667956],[-3.442994,51.667304],[-3.442715,51.666375],[-3.442269,51.665723],[-3.441413,51.664992],[-3.440578,51.664522],[-3.439307,51.664057],[-3.438232,51.663804],[-3.436765,51.663624],[-3.435645,51.663685],[-3.434262,51.664019],[-3.433119,51.664924],[-3.431591,51.666893],[-3.431572,51.667753]]]}}