{"type":"Feature","properties":{"id":"601770","COMMUNE":"Kirklees","PROVINCE":"Calderdale and Kirklees","COUNTRY":"UK","FIREDATE":"2026-07-24 01:32:00","FINALDATE":"2026-07-24 02:26:00","CLASS":"30DAYS","areaHA_geo":1.579},"geometry":{"type":"Polygon","coordinates":[[[-1.921326,53.577211],[-1.922033,53.576346],[-1.921942,53.576146],[-1.921781,53.575953],[-1.921975,53.575766],[-1.922215,53.575617],[-1.922409,53.575431],[-1.922489,53.575213],[-1.922203,53.575074],[-1.921922,53.575207],[-1.921763,53.57539],[-1.921425,53.575444],[-1.921145,53.575576],[-1.920905,53.575726],[-1.920625,53.575858],[-1.92035,53.57601],[-1.92011,53.57616],[-1.920271,53.576353],[-1.920523,53.576495],[-1.920781,53.576658],[-1.921004,53.576825],[-1.921131,53.577021],[-1.921326,53.577211]]]}}