{"type":"Feature","properties":{"id":"612960","COMMUNE":"Huntingdonshire","PROVINCE":"Cambridgeshire CC","COUNTRY":"UK","FIREDATE":"2026-08-09 01:32:00","CLASS":"7DAYS","areaHA_geo":18.265},"geometry":{"type":"Polygon","coordinates":[[[-0.228335,52.48261],[-0.228771,52.482839],[-0.229412,52.482974],[-0.229982,52.482958],[-0.230667,52.483058],[-0.231172,52.483231],[-0.231772,52.483486],[-0.232208,52.483715],[-0.23278,52.484004],[-0.233243,52.484231],[-0.233858,52.484252],[-0.23436,52.484059],[-0.234957,52.483784],[-0.235394,52.483547],[-0.235833,52.483191],[-0.236086,52.48287],[-0.236486,52.482496],[-0.236862,52.482231],[-0.237118,52.481838],[-0.237145,52.481486],[-0.23687,52.481128],[-0.236411,52.480918],[-0.235785,52.480697],[-0.23526,52.480559],[-0.234646,52.480315],[-0.234206,52.48007],[-0.233553,52.479883],[-0.232967,52.479834],[-0.232241,52.479854],[-0.231686,52.479935],[-0.231227,52.480208],[-0.231062,52.480555],[-0.230609,52.480849],[-0.230061,52.480962],[-0.229249,52.481435],[-0.22852,52.482064],[-0.228335,52.48261]]]}}