{"type":"Feature","properties":{"id":"612958","COMMUNE":"Powys","PROVINCE":"Powys","COUNTRY":"UK","FIREDATE":"2026-08-08 01:49:00","CLASS":"7DAYS","areaHA_geo":371.583},"geometry":{"type":"Polygon","coordinates":[[[-3.200642,51.820899],[-3.200365,51.820671],[-3.199991,51.820358],[-3.199679,51.820092],[-3.199313,51.819759],[-3.199051,51.819501],[-3.198691,51.819186],[-3.198387,51.818948],[-3.197888,51.818712],[-3.197406,51.81858],[-3.196838,51.818361],[-3.196426,51.81815],[-3.195954,51.817856],[-3.195624,51.817606],[-3.195284,51.817261],[-3.195081,51.816969],[-3.194823,51.816596],[-3.19462,51.816303],[-3.194375,51.815929],[-3.194195,51.815634],[-3.193996,51.815264],[-3.193865,51.814977],[-3.193712,51.814611],[-3.193603,51.814322],[-3.193378,51.813964],[-3.193134,51.81369],[-3.192678,51.81345],[-3.192204,51.813345],[-3.191606,51.813376],[-3.19114,51.81353],[-3.190614,51.813754],[-3.190254,51.813952],[-3.189762,51.814191],[-3.189348,51.814367],[-3.18891,51.814635],[-3.188634,51.814882],[-3.188178,51.815144],[-3.187738,51.815308],[-3.187141,51.815394],[-3.186644,51.815364],[-3.185992,51.815365],[-3.185466,51.815396],[-3.184828,51.815441],[-3.184351,51.81548],[-3.18376,51.815584],[-3.183307,51.815707],[-3.182793,51.81592],[-3.182437,51.816133],[-3.182035,51.816425],[-3.181759,51.816671],[-3.181446,51.817017],[-3.181232,51.817314],[-3.180985,51.81768],[-3.180811,51.817958],[-3.180727,51.818323],[-3.180768,51.81862],[-3.180866,51.819002],[-3.180979,51.819305],[-3.181163,51.819676],[-3.18134,51.819958],[-3.181579,51.820314],[-3.181778,51.820593],[-3.182045,51.820946],[-3.182267,51.821223],[-3.182549,51.821574],[-3.18277,51.821851],[-3.183069,51.82221],[-3.183317,51.822497],[-3.183602,51.822858],[-3.183801,51.823136],[-3.18404,51.823493],[-3.184216,51.823774],[-3.184384,51.824139],[-3.18447,51.824431],[-3.184568,51.824812],[-3.184636,51.82512],[-3.184663,51.82551],[-3.184637,51.825814],[-3.184558,51.826198],[-3.18446,51.826496],[-3.184287,51.826862],[-3.184113,51.82714],[-3.183955,51.827505],[-3.18388,51.827801],[-3.183835,51.828037],[-3.183841,51.828112],[-3.183713,51.828183],[-3.183506,51.828219],[-3.1831,51.828345],[-3.182669,51.828506],[-3.182272,51.828784],[-3.18208,51.829059],[-3.181927,51.829425],[-3.181879,51.829726],[-3.181804,51.83011],[-3.181734,51.830414],[-3.181615,51.830794],[-3.181497,51.831089],[-3.181249,51.83143],[-3.180978,51.831672],[-3.180608,51.831991],[-3.180297,51.832251],[-3.179861,51.832542],[-3.179486,51.832739],[-3.178978,51.832985],[-3.178554,51.833173],[-3.178207,51.833472],[-3.178085,51.833753],[-3.177996,51.834139],[-3.177978,51.834465],[-3.178007,51.834856],[-3.178069,51.835144],[-3.178166,51.835518],[-3.178254,51.835817],[-3.178365,51.83619],[-3.17845,51.836476],[-3.178585,51.836836],[-3.178714,51.837117],[-3.178935,51.837468],[-3.179152,51.837739],[-3.17953,51.838036],[-3.179908,51.838233],[-3.180377,51.838493],[-3.180737,51.838705],[-3.18113,51.839001],[-3.181387,51.839253],[-3.181715,51.839574],[-3.181972,51.839827],[-3.182232,51.840164],[-3.182383,51.840443],[-3.182643,51.84078],[-3.1829,51.841033],[-3.183296,51.841337],[-3.183659,51.841563],[-3.184166,51.841801],[-3.184598,51.841949],[-3.185177,51.84209],[-3.185655,51.842162],[-3.186264,51.84221],[-3.186744,51.842212],[-3.187345,51.842179],[-3.187809,51.842127],[-3.188399,51.84206],[-3.188863,51.842008],[-3.189443,51.841906],[-3.189891,51.841799],[-3.190479,51.841679],[-3.190957,51.841597],[-3.191563,51.841483],[-3.192037,51.841388],[-3.192637,51.841257],[-3.193107,51.841148],[-3.19363,51.840954],[-3.193983,51.840759],[-3.194328,51.840452],[-3.194516,51.840163],[-3.194711,51.839792],[-3.194829,51.839497],[-3.194979,51.839122],[-3.195097,51.838827],[-3.195278,51.838458],[-3.195444,51.838172],[-3.195656,51.837808],[-3.195822,51.837522],[-3.19605,51.837165],[-3.196242,51.83689],[-3.196487,51.83654],[-3.196679,51.836265],[-3.196969,51.835918],[-3.197232,51.83565],[-3.197571,51.835325],[-3.197842,51.835083],[-3.198203,51.834783],[-3.198499,51.834552],[-3.198949,51.834304],[-3.199358,51.834145],[-3.199879,51.833943],[-3.200288,51.833784],[-3.200752,51.833535],[-3.20107,51.833302],[-3.20149,51.833003],[-3.201831,51.832768],[-3.202241,51.832435],[-3.202543,51.832148],[-3.2029,51.831785],[-3.203159,51.831502],[-3.203332,51.831107],[-3.203345,51.830768],[-3.203297,51.830361],[-3.203209,51.830062],[-3.203056,51.829694],[-3.202905,51.829416],[-3.202696,51.829055],[-3.202519,51.828765],[-3.202296,51.828406],[-3.202123,51.82813],[-3.201914,51.827768],[-3.201759,51.827477],[-3.201592,51.82711],[-3.201485,51.826827],[-3.201413,51.826579],[-3.201406,51.826473],[-3.201703,51.826331],[-3.202177,51.826215],[-3.202706,51.826039],[-3.203065,51.82588],[-3.20352,51.825615],[-3.203878,51.825357],[-3.204235,51.825036],[-3.20444,51.824789],[-3.204653,51.82442],[-3.204785,51.824087],[-3.204871,51.823699],[-3.204875,51.823423],[-3.204846,51.823027],[-3.204797,51.822681],[-3.204716,51.82229],[-3.204637,51.822023],[-3.204387,51.821705],[-3.204074,51.821473],[-3.203612,51.821263],[-3.203199,51.821165],[-3.20259,51.821073],[-3.202047,51.821026],[-3.201454,51.821009],[-3.201065,51.82103],[-3.200642,51.820899]]]}}