{"type":"Feature","properties":{"id":"613720","COMMUNE":"Stafford","PROVINCE":"Staffordshire CC","COUNTRY":"UK","FIREDATE":"2026-08-05 14:22:00","CLASS":"7DAYS","areaHA_geo":16.521},"geometry":{"type":"Polygon","coordinates":[[[-2.022479,52.76562],[-2.022658,52.765628],[-2.022888,52.765627],[-2.02307,52.765619],[-2.023296,52.765602],[-2.023468,52.765585],[-2.023687,52.765566],[-2.02386,52.765554],[-2.024076,52.765522],[-2.024242,52.765485],[-2.024444,52.765423],[-2.024595,52.765362],[-2.024793,52.765283],[-2.024952,52.765222],[-2.025144,52.765144],[-2.025287,52.765084],[-2.025475,52.76499],[-2.025628,52.764904],[-2.025814,52.764804],[-2.025954,52.764734],[-2.026128,52.764646],[-2.02626,52.764576],[-2.026428,52.764488],[-2.02656,52.764419],[-2.026737,52.764324],[-2.026882,52.764243],[-2.027066,52.764153],[-2.027209,52.764093],[-2.027391,52.764016],[-2.027534,52.763956],[-2.027723,52.763885],[-2.027877,52.763834],[-2.028084,52.763771],[-2.028255,52.763724],[-2.028478,52.763678],[-2.028657,52.763655],[-2.028885,52.763629],[-2.029064,52.763611],[-2.029291,52.763597],[-2.029467,52.763595],[-2.029612,52.763658],[-2.029666,52.763759],[-2.029648,52.763887],[-2.029566,52.763986],[-2.029456,52.764107],[-2.029363,52.764198],[-2.029363,52.764314],[-2.029456,52.764407],[-2.029632,52.764463],[-2.029816,52.76446],[-2.030037,52.764428],[-2.030201,52.764381],[-2.030318,52.764281],[-2.030338,52.764173],[-2.030348,52.764036],[-2.030344,52.76393],[-2.030349,52.763794],[-2.030361,52.763686],[-2.030392,52.763547],[-2.030428,52.763437],[-2.030515,52.763305],[-2.030614,52.763209],[-2.030782,52.763121],[-2.030947,52.763079],[-2.031141,52.763007],[-2.031281,52.762937],[-2.031357,52.762826],[-2.031336,52.762721],[-2.031405,52.762601],[-2.031533,52.762517],[-2.031698,52.76242],[-2.03183,52.762351],[-2.031807,52.762269],[-2.03164,52.76221],[-2.031446,52.762129],[-2.03131,52.762062],[-2.031127,52.761983],[-2.030977,52.761927],[-2.030771,52.761897],[-2.030596,52.761904],[-2.030401,52.761953],[-2.030269,52.762022],[-2.030133,52.76213],[-2.030052,52.762229],[-2.029881,52.762308],[-2.029695,52.762332],[-2.029464,52.762349],[-2.029288,52.762351],[-2.029068,52.762328],[-2.028897,52.76229],[-2.028686,52.76224],[-2.028523,52.762201],[-2.028304,52.762162],[-2.028121,52.762139],[-2.027886,52.762121],[-2.027699,52.762115],[-2.027471,52.762083],[-2.027299,52.762039],[-2.027073,52.761994],[-2.026889,52.761967],[-2.026655,52.761952],[-2.026471,52.761956],[-2.026233,52.761947],[-2.026044,52.761931],[-2.025809,52.761913],[-2.025629,52.761901],[-2.0254,52.761885],[-2.02522,52.761873],[-2.024993,52.761867],[-2.024818,52.761869],[-2.024597,52.761882],[-2.024425,52.761899],[-2.024206,52.761921],[-2.024035,52.761939],[-2.023821,52.76198],[-2.023658,52.762027],[-2.023483,52.762109],[-2.023371,52.762191],[-2.023259,52.762306],[-2.023194,52.762404],[-2.023117,52.762531],[-2.023061,52.762634],[-2.022979,52.762761],[-2.022906,52.76286],[-2.022806,52.762983],[-2.022723,52.763078],[-2.022605,52.763193],[-2.022503,52.76328],[-2.02238,52.763393],[-2.022287,52.763483],[-2.022169,52.763598],[-2.022077,52.763689],[-2.021994,52.763814],[-2.021956,52.763919],[-2.021913,52.764053],[-2.021883,52.764157],[-2.021851,52.764293],[-2.021831,52.764402],[-2.021826,52.764538],[-2.021839,52.764643],[-2.021992,52.764964],[-2.02222,52.765362],[-2.022479,52.76562]]]}}