{"type":"Feature","properties":{"id":"619962","COMMUNE":"Merthyr Tydfil","PROVINCE":"Merthyr Tydfil","COUNTRY":"UK","FIREDATE":"2026-08-11 00:00:00","FINALDATE":"2026-08-14 00:00:00","CLASS":"FireSeason","areaHA_geo":20.29},"geometry":{"type":"Polygon","coordinates":[[[-3.399768,51.716754],[-3.399818,51.716702],[-3.39984,51.716627],[-3.399833,51.71653],[-3.399815,51.716432],[-3.399786,51.716333],[-3.399756,51.716236],[-3.399728,51.716141],[-3.399699,51.716044],[-3.399669,51.715945],[-3.39967,51.715847],[-3.399701,51.71575],[-3.399728,51.715652],[-3.399751,51.715551],[-3.39977,51.715451],[-3.399785,51.715351],[-3.399796,51.71525],[-3.399803,51.715146],[-3.399799,51.715044],[-3.399783,51.714943],[-3.399769,51.714845],[-3.399755,51.714748],[-3.399738,51.714652],[-3.399716,51.714557],[-3.399699,51.714461],[-3.399685,51.714364],[-3.399698,51.71427],[-3.399738,51.714176],[-3.399822,51.714078],[-3.399949,51.713975],[-3.400058,51.713883],[-3.400147,51.713803],[-3.400181,51.713715],[-3.40016,51.713619],[-3.400108,51.713541],[-3.400027,51.713479],[-3.400028,51.713419],[-3.400113,51.713362],[-3.400146,51.71327],[-3.400127,51.713142],[-3.40005,51.71303],[-3.399916,51.712933],[-3.399781,51.712836],[-3.399647,51.712739],[-3.399504,51.712646],[-3.399353,51.712557],[-3.399192,51.712481],[-3.39902,51.712418],[-3.398838,51.712371],[-3.398647,51.71234],[-3.398451,51.712324],[-3.39825,51.712324],[-3.398052,51.712332],[-3.397856,51.712349],[-3.397651,51.712352],[-3.397438,51.712341],[-3.397231,51.712338],[-3.397032,51.712343],[-3.396837,51.712363],[-3.396646,51.712397],[-3.396477,51.712454],[-3.39633,51.712536],[-3.396231,51.712637],[-3.39618,51.712755],[-3.396177,51.712873],[-3.396223,51.712992],[-3.396259,51.713112],[-3.396285,51.713233],[-3.396321,51.713353],[-3.396367,51.713472],[-3.396421,51.713564],[-3.396486,51.713629],[-3.396453,51.71372],[-3.396324,51.713837],[-3.396291,51.713946],[-3.396355,51.714048],[-3.396411,51.714161],[-3.396458,51.714286],[-3.396499,51.714408],[-3.396535,51.714528],[-3.396554,51.714653],[-3.396554,51.714783],[-3.396519,51.714905],[-3.396449,51.71502],[-3.396339,51.715118],[-3.396192,51.7152],[-3.396075,51.715262],[-3.395989,51.715304],[-3.395911,51.715329],[-3.395839,51.715337],[-3.395737,51.71537],[-3.395603,51.715427],[-3.395532,51.715505],[-3.395524,51.715604],[-3.395535,51.715703],[-3.395565,51.715803],[-3.395594,51.715899],[-3.395622,51.715994],[-3.395649,51.716064],[-3.395673,51.716109],[-3.395641,51.716166],[-3.395553,51.716236],[-3.395451,51.716303],[-3.395334,51.716368],[-3.395236,51.716441],[-3.395156,51.716524],[-3.395081,51.716577],[-3.395011,51.716599],[-3.394927,51.716632],[-3.394828,51.716674],[-3.394725,51.71671],[-3.394617,51.71674],[-3.394479,51.716774],[-3.394313,51.716814],[-3.394185,51.716858],[-3.394093,51.716907],[-3.394009,51.716959],[-3.393931,51.717016],[-3.393852,51.717077],[-3.393771,51.717142],[-3.393701,51.717205],[-3.393642,51.717267],[-3.393589,51.717331],[-3.393542,51.717398],[-3.39351,51.717467],[-3.393492,51.717538],[-3.393478,51.71761],[-3.393466,51.717684],[-3.393456,51.717761],[-3.393447,51.717841],[-3.393422,51.717914],[-3.39338,51.717981],[-3.393318,51.718042],[-3.393234,51.718096],[-3.393151,51.718155],[-3.393071,51.71822],[-3.393013,51.718288],[-3.392979,51.718361],[-3.392967,51.718433],[-3.392978,51.718504],[-3.393014,51.71857],[-3.393077,51.718632],[-3.393167,51.718663],[-3.393284,51.718663],[-3.393399,51.718657],[-3.393512,51.718644],[-3.393631,51.71863],[-3.393754,51.718616],[-3.393871,51.718597],[-3.393981,51.718574],[-3.394093,51.718546],[-3.394205,51.718512],[-3.394315,51.718479],[-3.394422,51.718446],[-3.394537,51.718412],[-3.39466,51.718377],[-3.394768,51.718339],[-3.394861,51.718297],[-3.394925,51.718242],[-3.39496,51.718172],[-3.395023,51.718112],[-3.395113,51.71806],[-3.395219,51.718034],[-3.395342,51.718034],[-3.395453,51.718052],[-3.395553,51.718089],[-3.395652,51.71813],[-3.39575,51.718178],[-3.395854,51.71821],[-3.395965,51.718229],[-3.396081,51.718241],[-3.3962,51.718248],[-3.396318,51.718253],[-3.396436,51.718257],[-3.396541,51.718283],[-3.396633,51.71833],[-3.396723,51.718379],[-3.39681,51.718427],[-3.396901,51.718472],[-3.396997,51.718512],[-3.397097,51.718549],[-3.397202,51.718581],[-3.397313,51.71861],[-3.397432,51.718634],[-3.397547,51.718636],[-3.397658,51.718617],[-3.397762,51.718584],[-3.39786,51.718538],[-3.397958,51.718496],[-3.398058,51.718457],[-3.398162,51.718424],[-3.398271,51.718398],[-3.398381,51.718375],[-3.398492,51.718355],[-3.398609,51.718337],[-3.398732,51.718319],[-3.398849,51.718302],[-3.398961,51.718286],[-3.39907,51.718259],[-3.399176,51.718223],[-3.399268,51.718176],[-3.399346,51.718119],[-3.399424,51.718064],[-3.399502,51.71801],[-3.399574,51.717954],[-3.39964,51.717894],[-3.399682,51.717829],[-3.399699,51.717759],[-3.399698,51.717688],[-3.399677,51.717618],[-3.399655,51.717547],[-3.399633,51.717474],[-3.399631,51.717402],[-3.399649,51.717331],[-3.399678,51.717261],[-3.399718,51.717191],[-3.399756,51.717121],[-3.39979,51.717052],[-3.399805,51.716979],[-3.399799,51.716904],[-3.399783,51.716845],[-3.399756,51.716802],[-3.399768,51.716754]]]}}