{"type":"Feature","properties":{"id":"619953","COMMUNE":"Torfaen","PROVINCE":"Torfaen","COUNTRY":"UK","FIREDATE":"2026-08-09 00:00:00","FINALDATE":"2026-08-09 00:00:00","CLASS":"FireSeason","areaHA_geo":0.706},"geometry":{"type":"Polygon","coordinates":[[[-3.052052,51.676409],[-3.052142,51.676424],[-3.052227,51.676414],[-3.052307,51.67638],[-3.052381,51.676341],[-3.052449,51.676298],[-3.052517,51.676254],[-3.052586,51.67621],[-3.052661,51.676168],[-3.052744,51.676128],[-3.052831,51.676104],[-3.052924,51.676097],[-3.053013,51.676103],[-3.0531,51.676124],[-3.053188,51.676126],[-3.053278,51.676107],[-3.053346,51.676073],[-3.053395,51.676023],[-3.053428,51.675969],[-3.053448,51.675911],[-3.053442,51.675855],[-3.053413,51.6758],[-3.053363,51.675753],[-3.053293,51.675713],[-3.053219,51.675677],[-3.053142,51.675644],[-3.053061,51.675613],[-3.052976,51.675583],[-3.052886,51.675567],[-3.052791,51.675564],[-3.052693,51.675562],[-3.052594,51.675562],[-3.0525,51.675569],[-3.052409,51.675582],[-3.052324,51.675608],[-3.052246,51.675647],[-3.052172,51.675687],[-3.052103,51.675729],[-3.05207,51.675778],[-3.052074,51.675836],[-3.052062,51.675895],[-3.052034,51.675953],[-3.051983,51.676001],[-3.051908,51.676037],[-3.051831,51.676075],[-3.051753,51.676114],[-3.051697,51.676162],[-3.051664,51.676219],[-3.051653,51.676276],[-3.051666,51.676333],[-3.051756,51.676371],[-3.051923,51.676391],[-3.052052,51.676409]]]}}