{"type":"Feature","properties":{"id":"620454","COMMUNE":"Merthyr Tydfil","PROVINCE":"Merthyr Tydfil","COUNTRY":"UK","FIREDATE":"2026-08-11 00:00:00","FINALDATE":"2026-08-19 00:00:00","CLASS":"FireSeason","areaHA_geo":157.858},"geometry":{"type":"Polygon","coordinates":[[[-3.318214,51.776398],[-3.318188,51.776326],[-3.318169,51.776227],[-3.31816,51.776101],[-3.318137,51.77598],[-3.318102,51.775862],[-3.318067,51.775745],[-3.318032,51.775627],[-3.317997,51.77551],[-3.317962,51.775392],[-3.317936,51.775274],[-3.317919,51.775154],[-3.317945,51.775039],[-3.318015,51.774926],[-3.318122,51.77483],[-3.318267,51.77475],[-3.318354,51.77465],[-3.318384,51.774531],[-3.318371,51.774411],[-3.318317,51.77429],[-3.318231,51.774176],[-3.318114,51.774068],[-3.317965,51.773992],[-3.317784,51.773949],[-3.317596,51.773887],[-3.317403,51.773805],[-3.31721,51.773755],[-3.317017,51.773736],[-3.316815,51.773733],[-3.316603,51.773746],[-3.316402,51.773763],[-3.316211,51.773785],[-3.316007,51.773808],[-3.31579,51.773833],[-3.315586,51.773857],[-3.315396,51.773878],[-3.315205,51.7739],[-3.315015,51.773922],[-3.314826,51.773964],[-3.314638,51.774026],[-3.314453,51.774079],[-3.314269,51.774123],[-3.314082,51.774156],[-3.313892,51.774178],[-3.313703,51.774205],[-3.313516,51.774238],[-3.313324,51.774269],[-3.313126,51.774297],[-3.312935,51.774331],[-3.312749,51.774369],[-3.312563,51.774405],[-3.312376,51.774438],[-3.312186,51.774477],[-3.311994,51.774522],[-3.311785,51.774578],[-3.311562,51.774644],[-3.311359,51.774702],[-3.311177,51.774751],[-3.311003,51.774815],[-3.310839,51.774891],[-3.310667,51.77496],[-3.310489,51.775021],[-3.3103,51.77508],[-3.310102,51.775138],[-3.309907,51.775192],[-3.309716,51.775242],[-3.309529,51.77529],[-3.309345,51.775334],[-3.309153,51.775367],[-3.308954,51.77539],[-3.308754,51.77541],[-3.308553,51.775427],[-3.308353,51.775447],[-3.308153,51.77547],[-3.307978,51.775528],[-3.307828,51.77562],[-3.307661,51.775689],[-3.307477,51.775733],[-3.307296,51.775785],[-3.307117,51.775846],[-3.306932,51.775899],[-3.306739,51.775944],[-3.306598,51.776021],[-3.306508,51.77613],[-3.306393,51.77623],[-3.306252,51.776321],[-3.306089,51.776389],[-3.305905,51.776433],[-3.305715,51.776486],[-3.305518,51.776549],[-3.30537,51.776633],[-3.30527,51.776737],[-3.305225,51.776852],[-3.305234,51.776978],[-3.305224,51.777101],[-3.305194,51.77722],[-3.305222,51.777344],[-3.305307,51.777473],[-3.305438,51.777568],[-3.305616,51.777629],[-3.305796,51.777683],[-3.305979,51.777732],[-3.306171,51.777776],[-3.30637,51.777817],[-3.30657,51.777858],[-3.30677,51.777899],[-3.30696,51.77794],[-3.307142,51.777983],[-3.307328,51.778026],[-3.307518,51.778067],[-3.307702,51.778116],[-3.307877,51.778171],[-3.308066,51.778204],[-3.308266,51.778216],[-3.30846,51.778191],[-3.308648,51.778129],[-3.308832,51.778071],[-3.309012,51.778015],[-3.309185,51.777952],[-3.309351,51.777881],[-3.309533,51.77786],[-3.309729,51.77789],[-3.309836,51.777964],[-3.309853,51.778084],[-3.309826,51.7782],[-3.309757,51.778312],[-3.309815,51.778383],[-3.310003,51.778414],[-3.310193,51.778424],[-3.310387,51.778413],[-3.310562,51.778373],[-3.310719,51.778303],[-3.310869,51.778222],[-3.31101,51.778131],[-3.31118,51.778088],[-3.311379,51.778095],[-3.311573,51.778116],[-3.311762,51.778152],[-3.311951,51.778188],[-3.312139,51.778224],[-3.312311,51.77828],[-3.312464,51.778355],[-3.312623,51.778432],[-3.312788,51.778512],[-3.312962,51.778579],[-3.313147,51.778633],[-3.313329,51.778662],[-3.313509,51.778666],[-3.313614,51.778679],[-3.313645,51.7787],[-3.313762,51.778763],[-3.313963,51.778867],[-3.314178,51.778958],[-3.314408,51.779037],[-3.314632,51.779116],[-3.31485,51.779196],[-3.315058,51.779284],[-3.315257,51.779381],[-3.315481,51.779419],[-3.315729,51.779398],[-3.315993,51.779368],[-3.316272,51.779329],[-3.316533,51.779288],[-3.316775,51.779245],[-3.31703,51.779205],[-3.317298,51.779167],[-3.317574,51.779116],[-3.317858,51.779054],[-3.318136,51.779007],[-3.318406,51.778976],[-3.318668,51.778942],[-3.318924,51.778906],[-3.31918,51.77891],[-3.319437,51.778956],[-3.319674,51.779018],[-3.319892,51.779098],[-3.320118,51.779166],[-3.320353,51.779221],[-3.320602,51.779241],[-3.320864,51.779226],[-3.321117,51.779197],[-3.321359,51.779155],[-3.321611,51.779145],[-3.321872,51.779167],[-3.322112,51.779218],[-3.32233,51.779298],[-3.322541,51.779293],[-3.322744,51.779202],[-3.322783,51.779089],[-3.322658,51.778954],[-3.322526,51.778819],[-3.322389,51.778685],[-3.322247,51.778555],[-3.3221,51.77843],[-3.321954,51.778304],[-3.321807,51.778179],[-3.321699,51.778042],[-3.32163,51.777892],[-3.321688,51.777762],[-3.321874,51.777651],[-3.322095,51.777581],[-3.322353,51.777551],[-3.322568,51.777478],[-3.322739,51.777361],[-3.32282,51.777225],[-3.322809,51.777068],[-3.322799,51.776972],[-3.322787,51.776934],[-3.322842,51.776912],[-3.322961,51.776906],[-3.32306,51.776925],[-3.323138,51.77697],[-3.323377,51.777177],[-3.323779,51.777546],[-3.324002,51.777762],[-3.324046,51.777826],[-3.324045,51.77793],[-3.323999,51.778074],[-3.323977,51.778169],[-3.32398,51.778217],[-3.324018,51.778362],[-3.32409,51.778602],[-3.324121,51.778749],[-3.324112,51.778802],[-3.324033,51.77892],[-3.323886,51.779103],[-3.323809,51.779214],[-3.323801,51.779253],[-3.323839,51.779336],[-3.323922,51.779465],[-3.32398,51.779541],[-3.324012,51.779565],[-3.324116,51.779609],[-3.324292,51.779672],[-3.324383,51.779718],[-3.324389,51.779749],[-3.32433,51.779854],[-3.324204,51.780034],[-3.324108,51.780139],[-3.324042,51.78017],[-3.323804,51.780215],[-3.323397,51.780275],[-3.323145,51.780314],[-3.32305,51.780332],[-3.322824,51.780382],[-3.322467,51.780465],[-3.322247,51.780525],[-3.322164,51.780564],[-3.321966,51.780698],[-3.321653,51.780928],[-3.321461,51.781062],[-3.321389,51.781101],[-3.32122,51.781164],[-3.320954,51.78125],[-3.320786,51.781302],[-3.320716,51.78132],[-3.320533,51.78136],[-3.320238,51.781422],[-3.320064,51.781473],[-3.320012,51.781513],[-3.319924,51.781665],[-3.319801,51.781928],[-3.319735,51.782082],[-3.319727,51.782128],[-3.319749,51.782203],[-3.319803,51.782308],[-3.319844,51.782376],[-3.319873,51.782407],[-3.319977,51.782495],[-3.320155,51.782641],[-3.320267,51.782735],[-3.320313,51.782778],[-3.320434,51.782899],[-3.320628,51.783098],[-3.320724,51.78322],[-3.320724,51.783265],[-3.320624,51.783368],[-3.320426,51.783529],[-3.32033,51.783631],[-3.320337,51.783673],[-3.320468,51.783784],[-3.320723,51.783962],[-3.320893,51.784065],[-3.320977,51.784094],[-3.321228,51.784132],[-3.321646,51.784181],[-3.321897,51.784218],[-3.32198,51.784243],[-3.322145,51.784332],[-3.322392,51.784483],[-3.32257,51.784573],[-3.32268,51.784602],[-3.323049,51.784657],[-3.323678,51.784737],[-3.324034,51.78479],[-3.324118,51.784816],[-3.324179,51.784895],[-3.324218,51.785025],[-3.324256,51.785099],[-3.324292,51.785117],[-3.324435,51.785133],[-3.324686,51.785145],[-3.324843,51.785136],[-3.324906,51.785105],[-3.325066,51.784957],[-3.325323,51.784692],[-3.325488,51.784541],[-3.325561,51.784503],[-3.32576,51.784466],[-3.326085,51.784429],[-3.326285,51.78442],[-3.326361,51.784438],[-3.326539,51.784543],[-3.32682,51.784732],[-3.32701,51.784846],[-3.327109,51.784887],[-3.327414,51.784975],[-3.327925,51.78511],[-3.328258,51.785181],[-3.328414,51.785187],[-3.328861,51.785148],[-3.329597,51.785064],[-3.330029,51.784986],[-3.330156,51.784914],[-3.33036,51.784634],[-3.330639,51.784146],[-3.330792,51.78385],[-3.330817,51.783747],[-3.33079,51.783527],[-3.330712,51.78319],[-3.330675,51.782987],[-3.330679,51.782917],[-3.330738,51.782772],[-3.330852,51.782552],[-3.330914,51.782409],[-3.330925,51.782344],[-3.330919,51.78216],[-3.330896,51.781859],[-3.330882,51.781684],[-3.330876,51.781637],[-3.330861,51.781573],[-3.330837,51.781492],[-3.330868,51.781433],[-3.330954,51.781393],[-3.331355,51.781257],[-3.332069,51.781023],[-3.332481,51.780877],[-3.33259,51.78082],[-3.332722,51.780678],[-3.332879,51.780453],[-3.332966,51.780315],[-3.332985,51.780265],[-3.33299,51.78015],[-3.332981,51.779971],[-3.332979,51.779867],[-3.332984,51.779837],[-3.333011,51.779791],[-3.33306,51.779731],[-3.33313,51.779691],[-3.33322,51.779674],[-3.333601,51.779627],[-3.334273,51.77955],[-3.334654,51.779492],[-3.334746,51.779452],[-3.334823,51.779311],[-3.334885,51.779069],[-3.334934,51.778919],[-3.33497,51.778861],[-3.3351,51.778722],[-3.335326,51.778503],[-3.335471,51.77837],[-3.335535,51.778323],[-3.335712,51.77822],[-3.336001,51.778063],[-3.336179,51.777969],[-3.336245,51.777939],[-3.336401,51.777882],[-3.336645,51.777799],[-3.336823,51.777749],[-3.336936,51.777733],[-3.337321,51.777701],[-3.337979,51.777653],[-3.338351,51.777616],[-3.338435,51.777591],[-3.338488,51.777501],[-3.338509,51.777347],[-3.338527,51.777245],[-3.33854,51.777197],[-3.338591,51.777057],[-3.338678,51.776826],[-3.338722,51.776687],[-3.338722,51.77664],[-3.338678,51.776546],[-3.338591,51.776404],[-3.338537,51.77632],[-3.338515,51.776295],[-3.338462,51.776253],[-3.338377,51.776193],[-3.338365,51.77615],[-3.338427,51.776122],[-3.338747,51.776027],[-3.339326,51.775863],[-3.339667,51.775763],[-3.33977,51.775725],[-3.339947,51.775637],[-3.340196,51.775497],[-3.340337,51.775406],[-3.340369,51.775363],[-3.340387,51.775237],[-3.340392,51.775029],[-3.340393,51.774904],[-3.340388,51.774861],[-3.340366,51.774773],[-3.340326,51.774639],[-3.340331,51.774539],[-3.340381,51.774471],[-3.340625,51.774234],[-3.341063,51.773828],[-3.341306,51.773576],[-3.341353,51.77348],[-3.341344,51.773249],[-3.341279,51.772883],[-3.341209,51.772669],[-3.341135,51.772609],[-3.340834,51.772519],[-3.340305,51.7724],[-3.339975,51.772328],[-3.339845,51.772303],[-3.339521,51.772251],[-3.339005,51.772172],[-3.338637,51.772134],[-3.33842,51.772136],[-3.337698,51.772187],[-3.336473,51.772286],[-3.335713,51.772351],[-3.335417,51.772383],[-3.334699,51.772479],[-3.333559,51.772637],[-3.332901,51.772733],[-3.332727,51.772767],[-3.332511,51.77284],[-3.332253,51.772953],[-3.33211,51.773021],[-3.33208,51.773045],[-3.332078,51.773097],[-3.332102,51.773177],[-3.332082,51.773225],[-3.33202,51.773241],[-3.331727,51.773272],[-3.331203,51.773318],[-3.330874,51.773342],[-3.33074,51.773344],[-3.330399,51.773327],[-3.329851,51.773293],[-3.329522,51.77328],[-3.329412,51.773287],[-3.329192,51.773338],[-3.328861,51.773431],[-3.32867,51.773493],[-3.328618,51.773525],[-3.328587,51.773551],[-3.328576,51.773572],[-3.328517,51.773579],[-3.32841,51.773573],[-3.32823,51.773573],[-3.327977,51.773579],[-3.327728,51.773597],[-3.327482,51.773625],[-3.327238,51.773664],[-3.326999,51.773714],[-3.326758,51.77376],[-3.326516,51.773803],[-3.326277,51.773857],[-3.326041,51.773921],[-3.325807,51.773989],[-3.325574,51.774061],[-3.325364,51.774152],[-3.325179,51.774263],[-3.325036,51.774392],[-3.324934,51.774538],[-3.324883,51.774668],[-3.324882,51.774782],[-3.324845,51.774838],[-3.324774,51.774834],[-3.324689,51.774844],[-3.324592,51.774865],[-3.324461,51.774975],[-3.324296,51.775174],[-3.324235,51.77529],[-3.324275,51.775323],[-3.324541,51.775374],[-3.325032,51.775442],[-3.325307,51.775495],[-3.325366,51.775534],[-3.325386,51.775671],[-3.325368,51.775908],[-3.325377,51.776053],[-3.325415,51.776104],[-3.325594,51.776214],[-3.325914,51.776385],[-3.326109,51.776489],[-3.326178,51.776526],[-3.326333,51.776607],[-3.326572,51.776732],[-3.326694,51.776813],[-3.3267,51.77685],[-3.326605,51.776956],[-3.326411,51.77713],[-3.326271,51.777228],[-3.326184,51.777248],[-3.325893,51.777252],[-3.325396,51.77724],[-3.325099,51.77722],[-3.325001,51.777193],[-3.32481,51.777078],[-3.324526,51.776876],[-3.324364,51.776752],[-3.324325,51.776706],[-3.324292,51.776602],[-3.324266,51.776439],[-3.324236,51.776344],[-3.324203,51.776317],[-3.324066,51.776275],[-3.323825,51.77622],[-3.323669,51.776183],[-3.323596,51.776166],[-3.32339,51.776114],[-3.323051,51.776028],[-3.322835,51.775981],[-3.322743,51.775973],[-3.322498,51.775978],[-3.3221,51.775996],[-3.321876,51.77601],[-3.321826,51.776021],[-3.3218,51.776061],[-3.321798,51.77613],[-3.321798,51.776168],[-3.321799,51.776173],[-3.321638,51.776176],[-3.321315,51.776176],[-3.321034,51.776201],[-3.320794,51.776251],[-3.320596,51.776341],[-3.320441,51.776471],[-3.320299,51.776603],[-3.320169,51.776738],[-3.319978,51.776809],[-3.319725,51.776815],[-3.319519,51.776756],[-3.319361,51.776632],[-3.319153,51.776547],[-3.318897,51.776502],[-3.318644,51.776467],[-3.318394,51.776443],[-3.318259,51.776432],[-3.318238,51.776433],[-3.318214,51.776398]]]}}