{"type":"Feature","properties":{"id":"620455","COMMUNE":"Powys","PROVINCE":"Powys","COUNTRY":"UK","FIREDATE":"2026-08-09 00:00:00","FINALDATE":"2026-08-12 00:00:00","CLASS":"FireSeason","areaHA_geo":4.11},"geometry":{"type":"Polygon","coordinates":[[[-3.18797,51.846239],[-3.188148,51.846296],[-3.18832,51.846351],[-3.188488,51.846404],[-3.188659,51.846453],[-3.188834,51.8465],[-3.189055,51.846538],[-3.189324,51.846568],[-3.189549,51.846603],[-3.18973,51.846643],[-3.189908,51.846684],[-3.190081,51.846725],[-3.190261,51.846743],[-3.190447,51.846739],[-3.190555,51.84668],[-3.190584,51.846566],[-3.190589,51.84645],[-3.190572,51.846331],[-3.19063,51.846211],[-3.190765,51.846091],[-3.190912,51.846],[-3.191072,51.845938],[-3.191216,51.845864],[-3.191342,51.845778],[-3.191429,51.845677],[-3.191475,51.845562],[-3.191486,51.845447],[-3.191461,51.845335],[-3.191393,51.845224],[-3.19128,51.845115],[-3.191142,51.845026],[-3.190978,51.844957],[-3.19081,51.844901],[-3.190636,51.84486],[-3.190455,51.844823],[-3.190267,51.844789],[-3.190068,51.844782],[-3.189858,51.8448],[-3.189657,51.844845],[-3.189464,51.844916],[-3.189282,51.844981],[-3.189111,51.845039],[-3.188937,51.845083],[-3.188758,51.845114],[-3.188577,51.845137],[-3.188394,51.845153],[-3.188209,51.845146],[-3.188021,51.845118],[-3.18783,51.845106],[-3.187635,51.845112],[-3.187496,51.845172],[-3.187414,51.845286],[-3.1875,51.84556],[-3.187754,51.845994],[-3.18797,51.846239]]]}}