{"type":"Feature","properties":{"id":"627030","COMMUNE":"Sheffield","PROVINCE":"Sheffield","COUNTRY":"UK","FIREDATE":"2026-08-12 00:00:00","FINALDATE":"2026-08-13 00:00:00","CLASS":"FireSeason","areaHA_geo":2.432},"geometry":{"type":"Polygon","coordinates":[[[-1.6516,53.4298],[-1.651824,53.429778],[-1.652047,53.429789],[-1.652267,53.429833],[-1.652485,53.429887],[-1.652699,53.429951],[-1.652924,53.429991],[-1.653159,53.430008],[-1.653382,53.429983],[-1.653594,53.429917],[-1.653718,53.42981],[-1.653754,53.429663],[-1.653683,53.429543],[-1.653504,53.429449],[-1.653317,53.429366],[-1.653121,53.429294],[-1.652979,53.429194],[-1.652889,53.429065],[-1.652836,53.428934],[-1.65282,53.428798],[-1.652733,53.428679],[-1.652573,53.428577],[-1.6524,53.428487],[-1.652214,53.428407],[-1.652041,53.428316],[-1.651882,53.428214],[-1.651692,53.428141],[-1.651471,53.428097],[-1.651261,53.428108],[-1.651059,53.428173],[-1.650933,53.428273],[-1.650883,53.428408],[-1.650876,53.428543],[-1.650913,53.428676],[-1.650934,53.428814],[-1.650941,53.428957],[-1.650957,53.429096],[-1.650983,53.42923],[-1.651119,53.429426],[-1.651365,53.429682],[-1.6516,53.4298]]]}}