{"type":"Feature","properties":{"id":"627415","COMMUNE":"Neath Port Talbot","PROVINCE":"Neath Port Talbot","COUNTRY":"UK","FIREDATE":"2026-08-12 00:00:00","FINALDATE":"2026-08-13 00:00:00","CLASS":"FireSeason","areaHA_geo":34.905},"geometry":{"type":"Polygon","coordinates":[[[-3.737841,51.580143],[-3.737883,51.580138],[-3.73845,51.580036],[-3.739066,51.57991],[-3.739696,51.579924],[-3.740169,51.580167],[-3.740658,51.580462],[-3.741153,51.580685],[-3.741748,51.580862],[-3.742317,51.580953],[-3.742956,51.581089],[-3.743507,51.580935],[-3.743232,51.580597],[-3.742764,51.580371],[-3.742274,51.580164],[-3.741739,51.579999],[-3.741261,51.579738],[-3.740964,51.579421],[-3.74085,51.579046],[-3.740625,51.578685],[-3.74046,51.578334],[-3.740241,51.57799],[-3.739917,51.577676],[-3.739422,51.577452],[-3.738814,51.577419],[-3.7382,51.577368],[-3.737621,51.577243],[-3.736983,51.577019],[-3.736449,51.576853],[-3.735867,51.576904],[-3.735294,51.577078],[-3.734744,51.577231],[-3.734133,51.577374],[-3.733546,51.577408],[-3.732994,51.57728],[-3.73246,51.577114],[-3.731866,51.57722],[-3.732003,51.577574],[-3.732168,51.577924],[-3.731932,51.57827],[-3.731892,51.578336],[-3.731086,51.578481],[-3.730233,51.578705],[-3.729401,51.578993],[-3.728815,51.579661],[-3.728478,51.580706],[-3.728721,51.581357],[-3.729545,51.581613],[-3.730404,51.581837],[-3.731297,51.58203],[-3.732196,51.5821],[-3.733101,51.582048],[-3.733944,51.581866],[-3.734727,51.581556],[-3.735583,51.581346],[-3.736515,51.581235],[-3.737393,51.581022],[-3.738217,51.580707],[-3.738265,51.580362],[-3.737841,51.580143]]]}}