{"type":"Feature","properties":{"id":"627417","COMMUNE":"Torfaen","PROVINCE":"Torfaen","COUNTRY":"UK","FIREDATE":"2026-08-13 00:00:00","FINALDATE":"2026-08-14 00:00:00","CLASS":"FireSeason","areaHA_geo":12.594},"geometry":{"type":"Polygon","coordinates":[[[-3.053957,51.758185],[-3.053931,51.758482],[-3.053824,51.758773],[-3.053636,51.75906],[-3.05354,51.75935],[-3.053536,51.759644],[-3.053719,51.759882],[-3.054089,51.760064],[-3.054447,51.760052],[-3.054794,51.759845],[-3.055026,51.759595],[-3.055144,51.759303],[-3.055323,51.759024],[-3.055563,51.75876],[-3.055854,51.758518],[-3.056197,51.758298],[-3.056477,51.758057],[-3.056694,51.757795],[-3.056888,51.757528],[-3.057058,51.757258],[-3.057203,51.756983],[-3.057325,51.756704],[-3.057482,51.756428],[-3.057674,51.756155],[-3.057817,51.755873],[-3.057914,51.755583],[-3.057931,51.755295],[-3.05787,51.755008],[-3.057723,51.754738],[-3.05749,51.754485],[-3.057289,51.754221],[-3.057118,51.753947],[-3.056829,51.753735],[-3.056423,51.753585],[-3.055987,51.753522],[-3.055519,51.753546],[-3.055043,51.753544],[-3.054559,51.753514],[-3.054424,51.753634],[-3.054639,51.753904],[-3.054832,51.754175],[-3.055002,51.75445],[-3.055016,51.754727],[-3.054872,51.755009],[-3.054776,51.755299],[-3.054728,51.755598],[-3.054612,51.755898],[-3.054428,51.756198],[-3.05424,51.756484],[-3.054049,51.756757],[-3.053957,51.757179],[-3.053966,51.757751],[-3.053957,51.758185]]]}}