{"type":"Feature","properties":{"id":"636269","COMMUNE":"Powys","PROVINCE":"Powys","COUNTRY":"UK","FIREDATE":"2026-08-14 00:00:00","FINALDATE":"2026-08-14 00:00:00","CLASS":"FireSeason","areaHA_geo":6.683},"geometry":{"type":"Polygon","coordinates":[[[-3.250078,51.814986],[-3.250269,51.81494],[-3.250457,51.814883],[-3.250642,51.814814],[-3.250815,51.81474],[-3.250977,51.814661],[-3.251137,51.814577],[-3.251296,51.814486],[-3.251449,51.814394],[-3.251597,51.814299],[-3.25175,51.814206],[-3.251908,51.814116],[-3.252068,51.814028],[-3.252228,51.813944],[-3.252378,51.813855],[-3.252516,51.813761],[-3.252646,51.813658],[-3.25277,51.813548],[-3.252894,51.813441],[-3.253019,51.813336],[-3.253157,51.813242],[-3.253308,51.813159],[-3.253456,51.813066],[-3.253602,51.812966],[-3.253733,51.812863],[-3.253848,51.81276],[-3.253902,51.812645],[-3.253894,51.81252],[-3.253831,51.812407],[-3.253713,51.812306],[-3.253574,51.812216],[-3.253414,51.812138],[-3.253233,51.812086],[-3.25303,51.812061],[-3.25282,51.812046],[-3.252604,51.81204],[-3.252379,51.812039],[-3.252145,51.812041],[-3.251916,51.812043],[-3.251692,51.812045],[-3.251477,51.812045],[-3.251272,51.812044],[-3.251063,51.812047],[-3.25085,51.812053],[-3.250627,51.812061],[-3.250396,51.812069],[-3.25018,51.812084],[-3.249982,51.812107],[-3.249796,51.812155],[-3.249623,51.812229],[-3.249536,51.812329],[-3.249534,51.812456],[-3.249534,51.812585],[-3.249534,51.812718],[-3.249534,51.812847],[-3.249532,51.812974],[-3.249531,51.813101],[-3.24953,51.813227],[-3.249519,51.813355],[-3.249498,51.813484],[-3.249483,51.813612],[-3.249472,51.81374],[-3.249475,51.813866],[-3.249493,51.81399],[-3.249622,51.814292],[-3.249862,51.81477],[-3.250078,51.814986]]]}}