{"type":"Feature","properties":{"id":"636239","COMMUNE":"Powys","PROVINCE":"Powys","COUNTRY":"UK","FIREDATE":"2026-08-08 00:00:00","FINALDATE":"2026-08-17 00:00:00","CLASS":"FireSeason","areaHA_geo":700.885},"geometry":{"type":"Polygon","coordinates":[[[-3.198948,51.8123],[-3.198833,51.81232],[-3.198817,51.812103],[-3.198997,51.811615],[-3.19965,51.811386],[-3.20035,51.811195],[-3.201098,51.811044],[-3.201827,51.810828],[-3.202054,51.81038],[-3.202025,51.809917],[-3.201717,51.809485],[-3.201247,51.809116],[-3.20084,51.808717],[-3.200364,51.808327],[-3.19986,51.807962],[-3.199174,51.807595],[-3.198461,51.807742],[-3.197815,51.807993],[-3.19747,51.80841],[-3.197001,51.808774],[-3.196656,51.809191],[-3.196429,51.809639],[-3.196277,51.810101],[-3.196021,51.810575],[-3.195489,51.810968],[-3.195068,51.811372],[-3.194799,51.811802],[-3.194724,51.812277],[-3.194962,51.812717],[-3.195294,51.813025],[-3.194921,51.813689],[-3.19457,51.813774],[-3.192149,51.813772],[-3.191697,51.813799],[-3.190506,51.814016],[-3.190252,51.814125],[-3.189413,51.814773],[-3.189335,51.814923],[-3.189544,51.81548],[-3.189525,51.815641],[-3.189159,51.816374],[-3.189122,51.816551],[-3.18919,51.817234],[-3.189084,51.817405],[-3.188166,51.81809],[-3.187961,51.818099],[-3.187242,51.817489],[-3.187047,51.81738],[-3.186207,51.817116],[-3.185971,51.817094],[-3.184921,51.817185],[-3.184638,51.817231],[-3.18342,51.817507],[-3.18316,51.817616],[-3.182305,51.81821],[-3.182217,51.818366],[-3.182363,51.819012],[-3.182369,51.819164],[-3.182267,51.819728],[-3.182246,51.819846],[-3.18218,51.820227],[-3.182244,51.82037],[-3.182829,51.821133],[-3.183036,51.821321],[-3.184106,51.822057],[-3.184358,51.822225],[-3.185302,51.822837],[-3.185396,51.823006],[-3.185212,51.823746],[-3.185047,51.823927],[-3.183912,51.824636],[-3.183674,51.824798],[-3.182905,51.825382],[-3.182941,51.825503],[-3.183995,51.825881],[-3.184278,51.825984],[-3.185427,51.826406],[-3.185961,51.826291],[-3.186204,51.826336],[-3.186801,51.826987],[-3.186886,51.827123],[-3.186969,51.827556],[-3.186914,51.827652],[-3.186385,51.827988],[-3.186219,51.828069],[-3.185414,51.828381],[-3.185202,51.82844],[-3.184306,51.828597],[-3.184132,51.828651],[-3.183631,51.828929],[-3.183582,51.82899],[-3.183689,51.829199],[-3.18378,51.829278],[-3.1844,51.829706],[-3.184678,51.829812],[-3.186284,51.830239],[-3.186539,51.830347],[-3.186971,51.830782],[-3.186999,51.830863],[-3.186794,51.83108],[-3.186656,51.831123],[-3.185753,51.831253],[-3.185488,51.831286],[-3.184273,51.831424],[-3.184077,51.83137],[-3.183729,51.830801],[-3.183386,51.830626],[-3.180986,51.829791],[-3.180437,51.829757],[-3.178449,51.830313],[-3.178157,51.830426],[-3.177811,51.830769],[-3.177665,51.830768],[-3.176843,51.830419],[-3.176661,51.830353],[-3.176026,51.830176],[-3.175887,51.830181],[-3.175414,51.830401],[-3.175367,51.830468],[-3.175462,51.830789],[-3.175572,51.830915],[-3.176358,51.8316],[-3.17645,51.831721],[-3.176399,51.832003],[-3.176403,51.832072],[-3.176482,51.832339],[-3.176809,51.832496],[-3.179343,51.833481],[-3.179803,51.833726],[-3.180944,51.834703],[-3.181127,51.834866],[-3.181447,51.835189],[-3.18162,51.835263],[-3.182686,51.835529],[-3.18276,51.835628],[-3.182287,51.836151],[-3.182222,51.836273],[-3.182176,51.83672],[-3.182314,51.836791],[-3.183471,51.836909],[-3.183654,51.836999],[-3.183967,51.837599],[-3.184068,51.837771],[-3.184567,51.838544],[-3.18475,51.838672],[-3.185722,51.838921],[-3.185865,51.838988],[-3.186039,51.839273],[-3.186173,51.839442],[-3.187075,51.840515],[-3.187274,51.840657],[-3.187964,51.840717],[-3.188171,51.840904],[-3.189137,51.842343],[-3.189229,51.842616],[-3.189001,51.843361],[-3.188924,51.84348],[-3.188538,51.84369],[-3.18843,51.843761],[-3.187953,51.844119],[-3.187886,51.844233],[-3.187827,51.844793],[-3.187947,51.844949],[-3.188238,51.845147],[-3.188394,51.845153],[-3.188577,51.845137],[-3.188758,51.845114],[-3.188937,51.845083],[-3.189111,51.845039],[-3.189282,51.844981],[-3.189464,51.844916],[-3.189657,51.844845],[-3.189858,51.8448],[-3.190068,51.844782],[-3.190267,51.844789],[-3.190455,51.844823],[-3.190636,51.84486],[-3.19081,51.844901],[-3.190978,51.844957],[-3.191142,51.845026],[-3.19128,51.845115],[-3.191393,51.845224],[-3.191461,51.845335],[-3.191486,51.845447],[-3.191475,51.845562],[-3.191429,51.845677],[-3.191342,51.845778],[-3.191216,51.845864],[-3.191072,51.845938],[-3.190912,51.846],[-3.190765,51.846091],[-3.19063,51.846211],[-3.190572,51.846331],[-3.190576,51.846356],[-3.191511,51.846754],[-3.192087,51.846877],[-3.194541,51.846945],[-3.19514,51.846955],[-3.197477,51.846967],[-3.197902,51.846811],[-3.198965,51.845557],[-3.199392,51.845257],[-3.201742,51.844106],[-3.202373,51.843851],[-3.205071,51.842965],[-3.205723,51.842819],[-3.208241,51.842533],[-3.209356,51.842474],[-3.215762,51.842287],[-3.216806,51.842216],[-3.218755,51.841829],[-3.218941,51.841663],[-3.218481,51.840719],[-3.218406,51.840507],[-3.218271,51.839748],[-3.218296,51.839551],[-3.218638,51.838739],[-3.218575,51.838566],[-3.217734,51.837998],[-3.217536,51.837882],[-3.216802,51.837523],[-3.216631,51.837252],[-3.216004,51.835443],[-3.215914,51.835101],[-3.215817,51.834172],[-3.215665,51.833961],[-3.214542,51.833203],[-3.21431,51.833005],[-3.21357,51.832177],[-3.213385,51.832007],[-3.212646,51.831483],[-3.212598,51.83134],[-3.212952,51.830719],[-3.212992,51.830552],[-3.212959,51.829837],[-3.21289,51.829679],[-3.212368,51.82913],[-3.212278,51.829016],[-3.21208,51.828651],[-3.212124,51.828459],[-3.212672,51.827284],[-3.212808,51.826839],[-3.213356,51.824454],[-3.213429,51.823983],[-3.213466,51.822596],[-3.213301,51.822155],[-3.211948,51.820014],[-3.211696,51.8196],[-3.211035,51.818431],[-3.210815,51.818183],[-3.209721,51.817367],[-3.209545,51.81719],[-3.209233,51.816589],[-3.209091,51.816358],[-3.208272,51.81511],[-3.208048,51.814978],[-3.207074,51.815172],[-3.206866,51.815244],[-3.206172,51.815627],[-3.205901,51.815657],[-3.204426,51.81552],[-3.204131,51.815471],[-3.203247,51.815212],[-3.202886,51.815128],[-3.200881,51.814719],[-3.20069,51.814548],[-3.201166,51.813581],[-3.201197,51.813402],[-3.200967,51.81293],[-3.201037,51.812673],[-3.201167,51.81241],[-3.199033,51.812225],[-3.198948,51.8123]]]}}