{"type":"Feature","properties":{"id":"636271","COMMUNE":"Caerphilly","PROVINCE":"Caerphilly","COUNTRY":"UK","FIREDATE":"2026-08-11 00:00:00","FINALDATE":"2026-08-14 00:00:00","CLASS":"FireSeason","areaHA_geo":20.813},"geometry":{"type":"Polygon","coordinates":[[[-3.183358,51.578299],[-3.183559,51.57822],[-3.183726,51.578128],[-3.183858,51.578024],[-3.183968,51.577911],[-3.184054,51.577787],[-3.184169,51.577676],[-3.184313,51.577578],[-3.184474,51.577484],[-3.184652,51.577394],[-3.184825,51.577308],[-3.184995,51.577225],[-3.185164,51.577143],[-3.185334,51.577061],[-3.18551,51.576984],[-3.185693,51.576912],[-3.185868,51.576832],[-3.186036,51.576744],[-3.186203,51.576655],[-3.186371,51.576567],[-3.186527,51.576473],[-3.186671,51.576374],[-3.186803,51.576268],[-3.186922,51.576153],[-3.187054,51.576047],[-3.187198,51.575948],[-3.187309,51.575838],[-3.187385,51.575715],[-3.18744,51.575589],[-3.187473,51.575459],[-3.187581,51.575358],[-3.187764,51.575287],[-3.187957,51.575233],[-3.18816,51.575197],[-3.188361,51.575152],[-3.188559,51.575098],[-3.188644,51.575006],[-3.188617,51.574877],[-3.188541,51.574759],[-3.188418,51.574653],[-3.188395,51.574539],[-3.188471,51.574416],[-3.188438,51.574303],[-3.188295,51.574199],[-3.188115,51.574125],[-3.187898,51.57408],[-3.18769,51.574031],[-3.187491,51.573978],[-3.187315,51.5739],[-3.187162,51.573797],[-3.186998,51.573705],[-3.186821,51.573624],[-3.186653,51.573539],[-3.186495,51.57345],[-3.186358,51.573348],[-3.186243,51.573235],[-3.186128,51.573122],[-3.186013,51.573008],[-3.185894,51.572899],[-3.185771,51.572793],[-3.185618,51.572706],[-3.185435,51.572638],[-3.185241,51.572619],[-3.185036,51.572649],[-3.18483,51.572678],[-3.184625,51.572708],[-3.184419,51.572735],[-3.184212,51.572758],[-3.184001,51.572769],[-3.183787,51.572769],[-3.183562,51.572769],[-3.183328,51.57277],[-3.183104,51.572786],[-3.182889,51.572817],[-3.182683,51.572862],[-3.182486,51.572923],[-3.182298,51.572992],[-3.182117,51.573069],[-3.181947,51.573151],[-3.181789,51.573239],[-3.181656,51.573339],[-3.181546,51.573453],[-3.181454,51.573571],[-3.181377,51.573693],[-3.181302,51.573819],[-3.181228,51.573947],[-3.181153,51.574073],[-3.181076,51.574195],[-3.181002,51.574324],[-3.180929,51.574458],[-3.180856,51.57459],[-3.180782,51.574718],[-3.180723,51.574848],[-3.18068,51.57498],[-3.180653,51.575112],[-3.180641,51.575246],[-3.180664,51.575376],[-3.180721,51.575503],[-3.180842,51.575599],[-3.181025,51.575667],[-3.1812,51.575742],[-3.181367,51.575824],[-3.181469,51.575929],[-3.181507,51.576058],[-3.181564,51.576184],[-3.181641,51.576308],[-3.181723,51.576431],[-3.18181,51.576554],[-3.181888,51.576678],[-3.181955,51.576803],[-3.182038,51.57693],[-3.182137,51.577057],[-3.182454,51.577426],[-3.18299,51.578035],[-3.183358,51.578299]]]}}