{"type":"Feature","properties":{"id":"636511","COMMUNE":"Blaenau Gwent","PROVINCE":"Blaenau Gwent","COUNTRY":"UK","FIREDATE":"2026-08-13 00:00:00","FINALDATE":"2026-08-15 00:00:00","CLASS":"FireSeason","areaHA_geo":17.357},"geometry":{"type":"Polygon","coordinates":[[[-3.271171,51.768079],[-3.27135,51.76803],[-3.27149,51.767905],[-3.271514,51.767749],[-3.271269,51.767719],[-3.271021,51.767718],[-3.270779,51.767695],[-3.270595,51.767592],[-3.270516,51.767448],[-3.270516,51.767288],[-3.270529,51.767134],[-3.270501,51.766962],[-3.2704,51.766821],[-3.27017,51.766759],[-3.269992,51.766874],[-3.269942,51.767026],[-3.269986,51.767174],[-3.270033,51.767328],[-3.270065,51.767478],[-3.270086,51.767628],[-3.270082,51.767676],[-3.270073,51.767782],[-3.270049,51.767938],[-3.269916,51.768084],[-3.269682,51.768133],[-3.269485,51.768116],[-3.269428,51.768111],[-3.269214,51.768026],[-3.269028,51.767916],[-3.268959,51.767764],[-3.268997,51.767614],[-3.26906,51.767468],[-3.269123,51.767323],[-3.269101,51.767173],[-3.268957,51.767043],[-3.26889,51.766898],[-3.268891,51.766807],[-3.268892,51.766745],[-3.268979,51.766604],[-3.269068,51.766426],[-3.269104,51.766269],[-3.269083,51.766119],[-3.269036,51.765964],[-3.268968,51.765812],[-3.268859,51.765694],[-3.268846,51.76568],[-3.268701,51.765551],[-3.268515,51.765441],[-3.268268,51.765404],[-3.26804,51.76535],[-3.267826,51.765265],[-3.267614,51.765187],[-3.267371,51.765164],[-3.267142,51.765226],[-3.267188,51.765381],[-3.267255,51.765526],[-3.267217,51.765676],[-3.267003,51.765752],[-3.266749,51.76573],[-3.26652,51.765792],[-3.26638,51.765917],[-3.266358,51.76608],[-3.266322,51.766237],[-3.266355,51.766386],[-3.266477,51.766518],[-3.266633,51.766646],[-3.266817,51.766749],[-3.267001,51.766851],[-3.267122,51.766983],[-3.267276,51.767104],[-3.26752,51.767171],[-3.267631,51.767181],[-3.267712,51.767234],[-3.267793,51.767293],[-3.267821,51.767339],[-3.267795,51.767372],[-3.267779,51.767427],[-3.267772,51.767504],[-3.267774,51.767581],[-3.267785,51.767656],[-3.267791,51.767746],[-3.267793,51.767852],[-3.267791,51.767943],[-3.267784,51.768021],[-3.267771,51.768097],[-3.267752,51.768172],[-3.26773,51.768247],[-3.267706,51.768323],[-3.267671,51.768396],[-3.267627,51.768467],[-3.26759,51.768541],[-3.26756,51.768617],[-3.26753,51.768695],[-3.267501,51.768775],[-3.267471,51.768853],[-3.26744,51.76893],[-3.267411,51.769021],[-3.267383,51.769126],[-3.267372,51.769217],[-3.267376,51.769283],[-3.267319,51.769351],[-3.267281,51.769439],[-3.26728,51.769531],[-3.267338,51.76963],[-3.267411,51.769709],[-3.267517,51.769776],[-3.267573,51.769871],[-3.267528,51.769959],[-3.267388,51.769988],[-3.267231,51.769962],[-3.267093,51.77],[-3.26701,51.77008],[-3.266972,51.770167],[-3.266964,51.77026],[-3.26699,51.77033],[-3.266904,51.770376],[-3.266834,51.770425],[-3.266757,51.770475],[-3.266672,51.770528],[-3.266515,51.770727],[-3.266284,51.771074],[-3.266223,51.771247],[-3.266333,51.771247],[-3.26644,51.771246],[-3.266476,51.771245],[-3.266489,51.771335],[-3.266517,51.771462],[-3.266506,51.771593],[-3.266452,51.771717],[-3.266365,51.771864],[-3.266294,51.771996],[-3.266273,51.772128],[-3.26633,51.772252],[-3.266496,51.772338],[-3.266699,51.772377],[-3.266918,51.772371],[-3.267124,51.772354],[-3.267292,51.772279],[-3.267263,51.772146],[-3.267305,51.772017],[-3.267516,51.772018],[-3.267672,51.772105],[-3.267768,51.772224],[-3.267707,51.772355],[-3.267507,51.772428],[-3.267403,51.772551],[-3.267499,51.77267],[-3.267577,51.772798],[-3.267744,51.772884],[-3.267938,51.77293],[-3.268133,51.772976],[-3.268338,51.772959],[-3.268518,51.772889],[-3.268726,51.772809],[-3.268746,51.772677],[-3.268733,51.77253],[-3.268754,51.772397],[-3.268846,51.772269],[-3.26895,51.772145],[-3.269131,51.772013],[-3.269286,51.771927],[-3.26944,51.771835],[-3.269559,51.771729],[-3.269643,51.771608],[-3.269767,51.771482],[-3.269859,51.771354],[-3.269889,51.77122],[-3.269886,51.771177],[-3.269901,51.77117],[-3.26998,51.771126],[-3.270055,51.771077],[-3.270129,51.771021],[-3.2702,51.770957],[-3.27027,51.7709],[-3.270339,51.770849],[-3.270409,51.770796],[-3.270477,51.770742],[-3.270544,51.77069],[-3.270609,51.77064],[-3.270671,51.770588],[-3.27073,51.770535],[-3.270791,51.770479],[-3.270853,51.770419],[-3.270914,51.770363],[-3.270973,51.77031],[-3.271026,51.770253],[-3.271072,51.770192],[-3.271111,51.770128],[-3.27114,51.77006],[-3.271173,51.769993],[-3.271208,51.769927],[-3.27125,51.769866],[-3.271297,51.769808],[-3.271348,51.769751],[-3.271401,51.769696],[-3.271452,51.769639],[-3.271499,51.769581],[-3.271539,51.769522],[-3.27157,51.769459],[-3.271546,51.76941],[-3.271613,51.769375],[-3.271706,51.769303],[-3.27175,51.769215],[-3.271823,51.769101],[-3.271831,51.769008],[-3.271737,51.768931],[-3.271597,51.76889],[-3.271479,51.768829],[-3.271411,51.768744],[-3.271391,51.768628],[-3.271404,51.76853],[-3.271398,51.768438],[-3.271377,51.768344],[-3.271323,51.768258],[-3.271253,51.768165],[-3.27118,51.768086],[-3.271171,51.768079]]]}}