{"type":"Feature","properties":{"id":"636671","COMMUNE":"Rhondda, Cynon, Taff","PROVINCE":"Rhondda, Cynon, Taff","COUNTRY":"UK","FIREDATE":"2026-08-15 00:00:00","FINALDATE":"2026-08-16 00:00:00","CLASS":"FireSeason","areaHA_geo":9.398},"geometry":{"type":"Polygon","coordinates":[[[-3.522148,51.673696],[-3.522306,51.673601],[-3.522463,51.673503],[-3.522619,51.673402],[-3.522766,51.673313],[-3.522903,51.673237],[-3.523046,51.673162],[-3.523193,51.67309],[-3.523358,51.673063],[-3.523541,51.67308],[-3.523669,51.673148],[-3.52374,51.673266],[-3.523789,51.673381],[-3.523814,51.673494],[-3.523839,51.673607],[-3.523864,51.673719],[-3.523915,51.673829],[-3.523992,51.673936],[-3.524107,51.674021],[-3.52426,51.674086],[-3.524417,51.674148],[-3.524577,51.674206],[-3.524737,51.674207],[-3.524898,51.67415],[-3.524979,51.674063],[-3.524979,51.673947],[-3.524912,51.673842],[-3.524777,51.673748],[-3.524655,51.673655],[-3.524547,51.673563],[-3.524474,51.673456],[-3.524437,51.673333],[-3.524423,51.673214],[-3.524433,51.673097],[-3.524461,51.672984],[-3.524507,51.672874],[-3.524465,51.672777],[-3.524333,51.672693],[-3.52419,51.672619],[-3.524037,51.672554],[-3.52393,51.672465],[-3.523868,51.672351],[-3.523807,51.672237],[-3.523746,51.672123],[-3.523635,51.672036],[-3.523475,51.671978],[-3.523303,51.671954],[-3.523119,51.671964],[-3.522941,51.671993],[-3.522768,51.672041],[-3.522603,51.672024],[-3.522445,51.671944],[-3.522328,51.67185],[-3.522251,51.671743],[-3.522183,51.671636],[-3.522123,51.671527],[-3.522024,51.671434],[-3.521885,51.671357],[-3.521728,51.671295],[-3.521554,51.671249],[-3.521374,51.671215],[-3.521189,51.671192],[-3.521008,51.671167],[-3.52083,51.671138],[-3.520648,51.67111],[-3.520461,51.671082],[-3.520272,51.67106],[-3.52008,51.671044],[-3.519896,51.671021],[-3.519718,51.670992],[-3.519536,51.670967],[-3.519351,51.670944],[-3.519148,51.670921],[-3.518928,51.670897],[-3.518726,51.670876],[-3.518542,51.670859],[-3.518354,51.670826],[-3.518161,51.670777],[-3.517973,51.670727],[-3.517788,51.670677],[-3.517607,51.670638],[-3.517429,51.670609],[-3.517293,51.670644],[-3.517198,51.670743],[-3.517169,51.670851],[-3.517204,51.670968],[-3.517268,51.671076],[-3.51736,51.671176],[-3.517449,51.671278],[-3.517535,51.671384],[-3.517625,51.671492],[-3.517721,51.671602],[-3.517819,51.671706],[-3.51792,51.671804],[-3.518025,51.6719],[-3.518133,51.671992],[-3.518245,51.672083],[-3.518361,51.672174],[-3.518486,51.672262],[-3.518618,51.672345],[-3.518754,51.672429],[-3.518895,51.672511],[-3.519039,51.672591],[-3.519187,51.672667],[-3.519343,51.67274],[-3.519506,51.672809],[-3.519664,51.672876],[-3.519818,51.672941],[-3.519967,51.673009],[-3.520113,51.67308],[-3.52026,51.673151],[-3.520406,51.673222],[-3.520553,51.673296],[-3.520701,51.673372],[-3.520836,51.673453],[-3.52096,51.673537],[-3.521088,51.673621],[-3.52122,51.673705],[-3.521482,51.673746],[-3.521873,51.673745],[-3.522148,51.673696]]]}}