{"type":"Feature","properties":{"id":"651128","COMMUNE":"Caerphilly","PROVINCE":"Caerphilly","COUNTRY":"UK","FIREDATE":"2026-08-24 00:00:00","FINALDATE":"2026-08-24 00:00:00","CLASS":"FireSeason","areaHA_geo":5.141},"geometry":{"type":"Polygon","coordinates":[[[-3.258859,51.729861],[-3.258975,51.729933],[-3.259098,51.729993],[-3.259229,51.730041],[-3.259372,51.730069],[-3.259527,51.730078],[-3.259685,51.730083],[-3.259844,51.730083],[-3.260005,51.730087],[-3.260168,51.730095],[-3.260321,51.730111],[-3.260466,51.730135],[-3.260604,51.730171],[-3.260735,51.730219],[-3.260874,51.73027],[-3.261021,51.730325],[-3.261149,51.730389],[-3.261258,51.730462],[-3.261363,51.730535],[-3.261465,51.730609],[-3.261575,51.730675],[-3.261694,51.730733],[-3.261824,51.730743],[-3.261965,51.730705],[-3.262087,51.73065],[-3.26219,51.73058],[-3.262297,51.730512],[-3.262408,51.730446],[-3.262541,51.730406],[-3.262697,51.730392],[-3.262845,51.730402],[-3.262986,51.730436],[-3.263107,51.730487],[-3.263207,51.730556],[-3.263339,51.730595],[-3.263501,51.730604],[-3.263651,51.730584],[-3.26379,51.730537],[-3.263931,51.730487],[-3.264075,51.730435],[-3.264194,51.730368],[-3.264285,51.730285],[-3.264311,51.730199],[-3.264269,51.73011],[-3.264205,51.730027],[-3.264117,51.729952],[-3.264023,51.72988],[-3.263923,51.72981],[-3.263831,51.729736],[-3.263749,51.729655],[-3.263658,51.72958],[-3.263558,51.729511],[-3.263463,51.729439],[-3.263376,51.729364],[-3.263288,51.729288],[-3.2632,51.729213],[-3.263097,51.729146],[-3.262978,51.729088],[-3.262839,51.729048],[-3.262679,51.729026],[-3.262519,51.729024],[-3.262357,51.729042],[-3.262205,51.729068],[-3.262063,51.729103],[-3.261936,51.729153],[-3.261825,51.729219],[-3.261701,51.729276],[-3.261562,51.729323],[-3.26142,51.729333],[-3.261273,51.729305],[-3.261136,51.72926],[-3.261009,51.729198],[-3.260885,51.729136],[-3.260765,51.729073],[-3.260636,51.729018],[-3.260498,51.728971],[-3.260364,51.728924],[-3.260234,51.728876],[-3.260093,51.72884],[-3.25994,51.728817],[-3.259789,51.728796],[-3.259638,51.728778],[-3.259491,51.728783],[-3.259347,51.728813],[-3.259211,51.728856],[-3.259082,51.728911],[-3.258952,51.728964],[-3.258822,51.729014],[-3.258714,51.729078],[-3.258628,51.729155],[-3.25855,51.729236],[-3.258481,51.72932],[-3.258535,51.729478],[-3.258713,51.729709],[-3.258859,51.729861]]]}}